,lat_centre,long_centre,num_venues,venue_iter,venue_id,venue_name,lat_venue,long_venue,category
0,50.0755,14.435799999999999,3,0,5698d6f2498e29596112bdb0,Lan restaurace,50.07604,14.43548,Vietnamese Restaurant
1,50.0755,14.435799999999999,3,1,537b5a63498e9a76c5330aef,Praha,50.07493571447439,14.436619171401833,Chinese Restaurant
2,50.0755,14.435799999999999,3,2,521cf43111d2517ca4733ba5,Korean Grill,50.074612,14.435931,Korean Restaurant
3,50.076630464666195,14.434050345697868,6,0,4fface89e4b0a0306dbfd10e,Pho Vietnam Tuan & Lan,50.07671103289359,14.43321705152752,Vietnamese Restaurant
4,50.076630464666195,14.434050345697868,6,1,579cee4a498e472ea64cfe3a,PHUONG NAM,50.07635071790406,14.43283863523949,Vietnamese Restaurant
5,50.076630464666195,14.434050345697868,6,2,536d0814498e7b180d730bc7,Restaurant Caesar,50.07726365367657,14.433812744882243,Mediterranean Restaurant
6,50.076630464666195,14.434050345697868,6,3,5904c12935811b1b5138c67b,SOVA,50.07683631805836,14.433775601707625,Modern European Restaurant
7,50.076630464666195,14.434050345697868,6,4,53c7a59b498e6454bc26ecee,shusi Bar,50.0771598815918,14.43518352508545,Sushi Restaurant
8,50.076630464666195,14.434050345697868,6,5,5dcef9e90cd86e000896b2a8,Ritumei,50.07601,14.433134,Chinese Restaurant
9,50.0743695353338,14.434050345697868,8,0,5402dac1498e6193c285bbb5,Mr. Bánh Mì,50.0743306069842,14.434475805471276,Vietnamese Restaurant
10,50.0743695353338,14.434050345697868,8,1,5d0906db7b4669002b425dba,La Taquería,50.074277,14.434947,Taco Place
11,50.0743695353338,14.434050345697868,8,2,4b447cdaf964a5207ef525e3,Mezcal,50.07518551746593,14.43437417460934,Latin American Restaurant
12,50.0743695353338,14.434050345697868,8,3,51befb9b498e7e947c7c16c3,Tung Anh,50.074474,14.43446,Chinese Restaurant
13,50.0743695353338,14.434050345697868,8,4,5e306bf31951b900086c0e1d,Yangon,50.073913,14.433016,Thai Restaurant
14,50.0743695353338,14.434050345697868,8,5,4adcdaa2f964a5201e4e21e3,Restaurant Pepino,50.07476971519903,14.434980081079688,South American Restaurant
15,50.0743695353338,14.434050345697868,8,6,564e0dda498e236ed32433e3,Sofram,50.074106042775405,14.433667385250146,Turkish Restaurant
16,50.0743695353338,14.434050345697868,8,7,51a8804d498e5954ca64e640,Vietnamské bistro Tung Anh,50.07440801744884,14.43476225979748,Vietnamese Restaurant
17,50.076630464666195,14.43754965430213,10,0,5b508dcb82a75000397927a6,Ossegg,50.076559,14.438781,Brewery
18,50.076630464666195,14.43754965430213,10,1,5478bb33498e0c555a6dcad9,Everest,50.077163,14.437371,Indian Restaurant
19,50.076630464666195,14.43754965430213,10,2,4af47e99f964a52025f321e3,Aromi,50.07635204580547,14.436367934862215,Italian Restaurant
20,50.076630464666195,14.43754965430213,10,3,4ee87ce68b81f7a73dde8b50,Bistro Olympos,50.075898978331665,14.438074032417012,Greek Restaurant
21,50.076630464666195,14.43754965430213,10,4,5820815bded8f8466656ebea,Yuniku,50.075919,14.438052,Korean BBQ Restaurant
22,50.076630464666195,14.43754965430213,10,5,5c4348ba57a537002c1d0f46,BON,50.07626438854767,14.436621859553494,Ramen Restaurant
23,50.076630464666195,14.43754965430213,10,6,54119ac3498ea076467a0254,Aris,50.076247,14.43807,Asian Restaurant
24,50.076630464666195,14.43754965430213,10,7,53b2cfe4498eb1512227f758,Konec Konců restaurant,50.07668340094566,14.438652992248533,Czech Restaurant
25,50.076630464666195,14.43754965430213,10,8,5135ad41e4b0711007390064,Učebna 207,50.076883,14.438624,Caribbean Restaurant
26,50.076630464666195,14.43754965430213,10,9,57669d41498e0b22e95aa4d3,Lucky Luciano Ristorante,50.077021,14.436578,Italian Restaurant
27,50.0743695353338,14.43754965430213,6,0,52c1ce5911d2d1e4fd8950bb,Prague Beer Museum,50.074535598204015,14.436609952318054,Beer Bar
28,50.0743695353338,14.43754965430213,6,1,4af2de05f964a520dce821e3,Grosseto,50.07490942134842,14.437367189468985,Italian Restaurant
29,50.0743695353338,14.43754965430213,6,2,50a683f7e4b0cbed9ee10ff8,BLUE WAGON,50.07406869729935,14.438328945339064,Modern European Restaurant
30,50.0743695353338,14.43754965430213,6,3,512d176be4b0a4ac4ed415ba,Rumunská,50.07408142089844,14.436441421508789,Eastern European Restaurant
31,50.0743695353338,14.43754965430213,6,4,537b5a63498e9a76c5330aef,Praha,50.07493571447439,14.436619171401833,Chinese Restaurant
32,50.0743695353338,14.43754965430213,6,5,4f5cf56be4b070e0484db17e,U dvou kasparu,50.073590775768494,14.437494298758628,Eastern European Restaurant
33,50.0832390706676,14.417499961382266,8,0,5941a3c4ca18ea1bc5323fb1,Pohostinec Monarch,50.083848,14.418302,Czech Restaurant
34,50.0832390706676,14.417499961382266,8,1,4bc8b75f92b376b0af07523a,Konvikt,50.08322975952864,14.41793854893439,Pub
35,50.0832390706676,14.417499961382266,8,2,58f62a584acb19730a324e8f,The Street Restaurant & Cocktail Bar,50.083492272818056,14.416586315236708,Cocktail Bar
36,50.0832390706676,14.417499961382266,8,3,4bc59cb06c26b7135878ebf3,Golden Tikka,50.08346263509523,14.416457398501453,Indian Restaurant
37,50.0832390706676,14.417499961382266,8,4,4bc5ab265935c9b60329a6d2,U Dvou Ježků,50.08357417136466,14.416579304780011,Eastern European Restaurant
38,50.0832390706676,14.417499961382266,8,5,5238978a11d2e4789e03c852,Marea,50.0833854675293,14.416399955749512,Italian Restaurant
39,50.0832390706676,14.417499961382266,8,6,53623dcc498e81c99449b111,Čínská restaurace Smaragdová zahrada,50.083635,14.417987,Asian Restaurant
40,50.0832390706676,14.417499961382266,8,7,53de3c6d498ed284d5ec99b3,CzechChef,50.08362407318463,14.417966439098418,Czech Restaurant
41,50.0843695353338,14.415750024616829,7,0,5effc7a176618e271ccffc54,Cafe Latino,50.084005,14.416076,Mexican Restaurant
42,50.0843695353338,14.415750024616829,7,1,5cc07a64c876c8002cbe6187,Pivovar Staré město,50.084048,14.415591,Brewery
43,50.0843695353338,14.415750024616829,7,2,517aba94e4b092ae52073e67,Alriso Risotteria Italiana,50.08413857055779,14.416946619358121,Italian Restaurant
44,50.0843695353338,14.415750024616829,7,3,53c011a6498ebce2d79d81b8,Bistro Pho Viet Nam,50.08436226587455,14.415833992520966,Asian Restaurant
45,50.0843695353338,14.415750024616829,7,4,5171184de4b071aab92b079a,Bistro Vietnam,50.0842666920987,14.415772385403535,Vietnamese Restaurant
46,50.0843695353338,14.415750024616829,7,5,4b7be90df964a52048732fe3,Kardamon Klub,50.0842022895813,14.416696429252625,Middle Eastern Restaurant
47,50.0843695353338,14.415750024616829,7,6,53d21f59498eb6c951072667,Risotteria italiana,50.084121,14.416933,Italian Restaurant
48,50.082108606001405,14.415750024616829,7,0,560e4e1b498ec183e0ef7c09,Kozlovna U Paukerta,50.081889,14.416955,Czech Restaurant
49,50.082108606001405,14.415750024616829,7,1,4b3fc5ccf964a52068ae25e3,Restaurant Kabul,50.08230630997137,14.414862550710833,Afghan Restaurant
50,50.082108606001405,14.415750024616829,7,2,4d775c81a5d6ba7af5c3f360,U Rotundy,50.08266326576208,14.414669512470429,Pub
51,50.082108606001405,14.415750024616829,7,3,53daa2bb498e1ace62bb4dff,Restaurant & Club Planca,50.082685,14.41505,Indian Restaurant
52,50.082108606001405,14.415750024616829,7,4,4adcdaa1f964a520f64d21e3,Pod Křídlem Noci,50.081498,14.416581,Eastern European Restaurant
53,50.082108606001405,14.415750024616829,7,5,537ddf7e498e80a0544af382,Tandoori Dhaba,50.082654,14.415111,Indian Restaurant
54,50.082108606001405,14.415750024616829,7,6,5036226ee4b0088cc6247f3e,Pizza Coloseum,50.081481793580295,14.4150991933373,Italian Restaurant
55,50.0843695353338,14.419249898147703,17,0,5941a3c4ca18ea1bc5323fb1,Pohostinec Monarch,50.083848,14.418302,Czech Restaurant
56,50.0843695353338,14.419249898147703,17,1,4d89e93d5ecdf04d2aecb28a,Švejk restaurant U Zeleného stromu,50.08420979622776,14.418036192655562,Czech Restaurant
57,50.0843695353338,14.419249898147703,17,2,4adcda9bf964a520a84c21e3,U Vejvodů,50.08420038370784,14.418908793919469,Pub
58,50.0843695353338,14.419249898147703,17,3,5622555b498e37e2bd2aa95d,Il Palazzo Italian Restaurant,50.084755471254674,14.418335547744016,Italian Restaurant
59,50.0843695353338,14.419249898147703,17,4,50c35996e4b0c5b6f3d16dad,Pivoňkové zátiší,50.083842408268204,14.419045035015007,Chinese Restaurant
60,50.0843695353338,14.419249898147703,17,5,4fd76470e4b071eb3394bddc,U Tří zlatých lvů,50.08368925403645,14.41994048010859,Czech Restaurant
61,50.0843695353338,14.419249898147703,17,6,4dbafcba43a1d8504b636d3a,Sahar Ra,50.083779,14.420286,African Restaurant
62,50.0843695353338,14.419249898147703,17,7,4c9a1fedeaa5a1434b6bc9e4,Blatnice,50.08476493301898,14.419960112776769,Eastern European Restaurant
63,50.0843695353338,14.419249898147703,17,8,5d4da9bf1aa86d00075c03fb,Moment Bistro,50.08388,14.419055,Chinese Restaurant
64,50.0843695353338,14.419249898147703,17,9,5f0d8494aba68a2398199849,Thai Station,50.0837181,14.4198836,Thai Restaurant
65,50.0843695353338,14.419249898147703,17,10,4f291e19e4b0f07a95d18c27,Royal Bengal,50.084503173828125,14.418855667114258,Indian Restaurant
66,50.0843695353338,14.419249898147703,17,11,514d97b9e4b0ab03ff87f760,Kovnice,50.083628,14.419031,Eastern European Restaurant
67,50.0843695353338,14.419249898147703,17,12,4cd184a43e63721e791aa4cc,Le terroir,50.084614747137906,14.418872735677468,French Restaurant
68,50.0843695353338,14.419249898147703,17,13,56d89200498e1c789a22a77f,Pizza Pasta Break,50.084625,14.419415,Italian Restaurant
69,50.0843695353338,14.419249898147703,17,14,5b257260cad1b6002c6105b0,Rustique,50.084561,14.418831,Czech Restaurant
70,50.0843695353338,14.419249898147703,17,15,4ce6999eb99754811632f144,Le Quattro Stagioni,50.08439615537383,14.418828255721822,Italian Restaurant
71,50.0843695353338,14.419249898147703,17,16,5751bd52498eeb53593ea6b6,Vejvodovka,50.084488,14.419233,Czech Restaurant
72,50.082108606001405,14.419249898147703,17,0,4adcda9bf964a520994c21e3,U Medvídků,50.082798,14.41883,Gastropub
73,50.082108606001405,14.419249898147703,17,1,5948d6c675a6ea2d57e4ee2a,Vapiano,50.081517104441126,14.420081070011618,Italian Restaurant
74,50.082108606001405,14.419249898147703,17,2,50fd3a30e4b01d66679a219a,Burrito Loco,50.08131013752645,14.419405460357664,Burrito Place
75,50.082108606001405,14.419249898147703,17,3,5048da1be4b02a1c17b4e7ad,Pho Viet,50.0822816181656,14.418209614834574,Vietnamese Restaurant
76,50.082108606001405,14.419249898147703,17,4,59ca764f6cf01a14b8d583c9,Bombay Express,50.0815257549003,14.420235075793697,Indian Restaurant
77,50.082108606001405,14.419249898147703,17,5,5bbcee0ed807ee002cfc1574,Bistreet,50.0815125619908,14.419558194879594,Pizza Place
78,50.082108606001405,14.419249898147703,17,6,5d6015bff78b260008420066,Pilsnerka Národní,50.082146,14.418826,Beer Bar
79,50.082108606001405,14.419249898147703,17,7,5e58185dfd0227000787a56c,Pho 10,50.08212144863714,14.41903531551361,Vietnamese Restaurant
80,50.082108606001405,14.419249898147703,17,8,4b6ffa37f964a52013022de3,S'-čchuan,50.0824889742229,14.41833389909444,Chinese Restaurant
81,50.082108606001405,14.419249898147703,17,9,4c06a5242e80a5933d7074f9,Haškova restaurace U Brejšků,50.081477,14.419329,Gastropub
82,50.082108606001405,14.419249898147703,17,10,5c02d80b3092be00384eb877,Belgique,50.082056,14.418652,Belgian Restaurant
83,50.082108606001405,14.419249898147703,17,11,53919559498e3a275a9cc227,Buddha Thai Rooftop Lounge,50.08276695387944,14.41963910000345,Thai Restaurant
84,50.082108606001405,14.419249898147703,17,12,4f8d9e10e4b0194668c6e78f,Chuan wang fu,50.082051,14.418202,Chinese Restaurant
85,50.082108606001405,14.419249898147703,17,13,4dbd439d43a1d8504ba0eb7d,Klodi Pizzerie Ristauracr,50.082211,14.418298,Italian Restaurant
86,50.082108606001405,14.419249898147703,17,14,59ca2736610f040d4ad37dfa,Spicymama,50.08151693014095,14.420223579430363,Asian Restaurant
87,50.082108606001405,14.419249898147703,17,15,581b803bfa17e56b1d684672,Čínská Restaurace Po Sečuánsku,50.08241,14.418251,Chinese Restaurant
88,50.082108606001405,14.419249898147703,17,16,5ed690664e304500086f373c,My Wok & Sushi,50.0812997,14.4194292,Sushi Restaurant
89,50.0832390706676,14.424500038617733,12,0,4b76bac3f964a5201f5b2ee3,U Pinkasů,50.083234,14.423501,Czech Restaurant
90,50.0832390706676,14.424500038617733,12,1,4f6cea31e4b03b575bb6a982,U Balouna,50.0828956575198,14.424911539663164,Czech Restaurant
91,50.0832390706676,14.424500038617733,12,2,4d35770ac6cba35d86753c7a,Plzeňská Rychta,50.08355387343184,14.424487582797678,Czech Restaurant
92,50.0832390706676,14.424500038617733,12,3,4adcdaa3f964a520444e21e3,Triton Restaurant,50.08285784103644,14.42529426229606,French Restaurant
93,50.0832390706676,14.424500038617733,12,4,516939a8e4b0ee86aa34927d,Almadine,50.083685,14.42373,Eastern European Restaurant
94,50.0832390706676,14.424500038617733,12,5,5efa36e5b1d80c027a8a7722,U Zlaté pšenice,50.083256,14.424378,Czech Restaurant
95,50.0832390706676,14.424500038617733,12,6,572c8b62498eb7385b8e0beb,La Boutique de la Pizza,50.08346110221937,14.424680996920483,Italian Restaurant
96,50.0832390706676,14.424500038617733,12,7,526509fd11d2a6eabaf19e31,Yammy,50.083395685225085,14.424767680786875,Asian Restaurant
97,50.0832390706676,14.424500038617733,12,8,4b6ea50cf964a52016c52ce3,Kobe Restaurant,50.08327854092372,14.42523277944276,Steakhouse
98,50.0832390706676,14.424500038617733,12,9,5752c3a1498eb5968f0b4dd6,Restaurant O RALOUNA,50.083154,14.425206,Czech Restaurant
99,50.0832390706676,14.424500038617733,12,10,553e3eb1498e2e14d7447224,Dominicus,50.08270082522937,14.425477981567383,Czech Restaurant
100,50.0832390706676,14.424500038617733,12,11,4fb6a019e4b07a70ecf085bd,Triton Restaurant 1912,50.083058726067925,14.425873858442898,Modern European Restaurant
101,50.0843695353338,14.422750101852296,9,0,52f523bf498e8a164792e9d2,Kitchen Ramen Bar,50.083691858645246,14.422650478500671,Ramen Restaurant
102,50.0843695353338,14.422750101852296,9,1,557ae583498e218724443fe2,Il Gusto,50.084762467167174,14.421945888431237,Italian Restaurant
103,50.0843695353338,14.422750101852296,9,2,4c03971239d476b0fa4530a7,Pizza Coloseum,50.08406591990739,14.423753206275501,Pizza Place
104,50.0843695353338,14.422750101852296,9,3,56daccc5498e337ce399f813,Da Shi Jie,50.0841373024516,14.423464319181218,Chinese Restaurant
105,50.0843695353338,14.422750101852296,9,4,4c00e143360a9c74da0bd9a0,Restaurace U Veselé Basy,50.08473007568803,14.422539817524694,Czech Restaurant
106,50.0843695353338,14.422750101852296,9,5,53ec9e3b498eef14e3f37807,original czech restorant,50.0848850891877,14.422615651236626,Czech Restaurant
107,50.0843695353338,14.422750101852296,9,6,4dfd27f77d8b305080177548,Tři Safíry /Three Saphires/,50.084712,14.421727,Korean Restaurant
108,50.0843695353338,14.422750101852296,9,7,4c3ee0206faac9b6c6c40e76,Sushi sushi,50.08436047776399,14.421383347458796,Sushi Restaurant
109,50.0843695353338,14.422750101852296,9,8,5610da55498e4647a822da2c,Svejk restaurant,50.084092609016295,14.423484133808222,Czech Restaurant
110,50.082108606001405,14.422750101852296,5,0,5cfcddcae4c459002cece955,Národní 38,50.082463,14.421469,Café
111,50.082108606001405,14.422750101852296,5,1,5a3647d3c4df1d2b88c597ed,Pasha Restaurant,50.08169417536049,14.42224835851444,Turkish Restaurant
112,50.082108606001405,14.422750101852296,5,2,4c2ce3ee8ef52d7f5fa233ba,Ju Le Yuan,50.08191284602393,14.422356493438611,Chinese Restaurant
113,50.082108606001405,14.422750101852296,5,3,56ba0124498e6834d9ab98fb,Restaurace Filantrop,50.08215878545513,14.423712426075467,Czech Restaurant
114,50.082108606001405,14.422750101852296,5,4,4e450c5e18a8bafc629bc407,Macao&wok,50.08236829108392,14.42230347153199,Asian Restaurant
115,50.0843695353338,14.42624997538317,7,0,4f2fb6bee4b0124abac4a8e9,So pasta,50.08492120005464,14.42644430544243,Italian Restaurant
116,50.0843695353338,14.42624997538317,7,1,4d9d968ec593a1cde0d06219,Sindibád,50.084308,14.425973,Fast Food Restaurant
117,50.0843695353338,14.42624997538317,7,2,4f881f82e4b05ae887928e8c,Indian Restaurant,50.08371895953309,14.426971571049023,Indian Restaurant
118,50.0843695353338,14.42624997538317,7,3,515ea4f8498ef2a225e574b8,Wang Dong Sheng,50.08478085172653,14.425672814098371,Chinese Restaurant
119,50.0843695353338,14.42624997538317,7,4,55eec497498eb0d60764d446,Wei Yong,50.08425891210613,14.426307740620393,Chinese Restaurant
120,50.0843695353338,14.42624997538317,7,5,51431a59e4b0601fdc9674dc,Wang Dong Sheng,50.084891455718235,14.425612217746675,Chinese Restaurant
121,50.0843695353338,14.42624997538317,7,6,5ef22dbb431a6d0008114dab,La Patrona,50.084297,14.425684,Taco Place
122,50.082108606001405,14.42624997538317,6,0,5097afc8e4b079e23152cbe1,Xin Tian Hao Jiu Jia,50.08185870667279,14.425106337291174,Chinese Restaurant
123,50.082108606001405,14.42624997538317,6,1,51fb93ea498e1a05536bcd41,Hongshun,50.08153671474569,14.426525518758705,Chinese Restaurant
124,50.082108606001405,14.42624997538317,6,2,553e3eb1498e2e14d7447224,Dominicus,50.08270082522937,14.425477981567383,Czech Restaurant
125,50.082108606001405,14.42624997538317,6,3,4ef4c74193ad743f5faa9fe1,Sushi house,50.08149545991739,14.425758878470823,Sushi Restaurant
126,50.082108606001405,14.42624997538317,6,4,4b7fa31df964a520b23730e3,Duplex Restaurant,50.08238292891253,14.426504017576251,Italian Restaurant
127,50.082108606001405,14.42624997538317,6,5,4e7701c252b1c8e51a207c06,Hong Shun,50.08178416489819,14.426918899857917,Asian Restaurant
128,50.085499999999996,14.421,25,0,4b0e68fdf964a520705723e3,Havelská Koruna,50.085654612875175,14.421590333079086,Czech Restaurant
129,50.085499999999996,14.421,25,1,5346651f498e32df69ee5be1,Hooters,50.08564029999999,14.4218454,American Restaurant
130,50.085499999999996,14.421,25,2,4d790c75a56e3704899e7567,U Modré Kachničky II,50.08558636243365,14.419985474115162,Czech Restaurant
131,50.085499999999996,14.421,25,3,4adcdaa2f964a520284e21e3,Kogo Ristorante Havelská,50.085787835393695,14.422243251982445,Italian Restaurant
132,50.085499999999996,14.421,25,4,51cabb1e498eb0c32304aae9,Balkanská kuchyně,50.08500347064823,14.420384925330902,Eastern European Restaurant
133,50.085499999999996,14.421,25,5,58dbac87e6160c0156ca261c,Hi Viet,50.084933,14.42052,Vietnamese Restaurant
134,50.085499999999996,14.421,25,6,4f316546e4b0f99d8848b341,U Dvou Sester,50.08562024619085,14.420841412848524,Eastern European Restaurant
135,50.085499999999996,14.421,25,7,507d35c8e4b074e852d4f2a3,V Cípu,50.085804861079495,14.419904134824723,Czech Restaurant
136,50.085499999999996,14.421,25,8,4fd60360e4b08568eab13dba,Zebra,50.08520494325813,14.421343802192325,Noodle House
137,50.085499999999996,14.421,25,9,4ebd16cef790ce9dc8e3d7de,Le Cinque Corone,50.0856012712949,14.420820775970816,Italian Restaurant
138,50.085499999999996,14.421,25,10,4e12fa4ce4cdef074b8079e9,Straropramen Restaurant,50.0856242,14.4199606,Eastern European Restaurant
139,50.085499999999996,14.421,25,11,4df0c60845ddbf3897d36a2f,U dvou velbloudů,50.08607084130237,14.421041278103004,Czech Restaurant
140,50.085499999999996,14.421,25,12,4cfc08effeec6dcbce174a36,Hotel Melantrich,50.08523635911768,14.420746287561416,Hotel
141,50.085499999999996,14.421,25,13,53026b24498e6da3a8242c15,Krcma v satlavske ulici,50.08573,14.41979,Czech Restaurant
142,50.085499999999996,14.421,25,14,537f8102498e5da65079246b,exelent,50.0854377746582,14.419940948486328,Czech Restaurant
143,50.085499999999996,14.421,25,15,5d1b8dfad5d77a0023c71f9d,Tong Shun Ju,50.085414,14.420998,Szechuan Restaurant
144,50.085499999999996,14.421,25,16,4c46e00319fde21eac7a0676,Karavella,50.0854236452395,14.419937197960323,Czech Restaurant
145,50.085499999999996,14.421,25,17,4fbe203de4b07d142fe72058,Unikátni Česká Restaurace,50.085323,14.419829,Eastern European Restaurant
146,50.085499999999996,14.421,25,18,4e2e8baa22717d705856f762,Restaurace Havelka,50.08505025,14.4203419,Czech Restaurant
147,50.085499999999996,14.421,25,19,517903d0e4b04315187fc586,Česká Kuchyně,50.085679155175235,14.421564259913206,Czech Restaurant
148,50.085499999999996,14.421,25,20,522e20c111d2349c807d8172,Mıke's Restaurant,50.0860418770257,14.42029107412511,Mediterranean Restaurant
149,50.085499999999996,14.421,25,21,5b596d07237dee002c7ef569,Hi Viet Food,50.08484873883621,14.420510530471802,Vietnamese Restaurant
150,50.085499999999996,14.421,25,22,5526acae498e7bd6f83b98a9,U Zajíce,50.085298901800826,14.41997107287975,Czech Restaurant
151,50.085499999999996,14.421,25,23,5134e355e4b0316024424466,Alternative,50.08525492037979,14.41974708946741,Cuban Restaurant
152,50.085499999999996,14.421,25,24,4c3598973896e21ed36bed90,Corto,50.08498637832904,14.42126546106193,Italian Restaurant
153,50.08663046466619,14.419249980691133,20,0,4b4c87eaf964a52049b526e3,Hard Rock Cafe Prague (Hard Rock Cafe Praha),50.0866743,14.4192144,American Restaurant
154,50.08663046466619,14.419249980691133,20,1,4bf04361c601a593007ec3d1,Brasileiro U Zelené žáby,50.0874999119371,14.419127573856413,Brazilian Restaurant
155,50.08663046466619,14.419249980691133,20,2,502d3a21e4b07a83ca527b53,Las Adelitas,50.086415,14.419423,Mexican Restaurant
156,50.08663046466619,14.419249980691133,20,3,4be5b0abcf200f47e08f133c,Taverna Toscana,50.086547024155564,14.419556091993694,Italian Restaurant
157,50.08663046466619,14.419249980691133,20,4,4c34fc763896e21ebc80ec90,Staromáček,50.08609695053156,14.418918317711837,Czech Restaurant
158,50.08663046466619,14.419249980691133,20,5,4b61fa75f964a520a12e2ae3,U Dominikána,50.085955602155785,14.418936354113399,Czech Restaurant
159,50.08663046466619,14.419249980691133,20,6,4bb8f80498c7ef3bd7a23102,U Kočku,50.08599370752528,14.418826384705952,Mediterranean Restaurant
160,50.08663046466619,14.419249980691133,20,7,58346c87ce66aa14b54e3876,Caserol,50.086186,14.418961,Modern European Restaurant
161,50.08663046466619,14.419249980691133,20,8,5b30f4b723a2e6002b3972ed,Buffet Italiano San Nicola,50.087012,14.420406,Italian Restaurant
162,50.08663046466619,14.419249980691133,20,9,560bd47a498e27b12e364448,Nuance,50.08699350894857,14.419207193469036,Czech Restaurant
163,50.08663046466619,14.419249980691133,20,10,4d60057d29ef236a6403a059,Kari Bazar,50.08673665073791,14.420384535640157,Indian Restaurant
164,50.08663046466619,14.419249980691133,20,11,4db1e1390437a93f7f94395a,U Zlaté Konvice,50.08681508439691,14.420610024834382,Eastern European Restaurant
165,50.08663046466619,14.419249980691133,20,12,4c4ec39d9932e21ef59742ce,Chech Pizza & Pasta,50.08636628669121,14.419979330561358,Pizza Place
166,50.08663046466619,14.419249980691133,20,13,4e64a7a81f6ef7d07ba4aca9,Concept Working Restaurant,50.08610153198242,14.419934272766113,Eastern European Restaurant
167,50.08663046466619,14.419249980691133,20,14,4ea5b2059a527d65186ca893,Paladium Chancala Restaurant,50.08607155837432,14.41866473336184,Indian Restaurant
168,50.08663046466619,14.419249980691133,20,15,522e20c111d2349c807d8172,Mıke's Restaurant,50.0860418770257,14.42029107412511,Mediterranean Restaurant
169,50.08663046466619,14.419249980691133,20,16,53a9d3a1498ecad91b5f8c5c,Casserol,50.08601941314363,14.41889192681366,Modern European Restaurant
170,50.08663046466619,14.419249980691133,20,17,5b1951840d0877001c054590,Nuance Restaurant,50.086898,14.419368,Czech Restaurant
171,50.08663046466619,14.419249980691133,20,18,4e4aaf4262847afcaf196bf0,Al Minuto Ristorante,50.086721524016056,14.420227212417624,Italian Restaurant
172,50.08663046466619,14.419249980691133,20,19,4ec2c6e6d3e330ed3362bc58,Kotleta,50.08713769650652,14.41949779515024,Czech Restaurant
173,50.0843695353338,14.419249980691133,17,0,5941a3c4ca18ea1bc5323fb1,Pohostinec Monarch,50.083848,14.418302,Czech Restaurant
174,50.0843695353338,14.419249980691133,17,1,4d89e93d5ecdf04d2aecb28a,Švejk restaurant U Zeleného stromu,50.08420979622776,14.418036192655562,Czech Restaurant
175,50.0843695353338,14.419249980691133,17,2,4adcda9bf964a520a84c21e3,U Vejvodů,50.08420038370784,14.418908793919469,Pub
176,50.0843695353338,14.419249980691133,17,3,5622555b498e37e2bd2aa95d,Il Palazzo Italian Restaurant,50.084755471254674,14.418335547744016,Italian Restaurant
177,50.0843695353338,14.419249980691133,17,4,50c35996e4b0c5b6f3d16dad,Pivoňkové zátiší,50.083842408268204,14.419045035015007,Chinese Restaurant
178,50.0843695353338,14.419249980691133,17,5,4fd76470e4b071eb3394bddc,U Tří zlatých lvů,50.08368925403645,14.41994048010859,Czech Restaurant
179,50.0843695353338,14.419249980691133,17,6,4dbafcba43a1d8504b636d3a,Sahar Ra,50.083779,14.420286,African Restaurant
180,50.0843695353338,14.419249980691133,17,7,4c9a1fedeaa5a1434b6bc9e4,Blatnice,50.08476493301898,14.419960112776769,Eastern European Restaurant
181,50.0843695353338,14.419249980691133,17,8,5d4da9bf1aa86d00075c03fb,Moment Bistro,50.08388,14.419055,Chinese Restaurant
182,50.0843695353338,14.419249980691133,17,9,5f0d8494aba68a2398199849,Thai Station,50.0837181,14.4198836,Thai Restaurant
183,50.0843695353338,14.419249980691133,17,10,4f291e19e4b0f07a95d18c27,Royal Bengal,50.084503173828125,14.418855667114258,Indian Restaurant
184,50.0843695353338,14.419249980691133,17,11,514d97b9e4b0ab03ff87f760,Kovnice,50.083628,14.419031,Eastern European Restaurant
185,50.0843695353338,14.419249980691133,17,12,4cd184a43e63721e791aa4cc,Le terroir,50.084614747137906,14.418872735677468,French Restaurant
186,50.0843695353338,14.419249980691133,17,13,56d89200498e1c789a22a77f,Pizza Pasta Break,50.084625,14.419415,Italian Restaurant
187,50.0843695353338,14.419249980691133,17,14,5b257260cad1b6002c6105b0,Rustique,50.084561,14.418831,Czech Restaurant
188,50.0843695353338,14.419249980691133,17,15,4ce6999eb99754811632f144,Le Quattro Stagioni,50.08439615537383,14.418828255721822,Italian Restaurant
189,50.0843695353338,14.419249980691133,17,16,5751bd52498eeb53593ea6b6,Vejvodovka,50.084488,14.419233,Czech Restaurant
190,50.08663046466619,14.422750019308866,7,0,4b6c0951f964a520bb202ce3,Pasta Fresca,50.08721566326978,14.423773145688019,Italian Restaurant
191,50.08663046466619,14.422750019308866,7,1,4c557c7506901b8de0098e4d,Trattoria by Giovanni,50.08666750042767,14.421675950288773,Italian Restaurant
192,50.08663046466619,14.422750019308866,7,2,4ba8c7bdf964a5204fee39e3,Mlejnice,50.08639474892439,14.421418604893157,Czech Restaurant
193,50.08663046466619,14.422750019308866,7,3,4f884296e4b0e6f347675eb6,U Červeného Páva,50.08657696624033,14.422884399801214,Czech Restaurant
194,50.08663046466619,14.422750019308866,7,4,4c362e9b18e72d7fd36314f5,La Scala,50.0874061,14.4228147,Italian Restaurant
195,50.08663046466619,14.422750019308866,7,5,50787a95e4b0b5e91f471ad7,Mexican buritos,50.087496024366494,14.422562958375023,Mexican Restaurant
196,50.08663046466619,14.422750019308866,7,6,4e9824d27ee6553b563d34ef,Restaurace Zlaty Hrozen,50.08618284616997,14.42255367817561,Eastern European Restaurant
197,50.0843695353338,14.422750019308866,9,0,52f523bf498e8a164792e9d2,Kitchen Ramen Bar,50.083691858645246,14.422650478500671,Ramen Restaurant
198,50.0843695353338,14.422750019308866,9,1,557ae583498e218724443fe2,Il Gusto,50.084762467167174,14.421945888431237,Italian Restaurant
199,50.0843695353338,14.422750019308866,9,2,4c03971239d476b0fa4530a7,Pizza Coloseum,50.08406591990739,14.423753206275501,Pizza Place
200,50.0843695353338,14.422750019308866,9,3,56daccc5498e337ce399f813,Da Shi Jie,50.0841373024516,14.423464319181218,Chinese Restaurant
201,50.0843695353338,14.422750019308866,9,4,4c00e143360a9c74da0bd9a0,Restaurace U Veselé Basy,50.08473007568803,14.422539817524694,Czech Restaurant
202,50.0843695353338,14.422750019308866,9,5,53ec9e3b498eef14e3f37807,original czech restorant,50.0848850891877,14.422615651236626,Czech Restaurant
203,50.0843695353338,14.422750019308866,9,6,4dfd27f77d8b305080177548,Tři Safíry /Three Saphires/,50.084712,14.421727,Korean Restaurant
204,50.0843695353338,14.422750019308866,9,7,4c3ee0206faac9b6c6c40e76,Sushi sushi,50.08436047776399,14.421383347458796,Sushi Restaurant
205,50.0843695353338,14.422750019308866,9,8,5610da55498e4647a822da2c,Svejk restaurant,50.084092609016295,14.423484133808222,Czech Restaurant
206,50.08776092933239,14.417499961382266,10,0,4af3105df964a5203eea21e3,La Bodeguita del Medio,50.088403503419364,14.417007066224155,Cuban Restaurant
207,50.08776092933239,14.417499961382266,10,1,4bab8d2bf964a520ceb23ae3,U Parlamentu,50.08832593715887,14.416531402382502,Czech Restaurant
208,50.08776092933239,14.417499961382266,10,2,5dc17602a540b900084d32e7,Hanzu,50.08810172819602,14.417471587657927,Asian Restaurant
209,50.08776092933239,14.417499961382266,10,3,5df8b68c40c87e00088428cc,Noodle Box,50.087986,14.418751,Noodle House
210,50.08776092933239,14.417499961382266,10,4,4b8d6155f964a52043f832e3,Pizzeria Donna,50.08775721843217,14.416444301605223,Pizza Place
211,50.08776092933239,14.417499961382266,10,5,533ee64b498e40551a36d08f,Mlejnice,50.0886022587481,14.41759145450366,Czech Restaurant
212,50.08776092933239,14.417499961382266,10,6,4f3ce954e4b0e8f24dbfca22,Cohiba Atmosphere Club,50.08842442567797,14.416918773125463,Cuban Restaurant
213,50.08776092933239,14.417499961382266,10,7,53663a2e498e406231a6d6ea,Restorace Carpaccio,50.08790588378906,14.418768882751465,Italian Restaurant
214,50.08776092933239,14.417499961382266,10,8,55803df0498ef12212450957,Potrefena Husa,50.08757400512695,14.418335914611816,Czech Restaurant
215,50.08776092933239,14.417499961382266,10,9,5f6e37090f7bc26030668a91,Zen Chef,50.08815,14.417346,Chinese Restaurant
216,50.08889139399859,14.415749859519456,6,0,4b9abea2f964a520e9d135e3,U Rudolfina,50.0880223,14.4155382,Pub
217,50.08889139399859,14.415749859519456,6,1,4bab8d2bf964a520ceb23ae3,U Parlamentu,50.08832593715887,14.416531402382502,Czech Restaurant
218,50.08889139399859,14.415749859519456,6,2,4f3ce954e4b0e8f24dbfca22,Cohiba Atmosphere Club,50.08842442567797,14.416918773125463,Cuban Restaurant
219,50.08889139399859,14.415749859519456,6,3,5d1a32cfe32452002340d48e,Five Rivers,50.08807,14.4154,Indian Restaurant
220,50.08889139399859,14.415749859519456,6,4,540cb69f498ee75cf34a689b,Rugantino,50.088287856658035,14.415404314752083,Italian Restaurant
221,50.08889139399859,14.415749859519456,6,5,5300746b11d2bf4731dda68d,Hambini,50.088953,14.416377,American Restaurant
222,50.08663046466619,14.415749859519456,12,0,4b24ef57f964a5209e6a24e3,La Finestra,50.087326045803145,14.416166616570694,Italian Restaurant
223,50.08663046466619,14.415749859519456,12,1,4b5c426af964a520de2829e3,U Zlatého Hada,50.08603422988423,14.416406550085954,Czech Restaurant
224,50.08663046466619,14.415749859519456,12,2,4b8d40f4f964a52016f032e3,Potrefená husa,50.08726639652151,14.415647192326162,Czech Restaurant
225,50.08663046466619,14.415749859519456,12,3,4c88feccbbec6dcba649d858,Apropos,50.08725725841952,14.415181037039572,Eastern European Restaurant
226,50.08663046466619,14.415749859519456,12,4,4be840cd88ed2d7f6fa3cb1d,Hotel U Zlaté Studně,50.08605667474876,14.41490259700007,Eastern European Restaurant
227,50.08663046466619,14.415749859519456,12,5,4daee1386a23e6c93492c12d,Czech & Mediterranean Restaurant,50.08605875757042,14.415181457301987,Mediterranean Restaurant
228,50.08663046466619,14.415749859519456,12,6,51ed8afb498e68bb9157e23b,Viet Nam,50.086053223286626,14.415732239574528,Vietnamese Restaurant
229,50.08663046466619,14.415749859519456,12,7,53975057498e78bd68968e06,Radegast,50.086082,14.416554,Czech Restaurant
230,50.08663046466619,14.415749859519456,12,8,5177d6531648d521c413165b,Karlova Street PUB,50.08599149979777,14.415543079376219,Eastern European Restaurant
231,50.08663046466619,14.415749859519456,12,9,5e51541409326700078bc57d,Charlie’s Ristorante,50.0859444,14.4149483,Italian Restaurant
232,50.08663046466619,14.415749859519456,12,10,5050cfc0e4b04e8a4c5ffdd8,Kressmann,50.0871,14.4146,Eastern European Restaurant
233,50.08663046466619,14.415749859519456,12,11,5da8a371a4f2c90007b9de54,Karloval,50.08607,14.416645,Czech Restaurant
234,50.08889139399859,14.419250063245075,9,0,4b041ceaf964a5206d5122e3,Krčma,50.08904,14.420202,Czech Restaurant
235,50.08889139399859,14.419250063245075,9,1,4adcdaa3f964a520434e21e3,King Solomon,50.08911170419138,14.41791988908867,Kosher Restaurant
236,50.08889139399859,14.419250063245075,9,2,4b179bc8f964a520a3c623e3,U Pivrnce,50.0883433568104,14.418579339981077,Pub
237,50.08889139399859,14.419250063245075,9,3,50ead913e4b0f0d9f2d4ec2b,U Karpa,50.089298248291,14.4194250106812,Eastern European Restaurant
238,50.08889139399859,14.419250063245075,9,4,543f8b9f498e8fa228108677,albertuv posh house,50.089374,14.418958,Afghan Restaurant
239,50.08889139399859,14.419250063245075,9,5,4e3c428945dd68e327291dbf,Feast Place,50.089514342857136,14.418922850000001,Middle Eastern Restaurant
240,50.08889139399859,14.419250063245075,9,6,52d15a29498e8195ea307472,U pivrnce,50.088520996941995,14.418862551714945,Eastern European Restaurant
241,50.08889139399859,14.419250063245075,9,7,4f79d2cee4b0cd1b3483cf49,Rudovan Nora,50.08831342923681,14.419004875637135,German Restaurant
242,50.08889139399859,14.419250063245075,9,8,4d809c99360b224bababdc56,U Golema,50.08866060412339,14.418607592416997,Czech Restaurant
243,50.08663046466619,14.419250063245075,20,0,4b4c87eaf964a52049b526e3,Hard Rock Cafe Prague (Hard Rock Cafe Praha),50.0866743,14.4192144,American Restaurant
244,50.08663046466619,14.419250063245075,20,1,4bf04361c601a593007ec3d1,Brasileiro U Zelené žáby,50.0874999119371,14.419127573856413,Brazilian Restaurant
245,50.08663046466619,14.419250063245075,20,2,502d3a21e4b07a83ca527b53,Las Adelitas,50.086415,14.419423,Mexican Restaurant
246,50.08663046466619,14.419250063245075,20,3,4be5b0abcf200f47e08f133c,Taverna Toscana,50.086547024155564,14.419556091993694,Italian Restaurant
247,50.08663046466619,14.419250063245075,20,4,4c34fc763896e21ebc80ec90,Staromáček,50.08609695053156,14.418918317711837,Czech Restaurant
248,50.08663046466619,14.419250063245075,20,5,4b61fa75f964a520a12e2ae3,U Dominikána,50.085955602155785,14.418936354113399,Czech Restaurant
249,50.08663046466619,14.419250063245075,20,6,4bb8f80498c7ef3bd7a23102,U Kočku,50.08599370752528,14.418826384705952,Mediterranean Restaurant
250,50.08663046466619,14.419250063245075,20,7,58346c87ce66aa14b54e3876,Caserol,50.086186,14.418961,Modern European Restaurant
251,50.08663046466619,14.419250063245075,20,8,5b30f4b723a2e6002b3972ed,Buffet Italiano San Nicola,50.087012,14.420406,Italian Restaurant
252,50.08663046466619,14.419250063245075,20,9,560bd47a498e27b12e364448,Nuance,50.08699350894857,14.419207193469036,Czech Restaurant
253,50.08663046466619,14.419250063245075,20,10,4d60057d29ef236a6403a059,Kari Bazar,50.08673665073791,14.420384535640157,Indian Restaurant
254,50.08663046466619,14.419250063245075,20,11,4db1e1390437a93f7f94395a,U Zlaté Konvice,50.08681508439691,14.420610024834382,Eastern European Restaurant
255,50.08663046466619,14.419250063245075,20,12,4c4ec39d9932e21ef59742ce,Chech Pizza & Pasta,50.08636628669121,14.419979330561358,Pizza Place
256,50.08663046466619,14.419250063245075,20,13,4e64a7a81f6ef7d07ba4aca9,Concept Working Restaurant,50.08610153198242,14.419934272766113,Eastern European Restaurant
257,50.08663046466619,14.419250063245075,20,14,4ea5b2059a527d65186ca893,Paladium Chancala Restaurant,50.08607155837432,14.41866473336184,Indian Restaurant
258,50.08663046466619,14.419250063245075,20,15,522e20c111d2349c807d8172,Mıke's Restaurant,50.0860418770257,14.42029107412511,Mediterranean Restaurant
259,50.08663046466619,14.419250063245075,20,16,53a9d3a1498ecad91b5f8c5c,Casserol,50.08601941314363,14.41889192681366,Modern European Restaurant
260,50.08663046466619,14.419250063245075,20,17,5b1951840d0877001c054590,Nuance Restaurant,50.086898,14.419368,Czech Restaurant
261,50.08663046466619,14.419250063245075,20,18,4e4aaf4262847afcaf196bf0,Al Minuto Ristorante,50.086721524016056,14.420227212417624,Italian Restaurant
262,50.08663046466619,14.419250063245075,20,19,4ec2c6e6d3e330ed3362bc58,Kotleta,50.08713769650652,14.41949779515024,Czech Restaurant
263,50.08776092933239,14.424500038617733,23,0,4b6c0951f964a520bb202ce3,Pasta Fresca,50.08721566326978,14.423773145688019,Italian Restaurant
264,50.08776092933239,14.424500038617733,23,1,4b9ab706f964a52078cf35e3,Giallo Rossa,50.088166903345645,14.424874067268638,Italian Restaurant
265,50.08776092933239,14.424500038617733,23,2,4bb63b83941ad13a60181fe3,Indian Jewel,50.08795705307758,14.423697840637493,Indian Restaurant
266,50.08776092933239,14.424500038617733,23,3,552ff2cf498eb3d28153f59f,GamberoRosso,50.088178782214726,14.425126616109434,Italian Restaurant
267,50.08776092933239,14.424500038617733,23,4,58d2c6cd52a05126372d1495,Restaurant Ungelt,50.088094,14.423864,Czech Restaurant
268,50.08776092933239,14.424500038617733,23,5,56fd0b16cd104c5603b76d93,Delije,50.087775806597904,14.424339208131522,Czech Restaurant
269,50.08776092933239,14.424500038617733,23,6,5422c96f498ebce1f830232d,sushi go,50.088059,14.424579,Asian Restaurant
270,50.08776092933239,14.424500038617733,23,7,4cb5ad2955af224b7d06947e,Summer Palace,50.08751014241015,14.42548150609051,Chinese Restaurant
271,50.08776092933239,14.424500038617733,23,8,4c1f618563750f476801bb67,Ristorante Vabene,50.08808174127813,14.423905623104318,Italian Restaurant
272,50.08776092933239,14.424500038617733,23,9,537913ec498e08f353078219,Erwan,50.087688,14.423731,Thai Restaurant
273,50.08776092933239,14.424500038617733,23,10,51b09d30498e2f227ff3a9e3,mister sushi,50.0881132383828,14.424675284973071,Sushi Restaurant
274,50.08776092933239,14.424500038617733,23,11,4e346b637d8b0c62b2c9a917,SushiGo,50.088333780189764,14.42463291306819,Argentinian Restaurant
275,50.08776092933239,14.424500038617733,23,12,547096b9498ea38ffeec9360,Yiheyuan,50.0875418799472,14.425343979025703,Vietnamese Restaurant
276,50.08776092933239,14.424500038617733,23,13,4df0e60ed16486e86e522c64,Aegis Party,50.087408,14.42501,Vietnamese Restaurant
277,50.08776092933239,14.424500038617733,23,14,54d488ab498ead51406ce1fd,Bufet Panská,50.087164,14.425497,Turkish Restaurant
278,50.08776092933239,14.424500038617733,23,15,4b9a8a11f964a52028bf35e3,U Supa,50.08712887746402,14.424401789593645,Brewery
279,50.08776092933239,14.424500038617733,23,16,4ca4810c554b236aee812f48,Mr.Sushi restaurant,50.08807439254666,14.424648649992898,Sushi Restaurant
280,50.08776092933239,14.424500038617733,23,17,4df3b30362e1288ed304f03c,VINOdiVINO,50.0877775584248,14.425681080815005,Italian Restaurant
281,50.08776092933239,14.424500038617733,23,18,53172129498eef7d893d0b00,Erawan Prague,50.08767001829958,14.423617946304581,Thai Restaurant
282,50.08776092933239,14.424500038617733,23,19,569e894a498e5ec5532273a6,Joselito,50.087819,14.42454,Tapas Restaurant
283,50.08776092933239,14.424500038617733,23,20,573da761498e7152136f4b01,La Cucina Ceca,50.087737,14.425639,Czech Restaurant
284,50.08776092933239,14.424500038617733,23,21,533da66b498ea92059b6ba4a,Erwan,50.087763,14.423544,Thai Restaurant
285,50.08776092933239,14.424500038617733,23,22,4fbfce35e4b0b469de2d4b59,Upavouka Restauca,50.08758770066463,14.42321669704568,Eastern European Restaurant
286,50.08889139399859,14.422749936754924,13,0,4ed77ae5b6346530d066964c,James Dean Prague,50.08956600492547,14.422444417433598,American Restaurant
287,50.08889139399859,14.422749936754924,13,1,4b51eb43f964a520505b27e3,Yami Sushi House,50.08942815665716,14.423481397378293,Sushi Restaurant
288,50.08889139399859,14.422749936754924,13,2,4da759c00cb65e9aae518322,Divinis,50.08899180650428,14.424127090172032,Italian Restaurant
289,50.08889139399859,14.422749936754924,13,3,4b6ed74af964a520e3cc2ce3,Dhaba Beas,50.088911645938175,14.423735763799817,Vegetarian / Vegan Restaurant
290,50.08889139399859,14.422749936754924,13,4,54553fcb498ecdd6e45b2156,Agave Restaurant,50.089432840294364,14.42300722085346,Mexican Restaurant
291,50.08889139399859,14.422749936754924,13,5,4ed7b7c6722ec4ce1f54cd77,Burrito Loco,50.08945533763056,14.422943468639557,Burrito Place
292,50.08889139399859,14.422749936754924,13,6,4b978423f964a520e70635e3,U Dvou Slovaků,50.088696,14.423837,Eastern European Restaurant
293,50.08889139399859,14.422749936754924,13,7,4ebda1770e019a1629c219d1,Primo Piatto,50.08891257427576,14.421395744256087,Italian Restaurant
294,50.08889139399859,14.422749936754924,13,8,4f93eb4fe4b0b65a8b7b4d9b,U Svobodných zednářů,50.08875204317296,14.423828311302566,Czech Restaurant
295,50.08889139399859,14.422749936754924,13,9,54117ea6498e59d37e399115,Patisserie Boulangerie,50.08961064173591,14.423359563134934,French Restaurant
296,50.08889139399859,14.422749936754924,13,10,507eff83e4b0705ee54ec080,Staromáček Traditional Czeck,50.088774999672296,14.421875571672755,Czech Restaurant
297,50.08889139399859,14.422749936754924,13,11,50a7c206e4b041e7e10b2dd2,george tapas,50.088209341455006,14.423227965341272,Tapas Restaurant
298,50.08889139399859,14.422749936754924,13,12,4adcdaa2f964a520044e21e3,Barracuda Cafe,50.0887295,14.4232161,Mexican Restaurant
299,50.08663046466619,14.422749936754924,7,0,4b6c0951f964a520bb202ce3,Pasta Fresca,50.08721566326978,14.423773145688019,Italian Restaurant
300,50.08663046466619,14.422749936754924,7,1,4c557c7506901b8de0098e4d,Trattoria by Giovanni,50.08666750042767,14.421675950288773,Italian Restaurant
301,50.08663046466619,14.422749936754924,7,2,4ba8c7bdf964a5204fee39e3,Mlejnice,50.08639474892439,14.421418604893157,Czech Restaurant
302,50.08663046466619,14.422749936754924,7,3,4f884296e4b0e6f347675eb6,U Červeného Páva,50.08657696624033,14.422884399801214,Czech Restaurant
303,50.08663046466619,14.422749936754924,7,4,4c362e9b18e72d7fd36314f5,La Scala,50.0874061,14.4228147,Italian Restaurant
304,50.08663046466619,14.422749936754924,7,5,50787a95e4b0b5e91f471ad7,Mexican buritos,50.087496024366494,14.422562958375023,Mexican Restaurant
305,50.08663046466619,14.422749936754924,7,6,4e9824d27ee6553b563d34ef,Restaurace Zlaty Hrozen,50.08618284616997,14.42255367817561,Eastern European Restaurant
306,50.08889139399859,14.426250140480542,14,0,5d701ca66ede2f0008356d05,Namaste India,50.088185,14.426192,Indian Restaurant
307,50.08889139399859,14.426250140480542,14,1,4b517052f964a5204a4d27e3,Buddha-Bar,50.088265942290626,14.425916310143776,Asian Restaurant
308,50.08889139399859,14.426250140480542,14,2,5c2c7eb5b8fd9d002c971d12,Agora,50.08932,14.426338,Greek Restaurant
309,50.08889139399859,14.426250140480542,14,3,5ebd8dbc64862c000848daa7,La Patrona,50.088647,14.427343,Mexican Restaurant
310,50.08889139399859,14.426250140480542,14,4,517e58bee4b0a3335f6864d6,Cinani Kotva,50.08815383911133,14.426484107971191,Asian Restaurant
311,50.08889139399859,14.426250140480542,14,5,4eef32f50e01899e01a2efe8,Čínská restaurace (hotel Esprit),50.08846139863756,14.426783518061933,Asian Restaurant
312,50.08889139399859,14.426250140480542,14,6,521dccba498e314c4c758d38,Pot-au-feu,50.08911854247087,14.426155873562424,French Restaurant
313,50.08889139399859,14.426250140480542,14,7,538c4e9d498e33f16c45b181,Tacos Nachos - Mexican Fastfood,50.088404648984884,14.426977735102064,Mexican Restaurant
314,50.08889139399859,14.426250140480542,14,8,52e0f696498e567ccf6ae38d,Trattoria Mercato,50.08857,14.427048,Italian Restaurant
315,50.08889139399859,14.426250140480542,14,9,5506c2f7498ec1e7478485d8,The Pie Shop,50.088311896903996,14.427128788372249,Australian Restaurant
316,50.08889139399859,14.426250140480542,14,10,56d87a75498eb2bcd162b4f6,Kuizin,50.089373155377785,14.426395297050474,Czech Restaurant
317,50.08889139399859,14.426250140480542,14,11,4bf50f98cad2c928eb909c99,Restaurant Nostalgie,50.088135974004445,14.42624773917288,Eastern European Restaurant
318,50.08889139399859,14.426250140480542,14,12,4e2f1655a8092ca5c37c2967,Burma And siam,50.08886415867973,14.42752560700684,Thai Restaurant
319,50.08889139399859,14.426250140480542,14,13,59ddffa2c21cb12aaf5c4fe7,Čínské bistro s knedlíčky,50.088951,14.427646,Chinese Restaurant
320,50.08663046466619,14.426250140480542,10,0,4b27fe6df964a520608d24e3,Brasileiro,50.08642803905321,14.427450574145654,Brazilian Restaurant
321,50.08663046466619,14.426250140480542,10,1,4adcdaa2f964a520144e21e3,TGI Friday's,50.0862276335443,14.426677755467216,American Restaurant
322,50.08663046466619,14.426250140480542,10,2,5c163419fd9d73002c642bb2,Jaffa,50.086178,14.425615,Lebanese Restaurant
323,50.08663046466619,14.426250140480542,10,3,539ad7f1498ea6a82320e481,Zebra Express,50.087166236702025,14.426642174340211,Asian Restaurant
324,50.08663046466619,14.426250140480542,10,4,4d0f85b371e8a1cd352f7bbd,Na Ovocném trhu,50.08672465237635,14.42527121586829,Czech Restaurant
325,50.08663046466619,14.426250140480542,10,5,59a5ad8b8c35dc56625c51f4,Satuy,50.086469,14.42514,Asian Restaurant
326,50.08663046466619,14.426250140480542,10,6,54d488ab498ead51406ce1fd,Bufet Panská,50.087164,14.425497,Turkish Restaurant
327,50.08663046466619,14.426250140480542,10,7,4dc19d2822713750ba812fbf,U Zlatého Lva,50.08676326657713,14.425300601575728,Eastern European Restaurant
328,50.08663046466619,14.426250140480542,10,8,5af88c7e149946002cb357f3,Public Chilli,50.086474906660776,14.42519733047105,Asian Restaurant
329,50.08663046466619,14.426250140480542,10,9,518401fa498e34bf97b7c28f,Zlaty Lev,50.08656181210853,14.425340267303277,Eastern European Restaurant
