,lat_centre,long_centre,num_venues,venue_iter,venue_id,venue_name,lat_venue,long_venue,category
0,50.0755,14.4062,16,0,5d0642b610fe5a0023978aa4,Ikura,50.077297,14.40463,Sushi Restaurant
1,50.0755,14.4062,16,1,50f46120e4b0251640fc204d,Zubajda,50.07688668669283,14.403492370596231,Czech Restaurant
2,50.0755,14.4062,16,2,4b99262af964a520df6435e3,U Svatého Filipa a Jakuba,50.076276413188154,14.404937598230973,Gastropub
3,50.0755,14.4062,16,3,5ac521d792e7a9178809864b,Tonkin,50.074596291343845,14.406179691917474,Asian Restaurant
4,50.0755,14.4062,16,4,5c9d4c1d6a5950002c8c5016,Bockem,50.07728,14.405123,Modern European Restaurant
5,50.0755,14.4062,16,5,4b680cc4f964a52046652be3,Andělský Újezd,50.076164,14.405974,Chinese Restaurant
6,50.0755,14.4062,16,6,5eeb4e4a85d9680008365200,Lychee Bistro,50.076164,14.405621,Asian Restaurant
7,50.0755,14.4062,16,7,4fd4878ce4b0a1f007321240,Ocean Blue,50.076006411495506,14.405734960037964,Vietnamese Restaurant
8,50.0755,14.4062,16,8,4c9ce11cd3c2b60ce8e3bbbc,Červené Jablko,50.076878330298335,14.405455531833251,Chinese Restaurant
9,50.0755,14.4062,16,9,5d80cdd16d03900008da30e8,Rattanakosin,50.07464444388893,14.403558969825097,Thai Restaurant
10,50.0755,14.4062,16,10,4fff2ab9e4b0970f4d8bdfee,American pub,50.076069614180824,14.406172233747542,American Restaurant
11,50.0755,14.4062,16,11,5adb26f3f79faa5e37f3d0ea,Food And Love,50.07709,14.406406,Italian Restaurant
12,50.0755,14.4062,16,12,523fee5a11d29e041944e53b,Magnum Restaurant,50.07472116678983,14.403955009835473,French Restaurant
13,50.0755,14.4062,16,13,50d7582ae4b0cc2e85fd15d1,Restaurace Revatti,50.075960691981464,14.408127534612381,Mexican Restaurant
14,50.0755,14.4062,16,14,56c84aee498e6709ee87b7bf,Papi Oliver,50.07723422633351,14.405248761177063,French Restaurant
15,50.0755,14.4062,16,15,5fcbd38cf05c9009648b813a,Phở Tiến,50.07421579767117,14.40617948770523,Asian Restaurant
16,50.07776092933239,14.402700691395738,13,0,5f985acf3ec9830317e6adf2,Nhà Hai Hành,50.0774931,14.4023536,Vietnamese Restaurant
17,50.07776092933239,14.402700691395738,13,1,5d0642b610fe5a0023978aa4,Ikura,50.077297,14.40463,Sushi Restaurant
18,50.07776092933239,14.402700691395738,13,2,50f46120e4b0251640fc204d,Zubajda,50.07688668669283,14.403492370596231,Czech Restaurant
19,50.07776092933239,14.402700691395738,13,3,53501e5a498e8e7b478ac2bf,Atelier Red & Wine,50.07974278086415,14.403808418783228,French Restaurant
20,50.07776092933239,14.402700691395738,13,4,4b99262af964a520df6435e3,U Svatého Filipa a Jakuba,50.076276413188154,14.404937598230973,Gastropub
21,50.07776092933239,14.402700691395738,13,5,5c9d4c1d6a5950002c8c5016,Bockem,50.07728,14.405123,Modern European Restaurant
22,50.07776092933239,14.402700691395738,13,6,53c2ba93498ee795229b894c,Tapas Bar Mirò,50.07742086391428,14.404184789445127,Tapas Restaurant
23,50.07776092933239,14.402700691395738,13,7,4c9ce11cd3c2b60ce8e3bbbc,Červené Jablko,50.076878330298335,14.405455531833251,Chinese Restaurant
24,50.07776092933239,14.402700691395738,13,8,525fb64a11d2b688cbb1b3f3,U Preclíků,50.07782364241332,14.402617672743908,Eastern European Restaurant
25,50.07776092933239,14.402700691395738,13,9,55e56ca4498e2abd22fcae46,Vegetariánská restaurace a čajovna,50.078240763570875,14.405042558540098,Eastern European Restaurant
26,50.07776092933239,14.402700691395738,13,10,536d3284498e812181c0dcde,the wine bar snd brassiere,50.078175000163505,14.402645203154472,French Restaurant
27,50.07776092933239,14.402700691395738,13,11,56c84aee498e6709ee87b7bf,Papi Oliver,50.07723422633351,14.405248761177063,French Restaurant
28,50.07776092933239,14.402700691395738,13,12,5f66354a213b273332003be6,Meat & Grill,50.07804,14.404131,Caucasian Restaurant
29,50.073239070667604,14.402700691395738,32,0,5ecceb6df29b72000888f608,Paprika,50.07219,14.404614,Israeli Restaurant
30,50.073239070667604,14.402700691395738,32,1,5204c97f498e70c06ad18bb6,Burrito Loco,50.072723,14.4037075,Burrito Place
31,50.073239070667604,14.402700691395738,32,2,5edea4e14b2c20653246f444,Grosseto Anděl (Grosseto),50.071278,14.401931,Italian Restaurant
32,50.073239070667604,14.402700691395738,32,3,5f16b9d0daa871763b0e8956,Bombay Express,50.071976,14.401649,Indian Restaurant
33,50.073239070667604,14.402700691395738,32,4,4b797ba4f964a520dafb2ee3,Pizzeria Ristorante Corleone,50.071606,14.404565,Pizza Place
34,50.073239070667604,14.402700691395738,32,5,4b49bd62f964a5200f7326e3,El Barrio de Ángel,50.07207701741733,14.404107076659546,South American Restaurant
35,50.073239070667604,14.402700691395738,32,6,5f23f429d0fae643e1d6eb48,Thai Thai & Ramen,50.072603,14.402343,Thai Restaurant
36,50.073239070667604,14.402700691395738,32,7,4b460ecdf964a520281526e3,Safir,50.072122519666316,14.402619970946944,Lebanese Restaurant
37,50.073239070667604,14.402700691395738,32,8,4b729abaf964a5203e802de3,Pizzerie Mediterane,50.07138062479124,14.401852249811139,Pizza Place
38,50.073239070667604,14.402700691395738,32,9,4b72f4b2f964a52000922de3,Restaurace Hlubina,50.07217911403279,14.405205914207286,Czech Restaurant
39,50.073239070667604,14.402700691395738,32,10,5edea27676fb7a66df31f17a,Wokin,50.0722,14.403563,Noodle House
40,50.073239070667604,14.402700691395738,32,11,5f01ac57d0927b5bd454ef4a,Bali Bali,50.072743,14.402264,Vietnamese Restaurant
41,50.073239070667604,14.402700691395738,32,12,4c6280b3ec94a593a85b29ca,Xia Men,50.07272101204712,14.403842387108629,Chinese Restaurant
42,50.073239070667604,14.402700691395738,32,13,5e27315fb9210b000791eeac,Chile y Limón,50.072159,14.405639,Mexican Restaurant
43,50.073239070667604,14.402700691395738,32,14,5a9c200816fa0409c5d45d94,Sushi Time,50.072272,14.402309,Sushi Restaurant
44,50.073239070667604,14.402700691395738,32,15,5c31f0b69b0473002c0e175e,WraP ‘n Roll,50.073574,14.40239,Asian Restaurant
45,50.073239070667604,14.402700691395738,32,16,5c2f9f53419a9e002c7691e8,La Cava Valenciana,50.07138,14.401134,Tapas Restaurant
46,50.073239070667604,14.402700691395738,32,17,4bb45cc7643cd13a879f395c,Makakiko | Running Sushi,50.072614,14.401891,Sushi Restaurant
47,50.073239070667604,14.402700691395738,32,18,4b5819adf964a520e24a28e3,Pizza Coloseum,50.071144,14.403967,Pizza Place
48,50.073239070667604,14.402700691395738,32,19,50f18a4fe4b0263d65c97889,Babička Restaurant,50.07158508985033,14.401576775274474,American Restaurant
49,50.073239070667604,14.402700691395738,32,20,4c23a310c11dc9b6832a2424,Macao,50.0721,14.400659,Sushi Restaurant
50,50.073239070667604,14.402700691395738,32,21,5d80cdd16d03900008da30e8,Rattanakosin,50.07464444388893,14.403558969825097,Thai Restaurant
51,50.073239070667604,14.402700691395738,32,22,4f9ee1bfe4b0027bd6a0362c,Kaktus,50.072268748588925,14.402573249771116,Mexican Restaurant
52,50.073239070667604,14.402700691395738,32,23,4af80b56f964a520c90a22e3,pK Café Restaurant,50.0716918253766,14.400453012116538,French Restaurant
53,50.073239070667604,14.402700691395738,32,24,58555091cf11d4240b00f2f8,Boží Fansýr stánek,50.071963,14.402656,French Restaurant
54,50.073239070667604,14.402700691395738,32,25,50129b57e4b0f8ec77bfd525,Chinese Restaurant,50.07178557316806,14.404925075976044,Chinese Restaurant
55,50.073239070667604,14.402700691395738,32,26,59f371f765cdf8641b7d51d1,Pizza Da Pjetro,50.072733,14.404092,Pizza Place
56,50.073239070667604,14.402700691395738,32,27,595538faf2905e25ad5c0659,Mex Dan,50.07250864177083,14.402527521474216,Mexican Restaurant
57,50.073239070667604,14.402700691395738,32,28,4b6abc76f964a5202dde2be3,Gyros-gr,50.07237607622999,14.402556467651516,Greek Restaurant
58,50.073239070667604,14.402700691395738,32,29,523fee5a11d29e041944e53b,Magnum Restaurant,50.07472116678983,14.403955009835473,French Restaurant
59,50.073239070667604,14.402700691395738,32,30,54191e13498e837bd22da7c8,iris restaurant,50.07194900512695,14.4007568359375,French Restaurant
60,50.073239070667604,14.402700691395738,32,31,5f7f48c613aafe7a5921360c,Tradice,50.072647,14.402462,Cafeteria
61,50.07776092933239,14.409699308604262,3,0,56a3bf58498ebd48f0853158,MANU Risto & Lounge,50.076639335468386,14.409429338358274,Mediterranean Restaurant
62,50.07776092933239,14.409699308604262,3,1,5adb26f3f79faa5e37f3d0ea,Food And Love,50.07709,14.406406,Italian Restaurant
63,50.07776092933239,14.409699308604262,3,2,50d7582ae4b0cc2e85fd15d1,Restaurace Revatti,50.075960691981464,14.408127534612381,Mexican Restaurant
64,50.073239070667604,14.409699308604262,14,0,55717ff3498e24b1986ec254,Kozlovna,50.07245501232589,14.407615667096497,Czech Restaurant
65,50.073239070667604,14.409699308604262,14,1,54214b6b498ec006c432aa46,Lavande,50.07276095392055,14.409856796264648,Modern European Restaurant
66,50.073239070667604,14.409699308604262,14,2,53862235498eec2ff9f0be1e,Prostor,50.07235005094264,14.406716986588307,Czech Restaurant
67,50.073239070667604,14.409699308604262,14,3,55dacb58498ecb55163b0986,Gourmet Pauza,50.072305,14.407625,French Restaurant
68,50.073239070667604,14.409699308604262,14,4,519255b6abd8f6118180a7e7,Man Yi Ge,50.07250736940921,14.40862478211082,Chinese Restaurant
69,50.073239070667604,14.409699308604262,14,5,5e3f193f69e2000008947836,Nusu Restaurant,50.07256,14.409014,Vietnamese Restaurant
70,50.073239070667604,14.409699308604262,14,6,5b8426c597cf5a002c73f2a9,Tankovna U Tučňáků,50.073059,14.407775,Czech Restaurant
71,50.073239070667604,14.409699308604262,14,7,57ce894b498ea02d54aa6f27,Arepas Club,50.071705029474316,14.410423278677625,Arepa Restaurant
72,50.073239070667604,14.409699308604262,14,8,574192d2498e03ad1cc0a221,Kuchtíme,50.073807,14.409094,Italian Restaurant
73,50.073239070667604,14.409699308604262,14,9,5b7b0fb461f070002cb9a2b5,levande,50.072731,14.410661,French Restaurant
74,50.073239070667604,14.409699308604262,14,10,5532882d498ef49d4e1eb6c6,Paliho Sushi Place,50.07311055389167,14.409725946702617,Sushi Restaurant
75,50.073239070667604,14.409699308604262,14,11,5373aaf0498e07f56eb91a54,Pavlov,50.072347,14.406581,Czech Restaurant
76,50.073239070667604,14.409699308604262,14,12,55c7b05f498eedf6e5272df8,Moucha,50.07285,14.408335,New American Restaurant
77,50.073239070667604,14.409699308604262,14,13,4b7151bbf964a520e9402de3,U Záboje,50.07271483333333,14.411368266666665,Middle Eastern Restaurant
78,50.0755,14.421,21,0,4d8b74035ecdf04d9a0bd48a,Döner Kebab Can Bey,50.07567297977805,14.42288662250863,Doner Restaurant
79,50.0755,14.421,21,1,52e550f4498e2806a425a621,Beer & Burger U Čížků,50.07600509465901,14.420927699155095,Burger Joint
80,50.0755,14.421,21,2,55e88d9a498eac9b696244d3,Restaurace U Šumavy,50.07603939209888,14.424215882657048,Czech Restaurant
81,50.0755,14.421,21,3,5370a2ba11d2998ed71e0440,Al Tagliere,50.075797287333025,14.42175905063648,Italian Restaurant
82,50.0755,14.421,21,4,4b7bdcadf964a52022712fe3,Pizzeria Carlo,50.07673075128637,14.421932196431971,Pizza Place
83,50.0755,14.421,21,5,5afaa46762845c0024ea18ec,Litchi - Asian restaurant,50.074501,14.41821,Asian Restaurant
84,50.0755,14.421,21,6,5231f92111d297ac53dc041c,Phở Việt,50.075508,14.422162,Asian Restaurant
85,50.0755,14.421,21,7,5937de1225fb7b781adabc55,Pho Viet,50.074005,14.418528,Vietnamese Restaurant
86,50.0755,14.421,21,8,5d4aea7c785d790008cb87c2,DuHa,50.07730340180895,14.421918690204619,Sushi Restaurant
87,50.0755,14.421,21,9,4c1d050ab4e62d7fa6fddb93,Jin Xin,50.07427836246531,14.42383136078536,Chinese Restaurant
88,50.0755,14.421,21,10,5a8c02aafdb9a742c6983407,Oriental Grill,50.0759,14.423957,Middle Eastern Restaurant
89,50.0755,14.421,21,11,535adb0f498ec2720fb1b5f1,janhubovic,50.074551,14.423538,Arepa Restaurant
90,50.0755,14.421,21,12,5a57b1fd5d891b14ac06d92a,Asia Point,50.076572,14.419029,Asian Restaurant
91,50.0755,14.421,21,13,50e3fdbee4b0f6dd2973d222,Bistro Pho Viet Nam,50.074056814349014,14.422043434575162,Vietnamese Restaurant
92,50.0755,14.421,21,14,4adcdaa3f964a5204e4e21e3,Perle de Prague (La),50.07575327471632,14.419906367082529,French Restaurant
93,50.0755,14.421,21,15,57605a38498e13aa8ef63f34,Vietnamská restaurace,50.07418,14.418604,Vietnamese Restaurant
94,50.0755,14.421,21,16,50e814f1e4b0c4215c5d8ff3,Lamborghini cafe,50.07638051015343,14.417962689274669,American Restaurant
95,50.0755,14.421,21,17,5f131ef6076bd258d2869745,Toyoka,50.074831,14.422519,Sushi Restaurant
96,50.0755,14.421,21,18,5371e77a498ee6defeb88704,Yong,50.074318,14.418123,Chinese Restaurant
97,50.0755,14.421,21,19,5b3e4cec67f62b0030bb36b7,Pizza Alfredo,50.07674,14.422019,Italian Restaurant
98,50.0755,14.421,21,20,5e870aa74a6d1f0008f90513,Falafel King,50.0758172,14.4240069,Falafel Restaurant
99,50.07776092933239,14.417500691395738,35,0,5d55710f04defd00087e7d5c,Da Antonio,50.076322,14.415153,Pizza Place
100,50.07776092933239,14.417500691395738,35,1,4c2afb028ef52d7ff7b130ba,Krčma U Parašutistů,50.075878,14.416434,Gastropub
101,50.07776092933239,14.417500691395738,35,2,4b7295dbf964a5207d7f2de3,Klub cestovatelů Karavanseráj,50.07850303943826,14.414227959726741,Middle Eastern Restaurant
102,50.07776092933239,14.417500691395738,35,3,581ca4547d939922b34a6b84,Yori,50.077513042400405,14.414492717254037,Vietnamese Restaurant
103,50.07776092933239,14.417500691395738,35,4,4b680f99f964a520b3652be3,Lemon Leaf,50.077454,14.416609,Thai Restaurant
104,50.07776092933239,14.417500691395738,35,5,599339479be52204b16c5392,Kathmandu,50.07829112031367,14.414939021313568,Indian Restaurant
105,50.07776092933239,14.417500691395738,35,6,5f0e066ab5c3dd682bee817d,Gran Fierro,50.0773917,14.4156839,Argentinian Restaurant
106,50.07776092933239,14.417500691395738,35,7,58b970304bc2f1632a2912bb,밥; rýže,50.076992056920226,14.415205936554853,Korean Restaurant
107,50.07776092933239,14.417500691395738,35,8,5d7639862b61ba0007696356,The Nest,50.07801,14.418738,Asian Restaurant
108,50.07776092933239,14.417500691395738,35,9,4adcdaa4f964a520d34e21e3,The Globe,50.077973,14.416445,Café
109,50.07776092933239,14.417500691395738,35,10,4e666c33d4c0c8a694a71877,Manni Kebabish,50.077670348408695,14.418306539137802,Pakistani Restaurant
110,50.07776092933239,14.417500691395738,35,11,4ebc1398e5faf7ab659f9c78,Miss Saigon,50.078056066639036,14.418477596991137,Vietnamese Restaurant
111,50.07776092933239,14.417500691395738,35,12,4be6fad3d4f7c9b61a492720,U Matějíčků,50.076559,14.415083,Czech Restaurant
112,50.07776092933239,14.417500691395738,35,13,562b9bf4498e415e69e28e85,Restaurace Myslíkova,50.07786617812571,14.418077941412474,Czech Restaurant
113,50.07776092933239,14.417500691395738,35,14,553a56f1498e0478453878fb,San Carlo,50.07619,14.415601,Italian Restaurant
114,50.07776092933239,14.417500691395738,35,15,54a45834498e6c1a0a355e9f,Malá Bretaň,50.079683630370965,14.417769773244764,Bar
115,50.07776092933239,14.417500691395738,35,16,4d2afb0b915fa093572b130a,Švejk Restaurant U Karla,50.07859998808339,14.417346628689538,Czech Restaurant
116,50.07776092933239,14.417500691395738,35,17,5ece3e1553dd4e000835070b,QQ Asian Kitchen,50.077568,14.4181185,Asian Restaurant
117,50.07776092933239,14.417500691395738,35,18,54296836498eabdbcfc5d275,Sushi,50.076793,14.415036,Sushi Restaurant
118,50.07776092933239,14.417500691395738,35,19,5a1ac700c824ae54c38f4236,Bistro Palermo,50.078309,14.416225,Italian Restaurant
119,50.07776092933239,14.417500691395738,35,20,51d97a5b498e9d28f0a4f4bf,Čas na jídlo,50.07693111606944,14.415158438998947,Eastern European Restaurant
120,50.07776092933239,14.417500691395738,35,21,5177aa2fe4b0b3a24973a84b,Babroszza,50.07774353027344,14.41810131072998,Indian Restaurant
121,50.07776092933239,14.417500691395738,35,22,52b05e2f11d2b6a3b09b752f,Crazy Wok,50.07922882620301,14.419825597087764,Noodle House
122,50.07776092933239,14.417500691395738,35,23,5a57b1fd5d891b14ac06d92a,Asia Point,50.076572,14.419029,Asian Restaurant
123,50.07776092933239,14.417500691395738,35,24,55c39436498ecb81043cf02c,Sun Feng Kai Yuan,50.077791,14.420305,Chinese Restaurant
124,50.07776092933239,14.417500691395738,35,25,4b11762df964a5201a7d23e3,Zářivá perla,50.07799241850321,14.41807347447375,Chinese Restaurant
125,50.07776092933239,14.417500691395738,35,26,592a0befb1ec136d9f2d5a6d,nico's place,50.077849,14.414834,Italian Restaurant
126,50.07776092933239,14.417500691395738,35,27,5710ffe5cd10b024a0f349cf,Na Rebece,50.079247,14.416545,Asian Restaurant
127,50.07776092933239,14.417500691395738,35,28,4be7e6954485d13a29fc93ee,Chinese fast food,50.07753265214461,14.41927917536402,Chinese Restaurant
128,50.07776092933239,14.417500691395738,35,29,53f843c7498e9dac1e1513ad,Sushi California,50.07708461697418,14.415392128738588,Sushi Restaurant
129,50.07776092933239,14.417500691395738,35,30,52e697ea498e2701cb125322,xing wang ge,50.076925,14.415168,Asian Restaurant
130,50.07776092933239,14.417500691395738,35,31,4adcdaa1f964a520fc4d21e3,Gargoyle's Restaurant,50.078241,14.416914,Eastern European Restaurant
131,50.07776092933239,14.417500691395738,35,32,56f2819b498e6783a7a94186,Café Restaurant Colibri,50.07631755953194,14.41486471175058,Czech Restaurant
132,50.07776092933239,14.417500691395738,35,33,50e814f1e4b0c4215c5d8ff3,Lamborghini cafe,50.07638051015343,14.417962689274669,American Restaurant
133,50.07776092933239,14.417500691395738,35,34,54df9cbe498e1183c514b4b5,Restaurace Krásná Praha,50.077734673545876,14.414418504353076,Czech Restaurant
134,50.073239070667604,14.417500691395738,13,0,56b31680498efe7f7a6af3a4,BlackDog Cantina,50.073433,14.41475,Burger Joint
135,50.073239070667604,14.417500691395738,13,1,5784d604498e6384cf71d457,M'roll,50.074018,14.416369,Vietnamese Restaurant
136,50.073239070667604,14.417500691395738,13,2,59cbdc763ba767521756b0e0,Taaj Palace,50.075048,14.416003,Indian Restaurant
137,50.073239070667604,14.417500691395738,13,3,4b6d750bf964a52086752ce3,Fresco Vento,50.07323271269278,14.41416346102832,Italian Restaurant
138,50.073239070667604,14.417500691395738,13,4,5afaa46762845c0024ea18ec,Litchi - Asian restaurant,50.074501,14.41821,Asian Restaurant
139,50.073239070667604,14.417500691395738,13,5,4cebfbd0b9975481b5740f45,Café Amandine,50.07377,14.41753,Café
140,50.073239070667604,14.417500691395738,13,6,5937de1225fb7b781adabc55,Pho Viet,50.074005,14.418528,Vietnamese Restaurant
141,50.073239070667604,14.417500691395738,13,7,4b98e01ef964a520a35335e3,Jin Xing Ge,50.073953,14.415164,Chinese Restaurant
142,50.073239070667604,14.417500691395738,13,8,57605a38498e13aa8ef63f34,Vietnamská restaurace,50.07418,14.418604,Vietnamese Restaurant
143,50.073239070667604,14.417500691395738,13,9,4ec55cb777c8d6951137972a,Dnister,50.07329,14.416073,Ukrainian Restaurant
144,50.073239070667604,14.417500691395738,13,10,53a67cad498ebd730dc791bb,La Marsa,50.07466606742039,14.415937390223116,Mediterranean Restaurant
145,50.073239070667604,14.417500691395738,13,11,5371e77a498ee6defeb88704,Yong,50.074318,14.418123,Chinese Restaurant
146,50.073239070667604,14.417500691395738,13,12,552c274e498e49883ba6e3a8,Husinec Restourace,50.07395877589334,14.417115431040337,Czech Restaurant
147,50.07776092933239,14.424499308604261,44,0,5f5a641cddd8f979a0ee2d59,Rock & Rolls,50.07717,14.427852,Asian Restaurant
148,50.07776092933239,14.424499308604261,44,1,5f59fd637ca2954a05998dde,Yôri Restaurant,50.0765439,14.4242714,Asian Restaurant
149,50.07776092933239,14.424499308604261,44,2,4b8be032f964a520edaf32e3,U Pravdů,50.077392051246385,14.423517679227105,Eastern European Restaurant
150,50.07776092933239,14.424499308604261,44,3,5213666e498ef921610248b7,Bombay Express,50.07935,14.42258,Indian Restaurant
151,50.07776092933239,14.424499308604261,44,4,4b6b4232f964a52093fc2be3,Miyabi,50.07859713919348,14.42334267873664,Sushi Restaurant
152,50.07776092933239,14.424499308604261,44,5,55e88d9a498eac9b696244d3,Restaurace U Šumavy,50.07603939209888,14.424215882657048,Czech Restaurant
153,50.07776092933239,14.424499308604261,44,6,5f4e1cbcd9b62e61b6adfd05,Năm - Viet Kitchen,50.078815,14.421921,Vietnamese Restaurant
154,50.07776092933239,14.424499308604261,44,7,4b7bdcadf964a52022712fe3,Pizzeria Carlo,50.07673075128637,14.421932196431971,Pizza Place
155,50.07776092933239,14.424499308604261,44,8,5f345e9f1c7e17737cbe7015,Bistro Punjab & Kebab,50.077427,14.424103,North Indian Restaurant
156,50.07776092933239,14.424499308604261,44,9,5a344929123a1968dce0b346,Ježkovy voči,50.07779033343758,14.426609734206712,Bar
157,50.07776092933239,14.424499308604261,44,10,54dce8c3498e8ed28e25f4af,Tuscany Taste,50.07897946204346,14.42545646626445,Bistro
158,50.07776092933239,14.424499308604261,44,11,5f1d9446b8441e5e1c6e950a,Hanoi Square,50.078034,14.424887,Vietnamese Restaurant
159,50.07776092933239,14.424499308604261,44,12,50e324d4e4b0fe644a9de59d,Oi Zoi Oi Pho u Fugiho,50.07743237516211,14.423015761261164,Asian Restaurant
160,50.07776092933239,14.424499308604261,44,13,580caa5738fa6aa4f88f937d,Hoang Thanh,50.07844226715755,14.42429708907732,Vietnamese Restaurant
161,50.07776092933239,14.424499308604261,44,14,5a292d854a7aae5b306034a5,Bao Dao,50.076313,14.42437,Chinese Restaurant
162,50.07776092933239,14.424499308604261,44,15,5d1348ded16a1f0023329c29,La Casa Trattoria V Jámě,50.079888,14.424948,Italian Restaurant
163,50.07776092933239,14.424499308604261,44,16,5d4aea7c785d790008cb87c2,DuHa,50.07730340180895,14.421918690204619,Sushi Restaurant
164,50.07776092933239,14.424499308604261,44,17,57dbcd54498e856bf6d9e341,The Londoners,50.07773340637518,14.424893260002136,Sports Bar
165,50.07776092933239,14.424499308604261,44,18,4adcdaa3f964a520494e21e3,Novoměstský pivovar,50.07934296608443,14.423220879940484,Brewery
166,50.07776092933239,14.424499308604261,44,19,528ca35e11d2d1e7f9dc6d94,Amaryla Restaurant,50.07805502569209,14.425298936297828,Modern European Restaurant
167,50.07776092933239,14.424499308604261,44,20,581b778f5d49e87af9266a4d,Pelmeňárna,50.07668733291743,14.424514021608383,Pelmeni House
168,50.07776092933239,14.424499308604261,44,21,5a3bef1586f4cc68659bf375,Mala India Restaurant,50.07764,14.427592,Indian Restaurant
169,50.07776092933239,14.424499308604261,44,22,4b4af3a7f964a520329026e3,Restaurant Bresto,50.07843669945369,14.424866174544002,Italian Restaurant
170,50.07776092933239,14.424499308604261,44,23,4b292dd6f964a520679a24e3,ROOM,50.07999990465436,14.424590072352801,Tapas Restaurant
171,50.07776092933239,14.424499308604261,44,24,4cb96d310180721eb51f9461,Café 35,50.07898143982554,14.42495939554758,Café
172,50.07776092933239,14.424499308604261,44,25,5883831f51d19e79a173594c,Donnerkebab Chalid,50.078468,14.426849,Doner Restaurant
173,50.07776092933239,14.424499308604261,44,26,5a8c02aafdb9a742c6983407,Oriental Grill,50.0759,14.423957,Middle Eastern Restaurant
174,50.07776092933239,14.424499308604261,44,27,4e1f6116b61c8ce9c7cc1f22,La Cubanita,50.07774,14.424959,Brazilian Restaurant
175,50.07776092933239,14.424499308604261,44,28,59bfa4316bdee626d869353d,Fili Restaurant,50.078968,14.427173,Asian Restaurant
176,50.07776092933239,14.424499308604261,44,29,5444e4f1498e9fef3ceb790f,Buta Restaurant and Lounge,50.079122512787826,14.423359230738933,Eastern European Restaurant
177,50.07776092933239,14.424499308604261,44,30,53e0d833498ece6060407f5d,T&G Restaurant Sushi,50.07743453979492,14.427651405334473,Asian Restaurant
178,50.07776092933239,14.424499308604261,44,31,4c97853a82b56dcb3874eaaa,Moravský archiv vin,50.078992,14.422887,Eastern European Restaurant
179,50.07776092933239,14.424499308604261,44,32,5b99c487419a9e002cc73031,Aspendos,50.077255,14.423914,Turkish Restaurant
180,50.07776092933239,14.424499308604261,44,33,58c1337452e32d6c9b321bca,Wasabi Sushi,50.0799,14.424996,Japanese Restaurant
181,50.07776092933239,14.424499308604261,44,34,4f9295a2e4b0ab5f095cd3e9,Lamborgini Café,50.078983086315034,14.421868410978158,Italian Restaurant
182,50.07776092933239,14.424499308604261,44,35,51c028a7498ec7d238438b2d,Halal Meat,50.07855047524101,14.423974148663675,Turkish Restaurant
183,50.07776092933239,14.424499308604261,44,36,5b3e4cec67f62b0030bb36b7,Pizza Alfredo,50.07674,14.422019,Italian Restaurant
184,50.07776092933239,14.424499308604261,44,37,50d9edb6e4b0421e71632523,Caffe & Pizzeria,50.077648,14.424905,Italian Restaurant
185,50.07776092933239,14.424499308604261,44,38,4b98e598f964a520ea5435e3,Le Xin,50.077868161609764,14.424860827518794,Asian Restaurant
186,50.07776092933239,14.424499308604261,44,39,567ed8e1498ed30f1bf7d353,mibi's international cuisine,50.07658292813329,14.424476404681927,Asian Restaurant
187,50.07776092933239,14.424499308604261,44,40,4fdc927ae4b06f6984dafab7,chilli con carne contest,50.07991409301758,14.425490379333496,American Restaurant
188,50.07776092933239,14.424499308604261,44,41,56924d72498e1cf94d1c700a,MatsUko,50.07629325877502,14.424308525972878,Asian Restaurant
189,50.07776092933239,14.424499308604261,44,42,5b7526602619ee002c412ae1,Cafe Susu,50.078398,14.424546,Café
190,50.07776092933239,14.424499308604261,44,43,5e870aa74a6d1f0008f90513,Falafel King,50.0758172,14.4240069,Falafel Restaurant
191,50.073239070667604,14.424499308604261,8,0,5d3063730be70b00088f62c9,Emi Restaurant,50.074072,14.424769,Asian Restaurant
192,50.073239070667604,14.424499308604261,8,1,5f3d68e5e8817c1a69e681f9,Classic Afro Bite & Cafe,50.07329,14.423836,African Restaurant
193,50.073239070667604,14.424499308604261,8,2,4c1d050ab4e62d7fa6fddb93,Jin Xin,50.07427836246531,14.42383136078536,Chinese Restaurant
194,50.073239070667604,14.424499308604261,8,3,535adb0f498ec2720fb1b5f1,janhubovic,50.074551,14.423538,Arepa Restaurant
195,50.073239070667604,14.424499308604261,8,4,50e3fdbee4b0f6dd2973d222,Bistro Pho Viet Nam,50.074056814349014,14.422043434575162,Vietnamese Restaurant
196,50.073239070667604,14.424499308604261,8,5,5f131ef6076bd258d2869745,Toyoka,50.074831,14.422519,Sushi Restaurant
197,50.073239070667604,14.424499308604261,8,6,515f2771e4b090b9d03eeb0d,Peklo,50.07168847133976,14.426024269207488,Eastern European Restaurant
198,50.073239070667604,14.424499308604261,8,7,51fbb987498ee94bf7ac895a,Kaštágo :D,50.073350618396994,14.427662164784119,American Restaurant
199,50.0755,14.435799999999999,50,0,51e6a090498e41f4704c04d7,Vinohradský parlament,50.07542,14.438543,Czech Restaurant
200,50.0755,14.435799999999999,50,1,4b9be521f964a520b13236e3,U Dandů,50.075905,14.439229,Pub
201,50.0755,14.435799999999999,50,2,5326def811d268288388b453,Bruxx,50.075439,14.438069,Belgian Restaurant
202,50.0755,14.435799999999999,50,3,5b508dcb82a75000397927a6,Ossegg,50.076559,14.438781,Brewery
203,50.0755,14.435799999999999,50,4,4fface89e4b0a0306dbfd10e,Pho Vietnam Tuan & Lan,50.07671103289359,14.43321705152752,Vietnamese Restaurant
204,50.0755,14.435799999999999,50,5,5478bb33498e0c555a6dcad9,Everest,50.077163,14.437371,Indian Restaurant
205,50.0755,14.435799999999999,50,6,52c1ce5911d2d1e4fd8950bb,Prague Beer Museum,50.074535598204015,14.436609952318054,Beer Bar
206,50.0755,14.435799999999999,50,7,4bfb966dab180f4766feb3ce,Mlsnej Kocour,50.074356,14.435779,Czech Restaurant
207,50.0755,14.435799999999999,50,8,4af2de05f964a520dce821e3,Grosseto,50.07490942134842,14.437367189468985,Italian Restaurant
208,50.0755,14.435799999999999,50,9,579cee4a498e472ea64cfe3a,PHUONG NAM,50.07635071790406,14.43283863523949,Vietnamese Restaurant
209,50.0755,14.435799999999999,50,10,5402dac1498e6193c285bbb5,Mr. Bánh Mì,50.0743306069842,14.434475805471276,Vietnamese Restaurant
210,50.0755,14.435799999999999,50,11,4af47e99f964a52025f321e3,Aromi,50.07635204580547,14.436367934862215,Italian Restaurant
211,50.0755,14.435799999999999,50,12,4ee87ce68b81f7a73dde8b50,Bistro Olympos,50.075898978331665,14.438074032417012,Greek Restaurant
212,50.0755,14.435799999999999,50,13,5d0906db7b4669002b425dba,La Taquería,50.074277,14.434947,Taco Place
213,50.0755,14.435799999999999,50,14,5820815bded8f8466656ebea,Yuniku,50.075919,14.438052,Korean BBQ Restaurant
214,50.0755,14.435799999999999,50,15,5c4348ba57a537002c1d0f46,BON,50.07626438854767,14.436621859553494,Ramen Restaurant
215,50.0755,14.435799999999999,50,16,4b447cdaf964a5207ef525e3,Mezcal,50.07518551746593,14.43437417460934,Latin American Restaurant
216,50.0755,14.435799999999999,50,17,4b7b0158f964a5208f4b2fe3,Restaurace Historie,50.075338311642675,14.43356666648232,Czech Restaurant
217,50.0755,14.435799999999999,50,18,50a683f7e4b0cbed9ee10ff8,BLUE WAGON,50.07406869729935,14.438328945339064,Modern European Restaurant
218,50.0755,14.435799999999999,50,19,536d0814498e7b180d730bc7,Restaurant Caesar,50.07726365367657,14.433812744882243,Mediterranean Restaurant
219,50.0755,14.435799999999999,50,20,5904c12935811b1b5138c67b,SOVA,50.07683631805836,14.433775601707625,Modern European Restaurant
220,50.0755,14.435799999999999,50,21,5a6cc35b75eee465ccf9cafe,Hana,50.075504,14.439303,Vietnamese Restaurant
221,50.0755,14.435799999999999,50,22,560a6727498ec73d37d65102,Curry Express,50.07531853895671,14.433397325385329,Indian Restaurant
222,50.0755,14.435799999999999,50,23,5aa19c6ec0cacb17057b6014,Hanoi,50.075467,14.439148,Vietnamese Restaurant
223,50.0755,14.435799999999999,50,24,51befb9b498e7e947c7c16c3,Tung Anh,50.074474,14.43446,Chinese Restaurant
224,50.0755,14.435799999999999,50,25,54119ac3498ea076467a0254,Aris,50.076247,14.43807,Asian Restaurant
225,50.0755,14.435799999999999,50,26,53b2cfe4498eb1512227f758,Konec Konců restaurant,50.07668340094566,14.438652992248533,Czech Restaurant
226,50.0755,14.435799999999999,50,27,4bf3bf5e98ac0f47342563a8,Pizza Bar Ima,50.07542833079158,14.434006809702458,Italian Restaurant
227,50.0755,14.435799999999999,50,28,50488df5e4b0b821a91e40ed,Quán Hai Duong,50.07534518852779,14.43383393018425,Vietnamese Restaurant
228,50.0755,14.435799999999999,50,29,4adcdaa2f964a5201e4e21e3,Restaurant Pepino,50.07476971519903,14.434980081079688,South American Restaurant
229,50.0755,14.435799999999999,50,30,512d176be4b0a4ac4ed415ba,Rumunská,50.07408142089844,14.436441421508789,Eastern European Restaurant
230,50.0755,14.435799999999999,50,31,5555d5c4498e1bc724fdc34d,Blanická koruna,50.07552952630686,14.439258012469327,Czech Restaurant
231,50.0755,14.435799999999999,50,32,5ddfc63826eee00008b4dc95,Lotus,50.07551,14.4339695,Asian Restaurant
232,50.0755,14.435799999999999,50,33,580ddf7538fac33b80a74560,Bistro Saliva,50.075351,14.433391,Greek Restaurant
233,50.0755,14.435799999999999,50,34,5698d6f2498e29596112bdb0,Lan restaurace,50.07604,14.43548,Vietnamese Restaurant
234,50.0755,14.435799999999999,50,35,53c7a59b498e6454bc26ecee,shusi Bar,50.0771598815918,14.43518352508545,Sushi Restaurant
235,50.0755,14.435799999999999,50,36,5c7d342d7d849700390a4805,Thirty Thr33,50.073963,14.435601,Café
236,50.0755,14.435799999999999,50,37,550aca9b498e503007aee43f,Alhamra. Arabské bistro,50.075247,14.433568,Falafel Restaurant
237,50.0755,14.435799999999999,50,38,515fe379498eebfea7bfac21,Hai Anh Restaurant,50.075410701120035,14.433859370014641,Vietnamese Restaurant
238,50.0755,14.435799999999999,50,39,564e0dda498e236ed32433e3,Sofram,50.074106042775405,14.433667385250146,Turkish Restaurant
239,50.0755,14.435799999999999,50,40,51a8804d498e5954ca64e640,Vietnamské bistro Tung Anh,50.07440801744884,14.43476225979748,Vietnamese Restaurant
240,50.0755,14.435799999999999,50,41,5dcef9e90cd86e000896b2a8,Ritumei,50.07601,14.433134,Chinese Restaurant
241,50.0755,14.435799999999999,50,42,537b5a63498e9a76c5330aef,Praha,50.07493571447439,14.436619171401833,Chinese Restaurant
242,50.0755,14.435799999999999,50,43,52440424498ecddc4356408c,Punjabi food,50.075393,14.432762,Indian Restaurant
243,50.0755,14.435799999999999,50,44,521cf43111d2517ca4733ba5,Korean Grill,50.074612,14.435931,Korean Restaurant
244,50.0755,14.435799999999999,50,45,57669d41498e0b22e95aa4d3,Lucky Luciano Ristorante,50.077021,14.436578,Italian Restaurant
245,50.0755,14.435799999999999,50,46,4f5cf56be4b070e0484db17e,U dvou kasparu,50.073590775768494,14.437494298758628,Eastern European Restaurant
246,50.0755,14.435799999999999,50,47,5a35150a9746177e46527533,Xin Dong Hai,50.07544,14.433964,Chinese Restaurant
247,50.0755,14.435799999999999,50,48,4adcdaa2f964a5202e4e21e3,Pizzeria Mario,50.07520736239567,14.432980997330512,Indian Restaurant
248,50.0755,14.435799999999999,50,49,5fa3d56251be934c9e331f22,Chef Sultan,50.0755319,14.4329939,Indian Restaurant
249,50.07776092933239,14.432300691395737,31,0,4fface89e4b0a0306dbfd10e,Pho Vietnam Tuan & Lan,50.07671103289359,14.43321705152752,Vietnamese Restaurant
250,50.07776092933239,14.432300691395737,31,1,4eb965d0f5b94bd85d7744b3,Restaurace Husinec,50.07846380109563,14.429455342523472,Czech Restaurant
251,50.07776092933239,14.432300691395737,31,2,5c7d26c907190200250125ef,Thanh Tam,50.078871818657426,14.434576034545898,Vietnamese Restaurant
252,50.07776092933239,14.432300691395737,31,3,4b5dd963f964a520926f29e3,Demínka,50.07706867766072,14.43130898506146,Pub
253,50.07776092933239,14.432300691395737,31,4,579cee4a498e472ea64cfe3a,PHUONG NAM,50.07635071790406,14.43283863523949,Vietnamese Restaurant
254,50.07776092933239,14.432300691395737,31,5,56b8cfd4498ee69b04c6db98,Mechanický Balet,50.076949,14.430223,Modern European Restaurant
255,50.07776092933239,14.432300691395737,31,6,552191f6498e341e6a93b894,Mangal,50.07943666279627,14.430020994055816,Turkish Restaurant
256,50.07776092933239,14.432300691395737,31,7,4adcdaa2f964a520234e21e3,Bílá kráva,50.07774688656042,14.432578659156075,Steakhouse
257,50.07776092933239,14.432300691395737,31,8,585568ffabf63277f15750b8,Chutnoff Centrum,50.076604,14.430566,Russian Restaurant
258,50.07776092933239,14.432300691395737,31,9,5731e7cb498e77a6f4448a23,Hurry Curry,50.076564469750664,14.43137602499086,Indian Restaurant
259,50.07776092933239,14.432300691395737,31,10,536d0814498e7b180d730bc7,Restaurant Caesar,50.07726365367657,14.433812744882243,Mediterranean Restaurant
260,50.07776092933239,14.432300691395737,31,11,5904c12935811b1b5138c67b,SOVA,50.07683631805836,14.433775601707625,Modern European Restaurant
261,50.07776092933239,14.432300691395737,31,12,4dc7d58dae608779d17356bf,Shanghai Restaurace,50.07707461747513,14.431079055429748,Chinese Restaurant
262,50.07776092933239,14.432300691395737,31,13,50ae065ae4b0441cd7bde4e3,Cafe Buddha,50.07874227430695,14.435156190149792,Sushi Restaurant
263,50.07776092933239,14.432300691395737,31,14,4b5b375df964a520e2eb28e3,Ztráty a nálezy,50.07853651519954,14.435171164932848,Czech Restaurant
264,50.07776092933239,14.432300691395737,31,15,58f73f374acb193046dc0618,VJ Kitchen,50.07625994962649,14.432128518819809,Sushi Restaurant
265,50.07776092933239,14.432300691395737,31,16,528a0079498e63a62068b322,Bongsen Restaurant,50.07817063774683,14.433266676839217,Asian Restaurant
266,50.07776092933239,14.432300691395737,31,17,5bd1a3f4c97f28002c9f1395,Yosoki,50.076031,14.432092,Sushi Restaurant
267,50.07776092933239,14.432300691395737,31,18,5152db45e4b088d76f861eb4,Cafe Restaurant Sklenik,50.076843,14.431228,Eastern European Restaurant
268,50.07776092933239,14.432300691395737,31,19,52440ad8498e917282370d71,Orient restaurant,50.079660856471605,14.431104383560887,Afghan Restaurant
269,50.07776092933239,14.432300691395737,31,20,4c876bf4e602b1f70d70c77a,Bong sen,50.07813681629965,14.432923469360416,Asian Restaurant
270,50.07776092933239,14.432300691395737,31,21,53c7a59b498e6454bc26ecee,shusi Bar,50.0771598815918,14.43518352508545,Sushi Restaurant
271,50.07776092933239,14.432300691395737,31,22,5d96449fc7851e0007d54842,Moon Gate,50.078727619787074,14.435386061668396,Chinese Restaurant
272,50.07776092933239,14.432300691395737,31,23,4fb6a868e4b039c1e774d9ef,XIANG GE LI LA,50.07930014565216,14.42982681055948,Sushi Restaurant
273,50.07776092933239,14.432300691395737,31,24,4bc619746c26b713d94cecf3,Himalaya Fast Food,50.07656188707206,14.431361819507583,Indian Restaurant
274,50.07776092933239,14.432300691395737,31,25,5dcef9e90cd86e000896b2a8,Ritumei,50.07601,14.433134,Chinese Restaurant
275,50.07776092933239,14.432300691395737,31,26,5555d725498e4652e6fd05dd,U Čínského Malíře,50.078018131059494,14.433154143669293,Asian Restaurant
276,50.07776092933239,14.432300691395737,31,27,53524cdc498e4643115d8cd4,wok & sushi Hui Feng,50.079085592947415,14.429900785334365,Chinese Restaurant
277,50.07776092933239,14.432300691395737,31,28,55281e1c498e28d0392c99fb,Czech Goose & Duck,50.07756673784921,14.429235792547383,Czech Restaurant
278,50.07776092933239,14.432300691395737,31,29,4e08b0f6d4c03ae0b9d13b8f,Sklípek U Munků,50.07672310176489,14.430389900657294,Czech Restaurant
279,50.07776092933239,14.432300691395737,31,30,510eb3b5e4b0873bcc46130b,Chef Restaurent&Garden,50.07693796745371,14.429075989118846,French Restaurant
280,50.073239070667604,14.432300691395737,43,0,594b8770a92d9826ccaa583b,Paprika,50.073984551413254,14.432168841246757,Middle Eastern Restaurant
281,50.073239070667604,14.432300691395737,43,1,4af59741f964a5200bfa21e3,Dhaba Beas,50.07329261040369,14.43316703959428,Vegetarian / Vegan Restaurant
282,50.073239070667604,14.432300691395737,43,2,4b1ba8d8f964a5207afc23e3,Baifu,50.073442865313055,14.433049017976002,Sushi Restaurant
283,50.073239070667604,14.432300691395737,43,3,5402dac1498e6193c285bbb5,Mr. Bánh Mì,50.0743306069842,14.434475805471276,Vietnamese Restaurant
284,50.073239070667604,14.432300691395737,43,4,5193646f498e211c1a804e5e,Madame Lyn,50.071444894623795,14.43390637000509,Vietnamese Restaurant
285,50.073239070667604,14.432300691395737,43,5,5d0906db7b4669002b425dba,La Taquería,50.074277,14.434947,Taco Place
286,50.073239070667604,14.432300691395737,43,6,53624215498eb842b9fadd05,Singidunum,50.07342786892672,14.433079932018144,Eastern European Restaurant
287,50.073239070667604,14.432300691395737,43,7,4bc0dfa8b492d13ae610a560,Na Břežance,50.07387438238097,14.431327342903186,Czech Restaurant
288,50.073239070667604,14.432300691395737,43,8,55951709498ed02c1f37b028,Kung Fu Pasta,50.074053122466864,14.431974291801453,Dim Sum Restaurant
289,50.073239070667604,14.432300691395737,43,9,58e612ffb21014341cd461c2,Tre Xinh,50.07199133499511,14.432105060979698,Vietnamese Restaurant
290,50.073239070667604,14.432300691395737,43,10,4ff1ea78e4b000351b59b036,Döner Kebab House,50.07314321172141,14.433208774195341,Turkish Restaurant
291,50.073239070667604,14.432300691395737,43,11,5b979814cf72a0002c18caf5,Jin Cheng,50.0721,14.432013,Chinese Restaurant
292,50.073239070667604,14.432300691395737,43,12,4f609c446b74ab0776a2026e,Ristorante LEGGERO,50.07242650171184,14.434534221377941,Mediterranean Restaurant
293,50.073239070667604,14.432300691395737,43,13,5548ebfa498eab91b2233169,Raclettka,50.07319408885615,14.431784340624231,Swiss Restaurant
294,50.073239070667604,14.432300691395737,43,14,5c0cf15f1af852002cc2cfc0,Wonderlust Coffee & Restaurant,50.074883,14.4303465,Vietnamese Restaurant
295,50.073239070667604,14.432300691395737,43,15,54194efb498e1a6158a79180,Tiskárna,50.072130276854125,14.430624440962449,Czech Restaurant
296,50.073239070667604,14.432300691395737,43,16,560a6727498ec73d37d65102,Curry Express,50.07531853895671,14.433397325385329,Indian Restaurant
297,50.073239070667604,14.432300691395737,43,17,51befb9b498e7e947c7c16c3,Tung Anh,50.074474,14.43446,Chinese Restaurant
298,50.073239070667604,14.432300691395737,43,18,5e306bf31951b900086c0e1d,Yangon,50.073913,14.433016,Thai Restaurant
299,50.073239070667604,14.432300691395737,43,19,536f2df1498e9efb782b15e2,Amigo Restoran,50.071441650390625,14.430654525756836,Czech Restaurant
300,50.073239070667604,14.432300691395737,43,20,5be85083b23dfa002cfb78c8,Ke Lai Fu,50.072097,14.43218,Chinese Restaurant
301,50.073239070667604,14.432300691395737,43,21,54747874498ec0bbca9b5410,El Torro Furioso,50.074781,14.431076,Spanish Restaurant
302,50.073239070667604,14.432300691395737,43,22,5ad3701b3e6741122bbe2dd1,U Baumanů,50.07256,14.433418,Czech Restaurant
303,50.073239070667604,14.432300691395737,43,23,59ff907ab2958f78fd59b107,McCarthys,50.07385,14.432208,Czech Restaurant
304,50.073239070667604,14.432300691395737,43,24,580ddf7538fac33b80a74560,Bistro Saliva,50.075351,14.433391,Greek Restaurant
305,50.073239070667604,14.432300691395737,43,25,5650ccfa498edc181228bc0d,U Hotilku,50.071929931640625,14.432099342346191,Czech Restaurant
306,50.073239070667604,14.432300691395737,43,26,577cdb12498e96f847b8ddc7,Flames Grill,50.07488908418722,14.430216281994575,Mediterranean Restaurant
307,50.073239070667604,14.432300691395737,43,27,5c7d342d7d849700390a4805,Thirty Thr33,50.073963,14.435601,Café
308,50.073239070667604,14.432300691395737,43,28,5089ab02e4b032d8bd1e5c6d,kmostra,50.07210683903103,14.43366158490206,Italian Restaurant
309,50.073239070667604,14.432300691395737,43,29,550aca9b498e503007aee43f,Alhamra. Arabské bistro,50.075247,14.433568,Falafel Restaurant
310,50.073239070667604,14.432300691395737,43,30,564e0dda498e236ed32433e3,Sofram,50.074106042775405,14.433667385250146,Turkish Restaurant
311,50.073239070667604,14.432300691395737,43,31,52334ce011d2bbaf2c8ead9b,Škuner klub.,50.07147216796875,14.433398246765137,Cajun / Creole Restaurant
312,50.073239070667604,14.432300691395737,43,32,51a8804d498e5954ca64e640,Vietnamské bistro Tung Anh,50.07440801744884,14.43476225979748,Vietnamese Restaurant
313,50.073239070667604,14.432300691395737,43,33,51974b9d498eb829e27043da,U Mlsnyho Bobra,50.07413599106303,14.429261129041073,Italian Restaurant
314,50.073239070667604,14.432300691395737,43,34,5d5fcd4e3aa5e60008726849,Baifu Ramen Bar,50.073491,14.432809,Ramen Restaurant
315,50.073239070667604,14.432300691395737,43,35,4c2891c6ce3fc928854b6d88,Pizzerie La Romantica,50.072483,14.434763,Italian Restaurant
316,50.073239070667604,14.432300691395737,43,36,56f05d3e498e670545bdfbdb,Green Garden Hotel Restaurant,50.07167151143057,14.430122210768666,Eastern European Restaurant
317,50.073239070667604,14.432300691395737,43,37,52440424498ecddc4356408c,Punjabi food,50.075393,14.432762,Indian Restaurant
318,50.073239070667604,14.432300691395737,43,38,51765aebe4b09e855c9cdd17,U Divadlo,50.072578862834966,14.431936071270444,Eastern European Restaurant
319,50.073239070667604,14.432300691395737,43,39,4b1d265cf964a520490c24e3,VegFood,50.072856,14.434539633333332,Asian Restaurant
320,50.073239070667604,14.432300691395737,43,40,5171a3c0498e787e5175c3dd,Alladin Kebab,50.071976,14.431863,Burrito Place
321,50.073239070667604,14.432300691395737,43,41,4adcdaa2f964a5202e4e21e3,Pizzeria Mario,50.07520736239567,14.432980997330512,Indian Restaurant
322,50.073239070667604,14.432300691395737,43,42,5a27deb3fd16bb3c58990eb4,Red Dragon,50.071255,14.430931,Vietnamese Restaurant
323,50.07776092933239,14.43929930860426,31,0,4b9be521f964a520b13236e3,U Dandů,50.075905,14.439229,Pub
324,50.07776092933239,14.43929930860426,31,1,5b508dcb82a75000397927a6,Ossegg,50.076559,14.438781,Brewery
325,50.07776092933239,14.43929930860426,31,2,5478bb33498e0c555a6dcad9,Everest,50.077163,14.437371,Indian Restaurant
326,50.07776092933239,14.43929930860426,31,3,514f0340e4b08b3093f4847a,Pho family,50.07631847564127,14.440675377845764,Noodle House
327,50.07776092933239,14.43929930860426,31,4,4ee87ce68b81f7a73dde8b50,Bistro Olympos,50.075898978331665,14.438074032417012,Greek Restaurant
328,50.07776092933239,14.43929930860426,31,5,5820815bded8f8466656ebea,Yuniku,50.075919,14.438052,Korean BBQ Restaurant
329,50.07776092933239,14.43929930860426,31,6,5581635b498e023fb9996b04,Wok Express,50.07624851149869,14.44097722521408,Asian Restaurant
330,50.07776092933239,14.43929930860426,31,7,4e4a4d77d4c0dae7bfc99d6e,Lal Qila,50.07881843826645,14.436974150645387,Indian Restaurant
331,50.07776092933239,14.43929930860426,31,8,54666b26498e2881f814d59b,China Dalian,50.077213287353516,14.440929412841797,Chinese Restaurant
332,50.07776092933239,14.43929930860426,31,9,5e31f035fcaaa10008cf3d4f,Masito,50.078386,14.438307,Korean Restaurant
333,50.07776092933239,14.43929930860426,31,10,55546ee9498eb2364eaa9f5b,Tomo,50.078043888003876,14.440209070580366,Japanese Restaurant
334,50.07776092933239,14.43929930860426,31,11,506c4f4ce4b0b6e0eb528ee4,Tai Wan,50.07699775356525,14.442019475752664,Chinese Restaurant
335,50.07776092933239,14.43929930860426,31,12,53959025498e4754a4bf56a5,AlQuila,50.078809617944,14.436691893457958,Indian Restaurant
336,50.07776092933239,14.43929930860426,31,13,4b5b3eddf964a52003ee28e3,La Grotta,50.077661549085455,14.43787445379653,Italian Restaurant
337,50.07776092933239,14.43929930860426,31,14,54119ac3498ea076467a0254,Aris,50.076247,14.43807,Asian Restaurant
338,50.07776092933239,14.43929930860426,31,15,53b2cfe4498eb1512227f758,Konec Konců restaurant,50.07668340094566,14.438652992248533,Czech Restaurant
339,50.07776092933239,14.43929930860426,31,16,5284d9fa498e837d0e8d9d9e,Sen Vietnamese Restaurant,50.07640237411613,14.44000380632153,Vietnamese Restaurant
340,50.07776092933239,14.43929930860426,31,17,5551fe15498e585e9d4db25c,Supper Club by La Bohème,50.07670975529806,14.442003716889063,Bistro
341,50.07776092933239,14.43929930860426,31,18,5555d5c4498e1bc724fdc34d,Blanická koruna,50.07552952630686,14.439258012469327,Czech Restaurant
342,50.07776092933239,14.43929930860426,31,19,5d41d0e1104e90000883a115,The Down Under,50.07684552930977,14.441718757152556,Sports Bar
343,50.07776092933239,14.43929930860426,31,20,4adcdaa2f964a5200e4e21e3,Fondue,50.07707,14.441742,French Restaurant
344,50.07776092933239,14.43929930860426,31,21,50e8582fe4b036fe4d37f9e6,Sen,50.076204166590195,14.44141623384067,Vietnamese Restaurant
345,50.07776092933239,14.43929930860426,31,22,4da4969b9935a0936cd5e06f,Restaurant Jáva,50.078008969307646,14.436510645258634,Asian Restaurant
346,50.07776092933239,14.43929930860426,31,23,5135ad41e4b0711007390064,Učebna 207,50.076883,14.438624,Caribbean Restaurant
347,50.07776092933239,14.43929930860426,31,24,541cb3f0498e7ac703f49ef7,L'osteria - Cucina Con Vineria,50.07759805432108,14.437773392271993,Italian Restaurant
348,50.07776092933239,14.43929930860426,31,25,532adb27498e3a1924270098,Jídelna 3S,50.07769775390625,14.438362121582031,Eastern European Restaurant
349,50.07776092933239,14.43929930860426,31,26,50b6036fe4b0fe7a423aa2f4,VietFood Point,50.07766209194873,14.438276353602465,Vietnamese Restaurant
350,50.07776092933239,14.43929930860426,31,27,51e674c3498ea8b473c0b445,PHỞ Vietnamese restaurant,50.078344171128165,14.438254089045538,Vietnamese Restaurant
351,50.07776092933239,14.43929930860426,31,28,57669d41498e0b22e95aa4d3,Lucky Luciano Ristorante,50.077021,14.436578,Italian Restaurant
352,50.07776092933239,14.43929930860426,31,29,5d4efb117943180007e22fa7,Assaggio,50.077423,14.442188,Wine Bar
353,50.07776092933239,14.43929930860426,31,30,5e70b683d37476000813c6c2,"Hladové Okno ""Kolky""",50.075928,14.439338,Czech Restaurant
354,50.073239070667604,14.43929930860426,37,0,51e6a090498e41f4704c04d7,Vinohradský parlament,50.07542,14.438543,Czech Restaurant
355,50.073239070667604,14.43929930860426,37,1,4af9c4b9f964a5200f1422e3,Las Adelitas,50.071537811970494,14.439094078822642,Mexican Restaurant
356,50.073239070667604,14.43929930860426,37,2,52c1ce5911d2d1e4fd8950bb,Prague Beer Museum,50.074535598204015,14.436609952318054,Beer Bar
357,50.073239070667604,14.43929930860426,37,3,4af2de05f964a520dce821e3,Grosseto,50.07490942134842,14.437367189468985,Italian Restaurant
358,50.073239070667604,14.43929930860426,37,4,58ffa4113fcee826b9b83ba9,Barcelounoc,50.072855,14.441479,Bar
359,50.073239070667604,14.43929930860426,37,5,4b96b9f3f964a52088e034e3,U Bulínů,50.07295492185848,14.442163279875533,Pub
360,50.073239070667604,14.43929930860426,37,6,5977a3541f744007e7d8360d,California Republic,50.07283412986895,14.436053145280587,Cocktail Bar
361,50.073239070667604,14.43929930860426,37,7,55e578f0498e72a0e63e3d61,Klempírna,50.071917601761115,14.436923037956081,Czech Restaurant
362,50.073239070667604,14.43929930860426,37,8,576bde2f498e5941f511c037,PHO Duong Anh,50.072537233801164,14.440507150228866,Vietnamese Restaurant
363,50.073239070667604,14.43929930860426,37,9,51a5d9d9498e424d4032c5bd,Phở Original,50.07208825006841,14.437378935414767,Vietnamese Restaurant
364,50.073239070667604,14.43929930860426,37,10,4d601d40e4fe5481b0377c9e,Sluneční záře,50.07535154271622,14.439742283074807,Chinese Restaurant
365,50.073239070667604,14.43929930860426,37,11,4d52904a3626a09382c52fbd,Olive Point,50.073308,14.437278,Mediterranean Restaurant
366,50.073239070667604,14.43929930860426,37,12,5064c580e4b010535569b11b,Steak House J.J. 66,50.07341766357422,14.43763256072998,American Restaurant
367,50.073239070667604,14.43929930860426,37,13,50a683f7e4b0cbed9ee10ff8,BLUE WAGON,50.07406869729935,14.438328945339064,Modern European Restaurant
368,50.073239070667604,14.43929930860426,37,14,4af59a63f964a52035fa21e3,Giardino,50.07206279848593,14.437371025121099,Mediterranean Restaurant
369,50.073239070667604,14.43929930860426,37,15,58c038aef66b280a53d444f0,Masala Indian restaurant,50.07198546882821,14.439448444862155,Indian Restaurant
370,50.073239070667604,14.43929930860426,37,16,5cccc21e8a6f17002c2d6b11,Bai shun,50.072638,14.442443,Chinese Restaurant
371,50.073239070667604,14.43929930860426,37,17,5c9cb1e0b77c770039976bbd,J's Kitchen,50.074493,14.439212,Korean Restaurant
372,50.073239070667604,14.43929930860426,37,18,4ca078392fb1a1435c47fc40,Sapori,50.07256383160137,14.43819789154249,Italian Restaurant
373,50.073239070667604,14.43929930860426,37,19,5aa19c6ec0cacb17057b6014,Hanoi,50.075467,14.439148,Vietnamese Restaurant
374,50.073239070667604,14.43929930860426,37,20,51a0ce81498ef68239fdeace,Oblíbené Čínské Bistro,50.07542418514753,14.439749695431722,Chinese Restaurant
375,50.073239070667604,14.43929930860426,37,21,5323534c498ebdcc0c9ed0f8,Pretoria,50.07195238615295,14.436937827705508,African Restaurant
376,50.073239070667604,14.43929930860426,37,22,4c74e3fc1b30a093bec8ed09,U Draka,50.07204748727651,14.437452306873828,Eastern European Restaurant
377,50.073239070667604,14.43929930860426,37,23,551d6cbd498e0984d93098fd,Činar Kitchen & Hookah Prague,50.0719881097413,14.439462601848586,Eastern European Restaurant
378,50.073239070667604,14.43929930860426,37,24,4e04683a483b6f89f47daba3,Paprika Csarda,50.07464198762129,14.441863487519482,Hungarian Restaurant
379,50.073239070667604,14.43929930860426,37,25,57b06420498e5017cfa776b9,Equilibrista,50.07390852182193,14.442206919193268,Italian Restaurant
380,50.073239070667604,14.43929930860426,37,26,59233675a2c00b5f247a9dba,Bistro & Kavárna,50.073157,14.442057,Vietnamese Restaurant
381,50.073239070667604,14.43929930860426,37,27,512d176be4b0a4ac4ed415ba,Rumunská,50.07408142089844,14.436441421508789,Eastern European Restaurant
382,50.073239070667604,14.43929930860426,37,28,593689394febd570b22b5b5d,Tra&Pha,50.073093,14.44229,Vietnamese Restaurant
383,50.073239070667604,14.43929930860426,37,29,51927b13498ed7a62ecb53f2,Café Lounge Marrakesh,50.073858,14.44221,Moroccan Restaurant
384,50.073239070667604,14.43929930860426,37,30,4db07c55fa8ca4b3e9e2a7c0,Square Cafe,50.073023304272716,14.442056596322427,Mediterranean Restaurant
385,50.073239070667604,14.43929930860426,37,31,5e60ecda5507bb0008823cb8,Spago,50.073903,14.439266,Italian Restaurant
386,50.073239070667604,14.43929930860426,37,32,53d90742498ebdc668331578,PhoOriginal,50.072459,14.43771,Thai Restaurant
387,50.073239070667604,14.43929930860426,37,33,4c9dc2b6d3c2b60c9564c4bc,Tesori d'Italia,50.07336669648702,14.437684933385526,Italian Restaurant
388,50.073239070667604,14.43929930860426,37,34,4f5cf56be4b070e0484db17e,U dvou kasparu,50.073590775768494,14.437494298758628,Eastern European Restaurant
389,50.073239070667604,14.43929930860426,37,35,5cee901b3e6741002cf6c3c4,Pho Thien Lam,50.074021,14.439662,Vietnamese Restaurant
390,50.073239070667604,14.43929930860426,37,36,5fcd1bd57077392d1e73dcc2,Sana Bistro,50.073143,14.442468,Vietnamese Restaurant
391,50.0755,14.4506,20,0,5d7904c0af6b840008512cbe,Van's Pho,50.076368,14.450591,Vietnamese Restaurant
392,50.0755,14.4506,20,1,4bb20aa4f964a52009b43ce3,Restaurace u Vodárny,50.075456739078206,14.450638291433819,Eastern European Restaurant
393,50.0755,14.4506,20,2,57d92d08498e631133216fc3,Arepas De Lyna,50.07553,14.451747,Venezuelan Restaurant
394,50.0755,14.4506,20,3,4e412179814d24fa8b4e9f56,Kofein,50.075926806386846,14.450374860151532,Tapas Restaurant
395,50.0755,14.4506,20,4,5c1163d8deb49500257c6a51,Výčep,50.07538379231757,14.453609101307643,Pub
396,50.0755,14.4506,20,5,5576c9c6498e354026b01f66,Sri Lankan Curry House,50.07656191714257,14.449054100336406,Sri Lankan Restaurant
397,50.0755,14.4506,20,6,4fce3f0be4b0f3e4b849c158,Huong Sen,50.07657134914255,14.452461612492904,Vietnamese Restaurant
398,50.0755,14.4506,20,7,5bd493eb2db4a9002cc69b55,Kuře,50.075726326784626,14.450245499610899,Korean Restaurant
399,50.0755,14.4506,20,8,55774e18498e04bf92d5b3c8,Burrito Loco,50.077067,14.449628,Burrito Place
400,50.0755,14.4506,20,9,4d29b9ca467d6ea89523d295,The Pind,50.07563,14.449216,Indian Restaurant
401,50.0755,14.4506,20,10,557889ff498e70b85d15725d,La Piazza,50.076368,14.450505,Italian Restaurant
402,50.0755,14.4506,20,11,5b7bff0ba4ba7c002c4d22c4,Asian Chilli Restaurant,50.076725,14.450389,Asian Restaurant
403,50.0755,14.4506,20,12,537a6940498e4d1d84f30d36,Vivace,50.0762519678888,14.450244927025048,Italian Restaurant
404,50.0755,14.4506,20,13,58dd568ad772f933eafd6db1,M.E.D.,50.076295,14.451906,Mediterranean Restaurant
405,50.0755,14.4506,20,14,536d3470498eddbbc85222eb,Budapest Restaurant,50.07628636968987,14.451625523407905,Hungarian Restaurant
406,50.0755,14.4506,20,15,52603f1911d29f84c11cda63,Restaurace Ambrozie,50.074607,14.450283,Eastern European Restaurant
407,50.0755,14.4506,20,16,53da307e498e028619101146,farmarske trhy,50.0771369934082,14.450525283813477,Afghan Restaurant
408,50.0755,14.4506,20,17,55449e54498e36b57eb090e6,SRL,50.0766997318715,14.4492327142507,African Restaurant
409,50.0755,14.4506,20,18,5e49f0fd850a7a00089642e7,Phoishii,50.0766764,14.4504564,Asian Restaurant
410,50.0755,14.4506,20,19,5ce68477c03635002cb1603c,Family TH,50.076674,14.450359,Vietnamese Restaurant
411,50.07776092933239,14.447100691395738,18,0,4d81e26846fd6ea8bc3f6702,Pho Vietnam Tuan & Lan,50.078381,14.448424,Vietnamese Restaurant
412,50.07776092933239,14.447100691395738,18,1,58a6b888bf1a6d74d1f03a53,Cafefin,50.078318,14.44827,Café
413,50.07776092933239,14.447100691395738,18,2,573ae634cd108d86ed94ccd5,Pho Slavíkova 12,50.07944327015527,14.447803800589169,Vietnamese Restaurant
414,50.07776092933239,14.447100691395738,18,3,5576c9c6498e354026b01f66,Sri Lankan Curry House,50.07656191714257,14.449054100336406,Sri Lankan Restaurant
415,50.07776092933239,14.447100691395738,18,4,55774e18498e04bf92d5b3c8,Burrito Loco,50.077067,14.449628,Burrito Place
416,50.07776092933239,14.447100691395738,18,5,5362915b11d2543adabbc5b6,Il Capitano,50.07896655396255,14.448200124906927,Italian Restaurant
417,50.07776092933239,14.447100691395738,18,6,584aff8cfd27167306df9729,Grand Rasoi,50.076181,14.446533,Indian Restaurant
418,50.07776092933239,14.447100691395738,18,7,528ddbf911d27b6e7f7441fc,Yamato,50.0784555303267,14.445916237042518,Japanese Restaurant
419,50.07776092933239,14.447100691395738,18,8,51c1a9cb498e559d52526010,patisserie Boulangerie,50.07821042677708,14.44998607188586,French Restaurant
420,50.07776092933239,14.447100691395738,18,9,548754ca498e42756f1bfb91,La Casa di Erminio,50.079697116391706,14.446045492382938,Italian Restaurant
421,50.07776092933239,14.447100691395738,18,10,5c7647d9112c6c00390dbf1b,Food Depo,50.07773340637518,14.448464512825012,Fast Food Restaurant
422,50.07776092933239,14.447100691395738,18,11,5985adac75cb8c79a9c3acbc,Banh-Mi-Ba,50.07792,14.449694,Vietnamese Restaurant
423,50.07776092933239,14.447100691395738,18,12,5122655de4b09c465689ed31,Kabuki Sushi,50.078384212279786,14.445949269229887,Sushi Restaurant
424,50.07776092933239,14.447100691395738,18,13,55449e54498e36b57eb090e6,SRL,50.0766997318715,14.4492327142507,African Restaurant
425,50.07776092933239,14.447100691395738,18,14,594cce4c135b395f12834cee,Petite Bruges,50.078051,14.44957,Belgian Restaurant
426,50.07776092933239,14.447100691395738,18,15,4c9bad79a004a1cd241e536e,Sushi Point,50.078141,14.446417,Sushi Restaurant
427,50.07776092933239,14.447100691395738,18,16,5b102bc20dd31f002416897c,Avenue Restaurant & Bar,50.07716881614981,14.446482360363007,Modern European Restaurant
428,50.07776092933239,14.447100691395738,18,17,5f8de4539ab4fe05782cd14f,Amunì,50.0771847,14.4464092,Pizza Place
429,50.073239070667604,14.447100691395738,9,0,56eaf70d498e576953e73b9b,Jam & Co,50.07168412074073,14.447002129790071,Asian Restaurant
430,50.073239070667604,14.447100691395738,9,1,599c2e5f66fc650779ef291e,Mundo Picante,50.071423,14.447973,Taco Place
431,50.073239070667604,14.447100691395738,9,2,54d2653d498e14bbb0cf0b49,Checkout Food,50.071915,14.445934,Doner Restaurant
432,50.073239070667604,14.447100691395738,9,3,54692ae4498e78ad149ec5d0,Stavros Grill,50.07147507678589,14.446990198128725,Greek Restaurant
433,50.073239070667604,14.447100691395738,9,4,5d431410ca45c70007c62a91,Little México,50.07458676392998,14.444628953933716,Mexican Restaurant
434,50.073239070667604,14.447100691395738,9,5,4c7d5a565af8b60c51578f10,Barracuda café,50.07167528511006,14.446910448974618,Mexican Restaurant
435,50.073239070667604,14.447100691395738,9,6,50b8f600e4b01cb32a1388f4,U Kováře,50.074612,14.445688,Eastern European Restaurant
436,50.073239070667604,14.447100691395738,9,7,4f8bee4fe4b00a62641eac63,Rohozecká 1,50.0718682390543,14.449424424603944,Eastern European Restaurant
437,50.073239070667604,14.447100691395738,9,8,4baf3b53f964a52079f23be3,Li De,50.07195860598034,14.44732813981431,Chinese Restaurant
438,50.07776092933239,14.454099308604262,21,0,4b90fffdf964a5206c9e33e3,Roma Uno,50.079582535384226,14.453698079795732,Italian Restaurant
439,50.07776092933239,14.454099308604262,21,1,4af85beff964a520820c22e3,Hanoi,50.0764874906249,14.453756511211395,Vietnamese Restaurant
440,50.07776092933239,14.454099308604262,21,2,55965fce498e605988f6727c,Las Adelitas,50.07868,14.452522,Mexican Restaurant
441,50.07776092933239,14.454099308604262,21,3,5d1e8d80bf5e0e0027a408bb,Top Doner Kebab,50.07750619403511,14.453893303871155,Doner Restaurant
442,50.07776092933239,14.454099308604262,21,4,4b59f1aff964a520b7a228e3,Potrefená husa,50.077515873975166,14.455482256506883,Czech Restaurant
443,50.07776092933239,14.454099308604262,21,5,4bf4e56fff90c9b6c3c75528,Sushi Tam Da,50.0767646016682,14.453913362779382,Sushi Restaurant
444,50.07776092933239,14.454099308604262,21,6,4fce3f0be4b0f3e4b849c158,Huong Sen,50.07657134914255,14.452461612492904,Vietnamese Restaurant
445,50.07776092933239,14.454099308604262,21,7,5dfecd5fb71b7a0007a0e691,El Camino,50.079445,14.452658,Tapas Restaurant
446,50.07776092933239,14.454099308604262,21,8,4b72b32cf964a52051842de3,Jia Jia Le,50.07736702729956,14.453424015137948,Chinese Restaurant
447,50.07776092933239,14.454099308604262,21,9,4b0d45c6f964a5207a4523e3,Sonora,50.07808417731817,14.456832977289995,Mexican Restaurant
448,50.07776092933239,14.454099308604262,21,10,5b35faefd48ec1002ce6a60e,Hana Sushi House,50.079587,14.452958,Sushi Restaurant
449,50.07776092933239,14.454099308604262,21,11,5457be29498e27ebdf304811,kunn,50.07978439331055,14.455041885375977,Thai Restaurant
450,50.07776092933239,14.454099308604262,21,12,51f22cb0498e416069a9fee7,Friday's Eflo Special,50.078158,14.453528,Asian Restaurant
451,50.07776092933239,14.454099308604262,21,13,58dd568ad772f933eafd6db1,M.E.D.,50.076295,14.451906,Mediterranean Restaurant
452,50.07776092933239,14.454099308604262,21,14,5cc2ead1270ee70039fbee88,Ngoc Son,50.079708,14.455097,Vietnamese Restaurant
453,50.07776092933239,14.454099308604262,21,15,536d3470498eddbbc85222eb,Budapest Restaurant,50.07628636968987,14.451625523407905,Hungarian Restaurant
454,50.07776092933239,14.454099308604262,21,16,52ffcb1d498ea0bbff21ca04,Askania,50.07797622680664,14.454357147216797,Czech Restaurant
455,50.07776092933239,14.454099308604262,21,17,530f08ee498e16cf10c20bb4,Asian Eflo,50.07840406710337,14.453628143285009,Asian Restaurant
456,50.07776092933239,14.454099308604262,21,18,536082eb11d28cc14e969e97,Futon Eflo,50.078269,14.453479,Japanese Restaurant
457,50.07776092933239,14.454099308604262,21,19,51547b66e4b01b725111eae6,Tapas Bar,50.076888,14.453792,Tapas Restaurant
458,50.07776092933239,14.454099308604262,21,20,524183cd498ed7016ee43659,Hui Bin Ge,50.078003918414645,14.454086342585544,Chinese Restaurant
459,50.073239070667604,14.454099308604262,4,0,5c1163d8deb49500257c6a51,Výčep,50.07538379231757,14.453609101307643,Pub
460,50.073239070667604,14.454099308604262,4,1,57c47a73cd10e8433fab727e,Café Buddha,50.07196819577056,14.455358427786962,Thai Restaurant
461,50.073239070667604,14.454099308604262,4,2,543fec1c498e0d4c9da31dba,Mochi Store,50.075175,14.454103,Asian Restaurant
462,50.073239070667604,14.454099308604262,4,3,5ab41638772fbc3a7fd2cf30,Benjamin,50.071903,14.455359,Modern European Restaurant
463,50.085499999999996,14.4062,35,0,4bdc7de2fed22d7f996a58c9,Luka Lu,50.08369022603714,14.404371408970537,Mediterranean Restaurant
464,50.085499999999996,14.4062,35,1,5959719ab37e2b1d8db6afd2,Cafe de Paris,50.08621711610083,14.406409722570503,French Restaurant
465,50.085499999999996,14.4062,35,2,4c25fdb1a852c9281bbee56c,Sovovy Mlýny,50.083977,14.40872,Czech Restaurant
466,50.085499999999996,14.4062,35,3,4bb88189314e9521e07b489d,Konírna,50.086521,14.405273,Czech Restaurant
467,50.085499999999996,14.4062,35,4,5910595ee55d8b18220d8c4d,Piknik Park,50.08533789242185,14.407550824145225,Trattoria/Osteria
468,50.085499999999996,14.4062,35,5,4be2ccdf21d5a59312511711,U Zlatých nůžek,50.0864019279881,14.408578479850211,Hotel
469,50.085499999999996,14.4062,35,6,4d8ce557c1b1721e8eea0b46,Café Márnice,50.087080961350075,14.408355295622023,Café
470,50.085499999999996,14.4062,35,7,551d7815498e6ba82560f183,Spices Restaurant & Bar,50.0848567,14.4055235,Asian Restaurant
471,50.085499999999996,14.4062,35,8,4dbd78b94b222080d3a9b7f2,Cervena Sedma,50.08630129206476,14.408563624696033,Eastern European Restaurant
472,50.085499999999996,14.4062,35,9,5e00d5fb16d2ee0008e6b1df,Laboratorio della Pizza,50.08626685981134,14.405366778373716,Italian Restaurant
473,50.085499999999996,14.4062,35,10,5416ca0f498e544767912788,Plný pekáč,50.08695889190065,14.40607570828171,Czech Restaurant
474,50.085499999999996,14.4062,35,11,5cf00cdb031320002c050b23,Il Molo,50.085761,14.405139,Italian Restaurant
475,50.085499999999996,14.4062,35,12,4c9113db57e5b60c6b9f5d1c,Casanova Ristorante Pizzeria,50.08708340914214,14.407312986592002,Italian Restaurant
476,50.085499999999996,14.4062,35,13,4ccdf704063a721e3db9979a,El Centro,50.08669119630488,14.404855910091179,Spanish Restaurant
477,50.085499999999996,14.4062,35,14,536e844011d277532af940f2,Gotika Kampa,50.086076669012705,14.408588786180216,Czech Restaurant
478,50.085499999999996,14.4062,35,15,4beb0e2c62c0c9284ba4e1d4,U Malířů,50.08638564869843,14.405235143180736,Eastern European Restaurant
479,50.085499999999996,14.4062,35,16,4d7b6d63e04d6ea83fb0e7d5,Kočár z Vídně,50.08683940201923,14.40751386280775,Austrian Restaurant
480,50.085499999999996,14.4062,35,17,534ab321498e7cc2493029f7,Osvěžovna u Karlova mostu,50.08742904663086,14.407059669494629,Czech Restaurant
481,50.085499999999996,14.4062,35,18,55171615498e2dd5c04ce0ea,Archibald Restaurant,50.08610844748828,14.408612020461064,Czech Restaurant
482,50.085499999999996,14.4062,35,19,5af597a86eda020039759626,Staročeská Restaurace U Procházků,50.086918,14.403676,Czech Restaurant
483,50.085499999999996,14.4062,35,20,55391724498e16d131f5aae4,Lounge & Terrace,50.084514854737655,14.405600130558014,Asian Restaurant
484,50.085499999999996,14.4062,35,21,4d0cc868eea9b60c014b5a3f,Campanula Cafe Restaurant,50.08634722202513,14.406792431873678,Café
485,50.085499999999996,14.4062,35,22,53862356498eb1110ef0005b,The Blue Duckling,50.084833,14.405636,Eastern European Restaurant
486,50.085499999999996,14.4062,35,23,4dbbddbb6e810768bf4f0e40,Restaurace Gotika,50.086093723266295,14.409245042594655,Eastern European Restaurant
487,50.085499999999996,14.4062,35,24,50af5f3ae4b07338398b04fa,U Maltézských rytířů,50.08672139081028,14.404199735899525,Czech Restaurant
488,50.085499999999996,14.4062,35,25,5515a01a498ea99fe49ec3df,Milan,50.08731552888413,14.406520203931345,Czech Restaurant
489,50.085499999999996,14.4062,35,26,4f8ad387e4b0e6f349c5e5f1,Lázně,50.08687572093628,14.405946828659866,Eastern European Restaurant
490,50.085499999999996,14.4062,35,27,4bd33cee046076b0768a7571,U Modré Kachničky,50.084767,14.405713,Czech Restaurant
491,50.085499999999996,14.4062,35,28,52c2f33011d28f1e773ca098,Bistro de France,50.086359087954996,14.405192331187914,French Restaurant
492,50.085499999999996,14.4062,35,29,532f092b498e891dc6733aef,Restaurace u Templare,50.08678346667447,14.405987355274807,Italian Restaurant
493,50.085499999999996,14.4062,35,30,53ad298b498eaefb4f14a0d8,Zahrádka U Jezulátka,50.08649842320618,14.409189646635662,Modern European Restaurant
494,50.085499999999996,14.4062,35,31,55083c8d498e45916a5cb64b,Restaurant U Modré Boty,50.08721883038066,14.406555685781882,Czech Restaurant
495,50.085499999999996,14.4062,35,32,583f35cd9850a07ec11b7aa8,Private Dining,50.08461186052729,14.405520017196636,Asian Restaurant
496,50.085499999999996,14.4062,35,33,56575116498e5ca4d4e30c48,Obyčejný svět,50.08770806118506,14.4055493628581,Czech Restaurant
497,50.085499999999996,14.4062,35,34,4fae1b0e108139586b702400,Restaurant Dvořák,50.08571613820222,14.40831184387207,Eastern European Restaurant
498,50.08776092933239,14.402699961382266,39,0,4adcdaa3f964a520584e21e3,Restaurace Malostranská beseda,50.088345776854915,14.40477132797241,Czech Restaurant
499,50.08776092933239,14.402699961382266,39,1,4bb8afe31261d13a21cfe898,U Hrocha,50.08913114626051,14.40323407468034,Pub
500,50.08776092933239,14.402699961382266,39,2,5a5fb1c40802d44ff007e111,San Carlo,50.0872126195326,14.40277976553123,Italian Restaurant
501,50.08776092933239,14.402699961382266,39,3,4bb88189314e9521e07b489d,Konírna,50.086521,14.405273,Czech Restaurant
502,50.08776092933239,14.402699961382266,39,4,58c041339dc8d0453a3009f2,U Tří Jelínků,50.08863909046389,14.401796150360237,Czech Restaurant
503,50.08776092933239,14.402699961382266,39,5,4d207ea3d7b0b1f7e63b159f,3+3+3,50.088784,14.404957,Eastern European Restaurant
504,50.08776092933239,14.402699961382266,39,6,4bc7944093bdeee19f8837ae,U Schnellů,50.08861000642551,14.40488315741004,Eastern European Restaurant
505,50.08776092933239,14.402699961382266,39,7,4ceffbdbd7268cfa75b8d24e,Středověká krčma U krále Brabantského,50.08908111994999,14.401618233640042,Theme Restaurant
506,50.08776092933239,14.402699961382266,39,8,4ccdf704063a721e3db9979a,El Centro,50.08669119630488,14.404855910091179,Spanish Restaurant
507,50.08776092933239,14.402699961382266,39,9,53b2a4d5498e46c70e6735ca,Pivo & Basilico,50.08876457189167,14.402110720700094,Czech Restaurant
508,50.08776092933239,14.402699961382266,39,10,4beb0e2c62c0c9284ba4e1d4,U Malířů,50.08638564869843,14.405235143180736,Eastern European Restaurant
509,50.08776092933239,14.402699961382266,39,11,4e18aa141f6eb955987c8e20,Genius Loci,50.08737943646664,14.402417034691464,Italian Restaurant
510,50.08776092933239,14.402699961382266,39,12,4db177b4a86e63d2116b5073,U Kostela bistro & restaurant,50.08756520202125,14.404299171437742,Czech Restaurant
511,50.08776092933239,14.402699961382266,39,13,500c4f84e4b0e68938a17fb7,Aquarius Restaurant,50.087558,14.400797,Mediterranean Restaurant
512,50.08776092933239,14.402699961382266,39,14,5af597a86eda020039759626,Staročeská Restaurace U Procházků,50.086918,14.403676,Czech Restaurant
513,50.08776092933239,14.402699961382266,39,15,54e781f9498e840720593d9d,les 3 violins,50.08864,14.401231,Czech Restaurant
514,50.08776092933239,14.402699961382266,39,16,5352ce21498e263e05c739bb,U Kostela café & pizza & bar,50.08775156776754,14.404570278902511,Pizza Place
515,50.08776092933239,14.402699961382266,39,17,4e9568e9a17c7d23b27b2b71,Český Banát,50.08840084627906,14.399557113647461,Eastern European Restaurant
516,50.08776092933239,14.402699961382266,39,18,4c9cd856d3c2b60c2e85bbbc,Café Tržiště,50.08725486666666,14.402765,Sushi Restaurant
517,50.08776092933239,14.402699961382266,39,19,534c0b08498e3486f313d1aa,thai restaurant Helichova,50.088547,14.402256,Thai Restaurant
518,50.08776092933239,14.402699961382266,39,20,4dbe9d9d0437955ec068af70,U Čerta,50.08861235541513,14.401803180482226,Czech Restaurant
519,50.08776092933239,14.402699961382266,39,21,4b9ccf58f964a520b17c36e3,S’chuan,50.08733313123892,14.403765903053545,Chinese Restaurant
520,50.08776092933239,14.402699961382266,39,22,4b695a63f964a520a89f2be3,Italska restaurace Morska panna,50.088389,14.404003,Italian Restaurant
521,50.08776092933239,14.402699961382266,39,23,50af5f3ae4b07338398b04fa,U Maltézských rytířů,50.08672139081028,14.404199735899525,Czech Restaurant
522,50.08776092933239,14.402699961382266,39,24,5019a6bae4b07abf17be7644,Cognac,50.087649,14.404229,French Restaurant
523,50.08776092933239,14.402699961382266,39,25,58fb7260e1f0aa06a4b94cd6,Staročeská kavárna | Antique Café,50.0890236,14.4013053,Café
524,50.08776092933239,14.402699961382266,39,26,4dbc2bfb5da3ff58ec43b323,U Tří zlatých hvězd,50.08780654461581,14.403111891438046,Eastern European Restaurant
525,50.08776092933239,14.402699961382266,39,27,4ccde7e6ee23a143f2ce28a8,U Mecenáše,50.08798147366002,14.402627926087273,Czech Restaurant
526,50.08776092933239,14.402699961382266,39,28,5149e8f3e4b0631e0b4db7bc,Conzone,50.087724,14.405468,Italian Restaurant
527,50.08776092933239,14.402699961382266,39,29,4f0891c6e4b0e8907ab56da1,Tre Colori,50.089041570037985,14.401619115997308,Italian Restaurant
528,50.08776092933239,14.402699961382266,39,30,52c2f33011d28f1e773ca098,Bistro de France,50.086359087954996,14.405192331187914,French Restaurant
529,50.08776092933239,14.402699961382266,39,31,547dab33498ec1a5c1bfdc39,cheeky devil,50.088493,14.402057,Czech Restaurant
530,50.08776092933239,14.402699961382266,39,32,4e60d1d5b61cd78087d55ed7,Chinese Buffet Restaurant Kingto,50.08775255555495,14.405030704209063,Chinese Restaurant
531,50.08776092933239,14.402699961382266,39,33,4adcdaa3f964a5204d4e21e3,Baráčnická rychta,50.08792915072068,14.400163513424603,Czech Restaurant
532,50.08776092933239,14.402699961382266,39,34,4c24e91ec11dc9b697412624,Pod Branou,50.08857323333333,14.399830777777778,Eastern European Restaurant
533,50.08776092933239,14.402699961382266,39,35,57406214498ea491057727d6,Restaurant Day - The Original Brunchies,50.08835,14.399505,Vietnamese Restaurant
534,50.08776092933239,14.402699961382266,39,36,4bcc76f1b6c49c749cba9391,Kingto,50.08773526552056,14.404010240606771,Chinese Restaurant
535,50.08776092933239,14.402699961382266,39,37,56b8b7cb498e33f2f64d4314,Malostranský Hostinec,50.087515835097186,14.402463217539252,Czech Restaurant
536,50.08776092933239,14.402699961382266,39,38,56575116498e5ca4d4e30c48,Obyčejný svět,50.08770806118506,14.4055493628581,Czech Restaurant
537,50.0832390706676,14.402699961382266,11,0,5df4c29a167d420008651bfd,Minha Sushi Bar,50.081512,14.40451,Sushi Restaurant
538,50.0832390706676,14.402699961382266,11,1,4bdc7de2fed22d7f996a58c9,Luka Lu,50.08369022603714,14.404371408970537,Mediterranean Restaurant
539,50.0832390706676,14.402699961382266,11,2,4b5f3df3f964a52083af29e3,Ristorante Carmelita,50.08345668423164,14.404427690237918,Italian Restaurant
540,50.0832390706676,14.402699961382266,11,3,4b6b2373f964a52043f52be3,Noi,50.08298035333913,14.404385051516048,Thai Restaurant
541,50.0832390706676,14.402699961382266,11,4,593bcc1ead1ea42b8aa538ec,Alebrijes Bar Bar,50.083009297761485,14.405753230268825,Mexican Restaurant
542,50.0832390706676,14.402699961382266,11,5,4adcdaa2f964a520034e21e3,Cantina,50.082917387192616,14.404459899896949,Mexican Restaurant
543,50.0832390706676,14.402699961382266,11,6,4e331450a809117a228675f2,La Bastille,50.08231097659773,14.404584174355543,French Restaurant
544,50.0832390706676,14.402699961382266,11,7,4c23cc1b136d20a10dcae061,Tlustá myš,50.0831046305067,14.405644362191401,Pub
545,50.0832390706676,14.402699961382266,11,8,5814e14538fa89b9325512d2,Czech Slovak,50.08158,14.404587,Czech Restaurant
546,50.0832390706676,14.402699961382266,11,9,4e6df26c483bf10521481744,Pinocchio,50.081613063037224,14.404664039611816,Italian Restaurant
547,50.0832390706676,14.402699961382266,11,10,54e8d696498ed8dd767b8d44,Restaurant Lounge Bar,50.082043852560496,14.404554447046024,Czech Restaurant
548,50.08776092933239,14.409700038617734,21,0,4cead488e1eeb60c194bb0ae,Lokál U Bílé kuželky,50.08762991158934,14.40746208429938,Pub
549,50.08776092933239,14.409700038617734,21,1,5f54bc149059060d8fa19a79,Viet Garden,50.087651,14.407693,Vietnamese Restaurant
550,50.08776092933239,14.409700038617734,21,2,4adcdaa2f964a5201c4e21e3,Vojanův dvůr,50.089671846694486,14.409914469251838,Brewery
551,50.08776092933239,14.409700038617734,21,3,4bb61c792f70c9b6afe28430,Malostranská pivnice,50.08835074238113,14.40996033897887,Gastropub
552,50.08776092933239,14.409700038617734,21,4,4b422d2df964a52034ce25e3,Kampa Park,50.08736409319433,14.40967782188935,Modern European Restaurant
553,50.08776092933239,14.409700038617734,21,5,4be2ccdf21d5a59312511711,U Zlatých nůžek,50.0864019279881,14.408578479850211,Hotel
554,50.08776092933239,14.409700038617734,21,6,4d8ce557c1b1721e8eea0b46,Café Márnice,50.087080961350075,14.408355295622023,Café
555,50.08776092933239,14.409700038617734,21,7,4dbd78b94b222080d3a9b7f2,Cervena Sedma,50.08630129206476,14.408563624696033,Eastern European Restaurant
556,50.08776092933239,14.409700038617734,21,8,4d88d145d85f370415a7d9db,Tkalcovský dvůr,50.08819159977679,14.409887957454607,Czech Restaurant
557,50.08776092933239,14.409700038617734,21,9,4e67ca437d8b084ac77caad6,Restaurace U dvou srdcí,50.088573,14.409602,Czech Restaurant
558,50.08776092933239,14.409700038617734,21,10,50d20f5ce4b0c5a8a8319dc0,Černý orel,50.08894158956403,14.409980902710837,Czech Restaurant
559,50.08776092933239,14.409700038617734,21,11,4c9113db57e5b60c6b9f5d1c,Casanova Ristorante Pizzeria,50.08708340914214,14.407312986592002,Italian Restaurant
560,50.08776092933239,14.409700038617734,21,12,536e844011d277532af940f2,Gotika Kampa,50.086076669012705,14.408588786180216,Czech Restaurant
561,50.08776092933239,14.409700038617734,21,13,4d7b6d63e04d6ea83fb0e7d5,Kočár z Vídně,50.08683940201923,14.40751386280775,Austrian Restaurant
562,50.08776092933239,14.409700038617734,21,14,534ab321498e7cc2493029f7,Osvěžovna u Karlova mostu,50.08742904663086,14.407059669494629,Czech Restaurant
563,50.08776092933239,14.409700038617734,21,15,55171615498e2dd5c04ce0ea,Archibald Restaurant,50.08610844748828,14.408612020461064,Czech Restaurant
564,50.08776092933239,14.409700038617734,21,16,4dbbddbb6e810768bf4f0e40,Restaurace Gotika,50.086093723266295,14.409245042594655,Eastern European Restaurant
565,50.08776092933239,14.409700038617734,21,17,5515a01a498ea99fe49ec3df,Milan,50.08731552888413,14.406520203931345,Czech Restaurant
566,50.08776092933239,14.409700038617734,21,18,53ad298b498eaefb4f14a0d8,Zahrádka U Jezulátka,50.08649842320618,14.409189646635662,Modern European Restaurant
567,50.08776092933239,14.409700038617734,21,19,55083c8d498e45916a5cb64b,Restaurant U Modré Boty,50.08721883038066,14.406555685781882,Czech Restaurant
568,50.08776092933239,14.409700038617734,21,20,4fae1b0e108139586b702400,Restaurant Dvořák,50.08571613820222,14.40831184387207,Eastern European Restaurant
569,50.0832390706676,14.409700038617734,9,0,4c168d5e5e88c9289b502466,Bella Vida café,50.081964,14.407753,Café
570,50.0832390706676,14.409700038617734,9,1,4c25fdb1a852c9281bbee56c,Sovovy Mlýny,50.083977,14.40872,Czech Restaurant
571,50.0832390706676,14.409700038617734,9,2,57361702cd1081207bec1827,Bezejmenna Hospoda,50.082718,14.412913,Czech Restaurant
572,50.0832390706676,14.409700038617734,9,3,4e481ff4d22d12b08bd8075b,Restaurace Rybářský Klub,50.08277002510394,14.408184904367863,Seafood Restaurant
573,50.0832390706676,14.409700038617734,9,4,5475f442498e2e7d12421ac6,Bistro Phở Việt,50.08404416032594,14.41075759421268,Vietnamese Restaurant
574,50.0832390706676,14.409700038617734,9,5,5ce98d6bf0b490002cfc513f,Kolchida,50.081658,14.410544,Caucasian Restaurant
575,50.0832390706676,14.409700038617734,9,6,4f81c568e4b0bf6ccabe2210,wigwag,50.08249088886779,14.407282300345289,Mexican Restaurant
576,50.0832390706676,14.409700038617734,9,7,4adcda9af964a5205d4c21e3,Sivek Hotel Kampa,50.08288039529625,14.406526278618102,Hotel
577,50.0832390706676,14.409700038617734,9,8,4fe34644e4b01d366a1e55d1,"Restaurant ""Samarkand""",50.08214919239279,14.40770476354631,Asian Restaurant
578,50.085499999999996,14.421,50,0,4adcda9bf964a5209d4c21e3,U Zlatého tygra,50.08582790992342,14.418044909834862,Pub
579,50.085499999999996,14.421,50,1,4b0e68fdf964a520705723e3,Havelská Koruna,50.085654612875175,14.421590333079086,Czech Restaurant
580,50.085499999999996,14.421,50,2,4b4c87eaf964a52049b526e3,Hard Rock Cafe Prague (Hard Rock Cafe Praha),50.0866743,14.4192144,American Restaurant
581,50.085499999999996,14.421,50,3,52f523bf498e8a164792e9d2,Kitchen Ramen Bar,50.083691858645246,14.422650478500671,Ramen Restaurant
582,50.085499999999996,14.421,50,4,4c20b8c5edef9521e46a8eb1,U Dvou koček,50.083633,14.42045,Brewery
583,50.085499999999996,14.421,50,5,5346651f498e32df69ee5be1,Hooters,50.08564029999999,14.4218454,American Restaurant
584,50.085499999999996,14.421,50,6,557ae583498e218724443fe2,Il Gusto,50.084762467167174,14.421945888431237,Italian Restaurant
585,50.085499999999996,14.421,50,7,4c557c7506901b8de0098e4d,Trattoria by Giovanni,50.08666750042767,14.421675950288773,Italian Restaurant
586,50.085499999999996,14.421,50,8,4f8e7b43e4b068786b2c6f13,Pivovar U Tří růží,50.085632,14.418352,Brewery
587,50.085499999999996,14.421,50,9,4adcda9bf964a520a84c21e3,U Vejvodů,50.08420038370784,14.418908793919469,Pub
588,50.085499999999996,14.421,50,10,503cb8f0e4b09e01d30c1a08,La Piccola Perla,50.083529890379424,14.421324174451213,Italian Restaurant
589,50.085499999999996,14.421,50,11,5622555b498e37e2bd2aa95d,Il Palazzo Italian Restaurant,50.084755471254674,14.418335547744016,Italian Restaurant
590,50.085499999999996,14.421,50,12,541322a5498e4f178366bdf2,White Horse,50.0871710795488,14.421239451509646,Czech Restaurant
591,50.085499999999996,14.421,50,13,5a21b2a49e3b655150a94ce2,Pilsner Urquell Original Restaurant Staroměstská,50.08733120787193,14.421220284001757,Czech Restaurant
592,50.085499999999996,14.421,50,14,4eb5b866469073bbc6495a6b,Oliva Verde,50.08683342791939,14.420783354009897,Italian Restaurant
593,50.085499999999996,14.421,50,15,4ba8ce2df964a52060f039e3,U Týna,50.087408000074035,14.421455059523213,Czech Restaurant
594,50.085499999999996,14.421,50,16,502d3a21e4b07a83ca527b53,Las Adelitas,50.086415,14.419423,Mexican Restaurant
595,50.085499999999996,14.421,50,17,4be5b0abcf200f47e08f133c,Taverna Toscana,50.086547024155564,14.419556091993694,Italian Restaurant
596,50.085499999999996,14.421,50,18,4ba8c7bdf964a5204fee39e3,Mlejnice,50.08639474892439,14.421418604893157,Czech Restaurant
597,50.085499999999996,14.421,50,19,4f884296e4b0e6f347675eb6,U Červeného Páva,50.08657696624033,14.422884399801214,Czech Restaurant
598,50.085499999999996,14.421,50,20,50c35996e4b0c5b6f3d16dad,Pivoňkové zátiší,50.083842408268204,14.419045035015007,Chinese Restaurant
599,50.085499999999996,14.421,50,21,4fd76470e4b071eb3394bddc,U Tří zlatých lvů,50.08368925403645,14.41994048010859,Czech Restaurant
600,50.085499999999996,14.421,50,22,589cfe8918fd2b55c917ed9d,Deer,50.085578085444716,14.419576359353298,Modern European Restaurant
601,50.085499999999996,14.421,50,23,4bcb167bb6c49c748c739191,Caffé Italia Ristorante,50.087539860524316,14.421820469275357,Italian Restaurant
602,50.085499999999996,14.421,50,24,4d790c75a56e3704899e7567,U Modré Kachničky II,50.08558636243365,14.419985474115162,Czech Restaurant
603,50.085499999999996,14.421,50,25,5519a1ed498e8aa8ef83c33c,U Modrého hroznu,50.085793,14.418163,Czech Restaurant
604,50.085499999999996,14.421,50,26,4adcdaa2f964a520284e21e3,Kogo Ristorante Havelská,50.085787835393695,14.422243251982445,Italian Restaurant
605,50.085499999999996,14.421,50,27,4c362e9b18e72d7fd36314f5,La Scala,50.0874061,14.4228147,Italian Restaurant
606,50.085499999999996,14.421,50,28,51cabb1e498eb0c32304aae9,Balkanská kuchyně,50.08500347064823,14.420384925330902,Eastern European Restaurant
607,50.085499999999996,14.421,50,29,51cde15c498ebe6be12f9446,Restaurant Karlova 30,50.08610004528258,14.417653041724794,Czech Restaurant
608,50.085499999999996,14.421,50,30,4b40f831f964a5207ebe25e3,Made in Japan,50.084323502352575,14.421316021052757,Sushi Restaurant
609,50.085499999999996,14.421,50,31,58dbac87e6160c0156ca261c,Hi Viet,50.084933,14.42052,Vietnamese Restaurant
610,50.085499999999996,14.421,50,32,4c34fc763896e21ebc80ec90,Staromáček,50.08609695053156,14.418918317711837,Czech Restaurant
611,50.085499999999996,14.421,50,33,4f316546e4b0f99d8848b341,U Dvou Sester,50.08562024619085,14.420841412848524,Eastern European Restaurant
612,50.085499999999996,14.421,50,34,4dbafcba43a1d8504b636d3a,Sahar Ra,50.083779,14.420286,African Restaurant
613,50.085499999999996,14.421,50,35,507d35c8e4b074e852d4f2a3,V Cípu,50.085804861079495,14.419904134824723,Czech Restaurant
614,50.085499999999996,14.421,50,36,4fd60360e4b08568eab13dba,Zebra,50.08520494325813,14.421343802192325,Noodle House
615,50.085499999999996,14.421,50,37,56daccc5498e337ce399f813,Da Shi Jie,50.0841373024516,14.423464319181218,Chinese Restaurant
616,50.085499999999996,14.421,50,38,4b61fa75f964a520a12e2ae3,U Dominikána,50.085955602155785,14.418936354113399,Czech Restaurant
617,50.085499999999996,14.421,50,39,4c00e143360a9c74da0bd9a0,Restaurace U Veselé Basy,50.08473007568803,14.422539817524694,Czech Restaurant
618,50.085499999999996,14.421,50,40,4bb8f80498c7ef3bd7a23102,U Kočku,50.08599370752528,14.418826384705952,Mediterranean Restaurant
619,50.085499999999996,14.421,50,41,4ebd16cef790ce9dc8e3d7de,Le Cinque Corone,50.0856012712949,14.420820775970816,Italian Restaurant
620,50.085499999999996,14.421,50,42,4e12fa4ce4cdef074b8079e9,Straropramen Restaurant,50.0856242,14.4199606,Eastern European Restaurant
621,50.085499999999996,14.421,50,43,4c9a1fedeaa5a1434b6bc9e4,Blatnice,50.08476493301898,14.419960112776769,Eastern European Restaurant
622,50.085499999999996,14.421,50,44,5d4da9bf1aa86d00075c03fb,Moment Bistro,50.08388,14.419055,Chinese Restaurant
623,50.085499999999996,14.421,50,45,4df0c60845ddbf3897d36a2f,U dvou velbloudů,50.08607084130237,14.421041278103004,Czech Restaurant
624,50.085499999999996,14.421,50,46,51b35c14498e7d57b2bbce86,Ristorante San Nicola,50.08752610499033,14.42018360741574,Italian Restaurant
625,50.085499999999996,14.421,50,47,4c5862b56201e21ecbe46870,Vinárna Puškin,50.085810356498314,14.41813438959304,Czech Restaurant
626,50.085499999999996,14.421,50,48,5f0d8494aba68a2398199849,Thai Station,50.0837181,14.4198836,Thai Restaurant
627,50.085499999999996,14.421,50,49,58346c87ce66aa14b54e3876,Caserol,50.086186,14.418961,Modern European Restaurant
628,50.08776092933239,14.417499961382266,50,0,4adcda9bf964a5209d4c21e3,U Zlatého tygra,50.08582790992342,14.418044909834862,Pub
629,50.08776092933239,14.417499961382266,50,1,4b9abea2f964a520e9d135e3,U Rudolfina,50.0880223,14.4155382,Pub
630,50.08776092933239,14.417499961382266,50,2,4b4c87eaf964a52049b526e3,Hard Rock Cafe Prague (Hard Rock Cafe Praha),50.0866743,14.4192144,American Restaurant
631,50.08776092933239,14.417499961382266,50,3,4af3105df964a5203eea21e3,La Bodeguita del Medio,50.088403503419364,14.417007066224155,Cuban Restaurant
632,50.08776092933239,14.417499961382266,50,4,4b24ef57f964a5209e6a24e3,La Finestra,50.087326045803145,14.416166616570694,Italian Restaurant
633,50.08776092933239,14.417499961382266,50,5,4b041ceaf964a5206d5122e3,Krčma,50.08904,14.420202,Czech Restaurant
634,50.08776092933239,14.417499961382266,50,6,4f8e7b43e4b068786b2c6f13,Pivovar U Tří růží,50.085632,14.418352,Brewery
635,50.08776092933239,14.417499961382266,50,7,4bf04361c601a593007ec3d1,Brasileiro U Zelené žáby,50.0874999119371,14.419127573856413,Brazilian Restaurant
636,50.08776092933239,14.417499961382266,50,8,4bab8d2bf964a520ceb23ae3,U Parlamentu,50.08832593715887,14.416531402382502,Czech Restaurant
637,50.08776092933239,14.417499961382266,50,9,4f53bf2fe4b0ac6d0d7bb812,CottoCrudo,50.08765081269582,14.41406888267678,Italian Restaurant
638,50.08776092933239,14.417499961382266,50,10,4b5c426af964a520de2829e3,U Zlatého Hada,50.08603422988423,14.416406550085954,Czech Restaurant
639,50.08776092933239,14.417499961382266,50,11,4b8d40f4f964a52016f032e3,Potrefená husa,50.08726639652151,14.415647192326162,Czech Restaurant
640,50.08776092933239,14.417499961382266,50,12,5dc17602a540b900084d32e7,Hanzu,50.08810172819602,14.417471587657927,Asian Restaurant
641,50.08776092933239,14.417499961382266,50,13,502d3a21e4b07a83ca527b53,Las Adelitas,50.086415,14.419423,Mexican Restaurant
642,50.08776092933239,14.417499961382266,50,14,5df8b68c40c87e00088428cc,Noodle Box,50.087986,14.418751,Noodle House
643,50.08776092933239,14.417499961382266,50,15,4be5b0abcf200f47e08f133c,Taverna Toscana,50.086547024155564,14.419556091993694,Italian Restaurant
644,50.08776092933239,14.417499961382266,50,16,4b8d6155f964a52043f832e3,Pizzeria Donna,50.08775721843217,14.416444301605223,Pizza Place
645,50.08776092933239,14.417499961382266,50,17,58da3895fef5fa5aa7cd3ca8,Muc Dong,50.087890195712625,14.41542061019925,Vietnamese Restaurant
646,50.08776092933239,14.417499961382266,50,18,4adcdaa3f964a520434e21e3,King Solomon,50.08911170419138,14.41791988908867,Kosher Restaurant
647,50.08776092933239,14.417499961382266,50,19,5519a1ed498e8aa8ef83c33c,U Modrého hroznu,50.085793,14.418163,Czech Restaurant
648,50.08776092933239,14.417499961382266,50,20,533ee64b498e40551a36d08f,Mlejnice,50.0886022587481,14.41759145450366,Czech Restaurant
649,50.08776092933239,14.417499961382266,50,21,4f3ce954e4b0e8f24dbfca22,Cohiba Atmosphere Club,50.08842442567797,14.416918773125463,Cuban Restaurant
650,50.08776092933239,14.417499961382266,50,22,4f6ceb1ee4b0600331de757f,Alla Stella Nera,50.086119808155935,14.417149655744208,Italian Restaurant
651,50.08776092933239,14.417499961382266,50,23,51cde15c498ebe6be12f9446,Restaurant Karlova 30,50.08610004528258,14.417653041724794,Czech Restaurant
652,50.08776092933239,14.417499961382266,50,24,5d1a32cfe32452002340d48e,Five Rivers,50.08807,14.4154,Indian Restaurant
653,50.08776092933239,14.417499961382266,50,25,4c34fc763896e21ebc80ec90,Staromáček,50.08609695053156,14.418918317711837,Czech Restaurant
654,50.08776092933239,14.417499961382266,50,26,4b179bc8f964a520a3c623e3,U Pivrnce,50.0883433568104,14.418579339981077,Pub
655,50.08776092933239,14.417499961382266,50,27,5f1c6984c271cb091391aa3d,Piazzetta,50.087756,14.414009,Modern European Restaurant
656,50.08776092933239,14.417499961382266,50,28,50ead913e4b0f0d9f2d4ec2b,U Karpa,50.089298248291,14.4194250106812,Eastern European Restaurant
657,50.08776092933239,14.417499961382266,50,29,4b61fa75f964a520a12e2ae3,U Dominikána,50.085955602155785,14.418936354113399,Czech Restaurant
658,50.08776092933239,14.417499961382266,50,30,4bb8f80498c7ef3bd7a23102,U Kočku,50.08599370752528,14.418826384705952,Mediterranean Restaurant
659,50.08776092933239,14.417499961382266,50,31,5d7d1e6b2f509b000732f4c7,Alla Stella Nera,50.086149,14.417104,Italian Restaurant
660,50.08776092933239,14.417499961382266,50,32,543f8b9f498e8fa228108677,albertuv posh house,50.089374,14.418958,Afghan Restaurant
661,50.08776092933239,14.417499961382266,50,33,51b35c14498e7d57b2bbce86,Ristorante San Nicola,50.08752610499033,14.42018360741574,Italian Restaurant
662,50.08776092933239,14.417499961382266,50,34,4c5862b56201e21ecbe46870,Vinárna Puškin,50.085810356498314,14.41813438959304,Czech Restaurant
663,50.08776092933239,14.417499961382266,50,35,58346c87ce66aa14b54e3876,Caserol,50.086186,14.418961,Modern European Restaurant
664,50.08776092933239,14.417499961382266,50,36,5b30f4b723a2e6002b3972ed,Buffet Italiano San Nicola,50.087012,14.420406,Italian Restaurant
665,50.08776092933239,14.417499961382266,50,37,53380b7d498ef67161ed9022,Capiccio,50.087728184870386,14.419749544712609,Italian Restaurant
666,50.08776092933239,14.417499961382266,50,38,53663a2e498e406231a6d6ea,Restorace Carpaccio,50.08790588378906,14.418768882751465,Italian Restaurant
667,50.08776092933239,14.417499961382266,50,39,4c88feccbbec6dcba649d858,Apropos,50.08725725841952,14.415181037039572,Eastern European Restaurant
668,50.08776092933239,14.417499961382266,50,40,4f123b89e4b0725fecccf2a5,Haringak,50.0878114,14.4204598,Asian Restaurant
669,50.08776092933239,14.417499961382266,50,41,4e3c428945dd68e327291dbf,Feast Place,50.089514342857136,14.418922850000001,Middle Eastern Restaurant
670,50.08776092933239,14.417499961382266,50,42,540cb69f498ee75cf34a689b,Rugantino,50.088287856658035,14.415404314752083,Italian Restaurant
671,50.08776092933239,14.417499961382266,50,43,560bd47a498e27b12e364448,Nuance,50.08699350894857,14.419207193469036,Czech Restaurant
672,50.08776092933239,14.417499961382266,50,44,51ed8afb498e68bb9157e23b,Viet Nam,50.086053223286626,14.415732239574528,Vietnamese Restaurant
673,50.08776092933239,14.417499961382266,50,45,52d15a29498e8195ea307472,U pivrnce,50.088520996941995,14.418862551714945,Eastern European Restaurant
674,50.08776092933239,14.417499961382266,50,46,4d60057d29ef236a6403a059,Kari Bazar,50.08673665073791,14.420384535640157,Indian Restaurant
675,50.08776092933239,14.417499961382266,50,47,4db1e1390437a93f7f94395a,U Zlaté Konvice,50.08681508439691,14.420610024834382,Eastern European Restaurant
676,50.08776092933239,14.417499961382266,50,48,4c4ec39d9932e21ef59742ce,Chech Pizza & Pasta,50.08636628669121,14.419979330561358,Pizza Place
677,50.08776092933239,14.417499961382266,50,49,4f79d2cee4b0cd1b3483cf49,Rudovan Nora,50.08831342923681,14.419004875637135,German Restaurant
678,50.0832390706676,14.417499961382266,50,0,4adcda9bf964a520994c21e3,U Medvídků,50.082798,14.41883,Gastropub
679,50.0832390706676,14.417499961382266,50,1,4c20b8c5edef9521e46a8eb1,U Dvou koček,50.083633,14.42045,Brewery
680,50.0832390706676,14.417499961382266,50,2,5941a3c4ca18ea1bc5323fb1,Pohostinec Monarch,50.083848,14.418302,Czech Restaurant
681,50.0832390706676,14.417499961382266,50,3,560e4e1b498ec183e0ef7c09,Kozlovna U Paukerta,50.081889,14.416955,Czech Restaurant
682,50.0832390706676,14.417499961382266,50,4,4d89e93d5ecdf04d2aecb28a,Švejk restaurant U Zeleného stromu,50.08420979622776,14.418036192655562,Czech Restaurant
683,50.0832390706676,14.417499961382266,50,5,5048da1be4b02a1c17b4e7ad,Pho Viet,50.0822816181656,14.418209614834574,Vietnamese Restaurant
684,50.0832390706676,14.417499961382266,50,6,5bbcee0ed807ee002cfc1574,Bistreet,50.0815125619908,14.419558194879594,Pizza Place
685,50.0832390706676,14.417499961382266,50,7,4bc8b75f92b376b0af07523a,Konvikt,50.08322975952864,14.41793854893439,Pub
686,50.0832390706676,14.417499961382266,50,8,4adcda9bf964a520a84c21e3,U Vejvodů,50.08420038370784,14.418908793919469,Pub
687,50.0832390706676,14.417499961382266,50,9,5d6015bff78b260008420066,Pilsnerka Národní,50.082146,14.418826,Beer Bar
688,50.0832390706676,14.417499961382266,50,10,5622555b498e37e2bd2aa95d,Il Palazzo Italian Restaurant,50.084755471254674,14.418335547744016,Italian Restaurant
689,50.0832390706676,14.417499961382266,50,11,58f62a584acb19730a324e8f,The Street Restaurant & Cocktail Bar,50.083492272818056,14.416586315236708,Cocktail Bar
690,50.0832390706676,14.417499961382266,50,12,5effc7a176618e271ccffc54,Cafe Latino,50.084005,14.416076,Mexican Restaurant
691,50.0832390706676,14.417499961382266,50,13,4b3fc5ccf964a52068ae25e3,Restaurant Kabul,50.08230630997137,14.414862550710833,Afghan Restaurant
692,50.0832390706676,14.417499961382266,50,14,4bc59cb06c26b7135878ebf3,Golden Tikka,50.08346263509523,14.416457398501453,Indian Restaurant
693,50.0832390706676,14.417499961382266,50,15,5cc07a64c876c8002cbe6187,Pivovar Staré město,50.084048,14.415591,Brewery
694,50.0832390706676,14.417499961382266,50,16,5e58185dfd0227000787a56c,Pho 10,50.08212144863714,14.41903531551361,Vietnamese Restaurant
695,50.0832390706676,14.417499961382266,50,17,5b2c07b34acb19002ca4bbf1,L’Osteria,50.08165417523448,14.417370267344708,Italian Restaurant
696,50.0832390706676,14.417499961382266,50,18,4d775c81a5d6ba7af5c3f360,U Rotundy,50.08266326576208,14.414669512470429,Pub
697,50.0832390706676,14.417499961382266,50,19,50c35996e4b0c5b6f3d16dad,Pivoňkové zátiší,50.083842408268204,14.419045035015007,Chinese Restaurant
698,50.0832390706676,14.417499961382266,50,20,4fd76470e4b071eb3394bddc,U Tří zlatých lvů,50.08368925403645,14.41994048010859,Czech Restaurant
699,50.0832390706676,14.417499961382266,50,21,517aba94e4b092ae52073e67,Alriso Risotteria Italiana,50.08413857055779,14.416946619358121,Italian Restaurant
700,50.0832390706676,14.417499961382266,50,22,5dd2c0e83d053f000868d777,I'M Sushi & Coffee,50.082863,14.420557,Coffee Shop
701,50.0832390706676,14.417499961382266,50,23,4b6ffa37f964a52013022de3,S'-čchuan,50.0824889742229,14.41833389909444,Chinese Restaurant
702,50.0832390706676,14.417499961382266,50,24,53c011a6498ebce2d79d81b8,Bistro Pho Viet Nam,50.08436226587455,14.415833992520966,Asian Restaurant
703,50.0832390706676,14.417499961382266,50,25,4c06a5242e80a5933d7074f9,Haškova restaurace U Brejšků,50.081477,14.419329,Gastropub
704,50.0832390706676,14.417499961382266,50,26,5171184de4b071aab92b079a,Bistro Vietnam,50.0842666920987,14.415772385403535,Vietnamese Restaurant
705,50.0832390706676,14.417499961382266,50,27,51daf2e5498eeedbd20cf17d,Oliva Nera,50.0841335403184,14.41711636456988,Italian Restaurant
706,50.0832390706676,14.417499961382266,50,28,4b7be90df964a52048732fe3,Kardamon Klub,50.0842022895813,14.416696429252625,Middle Eastern Restaurant
707,50.0832390706676,14.417499961382266,50,29,4dbafcba43a1d8504b636d3a,Sahar Ra,50.083779,14.420286,African Restaurant
708,50.0832390706676,14.417499961382266,50,30,4f92bba2e4b0a510a62947e1,Lunge,50.08308298265344,14.419732571547817,Italian Restaurant
709,50.0832390706676,14.417499961382266,50,31,4c9a1fedeaa5a1434b6bc9e4,Blatnice,50.08476493301898,14.419960112776769,Eastern European Restaurant
710,50.0832390706676,14.417499961382266,50,32,5d4da9bf1aa86d00075c03fb,Moment Bistro,50.08388,14.419055,Chinese Restaurant
711,50.0832390706676,14.417499961382266,50,33,5c02d80b3092be00384eb877,Belgique,50.082056,14.418652,Belgian Restaurant
712,50.0832390706676,14.417499961382266,50,34,53919559498e3a275a9cc227,Buddha Thai Rooftop Lounge,50.08276695387944,14.41963910000345,Thai Restaurant
713,50.0832390706676,14.417499961382266,50,35,5f0d8494aba68a2398199849,Thai Station,50.0837181,14.4198836,Thai Restaurant
714,50.0832390706676,14.417499961382266,50,36,4f6f6a37e4b03b575dffe6f5,Restaurant Lungo,50.08189182099294,14.417664224918168,Italian Restaurant
715,50.0832390706676,14.417499961382266,50,37,53d21f59498eb6c951072667,Risotteria italiana,50.084121,14.416933,Italian Restaurant
716,50.0832390706676,14.417499961382266,50,38,53daa2bb498e1ace62bb4dff,Restaurant & Club Planca,50.082685,14.41505,Indian Restaurant
717,50.0832390706676,14.417499961382266,50,39,4f8d9e10e4b0194668c6e78f,Chuan wang fu,50.082051,14.418202,Chinese Restaurant
718,50.0832390706676,14.417499961382266,50,40,4bc5ab265935c9b60329a6d2,U Dvou Ježků,50.08357417136466,14.416579304780011,Eastern European Restaurant
719,50.0832390706676,14.417499961382266,50,41,4adcdaa1f964a520f64d21e3,Pod Křídlem Noci,50.081498,14.416581,Eastern European Restaurant
720,50.0832390706676,14.417499961382266,50,42,4f291e19e4b0f07a95d18c27,Royal Bengal,50.084503173828125,14.418855667114258,Indian Restaurant
721,50.0832390706676,14.417499961382266,50,43,4dbd439d43a1d8504ba0eb7d,Klodi Pizzerie Ristauracr,50.082211,14.418298,Italian Restaurant
722,50.0832390706676,14.417499961382266,50,44,514d97b9e4b0ab03ff87f760,Kovnice,50.083628,14.419031,Eastern European Restaurant
723,50.0832390706676,14.417499961382266,50,45,537ddf7e498e80a0544af382,Tandoori Dhaba,50.082654,14.415111,Indian Restaurant
724,50.0832390706676,14.417499961382266,50,46,4cd184a43e63721e791aa4cc,Le terroir,50.084614747137906,14.418872735677468,French Restaurant
725,50.0832390706676,14.417499961382266,50,47,56d89200498e1c789a22a77f,Pizza Pasta Break,50.084625,14.419415,Italian Restaurant
726,50.0832390706676,14.417499961382266,50,48,5238978a11d2e4789e03c852,Marea,50.0833854675293,14.416399955749512,Italian Restaurant
727,50.0832390706676,14.417499961382266,50,49,53623dcc498e81c99449b111,Čínská restaurace Smaragdová zahrada,50.083635,14.417987,Asian Restaurant
728,50.08776092933239,14.424500038617733,50,0,4ed77ae5b6346530d066964c,James Dean Prague,50.08956600492547,14.422444417433598,American Restaurant
729,50.08776092933239,14.424500038617733,50,1,53918a7b498efe9a0e7f793e,Restaurace Mincovna,50.0882963,14.4212735,Czech Restaurant
730,50.08776092933239,14.424500038617733,50,2,4b6c0951f964a520bb202ce3,Pasta Fresca,50.08721566326978,14.423773145688019,Italian Restaurant
731,50.08776092933239,14.424500038617733,50,3,5b45d4d81ffe9700393c409a,Vapiano,50.085650780123316,14.42561527925259,Italian Restaurant
732,50.08776092933239,14.424500038617733,50,4,4adcdaa2f964a520144e21e3,TGI Friday's,50.0862276335443,14.426677755467216,American Restaurant
733,50.08776092933239,14.424500038617733,50,5,4c557c7506901b8de0098e4d,Trattoria by Giovanni,50.08666750042767,14.421675950288773,Italian Restaurant
734,50.08776092933239,14.424500038617733,50,6,4b51eb43f964a520505b27e3,Yami Sushi House,50.08942815665716,14.423481397378293,Sushi Restaurant
735,50.08776092933239,14.424500038617733,50,7,4da759c00cb65e9aae518322,Divinis,50.08899180650428,14.424127090172032,Italian Restaurant
736,50.08776092933239,14.424500038617733,50,8,4b6ed74af964a520e3cc2ce3,Dhaba Beas,50.088911645938175,14.423735763799817,Vegetarian / Vegan Restaurant
737,50.08776092933239,14.424500038617733,50,9,5c163419fd9d73002c642bb2,Jaffa,50.086178,14.425615,Lebanese Restaurant
738,50.08776092933239,14.424500038617733,50,10,541322a5498e4f178366bdf2,White Horse,50.0871710795488,14.421239451509646,Czech Restaurant
739,50.08776092933239,14.424500038617733,50,11,4adcdaa2f964a520134e21e3,Pizza Coloseum,50.08630398164173,14.42450513048248,Pizza Place
740,50.08776092933239,14.424500038617733,50,12,5a21b2a49e3b655150a94ce2,Pilsner Urquell Original Restaurant Staroměstská,50.08733120787193,14.421220284001757,Czech Restaurant
741,50.08776092933239,14.424500038617733,50,13,5d701ca66ede2f0008356d05,Namaste India,50.088185,14.426192,Indian Restaurant
742,50.08776092933239,14.424500038617733,50,14,54553fcb498ecdd6e45b2156,Agave Restaurant,50.089432840294364,14.42300722085346,Mexican Restaurant
743,50.08776092933239,14.424500038617733,50,15,4ba8ce2df964a52060f039e3,U Týna,50.087408000074035,14.421455059523213,Czech Restaurant
744,50.08776092933239,14.424500038617733,50,16,4f884296e4b0e6f347675eb6,U Červeného Páva,50.08657696624033,14.422884399801214,Czech Restaurant
745,50.08776092933239,14.424500038617733,50,17,4b9ab706f964a52078cf35e3,Giallo Rossa,50.088166903345645,14.424874067268638,Italian Restaurant
746,50.08776092933239,14.424500038617733,50,18,4bcb167bb6c49c748c739191,Caffé Italia Ristorante,50.087539860524316,14.421820469275357,Italian Restaurant
747,50.08776092933239,14.424500038617733,50,19,539ad7f1498ea6a82320e481,Zebra Express,50.087166236702025,14.426642174340211,Asian Restaurant
748,50.08776092933239,14.424500038617733,50,20,4ed7b7c6722ec4ce1f54cd77,Burrito Loco,50.08945533763056,14.422943468639557,Burrito Place
749,50.08776092933239,14.424500038617733,50,21,4b517052f964a5204a4d27e3,Buddha-Bar,50.088265942290626,14.425916310143776,Asian Restaurant
750,50.08776092933239,14.424500038617733,50,22,4c362e9b18e72d7fd36314f5,La Scala,50.0874061,14.4228147,Italian Restaurant
751,50.08776092933239,14.424500038617733,50,23,5c2c7eb5b8fd9d002c971d12,Agora,50.08932,14.426338,Greek Restaurant
752,50.08776092933239,14.424500038617733,50,24,4bb63b83941ad13a60181fe3,Indian Jewel,50.08795705307758,14.423697840637493,Indian Restaurant
753,50.08776092933239,14.424500038617733,50,25,4d0f85b371e8a1cd352f7bbd,Na Ovocném trhu,50.08672465237635,14.42527121586829,Czech Restaurant
754,50.08776092933239,14.424500038617733,50,26,552ff2cf498eb3d28153f59f,GamberoRosso,50.088178782214726,14.425126616109434,Italian Restaurant
755,50.08776092933239,14.424500038617733,50,27,52935dd311d2e71688d1162e,Food Market By Kogo,50.088367669924146,14.421548442077064,Italian Restaurant
756,50.08776092933239,14.424500038617733,50,28,56fd0b16cd104c5603b76d93,Delije,50.087775806597904,14.424339208131522,Czech Restaurant
757,50.08776092933239,14.424500038617733,50,29,5ebd8dbc64862c000848daa7,La Patrona,50.088647,14.427343,Mexican Restaurant
758,50.08776092933239,14.424500038617733,50,30,5422c96f498ebce1f830232d,sushi go,50.088059,14.424579,Asian Restaurant
759,50.08776092933239,14.424500038617733,50,31,4cb5ad2955af224b7d06947e,Summer Palace,50.08751014241015,14.42548150609051,Chinese Restaurant
760,50.08776092933239,14.424500038617733,50,32,58d2c6cd52a05126372d1495,Restaurant Ungelt,50.088094,14.423864,Czech Restaurant
761,50.08776092933239,14.424500038617733,50,33,4c1f618563750f476801bb67,Ristorante Vabene,50.08808174127813,14.423905623104318,Italian Restaurant
762,50.08776092933239,14.424500038617733,50,34,537913ec498e08f353078219,Erwan,50.087688,14.423731,Thai Restaurant
763,50.08776092933239,14.424500038617733,50,35,51b09d30498e2f227ff3a9e3,mister sushi,50.0881132383828,14.424675284973071,Sushi Restaurant
764,50.08776092933239,14.424500038617733,50,36,4e346b637d8b0c62b2c9a917,SushiGo,50.088333780189764,14.42463291306819,Argentinian Restaurant
765,50.08776092933239,14.424500038617733,50,37,517e58bee4b0a3335f6864d6,Cinani Kotva,50.08815383911133,14.426484107971191,Asian Restaurant
766,50.08776092933239,14.424500038617733,50,38,4b978423f964a520e70635e3,U Dvou Slovaků,50.088696,14.423837,Eastern European Restaurant
767,50.08776092933239,14.424500038617733,50,39,547096b9498ea38ffeec9360,Yiheyuan,50.0875418799472,14.425343979025703,Vietnamese Restaurant
768,50.08776092933239,14.424500038617733,50,40,4f93eb4fe4b0b65a8b7b4d9b,U Svobodných zednářů,50.08875204317296,14.423828311302566,Czech Restaurant
769,50.08776092933239,14.424500038617733,50,41,59a5ad8b8c35dc56625c51f4,Satuy,50.086469,14.42514,Asian Restaurant
770,50.08776092933239,14.424500038617733,50,42,4e425e9a1838ada3db5becf0,Ristorante Anna,50.08983267915878,14.423976890255819,Italian Restaurant
771,50.08776092933239,14.424500038617733,50,43,4eef32f50e01899e01a2efe8,Čínská restaurace (hotel Esprit),50.08846139863756,14.426783518061933,Asian Restaurant
772,50.08776092933239,14.424500038617733,50,44,4df0e60ed16486e86e522c64,Aegis Party,50.087408,14.42501,Vietnamese Restaurant
773,50.08776092933239,14.424500038617733,50,45,50787a95e4b0b5e91f471ad7,Mexican buritos,50.087496024366494,14.422562958375023,Mexican Restaurant
774,50.08776092933239,14.424500038617733,50,46,54117ea6498e59d37e399115,Patisserie Boulangerie,50.08961064173591,14.423359563134934,French Restaurant
775,50.08776092933239,14.424500038617733,50,47,54d488ab498ead51406ce1fd,Bufet Panská,50.087164,14.425497,Turkish Restaurant
776,50.08776092933239,14.424500038617733,50,48,521dccba498e314c4c758d38,Pot-au-feu,50.08911854247087,14.426155873562424,French Restaurant
777,50.08776092933239,14.424500038617733,50,49,572a560a498e00a82eb0975a,Strongbow apple ciders,50.087435,14.421556,Czech Restaurant
778,50.0832390706676,14.424500038617733,50,0,4b76bac3f964a5201f5b2ee3,U Pinkasů,50.083234,14.423501,Czech Restaurant
779,50.0832390706676,14.424500038617733,50,1,50336f32e4b002cea0e9ebb4,Potrefená husa,50.08287203317574,14.42113553841303,Czech Restaurant
780,50.0832390706676,14.424500038617733,50,2,5ace3587efa82a290f2a677e,Wokin,50.08303593502324,14.426927397069916,Noodle House
781,50.0832390706676,14.424500038617733,50,3,4b1a6d09f964a52034ea23e3,Modrý zub,50.08308621960737,14.42705061501504,Thai Restaurant
782,50.0832390706676,14.424500038617733,50,4,52f523bf498e8a164792e9d2,Kitchen Ramen Bar,50.083691858645246,14.422650478500671,Ramen Restaurant
783,50.0832390706676,14.424500038617733,50,5,4fe1a398e4b0fd188c25208a,Al Karim,50.08375597821392,14.42759905848413,Indian Restaurant
784,50.0832390706676,14.424500038617733,50,6,5917271c6f706a51e224f1af,VietFOOD,50.08301987086408,14.426941520036001,Vietnamese Restaurant
785,50.0832390706676,14.424500038617733,50,7,557ae583498e218724443fe2,Il Gusto,50.084762467167174,14.421945888431237,Italian Restaurant
786,50.0832390706676,14.424500038617733,50,8,4c03971239d476b0fa4530a7,Pizza Coloseum,50.08406591990739,14.423753206275501,Pizza Place
787,50.0832390706676,14.424500038617733,50,9,5cfcddcae4c459002cece955,Národní 38,50.082463,14.421469,Café
788,50.0832390706676,14.424500038617733,50,10,5a3647d3c4df1d2b88c597ed,Pasha Restaurant,50.08169417536049,14.42224835851444,Turkish Restaurant
789,50.0832390706676,14.424500038617733,50,11,503cb8f0e4b09e01d30c1a08,La Piccola Perla,50.083529890379424,14.421324174451213,Italian Restaurant
790,50.0832390706676,14.424500038617733,50,12,5097afc8e4b079e23152cbe1,Xin Tian Hao Jiu Jia,50.08185870667279,14.425106337291174,Chinese Restaurant
791,50.0832390706676,14.424500038617733,50,13,5a9d5e5725fb7b626582278e,"Restaurace ""Otevřeno""",50.083222322716644,14.422581195831299,Czech Restaurant
792,50.0832390706676,14.424500038617733,50,14,4c2ce3ee8ef52d7f5fa233ba,Ju Le Yuan,50.08191284602393,14.422356493438611,Chinese Restaurant
793,50.0832390706676,14.424500038617733,50,15,4f6cea31e4b03b575bb6a982,U Balouna,50.0828956575198,14.424911539663164,Czech Restaurant
794,50.0832390706676,14.424500038617733,50,16,4d35770ac6cba35d86753c7a,Plzeňská Rychta,50.08355387343184,14.424487582797678,Czech Restaurant
795,50.0832390706676,14.424500038617733,50,17,5c5c0fcadd12f8002c5905b9,Rozmarinn restaurant,50.081308,14.424798,Czech Restaurant
796,50.0832390706676,14.424500038617733,50,18,5d66f36157ba49000844af9b,Yam Yam,50.083231,14.421477,Asian Restaurant
797,50.0832390706676,14.424500038617733,50,19,4adcdaa3f964a520444e21e3,Triton Restaurant,50.08285784103644,14.42529426229606,French Restaurant
798,50.0832390706676,14.424500038617733,50,20,516939a8e4b0ee86aa34927d,Almadine,50.083685,14.42373,Eastern European Restaurant
799,50.0832390706676,14.424500038617733,50,21,56daccc5498e337ce399f813,Da Shi Jie,50.0841373024516,14.423464319181218,Chinese Restaurant
800,50.0832390706676,14.424500038617733,50,22,5efa36e5b1d80c027a8a7722,U Zlaté pšenice,50.083256,14.424378,Czech Restaurant
801,50.0832390706676,14.424500038617733,50,23,4f2fb6bee4b0124abac4a8e9,So pasta,50.08492120005464,14.42644430544243,Italian Restaurant
802,50.0832390706676,14.424500038617733,50,24,4c00e143360a9c74da0bd9a0,Restaurace U Veselé Basy,50.08473007568803,14.422539817524694,Czech Restaurant
803,50.0832390706676,14.424500038617733,50,25,4fc8a7e0e4b08b8c9f24f385,Hanedam,50.0830288654086,14.427728209760339,Turkish Restaurant
804,50.0832390706676,14.424500038617733,50,26,51fb93ea498e1a05536bcd41,Hongshun,50.08153671474569,14.426525518758705,Chinese Restaurant
805,50.0832390706676,14.424500038617733,50,27,572c8b62498eb7385b8e0beb,La Boutique de la Pizza,50.08346110221937,14.424680996920483,Italian Restaurant
806,50.0832390706676,14.424500038617733,50,28,4d9d968ec593a1cde0d06219,Sindibád,50.084308,14.425973,Fast Food Restaurant
807,50.0832390706676,14.424500038617733,50,29,526509fd11d2a6eabaf19e31,Yammy,50.083395685225085,14.424767680786875,Asian Restaurant
808,50.0832390706676,14.424500038617733,50,30,4b6ea50cf964a52016c52ce3,Kobe Restaurant,50.08327854092372,14.42523277944276,Steakhouse
809,50.0832390706676,14.424500038617733,50,31,4f4e1449e4b0629e7b2e9fb0,Sushi Time,50.08315817360192,14.427135231326867,Sushi Restaurant
810,50.0832390706676,14.424500038617733,50,32,53ec9e3b498eef14e3f37807,original czech restorant,50.0848850891877,14.422615651236626,Czech Restaurant
811,50.0832390706676,14.424500038617733,50,33,5752c3a1498eb5968f0b4dd6,Restaurant O RALOUNA,50.083154,14.425206,Czech Restaurant
812,50.0832390706676,14.424500038617733,50,34,528a5355498e49cc5e597a79,Fu Man Lou,50.084138676377215,14.42430821212335,Asian Restaurant
813,50.0832390706676,14.424500038617733,50,35,553e3eb1498e2e14d7447224,Dominicus,50.08270082522937,14.425477981567383,Czech Restaurant
814,50.0832390706676,14.424500038617733,50,36,4be7f17588ed2d7fc438cb1d,Restaurant U Jelinka,50.085251261348226,14.424741462255504,Eastern European Restaurant
815,50.0832390706676,14.424500038617733,50,37,4d7be89d8f89224b1f379a26,Gourmet Club,50.083865635553195,14.427489561221508,Czech Restaurant
816,50.0832390706676,14.424500038617733,50,38,56134afa498e8ff86e9d556c,Švejk restaurant „Prague INN“,50.08345811344738,14.422538280487059,Czech Restaurant
817,50.0832390706676,14.424500038617733,50,39,4f4902a7e4b0683d50290a97,Soprano Restaurant,50.08330774192054,14.42665656223471,Italian Restaurant
818,50.0832390706676,14.424500038617733,50,40,4f881f82e4b05ae887928e8c,Indian Restaurant,50.08371895953309,14.426971571049023,Indian Restaurant
819,50.0832390706676,14.424500038617733,50,41,4ef4c74193ad743f5faa9fe1,Sushi house,50.08149545991739,14.425758878470823,Sushi Restaurant
820,50.0832390706676,14.424500038617733,50,42,4b7fa31df964a520b23730e3,Duplex Restaurant,50.08238292891253,14.426504017576251,Italian Restaurant
821,50.0832390706676,14.424500038617733,50,43,56ba0124498e6834d9ab98fb,Restaurace Filantrop,50.08215878545513,14.423712426075467,Czech Restaurant
822,50.0832390706676,14.424500038617733,50,44,5b4365e8a89b5a0024857962,Amritsar Mail,50.08122063644103,14.425199031829834,Indian Restaurant
823,50.0832390706676,14.424500038617733,50,45,4e0c8ae052b1289d118865f0,Pasarela,50.08343492238165,14.426603818727225,Mediterranean Restaurant
824,50.0832390706676,14.424500038617733,50,46,515ea4f8498ef2a225e574b8,Wang Dong Sheng,50.08478085172653,14.425672814098371,Chinese Restaurant
825,50.0832390706676,14.424500038617733,50,47,4e450c5e18a8bafc629bc407,Macao&wok,50.08236829108392,14.42230347153199,Asian Restaurant
826,50.0832390706676,14.424500038617733,50,48,55eec497498eb0d60764d446,Wei Yong,50.08425891210613,14.426307740620393,Chinese Restaurant
827,50.0832390706676,14.424500038617733,50,49,4e7701c252b1c8e51a207c06,Hong Shun,50.08178416489819,14.426918899857917,Asian Restaurant
828,50.085499999999996,14.435799999999999,7,0,4bbdf392a8cf76b05360b2fd,Potrefená husa,50.084076,14.434298,Czech Restaurant
829,50.085499999999996,14.435799999999999,7,1,4b703c14f964a5200b0d2de3,Restaurant Rustica,50.08654145520588,14.43499403609954,Italian Restaurant
830,50.085499999999996,14.435799999999999,7,2,56a3e304498e83d8f7b9f215,Rebel Wings,50.087070491838965,14.434248401869032,Czech Restaurant
831,50.085499999999996,14.435799999999999,7,3,4e771bbbc65bb91db514156c,Tian Tian,50.08689364821866,14.433736037811084,Chinese Restaurant
832,50.085499999999996,14.435799999999999,7,4,544b9e29498e01e80ed8c721,Nem Nem,50.08708190917969,14.433359146118164,Asian Restaurant
833,50.085499999999996,14.435799999999999,7,5,4f191b21e4b0bb77e615959d,China Restaurant & Cafe,50.08726876129143,14.434459499520143,Chinese Restaurant
834,50.085499999999996,14.435799999999999,7,6,4ed8f84a0e011b46ec9e9464,Merenda,50.0861098029177,14.435832049323212,American Restaurant
835,50.08776092933239,14.432299961382265,35,0,5a297dc26cf01a6d8f94b228,Sia,50.088199,14.430989,Asian Restaurant
836,50.08776092933239,14.432299961382265,35,1,4b2222abf964a520f04324e3,Potrefená Husa,50.08716176893022,14.432119131088257,Czech Restaurant
837,50.08776092933239,14.432299961382265,35,2,5d8902888c93490008e6f3e5,Takumi Praha,50.086044,14.431068,Ramen Restaurant
838,50.08776092933239,14.432299961382265,35,3,5099414d8aca959054451369,HOFFA,50.08588023677659,14.431898490755763,Cocktail Bar
839,50.08776092933239,14.432299961382265,35,4,4afae1f6f964a520501922e3,Makakiko | Running Sushi,50.08903274694617,14.429762378678296,Sushi Restaurant
840,50.08776092933239,14.432299961382265,35,5,57e016bf498e58aba74b49b5,La Bottega Linka,50.08917204143263,14.432381015175208,Italian Restaurant
841,50.08776092933239,14.432299961382265,35,6,5a450b3e31ac6c1325442bd6,Thai Thai & Ramen,50.08910827936289,14.429705494122542,Noodle House
842,50.08776092933239,14.432299961382265,35,7,4c04eada9a7920a1c4d3d179,La Gare,50.088370405548595,14.430568560614647,French Restaurant
843,50.08776092933239,14.432299961382265,35,8,4b703c14f964a5200b0d2de3,Restaurant Rustica,50.08654145520588,14.43499403609954,Italian Restaurant
844,50.08776092933239,14.432299961382265,35,9,4d43f64e3616b60c692bdfc2,Le Grill Restaurant,50.087224272430376,14.431518602967866,Modern European Restaurant
845,50.08776092933239,14.432299961382265,35,10,4b994184f964a520036e35e3,Kolkovna Celnice,50.087943442353144,14.429648041956892,Czech Restaurant
846,50.08776092933239,14.432299961382265,35,11,56a3e304498e83d8f7b9f215,Rebel Wings,50.087070491838965,14.434248401869032,Czech Restaurant
847,50.08776092933239,14.432299961382265,35,12,4def4491c65bf3f03e91b3e4,Ristorante Longiano,50.08956207277614,14.432320207362016,Italian Restaurant
848,50.08776092933239,14.432299961382265,35,13,57a5b15c498e31a65e9a1b46,Mongolian BBQ,50.08909599369598,14.429652711135699,Mongolian Restaurant
849,50.08776092933239,14.432299961382265,35,14,4b87bcecf964a5207cc931e3,Istanbul Kebab,50.08902714242662,14.430394052669087,Turkish Restaurant
850,50.08776092933239,14.432299961382265,35,15,5082c4d6e4b0354c599061d4,Sushi Oishi,50.08821,14.430509,Sushi Restaurant
851,50.08776092933239,14.432299961382265,35,16,4d90705bca75b60c280128a9,UNO,50.089065,14.429687,Italian Restaurant
852,50.08776092933239,14.432299961382265,35,17,4e771bbbc65bb91db514156c,Tian Tian,50.08689364821866,14.433736037811084,Chinese Restaurant
853,50.08776092933239,14.432299961382265,35,18,5b71b9cc89e490003909a944,Smokeberry #2,50.087153,14.430005,Lounge
854,50.08776092933239,14.432299961382265,35,19,59ac3d466f0aa256dac9d889,Soju,50.08563352941508,14.43223178386688,Korean Restaurant
855,50.08776092933239,14.432299961382265,35,20,544b9e29498e01e80ed8c721,Nem Nem,50.08708190917969,14.433359146118164,Asian Restaurant
856,50.08776092933239,14.432299961382265,35,21,5cbeec361f7440003991f0d4,Tao Tie,50.088606,14.432721,Chinese Restaurant
857,50.08776092933239,14.432299961382265,35,22,4ba3c76cf964a5205c5e38e3,La Primavera,50.08948969,14.432341,Italian Restaurant
858,50.08776092933239,14.432299961382265,35,23,4ea7e06bb8f7ff211aa01cba,Jurta,50.08909680180008,14.429971324136929,Asian Restaurant
859,50.08776092933239,14.432299961382265,35,24,4f191b21e4b0bb77e615959d,China Restaurant & Cafe,50.08726876129143,14.434459499520143,Chinese Restaurant
860,50.08776092933239,14.432299961382265,35,25,5b12888f2aff31002cf145cd,Sicileat,50.089046,14.429432,Italian Restaurant
861,50.08776092933239,14.432299961382265,35,26,4d6f92b4a045721e2f4a27b8,Wok & Bento,50.08902471265217,14.42982847137152,Asian Restaurant
862,50.08776092933239,14.432299961382265,35,27,50ca02c5245f2d4aa8c2c5d8,Zinc Restaurant,50.08849641867744,14.432098545066411,Modern European Restaurant
863,50.08776092933239,14.432299961382265,35,28,4bd480e67b1876b0e7238986,L.A. finger food,50.08910451250934,14.42993481949665,American Restaurant
864,50.08776092933239,14.432299961382265,35,29,50c3924fe4b04a2d9ce6c482,Galetka creperie,50.08792495727539,14.429526329040527,French Restaurant
865,50.08776092933239,14.432299961382265,35,30,55190ef7498ead17c80d5df6,Mikuni,50.08593212838034,14.432242465462823,Japanese Restaurant
866,50.08776092933239,14.432299961382265,35,31,4e01ad8088776240d3f5a101,brasserie felice,50.0895332881347,14.431147282273482,Eastern European Restaurant
867,50.08776092933239,14.432299961382265,35,32,500d6567e4b07352bd52f4f5,Bezďácký Schromáždění,50.087871,14.42978,Arepa Restaurant
868,50.08776092933239,14.432299961382265,35,33,51a8e84d498e29a941a9b6d8,Keramika,50.086866,14.432167,Middle Eastern Restaurant
869,50.08776092933239,14.432299961382265,35,34,4c879eff56e037045ec5b3a3,So Pasta,50.088281,14.430368,Italian Restaurant
870,50.0832390706676,14.432299961382265,19,0,4b1c26b3f964a520240324e3,Bredovský dvůr,50.082666183037425,14.43013661071873,Czech Restaurant
871,50.0832390706676,14.432299961382265,19,1,5eef60f02f7e820008002927,Restaurace Rychlík,50.083653,14.43341,Czech Restaurant
872,50.0832390706676,14.432299961382265,19,2,4bbdf392a8cf76b05360b2fd,Potrefená husa,50.084076,14.434298,Czech Restaurant
873,50.0832390706676,14.432299961382265,19,3,4b012ff7f964a520d64122e3,Istanbul Kebab,50.08218104321055,14.430517852306366,Turkish Restaurant
874,50.0832390706676,14.432299961382265,19,4,4cf24cd17e0da1cd35cc9697,U Staré Pošty,50.08258564249678,14.430964284156738,Czech Restaurant
875,50.0832390706676,14.432299961382265,19,5,57efb849498eb3d8063efdc8,Tonkin Kafé,50.081538353780665,14.43038374185562,Café
876,50.0832390706676,14.432299961382265,19,6,5d9b01fa97269b0007fed393,Fede Bistro Italiano,50.084958,14.431439,Italian Restaurant
877,50.0832390706676,14.432299961382265,19,7,4e15adeffa764fb14ae925ff,U Jindřišské věže,50.08451141262142,14.429447650909422,Czech Restaurant
878,50.0832390706676,14.432299961382265,19,8,54205d8d498e0790437b1c37,Deli Viet,50.08168620377166,14.430237693503392,Vietnamese Restaurant
879,50.0832390706676,14.432299961382265,19,9,5d7a8df484f21d00089ab9d3,AlDimashqi restaurant,50.082879,14.429399,Mediterranean Restaurant
880,50.0832390706676,14.432299961382265,19,10,4eb3d26bf790d87d01ff9e0b,Casablanca Mediterranean Restaurant,50.08227757068747,14.431148629008995,Mediterranean Restaurant
881,50.0832390706676,14.432299961382265,19,11,5107cf9ee4b0350baf86d30e,Barakat - Lebanese Restaurant,50.082259,14.43137,Middle Eastern Restaurant
882,50.0832390706676,14.432299961382265,19,12,52fe0c90498e5adc8f97cc31,Buono!,50.085275556358894,14.431070387363434,Italian Restaurant
883,50.0832390706676,14.432299961382265,19,13,4fa28c32e4b072b6859a4126,Cafe Gross,50.08192178650779,14.429836214139705,Middle Eastern Restaurant
884,50.0832390706676,14.432299961382265,19,14,53fb3838498ee71605b6a5a0,pho bo,50.08195274296658,14.430805319717953,Vietnamese Restaurant
885,50.0832390706676,14.432299961382265,19,15,52a9a84d498ecdac9f6fa26d,Restaurace Kometa,50.085267320709235,14.431842583082714,Eastern European Restaurant
886,50.0832390706676,14.432299961382265,19,16,4e82219f77c8c566cef483e4,Pizza fast food Halal,50.08230788067217,14.431277609683496,Indian Restaurant
887,50.0832390706676,14.432299961382265,19,17,4d652b777f84f04d6afbfdb4,Sushi Upgrade,50.083421,14.432313,Sushi Restaurant
888,50.0832390706676,14.432299961382265,19,18,5718942d498e94764695a973,Deli Trap Restaurant,50.08163,14.430031,Vietnamese Restaurant
889,50.08776092933239,14.439300038617732,5,0,5d2f81c0c46dcb0008ca8a30,Nebu,50.088987,14.437067,Indian Restaurant
890,50.08776092933239,14.439300038617732,5,1,5f089c50af438c5a652c05a2,Alebrijes,50.089032,14.43734,Mexican Restaurant
891,50.08776092933239,14.439300038617732,5,2,5eefac79579b5100083339b1,Hanzu,50.088981,14.4373,Asian Restaurant
892,50.08776092933239,14.439300038617732,5,3,5ead8fa13c961a00084b25a2,Flying Pot,50.08857,14.437116,Italian Restaurant
893,50.08776092933239,14.439300038617732,5,4,5b1e5fc3d48ec1002c4c1f01,Yazu,50.088872,14.437111,Asian Restaurant
894,50.0832390706676,14.439300038617732,2,0,4bbdb162f57ba5932650aeb9,"Pizza VŠEm, Zdravá výživa",50.08301575537256,14.440255197514851,Pizza Place
895,50.0832390706676,14.439300038617732,2,1,5e507295947ea9000802f276,Umbrella,50.083558550922184,14.441777006285415,Pizza Place
896,50.085499999999996,14.4506,31,0,55f16010498e651eebe98296,Bibimbap Korea,50.08425092468032,14.45261655273498,Korean Restaurant
897,50.085499999999996,14.4506,31,1,4e8c7bb45c5c2a8ac9b82494,Vende Maria,50.08427924597395,14.451061040251195,Pizza Place
898,50.085499999999996,14.4506,31,2,4bdc3ed9fed22d7f9e9857c9,Harmonie,50.08468202318413,14.447556036702405,Chinese Restaurant
899,50.085499999999996,14.4506,31,3,5b6b2af5e96d0c002c5b8f51,SOU100 Žižkov,50.085343,14.450021,Czech Restaurant
900,50.085499999999996,14.4506,31,4,596fe1b26fa81f7095d78bd5,Burrito Loco,50.08402815848231,14.45323430666763,Burrito Place
901,50.085499999999996,14.4506,31,5,5cbf30644a7aae00395d3d54,La Casa Trattoria Žižkov,50.086070665963696,14.448217749595642,Italian Restaurant
902,50.085499999999996,14.4506,31,6,546c8108498e207ac480b37f,Phở Việt,50.087347717571674,14.452580376644208,Vietnamese Restaurant
903,50.085499999999996,14.4506,31,7,5f32d57cb97cd61290844420,Little Asia Bistro,50.085205,14.450493,Asian Restaurant
904,50.085499999999996,14.4506,31,8,57fe5676498e08c9fc412e7a,Sushi Sushi,50.08454908402982,14.449503172350408,Sushi Restaurant
905,50.085499999999996,14.4506,31,9,5ee7bf39a43b030008bc7ab6,Mexico Lindo,50.083982,14.453049,Mexican Restaurant
906,50.085499999999996,14.4506,31,10,527f6d4511d24f3410c842de,Döner Kebab Žižkov,50.084534,14.450398,Turkish Restaurant
907,50.085499999999996,14.4506,31,11,5ef07832ab537200080109ea,Tiger 86,50.084572,14.45073,Asian Restaurant
908,50.085499999999996,14.4506,31,12,4dd4f387d22d8e00fcd496b0,Vegan City,50.08701534509986,14.450323807709012,Vegetarian / Vegan Restaurant
909,50.085499999999996,14.4506,31,13,4b7840c1f964a520cabf2ee3,Nebeská vůně,50.08416562120101,14.452457920510996,Chinese Restaurant
910,50.085499999999996,14.4506,31,14,4fd1d141e4b0f62cda340ab8,Krishna,50.0846393250625,14.45263518267504,Indian Restaurant
911,50.085499999999996,14.4506,31,15,5877e8bc7ff1e421e3c5d842,EatWell,50.086175,14.448144,Italian Restaurant
912,50.085499999999996,14.4506,31,16,4ddceefe1838306b82114107,"Restaurace A Bistro ""Sen""",50.08464318342343,14.449414513658624,Chinese Restaurant
913,50.085499999999996,14.4506,31,17,56e80d88498e1a007ad7f68f,Punjabi Tadka,50.08595457298722,14.452829940568042,Indian Restaurant
914,50.085499999999996,14.4506,31,18,54c39dcb498e259a3c1f8ec4,U Kroužků,50.084577760937364,14.450839252781698,Czech Restaurant
915,50.085499999999996,14.4506,31,19,5310cf25498e4aebc11c4f71,Los Banditos,50.084665256008684,14.45080125848776,Mexican Restaurant
916,50.085499999999996,14.4506,31,20,545f674b498e61eb8d7403f4,Nam Phuong,50.087336,14.452625,Vietnamese Restaurant
917,50.085499999999996,14.4506,31,21,5514021c498ed5158c9a8724,Restaurace U Sedláka,50.086376641916594,14.448314100162847,Czech Restaurant
918,50.085499999999996,14.4506,31,22,5d20779379ad5e0023fee0e4,Bistrot Valentino,50.084435686002024,14.449027776718141,Italian Restaurant
919,50.085499999999996,14.4506,31,23,506b4a6ee4b0533636172b06,Osteria Algiro,50.08606710476994,14.452001340653974,Italian Restaurant
920,50.085499999999996,14.4506,31,24,56b385bd498e573577a97298,Thien Long 1,50.084279824992265,14.45164413528867,Vietnamese Restaurant
921,50.085499999999996,14.4506,31,25,5b82895db6eedb002ce6995f,La SaiSon,50.084774,14.450788,Vietnamese Restaurant
922,50.085499999999996,14.4506,31,26,5b86c22ec8b2fb00397413c3,Kiri,50.086373,14.448496,Cambodian Restaurant
923,50.085499999999996,14.4506,31,27,4ecb877e0aaf5823e8959425,Sal am Namaste,50.08691801114087,14.449664107786685,Indian Restaurant
924,50.085499999999996,14.4506,31,28,4fb227c9e4b0e2be9a371917,Ha Noi,50.08455923841643,14.449465901527761,Vietnamese Restaurant
925,50.085499999999996,14.4506,31,29,580ca71b38fa3e233fe0acba,Arm Tastyfood,50.086807,14.448717,Caucasian Restaurant
926,50.085499999999996,14.4506,31,30,4fc4b061e4b005f3f3f80d80,Cinska Restaurace Seifertova,50.086094579105975,14.450150624064175,Chinese Restaurant
927,50.08776092933239,14.447099961382266,14,0,5055c5f0e4b0c6b6867a9f16,Indian by Nature,50.08931401822865,14.445000014661261,Indian Restaurant
928,50.08776092933239,14.447099961382266,14,1,5467a307498e655a9216ddc2,Barfud,50.087111086408136,14.444296425158157,American Restaurant
929,50.08776092933239,14.447099961382266,14,2,5cbf30644a7aae00395d3d54,La Casa Trattoria Žižkov,50.086070665963696,14.448217749595642,Italian Restaurant
930,50.08776092933239,14.447099961382266,14,3,4bf6cd3dbb5176b00c125bb2,Spice India,50.08681473873507,14.4465773677905,Indian Restaurant
931,50.08776092933239,14.447099961382266,14,4,57dfcaad498ed681d7248bfa,Pho Lam Ha,50.086376,14.446324,Vietnamese Restaurant
932,50.08776092933239,14.447099961382266,14,5,4dd4f387d22d8e00fcd496b0,Vegan City,50.08701534509986,14.450323807709012,Vegetarian / Vegan Restaurant
933,50.08776092933239,14.447099961382266,14,6,5877e8bc7ff1e421e3c5d842,EatWell,50.086175,14.448144,Italian Restaurant
934,50.08776092933239,14.447099961382266,14,7,523f37d111d25bd2a8ab5ec0,Spiceindia,50.08678,14.446555,Indian Restaurant
935,50.08776092933239,14.447099961382266,14,8,5514021c498ed5158c9a8724,Restaurace U Sedláka,50.086376641916594,14.448314100162847,Czech Restaurant
936,50.08776092933239,14.447099961382266,14,9,50b22e97e4b02b50160c78c0,Salaam namaste,50.08696365356445,14.44684600830078,Indian Restaurant
937,50.08776092933239,14.447099961382266,14,10,5b86c22ec8b2fb00397413c3,Kiri,50.086373,14.448496,Cambodian Restaurant
938,50.08776092933239,14.447099961382266,14,11,4ecb877e0aaf5823e8959425,Sal am Namaste,50.08691801114087,14.449664107786685,Indian Restaurant
939,50.08776092933239,14.447099961382266,14,12,580ca71b38fa3e233fe0acba,Arm Tastyfood,50.086807,14.448717,Caucasian Restaurant
940,50.08776092933239,14.447099961382266,14,13,5c10f8d0c53093002cf5d1df,Green Tea,50.086346,14.446255,Asian Restaurant
941,50.0832390706676,14.447099961382266,14,0,5c35ef27a0215b002c19469e,Porke,50.08242544472934,14.450315237045286,Modern European Restaurant
942,50.0832390706676,14.447099961382266,14,1,4ba3cf38f964a520ef6138e3,Taverna Olympos,50.081983050483196,14.44673792572695,Greek Restaurant
943,50.0832390706676,14.447099961382266,14,2,5f4428be354c107b17ba07c4,Bonaccia,50.0822606,14.4451933,Italian Restaurant
944,50.0832390706676,14.447099961382266,14,3,4b4f5439f964a520830127e3,U Houdků,50.08240251557794,14.445818054207871,Pub
945,50.0832390706676,14.447099961382266,14,4,4bdc3ed9fed22d7f9e9857c9,Harmonie,50.08468202318413,14.447556036702405,Chinese Restaurant
946,50.0832390706676,14.447099961382266,14,5,57fe5676498e08c9fc412e7a,Sushi Sushi,50.08454908402982,14.449503172350408,Sushi Restaurant
947,50.0832390706676,14.447099961382266,14,6,5b89172ef62e0900392d1e3c,Hanoi Wok,50.082336,14.446131,Vietnamese Restaurant
948,50.0832390706676,14.447099961382266,14,7,52825394498e13714b6ab545,Döner Kebab,50.08372245769174,14.44491511483891,Turkish Restaurant
949,50.0832390706676,14.447099961382266,14,8,4ddceefe1838306b82114107,"Restaurace A Bistro ""Sen""",50.08464318342343,14.449414513658624,Chinese Restaurant
950,50.0832390706676,14.447099961382266,14,9,521e0193498ee194ca92ae30,Terran Supply Depot,50.08212661743164,14.445096015930176,Eastern European Restaurant
951,50.0832390706676,14.447099961382266,14,10,5d20779379ad5e0023fee0e4,Bistrot Valentino,50.084435686002024,14.449027776718141,Italian Restaurant
952,50.0832390706676,14.447099961382266,14,11,54f9da3b498ea35fdd214ecd,Re Di Roma,50.08234008798512,14.445976011495889,Italian Restaurant
953,50.0832390706676,14.447099961382266,14,12,53454303498eb4d4634d445a,borivojova 97,50.08224105834961,14.44580078125,Italian Restaurant
954,50.0832390706676,14.447099961382266,14,13,4fb227c9e4b0e2be9a371917,Ha Noi,50.08455923841643,14.449465901527761,Vietnamese Restaurant
955,50.08776092933239,14.454100038617733,24,0,596a0ffb7cc90f68a5a2e8a5,Nepálská a indická restaurace Lumbini,50.087882417791704,14.456667639087149,Indian Restaurant
956,50.08776092933239,14.454100038617733,24,1,4afda782f964a5208a2922e3,Mon Ami,50.08659752796078,14.455025188646172,Mediterranean Restaurant
957,50.08776092933239,14.454100038617733,24,2,546c8108498e207ac480b37f,Phở Việt,50.087347717571674,14.452580376644208,Vietnamese Restaurant
958,50.08776092933239,14.454100038617733,24,3,5d20c564d4545e002305318e,Taiko,50.087456,14.452398,Ramen Restaurant
959,50.08776092933239,14.454100038617733,24,4,5f1c25e5fd05a1600ab3a780,Philly & Co’s,50.0877678,14.4528692,American Restaurant
960,50.08776092933239,14.454100038617733,24,5,51a1f0d0498e1300ee8fcc08,Čínské Bistro,50.087747229487874,14.45655043204923,Chinese Restaurant
961,50.08776092933239,14.454100038617733,24,6,4ffc16eae4b046a814a0fae0,Čínská Delikates Restaurace,50.08646463722795,14.455375163474196,Chinese Restaurant
962,50.08776092933239,14.454100038617733,24,7,53e27b65498ec6568c1a1f8c,Fresh Mex Restaurant & Cafe Roka,50.087372449186695,14.45367729275693,Mexican Restaurant
963,50.08776092933239,14.454100038617733,24,8,571137a0498ec101063c52f5,Kompot,50.08772116062821,14.452975370243605,Russian Restaurant
964,50.08776092933239,14.454100038617733,24,9,4ef1c3870e015e413a3872a1,Pivnice v Husitske,50.087375089272946,14.452577441282898,Mediterranean Restaurant
965,50.08776092933239,14.454100038617733,24,10,4f61d7dfe4b04b82c8f121f8,"Uzbecke Cafe-pekarstvi ""Jasmin""",50.08739872362439,14.454410706004847,Asian Restaurant
966,50.08776092933239,14.454100038617733,24,11,56e80d88498e1a007ad7f68f,Punjabi Tadka,50.08595457298722,14.452829940568042,Indian Restaurant
967,50.08776092933239,14.454100038617733,24,12,4e6dc2bc813005b910ee860e,Bistro Rokycanova,50.08643207506017,14.455306828022003,Chinese Restaurant
968,50.08776092933239,14.454100038617733,24,13,58ebcc583f5a5c197d7674ac,Restaurace Hanoi,50.087442,14.45418,Asian Restaurant
969,50.08776092933239,14.454100038617733,24,14,4b8baa91f964a52030a632e3,Zlatý slon,50.087369879987314,14.454046526727037,Chinese Restaurant
970,50.08776092933239,14.454100038617733,24,15,4df4a9d81f6e818dae04d2c5,Jia Le,50.08770026502922,14.45659758809043,Chinese Restaurant
971,50.08776092933239,14.454100038617733,24,16,545f674b498e61eb8d7403f4,Nam Phuong,50.087336,14.452625,Vietnamese Restaurant
972,50.08776092933239,14.454100038617733,24,17,4f9d798ce4b020e61080fd5d,Vietnamske bistro Billa,50.08774000901281,14.456720352172852,Vietnamese Restaurant
973,50.08776092933239,14.454100038617733,24,18,506b4a6ee4b0533636172b06,Osteria Algiro,50.08606710476994,14.452001340653974,Italian Restaurant
974,50.08776092933239,14.454100038617733,24,19,56d2e0ebcd10b9cf60e8e262,Zlatý Kůň,50.08747,14.453979,Asian Restaurant
975,50.08776092933239,14.454100038617733,24,20,4f61d776e4b06b1a17f3008b,Jamin,50.08775329589844,14.455883026123047,Asian Restaurant
976,50.08776092933239,14.454100038617733,24,21,4eede7567ee5f4538809d223,Zlatý drak,50.087644684049714,14.45720839234234,Vietnamese Restaurant
977,50.08776092933239,14.454100038617733,24,22,5221d7f311d219b35bbc3c0f,Bao Zi Wang,50.08637884168855,14.455498318154987,Asian Restaurant
978,50.08776092933239,14.454100038617733,24,23,5d8e56a772233200072b02f0,Restaurace Đa Lộc,50.08743627434865,14.454225838853743,Asian Restaurant
979,50.0832390706676,14.454100038617733,29,0,55f16010498e651eebe98296,Bibimbap Korea,50.08425092468032,14.45261655273498,Korean Restaurant
980,50.0832390706676,14.454100038617733,29,1,4e8c7bb45c5c2a8ac9b82494,Vende Maria,50.08427924597395,14.451061040251195,Pizza Place
981,50.0832390706676,14.454100038617733,29,2,596fe1b26fa81f7095d78bd5,Burrito Loco,50.08402815848231,14.45323430666763,Burrito Place
982,50.0832390706676,14.454100038617733,29,3,58b9bd8291936a61c9e4858b,U Dudáka,50.084139313021964,14.455157965421677,Czech Restaurant
983,50.0832390706676,14.454100038617733,29,4,5b3cf84ad41bb70039274a54,Signor bistro,50.083678,14.454577,Bistro
984,50.0832390706676,14.454100038617733,29,5,5ee7bf39a43b030008bc7ab6,Mexico Lindo,50.083982,14.453049,Mexican Restaurant
985,50.0832390706676,14.454100038617733,29,6,525ac4b7498e02747b78db76,Istanbul Kebab,50.083768532127856,14.453760961301015,Turkish Restaurant
986,50.0832390706676,14.454100038617733,29,7,4dd640ee8877f1150fcb4ddf,Pizzerie Nominanza,50.082726327412296,14.457503650528327,Italian Restaurant
987,50.0832390706676,14.454100038617733,29,8,4bbf5f0cf353d13a9a7c7e10,Osudová přitažlivost,50.08356534320793,14.452976260676651,Czech Restaurant
988,50.0832390706676,14.454100038617733,29,9,5f081d81a253554541f46e00,Pocha Bistro,50.083686,14.453966,Korean Restaurant
989,50.0832390706676,14.454100038617733,29,10,4b7840c1f964a520cabf2ee3,Nebeská vůně,50.08416562120101,14.452457920510996,Chinese Restaurant
990,50.0832390706676,14.454100038617733,29,11,5988a55f0fe7a048f14e9ed8,Sara Kebab,50.08384145798579,14.453866437906983,Doner Restaurant
991,50.0832390706676,14.454100038617733,29,12,532c25b1498eaace579a9a09,Phở Vietnam,50.08413368264862,14.453694195334315,Vietnamese Restaurant
992,50.0832390706676,14.454100038617733,29,13,599b04e606fb607c8e1bf256,Anmy's,50.08493,14.454836,Vietnamese Restaurant
993,50.0832390706676,14.454100038617733,29,14,4fba3258e4b078220aa637da,Phở Bii,50.08413834166979,14.45362696848258,Vietnamese Restaurant
994,50.0832390706676,14.454100038617733,29,15,5335c88c498e935381e803e1,Cesky Raj,50.0831442356814,14.453289065915234,Czech Restaurant
995,50.0832390706676,14.454100038617733,29,16,4fd1d141e4b0f62cda340ab8,Krishna,50.0846393250625,14.45263518267504,Indian Restaurant
996,50.0832390706676,14.454100038617733,29,17,586bf8c02c55ec0737049cdb,La tana del lupo,50.084253,14.453879,Italian Restaurant
997,50.0832390706676,14.454100038617733,29,18,52a23f81498e1a2cb45067ee,4mori,50.085078699247426,14.45456476562645,Italian Restaurant
998,50.0832390706676,14.454100038617733,29,19,54e78e69498ed4896a57b23b,Pizzerie restaurant Dobrá karma,50.085133349110826,14.454572774780154,Italian Restaurant
999,50.0832390706676,14.454100038617733,29,20,5c2e02c4a35dce002cc6a0cd,Las Margaritas,50.081287,14.453932,Mexican Restaurant
1000,50.0832390706676,14.454100038617733,29,21,4ed765da82311e04d2314a4a,Salaam Namaste,50.08516273164252,14.455008258437033,Indian Restaurant
1001,50.0832390706676,14.454100038617733,29,22,523f386911d2740f439f81c6,Restaurace U sýkorky,50.0827867168191,14.453529209031815,Eastern European Restaurant
1002,50.0832390706676,14.454100038617733,29,23,56b385bd498e573577a97298,Thien Long 1,50.084279824992265,14.45164413528867,Vietnamese Restaurant
1003,50.0832390706676,14.454100038617733,29,24,4b841247f964a520de1e31e3,Pakistani restaurant Mailsi,50.08362552637546,14.452964154326994,Indian Restaurant
1004,50.0832390706676,14.454100038617733,29,25,4ee3430ae5faffd7307a7768,Balkan Grill,50.08521646099375,14.454851978426374,Eastern European Restaurant
1005,50.0832390706676,14.454100038617733,29,26,4b86531df964a5200a8631e3,Seleterie,50.08248481,14.45344275,German Restaurant
1006,50.0832390706676,14.454100038617733,29,27,5249a37311d2f2655e10b66c,"Zlato, co si dáš?",50.08449861419556,14.454787126708622,Italian Restaurant
1007,50.0832390706676,14.454100038617733,29,28,5d03f05f47f8760039231317,Osteria Romana,50.08439,14.454065,Italian Restaurant
1008,50.095499999999994,14.4506,17,0,5c1a57f8c0c08400258cd415,River Garden Grill,50.095985,14.450197,Steakhouse
1009,50.095499999999994,14.4506,17,1,59fc4affa3061944917a4907,banh—mi—ba,50.093407,14.451572,Vietnamese Restaurant
1010,50.095499999999994,14.4506,17,2,5b55cc2e4420d8002c6ba45e,Viêt Phô’,50.09357978935284,14.451867897623833,Vietnamese Restaurant
1011,50.095499999999994,14.4506,17,3,5bec1e45492822154325f799,Sangam,50.093715477436916,14.448692835290537,Indian Restaurant
1012,50.095499999999994,14.4506,17,4,5aa6cdf5db2aeb11003a101d,Knajpička,50.09420221467381,14.452155073150978,Czech Restaurant
1013,50.095499999999994,14.4506,17,5,4b45e249f964a520a81126e3,Ding Feng,50.09387985778501,14.450462494974422,Chinese Restaurant
1014,50.095499999999994,14.4506,17,6,4e5390d4fa766dacede62f58,Pizza & Gyros – Apetit Quick,50.09376591953278,14.449621451840812,Pizza Place
1015,50.095499999999994,14.4506,17,7,5a26782ae1f0aa087cfb6f2c,Burrito Loco,50.09386755798638,14.450204375202615,Burrito Place
1016,50.095499999999994,14.4506,17,8,5d4169eea6dd5600086b6ad4,Uno Due Tre,50.09478,14.450425,Italian Restaurant
1017,50.095499999999994,14.4506,17,9,5e53ac8c94ef5f0008b1dccf,Fuku Wok & Sushi,50.095165,14.451802,Asian Restaurant
1018,50.095499999999994,14.4506,17,10,5149f608e4b0994d79ddf53d,gaya,50.09418829559322,14.452266942158479,Korean Restaurant
1019,50.095499999999994,14.4506,17,11,5811d22538fa2a349f526ea0,Sushi Guru,50.094269,14.448998,Sushi Restaurant
1020,50.095499999999994,14.4506,17,12,58e371bd84c4ed36c54cf2d9,Hotel Royal Prague RESTAURANT,50.094637,14.451297,Italian Restaurant
1021,50.095499999999994,14.4506,17,13,5759557b498e96a542eb4f77,Las Adelitas Food Truck,50.094902,14.449652,Mexican Restaurant
1022,50.095499999999994,14.4506,17,14,58c681374ca49b2c8e7b893d,Pizza Robinson,50.094215,14.452604,Italian Restaurant
1023,50.095499999999994,14.4506,17,15,4bea853d61aca59382cb8300,Čínská restaurace,50.094036,14.450803,Chinese Restaurant
1024,50.095499999999994,14.4506,17,16,5f5f3ada0aea4b2a864c52d8,México Bonito,50.093911,14.451545,Taco Place
1025,50.09776092933239,14.447099230957482,8,0,56a0bd85498e9983bef7c1ce,Tràng An,50.09936375727403,14.445892019990046,Vietnamese Restaurant
1026,50.09776092933239,14.447099230957482,8,1,4af3fe7cf964a520c7ef21e3,SaSaZu,50.09927453181068,14.445130289609894,Asian Restaurant
1027,50.09776092933239,14.447099230957482,8,2,57b4a3cc498efbe189c57ff9,Hà Nôi Quán,50.09921387818471,14.446238279342651,Vietnamese Restaurant
1028,50.09776092933239,14.447099230957482,8,3,5107b8e8e4b0bf4055b56ca2,ŇamŇam,50.0997833922774,14.446235881150681,Vietnamese Restaurant
1029,50.09776092933239,14.447099230957482,8,4,505301cfe4b017bb253a15af,Bistro Palma Huong Tien,50.09925733490069,14.446192749737484,Asian Restaurant
1030,50.09776092933239,14.447099230957482,8,5,544b91c1498e7d4b1bb94d79,Vietnamský bufet,50.099892,14.4474,Asian Restaurant
1031,50.09776092933239,14.447099230957482,8,6,566c0bcf38fa094e8f3ff4b3,Asijské Bistro,50.09943622495943,14.44599227656315,Asian Restaurant
1032,50.09776092933239,14.447099230957482,8,7,55a92fdf498eac980cbab8c0,BIG BEN FOODS,50.0989783639771,14.446173869795382,Vietnamese Restaurant
1033,50.0932390706676,14.447099230957482,32,0,538dc3de498eecce5c700599,Lokál Hamburk,50.0931003778568,14.446542358240835,Pub
1034,50.0932390706676,14.447099230957482,32,1,522118e77e48d46b822af305,Cafe Frida,50.09209525639067,14.446710783323658,Café
1035,50.0932390706676,14.447099230957482,32,2,5c30abfe75dcb7002c9bea6d,Khomfi,50.09130418362188,14.44551503754187,Asian Restaurant
1036,50.0932390706676,14.447099230957482,32,3,5d00cc92121384002c8c183d,Ngô,50.091976,14.449505,Vietnamese Restaurant
1037,50.0932390706676,14.447099230957482,32,4,57399edb498e7fdb547992d7,BEFRIENDLY,50.09342222343372,14.448131918907166,Czech Restaurant
1038,50.0932390706676,14.447099230957482,32,5,5bec1e45492822154325f799,Sangam,50.093715477436916,14.448692835290537,Indian Restaurant
1039,50.0932390706676,14.447099230957482,32,6,4b68081df964a5209b642be3,Cihelna La Familia,50.091893,14.448897,Italian Restaurant
1040,50.0932390706676,14.447099230957482,32,7,4e5390d4fa766dacede62f58,Pizza & Gyros – Apetit Quick,50.09376591953278,14.449621451840812,Pizza Place
1041,50.0932390706676,14.447099230957482,32,8,4e64a368d164ddd5e6b23593,Yi Yuan,50.09280250815182,14.445723218394097,Chinese Restaurant
1042,50.0932390706676,14.447099230957482,32,9,5379d575498e13bc91d86941,Olive,50.094114723707136,14.445063289777273,Cafeteria
1043,50.0932390706676,14.447099230957482,32,10,5a26782ae1f0aa087cfb6f2c,Burrito Loco,50.09386755798638,14.450204375202615,Burrito Place
1044,50.0932390706676,14.447099230957482,32,11,5d5524d68c55720008d85efb,Queen's kebab,50.092644,14.445225,Kebab Restaurant
1045,50.0932390706676,14.447099230957482,32,12,5f3a570b08e4eb6210e52c33,Golden Phở,50.0929972,14.4461667,Asian Restaurant
1046,50.0932390706676,14.447099230957482,32,13,561b8469498e1a672570d80f,Haikky,50.092517,14.444139,Chinese Restaurant
1047,50.0932390706676,14.447099230957482,32,14,5d55594146156b00083a91cd,Sake Restaurant,50.092625,14.44623,Thai Restaurant
1048,50.0932390706676,14.447099230957482,32,15,5a0c34c95ba0463db00a8ef6,Schnitzel řízek od babičky,50.092685,14.448479,Czech Restaurant
1049,50.0932390706676,14.447099230957482,32,16,52b2d666498e6a2d118c4b69,Long Fast Food,50.09292092118805,14.446194637080698,Sushi Restaurant
1050,50.0932390706676,14.447099230957482,32,17,5de7f8239ed09900080ab996,Sanduga,50.092011,14.448981,Modern European Restaurant
1051,50.0932390706676,14.447099230957482,32,18,5804a5dd38fa417f84d40564,Di Casa Ristorante,50.09209528877585,14.449310266745732,Italian Restaurant
1052,50.0932390706676,14.447099230957482,32,19,5811d22538fa2a349f526ea0,Sushi Guru,50.094269,14.448998,Sushi Restaurant
1053,50.0932390706676,14.447099230957482,32,20,5a0ae43e2347241a944de6cc,Minho,50.092712,14.446002,Café
1054,50.0932390706676,14.447099230957482,32,21,53d3d8ab498e28598a7cef48,Meze,50.09208350323582,14.449090921579439,Mediterranean Restaurant
1055,50.0932390706676,14.447099230957482,32,22,561e3610498e92f9e2535a13,Yu Čuan,50.092331016317644,14.444526610353906,Chinese Restaurant
1056,50.0932390706676,14.447099230957482,32,23,54479ebf498e623e3aabc35d,Sweetlife Cukrárna / Bistro,50.09253959333655,14.448378014048068,Indian Sweet Shop
1057,50.0932390706676,14.447099230957482,32,24,587a198ddebdf66d8d9ca47d,Zabijačka,50.093028,14.446948,Czech Restaurant
1058,50.0932390706676,14.447099230957482,32,25,5bbf377d3af988002c49461d,Thu Thuy,50.09201,14.44946,Vietnamese Restaurant
1059,50.0932390706676,14.447099230957482,32,26,58ee06bb88cfcc09c2c5c6a5,čínskej bufetík,50.092241,14.444345,Japanese Restaurant
1060,50.0932390706676,14.447099230957482,32,27,5d9c8c627e1a5c00085fc035,Quán Bún Chã,50.093044,14.450456,Vietnamese Restaurant
1061,50.0932390706676,14.447099230957482,32,28,566848d5498e3f44c585fdd6,Momos bistro,50.091256,14.447034,Tibetan Restaurant
1062,50.0932390706676,14.447099230957482,32,29,52b02f81498e42beb9f8ad24,Karlínský anděl,50.09252942912147,14.448311522575471,Eastern European Restaurant
1063,50.0932390706676,14.447099230957482,32,30,56bb38a5498ef6f5b62109c0,Haikky,50.092502,14.4443,Noodle House
1064,50.0932390706676,14.447099230957482,32,31,5f8dbaa65624c405a201705f,Pan Panzerotto,50.0915375,14.4452867,Italian Restaurant
1065,50.0932390706676,14.454100769042517,23,0,58878fc252e32d09b5b32b28,Šalanda,50.092272585271175,14.45256424773517,Czech Restaurant
1066,50.0932390706676,14.454100769042517,23,1,4b7bd98ff964a5208c702fe3,U Zábranských,50.09299503139392,14.45329710158773,Czech Restaurant
1067,50.0932390706676,14.454100769042517,23,2,5d03974b356b49002cb9c863,Street Pho,50.093909,14.453556,Vietnamese Restaurant
1068,50.0932390706676,14.454100769042517,23,3,59fc4affa3061944917a4907,banh—mi—ba,50.093407,14.451572,Vietnamese Restaurant
1069,50.0932390706676,14.454100769042517,23,4,561cf976498e0c5c5160fe04,Podolka,50.09462514544125,14.455132393250096,Modern European Restaurant
1070,50.0932390706676,14.454100769042517,23,5,5b55cc2e4420d8002c6ba45e,Viêt Phô’,50.09357978935284,14.451867897623833,Vietnamese Restaurant
1071,50.0932390706676,14.454100769042517,23,6,4cfcd218feec6dcb5c6a4e36,Ji Xiang,50.093335276696244,14.45487517822085,Chinese Restaurant
1072,50.0932390706676,14.454100769042517,23,7,5aa6cdf5db2aeb11003a101d,Knajpička,50.09420221467381,14.452155073150978,Czech Restaurant
1073,50.0932390706676,14.454100769042517,23,8,5d36b685ee95980008d8aead,Ô-mai coffee and kitchen,50.094983,14.456254,Coffee Shop
1074,50.0932390706676,14.454100769042517,23,9,5909b0be898bdc1a41529789,Hanoi Pho,50.092775101990235,14.452987283232615,Vietnamese Restaurant
1075,50.0932390706676,14.454100769042517,23,10,4bbf7da9920eb713ff6b172c,Carllino,50.09325895525867,14.451958639195869,Pizza Place
1076,50.0932390706676,14.454100769042517,23,11,5e6a13fa4fc6e300088ecc30,Enjoy!,50.0944347,14.4537328,Vietnamese Restaurant
1077,50.0932390706676,14.454100769042517,23,12,579e14cb38fadf93f83de78a,Diego pivní bar,50.094765,14.455231,Beer Bar
1078,50.0932390706676,14.454100769042517,23,13,5b87c79a3abcaf002c67dcf2,Thai Father food truck,50.092652852490126,14.452050749044284,Food Truck
1079,50.0932390706676,14.454100769042517,23,14,5ae048bffc9e942a58f485e8,Ragù Locanda Italiana,50.09252891144636,14.451111537427588,Italian Restaurant
1080,50.0932390706676,14.454100769042517,23,15,5b03112b6adbf5003943bb42,Hong Kong Karlín,50.09132844323487,14.452944203319126,Asian Restaurant
1081,50.0932390706676,14.454100769042517,23,16,5149f608e4b0994d79ddf53d,gaya,50.09418829559322,14.452266942158479,Korean Restaurant
1082,50.0932390706676,14.454100769042517,23,17,52fb648a498ee822c44c4fc3,Vietnam bistro,50.09493586601235,14.45558401631374,Vietnamese Restaurant
1083,50.0932390706676,14.454100769042517,23,18,56507331498e5559fd9b7544,V&J sushi,50.09294,14.45415,Sushi Restaurant
1084,50.0932390706676,14.454100769042517,23,19,58c681374ca49b2c8e7b893d,Pizza Robinson,50.094215,14.452604,Italian Restaurant
1085,50.0932390706676,14.454100769042517,23,20,5d03770c16ef67002c0a09c7,Pho Street,50.093906,14.4534855,Vietnamese Restaurant
1086,50.0932390706676,14.454100769042517,23,21,5b7d57162aff310039ccd112,Thai Chefs,50.09301865030295,14.452156281912737,Food Truck
1087,50.0932390706676,14.454100769042517,23,22,5f5f3ada0aea4b2a864c52d8,México Bonito,50.093911,14.451545,Taco Place
