,Unnamed: 0,lat_centre,long_centre,num_venues,venue_iter,venue_id,venue_name,lat_venue,long_venue,category
2487,1069,50.0955,14.4062,30,23,4adcda9bf964a520be4c21e3,U Kavalíra - Tokyo,50.09949676573901,14.403409317253942,Korean Restaurant
460,130,50.07776092933239,14.417500691395738,35,31,4adcdaa1f964a520fc4d21e3,Gargoyle's Restaurant,50.078241,14.416914000000002,Eastern European Restaurant
298,298,50.088891393998594,14.422749936754926,13,12,4adcdaa2f964a520044e21e3,Barracuda Cafe,50.0887295,14.4232161,Mexican Restaurant
2712,1294,50.1055,14.4802,17,7,4adcdaa2f964a5200d4e21e3,Góvinda,50.105170524678364,14.473721004143233,Vegetarian / Vegan Restaurant
673,343,50.07776092933239,14.439299308604259,31,20,4adcdaa2f964a5200e4e21e3,Fondue,50.07707,14.441742000000001,French Restaurant
2624,1206,50.1055,14.3914,19,1,4adcdaa2f964a5201a4e21e3,Grosseto,50.1031,14.395516,Italian Restaurant
2134,716,50.0755,14.4654,23,19,4adcdaa2f964a520334e21e3,Crazy Daisy,50.077882,14.463604,Indian Restaurant
1617,199,50.0455,14.4062,4,2,4adcdaa2f964a520394e21e3,Folklore Garden,50.042308396938104,14.403577638556941,Czech Restaurant
2661,1243,50.1055,14.4358,11,9,4adcdaa2f964a5203d4e21e3,Essensia,50.101780363066176,14.436714006433336,Indian Restaurant
861,531,50.08776092933239,14.402699961382265,39,33,4adcdaa3f964a5204d4e21e3,Baráčnická rychta,50.08792915072068,14.400163513424607,Czech Restaurant
422,92,50.0755,14.421,21,14,4adcdaa3f964a5204e4e21e3,Perle de Prague (La),50.07575327471632,14.419906367082527,French Restaurant
1770,352,50.0655,14.3914,2,0,4af1edfbf964a5207ae421e3,Na Václavce 32,50.065602456331796,14.394035488818776,Czech Restaurant
1356,1026,50.09776092933239,14.447099230957482,8,1,4af3fe7cf964a520c7ef21e3,SaSaZu,50.099274531810686,14.445130289609894,Asian Restaurant
2792,1374,50.1155,14.5986,6,0,4af530e6f964a5208ef821e3,La Trattoria Turbanti,50.11250927592227,14.59636848166136,Italian Restaurant
2496,1078,50.0955,14.421,27,2,4af531f8f964a5208ff821e3,La Casa Blů,50.091103000000004,14.422014,Mexican Restaurant
698,368,50.0732390706676,14.439299308604259,37,14,4af59a63f964a52035fa21e3,Giardino,50.07206279848593,14.4373710251211,Mediterranean Restaurant
1701,283,50.0555,14.4062,2,0,4af6dc1af964a5209b0322e3,Na Kopci,50.056743322854395,14.402533342141702,French Restaurant
2859,1441,50.13549999999999,14.5098,5,0,4af7e8c1f964a520820a22e3,Ristorante IL Giardino,50.13663877770757,14.51423961246053,Italian Restaurant
382,52,50.0732390706676,14.402700691395738,32,23,4af80b56f964a520c90a22e3,pK Café Restaurant,50.071691825376604,14.400453012116538,French Restaurant
2251,833,50.0855,14.4062,50,43,4af87822f964a5208b0d22e3,Stará Praha,50.081206547299935,14.405703248337726,Czech Restaurant
1169,839,50.08776092933239,14.432299961382265,35,4,4afae1f6f964a520501922e3,Makakiko | Running Sushi,50.089032746946174,14.429762378678296,Sushi Restaurant
2706,1288,50.1055,14.4802,17,1,4afeb523f964a520013022e3,Curry House,50.10333909730317,14.474617364421995,Indian Restaurant
1203,873,50.0832390706676,14.432299961382265,19,3,4b012ff7f964a520d64122e3,Istanbul Kebab,50.08218104321055,14.430517852306366,Turkish Restaurant
2645,1227,50.1055,14.4062,8,3,4b02e540f964a520c44a22e3,U Pramene,50.10787799922806,14.402248408149573,Czech Restaurant
2708,1290,50.1055,14.4802,17,3,4b049011f964a520355522e3,La Palma,50.10573483508487,14.47628990470391,Italian Restaurant
1631,213,50.0455,14.4506,38,0,4b0671edf964a520e2eb22e3,Kolkovna Budějovická,50.04532067682813,14.449194073677065,Czech Restaurant
1895,477,50.0655,14.5098,3,1,4b07c09bf964a520c6ff22e3,Xin Le Yuan,50.0672692310788,14.507205808147885,Chinese Restaurant
777,447,50.07776092933239,14.454099308604262,21,9,4b0d45c6f964a5207a4523e3,Sonora,50.078084177318175,14.456832977289993,Mexican Restaurant
2182,764,50.0855,14.3766,12,0,4b0d7439f964a520a84823e3,Na Marjánce,50.08431655490058,14.374949319627335,Czech Restaurant
454,124,50.07776092933239,14.417500691395738,35,25,4b11762df964a5201a7d23e3,Zářivá perla,50.07799241850321,14.41807347447375,Chinese Restaurant
1111,781,50.0832390706676,14.424500038617733,50,3,4b1a6d09f964a52034ea23e3,Modrý zub,50.08308621960736,14.42705061501504,Thai Restaurant
1911,493,50.0755,14.3914,8,4,4b1aea98f964a5209df423e3,RestArt,50.07375860677122,14.394052149043329,Eastern European Restaurant
1200,870,50.0832390706676,14.432299961382265,19,0,4b1c26b3f964a520240324e3,Bredovský dvůr,50.08266618303743,14.43013661071873,Czech Restaurant
649,319,50.0732390706676,14.432300691395733,43,39,4b1d265cf964a520490c24e3,VegFood,50.072856,14.434539633333333,Asian Restaurant
2481,1063,50.0955,14.4062,30,17,4b1f644af964a520122624e3,Villa Richter,50.09249550365859,14.408183676985624,Modern European Restaurant
500,170,50.07776092933239,14.42449930860426,44,23,4b292dd6f964a520679a24e3,ROOM,50.07999990465436,14.4245900723528,Tapas Restaurant
2550,1132,50.0955,14.4358,32,29,4b2d27c1f964a520aacf24e3,Dong Sheng,50.09897782565325,14.432325644184935,Chinese Restaurant
938,608,50.0855,14.421,50,30,4b40f831f964a5207ebe25e3,Made in Japan,50.08432350235258,14.421316021052757,Sushi Restaurant
2017,599,50.0755,14.4358,50,2,4b447abcf964a5206af525e3,Žlutá pumpa,50.071872222262144,14.436238916387081,Mexican Restaurant
2127,709,50.0755,14.4654,23,12,4b44d8cef964a52000fe25e3,Sushi Point,50.07884535426754,14.46126937866211,Sushi Restaurant
2476,1058,50.0955,14.4062,30,12,4b4868a2f964a520e24c26e3,Una Bella Canzone,50.09877326840984,14.401861760468089,Italian Restaurant
2749,1331,50.1055,14.495,28,27,4b4c59cdf964a52057b126e3,Fu Le,50.107518489822084,14.490819818638506,Chinese Restaurant
2116,698,50.0755,14.4654,23,1,4b4cef7df964a520cac426e3,Havana Restaurant,50.07174208624915,14.467285670803752,Cuban Restaurant
2528,1110,50.0955,14.4358,32,7,4b4e2bb8f964a520efe326e3,Hanabi,50.09152251516003,14.433625126071837,Sushi Restaurant
593,263,50.07776092933239,14.432300691395733,31,14,4b5b375df964a520e2eb28e3,Ztráty a nálezy,50.07853651519954,14.435171164932846,Czech Restaurant
666,336,50.07776092933239,14.439299308604259,31,13,4b5b3eddf964a52003ee28e3,La Grotta,50.07766154908546,14.43787445379653,Italian Restaurant
2175,757,50.0855,14.3618,8,1,4b5c6d8df964a520682f29e3,Klášterní šenk,50.08401451993954,14.356615567735789,Czech Restaurant
2751,1333,50.1055,14.5394,2,0,4b605c57f964a520b5e129e3,Ying Bin Lou,50.10616402617737,14.537524790550853,Asian Restaurant
1420,2,49.9755,14.3914,10,0,4b6086a8f964a520a7eb29e3,Barabizna,49.978595379560254,14.394932097472443,Mexican Restaurant
1707,289,50.0555,14.4358,14,0,4b61aa80f964a520671c2ae3,Palatino,50.056958229677285,14.433071752414575,Italian Restaurant
850,520,50.08776092933239,14.402699961382265,39,22,4b695a63f964a520a89f2be3,Italska restaurace Morska panna,50.088389,14.404003,Italian Restaurant
387,57,50.0732390706676,14.402700691395738,32,28,4b6abc76f964a5202dde2be3,Gyros-gr,50.07237607622999,14.402556467651515,Greek Restaurant
2257,839,50.0855,14.4062,50,49,4b6ad99ef964a52065e32be3,Pizzerie Felicita,50.08206971213358,14.406633636532408,Italian Restaurant
2679,1261,50.1055,14.4506,38,16,4b6c0a35f964a520e1202ce3,Restaurace V Domově,50.10662860014218,14.45263482165809,Eastern European Restaurant
2178,760,50.0855,14.3618,8,4,4b6c62fff964a520d5352ce3,Tandoor,50.083393,14.363644,Indian Restaurant
467,137,50.0732390706676,14.417500691395738,13,3,4b6d750bf964a52086752ce3,Fresco Vento,50.073232712692786,14.414163461028322,Italian Restaurant
1837,419,50.0655,14.4358,27,17,4b6ea630f964a52043c52ce3,Futomi restaurant,50.065374922769486,14.433089816920226,Sushi Restaurant
1635,217,50.0455,14.4506,38,4,4b6ebdbdf964a52098c82ce3,Grosseto,50.04746649475104,14.455519477895196,Italian Restaurant
2480,1062,50.0955,14.4062,30,16,4b6f1167f964a520d4da2ce3,Fiesta,50.09770322883802,14.400989413261412,Mexican Restaurant
407,77,50.0732390706676,14.409699308604262,14,13,4b7151bbf964a520e9402de3,U Záboje,50.07271483333333,14.411368266666665,Middle Eastern Restaurant
431,101,50.07776092933239,14.417500691395738,35,2,4b7295dbf964a5207d7f2de3,Klub cestovatelů Karavanseráj,50.07850303943826,14.414227959726741,Middle Eastern Restaurant
1649,231,50.0455,14.4506,38,18,4b72f0fff964a52007912de3,Sushi Time,50.04426895811461,14.449132349131872,Sushi Restaurant
1821,403,50.0655,14.4358,27,1,4b73164bf964a520a19a2de3,Restaurace Zvonařka,50.06978706140964,14.435542322397337,Czech Restaurant
1651,233,50.0455,14.4506,38,20,4b7936fef964a52058ef2ee3,Punjabi food,50.04393967835572,14.448602117481752,Indian Restaurant
1516,98,50.0155,14.5098,2,0,4b7c36b0f964a520e2842fe3,Di Carlo,50.01835009747028,14.510339795020492,Italian Restaurant
1764,346,50.0655,14.3618,5,0,4b7e7eadf964a5207aef2fe3,U Tenisu,50.0671633570039,14.361714992286865,Modern European Restaurant
1542,124,50.0255,14.5246,1,0,4b7ec3c7f964a520befd2fe3,Restaurace Pražanka,50.027063640228654,14.525405168073387,Czech Restaurant
2779,1361,50.1155,14.421,1,0,4b83ba8af964a520700e31e3,Del Corso,50.116889957026636,14.42241418161282,Italian Restaurant
1333,1003,50.0832390706676,14.454100038617733,29,24,4b841247f964a520de1e31e3,Pakistani restaurant Mailsi,50.083625526375464,14.452964154326994,Indian Restaurant
1802,384,50.0655,14.421,26,8,4b841b51f964a520232131e3,U Tří bojovníků,50.069117058870326,14.417596438524663,Czech Restaurant
1335,1005,50.0832390706676,14.454100038617733,29,26,4b86531df964a5200a8631e3,Seleterie,50.08248481,14.45344275,German Restaurant
1790,372,50.0655,14.4062,22,18,4b86e43cf964a52037a431e3,Lotos zahrada,50.06946918287259,14.403258384073188,Chinese Restaurant
1179,849,50.08776092933239,14.432299961382265,35,14,4b87bcecf964a5207cc931e3,Istanbul Kebab,50.089027142426616,14.430394052669088,Turkish Restaurant
1299,969,50.08776092933239,14.454100038617733,24,14,4b8baa91f964a52030a632e3,Zlatý slon,50.087369879987314,14.454046526727035,Chinese Restaurant
1465,47,50.0055,14.4654,8,0,4b8e435cf964a5204a1d33e3,Đông Đô,50.00155413533742,14.467870390191724,Vietnamese Restaurant
2132,714,50.0755,14.4654,23,17,4b8f9cd3f964a520ee5933e3,Orange Moon,50.07837856996183,14.461144885220977,Thai Restaurant
768,438,50.07776092933239,14.454099308604262,21,0,4b90fffdf964a5206c9e33e3,Roma Uno,50.079582535384226,14.453698079795732,Italian Restaurant
1550,132,50.0355,14.3766,3,0,4b9157abf964a520b3b433e3,Plzeňský restaurant Kamera,50.035010433029996,14.376912254880061,Czech Restaurant
2713,1295,50.1055,14.4802,17,8,4b96c532f964a52078e334e3,Shun Li,50.10519406793316,14.474261999130249,Chinese Restaurant
2695,1277,50.1055,14.4506,38,32,4b98c8a9f964a5206f4f35e3,Cheng-guang,50.10332804761148,14.452636157118624,Chinese Restaurant
471,141,50.0732390706676,14.417500691395738,13,7,4b98e01ef964a520a35335e3,Jin Xing Ge,50.073953,14.415164,Chinese Restaurant
515,185,50.07776092933239,14.42449930860426,44,38,4b98e598f964a520ea5435e3,Le Xin,50.07786816160976,14.424860827518794,Asian Restaurant
1554,136,50.0355,14.4062,8,0,4b98e8d3f964a520b75535e3,Ristorante il Giardino,50.03482505211907,14.413001369012482,Italian Restaurant
1634,216,50.0455,14.4506,38,3,4b99404bf964a5208f6d35e3,Botanic,50.043930551500715,14.445940371718114,Mediterranean Restaurant
1175,845,50.08776092933239,14.432299961382265,35,10,4b994184f964a520036e35e3,Kolkovna Celnice,50.087943442353144,14.429648041956892,Czech Restaurant
2408,990,50.0855,14.4654,18,0,4b9a4577f964a520b6a835e3,U Kozla,50.08726723683241,14.469671584248346,Czech Restaurant
1744,326,50.0555,14.5246,6,0,4b9b8f22f964a5206f0f36e3,Hospůdka Karolína,50.05202097118558,14.528360515349867,Czech Restaurant
1877,459,50.0655,14.4654,11,6,4b9baa90f964a520461836e3,Punjabi food,50.067967794454994,14.468677894733693,Indian Restaurant
849,519,50.08776092933239,14.402699961382265,39,21,4b9ccf58f964a520b17c36e3,S’chuan,50.08733313123892,14.403765903053547,Chinese Restaurant
1826,408,50.0655,14.4358,27,6,4b9cde34f964a5209e7f36e3,Jiu Zhou,50.0656354924811,14.439600973696455,Asian Restaurant
1820,402,50.0655,14.4358,27,0,4ba36ad8f964a520673b38e3,Yam Yam,50.063102973544396,14.430184354768635,Thai Restaurant
1187,857,50.08776092933239,14.432299961382265,35,22,4ba3c76cf964a5205c5e38e3,La Primavera,50.08948969,14.432341000000001,Italian Restaurant
2517,1099,50.0955,14.421,27,23,4ba3da86f964a520bf6638e3,U Červeného kola,50.09165596395139,14.424370425961909,Czech Restaurant
1900,482,50.0655,14.642999999999999,1,0,4ba50665f964a5201fd238e3,Pizzeria No.110,50.062385,14.642755,Italian Restaurant
1567,149,50.0355,14.4358,1,0,4bab44f4f964a520c39c3ae3,Šenkýrna Na Ledárnách,50.03914572662313,14.435659934251316,Czech Restaurant
2471,1053,50.0955,14.4062,30,7,4baca3baf964a52014003be3,Mashhana Sushi House,50.09718,14.407507999999998,Sushi Restaurant
2642,1224,50.1055,14.4062,8,0,4bacf747f964a5200a1f3be3,Na Urale,50.10261389420258,14.40237485667795,Czech Restaurant
767,437,50.0732390706676,14.447100691395738,9,8,4baf3b53f964a52079f23be3,Li De,50.07195860598034,14.44732813981431,Chinese Restaurant
2818,1400,50.1255,14.4506,8,7,4baf5b39f964a520f5f93be3,Dong Hai,50.127068,14.456671,Chinese Restaurant
2549,1131,50.0955,14.4358,32,28,4bb09e21f964a520cd4f3ce3,Gyros Presto,50.098494329728574,14.431862133097866,Fast Food Restaurant
2724,1306,50.1055,14.495,28,2,4bb0f862f964a520e86e3ce3,Švejk restaurant U Brázdů,50.10670162115094,14.48865982800453,Czech Restaurant
2681,1263,50.1055,14.4506,38,18,4bb229d8f964a5201dbf3ce3,Fu Da,50.105689516217325,14.449617862701414,Chinese Restaurant
2542,1124,50.0955,14.4358,32,21,4bb39f5235f0c9b617a6bc83,I.ČLTK Club Restaurant,50.09576712111964,14.439869293306927,Italian Restaurant
1665,247,50.0455,14.4506,38,34,4bbc530e2d9ea593b976a0ce,Čínská restaurace Budějovická,50.04545502890476,14.450197219848633,Chinese Restaurant
2148,730,50.0755,14.5098,4,3,4bbc5ffbed7776b054893f51,Restaurace Autoklub,50.07623078921166,14.516536227965881,Czech Restaurant
1450,32,50.0055,14.4062,6,1,4bbdc1908ec3d13a305e1c28,Restaurace U Vltavy,50.004702799967134,14.404987814031653,Czech Restaurant
2145,727,50.0755,14.5098,4,0,4bc33f2b461576b06f547e32,Carosello,50.07733846630838,14.506228887860114,Mexican Restaurant
2431,1013,50.0855,14.5098,5,4,4bc374a6f8219c741e1eb610,Fu Le Yuan,50.08339103102541,14.506914357056225,Chinese Restaurant
1728,310,50.0555,14.4506,10,7,4bc59c836a3e9c74390af648,Čínské Bistro Bai Ke Jia,50.052281151016295,14.454872905020347,Chinese Restaurant
1699,281,50.0555,14.3618,2,1,4bc5a397ccbcef3be9b8e6d2,Nová Hospoda,50.05245641206858,14.360358367094864,Eastern European Restaurant
603,273,50.07776092933239,14.432300691395733,31,24,4bc619746c26b713d94cecf3,Himalaya Fast Food,50.07656188707207,14.431361819507586,Indian Restaurant
2830,1412,50.1255,14.4802,3,2,4bc6e7d10050b7133bb9b73b,Bei Dai He,50.12773534469689,14.476332338958173,Chinese Restaurant
2611,1193,50.0955,14.4802,5,4,4bc765188b7c9c749c5f36cf,U Študáka,50.092261604953855,14.48150632891041,Czech Restaurant
1513,95,50.0155,14.4802,3,1,4bc8a451ab62d13af6ad17d4,U Bezuchů,50.01355759674652,14.483839025292227,Czech Restaurant
2459,1041,50.0955,14.3914,6,1,4bc8c37692b376b09c24523a,Katsura,50.09985391114998,14.39011037349701,Japanese Restaurant
1681,263,50.0455,14.5542,5,3,4bcb30d73740b7138deb6165,Mexicka,50.04705229094026,14.560512125209256,Mexican Restaurant
864,534,50.08776092933239,14.402699961382265,39,36,4bcc76f1b6c49c749cba9391,Kingto,50.087735265520564,14.404010240606773,Chinese Restaurant
1689,271,50.0555,14.2878,10,5,4bcd7890511f9521f2a5b4c7,KING´S CHOICE SHISH KEBAPS,50.053584352118044,14.286818504333494,Middle Eastern Restaurant
1452,34,50.0055,14.4062,6,3,4bcd805c68f976b0d44f6483,Deco Restaurant,50.002718,14.405361,Mediterranean Restaurant
2138,720,50.0755,14.4802,1,0,4bcecf7ac564ef3b38c5eef0,Hui Bin Ge,50.078095259873656,14.47599133388355,Chinese Restaurant
1751,333,50.0655,14.302599999999998,10,1,4bcf423f77b29c7413bc8882,Jia Jia Le,50.069305943816595,14.30429946499724,Chinese Restaurant
2710,1292,50.1055,14.4802,17,5,4bd0453841b9ef3bfab7f9e5,Yi Xiang Ge,50.105747799999996,14.485709728571429,Chinese Restaurant
1846,428,50.0655,14.4358,27,26,4bd05794a8b3a59312a5635f,Nine Star Ki Studio,50.06827375917962,14.435515356371038,Chinese Restaurant
820,490,50.0855,14.4062,35,27,4bd33cee046076b0768a7571,U Modré Kachničky,50.084767,14.405713,Czech Restaurant
2515,1097,50.0955,14.421,27,21,4bd4127677b29c74f4199282,Zlatá Praha,50.091528000000004,14.418581,Modern European Restaurant
1193,863,50.08776092933239,14.432299961382265,35,28,4bd480e67b1876b0e7238986,L.A. finger food,50.089104512509344,14.429934819496651,American Restaurant
2266,848,50.0855,14.421,50,8,4bd5667b4e32d13a27c0c080,Dhaba Beas,50.08137,14.421261999999999,Vegetarian / Vegan Restaurant
1680,262,50.0455,14.5542,5,2,4bd5cf3a7b1876b074668b86,Klub Varta,50.047341937068126,14.55992815626908,Mexican Restaurant
2651,1233,50.1055,14.421,2,1,4bd5da68cfa7b7135c8c26da,Čínská zahrada,50.10116383415903,14.421882785480824,Chinese Restaurant
1647,229,50.0455,14.4506,38,16,4bd6a572637ba593eb7cf870,Cactus,50.04354995021819,14.449236989021301,Asian Restaurant
2757,1339,50.1055,14.5542,6,4,4bd6b70029eb9c74d27295e1,Hotel Diana,50.10551657881561,14.554687880514829,Eastern European Restaurant
1629,211,50.0455,14.4358,7,5,4bd6bd8d6798ef3b1382658d,Slovenská restaurace Hotel Paulíny,50.04492759829336,14.436409254646803,Eastern European Restaurant
1509,91,50.0155,14.4506,2,0,4bd81f78dc4b9521245e7888,Hostinec Ve mlýně,50.01597771882874,14.457176894579293,Czech Restaurant
1425,7,49.9755,14.3914,10,5,4bd9594e2e6f0f47b04d0a08,Škoda lásky,49.97590944050254,14.393308790244932,Czech Restaurant
1613,195,50.0455,14.347000000000001,1,0,4bd9b7e70115c9b6d3587880,Volcano Restaurant,50.04525176859638,14.344593195997756,Italian Restaurant
1530,112,50.0255,14.4506,2,0,4bdc78dea6fdef3be9391547,Pitaya,50.02222145513011,14.451693621903575,Chinese Restaurant
2455,1037,50.0955,14.3766,4,1,4be29b47b02ec9b6fc394dc0,Calvera Bar & Restaurant,50.09512437757744,14.38137161093174,Mexican Restaurant
1760,342,50.0655,14.3174,3,0,4be54806bcef2d7fe99d03e5,Hotel u Lipy,50.065000740835906,14.319730589129565,Eastern European Restaurant
1762,344,50.0655,14.3174,3,2,4be55241cf200f47c10d133c,Restaurant U lípy,50.065016846706534,14.31972464691221,Czech Restaurant
457,127,50.07776092933239,14.417500691395738,35,28,4be7e6954485d13a29fc93ee,Chinese fast food,50.07753265214461,14.41927917536402,Chinese Restaurant
1144,814,50.0832390706676,14.424500038617733,50,36,4be7f17588ed2d7fc438cb1d,Restaurant U Jelinka,50.085251261348226,14.424741462255506,Eastern European Restaurant
226,226,50.086630464666186,14.415749859519455,12,4,4be840cd88ed2d7f6fa3cb1d,Hotel U Zlaté Studně,50.086056674748754,14.41490259700007,Eastern European Restaurant
2786,1368,50.1155,14.4802,3,0,4be868c488ed2d7fcfd6cb1d,Xin Fu,50.114356199011326,14.47354912201718,Chinese Restaurant
1899,481,50.0655,14.5986,2,1,4be91dd56af1ef3be5b81b96,Restaurace U Šimůnků,50.06373796744438,14.592911490685895,Eastern European Restaurant
1642,224,50.0455,14.4506,38,11,4be93e7cfbbb9c7475391e8e,Baifu,50.04697395620867,14.45615509983196,Sushi Restaurant
1553,135,50.0355,14.3914,1,0,4beee768e24d20a13e937314,Allégre Brasserie,50.037919,14.395361,Mediterranean Restaurant
2194,776,50.0855,14.3914,14,0,4bf04479d4e4d13ad11616a7,Bellavista,50.08681918923355,14.390264468938732,Italian Restaurant
2527,1109,50.0955,14.4358,32,6,4bf120a617880f47caf02937,U sv. Antoníčka,50.0997961,14.4338897,Czech Restaurant
2753,1335,50.1055,14.5542,6,0,4bf2cdd46991c9b6cc8429e9,Positano,50.108754579052714,14.557243548898946,Italian Restaurant
2212,794,50.0855,14.4062,50,4,4bf2cf2c98ac0f47492962a8,Kolkovna Olympia,50.081153,14.406896,Czech Restaurant
556,226,50.0755,14.4358,50,27,4bf3bf5e98ac0f47342563a8,Pizza Bar Ima,50.07542833079158,14.434006809702456,Italian Restaurant
317,317,50.088891393998594,14.426250140480542,14,11,4bf50f98cad2c928eb909c99,Restaurant Nostalgie,50.08813597400445,14.426247739172881,Eastern European Restaurant
2485,1067,50.0955,14.4062,30,21,4bf7a897c07c9c74c0afbbef,U tří hrochů,50.098479,14.404395999999998,Italian Restaurant
1524,106,50.0255,14.4358,7,1,4bfcfcd1e529c9288432ba8c,Cai Shen,50.02486150910123,14.434130924134966,Chinese Restaurant
2842,1424,50.1255,14.569,1,0,4bffa48cc30a2d7f1733111d,Periferia Trattoria,50.1255639793611,14.571582754121131,Italian Restaurant
2321,903,50.0855,14.4358,50,13,4c02b127187ec928fb94b47b,Restaurant Zvonice,50.08510979929961,14.43006992340088,Czech Restaurant
2114,696,50.0755,14.4506,50,49,4c04de3f187ec9280f8eb77b,Ambrozie,50.0720099054322,14.451120443234956,Italian Restaurant
2186,768,50.0855,14.3766,12,4,4c0aa93ba1b32d7f20bd99f0,U Zelené brány,50.08554842561289,14.382005750847805,Czech Restaurant
1433,15,49.9855,14.3618,8,3,4c0cafd12b899c74206cf158,Jia Le Yuan,49.98276648730535,14.357123244891904,Chinese Restaurant
1650,232,50.0455,14.4506,38,19,4c0cd5b2b4c6d13a7c7f0c30,Safir,50.043801809957245,14.448433391183293,Lebanese Restaurant
2184,766,50.0855,14.3766,12,2,4c1511eca9c220a1687c589d,Piccolo Mondo,50.08520443314329,14.37903351714816,Italian Restaurant
2475,1057,50.0955,14.4062,30,11,4c1b501c3b2ab7136f1e3325,Restaurace Na Rozhraní,50.099298,14.405251000000002,Czech Restaurant
1977,559,50.0755,14.421,50,12,4c1e522a63750f472988b967,Potrefená husa,50.07587,14.414859,Czech Restaurant
379,49,50.0732390706676,14.402700691395738,32,20,4c23a310c11dc9b6832a2424,Macao,50.0721,14.400659,Sushi Restaurant
862,532,50.08776092933239,14.402699961382265,39,34,4c24e91ec11dc9b697412624,Pod Branou,50.08857323333333,14.399830777777776,Eastern European Restaurant
2855,1437,50.13549999999999,14.4506,2,1,4c27829af1272d7f574588c5,Na Zlaté vyhlídce,50.13205487325465,14.453710238393581,Czech Restaurant
2146,728,50.0755,14.5098,4,1,4c2883a397d00f471ae53fea,Sushi Bar Slunce,50.07763221755689,14.506417598876666,Sushi Restaurant
645,315,50.0732390706676,14.432300691395733,43,35,4c2891c6ce3fc928854b6d88,Pizzerie La Romantica,50.072483,14.434763,Italian Restaurant
2155,737,50.0755,14.5394,12,6,4c2c70498abca593e9a70120,Oriental City,50.072342252840244,14.543074360892945,Sushi Restaurant
152,152,50.0855,14.421,25,24,4c3598973896e21ed36bed90,Corto,50.08498637832904,14.42126546106193,Italian Restaurant
1724,306,50.0555,14.4506,10,3,4c38692018e72d7fb93c18f5,U Havlíčků,50.057992823327325,14.452448724719954,Eastern European Restaurant
2656,1238,50.1055,14.4358,11,4,4c41e10f520fa593c544caac,Le Kou Fu,50.10226470876747,14.434174903502607,Chinese Restaurant
2618,1200,50.0955,14.6578,2,0,4c4330abff711b8d068e1405,Restaurace-Bar Samos,50.09941523968544,14.661062882217363,Mediterranean Restaurant
1803,385,50.0655,14.421,26,9,4c444fa02d3ec9b6a6a42eae,Leknín,50.067294297664205,14.417436718940733,Asian Restaurant
1540,122,50.0255,14.5098,4,2,4c45eed209ba95214d0f3f00,Čínská restaurace Ru Yang Lou,50.025909341981105,14.515396545052564,Chinese Restaurant
144,144,50.0855,14.421,25,16,4c46e00319fde21eac7a0676,Karavella,50.085423645239494,14.419937197960325,Czech Restaurant
2197,779,50.0855,14.3914,14,3,4c4c110046240f47668136f4,Malý Buddha,50.087694899338075,14.390512679627681,Asian Restaurant
1585,167,50.0355,14.5246,4,2,4c4f1c15db2c20a1538d8375,Hao Hong,50.03196007428295,14.528708470775287,Chinese Restaurant
1772,354,50.0655,14.4062,22,0,4c53013e94790f477e506aa3,The Italians,50.063078828257325,14.41024672739738,Italian Restaurant
1568,150,50.0355,14.4506,1,0,4c556ccd06901b8d1ab8734d,Restaurace & penzion U Labutě,50.03337906480716,14.45600152015686,Czech Restaurant
1630,212,50.0455,14.4358,7,6,4c63104379d1e21e5fabd715,Peking,50.04817797556594,14.435158993436875,Chinese Restaurant
706,376,50.0732390706676,14.439299308604259,37,22,4c74e3fc1b30a093bec8ed09,U Draka,50.07204748727651,14.437452306873826,Eastern European Restaurant
1645,227,50.0455,14.4506,38,14,4c763fc3604a370499d18449,Pizzeria San Severo,50.045713931883704,14.44811440049638,Italian Restaurant
2883,1465,50.1455,14.5838,6,1,4c76447c3adda143888109af,Restaurace U Černínů,50.143216279161464,14.578955666844552,Italian Restaurant
2788,1370,50.1155,14.4802,3,2,4c7797aeb4b4b60c4505280e,Restaurace U Pekařky,50.11498030955465,14.478780016207399,Czech Restaurant
1771,353,50.0655,14.3914,2,1,4c781a9d3badb1f776a64a54,Na Vinici,50.06515419519306,14.388530889892664,Czech Restaurant
2774,1356,50.1055,14.5838,14,13,4c83ce0974d7b60c6fdf8cd8,Pizzeria Amfora,50.10706005428442,14.579195510228365,Italian Restaurant
599,269,50.07776092933239,14.432300691395733,31,20,4c876bf4e602b1f70d70c77a,Bong sen,50.07813681629965,14.432923469360414,Asian Restaurant
1467,49,50.0055,14.4654,8,2,4c926f1957e5b60c7513691c,Asia Restaurant Libuš,50.006161246491565,14.461488112564847,Asian Restaurant
2717,1299,50.1055,14.4802,17,12,4c95e35882b56dcb75dadcaa,Čínská Zahrada,50.10528047557062,14.474846931330724,Asian Restaurant
508,178,50.07776092933239,14.42449930860426,44,31,4c97853a82b56dcb3874eaaa,Moravský archiv vin,50.078992,14.422887,Eastern European Restaurant
756,426,50.07776092933239,14.447100691395738,18,15,4c9bad79a004a1cd241e536e,Sushi Point,50.078140999999995,14.446417000000002,Sushi Restaurant
846,516,50.08776092933239,14.402699961382265,39,18,4c9cd856d3c2b60c2e85bbbc,Café Tržiště,50.08725486666666,14.402764999999999,Sushi Restaurant
717,387,50.0732390706676,14.439299308604259,37,33,4c9dc2b6d3c2b60c9564c4bc,Tesori d'Italia,50.07336669648703,14.437684933385524,Italian Restaurant
702,372,50.0732390706676,14.439299308604259,37,18,4ca078392fb1a1435c47fc40,Sapori,50.07256383160137,14.43819789154249,Italian Restaurant
2450,1032,50.0955,14.347000000000001,3,1,4ca0f2cc542b224bf86a0aa0,Na Závisti,50.09268806132336,14.349883354326836,Czech Restaurant
279,279,50.08776092933239,14.424500038617733,23,16,4ca4810c554b236aee812f48,Mr.Sushi restaurant,50.08807439254665,14.424648649992898,Sushi Restaurant
2140,722,50.0755,14.495,6,1,4caaf6c8d971b1f7109026e1,Zhong Nan Hai,50.07800930983841,14.498811025793009,Chinese Restaurant
2512,1094,50.0955,14.421,27,18,4cab7d6976d3a093e3a12c6b,Dinitz,50.09109226572195,14.420954249791189,Kosher Restaurant
1601,183,50.0455,14.3174,8,1,4cac5bd89f4776b028099c13,Zářivá perla,50.04527818032435,14.323042655730916,Chinese Restaurant
2536,1118,50.0955,14.4358,32,15,4cb3054a1463a143ed34b1a9,Grand Cru Restaurant & Bar,50.091707282427166,14.432753632814686,Modern European Restaurant
1549,131,50.0355,14.3618,1,0,4cb9c88ef50e224b0474effb,Černý kohout,50.03705268635623,14.360851290126135,Czech Restaurant
1794,376,50.0655,14.421,26,0,4cc0263573ef199ca546d9a2,U Kroka,50.066622839213636,14.417876601219175,Czech Restaurant
1636,218,50.0455,14.4506,38,5,4ccd5fc732e776b08674db27,Mango,50.04891440832839,14.453617997090053,Chinese Restaurant
855,525,50.08776092933239,14.402699961382265,39,27,4ccde7e6ee23a143f2ce28a8,U Mecenáše,50.08798147366002,14.402627926087275,Czech Restaurant
2633,1215,50.1055,14.3914,19,10,4cce9faac0378cfacb9a9448,Restaurace Harvest Room,50.1092632814225,14.393557114713635,Eastern European Restaurant
1698,280,50.0555,14.3618,2,0,4cdae50dd549548143e638b2,U Majerů,50.05241914469267,14.35769886483937,Czech Restaurant
2196,778,50.0855,14.3914,14,2,4cdef9ef78ddf04dac079e98,Peklo,50.0856364514424,14.388792041032751,Czech Restaurant
1538,120,50.0255,14.5098,4,0,4ce7f797595cb1f7d0cdc514,Kanjia,50.027715,14.507551000000001,Chinese Restaurant
2626,1208,50.1055,14.3914,19,3,4ce96459678aa0938dffedea,Cai Shen,50.104968033156744,14.394773125398393,Chinese Restaurant
2728,1310,50.1055,14.495,28,6,4cebfe4f595cb1f7f639dc14,Kyoto,50.10404188547108,14.491433131800429,Sushi Restaurant
2049,631,50.0755,14.4358,50,34,4cee9139d7268cfad089ca4e,Wang Fu Jing,50.07614,14.442463,Chinese Restaurant
835,505,50.08776092933239,14.402699961382265,39,7,4ceffbdbd7268cfa75b8d24e,Středověká krčma U krále Brabantského,50.08908111994999,14.401618233640043,Theme Restaurant
2150,732,50.0755,14.5394,12,1,4cf0fb8a6c29236a62cd62a2,Zářivá perla,50.072393356185685,14.54304995321929,Chinese Restaurant
2823,1405,50.1255,14.4654,9,4,4cf8ce1195153704ab785e89,Sanghaj,50.1246233330828,14.46863331207168,Chinese Restaurant
2176,758,50.0855,14.3618,8,2,4cfaa3190df3236a7417f5a9,Valcha restaurant,50.08401668257061,14.365821731441715,Czech Restaurant
2187,769,50.0855,14.3766,12,5,4cff96036923721ef127c03b,Jin Da Lai,50.08442854070752,14.375647492999024,Chinese Restaurant
2353,935,50.0855,14.4358,50,45,4d07a4d19d33a1434f16cd78,Jian Guo,50.089763,14.436245000000001,Chinese Restaurant
2867,1449,50.13549999999999,14.5542,4,2,4d110d4c9302a35dcfff7e6e,Periferia Tratoria Pizzerie,50.13373253348664,14.55873255104576,Italian Restaurant
1832,414,50.0655,14.4358,27,12,4d14e2fa81cea35de5aad6ec,Le Papillon,50.06951071905938,14.43471527715717,Eastern European Restaurant
2199,781,50.0855,14.3914,14,5,4d261b8d739137042151fd35,U Císařů,50.08890196060835,14.394670623861087,Eastern European Restaurant
2890,1472,50.1555,14.5246,4,0,4d2c4664b818a35de4d2b68a,Ju Feng Yuan Fan Dian,50.15173020347789,14.522806987089114,Chinese Restaurant
2734,1316,50.1055,14.495,28,12,4d36e7e14d8a6dcb2919653f,Felfella,50.10416154657943,14.490792223143744,Mediterranean Restaurant
2755,1337,50.1055,14.5542,6,2,4d36e88b4f36a143be393e27,Sochi,50.10585309506661,14.556261476905654,Caucasian Restaurant
2748,1330,50.1055,14.495,28,26,4d3b2ab36de7721e1dfbf549,China Fastfood,50.10414092847954,14.4910129979385,Chinese Restaurant
1473,55,50.0055,14.4802,10,0,4d3eb339457cb60c9db702a5,Bún Cá Hải Phòng,50.00361878282283,14.473907133368462,Vietnamese Restaurant
1912,494,50.0755,14.3914,8,5,4d41ae6fde17a093c07d036c,Chacapuri,50.0725434,14.3945513,Middle Eastern Restaurant
1574,156,50.0355,14.495,5,2,4d4416017e2e548114835c8f,Kobe,50.03206724425722,14.49135428691594,Japanese Restaurant
1888,470,50.0655,14.495,9,3,4d4c4d5ee4fd6ea8573bc261,Čínské Bistro Baile,50.06826470470188,14.492910280243663,Asian Restaurant
1831,413,50.0655,14.4358,27,11,4d53d8a9f5daa09357fc6a74,Ding Sheng,50.0641865499916,14.44043690650986,Asian Restaurant
2696,1278,50.1055,14.4506,38,33,4d557beffb65236adf10fab3,Porto's,50.105364,14.455853,Italian Restaurant
1620,202,50.0455,14.421,5,1,4d5586adba5b224b5ca50f14,Podolee,50.047383921398,14.415130139461624,Mexican Restaurant
2649,1231,50.1055,14.4062,8,7,4d565a3d143ca0932f35bafc,Cantina Etrusca,50.10263055,14.40282807,Italian Restaurant
2532,1114,50.0955,14.4358,32,11,4d63e6a0a5be236a6807c7db,Sansho,50.09161753429925,14.434416047377505,Asian Restaurant
2694,1276,50.1055,14.4506,38,31,4d6e38c024b56ea896cbfcfb,Xing Wang,50.10239333385018,14.450071668510525,Chinese Restaurant
1191,861,50.08776092933239,14.432299961382265,35,26,4d6f92b4a045721e2f4a27b8,Wok & Bento,50.08902471265217,14.42982847137152,Asian Restaurant
1873,455,50.0655,14.4654,11,2,4d736c55ff6ba35d2d627c8a,Zářivá perla,50.068012681482756,14.468551733384643,Asian Restaurant
2617,1199,50.0955,14.5098,1,0,4d74b5f0d0c73704369bf317,Dynasty Grand China Restaurant,50.09235191231725,14.51369047164917,Chinese Restaurant
2420,1002,50.0855,14.4654,18,12,4d77667c926a6dcb8ecd4700,Shun Lai,50.08526650188956,14.470253661779196,Chinese Restaurant
2741,1323,50.1055,14.495,28,19,4d7a30fef29ab60cdd9bf80a,Červené Jablko,50.10413913866814,14.490680196550455,Asian Restaurant
2794,1376,50.1155,14.5986,6,2,4d7b5feeda568cfa3b584fff,Jin Man Tang,50.112583070212615,14.594851257224793,Chinese Restaurant
1457,39,50.0055,14.421,9,2,4d7b6a8bcf3f370473f73a40,Fei He,50.00565622611038,14.416841268539429,Chinese Restaurant
1145,815,50.0832390706676,14.424500038617733,50,37,4d7be89d8f89224b1f379a26,Gourmet Club,50.08386563555321,14.42748956122151,Czech Restaurant
1747,329,50.0555,14.5246,6,3,4d7cdfd7f260a093ecc641ba,Čínské bistro Lucky,50.053874,14.518332000000001,Asian Restaurant
2425,1007,50.0855,14.4654,18,17,4d7e068f564b8cfa5353e964,Ding Feng,50.085077657862854,14.470330125635767,Chinese Restaurant
1816,398,50.0655,14.421,26,22,4d8063c9562ea0905b30512e,RBG Bar & Grill,50.068017766973725,14.418265582807527,American Restaurant
242,242,50.088891393998594,14.419250063245075,9,8,4d809c99360b224bababdc56,U Golema,50.08866060412339,14.418607592416995,Czech Restaurant
2533,1115,50.0955,14.4358,32,12,4d82774bd67ca1cd7a0112fb,U Divadla,50.099780916191456,14.435790749949529,Czech Restaurant
1902,484,50.0755,14.3174,3,1,4d8a3e957d4c5481f00d6571,U Čechů,50.073865258743474,14.315613466048589,Czech Restaurant
2754,1336,50.1055,14.5542,6,1,4d8c735e8969a35dd1184d8c,Restaurace Asia,50.10566285485465,14.558643574247945,Asian Restaurant
1687,269,50.0555,14.2878,10,3,4d8e45e7c479a35dd0494297,Wok Food,50.053721926147524,14.287475732067788,Chinese Restaurant
1181,851,50.08776092933239,14.432299961382265,35,16,4d90705bca75b60c280128a9,UNO,50.089065000000005,14.429687,Italian Restaurant
1573,155,50.0355,14.495,5,1,4d91bcbfd7b1236a58463638,SantaFe,50.032103695696634,14.491235434751873,Fast Food Restaurant
1738,320,50.0555,14.5098,7,1,4d92241d033ba35dfb9b7f0d,Jiang Jia,50.055370866428184,14.504519638997795,Asian Restaurant
1445,27,49.9955,14.6578,5,1,4d98550baf3d236aec9539c7,Čínská Restaurace,49.991699143437,14.657117325393564,Chinese Restaurant
1817,399,50.0655,14.421,26,23,4d9c4efd948ea093ce99cd11,Zahradní restaurace Vyšehrad,50.06277185257402,14.422565711917743,Eastern European Restaurant
1498,80,50.0055,14.6578,5,3,4d9ef7da9b91a1cd1fb660c0,Vilím Fast Food,50.004277577439424,14.654701466404823,Malay Restaurant
2621,1203,50.1055,14.347000000000001,1,0,4da19a8c9aa4721e42e7fd19,Chorvatský Mlýn,50.10593563822663,14.353324875531051,Mediterranean Restaurant
2433,1015,50.0855,14.5542,2,1,4da41f599aa4721eb5ab301a,La Bodega Campo,50.08726801819146,14.556799096154533,Argentinian Restaurant
675,345,50.07776092933239,14.439299308604259,31,22,4da4969b9935a0936cd5e06f,Restaurant Jáva,50.07800896930765,14.436510645258634,Asian Restaurant
2742,1324,50.1055,14.495,28,20,4da5f6ee8154a54251c3f541,Prima bašta,50.10419920346776,14.490512618203864,Czech Restaurant
227,227,50.086630464666186,14.415749859519455,12,5,4daee1386a23e6c93492c12d,Czech & Mediterranean Restaurant,50.08605875757042,14.415181457301989,Mediterranean Restaurant
714,384,50.0732390706676,14.439299308604259,37,30,4db07c55fa8ca4b3e9e2a7c0,Square Cafe,50.073023304272716,14.442056596322427,Mediterranean Restaurant
2885,1467,50.1455,14.5838,6,3,4db2fd00316a3bec52502011,Xiang Long,50.142813553305785,14.578479758543711,Chinese Restaurant
854,524,50.08776092933239,14.402699961382265,39,26,4dbc2bfb5da3ff58ec43b323,U Tří zlatých hvězd,50.08780654461581,14.403111891438046,Eastern European Restaurant
848,518,50.08776092933239,14.402699961382265,39,20,4dbe9d9d0437955ec068af70,U Čerta,50.08861235541514,14.401803180482226,Czech Restaurant
327,327,50.086630464666186,14.426250140480542,10,7,4dc19d2822713750ba812fbf,U Zlatého Lva,50.08676326657713,14.425300601575728,Eastern European Restaurant
1523,105,50.0255,14.4358,7,0,4dc284e9b0fb490416b03027,Li-Wu,50.02701581179927,14.433086112481305,Asian Restaurant
1905,487,50.0755,14.3766,2,0,4dc2e1ce1838ada6b26e3247,Kinari,50.074663,14.380451,Thai Restaurant
591,261,50.07776092933239,14.432300691395733,31,12,4dc7d58dae608779d17356bf,Shanghai Restaurace,50.07707461747513,14.431079055429747,Chinese Restaurant
2858,1440,50.13549999999999,14.495,3,2,4dc92f9dd164033c5739cf11,Šmak české kuchyně,50.13577974486974,14.500676107868813,Czech Restaurant
1482,64,50.0055,14.4802,10,9,4dcfbc48d164679b8d1fa338,U Pani,50.00239985304378,14.475768808315882,Vietnamese Restaurant
2463,1045,50.0955,14.3914,6,5,4dd394d67d8b6704c7a824a3,Čínské Bistro,50.09757278658118,14.386718708220634,Chinese Restaurant
1316,986,50.0832390706676,14.454100038617733,29,7,4dd640ee8877f1150fcb4ddf,Pizzerie Nominanza,50.0827263274123,14.457503650528329,Italian Restaurant
1863,445,50.0655,14.4506,24,16,4dd6a3251838b8561cd25029,Jia Nan,50.06789634215764,14.4547318144613,Chinese Restaurant
2833,1415,50.1255,14.495,6,2,4dd8fe98d1647fcf3e704fc2,Gusto Giusto,50.125313740398006,14.493516106414859,Italian Restaurant
1435,17,49.9855,14.3618,8,5,4ddb8812b0fb2604df6ae573,Amigos,49.98296515151971,14.362026884738706,Mexican Restaurant
2777,1359,50.1155,14.3914,2,1,4ddb88ec1f6e9b46a1257b88,Čínské bistru Fu Gui,50.112309,14.395378,Chinese Restaurant
2165,747,50.0755,14.642999999999999,4,3,4ddcd82ed164236dd37bf9d9,Restaurace Nové Století,50.07904332156311,14.641901425061109,Chinese Restaurant
1492,74,50.0055,14.569,11,9,4de13e7aae605835c4685280,Zářivá perla,50.003288,14.573618,Asian Restaurant
1622,204,50.0455,14.421,5,3,4de75d007d8b1f2dd2959816,Rong Cheng,50.04706040864317,14.41451101593282,Chinese Restaurant
1177,847,50.08776092933239,14.432299961382265,35,12,4def4491c65bf3f03e91b3e4,Ristorante Longiano,50.08956207277614,14.432320207362014,Italian Restaurant
280,280,50.08776092933239,14.424500038617733,23,17,4df3b30362e1288ed304f03c,VINOdiVINO,50.0877775584248,14.425681080815005,Italian Restaurant
2530,1112,50.0955,14.4358,32,9,4df49ad122718759f823be1c,Binh Minh,50.098385280151994,14.433204486801648,Asian Restaurant
1300,970,50.08776092933239,14.454100038617733,24,15,4df4a9d81f6e818dae04d2c5,Jia Le,50.08770026502922,14.45659758809043,Chinese Restaurant
2752,1334,50.1055,14.5394,2,1,4df8d4b162847bdf4fed73d3,Restaurace Rajská Zahada,50.107393274717744,14.543555380202928,Eastern European Restaurant
2125,707,50.0755,14.4654,23,10,4dfa62aeb0fb0401c7f8298c,BISTRO FIPA u Cikana,50.07808107435585,14.460476927920887,Eastern European Restaurant
2195,777,50.0855,14.3914,14,1,4dff34cd6284215560080dff,hOST Restaurant,50.08817634320579,14.393129134811106,Modern European Restaurant
2580,1162,50.0955,14.4506,50,27,4dff4d84091ab6fff999e1d5,Red Hot Chilli,50.092381329671106,14.45059573296741,Vietnamese Restaurant
1490,72,50.0055,14.569,11,7,4e00bd261f6ef39c2940e1fa,Shang-Haj,50.00334594129277,14.573646400909471,Chinese Restaurant
1196,866,50.08776092933239,14.432299961382265,35,31,4e01ad8088776240d3f5a101,brasserie felice,50.089533288134696,14.431147282273484,Eastern European Restaurant
708,378,50.0732390706676,14.439299308604259,37,24,4e04683a483b6f89f47daba3,Paprika Csarda,50.07464198762129,14.441863487519484,Hungarian Restaurant
1541,123,50.0255,14.5098,4,3,4e060323b61c60b0453bb31d,Italská Pizza a Zmrzlina,50.027662164177435,14.507575035095215,Italian Restaurant
608,278,50.07776092933239,14.432300691395733,31,29,4e08b0f6d4c03ae0b9d13b8f,Sklípek U Munků,50.07672310176489,14.430389900657294,Czech Restaurant
2491,1073,50.0955,14.4062,30,27,4e09dda58130709eafbd9faf,Ada restaurant,50.09300212958507,14.40886032672485,Modern European Restaurant
1153,823,50.0832390706676,14.424500038617733,50,45,4e0c8ae052b1289d118865f0,Pasarela,50.08343492238165,14.426603818727225,Mediterranean Restaurant
2171,753,50.0855,14.347000000000001,5,2,4e0c8ca98877c535e46eda32,Samojídelna a Pivnice,50.089535,14.349182999999998,Czech Restaurant
2112,694,50.0755,14.4506,50,47,4e1c8b442271b045c5988a1b,Gruzínské Speciality,50.07160149901706,14.451544195998096,Fast Food Restaurant
504,174,50.07776092933239,14.42449930860426,44,27,4e1f6116b61c8ce9c7cc1f22,La Cubanita,50.077740000000006,14.424959,Brazilian Restaurant
2887,1469,50.1455,14.5838,6,5,4e2066eb62e1964dbb5bc3b1,El Macho Restaurant,50.14306043535883,14.578578472137453,Mexican Restaurant
2483,1065,50.0955,14.4062,30,19,4e2b0d86e4cd3bc16690ef39,ShanXi Čínská Restaurace,50.097495178551156,14.400080594115755,Chinese Restaurant
2506,1088,50.0955,14.421,27,12,4e2b44c88877b69d49ded1b9,Restaurante peruano,50.0918054,14.4226749,Brazilian Restaurant
146,146,50.0855,14.421,25,18,4e2e8baa22717d705856f762,Restaurace Havelka,50.08505025,14.420341899999999,Czech Restaurant
318,318,50.088891393998594,14.426250140480542,14,12,4e2f1655a8092ca5c37c2967,Burma And siam,50.088864158679726,14.42752560700684,Thai Restaurant
2456,1038,50.0955,14.3766,4,2,4e2ffa31d1646b407b92d802,U Hroňků,50.09244977,14.37697825,Eastern European Restaurant
1704,286,50.0555,14.421,4,1,4e3149c9d1643f195b92b6cb,Chilli Pizzeria (AliBaba Fast food),50.05923057666874,14.42073498625719,Indian Restaurant
2519,1101,50.0955,14.421,27,25,4e32536be4cd6025018b643c,Restaurant Vltava,50.092606046233904,14.41969034959087,American Restaurant
1692,274,50.0555,14.2878,10,8,4e36c212ae60d86c3acccf97,Villa Fresh Italian Kitchen,50.05337142944336,14.287747383117676,Italian Restaurant
1814,396,50.0655,14.421,26,20,4e3fd67d922e920e6c50dc24,Karavela,50.065713244102824,14.426121616112844,Czech Restaurant
1474,56,50.0055,14.4802,10,1,4e41238f2271a89dd089d0a0,Pho Quynh Anh,50.00214906580568,14.475748649505483,Vietnamese Restaurant
1100,770,50.08776092933239,14.424500038617733,50,42,4e425e9a1838ada3db5becf0,Ristorante Anna,50.08983267915878,14.42397689025582,Italian Restaurant
2844,1426,50.1255,14.6282,3,1,4e451a2b52b18fcc79a29563,Turbanti,50.12470279781202,14.62187781360814,Italian Restaurant
1791,373,50.0655,14.4062,22,19,4e490dbbd164155c0e065153,La Piada,50.061811,14.4098,Italian Restaurant
2357,939,50.0855,14.4358,50,49,4e522ac9e4cdb70cc5298c03,La Corte / Dvůr,50.089791999999996,14.436136999999999,Italian Restaurant
2686,1268,50.1055,14.4506,38,23,4e5e0a98d4c08cf7f5874f0b,Česká jídelna,50.10481557659089,14.449908238360804,Czech Restaurant
860,530,50.08776092933239,14.402699961382265,39,32,4e60d1d5b61cd78087d55ed7,Chinese Buffet Restaurant Kingto,50.08775255555495,14.405030704209066,Chinese Restaurant
1657,239,50.0455,14.4506,38,26,4e6b8a0c81dc6cbf27540b14,Chicken House,50.0458959766676,14.44805145263672,Asian Restaurant
876,546,50.0832390706676,14.402699961382265,11,9,4e6df26c483bf10521481744,Pinocchio,50.08161306303722,14.404664039611815,Italian Restaurant
1565,147,50.0355,14.421,5,3,4e70b76162e14d9f13ab6181,Restaurace U Bontonu,50.03816729377007,14.424377135570607,Eastern European Restaurant
2610,1192,50.0955,14.4802,5,3,4e809b4e77c887df6266f7c6,Balu Kitchen,50.09699792037752,14.47736214209814,Modern European Restaurant
2719,1301,50.1055,14.4802,17,14,4e81fd52823119f1760b9455,Gyros Venuše,50.10420444,14.47476566,Greek Restaurant
1715,297,50.0555,14.4358,14,8,4e84afb6f790320b3835bb9c,Fu Gui Lou,50.055328815577795,14.43582138523983,Chinese Restaurant
2449,1031,50.0955,14.347000000000001,3,0,4e889647a17ccac7cf2bcb76,Kaštan,50.0987982039178,14.345328695356756,Czech Restaurant
1637,219,50.0455,14.4506,38,6,4e8de8ac722edc89e71623af,Teng,50.04689314029397,14.446282540670097,Chinese Restaurant
2799,1381,50.1155,14.6134,4,1,4e917912722ebb868c16a351,Chong Fa Jiu Dian,50.11470264416054,14.608745198164694,Chinese Restaurant
845,515,50.08776092933239,14.402699961382265,39,17,4e9568e9a17c7d23b27b2b71,Český Banát,50.08840084627906,14.399557113647461,Eastern European Restaurant
2467,1049,50.0955,14.4062,30,3,4e96a3c4f79068de88c51105,500 restaurant,50.096537,14.40564,Italian Restaurant
2168,750,50.0855,14.332199999999998,1,0,4e974f5adab4ae9617e9121e,Mongolian BBQ,50.08890699009977,14.330604773997266,Asian Restaurant
2157,739,50.0755,14.5394,12,8,4e995baa2c5bf14846a0767b,Bel BELLO Restaurant,50.07436133367808,14.539416108933999,Italian Restaurant
1842,424,50.0655,14.4358,27,22,4e9f1f514901fd63b856f956,Rickshaw,50.0630405644507,14.43170592295307,Asian Restaurant
2423,1005,50.0855,14.4654,18,15,4e9fea3bdab4b59126802f57,Canntina,50.08747556207072,14.464423879342933,Mexican Restaurant
2831,1413,50.1255,14.495,6,0,4ea061f99a5229904cc2c1ce,Restaurant Plnej pekáč,50.12472611178807,14.494613948310244,Czech Restaurant
1497,79,50.0055,14.6578,5,2,4ea56ba59adff6343ae4bc0e,Činska Restaurace A Sushi,50.00342769450178,14.659299037863814,Asian Restaurant
1188,858,50.08776092933239,14.432299961382265,35,23,4ea7e06bb8f7ff211aa01cba,Jurta,50.08909680180008,14.429971324136927,Asian Restaurant
922,592,50.0855,14.421,50,14,4eb5b866469073bbc6495a6b,Oliva Verde,50.08683342791939,14.420783354009895,Italian Restaurant
580,250,50.07776092933239,14.432300691395733,31,1,4eb965d0f5b94bd85d7744b3,Restaurace Husinec,50.07846380109563,14.429455342523472,Czech Restaurant
293,293,50.088891393998594,14.422749936754926,13,7,4ebda1770e019a1629c219d1,Primo Piatto,50.08891257427576,14.421395744256088,Italian Restaurant
1644,226,50.0455,14.4506,38,13,4ec1566ef79074116176e53b,il Primo Piatto,50.042915890012424,14.452949689547978,Italian Restaurant
473,143,50.0732390706676,14.417500691395738,13,9,4ec55cb777c8d6951137972a,Dnister,50.07329,14.416073,Ukrainian Restaurant
2516,1098,50.0955,14.421,27,22,4ed6c69ef5b915cfe1878854,U Pierra,50.0911685193924,14.420853421544768,Swiss Restaurant
1330,1000,50.0832390706676,14.454100038617733,29,21,4ed765da82311e04d2314a4a,Salaam Namaste,50.08516273164252,14.455008258437033,Indian Restaurant
2122,704,50.0755,14.4654,23,7,4ed76d7f82311e04d239db15,Pho Tuan Anh,50.07731544492081,14.463448279124153,Vietnamese Restaurant
1469,51,50.0055,14.4654,8,4,4edc79be5c5c96a200b9d30b,Perfect Catering,50.007117,14.470242,Sushi Restaurant
1334,1004,50.0832390706676,14.454100038617733,29,25,4ee3430ae5faffd7307a7768,Balkan Grill,50.08521646099375,14.454851978426376,Eastern European Restaurant
2419,1001,50.0855,14.4654,18,11,4eebd0b67ee5f45386bad10e,U Monci Zlate kocky,50.08660850919762,14.464392450563764,Chinese Restaurant
1306,976,50.08776092933239,14.454100038617733,24,21,4eede7567ee5f4538809d223,Zlatý drak,50.087644684049714,14.457208392342341,Vietnamese Restaurant
2824,1406,50.1255,14.4654,9,5,4efb1c8ed3e354f0c06010cb,Shanghai restaurace,50.12662687546478,14.469930243863685,Asian Restaurant
2344,926,50.0855,14.4358,50,36,4efc812d8b81729522b75878,Ristorante Italiano,50.08563232321374,14.43085523177261,Italian Restaurant
2743,1325,50.1055,14.495,28,21,4efdce294690f6ece83f0938,Cinska Restaurace,50.10382045568637,14.496854427056507,Chinese Restaurant
2409,991,50.0855,14.4654,18,1,4f01a2c0e5faf2869d615e3d,Pho Nem,50.08956264117415,14.464337444239169,Vietnamese Restaurant
1612,194,50.0455,14.332199999999998,5,4,4f05ee399adf79d873b88b29,Lednice,50.04239118031626,14.32864594308633,American Restaurant
2151,733,50.0755,14.5394,12,2,4f08395fe4b071c575408815,Červené jablko,50.07407939095656,14.539159714006225,Chinese Restaurant
857,527,50.08776092933239,14.402699961382265,39,29,4f0891c6e4b0e8907ab56da1,Tre Colori,50.08904157003799,14.401619115997308,Italian Restaurant
2761,1343,50.1055,14.5838,14,0,4f098471e4b08f5249d4f5ac,IKEA restaurace,50.10415732993632,14.587643539275836,Scandinavian Restaurant
1660,242,50.0455,14.4506,38,29,4f0b0e05e4b09a8a4198d386,Šmak české kuchyně,50.043922395596496,14.448556186328535,Czech Restaurant
1904,486,50.0755,14.332199999999998,1,0,4f0ca7ffe5e820702022dd2e,Kimchi,50.07629675572893,14.332466152557785,Korean Restaurant
1592,174,50.0355,14.5986,6,1,4f1063eae5e852ca73db19ed,Hospůdka Na Lišce,50.03264099422664,14.597290124828938,Czech Restaurant
998,668,50.08776092933239,14.417499961382266,50,40,4f123b89e4b0725fecccf2a5,Haringak,50.0878114,14.4204598,Asian Restaurant
2443,1025,50.0955,14.2878,10,6,4f12fb39e4b0958ec2c768d9,OrienKing,50.09304300755926,14.291256596381734,Chinese Restaurant
2771,1353,50.1055,14.5838,14,10,4f158b40e4b0380206bc4ecf,Hong Xia,50.107275267646166,14.579623368595286,Chinese Restaurant
2106,688,50.0755,14.4506,50,41,4f1ac180e4b0ce22e4c1aa67,Čínské Bistro,50.075300704130456,14.444815463752251,Asian Restaurant
1499,81,50.0055,14.6578,5,4,4f267c43e4b05160b0835306,Kebab Říčany,50.003218201127005,14.656657766894533,Greek Restaurant
1727,309,50.0555,14.4506,10,6,4f3147d0e4b0951ff481b0da,Somalsko,50.056312,14.447547,American Restaurant
1860,442,50.0655,14.4506,24,13,4f33b6e9e4b0cc4cf7ef9f75,Učebna Uj,50.06502865161947,14.454727375671249,American Restaurant
1441,23,49.9955,14.4802,1,0,4f36847fe4b0cc4ce2707a44,Hung Dat,49.99856798805586,14.483410378391314,Asian Restaurant
1590,172,50.0355,14.5838,1,0,4f3ba29de4b04e90d7796ec7,Čínská restaurace New Moon,50.03614663396126,14.580584125825036,Chinese Restaurant
2628,1210,50.1055,14.3914,19,5,4f407d6be4b062d5cbbbec38,Xin tian di,50.1089517104524,14.393758350278569,Chinese Restaurant
1147,817,50.0832390706676,14.424500038617733,50,39,4f4902a7e4b0683d50290a97,Soprano Restaurant,50.083307741920535,14.426656562234712,Italian Restaurant
1139,809,50.0832390706676,14.424500038617733,50,31,4f4e1449e4b0629e7b2e9fb0,Sushi Time,50.08315817360192,14.427135231326867,Sushi Restaurant
2841,1423,50.1255,14.5542,1,0,4f50aa89e4b0e4085202ae9b,"Domácí Stravování ""U Mrázů""",50.12901831742594,14.558567991313573,Eastern European Restaurant
1461,43,50.0055,14.421,9,6,4f511cf1e4b00ad2ab151a79,Čínská Restaurace - U Pošty,50.00573527951526,14.416803061720088,Chinese Restaurant
967,637,50.08776092933239,14.417499961382266,50,9,4f53bf2fe4b0ac6d0d7bb812,CottoCrudo,50.08765081269582,14.41406888267678,Italian Restaurant
2191,773,50.0855,14.3766,12,9,4f5c7fcae4b0369071098033,Cina,50.08418425749797,14.373223993223867,Chinese Restaurant
622,292,50.0732390706676,14.432300691395733,43,12,4f609c446b74ab0776a2026e,Ristorante LEGGERO,50.072426501711846,14.434534221377941,Mediterranean Restaurant
2632,1214,50.1055,14.3914,19,9,4f619e4be4b024e6f7250c25,Haluška - rychlé občerstvení,50.106606,14.394741,Eastern European Restaurant
1305,975,50.08776092933239,14.454100038617733,24,20,4f61d776e4b06b1a17f3008b,Jamin,50.08775329589844,14.455883026123047,Asian Restaurant
1582,164,50.0355,14.5098,6,5,4f623940e4b06b1a185d2b9f,Garden,50.03288365324077,14.506692201179707,Chinese Restaurant
1479,61,50.0055,14.4802,10,6,4f65de13e4b098b3968b8c2b,Chuyên Phở,50.002374065894394,14.475754175473435,Vietnamese Restaurant
1743,325,50.0555,14.5098,7,6,4f672bffe4b036e3ea65ed01,Tai He Lou,50.05804704036034,14.511010399697547,Chinese Restaurant
980,650,50.08776092933239,14.417499961382266,50,22,4f6ceb1ee4b0600331de757f,Alla Stella Nera,50.086119808155935,14.417149655744208,Italian Restaurant
1044,714,50.0832390706676,14.417499961382266,50,36,4f6f6a37e4b03b575dffe6f5,Restaurant Lungo,50.08189182099294,14.417664224918168,Italian Restaurant
2819,1401,50.1255,14.4654,9,0,4f759cf5e4b0613b062966b5,Nhat Hai,50.127302590816214,14.467984672105255,Asian Restaurant
1576,158,50.0355,14.495,5,4,4f7c472de4b005e79902d974,Nudle Čoudov,50.032025,14.491241,Asian Restaurant
905,575,50.0832390706676,14.409700038617736,9,6,4f81c568e4b0bf6ccabe2210,wigwag,50.08249088886779,14.407282300345287,Mexican Restaurant
1495,77,50.0055,14.6578,5,0,4f855a35e4b08d4037bdcbd6,Pizza Porta Via,50.0033240110755,14.659622880910813,Italian Restaurant
2441,1023,50.0955,14.2878,10,4,4f88541ce4b0e6f3477b12fe,Asia Sun,50.093043758526846,14.29125079278929,Chinese Restaurant
819,489,50.0855,14.4062,35,26,4f8ad387e4b0e6f349c5e5f1,Lázně,50.08687572093628,14.405946828659866,Eastern European Restaurant
766,436,50.0732390706676,14.447100691395738,9,7,4f8bee4fe4b00a62641eac63,Rohozecká 1,50.0718682390543,14.449424424603945,Eastern European Restaurant
511,181,50.07776092933239,14.42449930860426,44,34,4f9295a2e4b0ab5f095cd3e9,Lamborgini Café,50.07898308631504,14.421868410978158,Italian Restaurant
1038,708,50.0832390706676,14.417499961382266,50,30,4f92bba2e4b0a510a62947e1,Lunge,50.08308298265344,14.419732571547813,Italian Restaurant
1813,395,50.0655,14.421,26,19,4f954d07e4b0e90bfd24fa91,Vabene bar,50.06609725952149,14.420321464538574,Italian Restaurant
1472,54,50.0055,14.4654,8,7,4f969b3fe4b0d6680044c32f,FOFR=SUSHI,50.00485080052715,14.464856144828873,Sushi Restaurant
1302,972,50.08776092933239,14.454100038617733,24,17,4f9d798ce4b020e61080fd5d,Vietnamske bistro Billa,50.08774000901281,14.456720352172852,Vietnamese Restaurant
1865,447,50.0655,14.4506,24,18,4fa1567de4b0953f49230381,Ning Bo,50.064740359381474,14.452626482995667,Asian Restaurant
1213,883,50.0832390706676,14.432299961382265,19,13,4fa28c32e4b072b6859a4126,Cafe Gross,50.081921786507785,14.429836214139705,Middle Eastern Restaurant
1539,121,50.0255,14.5098,4,1,4fa3cebbe4b0bcbb45c9bae9,Čína u Billy,50.025933310385035,14.515567099333087,Chinese Restaurant
1796,378,50.0655,14.421,26,2,4fb287d5e4b06d535f70f5c2,Potrefená husa Albertov,50.066433103213605,14.422426774925153,Czech Restaurant
1750,332,50.0655,14.302599999999998,10,0,4fb39b1de4b06c85319fd49a,Zen Bistro,50.064534145517385,14.309001647594659,Sushi Restaurant
100,100,50.0832390706676,14.424500038617733,12,11,4fb6a019e4b07a70ecf085bd,Triton Restaurant 1912,50.08305872606793,14.425873858442898,Modern European Restaurant
602,272,50.07776092933239,14.432300691395733,31,23,4fb6a868e4b039c1e774d9ef,XIANG GE LI LA,50.07930014565216,14.42982681055948,Sushi Restaurant
145,145,50.0855,14.421,25,17,4fbe203de4b07d142fe72058,Unikátni Česká Restaurace,50.085322999999995,14.419829,Eastern European Restaurant
2863,1445,50.13549999999999,14.5098,5,4,4fbe7480e4b02f0da7781696,Čínská Restaurace,50.13574582844244,14.509982225735216,Chinese Restaurant
285,285,50.08776092933239,14.424500038617733,23,22,4fbfce35e4b0b469de2d4b59,Upavouka Restauca,50.087587700664635,14.42321669704568,Eastern European Restaurant
1443,25,49.9955,14.569,1,0,4fc3597ce4b05e4d30be60e5,Jídelna U Křapáčků,49.994309680860866,14.572281850201206,Eastern European Restaurant
1256,926,50.0855,14.4506,31,30,4fc4b061e4b005f3f3f80d80,Cinska Restaurace Seifertova,50.086094579105975,14.450150624064175,Chinese Restaurant
1133,803,50.0832390706676,14.424500038617733,50,25,4fc8a7e0e4b08b8c9f24f385,Hanedam,50.0830288654086,14.427728209760339,Turkish Restaurant
2063,645,50.0755,14.4358,50,48,4fc8b16ebb3d4fef5f66bb7d,Per Te,50.075416,14.441729,Italian Restaurant
2857,1439,50.13549999999999,14.495,3,1,4fcc8453e4b05b503523d75d,Panjabi Food,50.137229324117136,14.501257504100687,Indian Restaurant
517,187,50.07776092933239,14.42449930860426,44,40,4fdc927ae4b06f6984dafab7,chilli con carne contest,50.07991409301758,14.425490379333494,American Restaurant
1547,129,50.0355,14.332199999999998,4,2,4fdcf034e4b0654045b2c766,Ristorante Stefano,50.03649386573,14.327749226271498,Italian Restaurant
1618,200,50.0455,14.4062,4,3,4fde0ebce4b044d93bdbcca2,Cinska restaurace,50.04571151733398,14.40980625152588,Asian Restaurant
2123,705,50.0755,14.4654,23,8,4fe17efad5fbe9b00fab8565,Zlatý orel,50.07845973002645,14.461138204592169,Asian Restaurant
1113,783,50.0832390706676,14.424500038617733,50,5,4fe1a398e4b0fd188c25208a,Al Karim,50.08375597821392,14.42759905848413,Indian Restaurant
907,577,50.0832390706676,14.409700038617736,9,8,4fe34644e4b01d366a1e55d1,"Restaurant ""Samarkand""",50.08214919239279,14.40770476354631,Asian Restaurant
2647,1229,50.1055,14.4062,8,5,4fe45feee4b037f4b6240680,Ruské speciality,50.10311889648438,14.402202606201172,Eastern European Restaurant
1528,110,50.0255,14.4358,7,5,4fed9433e4b003445a1a80ac,Restaurace Jílovská,50.02590560913086,14.431217193603516,Italian Restaurant
1560,142,50.0355,14.4062,8,6,4fef311de4b0ff692bd16d75,obcerstveni U Bejvaleho Koupaliste Pod Barrandovem,50.03682327270508,14.40285873413086,American Restaurant
2167,749,50.0855,14.3174,1,0,4ff09466e4b07e8f748d6c5e,Villa St. Tropez,50.08350796235401,14.319074936962089,French Restaurant
2547,1129,50.0955,14.4358,32,26,50042565e4b093944d982a93,Ethnocatering,50.098653857703674,14.434945550719073,Middle Eastern Restaurant
2838,1420,50.1255,14.5098,4,1,50054b12e4b069fdd83812ae,U Huberta,50.124022566590405,14.505463351894536,Vietnamese Restaurant
2135,717,50.0755,14.4654,23,20,500be6e5e4b067574ee88776,Spirito dell' Italia!,50.078433000000004,14.461006,Italian Restaurant
841,511,50.08776092933239,14.402699961382265,39,13,500c4f84e4b0e68938a17fb7,Aquarius Restaurant,50.087558,14.400797,Mediterranean Restaurant
2709,1291,50.1055,14.4802,17,4,500d2e91e4b093845411eb28,C&P,50.10327914259069,14.47492817513634,Vietnamese Restaurant
1197,867,50.08776092933239,14.432299961382265,35,32,500d6567e4b07352bd52f4f5,Bezďácký Schromáždění,50.087871,14.42978,Arepa Restaurant
1511,93,50.0155,14.4654,1,0,500ee9a9e4b04d4cc27e58f1,U Rybáre Josefa,50.011241317600785,14.463310270950725,Middle Eastern Restaurant
2888,1470,50.1555,14.3174,1,0,500eecb0e4b0d914ef2102c8,grill & steakhouse HANKA,50.158943771557276,14.320678330202014,American Restaurant
2124,706,50.0755,14.4654,23,9,500fc621e4b087cdfab89177,Asia Special,50.07722493454268,14.463661874791402,Asian Restaurant
1615,197,50.0455,14.4062,4,0,50111a97e4b0e3a6f328452c,Jelica,50.04824686028601,14.408246151684267,Eastern European Restaurant
2466,1048,50.0955,14.4062,30,2,501484d8f136faed82da8039,Yam Yam,50.09843694790956,14.402950243538527,Thai Restaurant
852,522,50.08776092933239,14.402699961382265,39,24,5019a6bae4b07abf17be7644,Cognac,50.087649,14.404229,French Restaurant
2099,681,50.0755,14.4506,50,34,502268493950f82cd4b6cfd2,Saigon Bistro,50.07159779324139,14.451056661375182,Vietnamese Restaurant
2156,738,50.0755,14.5394,12,7,50229546e4b0600fbbcfba8a,Wok Food,50.07419495249236,14.539362611629812,Fast Food Restaurant
2505,1087,50.0955,14.421,27,11,502645f3e4b0aa1674f38277,Indická restaurace Haveli,50.09325109470925,14.420027281793402,Indian Restaurant
2711,1293,50.1055,14.4802,17,6,5028040de4b0a90de2f05466,Yu Xiang Lou,50.105213851556606,14.474074244499205,Chinese Restaurant
1717,299,50.0555,14.4358,14,10,502a24d4e4b0b12f24616aa6,U Nevinejch,50.05986045598384,14.437283237876196,Chinese Restaurant
1507,89,50.0155,14.4358,5,3,502e04f3e4b0b5d01c765bd2,U Baru,50.01768213436754,14.436123726998234,Australian Restaurant
2839,1421,50.1255,14.5098,4,2,502e7ccce4b0504d9de7349a,Knorrohrad,50.122822373238755,14.505184221881088,Vietnamese Restaurant
54,54,50.082108606001405,14.415750024616829,7,6,5036226ee4b0088cc6247f3e,Pizza Coloseum,50.081481793580295,14.4150991933373,Italian Restaurant
2861,1443,50.13549999999999,14.5098,5,2,503c7de5fe7074fd9e039d0e,Jin Yu Fan Dian,50.13583340247388,14.510289430618286,Chinese Restaurant
1800,382,50.0655,14.421,26,6,504225d4e4b0711880b2718c,Thanh Tam,50.067298167009255,14.421417567145474,Asian Restaurant
2432,1014,50.0855,14.5542,2,0,50437980e4b0068b21427ad1,Pho 555 U dvou pani,50.08662172548007,14.556935534630663,Vietnamese Restaurant
1889,471,50.0655,14.495,9,4,5045d28ae4b0a30df0917549,Kantýna  Poslední možnost,50.06501456799163,14.494948012926946,Eastern European Restaurant
557,227,50.0755,14.4358,50,28,50488df5e4b0b821a91e40ed,Quán Hai Duong,50.075345188527784,14.43383393018425,Vietnamese Restaurant
1418,0,49.9755,14.2878,1,0,504f01bee4b04ce0b2ac95b4,Hostinec U Kalinů,49.972534551616356,14.28788047910075,Eastern European Restaurant
232,232,50.086630464666186,14.415749859519455,12,10,5050cfc0e4b04e8a4c5ffdd8,Kressmann,50.0871,14.4146,Eastern European Restaurant
1531,113,50.0255,14.4506,2,1,50519de2e4b0b0fc413755d7,sushitime.cz sushi&wok delivery,50.02937567286091,14.448989463094494,Sushi Restaurant
1444,26,49.9955,14.6578,5,0,5051f57be4b0c099eb981f0a,Vagner Autofettškola,49.993064000000004,14.65735,American Restaurant
1359,1029,50.09776092933239,14.447099230957482,8,4,505301cfe4b017bb253a15af,Bistro Palma Huong Tien,50.099257334900685,14.446192749737484,Asian Restaurant
1257,927,50.08776092933239,14.447099961382266,14,0,5055c5f0e4b0c6b6867a9f16,Indian by Nature,50.08931401822865,14.44500001466126,Indian Restaurant
1663,245,50.0455,14.4506,38,32,50583df3e4b0874f42cac70b,Potrefená Husa,50.044365359674785,14.449182765073669,Czech Restaurant
2655,1237,50.1055,14.4358,11,3,50589e4890e7b6323af625e0,Vietnam fast food SH,50.102540000000005,14.433081,Vietnamese Restaurant
1748,330,50.0555,14.5246,6,4,505c9535e4b0bcb21328f872,LuckyCina,50.05369153781235,14.518420723706944,Chinese Restaurant
1797,379,50.0655,14.421,26,3,50619570e4b0293cde43f010,rest.,50.06151327757964,14.418951299148441,Modern European Restaurant
1485,67,50.0055,14.569,11,2,5061e537e4b0e6adc9bd4875,Restaurace U Křapáčka,50.00292768261743,14.572799320094724,Eastern European Restaurant
2120,702,50.0755,14.4654,23,5,50642a45e4b0ea46e3b59261,GinZa Running Sushi,50.07863582107524,14.461012000151445,Sushi Restaurant
1605,187,50.0455,14.3174,8,5,50644a9172da6adcf7b1de8e,Wan Fu Lou,50.041517150145495,14.315862810990266,Chinese Restaurant
696,366,50.0732390706676,14.439299308604259,37,12,5064c580e4b010535569b11b,Steak House J.J. 66,50.07341766357422,14.43763256072998,American Restaurant
1551,133,50.0355,14.3766,3,1,506757aae4b0c7c051e7882c,predvadecka Viet Nam,50.0369873046875,14.371424674987793,Asian Restaurant
2800,1382,50.1155,14.6134,4,2,506ebbefe4b002a940030f9f,Cinska Restaurace,50.114745,14.608882000000001,Chinese Restaurant
1597,179,50.0455,14.302599999999998,3,0,507af140e4b08350ed0b9d39,Kolkovna Stodůlky,50.04683033394186,14.305963091800349,Czech Restaurant
1463,45,50.0055,14.421,9,8,507bcab9e4b025807aec2236,Chinese Food s.r.o.,50.00759700021069,14.416767223282466,Fast Food Restaurant
296,296,50.088891393998594,14.422749936754926,13,10,507eff83e4b0705ee54ec080,Staromáček Traditional Czeck,50.088774999672296,14.421875571672757,Czech Restaurant
1694,276,50.0555,14.3174,1,0,50867065e4b046720b29ffa6,Bistro u Báby,50.054947999999996,14.311271,Eastern European Restaurant
638,308,50.0732390706676,14.432300691395733,43,28,5089ab02e4b032d8bd1e5c6d,kmostra,50.07210683903103,14.43366158490206,Italian Restaurant
2744,1326,50.1055,14.495,28,22,508fcaede4b0e6b4428ca4b0,Sajado,50.10413159569479,14.491110210319036,Chinese Restaurant
1729,311,50.0555,14.4506,10,8,509123a2e4b061e9d6e5bba8,Nin Hao,50.052300575649774,14.454948418789225,Chinese Restaurant
2518,1100,50.0955,14.421,27,24,509904dbe4b01cb1b0d312ca,Jídelna Gymnázium Dušni´,50.09164681544408,14.420270107240665,Middle Eastern Restaurant
2862,1444,50.13549999999999,14.5098,5,3,509ec0a3e4b0307537685ccc,Roso 10,50.13775253295898,14.5152530670166,American Restaurant
2878,1460,50.1455,14.5098,3,0,50a373aae4b056e2fef06dab,U automatu na snickers,50.143425,14.509034,American Restaurant
297,297,50.088891393998594,14.422749936754926,13,11,50a7c206e4b041e7e10b2dd2,george tapas,50.08820934145501,14.423227965341272,Tapas Restaurant
1569,151,50.0355,14.4802,3,0,50acbea3e4b07823f23dbc56,bread & water,50.03454504700678,14.485364735239196,Czech Restaurant
592,262,50.07776092933239,14.432300691395733,31,13,50ae065ae4b0441cd7bde4e3,Cafe Buddha,50.078742274306954,14.435156190149794,Sushi Restaurant
1627,209,50.0455,14.4358,7,3,50af66afe4b0823456b0320c,Mediterrâneo Restaurante,50.04366120581589,14.439587679314402,Mediterranean Restaurant
1266,936,50.08776092933239,14.447099961382266,14,9,50b22e97e4b02b50160c78c0,Salaam namaste,50.08696365356445,14.44684600830078,Indian Restaurant
2121,703,50.0755,14.4654,23,6,50b4a01be4b0316e372bdd63,Thai Spice,50.0783502523876,14.46116571951773,Thai Restaurant
679,349,50.07776092933239,14.439299308604259,31,26,50b6036fe4b0fe7a423aa2f4,VietFood Point,50.07766209194873,14.438276353602465,Vietnamese Restaurant
1480,62,50.0055,14.4802,10,7,50bcb602e4b03830336f622d,Quán Thiên Hành phở,50.0024027548535,14.47573843389405,Vietnamese Restaurant
1194,864,50.08776092933239,14.432299961382265,35,29,50c3924fe4b04a2d9ce6c482,Galetka creperie,50.08792495727539,14.429526329040527,French Restaurant
2834,1416,50.1255,14.495,6,3,50c48e6fe4b0e121088a38f4,Asian Bistro,50.12130819364814,14.493672872172285,Vietnamese Restaurant
1654,236,50.0455,14.4506,38,23,50c7320af136fcb36401c5bf,Kebab to go,50.04670207382493,14.4464635848999,Doner Restaurant
514,184,50.07776092933239,14.42449930860426,44,37,50d9edb6e4b0421e71632523,Caffe & Pizzeria,50.077647999999996,14.424904999999999,Italian Restaurant
2203,785,50.0855,14.3914,14,9,50e2e73fe4b0471660cf3139,U Václava II,50.08894881810518,14.394937897319865,Eastern European Restaurant
1742,324,50.0555,14.5098,7,5,50e57659e4b0daef00bb1f12,Čínská kuchyně,50.056809,14.506922,Asian Restaurant
2461,1043,50.0955,14.3914,6,3,50e5cb72e4b0869d16fff6ec,CD Restaurant,50.099853,14.390506,Eastern European Restaurant
674,344,50.07776092933239,14.439299308604259,31,21,50e8582fe4b036fe4d37f9e6,Sen,50.0762041665902,14.44141623384067,Vietnamese Restaurant
2801,1383,50.1155,14.6134,4,3,50ef338be4b098414e6c6e62,Döner kebab,50.11224538734137,14.618132184343365,Turkish Restaurant
1496,78,50.0055,14.6578,5,1,50f14ed3e4b0c27bd4bd6aef,Chinese Food,50.00273238278271,14.65881106464968,Chinese Restaurant
378,48,50.0732390706676,14.402700691395738,32,19,50f18a4fe4b0263d65c97889,Babička Restaurant,50.07158508985033,14.401576775274474,American Restaurant
2448,1030,50.0955,14.332199999999998,2,1,50f5ab99e4b011795765252b,Restaurace Hacienda,50.09284973144531,14.328519821166992,Mexican Restaurant
2414,996,50.0855,14.4654,18,6,50f83061e4b06fb43e2a5bef,Kebab Atlas Montes,50.08901784573556,14.461811443793867,Doner Restaurant
2502,1084,50.0955,14.421,27,8,50f835eee4b0676be525bcb1,Hoàng An,50.09972476009922,14.423215053313974,Vietnamese Restaurant
1512,94,50.0155,14.4802,3,0,50f99cd9e4b0c9eea0a558e9,Lokál U Zavadilů,50.014078140898114,14.485525739807711,Czech Restaurant
1676,258,50.0455,14.5098,1,0,5101b0ffe4b02714bfd22ac4,Žrádelna,50.04454040527344,14.516594886779785,Asian Restaurant
1358,1028,50.09776092933239,14.447099230957482,8,3,5107b8e8e4b0bf4055b56ca2,ŇamŇam,50.0997833922774,14.44623588115068,Vietnamese Restaurant
1658,240,50.0455,14.4506,38,27,5108e417e4b0301b9e4b7127,Palačinkárna ve vestibulu,50.043301,14.452785999999998,French Restaurant
609,279,50.07776092933239,14.432300691395733,31,30,510eb3b5e4b0873bcc46130b,Chef Restaurent&Garden,50.07693796745371,14.429075989118845,French Restaurant
1901,483,50.0755,14.3174,3,0,51168ac9e4b003046fc5b8b6,Tengiz/U Gruzína,50.07542595939506,14.319084661163757,Caucasian Restaurant
1558,140,50.0355,14.4062,8,4,5122229ce4b0a44108dd61f2,Deli shop,50.037628999999995,14.412075,French Restaurant
753,423,50.07776092933239,14.447100691395738,18,12,5122655de4b09c465689ed31,Kabuki Sushi,50.07838421227978,14.445949269229887,Sushi Restaurant
2545,1127,50.0955,14.4358,32,24,512cb169e4b0510335d43116,Kristallis Řecké Speciality,50.09691136787639,14.430901647274018,Greek Restaurant
151,151,50.0855,14.421,25,23,5134e355e4b0316024424466,Alternative,50.08525492037979,14.41974708946741,Cuban Restaurant
1838,420,50.0655,14.4358,27,18,5134e59fe4b0ca4edc9e6dd1,Vietnamec S Medvidkama,50.06482092740667,14.440130038709171,Chinese Restaurant
1884,466,50.0655,14.4802,3,2,51371cd1e4b052e6ae8a1c38,Restaurace BOBR,50.06880219614328,14.477085934815968,Middle Eastern Restaurant
2691,1273,50.1055,14.4506,38,28,51387c1be4b0245fe0f6a8f2,Natomash,50.10509690951945,14.452475652982034,Sushi Restaurant
120,120,50.08436953533379,14.42624997538317,7,5,51431a59e4b0601fdc9674dc,Wang Dong Sheng,50.08489145571824,14.425612217746675,Chinese Restaurant
856,526,50.08776092933239,14.402699961382265,39,28,5149e8f3e4b0631e0b4db7bc,Conzone,50.087724,14.405467999999999,Italian Restaurant
2763,1345,50.1055,14.5838,14,2,514c6a95e4b00eabdf0422fe,Running Sushi Sumo,50.108660477079475,14.58594264502965,Sushi Restaurant
2769,1351,50.1055,14.5838,14,8,514df085e4b07af147d9108a,Rancheros,50.10871141360853,14.585884926202972,Mexican Restaurant
2735,1317,50.1055,14.495,28,13,5150923de4b045dfb58ef5dc,Vistar Fast Food,50.105886226883925,14.490247255250877,Vietnamese Restaurant
597,267,50.07776092933239,14.432300691395733,31,18,5152db45e4b088d76f861eb4,Cafe Restaurant Sklenik,50.076843,14.431227999999999,Eastern European Restaurant
787,457,50.07776092933239,14.454099308604262,21,19,51547b66e4b01b725111eae6,Tapas Bar,50.076888000000004,14.453792000000002,Tapas Restaurant
2330,912,50.0855,14.4358,50,22,515d4a21e4b0bf891382152a,Viet Flavour,50.085403,14.44087,Vietnamese Restaurant
2860,1442,50.13549999999999,14.5098,5,1,515dbd5ee4b0bf89170a3b82,Gusto original Kebab,50.137329,14.516051000000001,Turkish Restaurant
527,197,50.0732390706676,14.42449930860426,8,6,515f2771e4b090b9d03eeb0d,Peklo,50.07168847133976,14.426024269207486,Eastern European Restaurant
567,237,50.0755,14.4358,50,38,515fe379498eebfea7bfac21,Hai Anh Restaurant,50.07541070112004,14.433859370014641,Vietnamese Restaurant
2889,1471,50.1555,14.5098,1,0,516012ebe4b0db6203767d15,restaurant Maximum,50.151424,14.512660999999998,Middle Eastern Restaurant
1809,391,50.0655,14.421,26,15,51609f7ae4b00021047fdef2,L'Italiano,50.065124473690034,14.424701382256838,Italian Restaurant
2164,746,50.0755,14.642999999999999,4,2,516164d4e4b0b76d476b69d9,Kai Restaurant,50.0791475140036,14.641967882742515,Asian Restaurant
2767,1349,50.1055,14.5838,14,6,516198a1e4b05eefc69076d1,Šmak České kuchyně,50.108657270170355,14.585913492790606,Fast Food Restaurant
2670,1252,50.1055,14.4506,38,7,5163ecfae4b0d9e61549b577,Express Kebab,50.1076854403979,14.448094941399408,Doner Restaurant
2546,1128,50.0955,14.4358,32,25,516429d9e4b07dd55857e1b4,French Garden,50.09269108068059,14.439984700498126,French Restaurant
1859,441,50.0655,14.4506,24,12,516aeae5e4b0184c2fccd8f1,Hao Bi Lai,50.06803894042969,14.454548835754395,Chinese Restaurant
2498,1080,50.0955,14.421,27,4,516bdb30498ee0be2465742e,Curry Palace,50.09925,14.42319,Indian Restaurant
2490,1072,50.0955,14.4062,30,26,516d3307498e46a56892676d,Liči fast food,50.09863628261074,14.404303506281279,Vietnamese Restaurant
2793,1375,50.1155,14.5986,6,1,51719331e4b016605a330fcd,Špejchar,50.11184514456662,14.596894783447375,Czech Restaurant
1808,390,50.0655,14.421,26,14,5172f99ee4b03b4661f28bc2,Malý vesmír malé Ar,50.065608000000005,14.424895999999999,Sushi Restaurant
2796,1378,50.1155,14.5986,6,4,517564e3e4b049eeb4f36639,Atelier Fiala - Restaurace Špejchar,50.11182364488478,14.597747337304131,American Restaurant
648,318,50.0732390706676,14.432300691395733,43,38,51765aebe4b09e855c9cdd17,U Divadlo,50.072578862834966,14.431936071270444,Eastern European Restaurant
450,120,50.07776092933239,14.417500691395738,35,21,5177aa2fe4b0b3a24973a84b,Babroszza,50.07774353027344,14.41810131072998,Indian Restaurant
230,230,50.086630464666186,14.415749859519455,12,8,5177d6531648d521c413165b,Karlova Street PUB,50.08599149979777,14.41554307937622,Eastern European Restaurant
147,147,50.0855,14.421,25,19,517903d0e4b04315187fc586,Česká Kuchyně,50.085679155175235,14.421564259913206,Czech Restaurant
1626,208,50.0455,14.4358,7,2,517c68abe4b0cb790131af91,Pecak lele,50.04356569999999,14.436551500000002,Greek Restaurant
2436,1018,50.0855,14.5838,2,1,517d31cde4b0eef57c645795,Čínská restaurace,50.0854586815833,14.5780177352789,Asian Restaurant
2668,1250,50.1055,14.4506,38,5,517e3b28e4b0eef58378b483,ThanhTam,50.1032142130699,14.447243335251963,Vietnamese Restaurant
2625,1207,50.1055,14.3914,19,2,517e5222498eb2ed94232827,Mei Li Cheng,50.10749518997285,14.394509023890837,Chinese Restaurant
2544,1126,50.0955,14.4358,32,23,51801af2498eedb4cfb5b058,Nadal Boat Tour,50.095009999999995,14.439682000000001,Eastern European Restaurant
2747,1329,50.1055,14.495,28,25,51838fd6498e0f16602ed194,German Togo,50.104198,14.49102,German Restaurant
329,329,50.086630464666186,14.426250140480542,10,9,518401fa498e34bf97b7c28f,Zlaty Lev,50.086561812108535,14.425340267303277,Eastern European Restaurant
1646,228,50.0455,14.4506,38,15,5188d1ba498eb86ce5077c88,Cây Tre,50.04580068148308,14.44851200305521,Vietnamese Restaurant
1719,301,50.0555,14.4358,14,12,5188d7e8498ee05ee5205b96,boombo nambo,50.05310428399888,14.437865017806836,Asian Restaurant
1493,75,50.0055,14.569,11,10,518cd17b498ed22452e674b8,Lucky Star,50.004975,14.572587,Asian Restaurant
713,383,50.0732390706676,14.439299308604259,37,29,51927b13498ed7a62ecb53f2,Café Lounge Marrakesh,50.073858,14.442210000000001,Moroccan Restaurant
1625,207,50.0455,14.4358,7,1,519286dc498e115e80c23d1e,Gmg Dům,50.042003,14.437660999999999,Afghan Restaurant
2190,772,50.0855,14.3766,12,8,51951036498e9947ec266481,Kredenc,50.085440000000006,14.380198000000002,Italian Restaurant
1659,241,50.0455,14.4506,38,28,51960259498ea38f9d308ff5,Bistro Pára,50.04746061396781,14.445345424595859,Eastern European Restaurant
643,313,50.0732390706676,14.432300691395733,43,33,51974b9d498eb829e27043da,U Mlsnyho Bobra,50.07413599106303,14.429261129041073,Italian Restaurant
2616,1198,50.0955,14.495,5,4,5197ada5498e8d15d9ec5888,Restaurace Nad Smetankou,50.09413134080614,14.500314594402756,Italian Restaurant
2507,1089,50.0955,14.421,27,13,519b6876498ecbd059be499a,Mr. Pollo,50.09989547833968,14.421860569231816,American Restaurant
2445,1027,50.0955,14.2878,10,8,519de820498ed7d827cd0456,Cactus,50.09301292456874,14.291300955688493,Mexican Restaurant
704,374,50.0732390706676,14.439299308604259,37,20,51a0ce81498ef68239fdeace,Oblíbené Čínské Bistro,50.07542418514753,14.439749695431724,Chinese Restaurant
1834,416,50.0655,14.4358,27,14,51b1c2b4498e4444bd5a4c35,Teppanyaki Restaurant Jui Zhou,50.06554257215732,14.439662919303546,Asian Restaurant
1586,168,50.0355,14.5246,4,3,51b33221498e781d02f59860,Čínská restaurace,50.033155607796964,14.526861949978844,Chinese Restaurant
1484,66,50.0055,14.569,11,1,51b46915498ecf6ac98b7686,Asia Express,50.00337943743217,14.573818065219287,Chinese Restaurant
1578,160,50.0355,14.5098,6,1,51b7787f498ec15d5a199142,Curry Masala,50.036615999999995,14.513955599999997,Indian Restaurant
2435,1017,50.0855,14.5838,2,0,51bf6ee8498edd1e3e4db54f,Al Mulino,50.088225156464226,14.581744762094267,Italian Restaurant
512,182,50.07776092933239,14.42449930860426,44,35,51c028a7498ec7d238438b2d,Halal Meat,50.07855047524101,14.423974148663676,Turkish Restaurant
2703,1285,50.1055,14.4654,4,2,51c3527e498eaf8df0aa932d,Meteor Praha Restaurace,50.108977418726674,14.467461525982866,Eastern European Restaurant
1691,273,50.0555,14.2878,10,7,51c430d4498e538e552e7568,Delicato Restaurant,50.05632592549603,14.287373040359613,Italian Restaurant
1561,143,50.0355,14.4062,8,7,51c5cea6498ed6347f66aeb2,Steigenberger Restaurant,50.03605278229744,14.412702575665884,German Restaurant
2772,1354,50.1055,14.5838,14,11,51c74b29498e8a3a7304baa6,July 10,50.10771889999999,14.585467699999999,Italian Restaurant
1671,253,50.0455,14.495,6,1,51c8a595498e8699347aef9f,Hanedan,50.04232153511742,14.499133038024222,Turkish Restaurant
2478,1060,50.0955,14.4062,30,14,51c9fb92498e006605574362,Malý ráj,50.09868250076515,14.404299070594158,Eastern European Restaurant
2784,1366,50.1155,14.4654,5,3,51d72310498ebac676d7833c,Na Korábě,50.11479220683522,14.47045786008325,Czech Restaurant
1906,488,50.0755,14.3766,2,1,51d92fc9498ef5832d0ada9d,Jungledyret Hugo's,50.07211201921061,14.372413671618526,Scandinavian Restaurant
449,119,50.07776092933239,14.417500691395738,35,20,51d97a5b498e9d28f0a4f4bf,Čas na jídlo,50.07693111606944,14.415158438998947,Eastern European Restaurant
1035,705,50.0832390706676,14.417499961382266,50,27,51daf2e5498eeedbd20cf17d,Oliva Nera,50.08413354031839,14.41711636456988,Italian Restaurant
1442,24,49.9955,14.5542,1,0,51dba0a6498e3552f72cf119,Babiččina Zahrada,49.996493006483895,14.550068914636805,Czech Restaurant
2821,1403,50.1255,14.4654,9,2,51dd3922498e0b05c591dd61,Jídelna AV ČR U Slovanky,50.125334,14.467642999999999,Eastern European Restaurant
2836,1418,50.1255,14.495,6,5,51e5892e498e7deddc240f37,U Plotny,50.12508770726615,14.499551749608464,Cuban Restaurant
680,350,50.07776092933239,14.439299308604259,31,27,51e674c3498ea8b473c0b445,PHỞ Vietnamese restaurant,50.078344171128165,14.438254089045536,Vietnamese Restaurant
1894,476,50.0655,14.5098,3,0,51ea7f48498ecb556e3e9305,Čínská restaurace Skalka,50.06810294615284,14.508930341063905,Chinese Restaurant
1535,117,50.0255,14.495,6,3,51ee4c64498e08cbc422b642,Výdej Na Květnici,50.02677399804613,14.49646842640293,Eastern European Restaurant
1536,118,50.0255,14.495,6,4,51ee4dfe498ed79a4cf52d05,Výdej Indian By Nature,50.026878246672716,14.496695059078634,Indian Restaurant
1878,460,50.0655,14.4654,11,7,51ee646d498e67b0e9070055,Prima bašta,50.06793309659706,14.468795474820652,Czech Restaurant
2539,1121,50.0955,14.4358,32,18,51f01df8498eddd7a05c7ce1,U Kachny,50.098932,14.432433999999999,Asian Restaurant
1533,115,50.0255,14.495,6,1,51f0ee00498e51a8c0e0ebf8,Výdej Perla orientu,50.026846696072724,14.496621194617125,Chinese Restaurant
1716,298,50.0555,14.4358,14,9,51f2787a498efcc20075d796,Staročeská Bašta,50.052513122558594,14.438186645507812,Eastern European Restaurant
2108,690,50.0755,14.4506,50,43,51f6440e498e8a09d5739468,Orientalni Speciality,50.075113,14.444456,Asian Restaurant
1784,366,50.0655,14.4062,22,12,51f926cc498e0220a7749e9d,Pubstvi,50.06169872525565,14.40913111831686,Eastern European Restaurant
528,198,50.0732390706676,14.42449930860426,8,7,51fbb987498ee94bf7ac895a,Kaštágo :D,50.07335061839699,14.427662164784119,American Restaurant
2202,784,50.0855,14.3914,14,8,51ff8c70498ea1550c95f699,Kuchynske studio Unilever Food Solutions,50.08783813764086,14.38802884232095,Middle Eastern Restaurant
1705,287,50.0555,14.421,4,2,5204cab9498e65ea9fbb6ad6,Chilli pizza,50.05889129638672,14.4215669631958,Indian Restaurant
1786,368,50.0655,14.4062,22,14,520506d6498ea99be4a27e12,Scharlota cafe,50.068640706918146,14.404206986875426,Eastern European Restaurant
2650,1232,50.1055,14.421,2,0,520b633111d25cde862eb9cb,Masala,50.101213,14.421612,Indian Restaurant
1545,127,50.0355,14.332199999999998,4,0,5211fc3611d2322766905b3a,Kastrol,50.03692645884332,14.333966795567115,Czech Restaurant
1880,462,50.0655,14.4654,11,9,5215e0af11d2e21ec25ef3eb,Na Louži,50.066459822468865,14.458998729772253,Eastern European Restaurant
1280,950,50.0832390706676,14.447099961382266,14,9,521e0193498ee194ca92ae30,Terran Supply Depot,50.08212661743164,14.445096015930176,Eastern European Restaurant
1307,977,50.08776092933239,14.454100038617733,24,22,5221d7f311d219b35bbc3c0f,Bao Zi Wang,50.08637884168855,14.455498318154989,Asian Restaurant
1460,42,50.0055,14.421,9,5,52245e35498e7286e2d3faf7,Čínské občerstvení,50.00715003625768,14.416217421941534,Asian Restaurant
1840,422,50.0655,14.4358,27,20,5224bf17498e0d15d18c2662,House of Brasil,50.06862643690711,14.432569768086614,Brazilian Restaurant
2880,1462,50.1455,14.5098,3,2,522d8434498e7ffcff376d18,u automatu s jídlem,50.143401000000004,14.508973999999998,American Restaurant
641,311,50.0732390706676,14.432300691395733,43,31,52334ce011d2bbaf2c8ead9b,Škuner klub.,50.07147216796875,14.433398246765135,Cajun / Creole Restaurant
1881,463,50.0655,14.4654,11,10,5236e53911d27fbacdb870b6,Tráva,50.06655180148349,14.458949985748296,African Restaurant
1476,58,50.0055,14.4802,10,3,523ed335498e092fa2d14807,Lan dề,50.002386409000636,14.475311045316452,Vietnamese Restaurant
1264,934,50.08776092933239,14.447099961382266,14,7,523f37d111d25bd2a8ab5ec0,Spiceindia,50.08678,14.446554999999998,Indian Restaurant
1331,1001,50.0832390706676,14.454100038617733,29,22,523f386911d2740f439f81c6,Restaurace U sýkorky,50.08278671681911,14.453529209031815,Eastern European Restaurant
788,458,50.07776092933239,14.454099308604262,21,20,524183cd498ed7016ee43659,Hui Bin Ge,50.07800391841465,14.454086342585544,Chinese Restaurant
598,268,50.07776092933239,14.432300691395733,31,19,52440ad8498e917282370d71,Orient restaurant,50.079660856471605,14.431104383560886,Afghan Restaurant
1336,1006,50.0832390706676,14.454100038617733,29,27,5249a37311d2f2655e10b66c,"Zlato, co si dáš?",50.08449861419557,14.454787126708622,Italian Restaurant
2879,1461,50.1455,14.5098,3,1,524be39a11d299c8c918edb7,Blue Orange Restaurant,50.14420615585613,14.506789085221849,Middle Eastern Restaurant
1652,234,50.0455,14.4506,38,21,52526c7593cd62672fe1f46e,Binh Minh,50.045798404292434,14.447782926762367,Sushi Restaurant
736,406,50.0755,14.4506,20,15,52603f1911d29f84c11cda63,Restaurace Ambrozie,50.074607,14.450282999999999,Eastern European Restaurant
1606,188,50.0455,14.3174,8,6,5266459611d249cc6f607ebe,Döner kebab,50.044869388894604,14.321553111076355,Doner Restaurant
2462,1044,50.0955,14.3914,6,4,527013ff11d23cff8d2f6195,Dinner @ Diplomat Hotel,50.09982707094491,14.390296902425414,Eastern European Restaurant
2806,1388,50.1255,14.421,6,1,5275066f11d2462ff8b22dfb,Červený Korál,50.12768535527192,14.417831164097517,Asian Restaurant
1740,322,50.0555,14.5098,7,3,52827264498eb4e4f553e451,CHU čínský wok sushi restaurant,50.05698889739154,14.507535998810944,Asian Restaurant
669,339,50.07776092933239,14.439299308604259,31,16,5284d9fa498e837d0e8d9d9e,Sen Vietnamese Restaurant,50.076402374116135,14.44000380632153,Vietnamese Restaurant
1419,1,49.9755,14.347000000000001,1,0,5288a60d11d2ab3eb0023ede,Chalkodum U Babicky,49.97577365014979,14.34573164232105,Eastern European Restaurant
595,265,50.07776092933239,14.432300691395733,31,16,528a0079498e63a62068b322,Bongsen Restaurant,50.07817063774683,14.433266676839215,Asian Restaurant
1749,331,50.0555,14.5246,6,5,528a40c411d22424c75529e7,Restaurace Pyramida,50.05393099785146,14.51831008610349,Middle Eastern Restaurant
1142,812,50.0832390706676,14.424500038617733,50,34,528a5355498e49cc5e597a79,Fu Man Lou,50.08413867637722,14.424308212123348,Asian Restaurant
2652,1234,50.1055,14.4358,11,0,528bcbf311d263348e766d98,Valcha Holešovice,50.103761999999996,14.432068,Czech Restaurant
1735,317,50.0555,14.495,4,2,528f332f498ea0da21e18958,Cinska restaurace Hua Long,50.056110323229895,14.49870312242689,Chinese Restaurant
2192,774,50.0855,14.3766,12,10,528f611611d2e8b7834fcbc3,Jin Yu Lou,50.08414276947227,14.37301357380267,Chinese Restaurant
1085,755,50.08776092933239,14.424500038617733,50,27,52935dd311d2e71688d1162e,Food Market By Kogo,50.088367669924146,14.421548442077064,Italian Restaurant
1505,87,50.0155,14.4358,5,1,52974e38498ebdfdca66d017,Čínské Hody,50.01693344116211,14.432306289672852,Asian Restaurant
2810,1392,50.1255,14.421,6,5,529f5d5711d2a8f85e2170a3,Palác Food,50.127662494758255,14.417706703737664,Chinese Restaurant
2864,1446,50.13549999999999,14.5246,1,0,52a9ed7a11d27d7e4edce104,HC Catering,50.134035,14.518075,Arepa Restaurant
2640,1222,50.1055,14.3914,19,17,52aaf0d611d22b9758681cff,Caishen,50.10502891736624,14.394546747207642,Chinese Restaurant
1867,449,50.0655,14.4506,24,20,52ace60711d2db47f66fd18e,Krutaparty,50.067368,14.455732000000001,American Restaurant
1392,1062,50.0932390706676,14.447099230957482,32,29,52b02f81498e42beb9f8ad24,Karlínský anděl,50.09252942912146,14.448311522575473,Eastern European Restaurant
1566,148,50.0355,14.421,5,4,52c0607511d21c6e770fb49f,Restaurace Za Školou,50.038246154785156,14.424221992492676,Eastern European Restaurant
1812,394,50.0655,14.421,26,18,52c97788498ee1e3e2f401ce,Nejlepsi Vecerka,50.066918527631024,14.420089976952948,Vietnamese Restaurant
1858,440,50.0655,14.4506,24,11,52d2999511d226e55fd633df,Arirang Sushi Grand Restaurant,50.069033731810045,14.452333322293383,Korean Restaurant
2631,1213,50.1055,14.3914,19,8,52d5ad1c11d24a85666354ea,Kebab Star & Pizza,50.10674587439669,14.394538601188405,Doner Restaurant
1534,116,50.0255,14.495,6,2,52de6686498e7be46a1d0b61,DHL ITS_lunch point_Vietnamese,50.027428,14.494584,Vietnamese Restaurant
314,314,50.088891393998594,14.426250140480542,14,8,52e0f696498e567ccf6ae38d,Trattoria Mercato,50.088570000000004,14.427048000000001,Italian Restaurant
459,129,50.07776092933239,14.417500691395738,35,30,52e697ea498e2701cb125322,xing wang ge,50.076925,14.415168,Asian Restaurant
1903,485,50.0755,14.3174,3,2,52f5384c498ea44f861c0251,Na formance,50.075471,14.314983999999999,Czech Restaurant
1841,423,50.0655,14.4358,27,21,52f8fb1511d21d90e4b9091b,Concordia Ristorante,50.063936562000464,14.44026921387704,Italian Restaurant
1733,315,50.0555,14.495,4,0,52fa4f6f498ea1a6d49e0a6d,ASIA Restaurant,50.05648565802733,14.497686393823287,Asian Restaurant
1861,443,50.0655,14.4506,24,14,52fc95a3498eca0c6d7c86f3,Čínská Restaurace Hao Bi Lai,50.06599167642581,14.453333281664426,Chinese Restaurant
1488,70,50.0055,14.569,11,5,52fcbe83498ee6723a2472bb,Prima bašta,50.00343604836325,14.573617668166337,Czech Restaurant
1792,374,50.0655,14.4062,22,20,52fcf26e11d2140dd07111bc,Akcent Restaurant,50.06816257691406,14.402987686910446,Modern European Restaurant
784,454,50.07776092933239,14.454099308604262,21,16,52ffcb1d498ea0bbff21ca04,Askania,50.07797622680664,14.454357147216795,Czech Restaurant
221,221,50.088891393998594,14.415749859519455,6,5,5300746b11d2bf4731dda68d,Hambini,50.088953000000004,14.416376999999999,American Restaurant
2426,1008,50.0855,14.4802,1,0,5301df4d498e5c1f954d993b,Simply Gastro Nagano,50.084464907431425,14.480430979578047,Czech Restaurant
141,141,50.0855,14.421,25,13,53026b24498e6da3a8242c15,Krcma v satlavske ulici,50.08573,14.419789999999999,Czech Restaurant
785,455,50.07776092933239,14.454099308604262,21,17,530f08ee498e16cf10c20bb4,Asian Eflo,50.078404067103364,14.453628143285007,Asian Restaurant
1245,915,50.0855,14.4506,31,19,5310cf25498e4aebc11c4f71,Los Banditos,50.08466525600869,14.45080125848776,Mexican Restaurant
2139,721,50.0755,14.495,6,0,5316fb88498e8bccc1580ae5,Sabroso,50.074891559314956,14.490778105537188,Mexican Restaurant
281,281,50.08776092933239,14.424500038617733,23,18,53172129498eef7d893d0b00,Erawan Prague,50.087670018299576,14.423617946304581,Thai Restaurant
2347,929,50.0855,14.4358,50,39,53185c94498ec3e4b8d22804,Rancheros,50.08934044451931,14.434922819072213,Mexican Restaurant
2320,902,50.0855,14.4358,50,12,531873cd498ea35bc74d4b82,Sushi Time,50.08933980448043,14.434896692068728,Sushi Restaurant
1506,88,50.0155,14.4358,5,2,5318829d498ea617e5747d6c,Döner Kebab,50.0151534250515,14.437429904937744,Doner Restaurant
2453,1035,50.0955,14.3618,2,1,5318b788498e21fe8abee925,Tim&Sasha's Luxury Village,50.097687469012634,14.359744397580751,Eastern European Restaurant
1758,340,50.0655,14.302599999999998,10,8,5319e8ec498e875dafda4b46,Restaurace Tequila,50.064915417714275,14.309463972101376,Czech Restaurant
1543,125,50.0355,14.3174,2,0,531b2750498e6f9db07ed37a,Restaurace Řeporyjská Sokolovna,50.03525973449121,14.313270496982026,Czech Restaurant
2174,756,50.0855,14.3618,8,0,531c6331498e2463eba06a3f,Pho Ňam Ňam,50.083371,14.363624,Vietnamese Restaurant
2551,1133,50.0955,14.4358,32,30,5322e1c7498eaebcc44d392b,Best Burger,50.099708231638616,14.43681621271461,American Restaurant
705,375,50.0732390706676,14.439299308604259,37,21,5323534c498ebdcc0c9ed0f8,Pretoria,50.07195238615295,14.436937827705508,African Restaurant
2446,1028,50.0955,14.2878,10,9,532468b6498ec770650f9941,Hebe Fresh Food,50.09366457632536,14.291262667506613,Italian Restaurant
678,348,50.07776092933239,14.439299308604259,31,25,532adb27498e3a1924270098,Jídelna 3S,50.07769775390625,14.438362121582033,Eastern European Restaurant
822,492,50.0855,14.4062,35,29,532f092b498e891dc6733aef,Restaurace u Templare,50.08678346667447,14.405987355274807,Italian Restaurant
995,665,50.08776092933239,14.417499961382266,50,37,53380b7d498ef67161ed9022,Capiccio,50.087728184870386,14.419749544712609,Italian Restaurant
284,284,50.08776092933239,14.424500038617733,23,21,533da66b498ea92059b6ba4a,Erwan,50.087763,14.423544,Thai Restaurant
1283,953,50.0832390706676,14.447099961382266,14,12,53454303498eb4d4634d445a,borivojova 97,50.08224105834961,14.44580078125,Italian Restaurant
1588,170,50.0355,14.5542,3,1,5346812d11d2993799982d70,Jídelna Gymnázium ALTIS,50.0342558057897,14.55884872316494,Czech Restaurant
847,517,50.08776092933239,14.402699961382265,39,19,534c0b08498e3486f313d1aa,thai restaurant Helichova,50.088547,14.402256,Thai Restaurant
2697,1279,50.1055,14.4506,38,34,534d07f1498e86be442939ef,Bistro Špajzka,50.1026840209961,14.452651977539062,Czech Restaurant
349,19,50.07776092933239,14.402700691395738,13,3,53501e5a498e8e7b478ac2bf,Atelier Red & Wine,50.07974278086415,14.403808418783226,French Restaurant
606,276,50.07776092933239,14.432300691395733,31,27,53524cdc498e4643115d8cd4,wok & sushi Hui Feng,50.07908559294743,14.429900785334365,Chinese Restaurant
1557,139,50.0355,14.4062,8,3,5354239d498e68ed1ec7cbb0,restaurace besedni,50.03671150633852,14.40045076041892,Afghan Restaurant
2538,1120,50.0955,14.4358,32,17,5357dd1e498e87498195d8d9,Jing Ling,50.09918585151376,14.431797162366701,Asian Restaurant
1785,367,50.0655,14.4062,22,13,53590bec498e897ccdf53a0b,GroupM terasa,50.06274541322743,14.40955638885498,American Restaurant
786,456,50.07776092933239,14.454099308604262,21,18,536082eb11d28cc14e969e97,Futon Eflo,50.078269,14.453479000000002,Japanese Restaurant
1673,255,50.0455,14.495,6,3,5364fd9b498e4f36f124c3b7,U penzionu,50.04762359914113,14.489901222817538,Czech Restaurant
1437,19,49.9855,14.3618,8,7,5367c34611d263215d705a8e,kuřecí vokýnko,49.984075823843185,14.363066124571631,Ukrainian Restaurant
1471,53,50.0055,14.4654,8,6,536e8403498edb85c33a96ff,Restaurace Rendezvous,50.003544,14.466282999999999,Czech Restaurant
629,299,50.0732390706676,14.432300691395733,43,19,536f2df1498e9efb782b15e2,Amigo Restoran,50.07144165039063,14.430654525756836,Czech Restaurant
1589,171,50.0355,14.5542,3,2,536fcd7e498e444ed7a47ce0,Pizzeria Treviso,50.035042479938795,14.5572349382079,Italian Restaurant
405,75,50.0732390706676,14.409699308604262,14,11,5373aaf0498e07f56eb91a54,Pavlov,50.072347,14.406581,Czech Restaurant
1611,193,50.0455,14.332199999999998,5,3,53750030498e007c39b195d9,Oriental Food,50.04372371179647,14.331912814033275,Asian Restaurant
1829,411,50.0655,14.4358,27,9,53779580498e9620f1403645,Jiu Zhou Running Sushi,50.06561413773619,14.439662199188266,Sushi Restaurant
2149,731,50.0755,14.5394,12,0,5378dbfb498e52a00e06aca5,Running Sushi Sumo,50.07238151165878,14.5430779834358,Sushi Restaurant
1667,249,50.0455,14.4506,38,36,537b01a0498ee555a6483e02,Chemička,50.04895597951389,14.451883674628437,Czech Restaurant
1893,475,50.0655,14.495,9,8,537cd242498e8b0d9d87d970,Saccaria caffe,50.066813,14.495957,Italian Restaurant
1693,275,50.0555,14.2878,10,9,537f399c498eb6eddf3ddabf,Thang Dao Thi Obcerčerstvení,50.054344,14.291564000000001,Vietnamese Restaurant
142,142,50.0855,14.421,25,14,537f8102498e5da65079246b,exelent,50.0854377746582,14.419940948486328,Czech Restaurant
2688,1270,50.1055,14.4506,38,25,53822982498e15919e92a1eb,Pizzerie Puccelini,50.10203402512671,14.452589784605165,Italian Restaurant
2526,1108,50.0955,14.4358,32,5,5385c4bd498e73b891759418,"""K"" - The Two Brothers",50.091271,14.433686999999999,Indian Restaurant
815,485,50.0855,14.4062,35,22,53862356498eb1110ef0005b,The Blue Duckling,50.084833,14.405636,Eastern European Restaurant
313,313,50.088891393998594,14.426250140480542,14,7,538c4e9d498e33f16c45b181,Tacos Nachos - Mexican Fastfood,50.08840464898488,14.426977735102065,Mexican Restaurant
2648,1230,50.1055,14.4062,8,6,538efab4498ec07320c6bdfe,restaurace U Libora,50.101652,14.408983,Czech Restaurant
1718,300,50.0555,14.4358,14,11,53903cf0498e4903ea4cb240,香满楼,50.057790999999995,14.433597,Chinese Restaurant
2201,783,50.0855,14.3914,14,7,539041ec498e4fea486fb41b,Last Fantomas,50.088205,14.394785,Asian Restaurant
1828,410,50.0655,14.4358,27,8,5392ef3a498eee59c26de218,Excelsior Pub,50.0681,14.436229,Czech Restaurant
1521,103,50.0255,14.421,2,0,53949fef498ee0e5e0c84df5,Pizzerie Pepíno,50.024786999999996,14.426664,Italian Restaurant
665,335,50.07776092933239,14.439299308604259,31,12,53959025498e4754a4bf56a5,AlQuila,50.078809617944,14.436691893457956,Indian Restaurant
2817,1399,50.1255,14.4506,8,6,5395e405498e085ff3c216f3,Hospůdka Hercovka,50.12207136420093,14.450277558559852,Eastern European Restaurant
229,229,50.086630464666186,14.415749859519455,12,7,53975057498e78bd68968e06,Radegast,50.086082,14.416554000000001,Czech Restaurant
2699,1281,50.1055,14.4506,38,36,53a1716c498e9d35d25d17ec,Císařská zahrada,50.107527587294044,14.450269920967516,Chinese Restaurant
474,144,50.0732390706676,14.417500691395738,13,10,53a67cad498ebd730dc791bb,La Marsa,50.07466606742039,14.415937390223114,Mediterranean Restaurant
1481,63,50.0055,14.4802,10,8,53aaa213498ee6657b2162b7,Chè Sai Gòn,50.00219359023902,14.475962481070507,Vietnamese Restaurant
2337,919,50.0855,14.4358,50,29,53ad5c72498ee47d2a306618,KREDENC Restaurant,50.085142742333325,14.442722509149075,Czech Restaurant
1739,321,50.0555,14.5098,7,2,53ad9345498e3bbe34f48b76,Bêp viêt,50.05702580687908,14.506865433968532,Vietnamese Restaurant
2181,763,50.0855,14.3618,8,7,53b2935e498e3bbe350e3ee9,U Kaštanu,50.08366428856407,14.362152912816875,Czech Restaurant
1621,203,50.0455,14.421,5,2,53b3de21498eeec96271ef18,Jie da,50.0468691746519,14.41517547598369,Asian Restaurant
1477,59,50.0055,14.4802,10,4,53b435d9498e012e699e1835,hong de vu,50.002524,14.475655999999999,Vietnamese Restaurant
1737,319,50.0555,14.5098,7,0,53bbf79f498e120dddee0a88,Garden City Restaurant,50.05663217041207,14.507773897607855,Czech Restaurant
2504,1086,50.0955,14.421,27,10,53bd490e498e5cf43e9bf6b0,Chabad Grill,50.09171744722757,14.421157684774053,Kosher Restaurant
2492,1074,50.0955,14.4062,30,28,53c12b40498e95ba028c3832,castellana Bistro,50.09144973754883,14.408869743347168,Italian Restaurant
1384,1054,50.0932390706676,14.447099230957482,32,21,53d3d8ab498e28598a7cef48,Meze,50.09208350323582,14.44909092157944,Mediterranean Restaurant
716,386,50.0732390706676,14.439299308604259,37,32,53d90742498ebdc668331578,PhoOriginal,50.072459,14.437710000000001,Thai Restaurant
1462,44,50.0055,14.421,9,7,53da14e0498ecd631d93c40a,Chinese Food,50.00732055140094,14.416077226236872,Chinese Restaurant
737,407,50.0755,14.4506,20,16,53da307e498e028619101146,farmarske trhy,50.0771369934082,14.450525283813475,Afghan Restaurant
40,40,50.0832390706676,14.417499961382266,8,7,53de3c6d498ed284d5ec99b3,CzechChef,50.08362407318463,14.417966439098418,Czech Restaurant
2179,761,50.0855,14.3618,8,5,53e0b94f498e18848f6ca1ec,China & Sushi restaurant,50.08393156857231,14.364949993911463,Chinese Restaurant
507,177,50.07776092933239,14.42449930860426,44,30,53e0d833498ece6060407f5d,T&G Restaurant Sushi,50.07743453979492,14.427651405334473,Asian Restaurant
2852,1434,50.13549999999999,14.4358,2,0,53e28444498ea67f3a429449,Hostinec Garáž,50.13662480325365,14.433139846245785,Czech Restaurant
2468,1050,50.0955,14.4062,30,4,53e7386f498e6613bedd76a4,Thanh Ha,50.09815601218957,14.401676544308165,Vietnamese Restaurant
2790,1372,50.1155,14.495,2,1,53ea4c3a498ea715866301a7,SmartSushi,50.11702687172424,14.495778281275545,Japanese Restaurant
2715,1297,50.1055,14.4802,17,10,53f48727498ebc81522284e6,Country Saloon,50.102222999999995,14.475398,Czech Restaurant
458,128,50.07776092933239,14.417500691395738,35,29,53f843c7498e9dac1e1513ad,Sushi California,50.07708461697418,14.415392128738587,Sushi Restaurant
1214,884,50.0832390706676,14.432299961382265,19,14,53fb3838498ee71605b6a5a0,pho bo,50.08195274296658,14.430805319717953,Vietnamese Restaurant
2662,1244,50.1055,14.4358,11,10,54044b69498eeb9671c8904e,Sushi Slunce,50.10252939724697,14.432486637976188,Vietnamese Restaurant
2787,1369,50.1155,14.4802,3,1,540b04cb498e9f263131e337,Balkánská restaurace,50.11539077758789,14.473868370056152,Eastern European Restaurant
1690,272,50.0555,14.2878,10,6,540d901b498ed28daae85f52,"""Vietnam Foods""",50.054190999999996,14.291195000000002,Vietnamese Restaurant
1721,303,50.0555,14.4506,10,0,54118e1f498ea0764678a22e,Bếp Việt,50.05441789494725,14.452755663272585,Vietnamese Restaurant
1963,545,50.0755,14.4062,50,48,541351e5498ec4528fea058e,Don Totò,50.07171029213704,14.406905962488649,Italian Restaurant
2802,1384,50.1155,14.6282,1,0,541857c5498ebf6212ae835f,Xin Fu,50.11799801365035,14.628786655179464,Asian Restaurant
389,59,50.0732390706676,14.402700691395738,32,30,54191e13498e837bd22da7c8,iris restaurant,50.07194900512695,14.4007568359375,French Restaurant
625,295,50.0732390706676,14.432300691395733,43,15,54194efb498e1a6158a79180,Tiskárna,50.07213027685413,14.430624440962449,Czech Restaurant
677,347,50.07776092933239,14.439299308604259,31,24,541cb3f0498e7ac703f49ef7,L'osteria - Cucina Con Vineria,50.07759805432108,14.437773392271993,Italian Restaurant
2665,1247,50.1055,14.4506,38,2,541fef71498ebd85fad54c67,Holešovická Kozlovna,50.102931,14.448617,Czech Restaurant
1208,878,50.0832390706676,14.432299961382265,19,8,54205d8d498e0790437b1c37,Deli Viet,50.08168620377166,14.430237693503392,Vietnamese Restaurant
2161,743,50.0755,14.5986,1,0,54214851498e871a2c28b337,Restaurace Kudy Kam,50.07853442864243,14.603506537943199,Czech Restaurant
2211,793,50.0855,14.4062,50,3,54230cf0498e62f0e68e8602,Pastař,50.081303000000005,14.407855,Italian Restaurant
1599,181,50.0455,14.302599999999998,3,2,54244b5b498ef7e9438a5221,Zen bistro Stodůlky,50.04665914175026,14.305831491949599,Vietnamese Restaurant
2473,1055,50.0955,14.4062,30,9,54251212498ef4a58b6ec5cb,à Table!,50.09862135371421,14.402870862447571,French Restaurant
447,117,50.07776092933239,14.417500691395738,35,18,54296836498eabdbcfc5d275,Sushi,50.076793,14.415035999999999,Sushi Restaurant
2452,1034,50.0955,14.3618,2,0,54351b1d498e6c538546986f,Fresh Cantina Cordeus,50.09627470253078,14.365519871904864,Czech Restaurant
1787,369,50.0655,14.4062,22,15,54390049498ef7b6625b26d1,Have a Nice Quiche - food festival,50.068454705735405,14.404381962295293,French Restaurant
1746,328,50.0555,14.5246,6,2,543bb3fb498e6f51e6da14a1,Luckychina,50.053682,14.518448999999999,Asian Restaurant
791,461,50.0732390706676,14.454099308604262,4,2,543fec1c498e0d4c9da31dba,Mochi Store,50.075175,14.454103,Asian Restaurant
506,176,50.07776092933239,14.42449930860426,44,29,5444e4f1498e9fef3ceb790f,Buta Restaurant and Lounge,50.079122512787826,14.423359230738932,Eastern European Restaurant
1360,1030,50.09776092933239,14.447099230957482,8,5,544b91c1498e7d4b1bb94d79,Vietnamský bufet,50.099892,14.4474,Asian Restaurant
2541,1123,50.0955,14.4358,32,20,5450cf12498ea48fc7e0c513,Restaurace U divadla,50.09859495070202,14.433040034945247,Czech Restaurant
779,449,50.07776092933239,14.454099308604262,21,11,5457be29498e27ebdf304811,kunn,50.07978439331055,14.455041885375975,Thai Restaurant
2497,1079,50.0955,14.421,27,3,54589c95498e30f319d3b5b6,FIELD Restaurant,50.091768,14.422288,Czech Restaurant
2162,744,50.0755,14.642999999999999,4,0,545b9ed8498e5e6a2586aaef,Cafe Ujezd,50.079485399999996,14.644841199999998,Czech Restaurant
1559,141,50.0355,14.4062,8,5,545bb8a5498e70d7b0ce6ff6,Restaurace U Škopů,50.03621292114258,14.401294708251953,Czech Restaurant
1908,490,50.0755,14.3914,8,1,54611870498eb2991095c939,Bánh Mì Makers,50.07246083702771,14.394889135528025,Vietnamese Restaurant
2783,1365,50.1155,14.4654,5,2,5465e7b1498eb1342cc6f2d4,Občerstvení u bulovky Pho,50.116023999999996,14.467206,Vietnamese Restaurant
762,432,50.0732390706676,14.447100691395738,9,3,54692ae4498e78ad149ec5d0,Stavros Grill,50.07147507678589,14.446990198128724,Greek Restaurant
1845,427,50.0655,14.4358,27,25,546e1d3d498e1d4f114a01e7,Golden Dragon,50.065140842919334,14.429358035475593,Asian Restaurant
1475,57,50.0055,14.4802,10,2,546eff3b498e6e2065a6650e,Dāc Sàn O Lý,50.003692953048365,14.473928452618225,Vietnamese Restaurant
1529,111,50.0255,14.4358,7,6,546f2ece498e44efc05f6359,Sumo,50.026964041560184,14.433071467303836,Sushi Restaurant
2503,1085,50.0955,14.421,27,9,546fac2f498e4a0e5d661322,Ristorantino da Matteo,50.09939114763571,14.423221758394035,Italian Restaurant
631,301,50.0732390706676,14.432300691395733,43,21,54747874498ec0bbca9b5410,El Torro Furioso,50.074781,14.431076000000001,Spanish Restaurant
903,573,50.0832390706676,14.409700038617736,9,4,5475f442498e2e7d12421ac6,Bistro Phở Việt,50.08404416032594,14.41075759421268,Vietnamese Restaurant
859,529,50.08776092933239,14.402699961382265,39,31,547dab33498ec1a5c1bfdc39,cheeky devil,50.088493,14.402057000000001,Czech Restaurant
2677,1259,50.1055,14.4506,38,14,5482337d498e314a74d0c41c,U Nás - Restaurace,50.10711862943621,14.453966564958401,Czech Restaurant
2871,1453,50.1455,14.332199999999998,2,0,54859a33498e9dcac168f644,hospoda Černý vůl,50.146527,14.331461,Czech Restaurant
750,420,50.07776092933239,14.447100691395738,18,9,548754ca498e42756f1bfb91,La Casa di Erminio,50.079697116391706,14.446045492382936,Italian Restaurant
1866,448,50.0655,14.4506,24,19,548dc647498e646a6e5fe87a,Hospůdka Línej Klokan,50.06381225585938,14.45305633544922,Czech Restaurant
1913,495,50.0755,14.3914,8,6,54987410498eea3f58bf6ebe,Jamie's Grill & Bar,50.07239515119967,14.396422593071929,American Restaurant
2756,1338,50.1055,14.5542,6,3,54a7ec45498ea948a441ea4a,Hospoda U Volody,50.10509684286403,14.547901700928517,Czech Restaurant
1594,176,50.0355,14.5986,6,3,54aab9bb498e6d5aca0c79bd,Pod Liškou,50.0327,14.597376,Czech Restaurant
1494,76,50.0055,14.5838,1,0,54abc7fd498e6b2bbdfa0e35,Čestlická Vejmrda,50.001371001749895,14.58386535439092,Eastern European Restaurant
1876,458,50.0655,14.4654,11,5,54ac52c8498e4a4e799c96f6,Plzeňská Restaurace U Trumpety,50.06664279304715,14.460896485052931,Czech Restaurant
2115,697,50.0755,14.4654,23,0,54ae73fd498e31686d3604e6,Bombay Express,50.07871919267529,14.460991732765944,Indian Restaurant
2508,1090,50.0955,14.421,27,14,54b0433f498e8b0303e75377,Alsultan Restaurant,50.09167861938477,14.420822143554688,Persian Restaurant
2716,1298,50.1055,14.4802,17,11,54b7ef74498e8bcbb2e90088,Trattoria Angela,50.103181106804286,14.478233710307968,Italian Restaurant
1890,472,50.0655,14.495,9,5,54c143f0498e684f5ac1f114,Sushibar Pešťupaták,50.06618836687103,14.49912804295606,Sushi Restaurant
2873,1455,50.1455,14.4506,4,0,54c39714498e753931925cdb,Restaurace U Trumpety,50.14608298166153,14.446974425283466,Czech Restaurant
1244,914,50.0855,14.4506,31,18,54c39dcb498e259a3c1f8ec4,U Kroužků,50.08457776093736,14.450839252781696,Czech Restaurant
2486,1068,50.0955,14.4062,30,22,54c523be498e44dbbd9c13e0,Asia - sushi - bufet,50.09801556278597,14.403687730919044,Asian Restaurant
2853,1435,50.13549999999999,14.4358,2,1,54c52c28498ee56143a03d23,Restaurace Světluška,50.13853705941922,14.435685901468155,Czech Restaurant
1428,10,49.9755,14.3914,10,8,54c7741d498eb3a1cb1cc491,Čínská restaurace Tian He Shan Zhuang,49.97279476290065,14.392359208405649,Chinese Restaurant
761,431,50.0732390706676,14.447100691395738,9,2,54d2653d498e14bbb0cf0b49,Checkout Food,50.071915000000004,14.445934,Doner Restaurant
2153,735,50.0755,14.5394,12,4,54dca160498e0b92f83dc3aa,Pizzeria GoLoSoNa,50.072306759445794,14.54319996231022,Italian Restaurant
1833,415,50.0655,14.4358,27,13,54de2882498e03fa29a769ad,Domu,50.06481552124024,14.440197944641113,Arepa Restaurant
463,133,50.07776092933239,14.417500691395738,35,34,54df9cbe498e1183c514b4b5,Restaurace Krásná Praha,50.07773467354588,14.414418504353074,Czech Restaurant
843,513,50.08776092933239,14.402699961382265,39,15,54e781f9498e840720593d9d,les 3 violins,50.088640000000005,14.401231,Czech Restaurant
1328,998,50.0832390706676,14.454100038617733,29,19,54e78e69498ed4896a57b23b,Pizzerie restaurant Dobrá karma,50.08513334911082,14.454572774780154,Italian Restaurant
2619,1201,50.0955,14.6578,2,1,54e87c12498ecdc6df25f46c,Doma,50.09378433227539,14.66403865814209,Austrian Restaurant
877,547,50.0832390706676,14.402699961382265,11,10,54e8d696498ed8dd767b8d44,Restaurant Lounge Bar,50.0820438525605,14.404554447046024,Czech Restaurant
1882,464,50.0655,14.4802,3,0,54e9d281498ece133b372877,Jídelna Slavia,50.06872540534398,14.478536611065989,Czech Restaurant
1825,407,50.0655,14.4358,27,5,54edb2c5498e4126b9d78ed4,Vietnam Food,50.064961,14.432078,Vietnamese Restaurant
1788,370,50.0655,14.4062,22,16,54f210f8498eb81e0d952dd3,Salty Dog Prague,50.068742785925856,14.401940839035175,Cajun / Creole Restaurant
2401,983,50.0855,14.4506,50,43,54f55efc498ebde393eecf21,Pekařství mňam! mňam!,50.085429,14.456517999999999,African Restaurant
1282,952,50.0832390706676,14.447099961382266,14,11,54f9da3b498ea35fdd214ecd,Re Di Roma,50.082340087985116,14.445976011495885,Italian Restaurant
1844,426,50.0655,14.4358,27,24,55004e5a498e239d2bdbf889,The Like,50.06302297190052,14.430714284712176,Asian Restaurant
315,315,50.088891393998594,14.426250140480542,14,9,5506c2f7498ec1e7478485d8,The Pie Shop,50.088311896904,14.427128788372247,Australian Restaurant
1628,210,50.0455,14.4358,7,4,5512f23b498e671c0782cbe4,Pizzeria Ristorante Sofra,50.04352900607693,14.43554501244314,Italian Restaurant
707,377,50.0732390706676,14.439299308604259,37,23,551d6cbd498e0984d93098fd,Činar Kitchen & Hookah Prague,50.0719881097413,14.439462601848586,Eastern European Restaurant
585,255,50.07776092933239,14.432300691395733,31,6,552191f6498e341e6a93b894,Mangal,50.079436662796276,14.430020994055814,Turkish Restaurant
150,150,50.0855,14.421,25,22,5526acae498e7bd6f83b98a9,U Zajíce,50.085298901800826,14.41997107287975,Czech Restaurant
607,277,50.07776092933239,14.432300691395733,31,28,55281e1c498e28d0392c99fb,Czech Goose & Duck,50.07756673784921,14.429235792547386,Czech Restaurant
2493,1075,50.0955,14.4062,30,29,552b9b62498e5f398a47ad42,Tanh ha,50.09813,14.401656,Vietnamese Restaurant
476,146,50.0732390706676,14.417500691395738,13,12,552c274e498e49883ba6e3a8,Husinec Restourace,50.073958775893345,14.417115431040337,Czech Restaurant
2886,1468,50.1455,14.5838,6,4,55324b23498e7dc643310db7,Express Food,50.14277382579712,14.578645631289602,Middle Eastern Restaurant
813,483,50.0855,14.4062,35,20,55391724498e16d131f5aae4,Lounge & Terrace,50.084514854737655,14.405600130558016,Asian Restaurant
2447,1029,50.0955,14.332199999999998,2,0,553b98e6498e2ed1f18ab89d,El Lanzador,50.09513092518301,14.326704601876715,Mexican Restaurant
2722,1304,50.1055,14.495,28,0,5540810a498e63aa0fe3db6f,Šnyt,50.10724652155612,14.49060469865799,Czech Restaurant
1741,323,50.0555,14.5098,7,4,5544fc94498e731178d86a71,Čínská restaurace Cheng De,50.057067564348394,14.507441134016302,Asian Restaurant
1522,104,50.0255,14.421,2,1,55474761498e777ecc201cec,Maesto Pizza Opatov,50.0270229631665,14.426498824218829,Italian Restaurant
623,293,50.0732390706676,14.432300691395733,43,13,5548ebfa498eab91b2233169,Raclettka,50.07319408885614,14.431784340624231,Swiss Restaurant
1703,285,50.0555,14.421,4,0,554c7db4498e0a16ae2e726a,Restaurace Pinta,50.05821093600576,14.42402396893288,Czech Restaurant
1870,452,50.0655,14.4506,24,23,5554de87498eca876f1e0264,Jin Xuan Ge,50.06796158393486,14.454379073476634,Asian Restaurant
605,275,50.07776092933239,14.432300691395733,31,26,5555d725498e4652e6fd05dd,U Čínského Malíře,50.078018131059494,14.433154143669293,Asian Restaurant
1552,134,50.0355,14.3766,3,2,55560cff498eb7ee1bdce1e9,Ruské speciality,50.032315999999994,14.375681,Russian Restaurant
2894,1476,50.1555,14.5838,1,0,5571cf6a498ecf73a0bae203,"Na statku, Přezletice",50.15204405739651,14.583685240102682,Czech Restaurant
2470,1052,50.0955,14.4062,30,6,557813f3498ee3b164649f97,Super Döner Kebab,50.09791141910637,14.402156174182892,Doner Restaurant
2812,1394,50.1255,14.4506,8,1,557868bf498eb5276d6d514d,FIGO pizza&pasta,50.12522402989129,14.444977323316117,Italian Restaurant
2868,1450,50.13549999999999,14.5542,4,3,557c55c4498ea1484db7b490,Restaurant ameti,50.138977000000004,14.550918,Middle Eastern Restaurant
1696,278,50.0555,14.347000000000001,3,1,557d8bcc498efd67d1ddb1bd,Vuong cooking class,50.055669,14.350103,Vietnamese Restaurant
214,214,50.08776092933239,14.417499961382266,10,8,55803df0498ef12212450957,Potrefena Husa,50.08757400512695,14.418335914611815,Czech Restaurant
2494,1076,50.0955,14.421,27,0,5581549a498e4d222977492e,Phở u Letné,50.099364,14.422203,Vietnamese Restaurant
2488,1070,50.0955,14.4062,30,24,558a8405498e83940bd01c26,Hong Feng,50.09840404582074,14.404362046269322,Chinese Restaurant
1688,270,50.0555,14.2878,10,4,558bc6e5498e76bdab7a8bdf,Šmak české kuchyně,50.05371706544123,14.287430909195175,Czech Restaurant
1666,248,50.0455,14.4506,38,35,558d2000498e2167c49f1614,Asia And Sushi Restaurant,50.04707706871282,14.445933707585642,Sushi Restaurant
2704,1286,50.1055,14.4654,4,3,5593c064498e74a35a087e5a,Torino,50.10567121232528,14.470004997758956,Italian Restaurant
1661,243,50.0455,14.4506,38,30,55965e0a498e7b1bbfe26a2e,sushi bar,50.04581410134493,14.447942437589026,Sushi Restaurant
1579,161,50.0355,14.5098,6,2,559c03b8498e450adb2dad4a,Starochodovská,50.036094665527344,14.50908374786377,Czech Restaurant
1362,1032,50.09776092933239,14.447099230957482,8,7,55a92fdf498eac980cbab8c0,BIG BEN FOODS,50.098978363977096,14.446173869795382,Vietnamese Restaurant
1422,4,49.9755,14.3914,10,2,55afdb25498eba5410fffbbf,Zbraslavský hostinec,49.97696812269,14.393822953202706,Czech Restaurant
1643,225,50.0455,14.4506,38,12,55b9fc9d498e4ae5191267cb,Dhaba Beas,50.04771139861309,14.455862045288086,Vegetarian / Vegan Restaurant
1430,12,49.9855,14.3618,8,0,55bdf233498ea32e1f90f308,Bustan Kebab,49.98409507752356,14.362393269621126,Doner Restaurant
1675,257,50.0455,14.495,6,5,55c21435498e7de0a764bcf4,THE OBKOWICZ PALACE,50.041796000000005,14.497803,Czech Restaurant
453,123,50.07776092933239,14.417500691395738,35,24,55c39436498ecb81043cf02c,Sun Feng Kai Yuan,50.077791,14.420304999999999,Chinese Restaurant
1508,90,50.0155,14.4358,5,4,55c4cc6d498e5bc21bb04a29,Restaurant Sen Vietnam,50.01488494873047,14.43681526184082,Asian Restaurant
406,76,50.0732390706676,14.409699308604262,14,12,55c7b05f498eedf6e5272df8,Moucha,50.07285,14.408335000000001,New American Restaurant
2829,1411,50.1255,14.4802,3,1,55c8cbc6498ec4096190ecfd,POD VĚŽÍ,50.1252,14.4732,Czech Restaurant
1752,334,50.0655,14.302599999999998,10,2,55d732a9498e4a6d9ff5ea92,Krušovická Šalanda,50.06511542826881,14.301172821963931,Czech Restaurant
2808,1390,50.1255,14.421,6,3,55e9d3c5498e930c90c7b1ea,Grill & Sushi bar,50.127750970020216,14.421870179071774,Asian Restaurant
2451,1033,50.0955,14.347000000000001,3,2,55ee242d498e70c205627438,klubovnička,50.0944558124989,14.349514946496122,Cambodian Restaurant
1614,196,50.0455,14.3618,1,0,55ee8185498e9e55d6cb45f2,Hotel Matura,50.04673207691866,14.35696535338526,Czech Restaurant
2720,1302,50.1055,14.4802,17,15,55f82264498ec5ffb151c4dd,Krocaní Hnízdo,50.10589790075851,14.473872424708953,Turkish Restaurant
1520,102,50.0255,14.3618,1,0,55fee7de498ecf3079347345,U Tondáků,50.02446395086421,14.360683758454881,Afghan Restaurant
2552,1134,50.0955,14.4358,32,31,56053c16498e9031be53d2c4,Istanbul Kebab,50.096393,14.431739000000002,Turkish Restaurant
2816,1398,50.1255,14.4506,8,5,560695d5498e96c1a2c9320d,Bulharska restaurace Hercovka,50.122094,14.450656,Bulgarian Restaurant
1677,259,50.0455,14.5246,1,0,560c172e498e58f05e99e5c7,Hospudka Na Vrsku,50.04450432254698,14.518292658153195,Czech Restaurant
2444,1026,50.0955,14.2878,10,7,560fc936498e90341f4b2620,Prima bašta,50.092862302134044,14.291483535831745,Czech Restaurant
1591,173,50.0355,14.5986,6,0,5613487a498ed4c503f3abd9,Švejk restaurant „U Karla“ Uhříněves,50.031927158333346,14.597904779261198,Czech Restaurant
1146,816,50.0832390706676,14.424500038617733,50,38,56134afa498e8ff86e9d556c,Švejk restaurant „Prague INN“,50.08345811344738,14.42253828048706,Czech Restaurant
1526,108,50.0255,14.4358,7,3,5613cf83498e2872ac59b687,Prima bašta,50.02686101967521,14.433231453849835,Czech Restaurant
2499,1081,50.0955,14.421,27,5,56141ba1498ee2cb76108833,Asian Temple,50.09147000824891,14.421056396753993,Asian Restaurant
1783,365,50.0655,14.4062,22,11,5614f256498eaf22c91feb54,Restaurace Kotevni,50.06403529779116,14.410536947401367,Afghan Restaurant
1376,1046,50.0932390706676,14.447099230957482,32,13,561b8469498e1a672570d80f,Haikky,50.092517,14.444139000000002,Chinese Restaurant
1385,1055,50.0932390706676,14.447099230957482,32,22,561e3610498e92f9e2535a13,Yu Čuan,50.092331016317644,14.444526610353904,Chinese Restaurant
2147,729,50.0755,14.5098,4,2,561e46bd498e46dc9a9cb9af,Dvouletky Landing,50.076588517931825,14.505683816466613,Afghan Restaurant
1640,222,50.0455,14.4506,38,9,561f7dd5498eef5e3aa15d3f,Restaurace | Hotel ILF,50.044576566210054,14.45086508989334,Czech Restaurant
2129,711,50.0755,14.4654,23,14,562777df498e82fa85b3fe62,Detello's Pizza & Pasta,50.07850646972656,14.461057662963867,Italian Restaurant
1793,375,50.0655,14.4062,22,21,562a3f64498e0e92cac20a6e,TRAN NGOC SON,50.06201171875,14.408727645874025,Afghan Restaurant
2421,1003,50.0855,14.4654,18,13,562b5d8a498e415e692cb38a,Leknín,50.08541587272749,14.468587095317964,Chinese Restaurant
1805,387,50.0655,14.421,26,11,562d0199498e8466a6533022,Pho Viet moravská vinotéka,50.064968773476274,14.426880426090278,Asian Restaurant
1815,397,50.0655,14.421,26,21,562fe5e5498e6ca22399946c,Restaurant Vietnamese Pho Viet,50.066150871523895,14.422796580698126,Vietnamese Restaurant
1674,256,50.0455,14.495,6,4,563c5c5b498e52bc083da687,Restaurace Praha,50.041669930477894,14.496152524648155,Czech Restaurant
1745,327,50.0555,14.5246,6,1,56475d86498ea0ff89d0fdfa,restaurace u Karolíny,50.054299,14.527328,Czech Restaurant
2785,1367,50.1155,14.4654,5,4,564b2101498e178a0608b577,restaurace U čerta,50.11583650938579,14.470831930463618,Czech Restaurant
635,305,50.0732390706676,14.432300691395733,43,25,5650ccfa498edc181228bc0d,U Hotilku,50.07192993164063,14.432099342346193,Czech Restaurant
2207,789,50.0855,14.3914,14,13,5653778a498e402a2e512edf,Na Ul. Radnické Schody,50.08868408203125,14.395652770996096,Czech Restaurant
1664,246,50.0455,14.4506,38,33,5655a0ff498ed6cf1bb665d2,Kündi,50.044532533646745,14.447763807685769,Thai Restaurant
1391,1061,50.0932390706676,14.447099230957482,32,28,566848d5498e3f44c585fdd6,Momos bistro,50.091256,14.447034,Tibetan Restaurant
1361,1031,50.09776092933239,14.447099230957482,8,6,566c0bcf38fa094e8f3ff4b3,Asijské Bistro,50.09943622495943,14.445992276563151,Asian Restaurant
1468,50,50.0055,14.4654,8,3,566d7e45498e30e478a18575,Thu Son,50.006108332955755,14.471309774786118,Vietnamese Restaurant
2126,708,50.0755,14.4654,23,11,566fee4a498e1e380159f182,Safir,50.077765130726576,14.460360184825973,Middle Eastern Restaurant
1769,351,50.0655,14.3766,1,0,5671b5ce498e37990a52f110,Pho Dat,50.06956959759058,14.374545738356039,Vietnamese Restaurant
1806,388,50.0655,14.421,26,12,5673d6ed498e2d19931c7224,La Liberta,50.067945,14.420874,Italian Restaurant
1436,18,49.9855,14.3618,8,6,56745c61498e791bf1eab743,Gourmet Restaurant,49.986923891020574,14.356618413149912,Modern European Restaurant
1491,73,50.0055,14.569,11,8,5675a067498ecb98629ce794,WOK N'ROLL,50.003275643119885,14.573745851735751,Sushi Restaurant
516,186,50.07776092933239,14.42449930860426,44,39,567ed8e1498ed30f1bf7d353,mibi's international cuisine,50.076582928133284,14.424476404681927,Asian Restaurant
518,188,50.07776092933239,14.42449930860426,44,41,56924d72498e1cf94d1c700a,MatsUko,50.076293258775024,14.424308525972876,Asian Restaurant
282,282,50.08776092933239,14.424500038617733,23,19,569e894a498e5ec5532273a6,Joselito,50.087819,14.424539999999999,Tapas Restaurant
1581,163,50.0355,14.5098,6,4,569f8926498eeb3b8ad88169,záchod 21,50.032502663646,14.51190678958183,Mexican Restaurant
1355,1025,50.09776092933239,14.447099230957482,8,0,56a0bd85498e9983bef7c1ce,Tràng An,50.09936375727403,14.445892019990046,Vietnamese Restaurant
1777,359,50.0655,14.4062,22,5,56a25cc0498e49f95041aacd,PureThai – Nae's Takeaway,50.06304980403737,14.409270336901756,Thai Restaurant
2509,1091,50.0955,14.421,27,15,56afaab3498ea7ae44baa54a,restaurant Prague Alche-mia,50.091059744202994,14.421428164514479,Czech Restaurant
1875,457,50.0655,14.4654,11,4,56b21c40498e59aba0005eff,Mex Dan,50.06791164695874,14.468584405412548,Mexican Restaurant
2840,1422,50.1255,14.5098,4,3,56b606c7498e123dcaf225bb,Palma Huong Tien U Huberta,50.12432353568895,14.506106377082885,Vietnamese Restaurant
2692,1274,50.1055,14.4506,38,29,56b63dc2498ebb73c6023dad,Opera Prague Restaurant & Bar,50.10959823356136,14.45092543957711,Czech Restaurant
1577,159,50.0355,14.5098,6,0,56b88d32498ee5c5130ca2d7,číňan🈴🈵🈲,50.0330164253889,14.51209125915684,Korean Restaurant
865,535,50.08776092933239,14.402699961382265,39,37,56b8b7cb498e33f2f64d4314,Malostranský Hostinec,50.087515835097186,14.402463217539252,Czech Restaurant
2343,925,50.0855,14.4358,50,35,56b9d7bf498eac0c4a6c6ee4,Mr. Bánh Mi,50.085353999999995,14.441454,Asian Restaurant
1754,336,50.0655,14.302599999999998,10,4,56c60a35cd10b75bba70a237,Russian home,50.06777701434349,14.302520502565446,Russian Restaurant
1304,974,50.08776092933239,14.454100038617733,24,19,56d2e0ebcd10b9cf60e8e262,Zlatý Kůň,50.08747,14.453979,Asian Restaurant
1478,60,50.0055,14.4802,10,5,56d42de3498e5cc67d74d309,Hà Nội Quán,50.003501,14.473963000000001,Vietnamese Restaurant
1768,350,50.0655,14.3618,5,4,56d6c6c1498eaccec9eaf798,Jídelna (kafilérka),50.0624,14.360837,Czech Restaurant
316,316,50.088891393998594,14.426250140480542,14,10,56d87a75498eb2bcd162b4f6,Kuizin,50.08937315537778,14.426395297050474,Czech Restaurant
2827,1409,50.1255,14.4654,9,8,56d99dfa498e2500916e92c9,Asian kingdom,50.128462,14.461179999999999,Vietnamese Restaurant
2847,1429,50.13549999999999,14.347000000000001,1,0,56dc7ae8cd103af3db3217e3,Česká kuchyně,50.137220085073395,14.344101237726436,Czech Restaurant
1773,355,50.0655,14.4062,22,1,56e000eb498eabb85117618a,Cô Dô,50.06928854212777,14.404589316758615,Vietnamese Restaurant
1753,335,50.0655,14.302599999999998,10,3,56e34439498e29dd9faa181f,Originál Šenkovna,50.065901694683504,14.3024109138629,Czech Restaurant
1767,349,50.0655,14.3618,5,3,56e97f5a498ea60d05d30611,U té nejdražší,50.066146999999994,14.365255,Czech Restaurant
2789,1371,50.1155,14.495,2,0,56e9b468498efa2ec978dd04,Michelle Sushi,50.118469822051686,14.499952735337047,Sushi Restaurant
2850,1432,50.13549999999999,14.3766,3,2,56eaca51498edc13ac3b32ac,Vývařovna u Rozvědčice,50.13139825494145,14.37887700824856,Czech Restaurant
646,316,50.0732390706676,14.432300691395733,43,36,56f05d3e498e670545bdfbdb,Green Garden Hotel Restaurant,50.071671511430566,14.430122210768664,Eastern European Restaurant
2424,1006,50.0855,14.4654,18,16,56f11f57cd10b74e655e3e3d,nase potraviny cinani,50.087257,14.462473000000001,Cantonese Restaurant
461,131,50.07776092933239,14.417500691395738,35,32,56f2819b498e6783a7a94186,Café Restaurant Colibri,50.07631755953194,14.414864711750582,Czech Restaurant
1702,284,50.0555,14.4062,2,1,56f2961a498ef3b3a0a917bb,foodbox,50.057235999999996,14.406915,Vietnamese Restaurant
1486,68,50.0055,14.569,11,3,56f3e010498e32551843adf4,U Traviče,50.003505,14.574954,Czech Restaurant
1818,400,50.0655,14.421,26,24,56f922ac498e3f194d550b42,Čínská restaurace Leknín,50.067074,14.417198999999998,Chinese Restaurant
2204,786,50.0855,14.3914,14,10,56fac0d0498eae2b66d08875,Q15,50.087502,14.390888,Czech Restaurant
1426,8,49.9755,14.3914,10,6,570a3454498e59c7206b730f,Granny Service,49.9734469313548,14.387765913882813,Czech Restaurant
2001,583,50.0755,14.421,50,36,570f6c21498ed39e61055bd9,V Cípu,50.079272225245525,14.42077338695526,Czech Restaurant
456,126,50.07776092933239,14.417500691395738,35,27,5710ffe5cd10b024a0f349cf,Na Rebece,50.079246999999995,14.416545000000001,Asian Restaurant
2811,1393,50.1255,14.4506,8,0,57111b38498eabd0f462722c,Samarkand Kebab,50.122887197181825,14.456060319538972,Doner Restaurant
1819,401,50.0655,14.421,26,25,571249f1498ede122f7d1dab,Viet-Style,50.06487700324955,14.427103400230408,Vietnamese Restaurant
1218,888,50.0832390706676,14.432299961382265,19,18,5718942d498e94764695a973,Deli Trap Restaurant,50.08163,14.430031,Vietnamese Restaurant
2707,1289,50.1055,14.4802,17,2,57190747cd104e591eb8ed2c,Palmovka Kebab,50.10380973863119,14.474464458511337,Doner Restaurant
1763,345,50.0655,14.347000000000001,1,0,571fb7bf498e7499a9addd5d,Restaurace 19,50.067572424627755,14.34466788640662,Czech Restaurant
1107,777,50.08776092933239,14.424500038617733,50,49,572a560a498e00a82eb0975a,Strongbow apple ciders,50.087435,14.421555999999999,Czech Restaurant
2158,740,50.0755,14.5394,12,9,572f218f498e9d5241e1b433,Food Point,50.07483,14.539235000000001,Modern European Restaurant
588,258,50.07776092933239,14.432300691395733,31,9,5731e7cb498e77a6f4448a23,Hurry Curry,50.07656446975065,14.43137602499086,Indian Restaurant
901,571,50.0832390706676,14.409700038617736,9,2,57361702cd1081207bec1827,Bezejmenna Hospoda,50.082718,14.412913,Czech Restaurant
2534,1116,50.0955,14.4358,32,13,5739f962cd1015664114d695,Garam,50.098064164188145,14.434118436841615,Korean Restaurant
2714,1296,50.1055,14.4802,17,9,573c8e0b498e6f78c4b69142,Přízemí,50.105452881014386,14.47901354733238,Czech Restaurant
283,283,50.08776092933239,14.424500038617733,23,20,573da761498e7152136f4b01,La Cucina Ceca,50.087737,14.425639000000002,Czech Restaurant
863,533,50.08776092933239,14.402699961382265,39,35,57406214498ea491057727d6,Restaurant Day - The Original Brunchies,50.08835,14.399505,Vietnamese Restaurant
1720,302,50.0555,14.4358,14,13,5746d588498ea2734875919a,Kantýna VS,50.058032,14.436724,Czech Restaurant
1822,404,50.0655,14.4358,27,2,57498746498eccc423d02ad4,Wok & Sushi,50.061360060626036,14.436994216730694,Asian Restaurant
1448,30,49.9955,14.6578,5,4,574ac5d7498eda5b2cae7ed5,Xiang Le Yuan,49.991471999999995,14.655216000000001,Chinese Restaurant
1500,82,50.0155,14.302599999999998,1,0,5751d084498e368994bb3610,Babiččina Hospoda,50.016702,14.295963,Czech Restaurant
2417,999,50.0855,14.4654,18,9,576041d8cd105c86b66c3baf,Peshawari Kebab,50.0896,14.4649,Pakistani Restaurant
2673,1255,50.1055,14.4506,38,10,57627d6fcd105ec5e345e711,Haru,50.107709681355935,14.454648975078198,Sushi Restaurant
1453,35,50.0055,14.4062,6,4,5765d945498e6aa8a8ba819d,rybí restaurace modřany,50.004467,14.404964000000001,Vietnamese Restaurant
1527,109,50.0255,14.4358,7,4,5766e462498ef5de32b9692c,Running Sushi,50.0269494422624,14.432902336120605,Asian Restaurant
1423,5,49.9755,14.3914,10,3,576a700e498e73669d58b667,Kebab House,49.974016822529975,14.393114322631755,Turkish Restaurant
2180,762,50.0855,14.3618,8,6,576bbbd5498e0e84867ea01a,Čínská restaurace Orient,50.084110507741606,14.365148730576001,Chinese Restaurant
2200,782,50.0855,14.3914,14,6,576d11d7498e82820052ff5e,Kuře po čuňácku,50.08882,14.386854999999999,Chinese Restaurant
1872,454,50.0655,14.4654,11,1,576facf2498eecbf2023eeb4,Sumo,50.06782516614202,14.46857918172199,Sushi Restaurant
636,306,50.0732390706676,14.432300691395733,43,26,577cdb12498e96f847b8ddc7,Flames Grill,50.07488908418722,14.430216281994575,Mediterranean Restaurant
1470,52,50.0055,14.4654,8,5,577f7dd8cd10bd3432015e40,Restaurace Huong Que,50.008874,14.4626,Vietnamese Restaurant
2543,1125,50.0955,14.4358,32,22,57801669498e91fa92076342,Bejvávalo,50.092079999999996,14.433126999999999,Czech Restaurant
1761,343,50.0655,14.3174,3,1,57810a0d498eeca5f4de954c,Mai Mai,50.064809999999994,14.315686,Vietnamese Restaurant
2429,1011,50.0855,14.5098,5,2,57823c62498e010cadbf8455,Koriandr,50.08334941981801,14.506948675210804,Vietnamese Restaurant
1616,198,50.0455,14.4062,4,1,57892690498e6cad271b0d8e,Fosil,50.04695447462622,14.408200197873294,Mexican Restaurant
1519,101,50.0155,14.6282,1,0,57893fa1498e3edb59265a6e,La Paluba,50.012179352251636,14.625173807144165,Italian Restaurant
2520,1102,50.0955,14.421,27,26,5794b9eb498edc50e6decfc0,il primo second edition,50.091832000000004,14.420935,Mediterranean Restaurant
2726,1308,50.1055,14.495,28,4,57a1cb07498e401d22d7f128,Chef Sultan,50.109665,14.497604999999998,Indian Restaurant
1178,848,50.08776092933239,14.432299961382265,35,13,57a5b15c498e31a65e9a1b46,Mongolian BBQ,50.08909599369598,14.4296527111357,Mongolian Restaurant
2413,995,50.0855,14.4654,18,5,57ab2c3a498ed5a2b358f254,Chai Viet Tasty Asia,50.08933821551917,14.468660236548104,Vietnamese Restaurant
709,379,50.0732390706676,14.439299308604259,37,25,57b06420498e5017cfa776b9,Equilibrista,50.07390852182193,14.442206919193268,Italian Restaurant
1556,138,50.0355,14.4062,8,2,57b351fe498eda3d728583fe,Cornuto,50.035601,14.412825,Italian Restaurant
1357,1027,50.09776092933239,14.447099230957482,8,2,57b4a3cc498efbe189c57ff9,Hà Nôi Quán,50.099213878184706,14.446238279342651,Vietnamese Restaurant
1562,144,50.0355,14.421,5,0,57c1ce67498e8d4409aa164a,U dvou kaštanů,50.03478499476261,14.415710255857284,Czech Restaurant
790,460,50.0732390706676,14.454099308604262,4,1,57c47a73cd10e8433fab727e,Café Buddha,50.07196819577056,14.455358427786964,Thai Restaurant
2893,1475,50.1555,14.5246,4,3,57c6cee8498ee1ad18cfd402,Rudolfínum ČakoHood,50.154908,14.531486,Czech Restaurant
401,71,50.0732390706676,14.409699308604262,14,7,57ce894b498ea02d54aa6f27,Arepas Club,50.071705029474316,14.410423278677627,Arepa Restaurant
1670,252,50.0455,14.495,6,0,57d27f27498e630080b04bc0,Cisterna,50.04539711147198,14.491435857619274,Czech Restaurant
1734,316,50.0555,14.495,4,1,57d3f533cd10ffc103839c80,Döner Kebab,50.054216,14.489954999999998,Doner Restaurant
2764,1346,50.1055,14.5838,14,3,57d980ea498eae01500b63c0,Spicymama,50.108822304775146,14.584675474440616,Vietnamese Restaurant
2644,1226,50.1055,14.4062,8,2,57dfc29a498e476f04e1956d,Ha Noi,50.102781,14.402079999999998,Vietnamese Restaurant
2705,1287,50.1055,14.4802,17,0,57e17c24cd106ef05e1663d7,Namaste India,50.10584671592584,14.47692654445668,Indian Restaurant
2804,1386,50.1255,14.4062,1,0,57e54739498e67494510c2a0,sushi,50.123363,14.4087,Sushi Restaurant
1874,456,50.0655,14.4654,11,3,57e95475498e35b7e57f15ff,Super Döner Kebab,50.067207964502856,14.459903985305916,Doner Restaurant
2198,780,50.0855,14.3914,14,4,57eea161498ee073f1af6c71,Bellavista,50.086555600000004,14.390154699999998,Czech Restaurant
2614,1196,50.0955,14.495,5,2,57f3741d498e0b624767ada4,Restaurace Spojka,50.096509128336756,14.489647150039673,Czech Restaurant
2828,1410,50.1255,14.4802,3,0,57fbc600498edae0e2a68ee9,Svatojánský Dvůr,50.124939982928474,14.482809491333342,Czech Restaurant
2680,1262,50.1055,14.4506,38,17,57fdf5e0498e9d04889497a7,SUSHI v DUSHI,50.10431975180434,14.454572097136051,Sushi Restaurant
1711,293,50.0555,14.4358,14,4,58010eefd67c3b6b3fc4867c,Bistro Punjab,50.05833385742049,14.436593055725096,Indian Restaurant
1489,71,50.0055,14.569,11,6,580895c338faddda1bd15fda,Luigi Italia,50.004919,14.572420000000001,Italian Restaurant
1595,177,50.0355,14.5986,6,4,58089a2338faa60b429e5031,Pizza & Pasta Palantina,50.032722,14.596663000000001,Italian Restaurant
2484,1066,50.0955,14.4062,30,20,580c6d4ad67c230d4844a74e,La Cuisine de Maman,50.09382,14.410352,Czech Restaurant
1685,267,50.0555,14.2878,10,1,580cf442d67c58094f03c144,Sushi Noodles by KOBE,50.05367736468547,14.287402424703766,Sushi Restaurant
1632,214,50.0455,14.4506,38,1,580dd87738fab62602e5d422,Puzzle Pasta,50.04774929093921,14.454504847526549,Italian Restaurant
1708,290,50.0555,14.4358,14,1,580f298538fa473445a1d5c2,Osteria il Piano,50.056584184837675,14.43060154941958,Italian Restaurant
1596,178,50.0355,14.5986,6,5,5810f7b038fa4407a4c291c4,Palatine,50.032845,14.596604999999998,Italian Restaurant
2205,787,50.0855,14.3914,14,11,5812377c38fa39a99b39b487,Restorace Reiner Maria Rilke,50.088398,14.395641,Czech Restaurant
875,545,50.0832390706676,14.402699961382265,11,8,5814e14538fa89b9325512d2,Czech Slovak,50.081579999999995,14.404587,Czech Restaurant
2795,1377,50.1155,14.5986,6,3,5819d296e5025f0b4736765f,Swaad,50.111794,14.596329,Indian Restaurant
87,87,50.082108606001405,14.419249898147704,17,15,581b803bfa17e56b1d684672,Čínská Restaurace Po Sečuánsku,50.082409999999996,14.418251000000001,Chinese Restaurant
432,102,50.07776092933239,14.417500691395738,35,3,581ca4547d939922b34a6b84,Yori,50.077513042400405,14.414492717254035,Vietnamese Restaurant
2664,1246,50.1055,14.4506,38,1,582305c6cd49d23701b0cae5,U Holiše,50.104951313710345,14.447686276001436,Czech Restaurant
2843,1425,50.1255,14.6282,3,0,5829c29687d6d938708bedca,Hero Bistro,50.124607,14.622841000000001,Asian Restaurant
2128,710,50.0755,14.4654,23,13,582c47495e56b46f5a539168,Pho Viet Nan,50.077566,14.461159,Vietnamese Restaurant
1532,114,50.0255,14.495,6,0,583c226ac0df761f5ca70321,Sushi Noodles by Kobe,50.0284376412978,14.49349502978493,Japanese Restaurant
825,495,50.0855,14.4062,35,32,583f35cd9850a07ec11b7aa8,Private Dining,50.08461186052729,14.405520017196634,Asian Restaurant
2172,754,50.0855,14.347000000000001,5,3,584311827d0f6d56907fe24d,Plzeňská pivnice Petřiny,50.08873211436314,14.349607499680506,Czech Restaurant
2163,745,50.0755,14.642999999999999,4,1,5846f898a598b36bfb7032fd,Sushárna,50.077709999999996,14.647863000000001,Asian Restaurant
1683,265,50.0455,14.569,1,0,5852d80d03e29a60fe5b4943,Texicana,50.044101,14.568744,Fast Food Restaurant
587,257,50.07776092933239,14.432300691395733,31,8,585568ffabf63277f15750b8,Chutnoff Centrum,50.076603999999996,14.430566,Russian Restaurant
2693,1275,50.1055,14.4506,38,30,586e3fddef46945cba96b662,Kebabči,50.103543,14.449994,Doner Restaurant
1431,13,49.9855,14.3618,8,1,5872101951666a3890c96eed,Pho Radotín,49.985268,14.364929,Vietnamese Restaurant
1387,1057,50.0932390706676,14.447099230957482,32,24,587a198ddebdf66d8d9ca47d,Zabijačka,50.093028000000004,14.446948,Czech Restaurant
502,172,50.07776092933239,14.42449930860426,44,25,5883831f51d19e79a173594c,Donnerkebab Chalid,50.078468,14.426848999999999,Doner Restaurant
1503,85,50.0155,14.421,2,1,58877b54e18e652451a3fef6,Modřanské Labe,50.013283,14.421617000000001,Czech Restaurant
930,600,50.0855,14.421,50,22,589cfe8918fd2b55c917ed9d,Deer,50.085578085444716,14.419576359353297,Modern European Restaurant
2495,1077,50.0955,14.421,27,1,589f2d31dc3329197ed92178,Loď Pivovar,50.09344143091883,14.42660280841251,Czech Restaurant
1713,295,50.0555,14.4358,14,6,58a342a714f8f4092cc72dad,Bistro u Gogi,50.05622019846528,14.437149108803597,Caucasian Restaurant
1864,446,50.0655,14.4506,24,17,58af38ff2cba22407389bad1,LuckyCina,50.062943,14.447459,Asian Restaurant
2760,1342,50.1055,14.569,2,1,58af5d2cac329112133bac8c,Hokejka,50.104778,14.574677,Modern European Restaurant
2422,1004,50.0855,14.4654,18,14,58b4744abf1a6d6f3be248eb,Bento House,50.0898,14.465929999999998,Vietnamese Restaurant
1887,469,50.0655,14.495,9,2,58b97c7151666a48d2182538,My Way Döner Kebab,50.06815,14.493307999999999,Doner Restaurant
699,369,50.0732390706676,14.439299308604259,37,15,58c038aef66b280a53d444f0,Masala Indian restaurant,50.07198546882821,14.439448444862153,Indian Restaurant
510,180,50.07776092933239,14.42449930860426,44,33,58c1337452e32d6c9b321bca,Wasabi Sushi,50.0799,14.424995999999998,Japanese Restaurant
2193,775,50.0855,14.3766,12,11,58c1912eae97567dc34de577,AūCó Vietnamese Foods,50.08490938641858,14.377099962171245,Vietnamese Restaurant
1801,383,50.0655,14.421,26,7,58c7c765110d032939b82842,Lang Biang,50.067777588129985,14.420900786633911,Asian Restaurant
1891,473,50.0655,14.495,9,6,58d118710319b86f8f06900c,Naše Kuchyně,50.066032,14.491052,Czech Restaurant
2733,1315,50.1055,14.495,28,11,58d4032c02b60e1dc64b62b6,Satyam,50.10408306680071,14.490845474956851,Indian Restaurant
2177,759,50.0855,14.3618,8,3,58d6552552a0514ef30e88d1,Restaurace U Malého Slona,50.087538882278224,14.36737646052858,Vietnamese Restaurant
975,645,50.08776092933239,14.417499961382266,50,17,58da3895fef5fa5aa7cd3ca8,Muc Dong,50.08789019571263,14.41542061019925,Vietnamese Restaurant
2826,1408,50.1255,14.4654,9,7,58db98c7a4367c4e6c15ba24,Čína Na Ládví,50.125999,14.469311,Chinese Restaurant
2678,1260,50.1055,14.4506,38,15,58e38100a370b949d8fcf3a4,banh—mi—ba,50.105470350376905,14.456292402940582,Vietnamese Restaurant
1389,1059,50.0932390706676,14.447099230957482,32,26,58ee06bb88cfcc09c2c5c6a5,čínskej bufetík,50.092240999999994,14.444345000000002,Japanese Restaurant
2143,725,50.0755,14.495,6,4,58f229ffa8792165780089e2,Pizzeria & Mexicana - Carosello,50.076865000000005,14.492966000000001,Mexican Restaurant
594,264,50.07776092933239,14.432300691395733,31,15,58f73f374acb193046dc0618,VJ Kitchen,50.0762599496265,14.432128518819807,Sushi Restaurant
2535,1117,50.0955,14.4358,32,14,58f8010cd7627e74d5831f1f,Vincanto,50.09217467199562,14.43260461091995,Italian Restaurant
2159,741,50.0755,14.5394,12,10,58fc7e5a356b4972b0a811ad,Appetty's,50.072052,14.538610999999998,Czech Restaurant
2472,1054,50.0955,14.4062,30,8,58fcd79ea35dce24a172a11e,Indian by Nature II,50.09850292211292,14.402786062862306,Indian Restaurant
2141,723,50.0755,14.495,6,2,5903724975eee4321839be0e,Chef Kebab,50.07678985595703,14.488590240478516,Doner Restaurant
1869,451,50.0655,14.4506,24,22,5912e0402be4251e38953cad,Sanjay,50.067532,14.456579999999999,Vegetarian / Vegan Restaurant
1434,16,49.9855,14.3618,8,4,5913073e28122f200a10c77b,MiKay,49.985546,14.364823999999999,Vietnamese Restaurant
1910,492,50.0755,14.3914,8,3,5914a56089e490471c857b9b,Čínská Restaurace - Li Lie,50.073044,14.392439999999999,Chinese Restaurant
1114,784,50.0832390706676,14.424500038617733,50,6,5917271c6f706a51e224f1af,VietFOOD,50.08301987086408,14.426941520036,Vietnamese Restaurant
710,380,50.0732390706676,14.439299308604259,37,26,59233675a2c00b5f247a9dba,Bistro & Kavárna,50.073157,14.442057,Vietnamese Restaurant
455,125,50.07776092933239,14.417500691395738,35,26,592a0befb1ec136d9f2d5a6d,nico's place,50.077849,14.414833999999999,Italian Restaurant
2525,1107,50.0955,14.4358,32,4,592f00d1029a556ee9eb925e,Kostelní 16,50.097699945412366,14.431225620971874,Modern European Restaurant
1843,425,50.0655,14.4358,27,23,592fe55216fa047ec0affd57,U Ptáka,50.066734000000004,14.438062,Czech Restaurant
2797,1379,50.1155,14.5986,6,5,59319e6fa5a3154fb14fbd17,Curry & tikka,50.11186842675959,14.596994519233704,Indian Restaurant
2629,1211,50.1055,14.3914,19,6,593261d246e1b65279f0d53e,Bánh Mì Makers,50.101651000000004,14.393598999999998,Vietnamese Restaurant
712,382,50.0732390706676,14.439299308604259,37,28,593689394febd570b22b5b5d,Tra&Pha,50.073093,14.44229,Vietnamese Restaurant
1571,153,50.0355,14.4802,3,2,5938258833627343d739bc9e,Sushi Blue Chef,50.033028,14.482406,Sushi Restaurant
1782,364,50.0655,14.4062,22,10,5942ce0606fb60073794a20d,Barranco,50.062740999999995,14.409237,Peruvian Restaurant
2782,1364,50.1155,14.4654,5,1,5947a870db1d815a3bc3aaa1,Restaurace a penzion Koráb,50.11326640376875,14.467521568295783,Modern European Restaurant
755,425,50.07776092933239,14.447100691395738,18,14,594cce4c135b395f12834cee,Petite Bruges,50.078051,14.449570000000001,Belgian Restaurant
2872,1454,50.1455,14.332199999999998,2,1,595b88e9c365882ea408af03,Zazobana Slepice,50.146846999999994,14.335009,Czech Restaurant
1765,347,50.0655,14.3618,5,1,595e5aca8194fc3200c7d523,Restaurace Caravan Camp,50.068504,14.3585,Czech Restaurant
1593,175,50.0355,14.5986,6,2,5960c6a1610f0449bda45762,Ha Long,50.03284652135107,14.596615737085687,Asian Restaurant
1852,434,50.0655,14.4506,24,5,5967149ea9e40247a7135305,Kyoto,50.066116,14.448878,Chinese Restaurant
1285,955,50.08776092933239,14.454100038617733,24,0,596a0ffb7cc90f68a5a2e8a5,Nepálská a indická restaurace Lumbini,50.087882417791704,14.456667639087147,Indian Restaurant
2822,1404,50.1255,14.4654,9,3,596a444950a6f07512e6b2bb,INTRE,50.12769050864261,14.45994973182678,Italian Restaurant
2892,1474,50.1555,14.5246,4,2,5971e6af6fa81f70950981c5,Môc,50.151775,14.523921,Vietnamese Restaurant
2418,1000,50.0855,14.4654,18,10,59762833c4df1d5f0126d207,U Rohatejch,50.089187577887074,14.465437565870294,Czech Restaurant
1487,69,50.0055,14.569,11,4,59789c95f2905e16c7125f5e,Gyros & Grill,50.003319,14.574046,Asian Restaurant
1723,305,50.0555,14.4506,10,2,5980a7adf96b2c16eab980a3,Thaj Samui,50.05536396208518,14.455193011562836,Thai Restaurant
1548,130,50.0355,14.332199999999998,4,3,598219bc3af98813d4ec0382,Kitchen Story My Way,50.039103000000004,14.328795999999999,Mediterranean Restaurant
1862,444,50.0655,14.4506,24,15,598300cd270ee749da94bca0,Jie Jie,50.065451,14.444896,Chinese Restaurant
434,104,50.07776092933239,14.417500691395738,35,5,599339479be52204b16c5392,Kathmandu,50.07829112031367,14.41493902131357,Indian Restaurant
2627,1209,50.1055,14.3914,19,4,599b07f8efa82a1384523e3a,Symphonia Restaurant & Garden,50.108712,14.393362,Modern European Restaurant
2643,1225,50.1055,14.4062,8,1,599b2ae883e38014d80c31b2,V zahradě,50.10344961430371,14.40836211514176,Modern European Restaurant
2460,1042,50.0955,14.3914,6,2,599d605be679bc398b002ad6,Burger Meets Diplomat,50.099786,14.390057,Italian Restaurant
2653,1235,50.1055,14.4358,11,1,599dc7788d0a5373f480b66f,Ali Baba Kebap,50.101452558288535,14.433411955833435,Doner Restaurant
2206,788,50.0855,14.3914,14,12,59b3ac2f6a8d860b7207b9da,Restaurace Pohořelec,50.087406,14.389251999999999,Czech Restaurant
2776,1358,50.1155,14.3914,2,0,59b3db309e3b6542bdcfb50f,DC - Omaha,50.113845,14.389263,Vietnamese Restaurant
2877,1459,50.1455,14.4802,1,0,59ba6078e1f2287933c3d078,Pod Hvězdárnou,50.143454,14.477310000000001,Czech Restaurant
505,175,50.07776092933239,14.42449930860426,44,28,59bfa4316bdee626d869353d,Fili Restaurant,50.078967999999996,14.427173000000002,Asian Restaurant
1722,304,50.0555,14.4506,10,1,59c14fd966f3cd5089428b7f,Jezerka U Divadla,50.05791568527257,14.444881381684219,Czech Restaurant
2660,1242,50.1055,14.4358,11,8,59c4d46ea5a315336a70737d,Classe Italia Ristorante,50.10788,14.436831,Italian Restaurant
86,86,50.082108606001405,14.419249898147704,17,14,59ca2736610f040d4ad37dfa,Spicymama,50.08151693014095,14.420223579430365,Asian Restaurant
2762,1344,50.1055,14.5838,14,1,59d768d6e1f0aa52972c0695,Restaurace Globus,50.10808776805968,14.585905513800723,Czech Restaurant
1575,157,50.0355,14.495,5,3,59dbb49d446ea63601c0ecf5,Sushi Time,50.03201165508837,14.491211285530026,Sushi Restaurant
1483,65,50.0055,14.569,11,0,59dc9562f427de2d1d990798,U Fleka,50.004148,14.563991,Czech Restaurant
319,319,50.088891393998594,14.426250140480542,14,13,59ddffa2c21cb12aaf5c4fe7,Čínské bistro s knedlíčky,50.088951,14.427646,Chinese Restaurant
2730,1312,50.1055,14.495,28,8,59df43d567a9fe39ca40c27b,U Pecků,50.10912203212798,14.498589634895325,Czech Restaurant
1851,433,50.0655,14.4506,24,4,59e1fdd993bd631a22326a96,Hua Long Zhai,50.06799225708105,14.454550529670207,Chinese Restaurant
1604,186,50.0455,14.3174,8,4,59e773303b8307453b4ff77a,Colonial Coloseum,50.04548187223377,14.322484118547488,Italian Restaurant
2345,927,50.0855,14.4358,50,37,59edd9b9628c8339ba67524e,Quan Buns,50.08532196747972,14.441091624528866,Vietnamese Restaurant
1848,430,50.0655,14.4506,24,1,59ee1d7316ef676354a1ce74,Sajado,50.06622684649018,14.448920488357544,Sushi Restaurant
1774,356,50.0655,14.4062,22,2,59f39cff419a9e34fc09ca94,Srdcovka Gurmania,50.061862839473235,14.409650144934751,Czech Restaurant
2634,1216,50.1055,14.3914,19,11,59fda476286fda1f005e6b33,La Piada,50.101616,14.393582,Italian Restaurant
633,303,50.0732390706676,14.432300691395733,43,23,59ff907ab2958f78fd59b107,McCarthys,50.07385,14.432208,Czech Restaurant
2308,890,50.0855,14.4358,50,0,5a06f172db1d816f1657f4cf,Restaurace Tiskárna,50.08429288047879,14.429067738623033,Czech Restaurant
1731,313,50.0555,14.4654,1,0,5a11723acf72a041147ddede,Michelská krčma,50.057004,14.470229000000002,Czech Restaurant
2457,1039,50.0955,14.3766,4,3,5a13355ce97dfb10df8121bc,Tierra Tízoc,50.096990000000005,14.370220000000002,Mexican Restaurant
448,118,50.07776092933239,14.417500691395738,35,19,5a1ac700c824ae54c38f4236,Bistro Palermo,50.078309000000004,14.416225,Italian Restaurant
2646,1228,50.1055,14.4062,8,4,5a1fc5ff1543c73bdd9b1eb2,Bistro Na břehu Rhôny,50.10258404599385,14.402782229568233,French Restaurant
1789,371,50.0655,14.4062,22,17,5a219efe3ba76764923172d4,Dave B,50.06771253800332,14.409516158313439,Eastern European Restaurant
2837,1419,50.1255,14.5098,4,0,5a228ffa3ba7676492fa6c1c,Restaurace Lovosická,50.124012,14.505476000000002,Czech Restaurant
652,322,50.0732390706676,14.432300691395733,43,42,5a27deb3fd16bb3c58990eb4,Red Dragon,50.071255,14.430931,Vietnamese Restaurant
2820,1402,50.1255,14.4654,9,1,5a2935fed552c750d220e281,Viet Thai,50.126615,14.469598000000001,Vietnamese Restaurant
1798,380,50.0655,14.421,26,4,5a2fe045f427de4c025f95c1,Pocha,50.06565943323126,14.42609653364836,Korean Restaurant
576,246,50.0755,14.4358,50,47,5a35150a9746177e46527533,Xin Dong Hai,50.07544,14.433964000000001,Chinese Restaurant
2094,676,50.0755,14.4506,50,29,5a3aae7e75eee427b97a9a5e,Mist,50.07532715395681,14.445028839759946,Asian Restaurant
498,168,50.07776092933239,14.42449930860426,44,21,5a3bef1586f4cc68659bf375,Mala India Restaurant,50.07764,14.427592,Indian Restaurant
1780,362,50.0655,14.4062,22,8,5a44cf7925ecca3a34a3b288,Taro,50.06973060000001,14.405668599999998,Vietnamese Restaurant
2540,1122,50.0955,14.4358,32,19,5a4787d36e4650136ebcb95a,Restaurace u Udonu,50.098217,14.4345,Asian Restaurant
2428,1010,50.0855,14.5098,5,1,5a4e6351d69ed055232d940f,Neami,50.08330184508358,14.508641476027377,Vietnamese Restaurant
2604,1186,50.0955,14.4654,4,1,5a5600b228122f3fc29dbe18,Sushi Time,50.09825568169096,14.465771284285367,Sushi Restaurant
2482,1064,50.0955,14.4062,30,18,5a575757b2958f07a9ba6223,BonArt,50.099213,14.403737,Korean Restaurant
1678,260,50.0455,14.5542,5,0,5a5ab644bfc6d016e8000940,Green,50.048955167413204,14.551270542431705,Italian Restaurant
1518,100,50.0155,14.5838,1,0,5a61d780ea1e443f6b359cbd,Restaurant Cafe Pitkovice,50.018159999999995,14.5835495,Czech Restaurant
550,220,50.0755,14.4358,50,21,5a6cc35b75eee465ccf9cafe,Hana,50.075503999999995,14.439303,Vietnamese Restaurant
2765,1347,50.1055,14.5838,14,4,5a744a5e35811b1082d3eb1c,Thai Thai,50.10864727324515,14.585840365737806,Thai Restaurant
1847,429,50.0655,14.4506,24,0,5a7f5a76e1791029a9663df3,Mistro,50.06915733430382,14.45395226955641,Modern European Restaurant
1756,338,50.0655,14.302599999999998,10,6,5a81701e1953f35cd3fabd48,Phó Phong,50.065463,14.298829999999999,Vietnamese Restaurant
1121,791,50.0832390706676,14.424500038617733,50,13,5a9d5e5725fb7b626582278e,"Restaurace ""Otevřeno""",50.08322232271664,14.4225811958313,Czech Restaurant
2608,1190,50.0955,14.4802,5,1,5a9d72f00f013c2e7f15ae02,Pasta Love,50.092341587656286,14.480323791503904,Italian Restaurant
2523,1105,50.0955,14.4358,32,2,5a9ff6d9e65d0c6036ebd7d8,Onigirazu,50.099076000000004,14.431717,Japanese Restaurant
2773,1355,50.1055,14.5838,14,12,5aa6641c1755621d76889d08,Sushi Time  Kiosk,50.107753,14.585295,Sushi Restaurant
792,462,50.0732390706676,14.454099308604262,4,3,5ab41638772fbc3a7fd2cf30,Benjamin,50.071903000000006,14.455359,Modern European Restaurant
1544,126,50.0355,14.3174,2,1,5ab4fe1447f87622c43d0003,Gruzínské bistro a restaurace,50.032787,14.311995999999999,Caucasian Restaurant
1514,96,50.0155,14.4802,3,2,5ab52b8b98fbfc24c7eda594,Sushi Take Away,50.0134,14.485644,Sushi Restaurant
2477,1059,50.0955,14.4062,30,13,5abd1d05f62e0921d8e39b71,Al Castello,50.09506,14.409574,Italian Restaurant
1672,254,50.0455,14.495,6,2,5abd5bc81f8ed605c19fc806,Staročeská Pivnice,50.04152765919414,14.496384859085085,Czech Restaurant
1836,418,50.0655,14.4358,27,16,5ac35d73c0363523292ef653,Street Kitchen,50.064182,14.441537,American Restaurant
1662,244,50.0455,14.4506,38,31,5acb2fb060d11b01325854f6,Shao Long,50.044462,14.457032,Chinese Restaurant
2689,1271,50.1055,14.4506,38,26,5ad0a2f2c0cacb295ca67c5e,Super Doner Kebab,50.102221,14.449866,Doner Restaurant
632,302,50.0732390706676,14.432300691395733,43,22,5ad3701b3e6741122bbe2dd1,U Baumanů,50.072559999999996,14.433418,Czech Restaurant
2835,1417,50.1255,14.495,6,4,5ad3d8ad95a7226989834c17,Doner Kebab,50.12529,14.494709,Doner Restaurant
2865,1447,50.13549999999999,14.5542,4,0,5ad61442f0ca956b48eb4c1f,Bistroš,50.132749555548,14.550707910114767,Sushi Restaurant
2630,1212,50.1055,14.3914,19,7,5adb02ccb9ac38157efeb441,TamarindTree,50.101395000000004,14.393519,Dim Sum Restaurant
2500,1082,50.0955,14.421,27,6,5adce8ea1ffed71f5ab8b821,Gruzie restaurant,50.09101725941196,14.421240091323854,Caucasian Restaurant
1914,496,50.0755,14.3914,8,7,5ae8a850033693002ce4e6f6,Restaurace Cihelna,50.07318,14.393961,Czech Restaurant
2759,1341,50.1055,14.569,2,0,5aea003fff0306003920f932,Hokejka Restaurace,50.105495,14.574836,Czech Restaurant
1609,191,50.0455,14.332199999999998,5,1,5aedcac5acb00b002c822320,Gourmet,50.043785,14.331831,Vietnamese Restaurant
2666,1248,50.1055,14.4506,38,3,5af2feeae96d0c0039052415,Bento,50.102299230378094,14.450003302393132,Vietnamese Restaurant
1850,432,50.0655,14.4506,24,3,5af32bbd66f3cd002b3c052d,Sada Punjab,50.067378000000005,14.44881,Indian Restaurant
328,328,50.086630464666186,14.426250140480542,10,8,5af88c7e149946002cb357f3,Public Chilli,50.08647490666078,14.42519733047105,Asian Restaurant
2131,713,50.0755,14.4654,23,16,5afc350bb23dfa002c7b06c4,Döner Kebab,50.076997,14.463917000000002,Doner Restaurant
2803,1385,50.1255,14.2878,1,0,5aff06f1531593002c8c04cc,La Pasteria,50.12659,14.281429999999999,Italian Restaurant
1638,220,50.0455,14.4506,38,7,5b0c3a0897cf5a0039c1e31a,Tasty Döner Kebab,50.047381,14.445684,Doner Restaurant
2416,998,50.0855,14.4654,18,8,5b0d20f897cf5a00394bdb2b,Fusion Box,50.083690000000004,14.464629,Asian Restaurant
757,427,50.07776092933239,14.447100691395738,18,16,5b102bc20dd31f002416897c,Avenue Restaurant & Bar,50.077168816149815,14.446482360363008,Modern European Restaurant
1779,361,50.0655,14.4062,22,7,5b111d45464d65002c145131,Pho Tu Quynh,50.06272572497583,14.409481639704726,Vietnamese Restaurant
1190,860,50.08776092933239,14.432299961382265,35,25,5b12888f2aff31002cf145cd,Sicileat,50.089046,14.429432,Italian Restaurant
2674,1256,50.1055,14.4506,38,11,5b15032b25ecca002c0625d5,Pho 559,50.10330509185646,14.451752810560087,Vietnamese Restaurant
2501,1083,50.0955,14.421,27,7,5b183d69bcbf7a002c48725e,Kalina Anežka,50.092040999999995,14.423967999999999,French Restaurant
1223,893,50.08776092933239,14.439300038617732,5,4,5b1e5fc3d48ec1002c4c1f01,Yazu,50.088871999999995,14.437110999999998,Asian Restaurant
2510,1092,50.0955,14.421,27,16,5b2236173fcee8002ccbef37,Elements,50.09256872968329,14.419799745082855,Italian Restaurant
1656,238,50.0455,14.4506,38,25,5b26799481a0ea003970e8a2,Rancheros,50.043846,14.449148999999998,Mexican Restaurant
2780,1362,50.1155,14.4506,1,0,5b2ac4eb1acf11002c2b725e,Sunflower,50.117308717167575,14.456728398799894,Vietnamese Restaurant
1025,695,50.0832390706676,14.417499961382266,50,17,5b2c07b34acb19002ca4bbf1,L’Osteria,50.08165417523448,14.417370267344706,Italian Restaurant
2654,1236,50.1055,14.4358,11,2,5b326e0f12c8f0002c5f691d,Restaurace U Kohouta,50.102564,14.433873,Czech Restaurant
2170,752,50.0855,14.347000000000001,5,1,5b335878054e29002bd11bca,Binh Minh,50.08914377400124,14.346936892496364,Asian Restaurant
2875,1457,50.1455,14.4506,4,2,5b34a89b9be522002c5f42d3,Tobiko,50.14635,14.450876999999998,Sushi Restaurant
2815,1397,50.1255,14.4506,8,4,5b3c9b8fbed483002c68104a,U Cihelny,50.126635,14.454710999999998,Czech Restaurant
1152,822,50.0832390706676,14.424500038617733,50,44,5b4365e8a89b5a0024857962,Amritsar Mail,50.08122063644103,14.425199031829836,Indian Restaurant
1517,99,50.0155,14.5098,2,1,5b5458c89be522002c497d66,Chopsticks Bistro,50.013090000000005,14.513302,Asian Restaurant
2142,724,50.0755,14.495,6,3,5b561cad2d2fd9002ca92906,Král Kebab,50.07694332246407,14.494701772928236,Turkish Restaurant
149,149,50.0855,14.421,25,21,5b596d07237dee002c7ef569,Hi Viet Food,50.084848738836214,14.420510530471802,Vietnamese Restaurant
1857,439,50.0655,14.4506,24,10,5b5a04eed03360002c0abfda,ORGANIC SUSHI,50.063681,14.444304,Sushi Restaurant
1807,389,50.0655,14.421,26,13,5b687b5c947c05002c6b9c7c,Asean Food Vietnamese Restaurant,50.064820000000005,14.427031,Vietnamese Restaurant
2612,1194,50.0955,14.495,5,0,5b6c21bf61e53b002c77216a,Čínská restaurace Tian Jin,50.094715,14.495942000000001,Chinese Restaurant
1823,405,50.0655,14.4358,27,3,5b740ff9396de00039d0caef,Tô-Mì-Asian,50.067978000000004,14.433278,Vietnamese Restaurant
1854,436,50.0655,14.4506,24,7,5b8170f635f983002c1934e8,Phở u paní Hoa,50.064747,14.45258,Vietnamese Restaurant
2731,1313,50.1055,14.495,28,9,5b819b33b9a5a8002c6a80ad,Kebab House,50.1070588535681,14.492130875587465,Turkish Restaurant
1251,921,50.0855,14.4506,31,25,5b82895db6eedb002ce6995f,La SaiSon,50.084773999999996,14.450788000000001,Vietnamese Restaurant
2669,1251,50.1055,14.4506,38,6,5b85670a123a19002c1895d2,The Eatery,50.10739835156991,14.450885966258635,Modern European Restaurant
2636,1218,50.1055,14.3914,19,13,5b8a65aabcbf7a002cbf08a3,#Milujupadthai,50.101524,14.393254999999998,Thai Restaurant
1501,83,50.0155,14.3914,1,0,5b8fa79b1b0ea5003935a50c,Rosmarina,50.013514,14.39742,Italian Restaurant
509,179,50.07776092933239,14.42449930860426,44,32,5b99c487419a9e002cc73031,Aspendos,50.077255,14.423914000000002,Turkish Restaurant
1849,431,50.0655,14.4506,24,2,5ba36e62340a58002cc318f6,Šehrzad,50.066320000000005,14.456488,Turkish Restaurant
2682,1264,50.1055,14.4506,38,19,5ba3872092e7a9002c2ae545,Hurry Curry,50.10388451040282,14.452664268583392,Indian Restaurant
1603,185,50.0455,14.3174,8,3,5bb09d4346e1b6002c9977dc,Oriental Food,50.045212,14.323198999999999,Asian Restaurant
2750,1332,50.1055,14.5098,1,0,5bb4fd96f4b525002c1a27a7,You & Me,50.102905,14.5100975,Vietnamese Restaurant
1555,137,50.0355,14.4062,8,1,5bb6385e6dcf04002c598ce1,Trezor,50.036113458329154,14.412931232575632,Czech Restaurant
1686,268,50.0555,14.2878,10,2,5bb8e0cb81635b002c9ca098,U Sousedů na Zličíně,50.05870365771463,14.287395045829026,Czech Restaurant
2687,1269,50.1055,14.4506,38,24,5bb9d916e1f0aa002ccc5cd4,Kebab,50.103495,14.450153,Kebab Restaurant
1388,1058,50.0932390706676,14.447099230957482,32,25,5bbf377d3af988002c49461d,Thu Thuy,50.092009999999995,14.44946,Vietnamese Restaurant
1458,40,50.0055,14.421,9,3,5bceffc66fd626002c49af1f,Indické Občerstvení Curry & Kebab,50.007046,14.41666,Indian Restaurant
596,266,50.07776092933239,14.432300691395733,31,17,5bd1a3f4c97f28002c9f1395,Yosoki,50.076031,14.432092,Sushi Restaurant
2635,1217,50.1055,14.3914,19,12,5bda1a71b37e2b002c5a7681,Döner Kebab U Profesora,50.104729999999996,14.394570000000002,Doner Restaurant
2891,1473,50.1555,14.5246,4,1,5bdaf0846336be002c6a458b,Bamboo,50.151537,14.526201,Vietnamese Restaurant
2718,1300,50.1055,14.4802,17,13,5bdeeccf4c954c002c1e65c4,Masami,50.104275,14.478445,Sushi Restaurant
630,300,50.0732390706676,14.432300691395733,43,20,5be85083b23dfa002cfb78c8,Ke Lai Fu,50.072097,14.432179999999999,Chinese Restaurant
2870,1452,50.13549999999999,14.6578,2,1,5be8991b826444002c0e81ef,Ta Pravá,50.13356742378818,14.660812318325037,Chinese Restaurant
1776,358,50.0655,14.4062,22,4,5c01578b492814002ceec307,Rangoli,50.069593,14.406554999999999,Indian Restaurant
2832,1414,50.1255,14.495,6,1,5c04635bff0306002d8c5b03,Srdcovka Prosek,50.12303308184961,14.496815428279398,Czech Restaurant
1868,450,50.0655,14.4506,24,21,5c0829ea61f070002b83815b,Šehrazad,50.066204,14.456604,Doner Restaurant
624,294,50.0732390706676,14.432300691395733,43,14,5c0cf15f1af852002cc2cfc0,Wonderlust Coffee & Restaurant,50.074883,14.430346499999999,Vietnamese Restaurant
1270,940,50.08776092933239,14.447099961382266,14,13,5c10f8d0c53093002cf5d1df,Green Tea,50.086346,14.446254999999999,Asian Restaurant
1712,294,50.0555,14.4358,14,5,5c111251829b0c002c69d322,Hamy’s Kitchen,50.054483000000005,14.436162,Vietnamese Restaurant
2869,1451,50.13549999999999,14.6578,2,0,5c12bd0d28374e002c7f08b1,LeLe,50.133471,14.660817999999999,Chinese Restaurant
2521,1103,50.0955,14.4358,32,0,5c23adfa00b068003a139071,Las Adelitas,50.091875,14.434729999999998,Mexican Restaurant
2334,916,50.0855,14.4358,50,26,5c2669371ffed7002cfe3526,Sklep,50.08986634732514,14.435072243213652,Czech Restaurant
1329,999,50.0832390706676,14.454100038617733,29,20,5c2e02c4a35dce002cc6a0cd,Las Margaritas,50.081286999999996,14.453932,Mexican Restaurant
1897,479,50.0655,14.5542,1,0,5c2e0343a0215b002cfc1912,Gourmet,50.06629,14.549353,Asian Restaurant
375,45,50.0732390706676,14.402700691395738,32,16,5c2f9f53419a9e002c7691e8,La Cava Valenciana,50.07138,14.401133999999999,Tapas Restaurant
1365,1035,50.0932390706676,14.447099230957482,32,2,5c30abfe75dcb7002c9bea6d,Khomfi,50.09130418362189,14.445515037541869,Asian Restaurant
1455,37,50.0055,14.421,9,0,5c38b45b8c812a002cea27e4,Restaurace Jaro,50.006170000000004,14.416827,Asian Restaurant
2133,715,50.0755,14.4654,23,18,5c520586fd9d73002d5ea3df,Habanero Mexican Grill,50.07863,14.461232,Mexican Restaurant
1570,152,50.0355,14.4802,3,1,5c5239766e465000393f6a09,Curling Club,50.03682912668464,14.480775310199062,Modern European Restaurant
1125,795,50.0832390706676,14.424500038617733,50,17,5c5c0fcadd12f8002c5905b9,Rozmarinn restaurant,50.081308,14.424798000000001,Czech Restaurant
2805,1387,50.1255,14.421,6,0,5c5dd006610f04002cf1648f,Sola Enotria,50.127354,14.417475,Italian Restaurant
1853,435,50.0655,14.4506,24,6,5c60b40ea22db7003947cc54,U Tří soudků,50.0665057634445,14.455379247665405,Vietnamese Restaurant
2410,992,50.0855,14.4654,18,2,5c62a5ca58002c002c9bf7c4,Pho Ever,50.0898,14.466048,Vietnamese Restaurant
1459,41,50.0055,14.421,9,4,5c62abd993bd63002cc88347,Jaro,50.006172,14.417171,Vietnamese Restaurant
2807,1389,50.1255,14.421,6,2,5c65c312d9051600257e0d56,Running Sushi Yumi,50.12757,14.418154999999999,Sushi Restaurant
1537,119,50.0255,14.495,6,5,5c6e8f7d12c8f0002cb4f782,Ensar Kebap,50.025757,14.493113000000001,Doner Restaurant
2152,734,50.0755,14.5394,12,3,5c7157941acf11002cc5ee61,Satyam,50.07407,14.539403,Indian Restaurant
2118,700,50.0755,14.4654,23,3,5c7678701f8ed60039912637,Hoja Pot 喝呷霸 (Hoja Pot),50.075935,14.465302,Taiwanese Restaurant
1633,215,50.0455,14.4506,38,2,5c791bc5efa82a002c24072f,Tom Yam P,50.045559999999995,14.449976000000001,Asian Restaurant
2849,1431,50.13549999999999,14.3766,3,1,5c7966a87dc9e1002c631886,Kebab Ibrahim,50.133293,14.376043,Turkish Restaurant
1648,230,50.0455,14.4506,38,17,5c87ec29de3bbf002c6dae9b,Restaurace Pragos,50.044464000000005,14.4550905,Czech Restaurant
1726,308,50.0555,14.4506,10,5,5c97c9bbcd441c002c5ce71b,Botič Restaurant,50.055766999999996,14.451258,Czech Restaurant
1564,146,50.0355,14.421,5,2,5c9b653ebd4009002cc890a4,Pražský Ramen,50.03521,14.414824,Ramen Restaurant
2882,1464,50.1455,14.5838,6,0,5c9bb199cf72a0002c55ea7a,Mẹ tôi,50.14278883969089,14.578304886817932,Asian Restaurant
701,371,50.0732390706676,14.439299308604259,37,17,5c9cb1e0b77c770039976bbd,J's Kitchen,50.074493,14.439212,Korean Restaurant
2531,1113,50.0955,14.4358,32,10,5c9fc2797dc9e1002c39951c,Vietnam Food,50.098178999999995,14.434508,Vietnamese Restaurant
2845,1427,50.1255,14.6282,3,2,5ca1d69fc47cf9002cbf04a8,Viet Food,50.124759000000005,14.622207999999999,Vietnamese Restaurant
2775,1357,50.1155,14.3766,1,0,5ca22f41603d2a002c536c62,U Matěje,50.11307617081543,14.379918835048485,Czech Restaurant
2851,1433,50.13549999999999,14.421,1,0,5caa59c0345cbe0039a69a13,Weranda,50.13323741816521,14.416243273209114,Czech Restaurant
2659,1241,50.1055,14.4358,11,7,5cab91c9c0c0840025477eeb,Naše Sushi,50.102540000000005,14.4352255,Sushi Restaurant
2698,1280,50.1055,14.4506,38,35,5cac87b1b9a5a8002cb28401,Mr Wok,50.107152,14.453431,Asian Restaurant
2119,701,50.0755,14.4654,23,4,5cb15afbff0306002cd3f435,Mr. Fat Restaurant,50.076347,14.468060999999999,Asian Restaurant
1700,282,50.0555,14.3766,1,0,5cb6d8fc1a29250025cd7638,sushi time waltrovka,50.056438,14.372292999999999,Sushi Restaurant
2746,1328,50.1055,14.495,28,24,5cb843bd18d43b002c5a370c,Tombik,50.10683242532897,14.489459395408629,Doner Restaurant
1580,162,50.0355,14.5098,6,3,5cbf31def00a70002cf5b54e,Insta Kebab,50.037689,14.507738,Doner Restaurant
782,452,50.07776092933239,14.454099308604262,21,14,5cc2ead1270ee70039fbee88,Ngoc Son,50.079708000000004,14.455097,Vietnamese Restaurant
2437,1019,50.0955,14.2878,10,0,5cc468f8c66666002c05dea8,Lai Lai,50.09272,14.291682999999999,Chinese Restaurant
700,370,50.0732390706676,14.439299308604259,37,16,5cccc21e8a6f17002c2d6b11,Bai shun,50.072638,14.442442999999999,Chinese Restaurant
1546,128,50.0355,14.332199999999998,4,1,5cd068ca4a7aae002cea2200,Restaurace Longan,50.039051,14.328759,Asian Restaurant
1781,363,50.0655,14.4062,22,9,5cdaa24c60255e002c8a188a,El Arriero,50.062027,14.403502,Latin American Restaurant
1736,318,50.0555,14.495,4,3,5cdb0b2a65211f002cf931c3,Restaurace Doma,50.057196999999995,14.496304,Czech Restaurant
2766,1348,50.1055,14.5838,14,5,5ce30dd14aa3f8002c81923a,Bombay Express,50.108856,14.585360999999999,Indian Restaurant
1757,339,50.0655,14.302599999999998,10,7,5ce6774818d43b002ce84842,Hi Vjet Food,50.06555,14.298953,Vietnamese Restaurant
740,410,50.0755,14.4506,20,19,5ce68477c03635002cb1603c,Family TH,50.076674,14.450358999999999,Vietnamese Restaurant
2169,751,50.0855,14.347000000000001,5,0,5ce800bc1af852002c279de2,Isai,50.088978000000004,14.343932999999998,Ramen Restaurant
904,574,50.0832390706676,14.409700038617736,9,5,5ce98d6bf0b490002cfc513f,Kolchida,50.081658000000004,14.410544,Caucasian Restaurant
2684,1266,50.1055,14.4506,38,21,5ceadffa7b4669002b384341,Bistrot Puglia,50.107753828904684,14.450165033340454,Italian Restaurant
2658,1240,50.1055,14.4358,11,6,5ceda7eda22db7002c269e80,Cali Brothers,50.10287706955656,14.432719945907593,New American Restaurant
719,389,50.0732390706676,14.439299308604259,37,35,5cee901b3e6741002cf6c3c4,Pho Thien Lam,50.074021,14.439662,Vietnamese Restaurant
1602,184,50.0455,14.3174,8,2,5cefa0ea588e36002c448b95,Zô,50.046852,14.31112,Vietnamese Restaurant
1879,461,50.0655,14.4654,11,8,5cf1562300b068002d724725,Saigon Memory Food,50.06797607662661,14.462546110153198,Vietnamese Restaurant
2740,1322,50.1055,14.495,28,18,5cf7c9e6f5e9d7002c24ab8f,Running Sushi,50.10411,14.490964000000002,Sushi Restaurant
2881,1463,50.1455,14.5246,1,0,5cfa05b98fb09e003969ec15,Letňanská terasa,50.1416892,14.5221764,Czech Restaurant
1415,1085,50.0932390706676,14.454100769042515,23,20,5d03770c16ef67002c0a09c7,Pho Street,50.093906,14.453485500000001,Vietnamese Restaurant
1337,1007,50.0832390706676,14.454100038617733,29,28,5d03f05f47f8760039231317,Osteria Romana,50.08439,14.454065,Italian Restaurant
1856,438,50.0655,14.4506,24,9,5d0906d59d7468002c5e8cdd,Son Kimbab,50.06197983420106,14.447413086891176,Korean Restaurant
2489,1071,50.0955,14.4062,30,25,5d0e4b5920a53f0023a688d6,Richter Thai,50.092126,14.408586999999999,Thai Restaurant
492,162,50.07776092933239,14.42449930860426,44,15,5d1348ded16a1f0023329c29,La Casa Trattoria V Jámě,50.079888000000004,14.424948,Italian Restaurant
143,143,50.0855,14.421,25,15,5d1b8dfad5d77a0023c71f9d,Tong Shun Ju,50.085414,14.420998,Szechuan Restaurant
1999,581,50.0755,14.421,50,34,5d1c72e36d54f80023b9ba1c,Hoi An,50.075206,14.414663000000001,Vietnamese Restaurant
1563,145,50.0355,14.421,5,1,5d1dc2b3e022ca00230d96af,Hanoj Bistro,50.03563,14.414126999999999,Chinese Restaurant
1835,417,50.0655,14.4358,27,15,5d2369b88be3b00023e8898e,Nieu Dat,50.06392,14.440223999999999,Vietnamese Restaurant
2439,1021,50.0955,14.2878,10,2,5d272ee9a8da67002d7eb1a7,Sumo,50.093216,14.290869,Sushi Restaurant
1896,478,50.0655,14.5098,3,2,5d2b0de15cbbb20023482fba,Shi Wei Tian,50.067238,14.507494,Chinese Restaurant
2479,1061,50.0955,14.4062,30,15,5d2c314e2081a200232218ea,Bitter Sweet,50.09821940139796,14.40508246421814,Vietnamese Restaurant
2189,771,50.0855,14.3766,12,7,5d344fc7e2efbf000803f909,Curry & Tikka,50.084024,14.374137,Indian Restaurant
1886,468,50.0655,14.495,9,1,5d38341abb874e000851e344,Vivi Asian Bistro & Sushi,50.068195,14.493120000000001,Asian Restaurant
1668,250,50.0455,14.4506,38,37,5d3c7cb51bbfbe00071432e3,Bonema Kebab,50.044456,14.447961,Doner Restaurant
644,314,50.0732390706676,14.432300691395733,43,34,5d5fcd4e3aa5e60008726849,Baifu Ramen Bar,50.073491,14.432808999999999,Ramen Restaurant
2415,997,50.0855,14.4654,18,7,5d640a600181700008a0442c,Bonjuk and Dosirak,50.089723,14.463729,Korean Restaurant
1126,796,50.0832390706676,14.424500038617733,50,18,5d66f36157ba49000844af9b,Yam Yam,50.083231,14.421477,Asian Restaurant
1947,529,50.0755,14.4062,50,32,5d7624fdcd95ad000827e51c,Vietnam SH,50.071542,14.405605,Vietnamese Restaurant
1209,879,50.0832390706676,14.432299961382265,19,9,5d7a8df484f21d00089ab9d3,AlDimashqi restaurant,50.082879,14.429398999999998,Mediterranean Restaurant
989,659,50.08776092933239,14.417499961382266,50,31,5d7d1e6b2f509b000732f4c7,Alla Stella Nera,50.086149,14.417104,Italian Restaurant
2866,1448,50.13549999999999,14.5542,4,1,5d7fca0d55525f0007e3b155,Sushi Bistro & caffé Kbely,50.132637,14.550549499999999,Sushi Restaurant
1308,978,50.08776092933239,14.454100038617733,24,23,5d8e56a772233200072b02f0,Restaurace Đa Lộc,50.08743627434865,14.454225838853743,Asian Restaurant
2587,1169,50.0955,14.4506,50,34,5d9372d15f23f50008042e13,Yam Yam,50.094559999999994,14.457213000000001,Thai Restaurant
601,271,50.07776092933239,14.432300691395733,31,22,5d96449fc7851e0007d54842,Moon Gate,50.078727619787074,14.435386061668394,Chinese Restaurant
1710,292,50.0555,14.4358,14,3,5d9c6a9bafac4c0008cfb0f2,Yumi Time,50.052357,14.439457,Asian Restaurant
1390,1060,50.0932390706676,14.447099230957482,32,27,5d9c8c627e1a5c00085fc035,Quán Bún Chã,50.093044,14.450455999999999,Vietnamese Restaurant
1624,206,50.0455,14.4358,7,0,5d9ef8ac6a03eb000832c130,Jun Asian Restaurant,50.041584,14.438801999999999,Chinese Restaurant
2701,1283,50.1055,14.4654,4,0,5d9f41312a8a86000851c07b,Kolkovna Dock,50.104593,14.469268,Czech Restaurant
2183,765,50.0855,14.3766,12,1,5da358860085d90008c2d197,Kurkuma,50.083867732543105,14.376463294029234,Indian Restaurant
233,233,50.086630464666186,14.415749859519455,12,11,5da8a371a4f2c90007b9de54,Karloval,50.08607,14.416645,Czech Restaurant
2574,1156,50.0955,14.4506,50,21,5daed32982355d00075576c4,Aubergine,50.095040000000004,14.456757000000001,Persian Restaurant
1502,84,50.0155,14.421,2,0,5daed5160c54f000086bd519,Cây Tre,50.013603,14.419154,Vietnamese Restaurant
2702,1284,50.1055,14.4654,4,1,5dbc0e461b29440007df0550,WraP ‘n Roll,50.102318,14.468145000000002,Asian Restaurant
2089,671,50.0755,14.4506,50,24,5dbee4bc00b2d60008b8d225,Gilda,50.078704210608045,14.450540542602539,Tapas Restaurant
2563,1145,50.0955,14.4506,50,10,5dc2a82de3fdc20008e3e55a,Woker Karlín,50.095009000000005,14.457459,Asian Restaurant
2729,1311,50.1055,14.495,28,7,5dca8ddcf80a3f0008cdf4c0,GO[O]D FOOD,50.103972999999996,14.489678,Asian Restaurant
1429,11,49.9755,14.3914,10,9,5dcd2ff8e8e17c0008d1582e,pho co zbraslav,49.976504999999996,14.393026999999998,Vietnamese Restaurant
1424,6,49.9755,14.3914,10,4,5dcdcd2b68ee6d00088c8278,Phố Cổ,49.975837,14.392615,Vietnamese Restaurant
2671,1253,50.1055,14.4506,38,8,5dd2e2625c10a80008c7906f,Phở C&A,50.103336,14.446793,Vietnamese Restaurant
2442,1024,50.0955,14.2878,10,5,5dd92444a4403c00084d9b9c,Satyam,50.092881,14.291355,Indian Restaurant
561,231,50.0755,14.4358,50,32,5ddfc63826eee00008b4dc95,Lotus,50.075509999999994,14.4339695,Asian Restaurant
2144,726,50.0755,14.495,6,5,5dea3e6deaf4460008f2e904,Shawarma Corner,50.07201796813784,14.49167490005493,Middle Eastern Restaurant
2856,1438,50.13549999999999,14.495,3,0,5debe4c489d1b10008ac2f0f,Pholévka,50.135406,14.501087,Vietnamese Restaurant
1653,235,50.0455,14.4506,38,22,5df224a7a5bc0c000b9910d3,Sushi time,50.048975,14.453627,Sushi Restaurant
2813,1395,50.1255,14.4506,8,2,5df8fda4059a360009940f07,Phở Šutka,50.125574,14.444414000000002,Vietnamese Restaurant
2117,699,50.0755,14.4654,23,2,5dfcce3616e40c0008d4242a,Pholẽvka,50.078747,14.460992000000001,Vietnamese Restaurant
2768,1350,50.1055,14.5838,14,7,5dfd03fad4a5490008ad6a13,Jambol,50.108284000000005,14.579839999999999,Asian Restaurant
2438,1020,50.0955,14.2878,10,1,5e1a055c7183de00085aef2e,Vietnam Fastfood,50.092821,14.291609,Vietnamese Restaurant
1934,516,50.0755,14.4062,50,19,5e2353ddda8dc0000735a87a,Aroy Thai,50.07165338390804,14.406772255897524,Thai Restaurant
1810,392,50.0655,14.421,26,16,5e2ad56fa1f8b8000700b9a0,Palanok,50.067867,14.420825,Ukrainian Restaurant
1669,251,50.0455,14.4802,1,0,5e3471696141060008d27951,Linh Tasty Asia,50.045703062519806,14.481440931558607,Vietnamese Restaurant
1804,386,50.0655,14.421,26,10,5e3977532ed0ce0008781bac,Nepal House,50.068127581746595,14.416975378990172,Himalayan Restaurant
1525,107,50.0255,14.4358,7,2,5e39d0afc4da68000804ed6c,Il Palloncino,50.02697981231494,14.433159828186035,Italian Restaurant
2005,587,50.0755,14.421,50,40,5e3af5c69129cc0008c8274f,Origami,50.07522,14.414694,Sushi Restaurant
2874,1456,50.1455,14.4506,4,1,5e3b0a27b8824000084db239,Diamond restaurant,50.146126,14.445889000000001,Chinese Restaurant
2548,1130,50.0955,14.4358,32,27,5e432f1cc1b94b000890e824,The Able Butcher,50.0933224205139,14.43926453590393,Modern European Restaurant
2606,1188,50.0955,14.4654,4,3,5e4528d5f17d040007a419f8,Bean House,50.097443,14.464788,Vietnamese Restaurant
739,409,50.0755,14.4506,20,18,5e49f0fd850a7a00089642e7,Phoishii,50.0766764,14.450456400000002,Asian Restaurant
2605,1187,50.0955,14.4654,4,2,5e4a6e48850a7a00088985c8,Bean House,50.097159999999995,14.464819,Vietnamese Restaurant
1440,22,49.9955,14.4654,2,1,5e4aab73781d480008fa641e,Saka Sushi,49.994116999999996,14.467518,Sushi Restaurant
231,231,50.086630464666186,14.415749859519455,12,9,5e51541409326700078bc57d,Charlie’s Ristorante,50.085944399999995,14.4149483,Italian Restaurant
2814,1396,50.1255,14.4506,8,3,5e568c1702591a00083f0102,Habibi Bistro,50.124184,14.456703,Falafel Restaurant
1830,412,50.0655,14.4358,27,10,5e60e540fd0227000770ece7,Viet House,50.063904,14.440299,Vietnamese Restaurant
715,385,50.0732390706676,14.439299308604259,37,31,5e60ecda5507bb0008823cb8,Spago,50.073903,14.439266,Italian Restaurant
2854,1436,50.13549999999999,14.4506,2,0,5e61859765c2c300089b5d85,A posto,50.139965999999994,14.450414000000002,Italian Restaurant
683,353,50.07776092933239,14.439299308604259,31,30,5e70b683d37476000813c6c2,"Hladové Okno ""Kolky""",50.075928000000005,14.439338000000001,Czech Restaurant
2097,679,50.0755,14.4506,50,32,5e95857e295e8a0007638398,Ngọc Ánh Bistro,50.075497,14.444757000000001,Vietnamese Restaurant
2685,1267,50.1055,14.4506,38,22,5e99820e6424ba00070283f8,Phoenix,50.104416,14.449993,Asian Restaurant
1504,86,50.0155,14.4358,5,0,5ea70ff87deff90008dab74e,Restaurace Tempo,50.01945,14.433015,Czech Restaurant
1222,892,50.08776092933239,14.439300038617732,5,3,5ead8fa13c961a00084b25a2,Flying Pot,50.088570000000004,14.437116,Italian Restaurant
2657,1239,50.1055,14.4358,11,5,5ec2921c601d25000871fafa,Teplá kačka,50.10122,14.433831,Asian Restaurant
2738,1320,50.1055,14.495,28,16,5eccf27d4c66cb0008544bf1,Pholẽvka,50.103770000000004,14.490414999999999,Vietnamese Restaurant
2615,1197,50.0955,14.495,5,3,5ece3691507e0200080868cf,Sidi Bou Said Kebab,50.09228,14.491673,Doner Restaurant
88,88,50.082108606001405,14.419249898147704,17,16,5ed690664e304500086f373c,My Wok & Sushi,50.0812997,14.419429199999998,Sushi Restaurant
2667,1249,50.1055,14.4506,38,4,5ed7883343c75900072d1fc4,Restaurace Pod Párou,50.107151,14.453601,Czech Restaurant
2325,907,50.0855,14.4358,50,17,5ed794190af04a0008e7de3d,Restaurant Lêkima,50.0854814,14.4292456,Asian Restaurant
2739,1321,50.1055,14.495,28,17,5eda1f3d357a390008356d46,Phở Anh Tuan,50.105740000000004,14.490273,Vietnamese Restaurant
1909,491,50.0755,14.3914,8,2,5edd1c0679f44f0008f79dd6,CJ26,50.073110799999995,14.3939642,Modern European Restaurant
361,31,50.0732390706676,14.402700691395738,32,2,5edea4e14b2c20653246f444,Grosseto Anděl (Grosseto),50.071278,14.401931,Italian Restaurant
1766,348,50.0655,14.3618,5,2,5ee0d909fbdeb63d9a1fa1e3,Filema,50.0672925,14.367708300000002,Greek Restaurant
1421,3,49.9755,14.3914,10,1,5ee6063a2ff39b000829cf6a,Babá cucina,49.978221000000005,14.394364999999999,Italian Restaurant
1610,192,50.0455,14.332199999999998,5,2,5ee62799dd56ba00078a72eb,Prima bašta,50.043836999999996,14.331833999999999,Czech Restaurant
2700,1282,50.1055,14.4506,38,37,5ee7a3f57d243b0008dddb99,la cucina,50.1019933,14.451039199999999,Italian Restaurant
1983,565,50.0755,14.421,50,18,5ee903939d9c590007d1c20e,Chito Gvrito,50.079293525663516,14.420746564865114,Caucasian Restaurant
2154,736,50.0755,14.5394,12,5,5eee0f7c1b8f000008370c2d,WraP ‘n Roll,50.073887,14.53933,Asian Restaurant
1221,891,50.08776092933239,14.439300038617732,5,2,5eefac79579b5100083339b1,Hanzu,50.088981,14.4373,Asian Restaurant
2185,767,50.0855,14.3766,12,3,5ef439f5f506b9000882c1ee,Restaurace Břevnovka,50.086265138816174,14.370967447757726,Southern / Soul Food Restaurant
1427,9,49.9755,14.3914,10,7,5f06ec9630f22a3344bfbe21,Pho Family,49.972553000000005,14.392482999999999,Vietnamese Restaurant
1883,465,50.0655,14.4802,3,1,5f08d0d899a5105fcb3bc8e9,www.jidlo.asia,50.068577000000005,14.4780245,Chinese Restaurant
2160,742,50.0755,14.5394,12,11,5f103648de8d001b7e71f445,Satyam,50.074092,14.539429,Indian Restaurant
1583,165,50.0355,14.5246,4,0,5f135ccb878b417a06b544d6,Fu Man Lou,50.0320403579616,14.528217315673828,Chinese Restaurant
362,32,50.0732390706676,14.402700691395738,32,3,5f16b9d0daa871763b0e8956,Bombay Express,50.071976,14.401648999999999,Indian Restaurant
985,655,50.08776092933239,14.417499961382266,50,27,5f1c6984c271cb091391aa3d,Piazzetta,50.087756,14.414009,Modern European Restaurant
2613,1195,50.0955,14.495,5,1,5f206910ed76930a9e21758f,Grillinger,50.09233,14.49293,Mediterranean Restaurant
1466,48,50.0055,14.4654,8,1,5f22f3de4d6dbf03a7c72ed2,Bánh Mì Má Lúm,50.003609999999995,14.470897,Vietnamese Restaurant
1827,409,50.0655,14.4358,27,7,5f2403c9d2f1f83020780eb6,Viet Babylon,50.06799,14.433264999999999,Vietnamese Restaurant
2809,1391,50.1255,14.421,6,4,5f2e8fd08f1a825ad35f11e2,Prima bašta,50.12758,14.41799,Czech Restaurant
1725,307,50.0555,14.4506,10,4,5f33e2ae8f1a825ad3136802,Sen Viêt,50.05527,14.454496100000002,Vietnamese Restaurant
1907,489,50.0755,14.3914,8,0,5f3561992bd4ed3e83e7405c,Sacra Restaurant,50.074166999999996,14.397479999999998,Modern European Restaurant
2884,1466,50.1455,14.5838,6,2,5f37e6909e84c4203dad9f8e,Uzbecké speciality,50.14311,14.578641000000001,Middle Eastern Restaurant
1730,312,50.0555,14.4506,10,9,5f41006799f725147633b1ca,Sen Việt,50.055137200000004,14.4554728,Vietnamese Restaurant
2641,1223,50.1055,14.3914,19,18,5f425322efd54d528e89dba3,Restaurant Champa,50.104806700000005,14.394580800000002,Vietnamese Restaurant
1273,943,50.0832390706676,14.447099961382266,14,2,5f4428be354c107b17ba07c4,Bonaccia,50.082260600000005,14.445193300000001,Italian Restaurant
2732,1314,50.1055,14.495,28,10,5f46ae1a453479399a54320f,The Hummus Bar,50.105171,14.488023000000002,Mediterranean Restaurant
2082,664,50.0755,14.4506,50,17,5f4bce85b060c7722635ac84,Ke&Ki,50.0710386,14.450935000000001,Asian Restaurant
2411,993,50.0855,14.4654,18,3,5f50c8add9b62e61b69ef2a7,Richman Business Bar,50.085029,14.469182,Italian Restaurant
1456,38,50.0055,14.421,9,1,5f522286fd62f1095b7e5b32,Hatu Bistro,50.006854700000005,14.4164592,Vietnamese Restaurant
1775,357,50.0655,14.4062,22,3,5f575ee60ad7f53c9a0e56d3,Huong Viet,50.061937799999995,14.4096294,Vietnamese Restaurant
477,147,50.07776092933239,14.42449930860426,44,0,5f5a641cddd8f979a0ee2d59,Rock & Rolls,50.07717,14.427852,Asian Restaurant
358,28,50.07776092933239,14.402700691395738,13,12,5f66354a213b273332003be6,Meat & Grill,50.07804,14.404131,Caucasian Restaurant
2622,1204,50.1055,14.3766,1,0,5f664cec9ab9ea1062d8ee35,Restaurace Na Pískách,50.106998100000006,14.3744481,Czech Restaurant
215,215,50.08776092933239,14.417499961382266,10,9,5f6e37090f7bc26030668a91,Zen Chef,50.08815,14.417345999999998,Chinese Restaurant
2758,1340,50.1055,14.5542,6,5,5f709f9199b067634156ff49,Palác Food,50.105595,14.5587845,Chinese Restaurant
2454,1036,50.0955,14.3766,4,0,5f720806dac5217ff8335f2a,Karavan,50.092608,14.375557,Asian Restaurant
1623,205,50.0455,14.421,5,4,5f75c581c5d82017b01bf1a1,Ristorante Da Toni,50.0456731,14.420630599999999,Italian Restaurant
1394,1064,50.0932390706676,14.447099230957482,32,31,5f8dbaa65624c405a201705f,Pan Panzerotto,50.0915375,14.4452867,Italian Restaurant
578,248,50.0755,14.4358,50,49,5fa3d56251be934c9e331f22,Chef Sultan,50.075531899999994,14.432993900000001,Indian Restaurant
1639,221,50.0455,14.4506,38,8,5fae90a8ad98671da1a108cc,Pinoy food Filipinske bistro,50.04443,14.447973000000001,Filipino Restaurant
1697,279,50.0555,14.347000000000001,3,2,5fcb67ae9164553b0d0f58cb,Red Bean,50.05599,14.347265,Vietnamese Restaurant
345,15,50.0755,14.4062,16,15,5fcbd38cf05c9009648b813a,Phở Tiến,50.07421579767117,14.40617948770523,Asian Restaurant
720,390,50.0732390706676,14.439299308604259,37,36,5fcd1bd57077392d1e73dcc2,Sana Bistro,50.073143,14.442468,Vietnamese Restaurant
