,lat_centre,long_centre,num_venues,venue_iter,venue_id,venue_name,lat_venue,long_venue,category
0,49.9755,14.287799999999999,1,0,504f01bee4b04ce0b2ac95b4,Hostinec U Kalin≈Ø,49.97253455161635,14.28788047910075,Eastern European Restaurant
1,49.9755,14.347,1,0,5288a60d11d2ab3eb0023ede,Chalkodum U Babicky,49.97577365014979,14.34573164232105,Eastern European Restaurant
2,49.9755,14.391399999999999,10,0,4b6086a8f964a520a7eb29e3,Barabizna,49.97859537956025,14.394932097472442,Mexican Restaurant
3,49.9755,14.391399999999999,10,1,5ee6063a2ff39b000829cf6a,Bab√° cucina,49.978221,14.394365,Italian Restaurant
4,49.9755,14.391399999999999,10,2,55afdb25498eba5410fffbbf,Zbraslavsk√Ω hostinec,49.976968122689996,14.393822953202704,Czech Restaurant
5,49.9755,14.391399999999999,10,3,576a700e498e73669d58b667,Kebab House,49.974016822529975,14.393114322631755,Turkish Restaurant
6,49.9755,14.391399999999999,10,4,5dcdcd2b68ee6d00088c8278,Ph·ªë C·ªï,49.975837,14.392615,Vietnamese Restaurant
7,49.9755,14.391399999999999,10,5,4bd9594e2e6f0f47b04d0a08,≈†koda l√°sky,49.97590944050254,14.393308790244932,Czech Restaurant
8,49.9755,14.391399999999999,10,6,570a3454498e59c7206b730f,Granny Service,49.9734469313548,14.387765913882816,Czech Restaurant
9,49.9755,14.391399999999999,10,7,5f06ec9630f22a3344bfbe21,Pho Family,49.972553,14.392483,Vietnamese Restaurant
10,49.9755,14.391399999999999,10,8,54c7741d498eb3a1cb1cc491,ƒå√≠nsk√° restaurace Tian He Shan Zhuang,49.97279476290065,14.39235920840565,Chinese Restaurant
11,49.9755,14.391399999999999,10,9,5dcd2ff8e8e17c0008d1582e,pho co zbraslav,49.976505,14.393027,Vietnamese Restaurant
12,49.985499999999995,14.361799999999999,8,0,55bdf233498ea32e1f90f308,Bustan Kebab,49.984095077523556,14.362393269621128,Doner Restaurant
13,49.985499999999995,14.361799999999999,8,1,5872101951666a3890c96eed,Pho Radot√≠n,49.985268,14.364929,Vietnamese Restaurant
14,49.985499999999995,14.361799999999999,8,2,4c0eb2ffb60ed13ac04830f2,U Portlandu,49.98370093062456,14.361789343649791,Pub
15,49.985499999999995,14.361799999999999,8,3,4c0cafd12b899c74206cf158,Jia Le Yuan,49.98276648730534,14.357123244891906,Chinese Restaurant
16,49.985499999999995,14.361799999999999,8,4,5913073e28122f200a10c77b,MiKay,49.985546,14.364824,Vietnamese Restaurant
17,49.985499999999995,14.361799999999999,8,5,4ddb8812b0fb2604df6ae573,Amigos,49.98296515151971,14.362026884738704,Mexican Restaurant
18,49.985499999999995,14.361799999999999,8,6,56745c61498e791bf1eab743,Gourmet Restaurant,49.986923891020574,14.356618413149913,Modern European Restaurant
19,49.985499999999995,14.361799999999999,8,7,5367c34611d263215d705a8e,ku≈ôec√≠ vok√Ωnko,49.98407582384319,14.36306612457163,Ukrainian Restaurant
20,49.9955,14.4062,1,0,53c95857498e859188c98196,Restaurace D≈ôev√°k,49.99261815071208,14.410100977802461,Pub
21,49.9955,14.465399999999999,2,0,5af19b93da2e00002cbfee88,Bikeclinic Caf√©,49.99327,14.467371,Caf√©
22,49.9955,14.465399999999999,2,1,5e4aab73781d480008fa641e,Saka Sushi,49.994117,14.467518,Sushi Restaurant
23,49.9955,14.4802,1,0,4f36847fe4b0cc4ce2707a44,Hung Dat,49.998567988055854,14.483410378391316,Asian Restaurant
24,49.9955,14.5542,1,0,51dba0a6498e3552f72cf119,Babiƒçƒçina Zahrada,49.996493006483895,14.550068914636803,Czech Restaurant
25,49.9955,14.568999999999999,1,0,4fc3597ce4b05e4d30be60e5,J√≠delna U K≈ôap√°ƒçk≈Ø,49.994309680860866,14.572281850201207,Eastern European Restaurant
26,49.9955,14.6578,5,0,5051f57be4b0c099eb981f0a,Vagner Autofett≈°kola,49.993064,14.65735,American Restaurant
27,49.9955,14.6578,5,1,4d98550baf3d236aec9539c7,ƒå√≠nsk√° Restaurace,49.991699143437,14.657117325393566,Chinese Restaurant
28,49.9955,14.6578,5,2,51b09b9f498e1bc439b0d5f4,U Lenƒçi,49.995583,14.659896,Burrito Place
29,49.9955,14.6578,5,3,4da0a4499aa4721ef675e819,U Labutƒõ Rancheras,49.99321456258277,14.65795840588123,Burger Joint
30,49.9955,14.6578,5,4,574ac5d7498eda5b2cae7ed5,Xiang Le Yuan,49.991472,14.655216,Chinese Restaurant
31,50.0055,14.4062,6,0,4e00e29eb0fbdf39a455a3b5,Na Zast√°vce,50.00723840399981,14.403550762885143,Pub
32,50.0055,14.4062,6,1,4bbdc1908ec3d13a305e1c28,Restaurace U Vltavy,50.004702799967134,14.404987814031655,Czech Restaurant
33,50.0055,14.4062,6,2,4c430a9de26920a1f0db60e7,Il Pinocchio,50.003308,14.405157,Pizza Place
34,50.0055,14.4062,6,3,4bcd805c68f976b0d44f6483,Deco Restaurant,50.002718,14.405361,Mediterranean Restaurant
35,50.0055,14.4062,6,4,5765d945498e6aa8a8ba819d,ryb√≠ restaurace mod≈ôany,50.004467,14.404964,Vietnamese Restaurant
36,50.0055,14.4062,6,5,510cfbcfe4b0681baca6b7c7,Restaurace U Hronk≈Ø,50.00741868571075,14.4093709214979,Burrito Place
37,50.0055,14.421,9,0,5c38b45b8c812a002cea27e4,Restaurace Jaro,50.00617,14.416827,Asian Restaurant
38,50.0055,14.421,9,1,5f522286fd62f1095b7e5b32,Hatu Bistro,50.0068547,14.4164592,Vietnamese Restaurant
39,50.0055,14.421,9,2,4d7b6a8bcf3f370473f73a40,Fei He,50.00565622611038,14.416841268539429,Chinese Restaurant
40,50.0055,14.421,9,3,5bceffc66fd626002c49af1f,Indick√© Obƒçerstven√≠ Curry & Kebab,50.007046,14.41666,Indian Restaurant
41,50.0055,14.421,9,4,5c62abd993bd63002cc88347,Jaro,50.006172,14.417171,Vietnamese Restaurant
42,50.0055,14.421,9,5,52245e35498e7286e2d3faf7,ƒå√≠nsk√© obƒçerstven√≠,50.00715003625768,14.416217421941532,Asian Restaurant
43,50.0055,14.421,9,6,4f511cf1e4b00ad2ab151a79,ƒå√≠nsk√° Restaurace - U Po≈°ty,50.005735279515264,14.416803061720087,Chinese Restaurant
44,50.0055,14.421,9,7,53da14e0498ecd631d93c40a,Chinese Food,50.00732055140094,14.416077226236872,Chinese Restaurant
45,50.0055,14.421,9,8,507bcab9e4b025807aec2236,Chinese Food s.r.o.,50.00759700021069,14.416767223282463,Fast Food Restaurant
46,50.0055,14.435799999999999,1,0,533481ef498e10485ff42846,Corso,50.007550858585894,14.43070518341724,Pub
47,50.0055,14.465399999999999,8,0,4b8e435cf964a5204a1d33e3,ƒê√¥ng ƒê√¥,50.001554135337415,14.467870390191726,Vietnamese Restaurant
48,50.0055,14.465399999999999,8,1,5f22f3de4d6dbf03a7c72ed2,B√°nh M√¨ M√° L√∫m,50.00361,14.470897,Vietnamese Restaurant
49,50.0055,14.465399999999999,8,2,4c926f1957e5b60c7513691c,Asia Restaurant Libu≈°,50.00616124649156,14.461488112564847,Asian Restaurant
50,50.0055,14.465399999999999,8,3,566d7e45498e30e478a18575,Thu Son,50.00610833295575,14.471309774786118,Vietnamese Restaurant
51,50.0055,14.465399999999999,8,4,4edc79be5c5c96a200b9d30b,Perfect Catering,50.007117,14.470242,Sushi Restaurant
52,50.0055,14.465399999999999,8,5,577f7dd8cd10bd3432015e40,Restaurace Huong Que,50.008874,14.4626,Vietnamese Restaurant
53,50.0055,14.465399999999999,8,6,536e8403498edb85c33a96ff,Restaurace Rendezvous,50.003544,14.466283,Czech Restaurant
54,50.0055,14.465399999999999,8,7,4f969b3fe4b0d6680044c32f,FOFR=SUSHI,50.00485080052716,14.464856144828873,Sushi Restaurant
55,50.0055,14.4802,10,0,4d3eb339457cb60c9db702a5,B√∫n C√° H·∫£i Ph√≤ng,50.00361878282283,14.47390713336846,Vietnamese Restaurant
56,50.0055,14.4802,10,1,4e41238f2271a89dd089d0a0,Pho Quynh Anh,50.002149065805675,14.475748649505485,Vietnamese Restaurant
57,50.0055,14.4802,10,2,546eff3b498e6e2065a6650e,DƒÅc S√†n O L√Ω,50.00369295304837,14.473928452618226,Vietnamese Restaurant
58,50.0055,14.4802,10,3,523ed335498e092fa2d14807,Lan d·ªÅ,50.00238640900063,14.475311045316452,Vietnamese Restaurant
59,50.0055,14.4802,10,4,53b435d9498e012e699e1835,hong de vu,50.002524,14.475656,Vietnamese Restaurant
60,50.0055,14.4802,10,5,56d42de3498e5cc67d74d309,H√† N·ªôi Qu√°n,50.003501,14.473963,Vietnamese Restaurant
61,50.0055,14.4802,10,6,4f65de13e4b098b3968b8c2b,Chuy√™n Ph·ªü,50.002374065894394,14.475754175473437,Vietnamese Restaurant
62,50.0055,14.4802,10,7,50bcb602e4b03830336f622d,Qu√°n Thi√™n H√†nh ph·ªü,50.0024027548535,14.47573843389405,Vietnamese Restaurant
63,50.0055,14.4802,10,8,53aaa213498ee6657b2162b7,Ch√® Sai G√≤n,50.00219359023902,14.475962481070503,Vietnamese Restaurant
64,50.0055,14.4802,10,9,4dcfbc48d164679b8d1fa338,U Pani,50.00239985304377,14.475768808315882,Vietnamese Restaurant
65,50.0055,14.568999999999999,11,0,59dc9562f427de2d1d990798,U Fleka,50.004148,14.563991,Czech Restaurant
66,50.0055,14.568999999999999,11,1,51b46915498ecf6ac98b7686,Asia Express,50.003379437432166,14.573818065219287,Chinese Restaurant
67,50.0055,14.568999999999999,11,2,5061e537e4b0e6adc9bd4875,Restaurace U K≈ôap√°ƒçka,50.00292768261744,14.572799320094724,Eastern European Restaurant
68,50.0055,14.568999999999999,11,3,56f3e010498e32551843adf4,U Traviƒçe,50.003505,14.574954,Czech Restaurant
69,50.0055,14.568999999999999,11,4,59789c95f2905e16c7125f5e,Gyros & Grill,50.003319,14.574046,Asian Restaurant
70,50.0055,14.568999999999999,11,5,52fcbe83498ee6723a2472bb,Prima ba≈°ta,50.00343604836325,14.573617668166337,Czech Restaurant
71,50.0055,14.568999999999999,11,6,580895c338faddda1bd15fda,Luigi Italia,50.004919,14.57242,Italian Restaurant
72,50.0055,14.568999999999999,11,7,4e00bd261f6ef39c2940e1fa,Shang-Haj,50.00334594129277,14.573646400909473,Chinese Restaurant
73,50.0055,14.568999999999999,11,8,5675a067498ecb98629ce794,WOK N'ROLL,50.00327564311989,14.573745851735753,Sushi Restaurant
74,50.0055,14.568999999999999,11,9,4de13e7aae605835c4685280,Z√°≈ôiv√° perla,50.003288,14.573618,Asian Restaurant
75,50.0055,14.568999999999999,11,10,518cd17b498ed22452e674b8,Lucky Star,50.004975,14.572587,Asian Restaurant
76,50.0055,14.5838,1,0,54abc7fd498e6b2bbdfa0e35,ƒåestlick√° Vejmrda,50.0013710017499,14.58386535439092,Eastern European Restaurant
77,50.0055,14.6578,5,0,4f855a35e4b08d4037bdcbd6,Pizza Porta Via,50.00332401107549,14.659622880910815,Italian Restaurant
78,50.0055,14.6578,5,1,50f14ed3e4b0c27bd4bd6aef,Chinese Food,50.002732382782696,14.658811064649681,Chinese Restaurant
79,50.0055,14.6578,5,2,4ea56ba59adff6343ae4bc0e,ƒåinska Restaurace A Sushi,50.00342769450178,14.659299037863816,Asian Restaurant
80,50.0055,14.6578,5,3,4d9ef7da9b91a1cd1fb660c0,Vil√≠m Fast Food,50.004277577439424,14.654701466404823,Malay Restaurant
81,50.0055,14.6578,5,4,4f267c43e4b05160b0835306,Kebab ≈ò√≠ƒçany,50.003218201127005,14.656657766894531,Greek Restaurant
82,50.015499999999996,14.302599999999998,1,0,5751d084498e368994bb3610,Babiƒçƒçina Hospoda,50.016702,14.295963,Czech Restaurant
83,50.015499999999996,14.391399999999999,1,0,5b8fa79b1b0ea5003935a50c,Rosmarina,50.013514,14.39742,Italian Restaurant
84,50.015499999999996,14.421,2,0,5daed5160c54f000086bd519,C√¢y Tre,50.013603,14.419154,Vietnamese Restaurant
85,50.015499999999996,14.421,2,1,58877b54e18e652451a3fef6,Mod≈ôansk√© Labe,50.013283,14.421617,Czech Restaurant
86,50.015499999999996,14.435799999999999,5,0,5ea70ff87deff90008dab74e,Restaurace Tempo,50.01945,14.433015,Czech Restaurant
87,50.015499999999996,14.435799999999999,5,1,52974e38498ebdfdca66d017,ƒå√≠nsk√© Hody,50.01693344116211,14.432306289672852,Asian Restaurant
88,50.015499999999996,14.435799999999999,5,2,5318829d498ea617e5747d6c,D√∂ner Kebab,50.0151534250515,14.437429904937746,Doner Restaurant
89,50.015499999999996,14.435799999999999,5,3,502e04f3e4b0b5d01c765bd2,U Baru,50.01768213436755,14.436123726998234,Australian Restaurant
90,50.015499999999996,14.435799999999999,5,4,55c4cc6d498e5bc21bb04a29,Restaurant Sen Vietnam,50.01488494873047,14.43681526184082,Asian Restaurant
91,50.015499999999996,14.4506,2,0,4bd81f78dc4b9521245e7888,Hostinec Ve ml√Ωnƒõ,50.015977718828736,14.457176894579293,Czech Restaurant
92,50.015499999999996,14.4506,2,1,5d24ab9206e522002349e0ab,Greek Market,50.019135,14.447045,Gourmet Shop
93,50.015499999999996,14.465399999999999,1,0,500ee9a9e4b04d4cc27e58f1,U Ryb√°re Josefa,50.011241317600785,14.463310270950723,Middle Eastern Restaurant
94,50.015499999999996,14.4802,3,0,50f99cd9e4b0c9eea0a558e9,Lok√°l U Zavadil≈Ø,50.01407814089812,14.48552573980771,Czech Restaurant
95,50.015499999999996,14.4802,3,1,4bc8a451ab62d13af6ad17d4,U Bezuch≈Ø,50.01355759674652,14.483839025292228,Czech Restaurant
96,50.015499999999996,14.4802,3,2,5ab52b8b98fbfc24c7eda594,Sushi Take Away,50.0134,14.485644,Sushi Restaurant
97,50.015499999999996,14.495,1,0,53614186498edd4d06e0267d,El Burger Pub,50.019762937569645,14.49598100500885,Burger Joint
98,50.015499999999996,14.5098,2,0,4b7c36b0f964a520e2842fe3,Di Carlo,50.018350097470275,14.510339795020492,Italian Restaurant
99,50.015499999999996,14.5098,2,1,5b5458c89be522002c497d66,Chopsticks Bistro,50.01309,14.513302,Asian Restaurant
100,50.015499999999996,14.5838,1,0,5a61d780ea1e443f6b359cbd,Restaurant Cafe Pitkovice,50.01816,14.5835495,Czech Restaurant
101,50.015499999999996,14.6282,1,0,57893fa1498e3edb59265a6e,La Paluba,50.01217935225163,14.625173807144163,Italian Restaurant
102,50.025499999999994,14.361799999999999,1,0,55fee7de498ecf3079347345,U Tond√°k≈Ø,50.02446395086421,14.360683758454881,Afghan Restaurant
103,50.025499999999994,14.421,2,0,53949fef498ee0e5e0c84df5,Pizzerie Pep√≠no,50.024787,14.426664,Italian Restaurant
104,50.025499999999994,14.421,2,1,55474761498e777ecc201cec,Maesto Pizza Opatov,50.027022963166495,14.426498824218829,Italian Restaurant
105,50.025499999999994,14.435799999999999,7,0,4dc284e9b0fb490416b03027,Li-Wu,50.02701581179927,14.433086112481304,Asian Restaurant
106,50.025499999999994,14.435799999999999,7,1,4bfcfcd1e529c9288432ba8c,Cai Shen,50.02486150910123,14.434130924134966,Chinese Restaurant
107,50.025499999999994,14.435799999999999,7,2,5e39d0afc4da68000804ed6c,Il Palloncino,50.02697981231494,14.433159828186037,Italian Restaurant
108,50.025499999999994,14.435799999999999,7,3,5613cf83498e2872ac59b687,Prima ba≈°ta,50.0268610196752,14.433231453849837,Czech Restaurant
109,50.025499999999994,14.435799999999999,7,4,5766e462498ef5de32b9692c,Running Sushi,50.0269494422624,14.432902336120604,Asian Restaurant
110,50.025499999999994,14.435799999999999,7,5,4fed9433e4b003445a1a80ac,Restaurace J√≠lovsk√°,50.02590560913086,14.431217193603516,Italian Restaurant
111,50.025499999999994,14.435799999999999,7,6,546f2ece498e44efc05f6359,Sumo,50.02696404156018,14.433071467303835,Sushi Restaurant
112,50.025499999999994,14.4506,2,0,4bdc78dea6fdef3be9391547,Pitaya,50.02222145513011,14.451693621903576,Chinese Restaurant
113,50.025499999999994,14.4506,2,1,50519de2e4b0b0fc413755d7,sushitime.cz sushi&wok delivery,50.02937567286091,14.448989463094495,Sushi Restaurant
114,50.025499999999994,14.495,6,0,583c226ac0df761f5ca70321,Sushi Noodles by Kobe,50.0284376412978,14.49349502978493,Japanese Restaurant
115,50.025499999999994,14.495,6,1,51f0ee00498e51a8c0e0ebf8,V√Ωdej Perla orientu,50.02684669607272,14.496621194617125,Chinese Restaurant
116,50.025499999999994,14.495,6,2,52de6686498e7be46a1d0b61,DHL ITS_lunch point_Vietnamese,50.027428,14.494584,Vietnamese Restaurant
117,50.025499999999994,14.495,6,3,51ee4c64498e08cbc422b642,V√Ωdej Na Kvƒõtnici,50.026773998046124,14.496468426402933,Eastern European Restaurant
118,50.025499999999994,14.495,6,4,51ee4dfe498ed79a4cf52d05,V√Ωdej Indian By Nature,50.02687824667272,14.496695059078634,Indian Restaurant
119,50.025499999999994,14.495,6,5,5c6e8f7d12c8f0002cb4f782,Ensar Kebap,50.025757,14.493113,Doner Restaurant
120,50.025499999999994,14.5098,4,0,4ce7f797595cb1f7d0cdc514,Kanjia,50.027715,14.507551,Chinese Restaurant
121,50.025499999999994,14.5098,4,1,4fa3cebbe4b0bcbb45c9bae9,ƒå√≠na u Billy,50.025933310385035,14.515567099333083,Chinese Restaurant
122,50.025499999999994,14.5098,4,2,4c45eed209ba95214d0f3f00,ƒå√≠nsk√° restaurace Ru Yang Lou,50.025909341981105,14.515396545052564,Chinese Restaurant
123,50.025499999999994,14.5098,4,3,4e060323b61c60b0453bb31d,Italsk√° Pizza a Zmrzlina,50.02766216417744,14.507575035095215,Italian Restaurant
124,50.025499999999994,14.5246,1,0,4b7ec3c7f964a520befd2fe3,Restaurace Pra≈æanka,50.027063640228654,14.525405168073387,Czech Restaurant
125,50.0355,14.3174,2,0,531b2750498e6f9db07ed37a,Restaurace ≈òeporyjsk√° Sokolovna,50.03525973449122,14.313270496982023,Czech Restaurant
126,50.0355,14.3174,2,1,5ab4fe1447f87622c43d0003,Gruz√≠nsk√© bistro a restaurace,50.032787,14.311996,Caucasian Restaurant
127,50.0355,14.332199999999998,4,0,5211fc3611d2322766905b3a,Kastrol,50.03692645884331,14.333966795567116,Czech Restaurant
128,50.0355,14.332199999999998,4,1,5cd068ca4a7aae002cea2200,Restaurace Longan,50.039051,14.328759,Asian Restaurant
129,50.0355,14.332199999999998,4,2,4fdcf034e4b0654045b2c766,Ristorante Stefano,50.03649386573,14.327749226271498,Italian Restaurant
130,50.0355,14.332199999999998,4,3,598219bc3af98813d4ec0382,Kitchen Story My Way,50.039103,14.328796,Mediterranean Restaurant
131,50.0355,14.361799999999999,1,0,4cb9c88ef50e224b0474effb,ƒåern√Ω kohout,50.037052686356226,14.360851290126135,Czech Restaurant
132,50.0355,14.3766,3,0,4b9157abf964a520b3b433e3,Plze≈àsk√Ω restaurant Kamera,50.03501043303,14.376912254880061,Czech Restaurant
133,50.0355,14.3766,3,1,506757aae4b0c7c051e7882c,predvadecka Viet Nam,50.0369873046875,14.371424674987793,Asian Restaurant
134,50.0355,14.3766,3,2,55560cff498eb7ee1bdce1e9,Rusk√© speciality,50.032316,14.375681,Russian Restaurant
135,50.0355,14.391399999999999,1,0,4beee768e24d20a13e937314,All√©gre Brasserie,50.037919,14.395361,Mediterranean Restaurant
136,50.0355,14.4062,8,0,4b98e8d3f964a520b75535e3,Ristorante il Giardino,50.034825052119054,14.413001369012482,Italian Restaurant
137,50.0355,14.4062,8,1,5bb6385e6dcf04002c598ce1,Trezor,50.03611345832916,14.41293123257563,Czech Restaurant
138,50.0355,14.4062,8,2,57b351fe498eda3d728583fe,Cornuto,50.035601,14.412825,Italian Restaurant
139,50.0355,14.4062,8,3,5354239d498e68ed1ec7cbb0,restaurace besedni,50.03671150633852,14.40045076041892,Afghan Restaurant
140,50.0355,14.4062,8,4,5122229ce4b0a44108dd61f2,Deli shop,50.037629,14.412075,French Restaurant
141,50.0355,14.4062,8,5,545bb8a5498e70d7b0ce6ff6,Restaurace U ≈†kop≈Ø,50.03621292114258,14.401294708251953,Czech Restaurant
142,50.0355,14.4062,8,6,4fef311de4b0ff692bd16d75,obcerstveni U Bejvaleho Koupaliste Pod Barrandovem,50.03682327270508,14.40285873413086,American Restaurant
143,50.0355,14.4062,8,7,51c5cea6498ed6347f66aeb2,Steigenberger Restaurant,50.03605278229744,14.412702575665886,German Restaurant
144,50.0355,14.421,5,0,57c1ce67498e8d4409aa164a,U dvou ka≈°tan≈Ø,50.03478499476261,14.415710255857284,Czech Restaurant
145,50.0355,14.421,5,1,5d1dc2b3e022ca00230d96af,Hanoj Bistro,50.03563,14.414127,Chinese Restaurant
146,50.0355,14.421,5,2,5c9b653ebd4009002cc890a4,Pra≈æsk√Ω Ramen,50.03521,14.414824,Ramen Restaurant
147,50.0355,14.421,5,3,4e70b76162e14d9f13ab6181,Restaurace U Bontonu,50.03816729377008,14.424377135570609,Eastern European Restaurant
148,50.0355,14.421,5,4,52c0607511d21c6e770fb49f,Restaurace Za ≈†kolou,50.038246154785156,14.424221992492676,Eastern European Restaurant
149,50.0355,14.435799999999999,1,0,4bab44f4f964a520c39c3ae3,≈†enk√Ωrna Na Led√°rn√°ch,50.03914572662313,14.435659934251316,Czech Restaurant
150,50.0355,14.4506,1,0,4c556ccd06901b8d1ab8734d,Restaurace & penzion U Labutƒõ,50.03337906480716,14.45600152015686,Czech Restaurant
151,50.0355,14.4802,3,0,50acbea3e4b07823f23dbc56,bread & water,50.03454504700678,14.485364735239196,Czech Restaurant
152,50.0355,14.4802,3,1,5c5239766e465000393f6a09,Curling Club,50.03682912668463,14.480775310199062,Modern European Restaurant
153,50.0355,14.4802,3,2,5938258833627343d739bc9e,Sushi Blue Chef,50.033028,14.482406,Sushi Restaurant
154,50.0355,14.495,5,0,4ceab8f7f8653704d98ebec4,K√°covsk√° restaurace Na Rychtƒõ,50.03289257117406,14.49997370291405,Pub
155,50.0355,14.495,5,1,4d91bcbfd7b1236a58463638,SantaFe,50.03210369569663,14.491235434751871,Fast Food Restaurant
156,50.0355,14.495,5,2,4d4416017e2e548114835c8f,Kobe,50.03206724425722,14.491354286915941,Japanese Restaurant
157,50.0355,14.495,5,3,59dbb49d446ea63601c0ecf5,Sushi Time,50.03201165508837,14.491211285530023,Sushi Restaurant
158,50.0355,14.495,5,4,4f7c472de4b005e79902d974,Nudle ƒåoudov,50.032025,14.491241,Asian Restaurant
159,50.0355,14.5098,6,0,56b88d32498ee5c5130ca2d7,ƒç√≠≈àanüà¥üàµüà≤,50.033016425388894,14.51209125915684,Korean Restaurant
160,50.0355,14.5098,6,1,51b7787f498ec15d5a199142,Curry Masala,50.036616,14.5139556,Indian Restaurant
161,50.0355,14.5098,6,2,559c03b8498e450adb2dad4a,Starochodovsk√°,50.036094665527344,14.50908374786377,Czech Restaurant
162,50.0355,14.5098,6,3,5cbf31def00a70002cf5b54e,Insta Kebab,50.037689,14.507738,Doner Restaurant
163,50.0355,14.5098,6,4,569f8926498eeb3b8ad88169,z√°chod 21,50.032502663646,14.51190678958183,Mexican Restaurant
164,50.0355,14.5098,6,5,4f623940e4b06b1a185d2b9f,Garden,50.03288365324077,14.506692201179707,Chinese Restaurant
165,50.0355,14.5246,4,0,5f135ccb878b417a06b544d6,Fu Man Lou,50.0320403579616,14.528217315673828,Chinese Restaurant
166,50.0355,14.5246,4,1,4adcda9cf964a520fc4c21e3,Galaxie Pizzerie,50.03190573073909,14.528598304619505,Pizza Place
167,50.0355,14.5246,4,2,4c4f1c15db2c20a1538d8375,Hao Hong,50.03196007428295,14.528708470775289,Chinese Restaurant
168,50.0355,14.5246,4,3,51b33221498e781d02f59860,ƒå√≠nsk√° restaurace,50.033155607796964,14.526861949978843,Chinese Restaurant
169,50.0355,14.5542,3,0,4afb15c5f964a520061b22e3,Pizzeria Gladiator,50.03502112173439,14.557359724753152,Pizza Place
170,50.0355,14.5542,3,1,5346812d11d2993799982d70,J√≠delna Gymn√°zium ALTIS,50.0342558057897,14.55884872316494,Czech Restaurant
171,50.0355,14.5542,3,2,536fcd7e498e444ed7a47ce0,Pizzeria Treviso,50.03504247993879,14.5572349382079,Italian Restaurant
172,50.0355,14.5838,1,0,4f3ba29de4b04e90d7796ec7,ƒå√≠nsk√° restaurace New Moon,50.03614663396126,14.580584125825036,Chinese Restaurant
173,50.0355,14.5986,6,0,5613487a498ed4c503f3abd9,≈†vejk restaurant ‚ÄûU Karla‚Äú Uh≈ô√≠nƒõves,50.03192715833335,14.597904779261201,Czech Restaurant
174,50.0355,14.5986,6,1,4f1063eae5e852ca73db19ed,Hosp≈Ødka Na Li≈°ce,50.03264099422664,14.597290124828938,Czech Restaurant
175,50.0355,14.5986,6,2,5960c6a1610f0449bda45762,Ha Long,50.03284652135107,14.596615737085685,Asian Restaurant
176,50.0355,14.5986,6,3,54aab9bb498e6d5aca0c79bd,Pod Li≈°kou,50.0327,14.597376,Czech Restaurant
177,50.0355,14.5986,6,4,58089a2338faa60b429e5031,Pizza & Pasta Palantina,50.032722,14.596663,Italian Restaurant
178,50.0355,14.5986,6,5,5810f7b038fa4407a4c291c4,Palatine,50.032845,14.596605,Italian Restaurant
179,50.0455,14.302599999999998,3,0,507af140e4b08350ed0b9d39,Kolkovna Stod≈Ølky,50.04683033394186,14.30596309180035,Czech Restaurant
180,50.0455,14.302599999999998,3,1,5ca5cc8f4aa3f800390ed37e,TUTO Bistro,50.045907,14.301885,Bistro
181,50.0455,14.302599999999998,3,2,54244b5b498ef7e9438a5221,Zen bistro Stod≈Ølky,50.04665914175026,14.3058314919496,Vietnamese Restaurant
182,50.0455,14.3174,8,0,5cf648fe588e36002c68637c,Pizza Coloseum,50.045255,14.322061,Pizza Place
183,50.0455,14.3174,8,1,4cac5bd89f4776b028099c13,Z√°≈ôiv√° perla,50.04527818032435,14.323042655730914,Chinese Restaurant
184,50.0455,14.3174,8,2,5cefa0ea588e36002c448b95,Z√¥,50.046852,14.31112,Vietnamese Restaurant
185,50.0455,14.3174,8,3,5bb09d4346e1b6002c9977dc,Oriental Food,50.045212,14.323199,Asian Restaurant
186,50.0455,14.3174,8,4,59e773303b8307453b4ff77a,Colonial Coloseum,50.045481872233765,14.322484118547488,Italian Restaurant
187,50.0455,14.3174,8,5,50644a9172da6adcf7b1de8e,Wan Fu Lou,50.04151715014549,14.315862810990266,Chinese Restaurant
188,50.0455,14.3174,8,6,5266459611d249cc6f607ebe,D√∂ner kebab,50.0448693888946,14.321553111076355,Doner Restaurant
189,50.0455,14.3174,8,7,4cac5d109f4776b0640a9c13,Ristorante Prato,50.04567748849348,14.32302671593326,Pizza Place
190,50.0455,14.332199999999998,5,0,53c413f7498e3e0de32e7150,Pivovar Lu≈æiny,50.04345886114245,14.332002395698725,Brewery
191,50.0455,14.332199999999998,5,1,5aedcac5acb00b002c822320,Gourmet,50.043785,14.331831,Vietnamese Restaurant
192,50.0455,14.332199999999998,5,2,5ee62799dd56ba00078a72eb,Prima ba≈°ta,50.043837,14.331834,Czech Restaurant
193,50.0455,14.332199999999998,5,3,53750030498e007c39b195d9,Oriental Food,50.04372371179646,14.331912814033274,Asian Restaurant
194,50.0455,14.332199999999998,5,4,4f05ee399adf79d873b88b29,Lednice,50.042391180316265,14.328645943086332,American Restaurant
195,50.0455,14.347,1,0,4bd9b7e70115c9b6d3587880,Volcano Restaurant,50.04525176859638,14.344593195997756,Italian Restaurant
196,50.0455,14.361799999999999,1,0,55ee8185498e9e55d6cb45f2,Hotel Matura,50.04673207691866,14.356965353385261,Czech Restaurant
197,50.0455,14.4062,4,0,50111a97e4b0e3a6f328452c,Jelica,50.04824686028601,14.408246151684269,Eastern European Restaurant
198,50.0455,14.4062,4,1,57892690498e6cad271b0d8e,Fosil,50.04695447462622,14.408200197873294,Mexican Restaurant
199,50.0455,14.4062,4,2,4adcdaa2f964a520394e21e3,Folklore Garden,50.04230839693811,14.403577638556941,Czech Restaurant
200,50.0455,14.4062,4,3,4fde0ebce4b044d93bdbcca2,Cinska restaurace,50.045711517333984,14.409806251525879,Asian Restaurant
201,50.0455,14.421,5,0,4c10f34eb93cc9b6b77f57e0,Hostinec U B√°by,50.04380773085155,14.41876969038928,Pub
202,50.0455,14.421,5,1,4d5586adba5b224b5ca50f14,Podolee,50.047383921398,14.415130139461624,Mexican Restaurant
203,50.0455,14.421,5,2,53b3de21498eeec96271ef18,Jie da,50.0468691746519,14.41517547598369,Asian Restaurant
204,50.0455,14.421,5,3,4de75d007d8b1f2dd2959816,Rong Cheng,50.04706040864317,14.41451101593282,Chinese Restaurant
205,50.0455,14.421,5,4,5f75c581c5d82017b01bf1a1,Ristorante Da Toni,50.0456731,14.4206306,Italian Restaurant
206,50.0455,14.435799999999999,7,0,5d9ef8ac6a03eb000832c130,Jun Asian Restaurant,50.041584,14.438802,Chinese Restaurant
207,50.0455,14.435799999999999,7,1,519286dc498e115e80c23d1e,Gmg D≈Øm,50.042003,14.437661,Afghan Restaurant
208,50.0455,14.435799999999999,7,2,517c68abe4b0cb790131af91,Pecak lele,50.04356569999999,14.4365515,Greek Restaurant
209,50.0455,14.435799999999999,7,3,50af66afe4b0823456b0320c,Mediterr√¢neo Restaurante,50.043661205815894,14.4395876793144,Mediterranean Restaurant
210,50.0455,14.435799999999999,7,4,5512f23b498e671c0782cbe4,Pizzeria Ristorante Sofra,50.04352900607693,14.43554501244314,Italian Restaurant
211,50.0455,14.435799999999999,7,5,4bd6bd8d6798ef3b1382658d,Slovensk√° restaurace Hotel Paul√≠ny,50.044927598293356,14.436409254646799,Eastern European Restaurant
212,50.0455,14.435799999999999,7,6,4c63104379d1e21e5fabd715,Peking,50.048177975565935,14.435158993436877,Chinese Restaurant
213,50.0455,14.4506,38,0,4b0671edf964a520e2eb22e3,Kolkovna Budƒõjovick√°,50.045320676828126,14.449194073677063,Czech Restaurant
214,50.0455,14.4506,38,1,580dd87738fab62602e5d422,Puzzle Pasta,50.0477492909392,14.454504847526549,Italian Restaurant
215,50.0455,14.4506,38,2,5c791bc5efa82a002c24072f,Tom Yam P,50.04556,14.449976,Asian Restaurant
216,50.0455,14.4506,38,3,4b99404bf964a5208f6d35e3,Botanic,50.04393055150071,14.445940371718113,Mediterranean Restaurant
217,50.0455,14.4506,38,4,4b6ebdbdf964a52098c82ce3,Grosseto,50.04746649475104,14.455519477895194,Italian Restaurant
218,50.0455,14.4506,38,5,4ccd5fc732e776b08674db27,Mango,50.048914408328386,14.453617997090054,Chinese Restaurant
219,50.0455,14.4506,38,6,4e8de8ac722edc89e71623af,Teng,50.04689314029397,14.446282540670097,Chinese Restaurant
220,50.0455,14.4506,38,7,5b0c3a0897cf5a0039c1e31a,Tasty D√∂ner Kebab,50.047381,14.445684,Doner Restaurant
221,50.0455,14.4506,38,8,5fae90a8ad98671da1a108cc,Pinoy food Filipinske bistro,50.04443,14.447973,Filipino Restaurant
222,50.0455,14.4506,38,9,561f7dd5498eef5e3aa15d3f,Restaurace | Hotel ILF,50.04457656621005,14.45086508989334,Czech Restaurant
223,50.0455,14.4506,38,10,4df7a66f091a611ba9adbb2d,J√≠delna Mel√≠≈°ek,50.04738689052138,14.444819390773773,Buffet
224,50.0455,14.4506,38,11,4be93e7cfbbb9c7475391e8e,Baifu,50.046973956208674,14.456155099831959,Sushi Restaurant
225,50.0455,14.4506,38,12,55b9fc9d498e4ae5191267cb,Dhaba Beas,50.04771139861309,14.455862045288086,Vegetarian / Vegan Restaurant
226,50.0455,14.4506,38,13,4ec1566ef79074116176e53b,il Primo Piatto,50.04291589001243,14.452949689547978,Italian Restaurant
227,50.0455,14.4506,38,14,4c763fc3604a370499d18449,Pizzeria San Severo,50.0457139318837,14.448114400496381,Italian Restaurant
228,50.0455,14.4506,38,15,5188d1ba498eb86ce5077c88,C√¢y Tre,50.04580068148308,14.44851200305521,Vietnamese Restaurant
229,50.0455,14.4506,38,16,4bd6a572637ba593eb7cf870,Cactus,50.04354995021819,14.449236989021301,Asian Restaurant
230,50.0455,14.4506,38,17,5c87ec29de3bbf002c6dae9b,Restaurace Pragos,50.044464,14.4550905,Czech Restaurant
231,50.0455,14.4506,38,18,4b72f0fff964a52007912de3,Sushi Time,50.044268958114614,14.449132349131872,Sushi Restaurant
232,50.0455,14.4506,38,19,4c0cd5b2b4c6d13a7c7f0c30,Safir,50.04380180995724,14.448433391183292,Lebanese Restaurant
233,50.0455,14.4506,38,20,4b7936fef964a52058ef2ee3,Punjabi food,50.04393967835573,14.448602117481753,Indian Restaurant
234,50.0455,14.4506,38,21,52526c7593cd62672fe1f46e,Binh Minh,50.04579840429243,14.447782926762365,Sushi Restaurant
235,50.0455,14.4506,38,22,5df224a7a5bc0c000b9910d3,Sushi time,50.048975,14.453627,Sushi Restaurant
236,50.0455,14.4506,38,23,50c7320af136fcb36401c5bf,Kebab to go,50.046702073824925,14.4464635848999,Doner Restaurant
237,50.0455,14.4506,38,24,57da9b86cd106a2c1f912f9e,Restaurant Shoko,50.04442,14.448264,Noodle House
238,50.0455,14.4506,38,25,5b26799481a0ea003970e8a2,Rancheros,50.043846,14.449149,Mexican Restaurant
239,50.0455,14.4506,38,26,4e6b8a0c81dc6cbf27540b14,Chicken House,50.0458959766676,14.448051452636719,Asian Restaurant
240,50.0455,14.4506,38,27,5108e417e4b0301b9e4b7127,Palaƒçink√°rna ve vestibulu,50.043301,14.452786,French Restaurant
241,50.0455,14.4506,38,28,51960259498ea38f9d308ff5,Bistro P√°ra,50.047460613967814,14.445345424595859,Eastern European Restaurant
242,50.0455,14.4506,38,29,4f0b0e05e4b09a8a4198d386,≈†mak ƒçesk√© kuchynƒõ,50.04392239559649,14.448556186328535,Czech Restaurant
243,50.0455,14.4506,38,30,55965e0a498e7b1bbfe26a2e,sushi bar,50.04581410134493,14.447942437589026,Sushi Restaurant
244,50.0455,14.4506,38,31,5acb2fb060d11b01325854f6,Shao Long,50.044462,14.457032,Chinese Restaurant
245,50.0455,14.4506,38,32,50583df3e4b0874f42cac70b,Potrefen√° Husa,50.044365359674785,14.449182765073669,Czech Restaurant
246,50.0455,14.4506,38,33,5655a0ff498ed6cf1bb665d2,K√ºndi,50.04453253364674,14.447763807685769,Thai Restaurant
247,50.0455,14.4506,38,34,4bbc530e2d9ea593b976a0ce,ƒå√≠nsk√° restaurace Budƒõjovick√°,50.04545502890476,14.450197219848633,Chinese Restaurant
248,50.0455,14.4506,38,35,558d2000498e2167c49f1614,Asia And Sushi Restaurant,50.04707706871282,14.445933707585642,Sushi Restaurant
249,50.0455,14.4506,38,36,537b01a0498ee555a6483e02,Chemiƒçka,50.048955979513885,14.451883674628434,Czech Restaurant
250,50.0455,14.4506,38,37,5d3c7cb51bbfbe00071432e3,Bonema Kebab,50.044456,14.447961,Doner Restaurant
251,50.0455,14.4802,1,0,5e3471696141060008d27951,Linh Tasty Asia,50.045703062519806,14.481440931558609,Vietnamese Restaurant
252,50.0455,14.495,6,0,57d27f27498e630080b04bc0,Cisterna,50.04539711147198,14.491435857619273,Czech Restaurant
253,50.0455,14.495,6,1,51c8a595498e8699347aef9f,Hanedan,50.04232153511743,14.499133038024222,Turkish Restaurant
254,50.0455,14.495,6,2,5abd5bc81f8ed605c19fc806,Staroƒçesk√° Pivnice,50.04152765919413,14.496384859085083,Czech Restaurant
255,50.0455,14.495,6,3,5364fd9b498e4f36f124c3b7,U penzionu,50.04762359914113,14.489901222817538,Czech Restaurant
256,50.0455,14.495,6,4,563c5c5b498e52bc083da687,Restaurace Praha,50.0416699304779,14.496152524648156,Czech Restaurant
257,50.0455,14.495,6,5,55c21435498e7de0a764bcf4,THE OBKOWICZ PALACE,50.041796,14.497803,Czech Restaurant
258,50.0455,14.5098,1,0,5101b0ffe4b02714bfd22ac4,≈Ωr√°delna,50.04454040527344,14.516594886779785,Asian Restaurant
259,50.0455,14.5246,1,0,560c172e498e58f05e99e5c7,Hospudka Na Vrsku,50.044504322546985,14.518292658153197,Czech Restaurant
260,50.0455,14.5542,5,0,5a5ab644bfc6d016e8000940,Green,50.048955167413204,14.551270542431705,Italian Restaurant
261,50.0455,14.5542,5,1,4b9fcfb1f964a520d94037e3,Pizzeria Milano,50.04649064321561,14.555971799945949,Pizza Place
262,50.0455,14.5542,5,2,4bd5cf3a7b1876b074668b86,Klub Varta,50.047341937068126,14.55992815626908,Mexican Restaurant
263,50.0455,14.5542,5,3,4bcb30d73740b7138deb6165,Mexicka,50.04705229094026,14.560512125209257,Mexican Restaurant
264,50.0455,14.5542,5,4,4d6299471939a35d0d083aee,U ƒåouk≈Ø,50.044151952546194,14.559266647007345,Pub
265,50.0455,14.568999999999999,1,0,5852d80d03e29a60fe5b4943,Texicana,50.044101,14.568744,Fast Food Restaurant
266,50.055499999999995,14.287799999999999,10,0,582861c3eaf46a4e324af888,Francesco‚Äôs the Art of Pizza,50.05365334193885,14.28741901015574,Pizza Place
267,50.055499999999995,14.287799999999999,10,1,580cf442d67c58094f03c144,Sushi Noodles by KOBE,50.05367736468547,14.287402424703766,Sushi Restaurant
268,50.055499999999995,14.287799999999999,10,2,5bb8e0cb81635b002c9ca098,U Soused≈Ø na Zliƒç√≠nƒõ,50.05870365771463,14.287395045829028,Czech Restaurant
269,50.055499999999995,14.287799999999999,10,3,4d8e45e7c479a35dd0494297,Wok Food,50.053721926147524,14.287475732067788,Chinese Restaurant
270,50.055499999999995,14.287799999999999,10,4,558bc6e5498e76bdab7a8bdf,≈†mak ƒçesk√© kuchynƒõ,50.05371706544123,14.287430909195177,Czech Restaurant
271,50.055499999999995,14.287799999999999,10,5,4bcd7890511f9521f2a5b4c7,KING¬¥S CHOICE SHISH KEBAPS,50.05358435211805,14.286818504333496,Middle Eastern Restaurant
272,50.055499999999995,14.287799999999999,10,6,540d901b498ed28daae85f52,"""Vietnam Foods""",50.054191,14.291195,Vietnamese Restaurant
273,50.055499999999995,14.287799999999999,10,7,51c430d4498e538e552e7568,Delicato Restaurant,50.05632592549604,14.287373040359611,Italian Restaurant
274,50.055499999999995,14.287799999999999,10,8,4e36c212ae60d86c3acccf97,Villa Fresh Italian Kitchen,50.05337142944336,14.287747383117676,Italian Restaurant
275,50.055499999999995,14.287799999999999,10,9,537f399c498eb6eddf3ddabf,Thang Dao Thi Obcerƒçerstven√≠,50.054344,14.291564,Vietnamese Restaurant
276,50.055499999999995,14.3174,1,0,50867065e4b046720b29ffa6,Bistro u B√°by,50.054948,14.311271,Eastern European Restaurant
277,50.055499999999995,14.347,3,0,53c7bf61498e04400a46e5d0,Olive,50.055470920843746,14.348345402081845,Cafeteria
278,50.055499999999995,14.347,3,1,557d8bcc498efd67d1ddb1bd,Vuong cooking class,50.055669,14.350103,Vietnamese Restaurant
279,50.055499999999995,14.347,3,2,5fcb67ae9164553b0d0f58cb,Red Bean,50.05599,14.347265,Vietnamese Restaurant
280,50.055499999999995,14.361799999999999,2,0,4cdae50dd549548143e638b2,U Majer≈Ø,50.05241914469267,14.35769886483937,Czech Restaurant
281,50.055499999999995,14.361799999999999,2,1,4bc5a397ccbcef3be9b8e6d2,Nov√° Hospoda,50.05245641206858,14.360358367094863,Eastern European Restaurant
282,50.055499999999995,14.3766,1,0,5cb6d8fc1a29250025cd7638,sushi time waltrovka,50.056438,14.372293,Sushi Restaurant
283,50.055499999999995,14.4062,2,0,4af6dc1af964a5209b0322e3,Na Kopci,50.056743322854395,14.402533342141702,French Restaurant
284,50.055499999999995,14.4062,2,1,56f2961a498ef3b3a0a917bb,foodbox,50.057236,14.406915,Vietnamese Restaurant
285,50.055499999999995,14.421,4,0,554c7db4498e0a16ae2e726a,Restaurace Pinta,50.05821093600576,14.424023968932879,Czech Restaurant
286,50.055499999999995,14.421,4,1,4e3149c9d1643f195b92b6cb,Chilli Pizzeria (AliBaba Fast food),50.05923057666874,14.42073498625719,Indian Restaurant
287,50.055499999999995,14.421,4,2,5204cab9498e65ea9fbb6ad6,Chilli pizza,50.05889129638672,14.4215669631958,Indian Restaurant
288,50.055499999999995,14.421,4,3,54f1f63a498e9a7e4859c3fb,Gourmeta,50.05811610503175,14.422625790265577,Bistro
289,50.055499999999995,14.435799999999999,14,0,4b61aa80f964a520671c2ae3,Palatino,50.05695822967729,14.433071752414575,Italian Restaurant
290,50.055499999999995,14.435799999999999,14,1,580f298538fa473445a1d5c2,Osteria il Piano,50.05658418483767,14.430601549419581,Italian Restaurant
291,50.055499999999995,14.435799999999999,14,2,4bd6b51429eb9c74d77095e1,Red Hook,50.05746921247736,14.435324199867287,Bar
292,50.055499999999995,14.435799999999999,14,3,5d9c6a9bafac4c0008cfb0f2,Yumi Time,50.052357,14.439457,Asian Restaurant
293,50.055499999999995,14.435799999999999,14,4,58010eefd67c3b6b3fc4867c,Bistro Punjab,50.058333857420486,14.436593055725096,Indian Restaurant
294,50.055499999999995,14.435799999999999,14,5,5c111251829b0c002c69d322,Hamy‚Äôs Kitchen,50.054483,14.436162,Vietnamese Restaurant
295,50.055499999999995,14.435799999999999,14,6,58a342a714f8f4092cc72dad,Bistro u Gogi,50.05622019846528,14.437149108803597,Caucasian Restaurant
296,50.055499999999995,14.435799999999999,14,7,5051b37ae4b03cb4fd082ddd,U ≈†i≈°k≈Ø,50.05555274070179,14.43542550269099,Pub
297,50.055499999999995,14.435799999999999,14,8,4e84afb6f790320b3835bb9c,Fu Gui Lou,50.0553288155778,14.43582138523983,Chinese Restaurant
298,50.055499999999995,14.435799999999999,14,9,51f2787a498efcc20075d796,Staroƒçesk√° Ba≈°ta,50.052513122558594,14.438186645507812,Eastern European Restaurant
299,50.055499999999995,14.435799999999999,14,10,502a24d4e4b0b12f24616aa6,U Nevinejch,50.05986045598384,14.437283237876194,Chinese Restaurant
300,50.055499999999995,14.435799999999999,14,11,53903cf0498e4903ea4cb240,È¶ôÊª°Ê•º,50.057791,14.433597,Chinese Restaurant
301,50.055499999999995,14.435799999999999,14,12,5188d7e8498ee05ee5205b96,boombo nambo,50.053104283998884,14.437865017806834,Asian Restaurant
302,50.055499999999995,14.435799999999999,14,13,5746d588498ea2734875919a,Kant√Ωna VS,50.058032,14.436724,Czech Restaurant
303,50.055499999999995,14.4506,10,0,54118e1f498ea0764678a22e,B·∫øp Vi·ªát,50.05441789494725,14.452755663272585,Vietnamese Restaurant
304,50.055499999999995,14.4506,10,1,59c14fd966f3cd5089428b7f,Jezerka U Divadla,50.05791568527257,14.44488138168422,Czech Restaurant
305,50.055499999999995,14.4506,10,2,5980a7adf96b2c16eab980a3,Thaj Samui,50.05536396208518,14.455193011562836,Thai Restaurant
306,50.055499999999995,14.4506,10,3,4c38692018e72d7fb93c18f5,U Havl√≠ƒçk≈Ø,50.05799282332732,14.452448724719952,Eastern European Restaurant
307,50.055499999999995,14.4506,10,4,5f33e2ae8f1a825ad3136802,Sen Vi√™t,50.05527,14.4544961,Vietnamese Restaurant
308,50.055499999999995,14.4506,10,5,5c97c9bbcd441c002c5ce71b,Botiƒç Restaurant,50.055767,14.451258,Czech Restaurant
309,50.055499999999995,14.4506,10,6,4f3147d0e4b0951ff481b0da,Somalsko,50.056312,14.447547,American Restaurant
310,50.055499999999995,14.4506,10,7,4bc59c836a3e9c74390af648,ƒå√≠nsk√© Bistro Bai Ke Jia,50.0522811510163,14.454872905020343,Chinese Restaurant
311,50.055499999999995,14.4506,10,8,509123a2e4b061e9d6e5bba8,Nin Hao,50.05230057564977,14.454948418789224,Chinese Restaurant
312,50.055499999999995,14.4506,10,9,5f41006799f725147633b1ca,Sen Vi·ªát,50.0551372,14.4554728,Vietnamese Restaurant
313,50.055499999999995,14.465399999999999,1,0,5a11723acf72a041147ddede,Michelsk√° krƒçma,50.057004,14.470229,Czech Restaurant
314,50.055499999999995,14.4802,1,0,4dde99a4ae60c6eb2a5e76e3,Hamr Sport Restaurace,50.05309800764288,14.486058664263206,Beer Garden
315,50.055499999999995,14.495,4,0,52fa4f6f498ea1a6d49e0a6d,ASIA Restaurant,50.05648565802733,14.497686393823288,Asian Restaurant
316,50.055499999999995,14.495,4,1,57d3f533cd10ffc103839c80,D√∂ner Kebab,50.054216,14.489955,Doner Restaurant
317,50.055499999999995,14.495,4,2,528f332f498ea0da21e18958,Cinska restaurace Hua Long,50.0561103232299,14.49870312242689,Chinese Restaurant
318,50.055499999999995,14.495,4,3,5cdb0b2a65211f002cf931c3,Restaurace Doma,50.057197,14.496304,Czech Restaurant
319,50.055499999999995,14.5098,7,0,53bbf79f498e120dddee0a88,Garden City Restaurant,50.05663217041207,14.507773897607855,Czech Restaurant
320,50.055499999999995,14.5098,7,1,4d92241d033ba35dfb9b7f0d,Jiang Jia,50.05537086642819,14.504519638997795,Asian Restaurant
321,50.055499999999995,14.5098,7,2,53ad9345498e3bbe34f48b76,B√™p vi√™t,50.05702580687908,14.506865433968532,Vietnamese Restaurant
322,50.055499999999995,14.5098,7,3,52827264498eb4e4f553e451,CHU ƒç√≠nsk√Ω wok sushi restaurant,50.05698889739154,14.507535998810946,Asian Restaurant
323,50.055499999999995,14.5098,7,4,5544fc94498e731178d86a71,ƒå√≠nsk√° restaurace Cheng De,50.05706756434839,14.5074411340163,Asian Restaurant
324,50.055499999999995,14.5098,7,5,50e57659e4b0daef00bb1f12,ƒå√≠nsk√° kuchynƒõ,50.056809,14.506922,Asian Restaurant
325,50.055499999999995,14.5098,7,6,4f672bffe4b036e3ea65ed01,Tai He Lou,50.058047040360336,14.511010399697549,Chinese Restaurant
326,50.055499999999995,14.5246,6,0,4b9b8f22f964a5206f0f36e3,Hosp≈Ødka Karol√≠na,50.05202097118558,14.528360515349869,Czech Restaurant
327,50.055499999999995,14.5246,6,1,56475d86498ea0ff89d0fdfa,restaurace u Karol√≠ny,50.054299,14.527328,Czech Restaurant
328,50.055499999999995,14.5246,6,2,543bb3fb498e6f51e6da14a1,Luckychina,50.053682,14.518449,Asian Restaurant
329,50.055499999999995,14.5246,6,3,4d7cdfd7f260a093ecc641ba,ƒå√≠nsk√© bistro Lucky,50.053874,14.518332,Asian Restaurant
330,50.055499999999995,14.5246,6,4,505c9535e4b0bcb21328f872,LuckyCina,50.05369153781234,14.518420723706942,Chinese Restaurant
331,50.055499999999995,14.5246,6,5,528a40c411d22424c75529e7,Restaurace Pyramida,50.053930997851445,14.518310086103487,Middle Eastern Restaurant
332,50.0655,14.302599999999998,10,0,4fb39b1de4b06c85319fd49a,Zen Bistro,50.064534145517385,14.30900164759466,Sushi Restaurant
333,50.0655,14.302599999999998,10,1,4bcf423f77b29c7413bc8882,Jia Jia Le,50.06930594381659,14.30429946499724,Chinese Restaurant
334,50.0655,14.302599999999998,10,2,55d732a9498e4a6d9ff5ea92,Kru≈°ovick√° ≈†alanda,50.06511542826881,14.30117282196393,Czech Restaurant
335,50.0655,14.302599999999998,10,3,56e34439498e29dd9faa181f,Origin√°l ≈†enkovna,50.0659016946835,14.3024109138629,Czech Restaurant
336,50.0655,14.302599999999998,10,4,56c60a35cd10b75bba70a237,Russian home,50.06777701434349,14.302520502565446,Russian Restaurant
337,50.0655,14.302599999999998,10,5,54bba482498e98ead019c1ff,Restaurant U Pr≈Øhonu,50.06471406109224,14.301830599862667,Pub
338,50.0655,14.302599999999998,10,6,5a81701e1953f35cd3fabd48,Ph√≥ Phong,50.065463,14.29883,Vietnamese Restaurant
339,50.0655,14.302599999999998,10,7,5ce6774818d43b002ce84842,Hi Vjet Food,50.06555,14.298953,Vietnamese Restaurant
340,50.0655,14.302599999999998,10,8,5319e8ec498e875dafda4b46,Restaurace Tequila,50.06491541771427,14.309463972101376,Czech Restaurant
341,50.0655,14.302599999999998,10,9,5d43096f013baf00086f10c7,Jassmin pizza & kebab,50.064696,14.308567,Food Stand
342,50.0655,14.3174,3,0,4be54806bcef2d7fe99d03e5,Hotel u Lipy,50.065000740835906,14.319730589129565,Eastern European Restaurant
343,50.0655,14.3174,3,1,57810a0d498eeca5f4de954c,Mai Mai,50.06481,14.315686,Vietnamese Restaurant
344,50.0655,14.3174,3,2,4be55241cf200f47c10d133c,Restaurant U l√≠py,50.06501684670653,14.31972464691221,Czech Restaurant
345,50.0655,14.347,1,0,571fb7bf498e7499a9addd5d,Restaurace 19,50.06757242462775,14.34466788640662,Czech Restaurant
346,50.0655,14.361799999999999,5,0,4b7e7eadf964a5207aef2fe3,U Tenisu,50.0671633570039,14.361714992286865,Modern European Restaurant
347,50.0655,14.361799999999999,5,1,595e5aca8194fc3200c7d523,Restaurace Caravan Camp,50.068504,14.3585,Czech Restaurant
348,50.0655,14.361799999999999,5,2,5ee0d909fbdeb63d9a1fa1e3,Filema,50.0672925,14.3677083,Greek Restaurant
349,50.0655,14.361799999999999,5,3,56e97f5a498ea60d05d30611,U t√© nejdra≈æ≈°√≠,50.066147,14.365255,Czech Restaurant
350,50.0655,14.361799999999999,5,4,56d6c6c1498eaccec9eaf798,J√≠delna (kafil√©rka),50.0624,14.360837,Czech Restaurant
351,50.0655,14.3766,1,0,5671b5ce498e37990a52f110,Pho Dat,50.069569597590586,14.37454573835604,Vietnamese Restaurant
352,50.0655,14.391399999999999,2,0,4af1edfbf964a5207ae421e3,Na V√°clavce 32,50.065602456331796,14.394035488818778,Czech Restaurant
353,50.0655,14.391399999999999,2,1,4c781a9d3badb1f776a64a54,Na Vinici,50.06515419519306,14.388530889892664,Czech Restaurant
354,50.0655,14.4062,22,0,4c53013e94790f477e506aa3,The Italians,50.06307882825732,14.41024672739738,Italian Restaurant
355,50.0655,14.4062,22,1,56e000eb498eabb85117618a,C√¥ D√¥,50.069288542127765,14.404589316758617,Vietnamese Restaurant
356,50.0655,14.4062,22,2,59f39cff419a9e34fc09ca94,Srdcovka Gurmania,50.06186283947324,14.409650144934751,Czech Restaurant
357,50.0655,14.4062,22,3,5f575ee60ad7f53c9a0e56d3,Huong Viet,50.0619378,14.4096294,Vietnamese Restaurant
358,50.0655,14.4062,22,4,5c01578b492814002ceec307,Rangoli,50.069593,14.406555,Indian Restaurant
359,50.0655,14.4062,22,5,56a25cc0498e49f95041aacd,PureThai ‚Äì Nae's Takeaway,50.06304980403737,14.409270336901757,Thai Restaurant
360,50.0655,14.4062,22,6,4ce503eee571a093edc78787,U Smol√≠k≈Ø,50.062438,14.409402,Pub
361,50.0655,14.4062,22,7,5b111d45464d65002c145131,Pho Tu Quynh,50.06272572497582,14.409481639704726,Vietnamese Restaurant
362,50.0655,14.4062,22,8,5a44cf7925ecca3a34a3b288,Taro,50.0697306,14.4056686,Vietnamese Restaurant
363,50.0655,14.4062,22,9,5cdaa24c60255e002c8a188a,El Arriero,50.062027,14.403502,Latin American Restaurant
364,50.0655,14.4062,22,10,5942ce0606fb60073794a20d,Barranco,50.062741,14.409237,Peruvian Restaurant
365,50.0655,14.4062,22,11,5614f256498eaf22c91feb54,Restaurace Kotevni,50.06403529779116,14.410536947401363,Afghan Restaurant
366,50.0655,14.4062,22,12,51f926cc498e0220a7749e9d,Pubstvi,50.061698725255646,14.409131118316859,Eastern European Restaurant
367,50.0655,14.4062,22,13,53590bec498e897ccdf53a0b,GroupM terasa,50.06274541322744,14.409556388854979,American Restaurant
368,50.0655,14.4062,22,14,520506d6498ea99be4a27e12,Scharlota cafe,50.06864070691815,14.404206986875423,Eastern European Restaurant
369,50.0655,14.4062,22,15,54390049498ef7b6625b26d1,Have a Nice Quiche - food festival,50.06845470573541,14.404381962295293,French Restaurant
370,50.0655,14.4062,22,16,54f210f8498eb81e0d952dd3,Salty Dog Prague,50.068742785925856,14.401940839035175,Cajun / Creole Restaurant
371,50.0655,14.4062,22,17,5a219efe3ba76764923172d4,Dave B,50.06771253800332,14.409516158313439,Eastern European Restaurant
372,50.0655,14.4062,22,18,4b86e43cf964a52037a431e3,Lotos zahrada,50.06946918287259,14.403258384073187,Chinese Restaurant
373,50.0655,14.4062,22,19,4e490dbbd164155c0e065153,La Piada,50.061811,14.4098,Italian Restaurant
374,50.0655,14.4062,22,20,52fcf26e11d2140dd07111bc,Akcent Restaurant,50.06816257691406,14.402987686910443,Modern European Restaurant
375,50.0655,14.4062,22,21,562a3f64498e0e92cac20a6e,TRAN NGOC SON,50.06201171875,14.408727645874023,Afghan Restaurant
376,50.0655,14.421,26,0,4cc0263573ef199ca546d9a2,U Kroka,50.06662283921364,14.417876601219177,Czech Restaurant
377,50.0655,14.421,26,1,4b9776acf964a520c90435e3,Cafeterapie,50.06819981545461,14.41557773646561,Caf√©
378,50.0655,14.421,26,2,4fb287d5e4b06d535f70f5c2,Potrefen√° husa Albertov,50.066433103213605,14.422426774925151,Czech Restaurant
379,50.0655,14.421,26,3,50619570e4b0293cde43f010,rest.,50.06151327757964,14.418951299148441,Modern European Restaurant
380,50.0655,14.421,26,4,5a2fe045f427de4c025f95c1,Pocha,50.06565943323126,14.42609653364836,Korean Restaurant
381,50.0655,14.421,26,5,4c4aca2a712ac928b54df66b,U ≈†em√≠ka,50.06573787705119,14.420059919357298,Hotel
382,50.0655,14.421,26,6,504225d4e4b0711880b2718c,Thanh Tam,50.067298167009255,14.421417567145475,Asian Restaurant
383,50.0655,14.421,26,7,58c7c765110d032939b82842,Lang Biang,50.067777588129985,14.420900786633913,Asian Restaurant
384,50.0655,14.421,26,8,4b841b51f964a520232131e3,U T≈ô√≠ bojovn√≠k≈Ø,50.06911705887033,14.417596438524665,Czech Restaurant
385,50.0655,14.421,26,9,4c444fa02d3ec9b6a6a42eae,Lekn√≠n,50.0672942976642,14.417436718940733,Asian Restaurant
386,50.0655,14.421,26,10,5e3977532ed0ce0008781bac,Nepal House,50.068127581746595,14.416975378990173,Himalayan Restaurant
387,50.0655,14.421,26,11,562d0199498e8466a6533022,Pho Viet moravsk√° vinot√©ka,50.06496877347627,14.42688042609028,Asian Restaurant
388,50.0655,14.421,26,12,5673d6ed498e2d19931c7224,La Liberta,50.067945,14.420874,Italian Restaurant
389,50.0655,14.421,26,13,5b687b5c947c05002c6b9c7c,Asean Food Vietnamese Restaurant,50.06482,14.427031,Vietnamese Restaurant
390,50.0655,14.421,26,14,5172f99ee4b03b4661f28bc2,Mal√Ω vesm√≠r mal√© Ar,50.065608,14.424896,Sushi Restaurant
391,50.0655,14.421,26,15,51609f7ae4b00021047fdef2,L'Italiano,50.065124473690034,14.42470138225684,Italian Restaurant
392,50.0655,14.421,26,16,5e2ad56fa1f8b8000700b9a0,Palanok,50.067867,14.420825,Ukrainian Restaurant
393,50.0655,14.421,26,17,4d57cfbf8147f04d00e89a54,Colours Of Rio¬¥s Restaurant,50.0643955460735,14.417201228938419,Caf√©
394,50.0655,14.421,26,18,52c97788498ee1e3e2f401ce,Nejlepsi Vecerka,50.066918527631024,14.42008997695295,Vietnamese Restaurant
395,50.0655,14.421,26,19,4f954d07e4b0e90bfd24fa91,Vabene bar,50.066097259521484,14.420321464538574,Italian Restaurant
396,50.0655,14.421,26,20,4e3fd67d922e920e6c50dc24,Karavela,50.065713244102824,14.426121616112846,Czech Restaurant
397,50.0655,14.421,26,21,562fe5e5498e6ca22399946c,Restaurant Vietnamese Pho Viet,50.066150871523895,14.422796580698126,Vietnamese Restaurant
398,50.0655,14.421,26,22,4d8063c9562ea0905b30512e,RBG Bar & Grill,50.06801776697373,14.418265582807528,American Restaurant
399,50.0655,14.421,26,23,4d9c4efd948ea093ce99cd11,Zahradn√≠ restaurace Vy≈°ehrad,50.062771852574016,14.422565711917743,Eastern European Restaurant
400,50.0655,14.421,26,24,56f922ac498e3f194d550b42,ƒå√≠nsk√° restaurace Lekn√≠n,50.067074,14.417199,Chinese Restaurant
401,50.0655,14.421,26,25,571249f1498ede122f7d1dab,Viet-Style,50.06487700324955,14.427103400230408,Vietnamese Restaurant
402,50.0655,14.435799999999999,27,0,4ba36ad8f964a520673b38e3,Yam Yam,50.063102973544396,14.430184354768636,Thai Restaurant
403,50.0655,14.435799999999999,27,1,4b73164bf964a520a19a2de3,Restaurace Zvona≈ôka,50.069787061409635,14.435542322397337,Czech Restaurant
404,50.0655,14.435799999999999,27,2,57498746498eccc423d02ad4,Wok & Sushi,50.061360060626036,14.436994216730696,Asian Restaurant
405,50.0655,14.435799999999999,27,3,5b740ff9396de00039d0caef,T√¥-M√¨-Asian,50.067978,14.433278,Vietnamese Restaurant
406,50.0655,14.435799999999999,27,4,4b2c5d24f964a52051c624e3,Pizza West,50.064587721827074,14.440413821310427,Pizza Place
407,50.0655,14.435799999999999,27,5,54edb2c5498e4126b9d78ed4,Vietnam Food,50.064961,14.432078,Vietnamese Restaurant
408,50.0655,14.435799999999999,27,6,4b9cde34f964a5209e7f36e3,Jiu Zhou,50.06563549248109,14.439600973696457,Asian Restaurant
409,50.0655,14.435799999999999,27,7,5f2403c9d2f1f83020780eb6,Viet Babylon,50.06799,14.433265,Vietnamese Restaurant
410,50.0655,14.435799999999999,27,8,5392ef3a498eee59c26de218,Excelsior Pub,50.0681,14.436229,Czech Restaurant
411,50.0655,14.435799999999999,27,9,53779580498e9620f1403645,Jiu Zhou Running Sushi,50.06561413773619,14.439662199188264,Sushi Restaurant
412,50.0655,14.435799999999999,27,10,5e60e540fd0227000770ece7,Viet House,50.063904,14.440299,Vietnamese Restaurant
413,50.0655,14.435799999999999,27,11,4d53d8a9f5daa09357fc6a74,Ding Sheng,50.0641865499916,14.440436906509861,Asian Restaurant
414,50.0655,14.435799999999999,27,12,4d14e2fa81cea35de5aad6ec,Le Papillon,50.06951071905938,14.43471527715717,Eastern European Restaurant
415,50.0655,14.435799999999999,27,13,54de2882498e03fa29a769ad,Domu,50.064815521240234,14.440197944641113,Arepa Restaurant
416,50.0655,14.435799999999999,27,14,51b1c2b4498e4444bd5a4c35,Teppanyaki Restaurant Jui Zhou,50.06554257215732,14.439662919303544,Asian Restaurant
417,50.0655,14.435799999999999,27,15,5d2369b88be3b00023e8898e,Nieu Dat,50.06392,14.440224,Vietnamese Restaurant
418,50.0655,14.435799999999999,27,16,5ac35d73c0363523292ef653,Street Kitchen,50.064182,14.441537,American Restaurant
419,50.0655,14.435799999999999,27,17,4b6ea630f964a52043c52ce3,Futomi restaurant,50.065374922769486,14.433089816920225,Sushi Restaurant
420,50.0655,14.435799999999999,27,18,5134e59fe4b0ca4edc9e6dd1,Vietnamec S Medvidkama,50.06482092740667,14.440130038709171,Chinese Restaurant
421,50.0655,14.435799999999999,27,19,4e09b7f9ae60a90eabd76070,The grill,50.06264464591941,14.43130732885636,Steakhouse
422,50.0655,14.435799999999999,27,20,5224bf17498e0d15d18c2662,House of Brasil,50.06862643690711,14.432569768086614,Brazilian Restaurant
423,50.0655,14.435799999999999,27,21,52f8fb1511d21d90e4b9091b,Concordia Ristorante,50.063936562000464,14.440269213877041,Italian Restaurant
424,50.0655,14.435799999999999,27,22,4e9f1f514901fd63b856f956,Rickshaw,50.0630405644507,14.431705922953068,Asian Restaurant
425,50.0655,14.435799999999999,27,23,592fe55216fa047ec0affd57,U Pt√°ka,50.066734,14.438062,Czech Restaurant
426,50.0655,14.435799999999999,27,24,55004e5a498e239d2bdbf889,The Like,50.06302297190052,14.430714284712176,Asian Restaurant
427,50.0655,14.435799999999999,27,25,546e1d3d498e1d4f114a01e7,Golden Dragon,50.065140842919334,14.429358035475591,Asian Restaurant
428,50.0655,14.435799999999999,27,26,4bd05794a8b3a59312a5635f,Nine Star Ki Studio,50.06827375917962,14.435515356371038,Chinese Restaurant
429,50.0655,14.4506,24,0,5a7f5a76e1791029a9663df3,Mistro,50.06915733430382,14.45395226955641,Modern European Restaurant
430,50.0655,14.4506,24,1,59ee1d7316ef676354a1ce74,Sajado,50.06622684649018,14.448920488357542,Sushi Restaurant
431,50.0655,14.4506,24,2,5ba36e62340a58002cc318f6,≈†ehrzad,50.06632,14.456488,Turkish Restaurant
432,50.0655,14.4506,24,3,5af32bbd66f3cd002b3c052d,Sada Punjab,50.067378,14.44881,Indian Restaurant
433,50.0655,14.4506,24,4,59e1fdd993bd631a22326a96,Hua Long Zhai,50.06799225708105,14.454550529670207,Chinese Restaurant
434,50.0655,14.4506,24,5,5967149ea9e40247a7135305,Kyoto,50.066116,14.448878,Chinese Restaurant
435,50.0655,14.4506,24,6,5c60b40ea22db7003947cc54,U T≈ô√≠ soudk≈Ø,50.0665057634445,14.455379247665405,Vietnamese Restaurant
436,50.0655,14.4506,24,7,5b8170f635f983002c1934e8,Ph·ªü u pan√≠ Hoa,50.064747,14.45258,Vietnamese Restaurant
437,50.0655,14.4506,24,8,4baea54af964a52069ca3be3,Waikiki,50.068449591633716,14.453664910699223,Bar
438,50.0655,14.4506,24,9,5d0906d59d7468002c5e8cdd,Son Kimbab,50.061979834201054,14.447413086891174,Korean Restaurant
439,50.0655,14.4506,24,10,5b5a04eed03360002c0abfda,ORGANIC SUSHI,50.063681,14.444304,Sushi Restaurant
440,50.0655,14.4506,24,11,52d2999511d226e55fd633df,Arirang Sushi Grand Restaurant,50.069033731810045,14.452333322293379,Korean Restaurant
441,50.0655,14.4506,24,12,516aeae5e4b0184c2fccd8f1,Hao Bi Lai,50.06803894042969,14.454548835754395,Chinese Restaurant
442,50.0655,14.4506,24,13,4f33b6e9e4b0cc4cf7ef9f75,Uƒçebna Uj,50.06502865161947,14.454727375671247,American Restaurant
443,50.0655,14.4506,24,14,52fc95a3498eca0c6d7c86f3,ƒå√≠nsk√° Restaurace Hao Bi Lai,50.06599167642581,14.453333281664426,Chinese Restaurant
444,50.0655,14.4506,24,15,598300cd270ee749da94bca0,Jie Jie,50.065451,14.444896,Chinese Restaurant
445,50.0655,14.4506,24,16,4dd6a3251838b8561cd25029,Jia Nan,50.06789634215764,14.454731814461299,Chinese Restaurant
446,50.0655,14.4506,24,17,58af38ff2cba22407389bad1,LuckyCina,50.062943,14.447459,Asian Restaurant
447,50.0655,14.4506,24,18,4fa1567de4b0953f49230381,Ning Bo,50.06474035938148,14.452626482995667,Asian Restaurant
448,50.0655,14.4506,24,19,548dc647498e646a6e5fe87a,Hosp≈Ødka L√≠nej Klokan,50.063812255859375,14.453056335449219,Czech Restaurant
449,50.0655,14.4506,24,20,52ace60711d2db47f66fd18e,Krutaparty,50.067368,14.455732,American Restaurant
450,50.0655,14.4506,24,21,5c0829ea61f070002b83815b,≈†ehrazad,50.066204,14.456604,Doner Restaurant
451,50.0655,14.4506,24,22,5912e0402be4251e38953cad,Sanjay,50.067532,14.45658,Vegetarian / Vegan Restaurant
452,50.0655,14.4506,24,23,5554de87498eca876f1e0264,Jin Xuan Ge,50.06796158393486,14.454379073476634,Asian Restaurant
453,50.0655,14.465399999999999,11,0,518212e17dd2add58a3ba55f,Olive,50.06928780492485,14.462916537996714,Cafeteria
454,50.0655,14.465399999999999,11,1,576facf2498eecbf2023eeb4,Sumo,50.067825166142015,14.46857918172199,Sushi Restaurant
455,50.0655,14.465399999999999,11,2,4d736c55ff6ba35d2d627c8a,Z√°≈ôiv√° perla,50.06801268148276,14.468551733384642,Asian Restaurant
456,50.0655,14.465399999999999,11,3,57e95475498e35b7e57f15ff,Super D√∂ner Kebab,50.06720796450286,14.459903985305916,Doner Restaurant
457,50.0655,14.465399999999999,11,4,56b21c40498e59aba0005eff,Mex Dan,50.06791164695874,14.468584405412548,Mexican Restaurant
458,50.0655,14.465399999999999,11,5,54ac52c8498e4a4e799c96f6,Plze≈àsk√° Restaurace U Trumpety,50.06664279304716,14.460896485052931,Czech Restaurant
459,50.0655,14.465399999999999,11,6,4b9baa90f964a520461836e3,Punjabi food,50.06796779445499,14.468677894733693,Indian Restaurant
460,50.0655,14.465399999999999,11,7,51ee646d498e67b0e9070055,Prima ba≈°ta,50.067933096597066,14.468795474820652,Czech Restaurant
461,50.0655,14.465399999999999,11,8,5cf1562300b068002d724725,Saigon Memory Food,50.067976076626614,14.462546110153198,Vietnamese Restaurant
462,50.0655,14.465399999999999,11,9,5215e0af11d2e21ec25ef3eb,Na Lou≈æi,50.066459822468865,14.458998729772253,Eastern European Restaurant
463,50.0655,14.465399999999999,11,10,5236e53911d27fbacdb870b6,Tr√°va,50.066551801483484,14.458949985748296,African Restaurant
464,50.0655,14.4802,3,0,54e9d281498ece133b372877,J√≠delna Slavia,50.068725405343976,14.478536611065989,Czech Restaurant
465,50.0655,14.4802,3,1,5f08d0d899a5105fcb3bc8e9,www.jidlo.asia,50.068577,14.4780245,Chinese Restaurant
466,50.0655,14.4802,3,2,51371cd1e4b052e6ae8a1c38,Restaurace BOBR,50.06880219614328,14.477085934815968,Middle Eastern Restaurant
467,50.0655,14.495,9,0,4b1bf83ff964a520ddff23e3,Veranda,50.067027480170175,14.496059509144553,Pizza Place
468,50.0655,14.495,9,1,5d38341abb874e000851e344,Vivi Asian Bistro & Sushi,50.068195,14.49312,Asian Restaurant
469,50.0655,14.495,9,2,58b97c7151666a48d2182538,My Way D√∂ner Kebab,50.06815,14.493308,Doner Restaurant
470,50.0655,14.495,9,3,4d4c4d5ee4fd6ea8573bc261,ƒå√≠nsk√© Bistro Baile,50.068264704701875,14.492910280243665,Asian Restaurant
471,50.0655,14.495,9,4,5045d28ae4b0a30df0917549,Kant√Ωna  Posledn√≠ mo≈ænost,50.06501456799163,14.494948012926944,Eastern European Restaurant
472,50.0655,14.495,9,5,54c143f0498e684f5ac1f114,Sushibar Pe≈°≈•upat√°k,50.06618836687103,14.49912804295606,Sushi Restaurant
473,50.0655,14.495,9,6,58d118710319b86f8f06900c,Na≈°e Kuchynƒõ,50.066032,14.491052,Czech Restaurant
474,50.0655,14.495,9,7,562a81f5498e06eb743e6e71,Pizza Paolo,50.06789816966876,14.492817554319117,Pizza Place
475,50.0655,14.495,9,8,537cd242498e8b0d9d87d970,Saccaria caffe,50.066813,14.495957,Italian Restaurant
476,50.0655,14.5098,3,0,51ea7f48498ecb556e3e9305,ƒå√≠nsk√° restaurace Skalka,50.06810294615284,14.508930341063904,Chinese Restaurant
477,50.0655,14.5098,3,1,4b07c09bf964a520c6ff22e3,Xin Le Yuan,50.067269231078804,14.507205808147889,Chinese Restaurant
478,50.0655,14.5098,3,2,5d2b0de15cbbb20023482fba,Shi Wei Tian,50.067238,14.507494,Chinese Restaurant
479,50.0655,14.5542,1,0,5c2e0343a0215b002cfc1912,Gourmet,50.06629,14.549353,Asian Restaurant
480,50.0655,14.5986,2,0,4be91ca76af1ef3bd2b81b96,Restaurace U dubu,50.06136593118974,14.596106712149005,Diner
481,50.0655,14.5986,2,1,4be91dd56af1ef3be5b81b96,Restaurace U ≈†im≈Ønk≈Ø,50.06373796744438,14.592911490685895,Eastern European Restaurant
482,50.0655,14.643,1,0,4ba50665f964a5201fd238e3,Pizzeria No.110,50.062385,14.642755,Italian Restaurant
483,50.0755,14.3174,3,0,51168ac9e4b003046fc5b8b6,Tengiz/U Gruz√≠na,50.075425959395055,14.319084661163757,Caucasian Restaurant
484,50.0755,14.3174,3,1,4d8a3e957d4c5481f00d6571,U ƒåech≈Ø,50.07386525874348,14.315613466048589,Czech Restaurant
485,50.0755,14.3174,3,2,52f5384c498ea44f861c0251,Na formance,50.075471,14.314984,Czech Restaurant
486,50.0755,14.332199999999998,1,0,4f0ca7ffe5e820702022dd2e,Kimchi,50.076296755728926,14.332466152557785,Korean Restaurant
487,50.0755,14.3766,2,0,4dc2e1ce1838ada6b26e3247,Kinari,50.074663,14.380451,Thai Restaurant
488,50.0755,14.3766,2,1,51d92fc9498ef5832d0ada9d,Jungledyret Hugo's,50.0721120192106,14.372413671618524,Scandinavian Restaurant
489,50.0755,14.391399999999999,8,0,5f3561992bd4ed3e83e7405c,Sacra Restaurant,50.074167,14.39748,Modern European Restaurant
490,50.0755,14.391399999999999,8,1,54611870498eb2991095c939,B√°nh M√¨ Makers,50.07246083702771,14.394889135528025,Vietnamese Restaurant
491,50.0755,14.391399999999999,8,2,5edd1c0679f44f0008f79dd6,CJ26,50.0731108,14.3939642,Modern European Restaurant
492,50.0755,14.391399999999999,8,3,5914a56089e490471c857b9b,ƒå√≠nsk√° Restaurace - Li Lie,50.073044,14.39244,Chinese Restaurant
493,50.0755,14.391399999999999,8,4,4b1aea98f964a5209df423e3,RestArt,50.07375860677122,14.394052149043327,Eastern European Restaurant
494,50.0755,14.391399999999999,8,5,4d41ae6fde17a093c07d036c,Chacapuri,50.0725434,14.3945513,Middle Eastern Restaurant
495,50.0755,14.391399999999999,8,6,54987410498eea3f58bf6ebe,Jamie's Grill & Bar,50.072395151199665,14.396422593071929,American Restaurant
496,50.0755,14.391399999999999,8,7,5ae8a850033693002ce4e6f6,Restaurace Cihelna,50.07318,14.393961,Czech Restaurant
497,50.0755,14.4062,50,0,5ecceb6df29b72000888f608,Paprika,50.07219,14.404614,Israeli Restaurant
498,50.0755,14.4062,50,1,5204c97f498e70c06ad18bb6,Burrito Loco,50.072723,14.4037075,Burrito Place
499,50.0755,14.4062,50,2,55717ff3498e24b1986ec254,Kozlovna,50.07245501232589,14.407615667096497,Czech Restaurant
500,50.0755,14.4062,50,3,5f985acf3ec9830317e6adf2,Nh√† Hai H√†nh,50.0774931,14.4023536,Vietnamese Restaurant
501,50.0755,14.4062,50,4,54214b6b498ec006c432aa46,Lavande,50.07276095392055,14.409856796264648,Modern European Restaurant
502,50.0755,14.4062,50,5,5d0642b610fe5a0023978aa4,Ikura,50.077297,14.40463,Sushi Restaurant
503,50.0755,14.4062,50,6,50f46120e4b0251640fc204d,Zubajda,50.07688668669283,14.403492370596231,Czech Restaurant
504,50.0755,14.4062,50,7,53862235498eec2ff9f0be1e,Prostor,50.07235005094264,14.406716986588307,Czech Restaurant
505,50.0755,14.4062,50,8,4b797ba4f964a520dafb2ee3,Pizzeria Ristorante Corleone,50.071606,14.404565,Pizza Place
506,50.0755,14.4062,50,9,4b49bd62f964a5200f7326e3,El Barrio de √Ångel,50.07207701741733,14.404107076659546,South American Restaurant
507,50.0755,14.4062,50,10,5f23f429d0fae643e1d6eb48,Thai Thai & Ramen,50.072603,14.402343,Thai Restaurant
508,50.0755,14.4062,50,11,4b460ecdf964a520281526e3,Safir,50.072122519666316,14.402619970946944,Lebanese Restaurant
509,50.0755,14.4062,50,12,55dacb58498ecb55163b0986,Gourmet Pauza,50.072305,14.407625,French Restaurant
510,50.0755,14.4062,50,13,4b99262af964a520df6435e3,U Svat√©ho Filipa a¬†Jakuba,50.076276413188154,14.404937598230973,Gastropub
511,50.0755,14.4062,50,14,56a3bf58498ebd48f0853158,MANU Risto & Lounge,50.076639335468386,14.409429338358274,Mediterranean Restaurant
512,50.0755,14.4062,50,15,4b72f4b2f964a52000922de3,Restaurace Hlubina,50.07217911403279,14.405205914207286,Czech Restaurant
513,50.0755,14.4062,50,16,5ac521d792e7a9178809864b,Tonkin,50.074596291343845,14.406179691917474,Asian Restaurant
514,50.0755,14.4062,50,17,5c9d4c1d6a5950002c8c5016,Bockem,50.07728,14.405123,Modern European Restaurant
515,50.0755,14.4062,50,18,5edea27676fb7a66df31f17a,Wokin,50.0722,14.403563,Noodle House
516,50.0755,14.4062,50,19,5e2353ddda8dc0000735a87a,Aroy Thai,50.07165338390805,14.406772255897524,Thai Restaurant
517,50.0755,14.4062,50,20,5f01ac57d0927b5bd454ef4a,Bali Bali,50.072743,14.402264,Vietnamese Restaurant
518,50.0755,14.4062,50,21,53c2ba93498ee795229b894c,Tapas Bar Mir√≤,50.07742086391428,14.404184789445127,Tapas Restaurant
519,50.0755,14.4062,50,22,4c6280b3ec94a593a85b29ca,Xia Men,50.07272101204712,14.403842387108629,Chinese Restaurant
520,50.0755,14.4062,50,23,4b680cc4f964a52046652be3,Andƒõlsk√Ω √öjezd,50.076164,14.405974,Chinese Restaurant
521,50.0755,14.4062,50,24,5e27315fb9210b000791eeac,Chile y Lim√≥n,50.072159,14.405639,Mexican Restaurant
522,50.0755,14.4062,50,25,5a9c200816fa0409c5d45d94,Sushi Time,50.072272,14.402309,Sushi Restaurant
523,50.0755,14.4062,50,26,5c31f0b69b0473002c0e175e,WraP ‚Äòn Roll,50.073574,14.40239,Asian Restaurant
524,50.0755,14.4062,50,27,5eeb4e4a85d9680008365200,Lychee Bistro,50.076164,14.405621,Asian Restaurant
525,50.0755,14.4062,50,28,4fd4878ce4b0a1f007321240,Ocean Blue,50.076006411495506,14.405734960037964,Vietnamese Restaurant
526,50.0755,14.4062,50,29,4c9ce11cd3c2b60ce8e3bbbc,ƒåerven√© Jablko,50.076878330298335,14.405455531833251,Chinese Restaurant
527,50.0755,14.4062,50,30,519255b6abd8f6118180a7e7,Man Yi Ge,50.07250736940921,14.40862478211082,Chinese Restaurant
528,50.0755,14.4062,50,31,4bb45cc7643cd13a879f395c,Makakiko | Running Sushi,50.072614,14.401891,Sushi Restaurant
529,50.0755,14.4062,50,32,5d7624fdcd95ad000827e51c,Vietnam SH,50.071542,14.405605,Vietnamese Restaurant
530,50.0755,14.4062,50,33,525fb64a11d2b688cbb1b3f3,U Precl√≠k≈Ø,50.07782364241332,14.402617672743908,Eastern European Restaurant
531,50.0755,14.4062,50,34,5e3f193f69e2000008947836,Nusu Restaurant,50.07256,14.409014,Vietnamese Restaurant
532,50.0755,14.4062,50,35,5d80cdd16d03900008da30e8,Rattanakosin,50.07464444388893,14.403558969825097,Thai Restaurant
533,50.0755,14.4062,50,36,4f9ee1bfe4b0027bd6a0362c,Kaktus,50.072268748588925,14.402573249771116,Mexican Restaurant
534,50.0755,14.4062,50,37,4fff2ab9e4b0970f4d8bdfee,American pub,50.076069614180824,14.406172233747542,American Restaurant
535,50.0755,14.4062,50,38,55e56ca4498e2abd22fcae46,Vegetari√°nsk√° restaurace a ƒçajovna,50.078240763570875,14.405042558540098,Eastern European Restaurant
536,50.0755,14.4062,50,39,5adb26f3f79faa5e37f3d0ea,Food And Love,50.07709,14.406406,Italian Restaurant
537,50.0755,14.4062,50,40,5b8426c597cf5a002c73f2a9,Tankovna U Tuƒç≈à√°k≈Ø,50.073059,14.407775,Czech Restaurant
538,50.0755,14.4062,50,41,58555091cf11d4240b00f2f8,Bo≈æ√≠ Fans√Ωr st√°nek,50.071963,14.402656,French Restaurant
539,50.0755,14.4062,50,42,574192d2498e03ad1cc0a221,Kucht√≠me,50.073807,14.409094,Italian Restaurant
540,50.0755,14.4062,50,43,5b7b0fb461f070002cb9a2b5,levande,50.072731,14.410661,French Restaurant
541,50.0755,14.4062,50,44,536d3284498e812181c0dcde,the wine bar snd brassiere,50.078175000163505,14.402645203154472,French Restaurant
542,50.0755,14.4062,50,45,50129b57e4b0f8ec77bfd525,Chinese Restaurant,50.07178557316806,14.404925075976044,Chinese Restaurant
543,50.0755,14.4062,50,46,59f371f765cdf8641b7d51d1,Pizza Da Pjetro,50.072733,14.404092,Pizza Place
544,50.0755,14.4062,50,47,595538faf2905e25ad5c0659,Mex Dan,50.07250864177083,14.402527521474216,Mexican Restaurant
545,50.0755,14.4062,50,48,541351e5498ec4528fea058e,Don Tot√≤,50.07171029213704,14.406905962488649,Italian Restaurant
546,50.0755,14.4062,50,49,5532882d498ef49d4e1eb6c6,Paliho Sushi Place,50.07311055389167,14.409725946702617,Sushi Restaurant
547,50.0755,14.421,50,0,5f59fd637ca2954a05998dde,Y√¥ri Restaurant,50.0765439,14.4242714,Asian Restaurant
548,50.0755,14.421,50,1,4b8be032f964a520edaf32e3,U Pravd≈Ø,50.077392051246385,14.423517679227105,Eastern European Restaurant
549,50.0755,14.421,50,2,4d8b74035ecdf04d9a0bd48a,D√∂ner Kebab Can Bey,50.07567297977805,14.42288662250863,Doner Restaurant
550,50.0755,14.421,50,3,4c2afb028ef52d7ff7b130ba,Krƒçma U Para≈°utist≈Ø,50.075878,14.416434,Gastropub
551,50.0755,14.421,50,4,5d55710f04defd00087e7d5c,Da Antonio,50.076322,14.415153,Pizza Place
552,50.0755,14.421,50,5,5213666e498ef921610248b7,Bombay Express,50.07935,14.42258,Indian Restaurant
553,50.0755,14.421,50,6,4b6b4232f964a52093fc2be3,Miyabi,50.07859713919348,14.42334267873664,Sushi Restaurant
554,50.0755,14.421,50,7,52e550f4498e2806a425a621,Beer & Burger U ƒå√≠≈æk≈Ø,50.07600509465901,14.420927699155095,Burger Joint
555,50.0755,14.421,50,8,5784d604498e6384cf71d457,M'roll,50.074018,14.416369,Vietnamese Restaurant
556,50.0755,14.421,50,9,55e88d9a498eac9b696244d3,Restaurace U ≈†umavy,50.07603939209888,14.424215882657048,Czech Restaurant
557,50.0755,14.421,50,10,4b680f99f964a520b3652be3,Lemon Leaf,50.077454,14.416609,Thai Restaurant
558,50.0755,14.421,50,11,5f0e066ab5c3dd682bee817d,Gran Fierro,50.0773917,14.4156839,Argentinian Restaurant
559,50.0755,14.421,50,12,4c1e522a63750f472988b967,Potrefen√° husa,50.07587,14.414859,Czech Restaurant
560,50.0755,14.421,50,13,58b970304bc2f1632a2912bb,Î∞•; r√Ω≈æe,50.076992056920226,14.415205936554853,Korean Restaurant
561,50.0755,14.421,50,14,5d7639862b61ba0007696356,The Nest,50.07801,14.418738,Asian Restaurant
562,50.0755,14.421,50,15,5f4e1cbcd9b62e61b6adfd05,NƒÉm - Viet Kitchen,50.078815,14.421921,Vietnamese Restaurant
563,50.0755,14.421,50,16,5370a2ba11d2998ed71e0440,Al Tagliere,50.075797287333025,14.42175905063648,Italian Restaurant
564,50.0755,14.421,50,17,4b7bdcadf964a52022712fe3,Pizzeria Carlo,50.07673075128637,14.421932196431971,Pizza Place
565,50.0755,14.421,50,18,5ee903939d9c590007d1c20e,Chito Gvrito,50.07929352566352,14.420746564865114,Caucasian Restaurant
566,50.0755,14.421,50,19,4adcdaa4f964a520d34e21e3,The Globe,50.077973,14.416445,Caf√©
567,50.0755,14.421,50,20,5f345e9f1c7e17737cbe7015,Bistro Punjab & Kebab,50.077427,14.424103,North Indian Restaurant
568,50.0755,14.421,50,21,5a344929123a1968dce0b346,Je≈ækovy voƒçi,50.07779033343758,14.426609734206712,Bar
569,50.0755,14.421,50,22,59cbdc763ba767521756b0e0,Taaj Palace,50.075048,14.416003,Indian Restaurant
570,50.0755,14.421,50,23,4e666c33d4c0c8a694a71877,Manni Kebabish,50.077670348408695,14.418306539137802,Pakistani Restaurant
571,50.0755,14.421,50,24,4ebc1398e5faf7ab659f9c78,Miss Saigon,50.078056066639036,14.418477596991137,Vietnamese Restaurant
572,50.0755,14.421,50,25,5afaa46762845c0024ea18ec,Litchi - Asian restaurant,50.074501,14.41821,Asian Restaurant
573,50.0755,14.421,50,26,5231f92111d297ac53dc041c,Ph·ªü Vi·ªát,50.075508,14.422162,Asian Restaurant
574,50.0755,14.421,50,27,5f1d9446b8441e5e1c6e950a,Hanoi Square,50.078034,14.424887,Vietnamese Restaurant
575,50.0755,14.421,50,28,4cebfbd0b9975481b5740f45,Caf√© Amandine,50.07377,14.41753,Caf√©
576,50.0755,14.421,50,29,5937de1225fb7b781adabc55,Pho Viet,50.074005,14.418528,Vietnamese Restaurant
577,50.0755,14.421,50,30,4be6fad3d4f7c9b61a492720,U Matƒõj√≠ƒçk≈Ø,50.076559,14.415083,Czech Restaurant
578,50.0755,14.421,50,31,50e324d4e4b0fe644a9de59d,Oi Zoi Oi Pho u Fugiho,50.07743237516211,14.423015761261164,Asian Restaurant
579,50.0755,14.421,50,32,580caa5738fa6aa4f88f937d,Hoang Thanh,50.07844226715755,14.42429708907732,Vietnamese Restaurant
580,50.0755,14.421,50,33,5a292d854a7aae5b306034a5,Bao Dao,50.076313,14.42437,Chinese Restaurant
581,50.0755,14.421,50,34,5d1c72e36d54f80023b9ba1c,Hoi An,50.075206,14.414663,Vietnamese Restaurant
582,50.0755,14.421,50,35,562b9bf4498e415e69e28e85,Restaurace Mysl√≠kova,50.07786617812571,14.418077941412474,Czech Restaurant
583,50.0755,14.421,50,36,570f6c21498ed39e61055bd9,V C√≠pu,50.07927222524552,14.420773386955261,Czech Restaurant
584,50.0755,14.421,50,37,5d3063730be70b00088f62c9,Emi Restaurant,50.074072,14.424769,Asian Restaurant
585,50.0755,14.421,50,38,553a56f1498e0478453878fb,San Carlo,50.07619,14.415601,Italian Restaurant
586,50.0755,14.421,50,39,5f3d68e5e8817c1a69e681f9,Classic Afro Bite & Cafe,50.07329,14.423836,African Restaurant
587,50.0755,14.421,50,40,5e3af5c69129cc0008c8274f,Origami,50.07522,14.414694,Sushi Restaurant
588,50.0755,14.421,50,41,5d4aea7c785d790008cb87c2,DuHa,50.07730340180895,14.421918690204619,Sushi Restaurant
589,50.0755,14.421,50,42,57dbcd54498e856bf6d9e341,The Londoners,50.07773340637518,14.424893260002136,Sports Bar
590,50.0755,14.421,50,43,4d2afb0b915fa093572b130a,≈†vejk Restaurant U Karla,50.07859998808339,14.417346628689538,Czech Restaurant
591,50.0755,14.421,50,44,4adcdaa3f964a520494e21e3,Novomƒõstsk√Ω pivovar,50.07934296608443,14.423220879940484,Brewery
592,50.0755,14.421,50,45,528ca35e11d2d1e7f9dc6d94,Amaryla Restaurant,50.07805502569209,14.425298936297828,Modern European Restaurant
593,50.0755,14.421,50,46,581b778f5d49e87af9266a4d,Pelme≈à√°rna,50.07668733291743,14.424514021608383,Pelmeni House
594,50.0755,14.421,50,47,5ece3e1553dd4e000835070b,QQ Asian Kitchen,50.077568,14.4181185,Asian Restaurant
595,50.0755,14.421,50,48,4c1d050ab4e62d7fa6fddb93,Jin Xin,50.07427836246531,14.42383136078536,Chinese Restaurant
596,50.0755,14.421,50,49,4b4af3a7f964a520329026e3,Restaurant Bresto,50.07843669945369,14.424866174544002,Italian Restaurant
597,50.0755,14.435799999999999,50,0,51e6a090498e41f4704c04d7,Vinohradsk√Ω parlament,50.07542,14.438543,Czech Restaurant
598,50.0755,14.435799999999999,50,1,4b9be521f964a520b13236e3,U Dand≈Ø,50.075905,14.439229,Pub
599,50.0755,14.435799999999999,50,2,4b447abcf964a5206af525e3,≈Ωlut√° pumpa,50.07187222226214,14.436238916387081,Mexican Restaurant
600,50.0755,14.435799999999999,50,3,5326def811d268288388b453,Bruxx,50.075439,14.438069,Belgian Restaurant
601,50.0755,14.435799999999999,50,4,5b508dcb82a75000397927a6,Ossegg,50.076559,14.438781,Brewery
602,50.0755,14.435799999999999,50,5,4fface89e4b0a0306dbfd10e,Pho Vietnam Tuan & Lan,50.07671103289359,14.43321705152752,Vietnamese Restaurant
603,50.0755,14.435799999999999,50,6,594b8770a92d9826ccaa583b,Paprika,50.073984551413254,14.432168841246757,Middle Eastern Restaurant
604,50.0755,14.435799999999999,50,7,4af9c4b9f964a5200f1422e3,Las Adelitas,50.071537811970494,14.439094078822642,Mexican Restaurant
605,50.0755,14.435799999999999,50,8,5478bb33498e0c555a6dcad9,Everest,50.077163,14.437371,Indian Restaurant
606,50.0755,14.435799999999999,50,9,4af59741f964a5200bfa21e3,Dhaba Beas,50.07329261040369,14.43316703959428,Vegetarian / Vegan Restaurant
607,50.0755,14.435799999999999,50,10,52c1ce5911d2d1e4fd8950bb,Prague Beer Museum,50.074535598204015,14.436609952318054,Beer Bar
608,50.0755,14.435799999999999,50,11,4bfb966dab180f4766feb3ce,Mlsnej Kocour,50.074356,14.435779,Czech Restaurant
609,50.0755,14.435799999999999,50,12,5c7d26c907190200250125ef,Thanh Tam,50.078871818657426,14.434576034545898,Vietnamese Restaurant
610,50.0755,14.435799999999999,50,13,4b5dd963f964a520926f29e3,Dem√≠nka,50.07706867766072,14.43130898506146,Pub
611,50.0755,14.435799999999999,50,14,4b1ba8d8f964a5207afc23e3,Baifu,50.073442865313055,14.433049017976002,Sushi Restaurant
612,50.0755,14.435799999999999,50,15,4af2de05f964a520dce821e3,Grosseto,50.07490942134842,14.437367189468985,Italian Restaurant
613,50.0755,14.435799999999999,50,16,579cee4a498e472ea64cfe3a,PHUONG NAM,50.07635071790406,14.43283863523949,Vietnamese Restaurant
614,50.0755,14.435799999999999,50,17,5402dac1498e6193c285bbb5,Mr. B√°nh M√¨,50.0743306069842,14.434475805471276,Vietnamese Restaurant
615,50.0755,14.435799999999999,50,18,4af47e99f964a52025f321e3,Aromi,50.07635204580547,14.436367934862215,Italian Restaurant
616,50.0755,14.435799999999999,50,19,5193646f498e211c1a804e5e,Madame Lyn,50.071444894623795,14.43390637000509,Vietnamese Restaurant
617,50.0755,14.435799999999999,50,20,56b8cfd4498ee69b04c6db98,Mechanick√Ω Balet,50.076949,14.430223,Modern European Restaurant
618,50.0755,14.435799999999999,50,21,514f0340e4b08b3093f4847a,Pho family,50.07631847564127,14.440675377845764,Noodle House
619,50.0755,14.435799999999999,50,22,4ee87ce68b81f7a73dde8b50,Bistro Olympos,50.075898978331665,14.438074032417012,Greek Restaurant
620,50.0755,14.435799999999999,50,23,5d0906db7b4669002b425dba,La Taquer√≠a,50.074277,14.434947,Taco Place
621,50.0755,14.435799999999999,50,24,5820815bded8f8466656ebea,Yuniku,50.075919,14.438052,Korean BBQ Restaurant
622,50.0755,14.435799999999999,50,25,4adcdaa2f964a520234e21e3,B√≠l√° kr√°va,50.07774688656042,14.432578659156075,Steakhouse
623,50.0755,14.435799999999999,50,26,5581635b498e023fb9996b04,Wok Express,50.07624851149869,14.44097722521408,Asian Restaurant
624,50.0755,14.435799999999999,50,27,53624215498eb842b9fadd05,Singidunum,50.07342786892672,14.433079932018144,Eastern European Restaurant
625,50.0755,14.435799999999999,50,28,4e4a4d77d4c0dae7bfc99d6e,Lal Qila,50.07881843826645,14.436974150645387,Indian Restaurant
626,50.0755,14.435799999999999,50,29,54666b26498e2881f814d59b,China Dalian,50.077213287353516,14.440929412841797,Chinese Restaurant
627,50.0755,14.435799999999999,50,30,5c4348ba57a537002c1d0f46,BON,50.07626438854767,14.436621859553494,Ramen Restaurant
628,50.0755,14.435799999999999,50,31,5e31f035fcaaa10008cf3d4f,Masito,50.078386,14.438307,Korean Restaurant
629,50.0755,14.435799999999999,50,32,5977a3541f744007e7d8360d,California Republic,50.07283412986895,14.436053145280587,Cocktail Bar
630,50.0755,14.435799999999999,50,33,55e578f0498e72a0e63e3d61,Klemp√≠rna,50.071917601761115,14.436923037956081,Czech Restaurant
631,50.0755,14.435799999999999,50,34,4cee9139d7268cfad089ca4e,Wang Fu Jing,50.07614,14.442463,Chinese Restaurant
632,50.0755,14.435799999999999,50,35,4bc0dfa8b492d13ae610a560,Na B≈ôe≈æance,50.07387438238097,14.431327342903186,Czech Restaurant
633,50.0755,14.435799999999999,50,36,576bde2f498e5941f511c037,PHO Duong Anh,50.072537233801164,14.440507150228866,Vietnamese Restaurant
634,50.0755,14.435799999999999,50,37,51a5d9d9498e424d4032c5bd,Ph·ªü Original,50.07208825006841,14.437378935414767,Vietnamese Restaurant
635,50.0755,14.435799999999999,50,38,55951709498ed02c1f37b028,Kung Fu Pasta,50.074053122466864,14.431974291801453,Dim Sum Restaurant
636,50.0755,14.435799999999999,50,39,4b447cdaf964a5207ef525e3,Mezcal,50.07518551746593,14.43437417460934,Latin American Restaurant
637,50.0755,14.435799999999999,50,40,4d601d40e4fe5481b0377c9e,Sluneƒçn√≠ z√°≈ôe,50.07535154271622,14.439742283074807,Chinese Restaurant
638,50.0755,14.435799999999999,50,41,5d7a607f02368900077df408,Black Bettie‚Äôs Grill,50.079357,14.435336,Burger Joint
639,50.0755,14.435799999999999,50,42,58e612ffb21014341cd461c2,Tre Xinh,50.07199133499511,14.432105060979698,Vietnamese Restaurant
640,50.0755,14.435799999999999,50,43,4d52904a3626a09382c52fbd,Olive Point,50.073308,14.437278,Mediterranean Restaurant
641,50.0755,14.435799999999999,50,44,55546ee9498eb2364eaa9f5b,Tomo,50.078043888003876,14.440209070580366,Japanese Restaurant
642,50.0755,14.435799999999999,50,45,506c4f4ce4b0b6e0eb528ee4,Tai Wan,50.07699775356525,14.442019475752664,Chinese Restaurant
643,50.0755,14.435799999999999,50,46,4ff1ea78e4b000351b59b036,D√∂ner Kebab House,50.07314321172141,14.433208774195341,Turkish Restaurant
644,50.0755,14.435799999999999,50,47,4b7b0158f964a5208f4b2fe3,Restaurace Historie,50.075338311642675,14.43356666648232,Czech Restaurant
645,50.0755,14.435799999999999,50,48,4fc8b16ebb3d4fef5f66bb7d,Per Te,50.075416,14.441729,Italian Restaurant
646,50.0755,14.435799999999999,50,49,5b979814cf72a0002c18caf5,Jin Cheng,50.0721,14.432013,Chinese Restaurant
647,50.0755,14.4506,50,0,4d81e26846fd6ea8bc3f6702,Pho Vietnam Tuan & Lan,50.078381,14.448424,Vietnamese Restaurant
648,50.0755,14.4506,50,1,56eaf70d498e576953e73b9b,Jam & Co,50.07168412074073,14.447002129790071,Asian Restaurant
649,50.0755,14.4506,50,2,54135fac498e9aee38c1820d,Vinohradsk√Ω pivovar,50.075406,14.457384,Brewery
650,50.0755,14.4506,50,3,5d7904c0af6b840008512cbe,Van's Pho,50.076368,14.450591,Vietnamese Restaurant
651,50.0755,14.4506,50,4,58a6b888bf1a6d74d1f03a53,Cafefin,50.078318,14.44827,Caf√©
652,50.0755,14.4506,50,5,52e0c9fb498e043f531b58d6,La Bottega Gastronomica,50.07984352754536,14.450517139470943,Gourmet Shop
653,50.0755,14.4506,50,6,4bb20aa4f964a52009b43ce3,Restaurace u Vod√°rny,50.075456739078206,14.450638291433819,Eastern European Restaurant
654,50.0755,14.4506,50,7,4af85beff964a520820c22e3,Hanoi,50.0764874906249,14.453756511211395,Vietnamese Restaurant
655,50.0755,14.4506,50,8,57d92d08498e631133216fc3,Arepas De Lyna,50.07553,14.451747,Venezuelan Restaurant
656,50.0755,14.4506,50,9,4e412179814d24fa8b4e9f56,Kofein,50.075926806386846,14.450374860151532,Tapas Restaurant
657,50.0755,14.4506,50,10,55965fce498e605988f6727c,Las Adelitas,50.07868,14.452522,Mexican Restaurant
658,50.0755,14.4506,50,11,5d1e8d80bf5e0e0027a408bb,Top Doner Kebab,50.07750619403511,14.453893303871155,Doner Restaurant
659,50.0755,14.4506,50,12,5c1163d8deb49500257c6a51,V√Ωƒçep,50.07538379231757,14.453609101307643,Pub
660,50.0755,14.4506,50,13,4b59f1aff964a520b7a228e3,Potrefen√° husa,50.077515873975166,14.455482256506883,Czech Restaurant
661,50.0755,14.4506,50,14,4bf4e56fff90c9b6c3c75528,Sushi Tam Da,50.0767646016682,14.453913362779382,Sushi Restaurant
662,50.0755,14.4506,50,15,573ae634cd108d86ed94ccd5,Pho Slav√≠kova 12,50.07944327015527,14.447803800589169,Vietnamese Restaurant
663,50.0755,14.4506,50,16,5576c9c6498e354026b01f66,Sri Lankan Curry House,50.07656191714257,14.449054100336406,Sri Lankan Restaurant
664,50.0755,14.4506,50,17,5f4bce85b060c7722635ac84,Ke&Ki,50.0710386,14.450935,Asian Restaurant
665,50.0755,14.4506,50,18,4fce3f0be4b0f3e4b849c158,Huong Sen,50.07657134914255,14.452461612492904,Vietnamese Restaurant
666,50.0755,14.4506,50,19,5dfecd5fb71b7a0007a0e691,El Camino,50.079445,14.452658,Tapas Restaurant
667,50.0755,14.4506,50,20,5bd493eb2db4a9002cc69b55,Ku≈ôe,50.075726326784626,14.450245499610899,Korean Restaurant
668,50.0755,14.4506,50,21,55774e18498e04bf92d5b3c8,Burrito Loco,50.077067,14.449628,Burrito Place
669,50.0755,14.4506,50,22,5362915b11d2543adabbc5b6,Il Capitano,50.07896655396255,14.448200124906927,Italian Restaurant
670,50.0755,14.4506,50,23,584aff8cfd27167306df9729,Grand Rasoi,50.076181,14.446533,Indian Restaurant
671,50.0755,14.4506,50,24,5dbee4bc00b2d60008b8d225,Gilda,50.07870421060804,14.450540542602539,Tapas Restaurant
672,50.0755,14.4506,50,25,599c2e5f66fc650779ef291e,Mundo Picante,50.071423,14.447973,Taco Place
673,50.0755,14.4506,50,26,4b72b32cf964a52051842de3,Jia Jia Le,50.07736702729956,14.453424015137948,Chinese Restaurant
674,50.0755,14.4506,50,27,528ddbf911d27b6e7f7441fc,Yamato,50.0784555303267,14.445916237042518,Japanese Restaurant
675,50.0755,14.4506,50,28,4d29b9ca467d6ea89523d295,The Pind,50.07563,14.449216,Indian Restaurant
676,50.0755,14.4506,50,29,5a3aae7e75eee427b97a9a5e,Mist,50.075327153956806,14.445028839759946,Asian Restaurant
677,50.0755,14.4506,50,30,51c1a9cb498e559d52526010,patisserie Boulangerie,50.07821042677708,14.44998607188586,French Restaurant
678,50.0755,14.4506,50,31,4d110d689302a35d98007f6e,Pizzeria Sicilia,50.07523,14.445324,Pizza Place
679,50.0755,14.4506,50,32,5e95857e295e8a0007638398,Ng·ªçc √Ånh Bistro,50.075497,14.444757,Vietnamese Restaurant
680,50.0755,14.4506,50,33,557889ff498e70b85d15725d,La Piazza,50.076368,14.450505,Italian Restaurant
681,50.0755,14.4506,50,34,502268493950f82cd4b6cfd2,Saigon Bistro,50.07159779324138,14.451056661375182,Vietnamese Restaurant
682,50.0755,14.4506,50,35,5c7647d9112c6c00390dbf1b,Food Depo,50.07773340637518,14.448464512825012,Fast Food Restaurant
683,50.0755,14.4506,50,36,5d431410ca45c70007c62a91,Little M√©xico,50.07458676392998,14.444628953933716,Mexican Restaurant
684,50.0755,14.4506,50,37,5b35faefd48ec1002ce6a60e,Hana Sushi House,50.079587,14.452958,Sushi Restaurant
685,50.0755,14.4506,50,38,5985adac75cb8c79a9c3acbc,Banh-Mi-Ba,50.07792,14.449694,Vietnamese Restaurant
686,50.0755,14.4506,50,39,51f22cb0498e416069a9fee7,Friday's Eflo Special,50.078158,14.453528,Asian Restaurant
687,50.0755,14.4506,50,40,5b7bff0ba4ba7c002c4d22c4,Asian Chilli Restaurant,50.076725,14.450389,Asian Restaurant
688,50.0755,14.4506,50,41,4f1ac180e4b0ce22e4c1aa67,ƒå√≠nsk√© Bistro,50.07530070413046,14.44481546375225,Asian Restaurant
689,50.0755,14.4506,50,42,537a6940498e4d1d84f30d36,Vivace,50.0762519678888,14.450244927025048,Italian Restaurant
690,50.0755,14.4506,50,43,51f6440e498e8a09d5739468,Orientalni Speciality,50.075113,14.444456,Asian Restaurant
691,50.0755,14.4506,50,44,4c7d5a565af8b60c51578f10,Barracuda caf√©,50.07167528511006,14.446910448974618,Mexican Restaurant
692,50.0755,14.4506,50,45,58dd568ad772f933eafd6db1,M.E.D.,50.076295,14.451906,Mediterranean Restaurant
693,50.0755,14.4506,50,46,536d3470498eddbbc85222eb,Budapest Restaurant,50.07628636968987,14.451625523407905,Hungarian Restaurant
694,50.0755,14.4506,50,47,4e1c8b442271b045c5988a1b,Gruz√≠nsk√© Speciality,50.07160149901707,14.451544195998098,Fast Food Restaurant
695,50.0755,14.4506,50,48,50b8f600e4b01cb32a1388f4,U Kov√°≈ôe,50.074612,14.445688,Eastern European Restaurant
696,50.0755,14.4506,50,49,4c04de3f187ec9280f8eb77b,Ambrozie,50.072009905432196,14.451120443234956,Italian Restaurant
697,50.0755,14.465399999999999,23,0,54ae73fd498e31686d3604e6,Bombay Express,50.07871919267529,14.460991732765942,Indian Restaurant
698,50.0755,14.465399999999999,23,1,4b4cef7df964a520cac426e3,Havana Restaurant,50.07174208624915,14.467285670803752,Cuban Restaurant
699,50.0755,14.465399999999999,23,2,5dfcce3616e40c0008d4242a,Phol·∫Ωvka,50.078747,14.460992,Vietnamese Restaurant
700,50.0755,14.465399999999999,23,3,5c7678701f8ed60039912637,Hoja Pot ÂñùÂë∑Èú∏ (Hoja Pot),50.075935,14.465302,Taiwanese Restaurant
701,50.0755,14.465399999999999,23,4,5cb15afbff0306002cd3f435,Mr. Fat Restaurant,50.076347,14.468061,Asian Restaurant
702,50.0755,14.465399999999999,23,5,50642a45e4b0ea46e3b59261,GinZa Running Sushi,50.07863582107524,14.461012000151445,Sushi Restaurant
703,50.0755,14.465399999999999,23,6,50b4a01be4b0316e372bdd63,Thai Spice,50.078350252387594,14.46116571951773,Thai Restaurant
704,50.0755,14.465399999999999,23,7,4ed76d7f82311e04d239db15,Pho Tuan Anh,50.077315444920806,14.463448279124151,Vietnamese Restaurant
705,50.0755,14.465399999999999,23,8,4fe17efad5fbe9b00fab8565,Zlat√Ω orel,50.078459730026445,14.461138204592169,Asian Restaurant
706,50.0755,14.465399999999999,23,9,500fc621e4b087cdfab89177,Asia Special,50.07722493454268,14.463661874791402,Asian Restaurant
707,50.0755,14.465399999999999,23,10,4dfa62aeb0fb0401c7f8298c,BISTRO FIPA u Cikana,50.07808107435585,14.460476927920887,Eastern European Restaurant
708,50.0755,14.465399999999999,23,11,566fee4a498e1e380159f182,Safir,50.077765130726576,14.460360184825973,Middle Eastern Restaurant
709,50.0755,14.465399999999999,23,12,4b44d8cef964a52000fe25e3,Sushi Point,50.078845354267536,14.46126937866211,Sushi Restaurant
710,50.0755,14.465399999999999,23,13,582c47495e56b46f5a539168,Pho Viet Nan,50.077566,14.461159,Vietnamese Restaurant
711,50.0755,14.465399999999999,23,14,562777df498e82fa85b3fe62,Detello's Pizza & Pasta,50.07850646972656,14.461057662963867,Italian Restaurant
712,50.0755,14.465399999999999,23,15,5dadd387179eaf00089b6193,Hummus Bistro,50.0773,14.462935,Bistro
713,50.0755,14.465399999999999,23,16,5afc350bb23dfa002c7b06c4,D√∂ner Kebab,50.076997,14.463917,Doner Restaurant
714,50.0755,14.465399999999999,23,17,4b8f9cd3f964a520ee5933e3,Orange Moon,50.07837856996182,14.461144885220978,Thai Restaurant
715,50.0755,14.465399999999999,23,18,5c520586fd9d73002d5ea3df,Habanero Mexican Grill,50.07863,14.461232,Mexican Restaurant
716,50.0755,14.465399999999999,23,19,4adcdaa2f964a520334e21e3,Crazy Daisy,50.077882,14.463604,Indian Restaurant
717,50.0755,14.465399999999999,23,20,500be6e5e4b067574ee88776,Spirito dell' Italia!,50.078433,14.461006,Italian Restaurant
718,50.0755,14.465399999999999,23,21,5aa3cea8c0cacb22a5f3f01e,Pizzeria - Fresh Italian Cuisine,50.078279,14.461228,Pizza Place
719,50.0755,14.465399999999999,23,22,4be47262bcef2d7fa49102e5,Bohemia Garden,50.072923848692845,14.463801383972168,Pub
720,50.0755,14.4802,1,0,4bcecf7ac564ef3b38c5eef0,Hui Bin Ge,50.07809525987366,14.47599133388355,Chinese Restaurant
721,50.0755,14.495,6,0,5316fb88498e8bccc1580ae5,Sabroso,50.07489155931495,14.490778105537188,Mexican Restaurant
722,50.0755,14.495,6,1,4caaf6c8d971b1f7109026e1,Zhong Nan Hai,50.07800930983841,14.498811025793007,Chinese Restaurant
723,50.0755,14.495,6,2,5903724975eee4321839be0e,Chef Kebab,50.07678985595703,14.488590240478516,Doner Restaurant
724,50.0755,14.495,6,3,5b561cad2d2fd9002ca92906,Kr√°l Kebab,50.07694332246406,14.494701772928236,Turkish Restaurant
725,50.0755,14.495,6,4,58f229ffa8792165780089e2,Pizzeria & Mexicana - Carosello,50.076865,14.492966,Mexican Restaurant
726,50.0755,14.495,6,5,5dea3e6deaf4460008f2e904,Shawarma Corner,50.07201796813784,14.49167490005493,Middle Eastern Restaurant
727,50.0755,14.5098,4,0,4bc33f2b461576b06f547e32,Carosello,50.07733846630838,14.506228887860116,Mexican Restaurant
728,50.0755,14.5098,4,1,4c2883a397d00f471ae53fea,Sushi Bar Slunce,50.07763221755688,14.506417598876668,Sushi Restaurant
729,50.0755,14.5098,4,2,561e46bd498e46dc9a9cb9af,Dvouletky Landing,50.07658851793182,14.505683816466613,Afghan Restaurant
730,50.0755,14.5098,4,3,4bbc5ffbed7776b054893f51,Restaurace Autoklub,50.076230789211664,14.516536227965881,Czech Restaurant
731,50.0755,14.5394,12,0,5378dbfb498e52a00e06aca5,Running Sushi Sumo,50.072381511658776,14.5430779834358,Sushi Restaurant
732,50.0755,14.5394,12,1,4cf0fb8a6c29236a62cd62a2,Z√°≈ôiv√° perla,50.07239335618569,14.54304995321929,Chinese Restaurant
733,50.0755,14.5394,12,2,4f08395fe4b071c575408815,ƒåerven√© jablko,50.074079390956555,14.539159714006226,Chinese Restaurant
734,50.0755,14.5394,12,3,5c7157941acf11002cc5ee61,Satyam,50.07407,14.539403,Indian Restaurant
735,50.0755,14.5394,12,4,54dca160498e0b92f83dc3aa,Pizzeria GoLoSoNa,50.07230675944579,14.543199962310219,Italian Restaurant
736,50.0755,14.5394,12,5,5eee0f7c1b8f000008370c2d,WraP ‚Äòn Roll,50.073887,14.53933,Asian Restaurant
737,50.0755,14.5394,12,6,4c2c70498abca593e9a70120,Oriental City,50.072342252840244,14.543074360892945,Sushi Restaurant
738,50.0755,14.5394,12,7,50229546e4b0600fbbcfba8a,Wok Food,50.074194952492356,14.539362611629812,Fast Food Restaurant
739,50.0755,14.5394,12,8,4e995baa2c5bf14846a0767b,Bel BELLO Restaurant,50.07436133367807,14.539416108934,Italian Restaurant
740,50.0755,14.5394,12,9,572f218f498e9d5241e1b433,Food Point,50.07483,14.539235,Modern European Restaurant
741,50.0755,14.5394,12,10,58fc7e5a356b4972b0a811ad,Appetty's,50.072052,14.538611,Czech Restaurant
742,50.0755,14.5394,12,11,5f103648de8d001b7e71f445,Satyam,50.074092,14.539429,Indian Restaurant
743,50.0755,14.5986,1,0,54214851498e871a2c28b337,Restaurace Kudy Kam,50.07853442864242,14.603506537943199,Czech Restaurant
744,50.0755,14.643,4,0,545b9ed8498e5e6a2586aaef,Cafe Ujezd,50.0794854,14.6448412,Czech Restaurant
745,50.0755,14.643,4,1,5846f898a598b36bfb7032fd,Sush√°rna,50.07771,14.647863,Asian Restaurant
746,50.0755,14.643,4,2,516164d4e4b0b76d476b69d9,Kai Restaurant,50.0791475140036,14.641967882742515,Asian Restaurant
747,50.0755,14.643,4,3,4ddcd82ed164236dd37bf9d9,Restaurace Nov√© Stolet√≠,50.079043321563105,14.64190142506111,Chinese Restaurant
748,50.0755,14.6578,1,0,569245f6498eaa6ee02f00f7,Pizza GoGo,50.076882705080706,14.65725347886872,Pizza Place
749,50.085499999999996,14.3174,1,0,4ff09466e4b07e8f748d6c5e,Villa St. Tropez,50.08350796235401,14.31907493696209,French Restaurant
750,50.085499999999996,14.332199999999998,1,0,4e974f5adab4ae9617e9121e,Mongolian BBQ,50.08890699009977,14.330604773997264,Asian Restaurant
751,50.085499999999996,14.347,5,0,5ce800bc1af852002c279de2,Isai,50.088978,14.343933,Ramen Restaurant
752,50.085499999999996,14.347,5,1,5b335878054e29002bd11bca,Binh Minh,50.08914377400124,14.346936892496363,Asian Restaurant
753,50.085499999999996,14.347,5,2,4e0c8ca98877c535e46eda32,Samoj√≠delna a Pivnice,50.089535,14.349183,Czech Restaurant
754,50.085499999999996,14.347,5,3,584311827d0f6d56907fe24d,Plze≈àsk√° pivnice Pet≈ôiny,50.08873211436313,14.349607499680506,Czech Restaurant
755,50.085499999999996,14.347,5,4,515428d9e4b07e180dbd61b6,Pizzeria-Ristorante CASA NOSTRA,50.08850771954436,14.344230535763629,Pizza Place
756,50.085499999999996,14.361799999999999,8,0,531c6331498e2463eba06a3f,Pho ≈áam ≈áam,50.083371,14.363624,Vietnamese Restaurant
757,50.085499999999996,14.361799999999999,8,1,4b5c6d8df964a520682f29e3,Kl√°≈°tern√≠ ≈°enk,50.08401451993954,14.35661556773579,Czech Restaurant
758,50.085499999999996,14.361799999999999,8,2,4cfaa3190df3236a7417f5a9,Valcha restaurant,50.08401668257061,14.365821731441715,Czech Restaurant
759,50.085499999999996,14.361799999999999,8,3,58d6552552a0514ef30e88d1,Restaurace U Mal√©ho Slona,50.08753888227822,14.367376460528579,Vietnamese Restaurant
760,50.085499999999996,14.361799999999999,8,4,4b6c62fff964a520d5352ce3,Tandoor,50.083393,14.363644,Indian Restaurant
761,50.085499999999996,14.361799999999999,8,5,53e0b94f498e18848f6ca1ec,China & Sushi restaurant,50.08393156857231,14.364949993911459,Chinese Restaurant
762,50.085499999999996,14.361799999999999,8,6,576bbbd5498e0e84867ea01a,ƒå√≠nsk√° restaurace Orient,50.0841105077416,14.365148730576,Chinese Restaurant
763,50.085499999999996,14.361799999999999,8,7,53b2935e498e3bbe350e3ee9,U Ka≈°tanu,50.08366428856407,14.362152912816876,Czech Restaurant
764,50.085499999999996,14.3766,12,0,4b0d7439f964a520a84823e3,Na Marj√°nce,50.08431655490058,14.374949319627335,Czech Restaurant
765,50.085499999999996,14.3766,12,1,5da358860085d90008c2d197,Kurkuma,50.083867732543105,14.376463294029236,Indian Restaurant
766,50.085499999999996,14.3766,12,2,4c1511eca9c220a1687c589d,Piccolo Mondo,50.08520443314329,14.379033517148159,Italian Restaurant
767,50.085499999999996,14.3766,12,3,5ef439f5f506b9000882c1ee,Restaurace B≈ôevnovka,50.08626513881618,14.370967447757723,Southern / Soul Food Restaurant
768,50.085499999999996,14.3766,12,4,4c0aa93ba1b32d7f20bd99f0,U Zelen√© br√°ny,50.085548425612885,14.382005750847803,Czech Restaurant
769,50.085499999999996,14.3766,12,5,4cff96036923721ef127c03b,Jin Da Lai,50.08442854070752,14.375647492999024,Chinese Restaurant
770,50.085499999999996,14.3766,12,6,5617964e498e144b13e6ca1e,Greek life,50.083956,14.370853,Gourmet Shop
771,50.085499999999996,14.3766,12,7,5d344fc7e2efbf000803f909,Curry & Tikka,50.084024,14.374137,Indian Restaurant
772,50.085499999999996,14.3766,12,8,51951036498e9947ec266481,Kredenc,50.08544,14.380198,Italian Restaurant
773,50.085499999999996,14.3766,12,9,4f5c7fcae4b0369071098033,Cina,50.08418425749797,14.373223993223867,Chinese Restaurant
774,50.085499999999996,14.3766,12,10,528f611611d2e8b7834fcbc3,Jin Yu Lou,50.08414276947227,14.37301357380267,Chinese Restaurant
775,50.085499999999996,14.3766,12,11,58c1912eae97567dc34de577,A≈´C√≥ Vietnamese Foods,50.08490938641858,14.377099962171245,Vietnamese Restaurant
776,50.085499999999996,14.391399999999999,14,0,4bf04479d4e4d13ad11616a7,Bellavista,50.08681918923355,14.390264468938733,Italian Restaurant
777,50.085499999999996,14.391399999999999,14,1,4dff34cd6284215560080dff,hOST Restaurant,50.08817634320578,14.393129134811103,Modern European Restaurant
778,50.085499999999996,14.391399999999999,14,2,4cdef9ef78ddf04dac079e98,Peklo,50.0856364514424,14.38879204103275,Czech Restaurant
779,50.085499999999996,14.391399999999999,14,3,4c4c110046240f47668136f4,Mal√Ω Buddha,50.087694899338075,14.390512679627681,Asian Restaurant
780,50.085499999999996,14.391399999999999,14,4,57eea161498ee073f1af6c71,Bellavista,50.0865556,14.3901547,Czech Restaurant
781,50.085499999999996,14.391399999999999,14,5,4d261b8d739137042151fd35,U C√≠sa≈ô≈Ø,50.088901960608354,14.394670623861083,Eastern European Restaurant
782,50.085499999999996,14.391399999999999,14,6,576d11d7498e82820052ff5e,Ku≈ôe po ƒçu≈à√°cku,50.08882,14.386855,Chinese Restaurant
783,50.085499999999996,14.391399999999999,14,7,539041ec498e4fea486fb41b,Last Fantomas,50.088205,14.394785,Asian Restaurant
784,50.085499999999996,14.391399999999999,14,8,51ff8c70498ea1550c95f699,Kuchynske studio Unilever Food Solutions,50.08783813764086,14.38802884232095,Middle Eastern Restaurant
785,50.085499999999996,14.391399999999999,14,9,50e2e73fe4b0471660cf3139,U V√°clava II,50.08894881810518,14.394937897319863,Eastern European Restaurant
786,50.085499999999996,14.391399999999999,14,10,56fac0d0498eae2b66d08875,Q15,50.087502,14.390888,Czech Restaurant
787,50.085499999999996,14.391399999999999,14,11,5812377c38fa39a99b39b487,Restorace Reiner Maria Rilke,50.088398,14.395641,Czech Restaurant
788,50.085499999999996,14.391399999999999,14,12,59b3ac2f6a8d860b7207b9da,Restaurace Poho≈ôelec,50.087406,14.389252,Czech Restaurant
789,50.085499999999996,14.391399999999999,14,13,5653778a498e402a2e512edf,Na Ul. Radnick√© Schody,50.08868408203125,14.395652770996094,Czech Restaurant
790,50.085499999999996,14.4062,50,0,4cead488e1eeb60c194bb0ae,Lok√°l U B√≠l√© ku≈æelky,50.08762991158934,14.40746208429938,Pub
791,50.085499999999996,14.4062,50,1,4adcdaa3f964a520584e21e3,Restaurace Malostransk√° beseda,50.088345776854915,14.40477132797241,Czech Restaurant
792,50.085499999999996,14.4062,50,2,5f54bc149059060d8fa19a79,Viet Garden,50.087651,14.407693,Vietnamese Restaurant
793,50.085499999999996,14.4062,50,3,54230cf0498e62f0e68e8602,Pasta≈ô,50.081303,14.407855,Italian Restaurant
794,50.085499999999996,14.4062,50,4,4bf2cf2c98ac0f47492962a8,Kolkovna Olympia,50.081153,14.406896,Czech Restaurant
795,50.085499999999996,14.4062,50,5,4bb8afe31261d13a21cfe898,U Hrocha,50.08913114626051,14.40323407468034,Pub
796,50.085499999999996,14.4062,50,6,4c168d5e5e88c9289b502466,Bella Vida caf√©,50.081964,14.407753,Caf√©
797,50.085499999999996,14.4062,50,7,5df4c29a167d420008651bfd,Minha Sushi Bar,50.081512,14.40451,Sushi Restaurant
798,50.085499999999996,14.4062,50,8,4bdc7de2fed22d7f996a58c9,Luka Lu,50.08369022603714,14.404371408970537,Mediterranean Restaurant
799,50.085499999999996,14.4062,50,9,4b5f3df3f964a52083af29e3,Ristorante Carmelita,50.08345668423164,14.404427690237918,Italian Restaurant
800,50.085499999999996,14.4062,50,10,4b6b2373f964a52043f52be3,Noi,50.08298035333913,14.404385051516048,Thai Restaurant
801,50.085499999999996,14.4062,50,11,57680d8f498edbcfbfc8e0be,Burrito Loco,50.081147,14.404948,Burrito Place
802,50.085499999999996,14.4062,50,12,5959719ab37e2b1d8db6afd2,Cafe de Paris,50.08621711610083,14.406409722570503,French Restaurant
803,50.085499999999996,14.4062,50,13,4c25fdb1a852c9281bbee56c,Sovovy Ml√Ωny,50.083977,14.40872,Czech Restaurant
804,50.085499999999996,14.4062,50,14,593bcc1ead1ea42b8aa538ec,Alebrijes Bar Bar,50.083009297761485,14.405753230268825,Mexican Restaurant
805,50.085499999999996,14.4062,50,15,54b6aa20498ee0d307f814ce,Kamp√°rium,50.081706005707915,14.405956864356995,Steakhouse
806,50.085499999999996,14.4062,50,16,4bb61c792f70c9b6afe28430,Malostransk√° pivnice,50.08835074238113,14.40996033897887,Gastropub
807,50.085499999999996,14.4062,50,17,4adcdaa2f964a520034e21e3,Cantina,50.082917387192616,14.404459899896949,Mexican Restaurant
808,50.085499999999996,14.4062,50,18,5a5fb1c40802d44ff007e111,San Carlo,50.0872126195326,14.40277976553123,Italian Restaurant
809,50.085499999999996,14.4062,50,19,4b422d2df964a52034ce25e3,Kampa Park,50.08736409319433,14.40967782188935,Modern European Restaurant
810,50.085499999999996,14.4062,50,20,4bb88189314e9521e07b489d,Kon√≠rna,50.086521,14.405273,Czech Restaurant
811,50.085499999999996,14.4062,50,21,5910595ee55d8b18220d8c4d,Piknik Park,50.08533789242185,14.407550824145225,Trattoria/Osteria
812,50.085499999999996,14.4062,50,22,58c041339dc8d0453a3009f2,U T≈ô√≠ Jel√≠nk≈Ø,50.08863909046389,14.401796150360237,Czech Restaurant
813,50.085499999999996,14.4062,50,23,4e331450a809117a228675f2,La Bastille,50.08231097659773,14.404584174355543,French Restaurant
814,50.085499999999996,14.4062,50,24,4c23cc1b136d20a10dcae061,Tlust√° my≈°,50.0831046305067,14.405644362191401,Pub
815,50.085499999999996,14.4062,50,25,4be2ccdf21d5a59312511711,U Zlat√Ωch n≈Ø≈æek,50.0864019279881,14.408578479850211,Hotel
816,50.085499999999996,14.4062,50,26,4d8ce557c1b1721e8eea0b46,Caf√© M√°rnice,50.087080961350075,14.408355295622023,Caf√©
817,50.085499999999996,14.4062,50,27,551d7815498e6ba82560f183,Spices Restaurant & Bar,50.0848567,14.4055235,Asian Restaurant
818,50.085499999999996,14.4062,50,28,4d207ea3d7b0b1f7e63b159f,3+3+3,50.088784,14.404957,Eastern European Restaurant
819,50.085499999999996,14.4062,50,29,4bc7944093bdeee19f8837ae,U Schnell≈Ø,50.08861000642551,14.40488315741004,Eastern European Restaurant
820,50.085499999999996,14.4062,50,30,4dbd78b94b222080d3a9b7f2,Cervena Sedma,50.08630129206476,14.408563624696033,Eastern European Restaurant
821,50.085499999999996,14.4062,50,31,4d88d145d85f370415a7d9db,Tkalcovsk√Ω dv≈Ør,50.08819159977679,14.409887957454607,Czech Restaurant
822,50.085499999999996,14.4062,50,32,5e00d5fb16d2ee0008e6b1df,Laboratorio della Pizza,50.08626685981134,14.405366778373716,Italian Restaurant
823,50.085499999999996,14.4062,50,33,5416ca0f498e544767912788,Pln√Ω pek√°ƒç,50.08695889190065,14.40607570828171,Czech Restaurant
824,50.085499999999996,14.4062,50,34,5cf00cdb031320002c050b23,Il Molo,50.085761,14.405139,Italian Restaurant
825,50.085499999999996,14.4062,50,35,4e67ca437d8b084ac77caad6,Restaurace U dvou srdc√≠,50.088573,14.409602,Czech Restaurant
826,50.085499999999996,14.4062,50,36,50d20f5ce4b0c5a8a8319dc0,ƒåern√Ω orel,50.08894158956403,14.409980902710837,Czech Restaurant
827,50.085499999999996,14.4062,50,37,4c9113db57e5b60c6b9f5d1c,Casanova Ristorante Pizzeria,50.08708340914214,14.407312986592002,Italian Restaurant
828,50.085499999999996,14.4062,50,38,4ccdf704063a721e3db9979a,El Centro,50.08669119630488,14.404855910091179,Spanish Restaurant
829,50.085499999999996,14.4062,50,39,53b2a4d5498e46c70e6735ca,Pivo & Basilico,50.08876457189167,14.402110720700094,Czech Restaurant
830,50.085499999999996,14.4062,50,40,536e844011d277532af940f2,Gotika Kampa,50.086076669012705,14.408588786180216,Czech Restaurant
831,50.085499999999996,14.4062,50,41,4beb0e2c62c0c9284ba4e1d4,U Mal√≠≈ô≈Ø,50.08638564869843,14.405235143180736,Eastern European Restaurant
832,50.085499999999996,14.4062,50,42,4d7b6d63e04d6ea83fb0e7d5,Koƒç√°r z V√≠dnƒõ,50.08683940201923,14.40751386280775,Austrian Restaurant
833,50.085499999999996,14.4062,50,43,4af87822f964a5208b0d22e3,Star√° Praha,50.08120654729994,14.405703248337728,Czech Restaurant
834,50.085499999999996,14.4062,50,44,4e18aa141f6eb955987c8e20,Genius Loci,50.08737943646664,14.402417034691464,Italian Restaurant
835,50.085499999999996,14.4062,50,45,4db177b4a86e63d2116b5073,U Kostela bistro & restaurant,50.08756520202125,14.404299171437742,Czech Restaurant
836,50.085499999999996,14.4062,50,46,534ab321498e7cc2493029f7,Osvƒõ≈æovna u Karlova mostu,50.08742904663086,14.407059669494629,Czech Restaurant
837,50.085499999999996,14.4062,50,47,55171615498e2dd5c04ce0ea,Archibald Restaurant,50.08610844748828,14.408612020461064,Czech Restaurant
838,50.085499999999996,14.4062,50,48,4e481ff4d22d12b08bd8075b,Restaurace Ryb√°≈ôsk√Ω Klub,50.08277002510394,14.408184904367863,Seafood Restaurant
839,50.085499999999996,14.4062,50,49,4b6ad99ef964a52065e32be3,Pizzerie Felicita,50.08206971213358,14.406633636532408,Italian Restaurant
840,50.085499999999996,14.421,50,0,4b76bac3f964a5201f5b2ee3,U Pinkas≈Ø,50.083234,14.423501,Czech Restaurant
841,50.085499999999996,14.421,50,1,4adcda9bf964a5209d4c21e3,U Zlat√©ho tygra,50.08582790992342,14.418044909834862,Pub
842,50.085499999999996,14.421,50,2,4b9abea2f964a520e9d135e3,U Rudolfina,50.0880223,14.4155382,Pub
843,50.085499999999996,14.421,50,3,4ed77ae5b6346530d066964c,James Dean Prague,50.08956600492547,14.422444417433598,American Restaurant
844,50.085499999999996,14.421,50,4,50336f32e4b002cea0e9ebb4,Potrefen√° husa,50.08287203317574,14.42113553841303,Czech Restaurant
845,50.085499999999996,14.421,50,5,56d45d5acd107b385f2f1512,Wokin,50.08121048957027,14.4201289316933,Noodle House
846,50.085499999999996,14.421,50,6,4adcda9bf964a520994c21e3,U Medv√≠dk≈Ø,50.082798,14.41883,Gastropub
847,50.085499999999996,14.421,50,7,4b0e68fdf964a520705723e3,Havelsk√° Koruna,50.085654612875175,14.421590333079086,Czech Restaurant
848,50.085499999999996,14.421,50,8,4bd5667b4e32d13a27c0c080,Dhaba Beas,50.08137,14.421262,Vegetarian / Vegan Restaurant
849,50.085499999999996,14.421,50,9,53918a7b498efe9a0e7f793e,Restaurace Mincovna,50.0882963,14.4212735,Czech Restaurant
850,50.085499999999996,14.421,50,10,4b4c87eaf964a52049b526e3,Hard Rock Cafe Prague (Hard Rock Cafe Praha),50.0866743,14.4192144,American Restaurant
851,50.085499999999996,14.421,50,11,52f523bf498e8a164792e9d2,Kitchen Ramen Bar,50.083691858645246,14.422650478500671,Ramen Restaurant
852,50.085499999999996,14.421,50,12,5948d6c675a6ea2d57e4ee2a,Vapiano,50.081517104441126,14.420081070011618,Italian Restaurant
853,50.085499999999996,14.421,50,13,4b27fe6df964a520608d24e3,Brasileiro,50.08642803905321,14.427450574145654,Brazilian Restaurant
854,50.085499999999996,14.421,50,14,4c20b8c5edef9521e46a8eb1,U Dvou koƒçek,50.083633,14.42045,Brewery
855,50.085499999999996,14.421,50,15,4b6c0951f964a520bb202ce3,Pasta Fresca,50.08721566326978,14.423773145688019,Italian Restaurant
856,50.085499999999996,14.421,50,16,5941a3c4ca18ea1bc5323fb1,Pohostinec Monarch,50.083848,14.418302,Czech Restaurant
857,50.085499999999996,14.421,50,17,4af3105df964a5203eea21e3,La Bodeguita del Medio,50.088403503419364,14.417007066224155,Cuban Restaurant
858,50.085499999999996,14.421,50,18,560e4e1b498ec183e0ef7c09,Kozlovna U Paukerta,50.081889,14.416955,Czech Restaurant
859,50.085499999999996,14.421,50,19,50fd3a30e4b01d66679a219a,Burrito Loco,50.08131013752645,14.419405460357664,Burrito Place
860,50.085499999999996,14.421,50,20,4d89e93d5ecdf04d2aecb28a,≈†vejk restaurant U Zelen√©ho stromu,50.08420979622776,14.418036192655562,Czech Restaurant
861,50.085499999999996,14.421,50,21,5048da1be4b02a1c17b4e7ad,Pho Viet,50.0822816181656,14.418209614834574,Vietnamese Restaurant
862,50.085499999999996,14.421,50,22,5346651f498e32df69ee5be1,Hooters,50.08564029999999,14.4218454,American Restaurant
863,50.085499999999996,14.421,50,23,59ca764f6cf01a14b8d583c9,Bombay Express,50.0815257549003,14.420235075793697,Indian Restaurant
864,50.085499999999996,14.421,50,24,5b45d4d81ffe9700393c409a,Vapiano,50.085650780123316,14.42561527925259,Italian Restaurant
865,50.085499999999996,14.421,50,25,4adcdaa2f964a520144e21e3,TGI Friday's,50.0862276335443,14.426677755467216,American Restaurant
866,50.085499999999996,14.421,50,26,4b24ef57f964a5209e6a24e3,La Finestra,50.087326045803145,14.416166616570694,Italian Restaurant
867,50.085499999999996,14.421,50,27,557ae583498e218724443fe2,Il Gusto,50.084762467167174,14.421945888431237,Italian Restaurant
868,50.085499999999996,14.421,50,28,4c557c7506901b8de0098e4d,Trattoria by Giovanni,50.08666750042767,14.421675950288773,Italian Restaurant
869,50.085499999999996,14.421,50,29,4c03971239d476b0fa4530a7,Pizza Coloseum,50.08406591990739,14.423753206275501,Pizza Place
870,50.085499999999996,14.421,50,30,4b041ceaf964a5206d5122e3,Krƒçma,50.08904,14.420202,Czech Restaurant
871,50.085499999999996,14.421,50,31,4b51eb43f964a520505b27e3,Yami Sushi House,50.08942815665716,14.423481397378293,Sushi Restaurant
872,50.085499999999996,14.421,50,32,4f8e7b43e4b068786b2c6f13,Pivovar U T≈ô√≠ r≈Ø≈æ√≠,50.085632,14.418352,Brewery
873,50.085499999999996,14.421,50,33,5bbcee0ed807ee002cfc1574,Bistreet,50.0815125619908,14.419558194879594,Pizza Place
874,50.085499999999996,14.421,50,34,5cfcddcae4c459002cece955,N√°rodn√≠ 38,50.082463,14.421469,Caf√©
875,50.085499999999996,14.421,50,35,4bc8b75f92b376b0af07523a,Konvikt,50.08322975952864,14.41793854893439,Pub
876,50.085499999999996,14.421,50,36,4bf04361c601a593007ec3d1,Brasileiro U Zelen√© ≈æ√°by,50.0874999119371,14.419127573856413,Brazilian Restaurant
877,50.085499999999996,14.421,50,37,4adcda9bf964a520a84c21e3,U Vejvod≈Ø,50.08420038370784,14.418908793919469,Pub
878,50.085499999999996,14.421,50,38,4bab8d2bf964a520ceb23ae3,U Parlamentu,50.08832593715887,14.416531402382502,Czech Restaurant
879,50.085499999999996,14.421,50,39,5a3647d3c4df1d2b88c597ed,Pasha Restaurant,50.08169417536049,14.42224835851444,Turkish Restaurant
880,50.085499999999996,14.421,50,40,4da759c00cb65e9aae518322,Divinis,50.08899180650428,14.424127090172032,Italian Restaurant
881,50.085499999999996,14.421,50,41,4b6ed74af964a520e3cc2ce3,Dhaba Beas,50.088911645938175,14.423735763799817,Vegetarian / Vegan Restaurant
882,50.085499999999996,14.421,50,42,503cb8f0e4b09e01d30c1a08,La Piccola Perla,50.083529890379424,14.421324174451213,Italian Restaurant
883,50.085499999999996,14.421,50,43,5d6015bff78b260008420066,Pilsnerka N√°rodn√≠,50.082146,14.418826,Beer Bar
884,50.085499999999996,14.421,50,44,5c163419fd9d73002c642bb2,Jaffa,50.086178,14.425615,Lebanese Restaurant
885,50.085499999999996,14.421,50,45,5622555b498e37e2bd2aa95d,Il Palazzo Italian Restaurant,50.084755471254674,14.418335547744016,Italian Restaurant
886,50.085499999999996,14.421,50,46,58f62a584acb19730a324e8f,The Street Restaurant & Cocktail Bar,50.083492272818056,14.416586315236708,Cocktail Bar
887,50.085499999999996,14.421,50,47,541322a5498e4f178366bdf2,White Horse,50.0871710795488,14.421239451509646,Czech Restaurant
888,50.085499999999996,14.421,50,48,4adcdaa2f964a520134e21e3,Pizza Coloseum,50.08630398164173,14.42450513048248,Pizza Place
889,50.085499999999996,14.421,50,49,5effc7a176618e271ccffc54,Cafe Latino,50.084005,14.416076,Mexican Restaurant
890,50.085499999999996,14.435799999999999,50,0,5a06f172db1d816f1657f4cf,Restaurace Tisk√°rna,50.08429288047879,14.429067738623033,Czech Restaurant
891,50.085499999999996,14.435799999999999,50,1,5a297dc26cf01a6d8f94b228,Sia,50.088199,14.430989,Asian Restaurant
892,50.085499999999996,14.435799999999999,50,2,4b2222abf964a520f04324e3,Potrefen√° Husa,50.08716176893022,14.432119131088257,Czech Restaurant
893,50.085499999999996,14.435799999999999,50,3,5eef60f02f7e820008002927,Restaurace Rychl√≠k,50.083653,14.43341,Czech Restaurant
894,50.085499999999996,14.435799999999999,50,4,4bbdf392a8cf76b05360b2fd,Potrefen√° husa,50.084076,14.434298,Czech Restaurant
895,50.085499999999996,14.435799999999999,50,5,5d8902888c93490008e6f3e5,Takumi Praha,50.086044,14.431068,Ramen Restaurant
896,50.085499999999996,14.435799999999999,50,6,4cf24cd17e0da1cd35cc9697,U Star√© Po≈°ty,50.08258564249678,14.430964284156738,Czech Restaurant
897,50.085499999999996,14.435799999999999,50,7,5099414d8aca959054451369,HOFFA,50.08588023677659,14.431898490755763,Cocktail Bar
898,50.085499999999996,14.435799999999999,50,8,5d91e27c0684bc0008f82619,Olive,50.089547,14.435652,Cafeteria
899,50.085499999999996,14.435799999999999,50,9,57e016bf498e58aba74b49b5,La Bottega Linka,50.08917204143263,14.432381015175208,Italian Restaurant
900,50.085499999999996,14.435799999999999,50,10,5d9b01fa97269b0007fed393,Fede Bistro Italiano,50.084958,14.431439,Italian Restaurant
901,50.085499999999996,14.435799999999999,50,11,4c04eada9a7920a1c4d3d179,La Gare,50.088370405548595,14.430568560614647,French Restaurant
902,50.085499999999996,14.435799999999999,50,12,531873cd498ea35bc74d4b82,Sushi Time,50.08933980448043,14.434896692068728,Sushi Restaurant
903,50.085499999999996,14.435799999999999,50,13,4c02b127187ec928fb94b47b,Restaurant Zvonice,50.08510979929961,14.430069923400879,Czech Restaurant
904,50.085499999999996,14.435799999999999,50,14,4b703c14f964a5200b0d2de3,Restaurant Rustica,50.08654145520588,14.43499403609954,Italian Restaurant
905,50.085499999999996,14.435799999999999,50,15,4e15adeffa764fb14ae925ff,U Jind≈ôi≈°sk√© vƒõ≈æe,50.08451141262142,14.429447650909422,Czech Restaurant
906,50.085499999999996,14.435799999999999,50,16,4d43f64e3616b60c692bdfc2,Le Grill Restaurant,50.087224272430376,14.431518602967866,Modern European Restaurant
907,50.085499999999996,14.435799999999999,50,17,5ed794190af04a0008e7de3d,Restaurant L√™kima,50.0854814,14.4292456,Asian Restaurant
908,50.085499999999996,14.435799999999999,50,18,56a3e304498e83d8f7b9f215,Rebel Wings,50.087070491838965,14.434248401869032,Czech Restaurant
909,50.085499999999996,14.435799999999999,50,19,5082c4d6e4b0354c599061d4,Sushi Oishi,50.08821,14.430509,Sushi Restaurant
910,50.085499999999996,14.435799999999999,50,20,4e771bbbc65bb91db514156c,Tian Tian,50.08689364821866,14.433736037811084,Chinese Restaurant
911,50.085499999999996,14.435799999999999,50,21,5d2f81c0c46dcb0008ca8a30,Nebu,50.088987,14.437067,Indian Restaurant
912,50.085499999999996,14.435799999999999,50,22,515d4a21e4b0bf891382152a,Viet Flavour,50.085403,14.44087,Vietnamese Restaurant
913,50.085499999999996,14.435799999999999,50,23,4eb3d26bf790d87d01ff9e0b,Casablanca Mediterranean Restaurant,50.08227757068747,14.431148629008995,Mediterranean Restaurant
914,50.085499999999996,14.435799999999999,50,24,5b71b9cc89e490003909a944,Smokeberry #2,50.087153,14.430005,Lounge
915,50.085499999999996,14.435799999999999,50,25,4bbdb162f57ba5932650aeb9,"Pizza V≈†Em, Zdrav√° v√Ω≈æiva",50.08301575537256,14.440255197514851,Pizza Place
916,50.085499999999996,14.435799999999999,50,26,5c2669371ffed7002cfe3526,Sklep,50.08986634732514,14.435072243213652,Czech Restaurant
917,50.085499999999996,14.435799999999999,50,27,5e507295947ea9000802f276,Umbrella,50.083558550922184,14.441777006285415,Pizza Place
918,50.085499999999996,14.435799999999999,50,28,5f089c50af438c5a652c05a2,Alebrijes,50.089032,14.43734,Mexican Restaurant
919,50.085499999999996,14.435799999999999,50,29,53ad5c72498ee47d2a306618,KREDENC Restaurant,50.08514274233333,14.442722509149075,Czech Restaurant
920,50.085499999999996,14.435799999999999,50,30,59ac3d466f0aa256dac9d889,Soju,50.08563352941508,14.43223178386688,Korean Restaurant
921,50.085499999999996,14.435799999999999,50,31,544b9e29498e01e80ed8c721,Nem Nem,50.08708190917969,14.433359146118164,Asian Restaurant
922,50.085499999999996,14.435799999999999,50,32,5cbeec361f7440003991f0d4,Tao Tie,50.088606,14.432721,Chinese Restaurant
923,50.085499999999996,14.435799999999999,50,33,5107cf9ee4b0350baf86d30e,Barakat - Lebanese Restaurant,50.082259,14.43137,Middle Eastern Restaurant
924,50.085499999999996,14.435799999999999,50,34,52fe0c90498e5adc8f97cc31,Buono!,50.085275556358894,14.431070387363434,Italian Restaurant
925,50.085499999999996,14.435799999999999,50,35,56b9d7bf498eac0c4a6c6ee4,Mr. B√°nh Mi,50.085354,14.441454,Asian Restaurant
926,50.085499999999996,14.435799999999999,50,36,4efc812d8b81729522b75878,Ristorante Italiano,50.08563232321374,14.43085523177261,Italian Restaurant
927,50.085499999999996,14.435799999999999,50,37,59edd9b9628c8339ba67524e,Quan Buns,50.08532196747973,14.441091624528864,Vietnamese Restaurant
928,50.085499999999996,14.435799999999999,50,38,4f191b21e4b0bb77e615959d,China Restaurant & Cafe,50.08726876129143,14.434459499520143,Chinese Restaurant
929,50.085499999999996,14.435799999999999,50,39,53185c94498ec3e4b8d22804,Rancheros,50.08934044451931,14.434922819072213,Mexican Restaurant
930,50.085499999999996,14.435799999999999,50,40,50ca02c5245f2d4aa8c2c5d8,Zinc Restaurant,50.08849641867744,14.432098545066411,Modern European Restaurant
931,50.085499999999996,14.435799999999999,50,41,55190ef7498ead17c80d5df6,Mikuni,50.08593212838034,14.432242465462823,Japanese Restaurant
932,50.085499999999996,14.435799999999999,50,42,52a9a84d498ecdac9f6fa26d,Restaurace Kometa,50.085267320709235,14.431842583082714,Eastern European Restaurant
933,50.085499999999996,14.435799999999999,50,43,4e82219f77c8c566cef483e4,Pizza fast food Halal,50.08230788067217,14.431277609683496,Indian Restaurant
934,50.085499999999996,14.435799999999999,50,44,4ed8f84a0e011b46ec9e9464,Merenda,50.0861098029177,14.435832049323212,American Restaurant
935,50.085499999999996,14.435799999999999,50,45,4d07a4d19d33a1434f16cd78,Jian Guo,50.089763,14.436245,Chinese Restaurant
936,50.085499999999996,14.435799999999999,50,46,4d652b777f84f04d6afbfdb4,Sushi Upgrade,50.083421,14.432313,Sushi Restaurant
937,50.085499999999996,14.435799999999999,50,47,51a8e84d498e29a941a9b6d8,Keramika,50.086866,14.432167,Middle Eastern Restaurant
938,50.085499999999996,14.435799999999999,50,48,4c879eff56e037045ec5b3a3,So Pasta,50.088281,14.430368,Italian Restaurant
939,50.085499999999996,14.435799999999999,50,49,4e522ac9e4cdb70cc5298c03,La Corte / Dv≈Ør,50.089792,14.436137,Italian Restaurant
940,50.085499999999996,14.4506,50,0,5c35ef27a0215b002c19469e,Porke,50.08242544472934,14.450315237045286,Modern European Restaurant
941,50.085499999999996,14.4506,50,1,4ba3cf38f964a520ef6138e3,Taverna Olympos,50.081983050483196,14.44673792572695,Greek Restaurant
942,50.085499999999996,14.4506,50,2,55f16010498e651eebe98296,Bibimbap Korea,50.08425092468032,14.45261655273498,Korean Restaurant
943,50.085499999999996,14.4506,50,3,4e8c7bb45c5c2a8ac9b82494,Vende Maria,50.08427924597395,14.451061040251195,Pizza Place
944,50.085499999999996,14.4506,50,4,4b4f5439f964a520830127e3,U Houdk≈Ø,50.08240251557794,14.445818054207871,Pub
945,50.085499999999996,14.4506,50,5,5467a307498e655a9216ddc2,Barfud,50.087111086408136,14.444296425158157,American Restaurant
946,50.085499999999996,14.4506,50,6,4bdc3ed9fed22d7f9e9857c9,Harmonie,50.08468202318413,14.447556036702405,Chinese Restaurant
947,50.085499999999996,14.4506,50,7,5b6b2af5e96d0c002c5b8f51,SOU100 ≈Ωi≈ækov,50.085343,14.450021,Czech Restaurant
948,50.085499999999996,14.4506,50,8,596fe1b26fa81f7095d78bd5,Burrito Loco,50.08402815848231,14.45323430666763,Burrito Place
949,50.085499999999996,14.4506,50,9,58b9bd8291936a61c9e4858b,U Dud√°ka,50.084139313021964,14.455157965421677,Czech Restaurant
950,50.085499999999996,14.4506,50,10,5cbf30644a7aae00395d3d54,La Casa Trattoria ≈Ωi≈ækov,50.086070665963696,14.448217749595642,Italian Restaurant
951,50.085499999999996,14.4506,50,11,4afda782f964a5208a2922e3,Mon Ami,50.08659752796078,14.455025188646172,Mediterranean Restaurant
952,50.085499999999996,14.4506,50,12,5b3cf84ad41bb70039274a54,Signor bistro,50.083678,14.454577,Bistro
953,50.085499999999996,14.4506,50,13,5f32d57cb97cd61290844420,Little Asia Bistro,50.085205,14.450493,Asian Restaurant
954,50.085499999999996,14.4506,50,14,546c8108498e207ac480b37f,Ph·ªü Vi·ªát,50.087347717571674,14.452580376644208,Vietnamese Restaurant
955,50.085499999999996,14.4506,50,15,5d20c564d4545e002305318e,Taiko,50.087456,14.452398,Ramen Restaurant
956,50.085499999999996,14.4506,50,16,4bf6cd3dbb5176b00c125bb2,Spice India,50.08681473873507,14.4465773677905,Indian Restaurant
957,50.085499999999996,14.4506,50,17,57fe5676498e08c9fc412e7a,Sushi Sushi,50.08454908402982,14.449503172350408,Sushi Restaurant
958,50.085499999999996,14.4506,50,18,5ee7bf39a43b030008bc7ab6,Mexico Lindo,50.083982,14.453049,Mexican Restaurant
959,50.085499999999996,14.4506,50,19,527f6d4511d24f3410c842de,D√∂ner Kebab ≈Ωi≈ækov,50.084534,14.450398,Turkish Restaurant
960,50.085499999999996,14.4506,50,20,5ef07832ab537200080109ea,Tiger 86,50.084572,14.45073,Asian Restaurant
961,50.085499999999996,14.4506,50,21,5f1c25e5fd05a1600ab3a780,Philly & Co‚Äôs,50.0877678,14.4528692,American Restaurant
962,50.085499999999996,14.4506,50,22,57dfcaad498ed681d7248bfa,Pho Lam Ha,50.086376,14.446324,Vietnamese Restaurant
963,50.085499999999996,14.4506,50,23,525ac4b7498e02747b78db76,Istanbul Kebab,50.083768532127856,14.453760961301015,Turkish Restaurant
964,50.085499999999996,14.4506,50,24,5b89172ef62e0900392d1e3c,Hanoi Wok,50.082336,14.446131,Vietnamese Restaurant
965,50.085499999999996,14.4506,50,25,4bbf5f0cf353d13a9a7c7e10,Osudov√° p≈ôita≈ælivost,50.08356534320793,14.452976260676651,Czech Restaurant
966,50.085499999999996,14.4506,50,26,5f081d81a253554541f46e00,Pocha Bistro,50.083686,14.453966,Korean Restaurant
967,50.085499999999996,14.4506,50,27,4dd4f387d22d8e00fcd496b0,Vegan City,50.08701534509986,14.450323807709012,Vegetarian / Vegan Restaurant
968,50.085499999999996,14.4506,50,28,4b7840c1f964a520cabf2ee3,Nebesk√° v≈Ønƒõ,50.08416562120101,14.452457920510996,Chinese Restaurant
969,50.085499999999996,14.4506,50,29,5988a55f0fe7a048f14e9ed8,Sara Kebab,50.08384145798579,14.453866437906983,Doner Restaurant
970,50.085499999999996,14.4506,50,30,51a1f0d0498e1300ee8fcc08,ƒå√≠nsk√© Bistro,50.087747229487874,14.45655043204923,Chinese Restaurant
971,50.085499999999996,14.4506,50,31,4ffc16eae4b046a814a0fae0,ƒå√≠nsk√° Delikates Restaurace,50.08646463722795,14.455375163474196,Chinese Restaurant
972,50.085499999999996,14.4506,50,32,53e27b65498ec6568c1a1f8c,Fresh Mex Restaurant & Cafe Roka,50.087372449186695,14.45367729275693,Mexican Restaurant
973,50.085499999999996,14.4506,50,33,571137a0498ec101063c52f5,Kompot,50.08772116062821,14.452975370243605,Russian Restaurant
974,50.085499999999996,14.4506,50,34,532c25b1498eaace579a9a09,Ph·ªü Vietnam,50.08413368264862,14.453694195334315,Vietnamese Restaurant
975,50.085499999999996,14.4506,50,35,599b04e606fb607c8e1bf256,Anmy's,50.08493,14.454836,Vietnamese Restaurant
976,50.085499999999996,14.4506,50,36,4fba3258e4b078220aa637da,Ph·ªü Bii,50.08413834166979,14.45362696848258,Vietnamese Restaurant
977,50.085499999999996,14.4506,50,37,52825394498e13714b6ab545,D√∂ner Kebab,50.08372245769174,14.44491511483891,Turkish Restaurant
978,50.085499999999996,14.4506,50,38,4ef1c3870e015e413a3872a1,Pivnice v Husitske,50.087375089272946,14.452577441282898,Mediterranean Restaurant
979,50.085499999999996,14.4506,50,39,5335c88c498e935381e803e1,Cesky Raj,50.0831442356814,14.453289065915234,Czech Restaurant
980,50.085499999999996,14.4506,50,40,4fd1d141e4b0f62cda340ab8,Krishna,50.0846393250625,14.45263518267504,Indian Restaurant
981,50.085499999999996,14.4506,50,41,5877e8bc7ff1e421e3c5d842,EatWell,50.086175,14.448144,Italian Restaurant
982,50.085499999999996,14.4506,50,42,4ddceefe1838306b82114107,"Restaurace A Bistro ""Sen""Óê∏",50.08464318342343,14.449414513658624,Chinese Restaurant
983,50.085499999999996,14.4506,50,43,54f55efc498ebde393eecf21,Peka≈ôstv√≠ m≈àam! m≈àam!,50.085429,14.456518,African Restaurant
984,50.085499999999996,14.4506,50,44,586bf8c02c55ec0737049cdb,La tana del lupo,50.084253,14.453879,Italian Restaurant
985,50.085499999999996,14.4506,50,45,52a23f81498e1a2cb45067ee,4mori,50.085078699247426,14.45456476562645,Italian Restaurant
986,50.085499999999996,14.4506,50,46,4f61d7dfe4b04b82c8f121f8,"Uzbecke Cafe-pekarstvi ""Jasmin""",50.08739872362439,14.454410706004847,Asian Restaurant
987,50.085499999999996,14.4506,50,47,56e80d88498e1a007ad7f68f,Punjabi Tadka,50.08595457298722,14.452829940568042,Indian Restaurant
988,50.085499999999996,14.4506,50,48,4e6dc2bc813005b910ee860e,Bistro Rokycanova,50.08643207506017,14.455306828022003,Chinese Restaurant
989,50.085499999999996,14.4506,50,49,58ebcc583f5a5c197d7674ac,Restaurace Hanoi,50.087442,14.45418,Asian Restaurant
990,50.085499999999996,14.465399999999999,18,0,4b9a4577f964a520b6a835e3,U Kozla,50.08726723683241,14.469671584248344,Czech Restaurant
991,50.085499999999996,14.465399999999999,18,1,4f01a2c0e5faf2869d615e3d,Pho Nem,50.08956264117415,14.464337444239167,Vietnamese Restaurant
992,50.085499999999996,14.465399999999999,18,2,5c62a5ca58002c002c9bf7c4,Pho Ever,50.0898,14.466048,Vietnamese Restaurant
993,50.085499999999996,14.465399999999999,18,3,5f50c8add9b62e61b69ef2a7,Richman Business Bar,50.085029,14.469182,Italian Restaurant
994,50.085499999999996,14.465399999999999,18,4,592fea7fdb1d81503a7d635f,Noodle Bay,50.08854394072379,14.461607740064029,Noodle House
995,50.085499999999996,14.465399999999999,18,5,57ab2c3a498ed5a2b358f254,Chai Viet Tasty Asia,50.08933821551917,14.468660236548104,Vietnamese Restaurant
996,50.085499999999996,14.465399999999999,18,6,50f83061e4b06fb43e2a5bef,Kebab Atlas Montes,50.089017845735555,14.461811443793867,Doner Restaurant
997,50.085499999999996,14.465399999999999,18,7,5d640a600181700008a0442c,Bonjuk and Dosirak,50.089723,14.463729,Korean Restaurant
998,50.085499999999996,14.465399999999999,18,8,5b0d20f897cf5a00394bdb2b,Fusion Box,50.08369,14.464629,Asian Restaurant
999,50.085499999999996,14.465399999999999,18,9,576041d8cd105c86b66c3baf,Peshawari Kebab,50.0896,14.4649,Pakistani Restaurant
1000,50.085499999999996,14.465399999999999,18,10,59762833c4df1d5f0126d207,U Rohatejch,50.08918757788708,14.465437565870294,Czech Restaurant
1001,50.085499999999996,14.465399999999999,18,11,4eebd0b67ee5f45386bad10e,U Monci Zlate kocky,50.086608509197625,14.464392450563764,Chinese Restaurant
1002,50.085499999999996,14.465399999999999,18,12,4d77667c926a6dcb8ecd4700,Shun Lai,50.085266501889556,14.470253661779195,Chinese Restaurant
1003,50.085499999999996,14.465399999999999,18,13,562b5d8a498e415e692cb38a,Lekn√≠n,50.08541587272749,14.468587095317964,Chinese Restaurant
1004,50.085499999999996,14.465399999999999,18,14,58b4744abf1a6d6f3be248eb,Bento House,50.0898,14.46593,Vietnamese Restaurant
1005,50.085499999999996,14.465399999999999,18,15,4e9fea3bdab4b59126802f57,Canntina,50.08747556207072,14.464423879342933,Mexican Restaurant
1006,50.085499999999996,14.465399999999999,18,16,56f11f57cd10b74e655e3e3d,nase potraviny cinani,50.087257,14.462473,Cantonese Restaurant
1007,50.085499999999996,14.465399999999999,18,17,4d7e068f564b8cfa5353e964,Ding Feng,50.085077657862854,14.470330125635769,Chinese Restaurant
1008,50.085499999999996,14.4802,1,0,5301df4d498e5c1f954d993b,Simply Gastro Nagano,50.08446490743142,14.480430979578047,Czech Restaurant
1009,50.085499999999996,14.5098,5,0,53a946ab498ef88303a4c416,Male≈°ick√Ω mikropivovar,50.08464221286407,14.507660865783691,Brewery
1010,50.085499999999996,14.5098,5,1,5a4e6351d69ed055232d940f,Neami,50.08330184508358,14.508641476027378,Vietnamese Restaurant
1011,50.085499999999996,14.5098,5,2,57823c62498e010cadbf8455,Koriandr,50.08334941981801,14.506948675210804,Vietnamese Restaurant
1012,50.085499999999996,14.5098,5,3,4b7450ebf964a520abd42de3,Pizzeria Albero,50.083113795834514,14.508664603846091,Pizza Place
1013,50.085499999999996,14.5098,5,4,4bc374a6f8219c741e1eb610,Fu Le Yuan,50.08339103102541,14.506914357056225,Chinese Restaurant
1014,50.085499999999996,14.5542,2,0,50437980e4b0068b21427ad1,Pho 555 U dvou pani,50.08662172548007,14.556935534630666,Vietnamese Restaurant
1015,50.085499999999996,14.5542,2,1,4da41f599aa4721eb5ab301a,La Bodega Campo,50.087268018191466,14.556799096154531,Argentinian Restaurant
1016,50.085499999999996,14.568999999999999,1,0,4bc793fe93bdeee16e8837ae,Hotel Svornost,50.088567,14.571605,Hotel
1017,50.085499999999996,14.5838,2,0,51bf6ee8498edd1e3e4db54f,Al Mulino,50.088225156464226,14.581744762094264,Italian Restaurant
1018,50.085499999999996,14.5838,2,1,517d31cde4b0eef57c645795,ƒå√≠nsk√° restaurace,50.0854586815833,14.5780177352789,Asian Restaurant
1019,50.095499999999994,14.287799999999999,10,0,5cc468f8c66666002c05dea8,Lai Lai,50.09272,14.291683,Chinese Restaurant
1020,50.095499999999994,14.287799999999999,10,1,5e1a055c7183de00085aef2e,Vietnam Fastfood,50.092821,14.291609,Vietnamese Restaurant
1021,50.095499999999994,14.287799999999999,10,2,5d272ee9a8da67002d7eb1a7,Sumo,50.093216,14.290869,Sushi Restaurant
1022,50.095499999999994,14.287799999999999,10,3,5f072184af438c5a652ae663,Taco Puerto,50.093596,14.290689,Taco Place
1023,50.095499999999994,14.287799999999999,10,4,4f88541ce4b0e6f3477b12fe,Asia Sun,50.09304375852685,14.29125079278929,Chinese Restaurant
1024,50.095499999999994,14.287799999999999,10,5,5dd92444a4403c00084d9b9c,Satyam,50.092881,14.291355,Indian Restaurant
1025,50.095499999999994,14.287799999999999,10,6,4f12fb39e4b0958ec2c768d9,OrienKing,50.09304300755926,14.291256596381736,Chinese Restaurant
1026,50.095499999999994,14.287799999999999,10,7,560fc936498e90341f4b2620,Prima ba≈°ta,50.092862302134044,14.291483535831743,Czech Restaurant
1027,50.095499999999994,14.287799999999999,10,8,519de820498ed7d827cd0456,Cactus,50.09301292456874,14.291300955688497,Mexican Restaurant
1028,50.095499999999994,14.287799999999999,10,9,532468b6498ec770650f9941,Hebe Fresh Food,50.09366457632536,14.291262667506613,Italian Restaurant
1029,50.095499999999994,14.332199999999998,2,0,553b98e6498e2ed1f18ab89d,El Lanzador,50.09513092518301,14.326704601876715,Mexican Restaurant
1030,50.095499999999994,14.332199999999998,2,1,50f5ab99e4b011795765252b,Restaurace Hacienda,50.09284973144531,14.328519821166992,Mexican Restaurant
1031,50.095499999999994,14.347,3,0,4e889647a17ccac7cf2bcb76,Ka≈°tan,50.098798203917795,14.345328695356756,Czech Restaurant
1032,50.095499999999994,14.347,3,1,4ca0f2cc542b224bf86a0aa0,Na Z√°visti,50.09268806132336,14.349883354326838,Czech Restaurant
1033,50.095499999999994,14.347,3,2,55ee242d498e70c205627438,klubovniƒçka,50.09445581249891,14.349514946496122,Cambodian Restaurant
1034,50.095499999999994,14.361799999999999,2,0,54351b1d498e6c538546986f,Fresh Cantina Cordeus,50.09627470253077,14.365519871904862,Czech Restaurant
1035,50.095499999999994,14.361799999999999,2,1,5318b788498e21fe8abee925,Tim&Sasha's Luxury Village,50.09768746901263,14.359744397580753,Eastern European Restaurant
1036,50.095499999999994,14.3766,4,0,5f720806dac5217ff8335f2a,Karavan,50.092608,14.375557,Asian Restaurant
1037,50.095499999999994,14.3766,4,1,4be29b47b02ec9b6fc394dc0,Calvera Bar & Restaurant,50.09512437757744,14.38137161093174,Mexican Restaurant
1038,50.095499999999994,14.3766,4,2,4e2ffa31d1646b407b92d802,U Hro≈àk≈Ø,50.09244977,14.37697825,Eastern European Restaurant
1039,50.095499999999994,14.3766,4,3,5a13355ce97dfb10df8121bc,Tierra T√≠zoc,50.09699,14.37022,Mexican Restaurant
1040,50.095499999999994,14.391399999999999,6,0,4af9c2b4f964a520ff1322e3,Budvarka,50.098179,14.396113,Pub
1041,50.095499999999994,14.391399999999999,6,1,4bc8c37692b376b09c24523a,Katsura,50.09985391114998,14.39011037349701,Japanese Restaurant
1042,50.095499999999994,14.391399999999999,6,2,599d605be679bc398b002ad6,Burger Meets Diplomat,50.099786,14.390057,Italian Restaurant
1043,50.095499999999994,14.391399999999999,6,3,50e5cb72e4b0869d16fff6ec,CD Restaurant,50.099853,14.390506,Eastern European Restaurant
1044,50.095499999999994,14.391399999999999,6,4,527013ff11d23cff8d2f6195,Dinner @ Diplomat Hotel,50.09982707094491,14.390296902425415,Eastern European Restaurant
1045,50.095499999999994,14.391399999999999,6,5,4dd394d67d8b6704c7a824a3,ƒå√≠nsk√© Bistro,50.097572786581175,14.386718708220636,Chinese Restaurant
1046,50.095499999999994,14.4062,30,0,53307e0e498e0f24d5b37fc3,Restaurace Na Hradƒçansk√©,50.09674037105168,14.40325864442367,Gastropub
1047,50.095499999999994,14.4062,30,1,4b8d0648f964a520c7e432e3,U Veverky,50.098991,14.402154,Gastropub
1048,50.095499999999994,14.4062,30,2,501484d8f136faed82da8039,Yam Yam,50.09843694790956,14.402950243538527,Thai Restaurant
1049,50.095499999999994,14.4062,30,3,4e96a3c4f79068de88c51105,500 restaurant,50.096537,14.40564,Italian Restaurant
1050,50.095499999999994,14.4062,30,4,53e7386f498e6613bedd76a4,Thanh Ha,50.09815601218957,14.401676544308163,Vietnamese Restaurant
1051,50.095499999999994,14.4062,30,5,56cc852bcd10c5927d33645d,Burrito Loco,50.09802841819895,14.40389156341553,Burrito Place
1052,50.095499999999994,14.4062,30,6,557813f3498ee3b164649f97,Super D√∂ner Kebab,50.09791141910637,14.402156174182892,Doner Restaurant
1053,50.095499999999994,14.4062,30,7,4baca3baf964a52014003be3,Mashhana Sushi House,50.09718,14.407508,Sushi Restaurant
1054,50.095499999999994,14.4062,30,8,58fcd79ea35dce24a172a11e,Indian by Nature II,50.09850292211292,14.402786062862308,Indian Restaurant
1055,50.095499999999994,14.4062,30,9,54251212498ef4a58b6ec5cb,√† Table!,50.09862135371421,14.402870862447571,French Restaurant
1056,50.095499999999994,14.4062,30,10,58761c1aea29b830519b535a,Bistro V√°leƒçek,50.099056184780665,14.402783175256081,Pelmeni House
1057,50.095499999999994,14.4062,30,11,4c1b501c3b2ab7136f1e3325,Restaurace Na Rozhran√≠,50.099298,14.405251,Czech Restaurant
1058,50.095499999999994,14.4062,30,12,4b4868a2f964a520e24c26e3,Una Bella Canzone,50.09877326840984,14.40186176046809,Italian Restaurant
1059,50.095499999999994,14.4062,30,13,5abd1d05f62e0921d8e39b71,Al Castello,50.09506,14.409574,Italian Restaurant
1060,50.095499999999994,14.4062,30,14,51c9fb92498e006605574362,Mal√Ω r√°j,50.09868250076516,14.404299070594158,Eastern European Restaurant
1061,50.095499999999994,14.4062,30,15,5d2c314e2081a200232218ea,Bitter Sweet,50.098219401397955,14.40508246421814,Vietnamese Restaurant
1062,50.095499999999994,14.4062,30,16,4b6f1167f964a520d4da2ce3,Fiesta,50.09770322883802,14.400989413261412,Mexican Restaurant
1063,50.095499999999994,14.4062,30,17,4b1f644af964a520122624e3,Villa Richter,50.09249550365859,14.408183676985626,Modern European Restaurant
1064,50.095499999999994,14.4062,30,18,5a575757b2958f07a9ba6223,BonArt,50.099213,14.403737,Korean Restaurant
1065,50.095499999999994,14.4062,30,19,4e2b0d86e4cd3bc16690ef39,ShanXi ƒå√≠nsk√° Restaurace,50.09749517855116,14.400080594115757,Chinese Restaurant
1066,50.095499999999994,14.4062,30,20,580c6d4ad67c230d4844a74e,La Cuisine de Maman,50.09382,14.410352,Czech Restaurant
1067,50.095499999999994,14.4062,30,21,4bf7a897c07c9c74c0afbbef,U t≈ô√≠ hroch≈Ø,50.098479,14.404396,Italian Restaurant
1068,50.095499999999994,14.4062,30,22,54c523be498e44dbbd9c13e0,Asia - sushi - bufet,50.098015562785974,14.403687730919044,Asian Restaurant
1069,50.095499999999994,14.4062,30,23,4adcda9bf964a520be4c21e3,U Kaval√≠ra - Tokyo,50.099496765739005,14.403409317253942,Korean Restaurant
1070,50.095499999999994,14.4062,30,24,558a8405498e83940bd01c26,Hong Feng,50.09840404582074,14.40436204626932,Chinese Restaurant
1071,50.095499999999994,14.4062,30,25,5d0e4b5920a53f0023a688d6,Richter Thai,50.092126,14.408587,Thai Restaurant
1072,50.095499999999994,14.4062,30,26,516d3307498e46a56892676d,Liƒçi fast food,50.09863628261074,14.404303506281279,Vietnamese Restaurant
1073,50.095499999999994,14.4062,30,27,4e09dda58130709eafbd9faf,Ada restaurant,50.09300212958507,14.408860326724852,Modern European Restaurant
1074,50.095499999999994,14.4062,30,28,53c12b40498e95ba028c3832,castellana Bistro,50.09144973754883,14.408869743347168,Italian Restaurant
1075,50.095499999999994,14.4062,30,29,552b9b62498e5f398a47ad42,Tanh ha,50.09813,14.401656,Vietnamese Restaurant
1076,50.095499999999994,14.421,27,0,5581549a498e4d222977492e,Ph·ªü u Letn√©,50.099364,14.422203,Vietnamese Restaurant
1077,50.095499999999994,14.421,27,1,589f2d31dc3329197ed92178,Loƒè Pivovar,50.09344143091883,14.426602808412508,Czech Restaurant
1078,50.095499999999994,14.421,27,2,4af531f8f964a5208ff821e3,La Casa Bl≈Ø,50.091103,14.422014,Mexican Restaurant
1079,50.095499999999994,14.421,27,3,54589c95498e30f319d3b5b6,FIELD Restaurant,50.091768,14.422288,Czech Restaurant
1080,50.095499999999994,14.421,27,4,516bdb30498ee0be2465742e,Curry Palace,50.09925,14.42319,Indian Restaurant
1081,50.095499999999994,14.421,27,5,56141ba1498ee2cb76108833,Asian Temple,50.09147000824891,14.421056396753995,Asian Restaurant
1082,50.095499999999994,14.421,27,6,5adce8ea1ffed71f5ab8b821,Gruzie restaurant,50.091017259411956,14.421240091323854,Caucasian Restaurant
1083,50.095499999999994,14.421,27,7,5b183d69bcbf7a002c48725e,Kalina Ane≈æka,50.092041,14.423968,French Restaurant
1084,50.095499999999994,14.421,27,8,50f835eee4b0676be525bcb1,Ho√†ng An,50.09972476009922,14.423215053313974,Vietnamese Restaurant
1085,50.095499999999994,14.421,27,9,546fac2f498e4a0e5d661322,Ristorantino da Matteo,50.099391147635714,14.423221758394037,Italian Restaurant
1086,50.095499999999994,14.421,27,10,53bd490e498e5cf43e9bf6b0,Chabad Grill,50.091717447227566,14.421157684774053,Kosher Restaurant
1087,50.095499999999994,14.421,27,11,502645f3e4b0aa1674f38277,Indick√° restaurace Haveli,50.093251094709245,14.4200272817934,Indian Restaurant
1088,50.095499999999994,14.421,27,12,4e2b44c88877b69d49ded1b9,Restaurante peruano,50.0918054,14.4226749,Brazilian Restaurant
1089,50.095499999999994,14.421,27,13,519b6876498ecbd059be499a,Mr. Pollo,50.099895478339675,14.421860569231814,American Restaurant
1090,50.095499999999994,14.421,27,14,54b0433f498e8b0303e75377,Alsultan Restaurant,50.091678619384766,14.420822143554688,Persian Restaurant
1091,50.095499999999994,14.421,27,15,56afaab3498ea7ae44baa54a,restaurant Prague Alche-mia,50.091059744203,14.42142816451448,Czech Restaurant
1092,50.095499999999994,14.421,27,16,5b2236173fcee8002ccbef37,Elements,50.0925687296833,14.419799745082857,Italian Restaurant
1093,50.095499999999994,14.421,27,17,5724ebb8498e96aa90fa0bd0,Las Adelitas,50.094704,14.416117,Taco Place
1094,50.095499999999994,14.421,27,18,4cab7d6976d3a093e3a12c6b,Dinitz,50.09109226572195,14.420954249791187,Kosher Restaurant
1095,50.095499999999994,14.421,27,19,551c463d498e54e710b7c710,Sult√°n Shisha Cafe Bar,50.0916250739202,14.420770962387602,Hookah Bar
1096,50.095499999999994,14.421,27,20,597b581cb1538e3fd68713b1,La Taquer√≠a,50.09468006655175,14.416387975215912,Taco Place
1097,50.095499999999994,14.421,27,21,4bd4127677b29c74f4199282,Zlat√° Praha,50.091528,14.418581,Modern European Restaurant
1098,50.095499999999994,14.421,27,22,4ed6c69ef5b915cfe1878854,U Pierra,50.09116851939239,14.42085342154477,Swiss Restaurant
1099,50.095499999999994,14.421,27,23,4ba3da86f964a520bf6638e3,U ƒåerven√©ho kola,50.09165596395138,14.424370425961909,Czech Restaurant
1100,50.095499999999994,14.421,27,24,509904dbe4b01cb1b0d312ca,J√≠delna Gymn√°zium Du≈°ni¬¥,50.09164681544408,14.420270107240666,Middle Eastern Restaurant
1101,50.095499999999994,14.421,27,25,4e32536be4cd6025018b643c,Restaurant Vltava,50.0926060462339,14.41969034959087,American Restaurant
1102,50.095499999999994,14.421,27,26,5794b9eb498edc50e6decfc0,il primo second edition,50.091832,14.420935,Mediterranean Restaurant
1103,50.095499999999994,14.435799999999999,32,0,5c23adfa00b068003a139071,Las Adelitas,50.091875,14.43473,Mexican Restaurant
1104,50.095499999999994,14.435799999999999,32,1,52efb72a11d26e76c232b8f0,Burrito Loco,50.09902530602199,14.432803037076901,Burrito Place
1105,50.095499999999994,14.435799999999999,32,2,5a9ff6d9e65d0c6036ebd7d8,Onigirazu,50.099076,14.431717,Japanese Restaurant
1106,50.095499999999994,14.435799999999999,32,3,5cbe365d1ffe97002caf29c6,Da Antonio,50.0990418248541,14.431684613227844,Pizza Place
1107,50.095499999999994,14.435799999999999,32,4,592f00d1029a556ee9eb925e,Kosteln√≠ 16,50.097699945412366,14.431225620971874,Modern European Restaurant
1108,50.095499999999994,14.435799999999999,32,5,5385c4bd498e73b891759418,"""K"" - The Two Brothers",50.091271,14.433687,Indian Restaurant
1109,50.095499999999994,14.435799999999999,32,6,4bf120a617880f47caf02937,U sv. Anton√≠ƒçka,50.0997961,14.4338897,Czech Restaurant
1110,50.095499999999994,14.435799999999999,32,7,4b4e2bb8f964a520efe326e3,Hanabi,50.09152251516003,14.433625126071838,Sushi Restaurant
1111,50.095499999999994,14.435799999999999,32,8,4b8d3220f964a520b8ec32e3,Tobruk,50.09179148082267,14.4323982524232,Caf√©
1112,50.095499999999994,14.435799999999999,32,9,4df49ad122718759f823be1c,Binh Minh,50.09838528015199,14.433204486801648,Asian Restaurant
1113,50.095499999999994,14.435799999999999,32,10,5c9fc2797dc9e1002c39951c,Vietnam Food,50.098179,14.434508,Vietnamese Restaurant
1114,50.095499999999994,14.435799999999999,32,11,4d63e6a0a5be236a6807c7db,Sansho,50.091617534299246,14.434416047377505,Asian Restaurant
1115,50.095499999999994,14.435799999999999,32,12,4d82774bd67ca1cd7a0112fb,U Divadla,50.09978091619145,14.43579074994953,Czech Restaurant
1116,50.095499999999994,14.435799999999999,32,13,5739f962cd1015664114d695,Garam,50.09806416418815,14.434118436841612,Korean Restaurant
1117,50.095499999999994,14.435799999999999,32,14,58f8010cd7627e74d5831f1f,Vincanto,50.092174671995615,14.43260461091995,Italian Restaurant
1118,50.095499999999994,14.435799999999999,32,15,4cb3054a1463a143ed34b1a9,Grand Cru Restaurant & Bar,50.091707282427166,14.432753632814686,Modern European Restaurant
1119,50.095499999999994,14.435799999999999,32,16,5635ef4d498e5885a6813a0d,Olive,50.0918697513743,14.439906998445682,Cafeteria
1120,50.095499999999994,14.435799999999999,32,17,5357dd1e498e87498195d8d9,Jing Ling,50.09918585151376,14.4317971623667,Asian Restaurant
1121,50.095499999999994,14.435799999999999,32,18,51f01df8498eddd7a05c7ce1,U Kachny,50.098932,14.432434,Asian Restaurant
1122,50.095499999999994,14.435799999999999,32,19,5a4787d36e4650136ebcb95a,Restaurace u Udonu,50.098217,14.4345,Asian Restaurant
1123,50.095499999999994,14.435799999999999,32,20,5450cf12498ea48fc7e0c513,Restaurace U divadla,50.098594950702015,14.433040034945247,Czech Restaurant
1124,50.095499999999994,14.435799999999999,32,21,4bb39f5235f0c9b617a6bc83,I.ƒåLTK Club Restaurant,50.09576712111964,14.439869293306927,Italian Restaurant
1125,50.095499999999994,14.435799999999999,32,22,57801669498e91fa92076342,Bejv√°valo,50.09208,14.433127,Czech Restaurant
1126,50.095499999999994,14.435799999999999,32,23,51801af2498eedb4cfb5b058,Nadal Boat Tour,50.09501,14.439682,Eastern European Restaurant
1127,50.095499999999994,14.435799999999999,32,24,512cb169e4b0510335d43116,Kristallis ≈òeck√© Speciality,50.09691136787639,14.430901647274018,Greek Restaurant
1128,50.095499999999994,14.435799999999999,32,25,516429d9e4b07dd55857e1b4,French Garden,50.09269108068059,14.439984700498123,French Restaurant
1129,50.095499999999994,14.435799999999999,32,26,50042565e4b093944d982a93,Ethnocatering,50.09865385770368,14.434945550719071,Middle Eastern Restaurant
1130,50.095499999999994,14.435799999999999,32,27,5e432f1cc1b94b000890e824,The Able Butcher,50.0933224205139,14.43926453590393,Modern European Restaurant
1131,50.095499999999994,14.435799999999999,32,28,4bb09e21f964a520cd4f3ce3,Gyros Presto,50.09849432972857,14.431862133097866,Fast Food Restaurant
1132,50.095499999999994,14.435799999999999,32,29,4b2d27c1f964a520aacf24e3,Dong Sheng,50.09897782565325,14.432325644184935,Chinese Restaurant
1133,50.095499999999994,14.435799999999999,32,30,5322e1c7498eaebcc44d392b,Best Burger,50.099708231638616,14.43681621271461,American Restaurant
1134,50.095499999999994,14.435799999999999,32,31,56053c16498e9031be53d2c4,Istanbul Kebab,50.096393,14.431739,Turkish Restaurant
1135,50.095499999999994,14.4506,50,0,538dc3de498eecce5c700599,Lok√°l Hamburk,50.0931003778568,14.446542358240835,Pub
1136,50.095499999999994,14.4506,50,1,522118e77e48d46b822af305,Cafe Frida,50.09209525639067,14.446710783323658,Caf√©
1137,50.095499999999994,14.4506,50,2,58878fc252e32d09b5b32b28,≈†alanda,50.092272585271175,14.45256424773517,Czech Restaurant
1138,50.095499999999994,14.4506,50,3,5d00cc92121384002c8c183d,Ng√¥,50.091976,14.449505,Vietnamese Restaurant
1139,50.095499999999994,14.4506,50,4,5c1a57f8c0c08400258cd415,River Garden Grill,50.095985,14.450197,Steakhouse
1140,50.095499999999994,14.4506,50,5,4b7bd98ff964a5208c702fe3,U Z√°bransk√Ωch,50.09299503139392,14.45329710158773,Czech Restaurant
1141,50.095499999999994,14.4506,50,6,5d03974b356b49002cb9c863,Street Pho,50.093909,14.453556,Vietnamese Restaurant
1142,50.095499999999994,14.4506,50,7,57399edb498e7fdb547992d7,BEFRIENDLY,50.09342222343372,14.448131918907166,Czech Restaurant
1143,50.095499999999994,14.4506,50,8,59fc4affa3061944917a4907,banh‚Äîmi‚Äîba,50.093407,14.451572,Vietnamese Restaurant
1144,50.095499999999994,14.4506,50,9,561cf976498e0c5c5160fe04,Podolka,50.09462514544125,14.455132393250096,Modern European Restaurant
1145,50.095499999999994,14.4506,50,10,5dc2a82de3fdc20008e3e55a,Woker Karl√≠n,50.095009,14.457459,Asian Restaurant
1146,50.095499999999994,14.4506,50,11,5b55cc2e4420d8002c6ba45e,Vi√™t Ph√¥‚Äô,50.09357978935284,14.451867897623833,Vietnamese Restaurant
1147,50.095499999999994,14.4506,50,12,5bec1e45492822154325f799,Sangam,50.093715477436916,14.448692835290537,Indian Restaurant
1148,50.095499999999994,14.4506,50,13,4cfcd218feec6dcb5c6a4e36,Ji Xiang,50.093335276696244,14.45487517822085,Chinese Restaurant
1149,50.095499999999994,14.4506,50,14,4b68081df964a5209b642be3,Cihelna La Familia,50.091893,14.448897,Italian Restaurant
1150,50.095499999999994,14.4506,50,15,5aa6cdf5db2aeb11003a101d,Knajpiƒçka,50.09420221467381,14.452155073150978,Czech Restaurant
1151,50.095499999999994,14.4506,50,16,4b45e249f964a520a81126e3,Ding Feng,50.09387985778501,14.450462494974422,Chinese Restaurant
1152,50.095499999999994,14.4506,50,17,5d36b685ee95980008d8aead,√î-mai coffee and kitchen,50.094983,14.456254,Coffee Shop
1153,50.095499999999994,14.4506,50,18,4e5390d4fa766dacede62f58,Pizza & Gyros ‚Äì Apetit Quick,50.09376591953278,14.449621451840812,Pizza Place
1154,50.095499999999994,14.4506,50,19,5909b0be898bdc1a41529789,Hanoi Pho,50.092775101990235,14.452987283232615,Vietnamese Restaurant
1155,50.095499999999994,14.4506,50,20,4bbf7da9920eb713ff6b172c,Carllino,50.09325895525867,14.451958639195869,Pizza Place
1156,50.095499999999994,14.4506,50,21,5daed32982355d00075576c4,Aubergine,50.09504,14.456757,Persian Restaurant
1157,50.095499999999994,14.4506,50,22,5e6a13fa4fc6e300088ecc30,Enjoy!,50.0944347,14.4537328,Vietnamese Restaurant
1158,50.095499999999994,14.4506,50,23,4e64a368d164ddd5e6b23593,Yi Yuan,50.09280250815182,14.445723218394097,Chinese Restaurant
1159,50.095499999999994,14.4506,50,24,579e14cb38fadf93f83de78a,Diego pivn√≠ bar,50.094765,14.455231,Beer Bar
1160,50.095499999999994,14.4506,50,25,5b87c79a3abcaf002c67dcf2,Thai Father food truck,50.092652852490126,14.452050749044284,Food Truck
1161,50.095499999999994,14.4506,50,26,5379d575498e13bc91d86941,Olive,50.094114723707136,14.445063289777273,Cafeteria
1162,50.095499999999994,14.4506,50,27,4dff4d84091ab6fff999e1d5,Red Hot Chilli,50.092381329671106,14.45059573296741,Vietnamese Restaurant
1163,50.095499999999994,14.4506,50,28,5ae048bffc9e942a58f485e8,Rag√π Locanda Italiana,50.09252891144636,14.451111537427588,Italian Restaurant
1164,50.095499999999994,14.4506,50,29,5a26782ae1f0aa087cfb6f2c,Burrito Loco,50.09386755798638,14.450204375202615,Burrito Place
1165,50.095499999999994,14.4506,50,30,5d5524d68c55720008d85efb,Queen's kebab,50.092644,14.445225,Kebab Restaurant
1166,50.095499999999994,14.4506,50,31,5b03112b6adbf5003943bb42,Hong Kong Karl√≠n,50.09132844323487,14.452944203319126,Asian Restaurant
1167,50.095499999999994,14.4506,50,32,5f3a570b08e4eb6210e52c33,Golden Ph·ªü,50.0929972,14.4461667,Asian Restaurant
1168,50.095499999999994,14.4506,50,33,5d4169eea6dd5600086b6ad4,Uno Due Tre,50.09478,14.450425,Italian Restaurant
1169,50.095499999999994,14.4506,50,34,5d9372d15f23f50008042e13,Yam Yam,50.09456,14.457213,Thai Restaurant
1170,50.095499999999994,14.4506,50,35,5e53ac8c94ef5f0008b1dccf,Fuku Wok & Sushi,50.095165,14.451802,Asian Restaurant
1171,50.095499999999994,14.4506,50,36,5d55594146156b00083a91cd,Sake Restaurant,50.092625,14.44623,Thai Restaurant
1172,50.095499999999994,14.4506,50,37,5a0c34c95ba0463db00a8ef6,Schnitzel ≈ô√≠zek od babiƒçky,50.092685,14.448479,Czech Restaurant
1173,50.095499999999994,14.4506,50,38,52b2d666498e6a2d118c4b69,Long Fast Food,50.09292092118805,14.446194637080698,Sushi Restaurant
1174,50.095499999999994,14.4506,50,39,5de7f8239ed09900080ab996,Sanduga,50.092011,14.448981,Modern European Restaurant
1175,50.095499999999994,14.4506,50,40,5149f608e4b0994d79ddf53d,gaya,50.09418829559322,14.452266942158479,Korean Restaurant
1176,50.095499999999994,14.4506,50,41,5804a5dd38fa417f84d40564,Di Casa Ristorante,50.09209528877585,14.449310266745732,Italian Restaurant
1177,50.095499999999994,14.4506,50,42,5811d22538fa2a349f526ea0,Sushi Guru,50.094269,14.448998,Sushi Restaurant
1178,50.095499999999994,14.4506,50,43,52fb648a498ee822c44c4fc3,Vietnam bistro,50.09493586601235,14.45558401631374,Vietnamese Restaurant
1179,50.095499999999994,14.4506,50,44,5a0ae43e2347241a944de6cc,Minho,50.092712,14.446002,Caf√©
1180,50.095499999999994,14.4506,50,45,58e371bd84c4ed36c54cf2d9,Hotel Royal Prague RESTAURANT,50.094637,14.451297,Italian Restaurant
1181,50.095499999999994,14.4506,50,46,56507331498e5559fd9b7544,V&J sushi,50.09294,14.45415,Sushi Restaurant
1182,50.095499999999994,14.4506,50,47,5759557b498e96a542eb4f77,Las Adelitas Food Truck,50.094902,14.449652,Mexican Restaurant
1183,50.095499999999994,14.4506,50,48,58c681374ca49b2c8e7b893d,Pizza Robinson,50.094215,14.452604,Italian Restaurant
1184,50.095499999999994,14.4506,50,49,4bea853d61aca59382cb8300,ƒå√≠nsk√° restaurace,50.094036,14.450803,Chinese Restaurant
1185,50.095499999999994,14.465399999999999,4,0,4d4420041ed56dcb8b85ab54,Pizzeria Amfora,50.097013347468064,14.465023423813891,Pizza Place
1186,50.095499999999994,14.465399999999999,4,1,5a5600b228122f3fc29dbe18,Sushi Time,50.09825568169096,14.465771284285369,Sushi Restaurant
1187,50.095499999999994,14.465399999999999,4,2,5e4a6e48850a7a00088985c8,Bean House,50.09716,14.464819,Vietnamese Restaurant
1188,50.095499999999994,14.465399999999999,4,3,5e4528d5f17d040007a419f8,Bean House,50.097443,14.464788,Vietnamese Restaurant
1189,50.095499999999994,14.4802,5,0,4bacc16af964a520a5093be3,Pizza ≈Ωi≈ækov,50.09224607780746,14.481733118111926,Pizza Place
1190,50.095499999999994,14.4802,5,1,5a9d72f00f013c2e7f15ae02,Pasta Love,50.092341587656286,14.480323791503904,Italian Restaurant
1191,50.095499999999994,14.4802,5,2,5072f762e4b01785bad9d5e0,Hotel Apollon,50.091664361826105,14.477215730550256,Hotel
1192,50.095499999999994,14.4802,5,3,4e809b4e77c887df6266f7c6,Balu Kitchen,50.09699792037752,14.477362142098139,Modern European Restaurant
1193,50.095499999999994,14.4802,5,4,4bc765188b7c9c749c5f36cf,U ≈†tud√°ka,50.09226160495385,14.48150632891041,Czech Restaurant
1194,50.095499999999994,14.495,5,0,5b6c21bf61e53b002c77216a,ƒå√≠nsk√° restaurace Tian Jin,50.094715,14.495942,Chinese Restaurant
1195,50.095499999999994,14.495,5,1,5f206910ed76930a9e21758f,Grillinger,50.09233,14.49293,Mediterranean Restaurant
1196,50.095499999999994,14.495,5,2,57f3741d498e0b624767ada4,Restaurace Spojka,50.096509128336756,14.489647150039673,Czech Restaurant
1197,50.095499999999994,14.495,5,3,5ece3691507e0200080868cf,Sidi Bou Said Kebab,50.09228,14.491673,Doner Restaurant
1198,50.095499999999994,14.495,5,4,5197ada5498e8d15d9ec5888,Restaurace Nad Smetankou,50.09413134080614,14.500314594402758,Italian Restaurant
1199,50.095499999999994,14.5098,1,0,4d74b5f0d0c73704369bf317,Dynasty Grand China Restaurant,50.09235191231725,14.51369047164917,Chinese Restaurant
1200,50.095499999999994,14.6578,2,0,4c4330abff711b8d068e1405,Restaurace-Bar Samos,50.099415239685435,14.661062882217362,Mediterranean Restaurant
1201,50.095499999999994,14.6578,2,1,54e87c12498ecdc6df25f46c,Doma,50.09378433227539,14.66403865814209,Austrian Restaurant
1202,50.1055,14.302599999999998,1,0,4f8db929c2eea2e87fd4692e,REsturace,50.10252406395657,14.29821252822876,Caf√©
1203,50.1055,14.347,1,0,4da19a8c9aa4721e42e7fd19,Chorvatsk√Ω Ml√Ωn,50.10593563822663,14.35332487553105,Mediterranean Restaurant
1204,50.1055,14.3766,1,0,5f664cec9ab9ea1062d8ee35,Restaurace Na P√≠sk√°ch,50.1069981,14.3744481,Czech Restaurant
1205,50.1055,14.391399999999999,19,0,4b459de7f964a5209a0e26e3,U Pƒõtn√≠ka,50.10441700560075,14.396285246695028,Pub
1206,50.1055,14.391399999999999,19,1,4adcdaa2f964a5201a4e21e3,Grosseto,50.1031,14.395516,Italian Restaurant
1207,50.1055,14.391399999999999,19,2,517e5222498eb2ed94232827,Mei Li Cheng,50.107495189972845,14.394509023890835,Chinese Restaurant
1208,50.1055,14.391399999999999,19,3,4ce96459678aa0938dffedea,Cai Shen,50.10496803315675,14.394773125398393,Chinese Restaurant
1209,50.1055,14.391399999999999,19,4,599b07f8efa82a1384523e3a,Symphonia Restaurant & Garden,50.108712,14.393362,Modern European Restaurant
1210,50.1055,14.391399999999999,19,5,4f407d6be4b062d5cbbbec38,Xin tian di,50.10895171045241,14.393758350278569,Chinese Restaurant
1211,50.1055,14.391399999999999,19,6,593261d246e1b65279f0d53e,B√°nh M√¨ Makers,50.101651,14.393599,Vietnamese Restaurant
1212,50.1055,14.391399999999999,19,7,5adb02ccb9ac38157efeb441,TamarindTree,50.101395,14.393519,Dim Sum Restaurant
1213,50.1055,14.391399999999999,19,8,52d5ad1c11d24a85666354ea,Kebab Star & Pizza,50.10674587439669,14.394538601188406,Doner Restaurant
1214,50.1055,14.391399999999999,19,9,4f619e4be4b024e6f7250c25,Halu≈°ka - rychl√© obƒçerstven√≠,50.106606,14.394741,Eastern European Restaurant
1215,50.1055,14.391399999999999,19,10,4cce9faac0378cfacb9a9448,Restaurace Harvest Room,50.1092632814225,14.393557114713637,Eastern European Restaurant
1216,50.1055,14.391399999999999,19,11,59fda476286fda1f005e6b33,La Piada,50.101616,14.393582,Italian Restaurant
1217,50.1055,14.391399999999999,19,12,5bda1a71b37e2b002c5a7681,D√∂ner Kebab U Profesora,50.10473,14.39457,Doner Restaurant
1218,50.1055,14.391399999999999,19,13,5b8a65aabcbf7a002cbf08a3,#Milujupadthai,50.101524,14.393255,Thai Restaurant
1219,50.1055,14.391399999999999,19,14,5cc41ecebb8d360039538ed4,Yara Street Food,50.101574,14.393499,Food Stand
1220,50.1055,14.391399999999999,19,15,4bbc5c5eed7776b044863f51,Pizzerie La Fontanella,50.10563102606171,14.388828277587889,Pizza Place
1221,50.1055,14.391399999999999,19,16,59200c0369e77b1dcc6a8f08,Pelme≈à√°rna,50.10148,14.393807,Food Stand
1222,50.1055,14.391399999999999,19,17,52aaf0d611d22b9758681cff,Caishen,50.10502891736624,14.394546747207642,Chinese Restaurant
1223,50.1055,14.391399999999999,19,18,5f425322efd54d528e89dba3,Restaurant Champa,50.1048067,14.3945808,Vietnamese Restaurant
1224,50.1055,14.4062,8,0,4bacf747f964a5200a1f3be3,Na Urale,50.10261389420258,14.40237485667795,Czech Restaurant
1225,50.1055,14.4062,8,1,599b2ae883e38014d80c31b2,V zahradƒõ,50.10344961430371,14.408362115141761,Modern European Restaurant
1226,50.1055,14.4062,8,2,57dfc29a498e476f04e1956d,Ha Noi,50.102781,14.40208,Vietnamese Restaurant
1227,50.1055,14.4062,8,3,4b02e540f964a520c44a22e3,U Pramene,50.10787799922806,14.402248408149577,Czech Restaurant
1228,50.1055,14.4062,8,4,5a1fc5ff1543c73bdd9b1eb2,Bistro Na b≈ôehu Rh√¥ny,50.10258404599385,14.402782229568231,French Restaurant
1229,50.1055,14.4062,8,5,4fe45feee4b037f4b6240680,Rusk√© speciality,50.103118896484375,14.402202606201172,Eastern European Restaurant
1230,50.1055,14.4062,8,6,538efab4498ec07320c6bdfe,restaurace U Libora,50.101652,14.408983,Czech Restaurant
1231,50.1055,14.4062,8,7,4d565a3d143ca0932f35bafc,Cantina Etrusca,50.10263055,14.40282807,Italian Restaurant
1232,50.1055,14.421,2,0,520b633111d25cde862eb9cb,Masala,50.101213,14.421612,Indian Restaurant
1233,50.1055,14.421,2,1,4bd5da68cfa7b7135c8c26da,ƒå√≠nsk√° zahrada,50.10116383415903,14.421882785480824,Chinese Restaurant
1234,50.1055,14.435799999999999,11,0,528bcbf311d263348e766d98,Valcha Hole≈°ovice,50.103762,14.432068,Czech Restaurant
1235,50.1055,14.435799999999999,11,1,599dc7788d0a5373f480b66f,Ali Baba Kebap,50.10145255828854,14.433411955833435,Doner Restaurant
1236,50.1055,14.435799999999999,11,2,5b326e0f12c8f0002c5f691d,Restaurace U Kohouta,50.102564,14.433873,Czech Restaurant
1237,50.1055,14.435799999999999,11,3,50589e4890e7b6323af625e0,Vietnam fast food SH,50.10254,14.433081,Vietnamese Restaurant
1238,50.1055,14.435799999999999,11,4,4c41e10f520fa593c544caac,Le Kou Fu,50.10226470876747,14.434174903502608,Chinese Restaurant
1239,50.1055,14.435799999999999,11,5,5ec2921c601d25000871fafa,Tepl√° kaƒçka,50.10122,14.433831,Asian Restaurant
1240,50.1055,14.435799999999999,11,6,5ceda7eda22db7002c269e80,Cali Brothers,50.102877069556556,14.432719945907591,New American Restaurant
1241,50.1055,14.435799999999999,11,7,5cab91c9c0c0840025477eeb,Na≈°e Sushi,50.10254,14.4352255,Sushi Restaurant
1242,50.1055,14.435799999999999,11,8,59c4d46ea5a315336a70737d,Classe Italia Ristorante,50.10788,14.436831,Italian Restaurant
1243,50.1055,14.435799999999999,11,9,4adcdaa2f964a5203d4e21e3,Essensia,50.101780363066176,14.436714006433338,Indian Restaurant
1244,50.1055,14.435799999999999,11,10,54044b69498eeb9671c8904e,Sushi Slunce,50.10252939724697,14.432486637976188,Vietnamese Restaurant
1245,50.1055,14.4506,38,0,5acb782fe65d0c7dca69aeda,C√† Ph√™,50.10523,14.449247,Caf√©
1246,50.1055,14.4506,38,1,582305c6cd49d23701b0cae5,U Holi≈°e,50.10495131371034,14.447686276001434,Czech Restaurant
1247,50.1055,14.4506,38,2,541fef71498ebd85fad54c67,Hole≈°ovick√° Kozlovna,50.102931,14.448617,Czech Restaurant
1248,50.1055,14.4506,38,3,5af2feeae96d0c0039052415,Bento,50.10229923037809,14.45000330239313,Vietnamese Restaurant
1249,50.1055,14.4506,38,4,5ed7883343c75900072d1fc4,Restaurace Pod P√°rou,50.107151,14.453601,Czech Restaurant
1250,50.1055,14.4506,38,5,517e3b28e4b0eef58378b483,ThanhTam,50.103214213069904,14.447243335251962,Vietnamese Restaurant
1251,50.1055,14.4506,38,6,5b85670a123a19002c1895d2,The Eatery,50.107398351569906,14.450885966258635,Modern European Restaurant
1252,50.1055,14.4506,38,7,5163ecfae4b0d9e61549b577,Express Kebab,50.10768544039791,14.448094941399408,Doner Restaurant
1253,50.1055,14.4506,38,8,5dd2e2625c10a80008c7906f,Ph·ªü C&A,50.103336,14.446793,Vietnamese Restaurant
1254,50.1055,14.4506,38,9,5b5a2a02bcbf7a0039928607,Burrito Loco,50.10250148867665,14.450042765473103,Burrito Place
1255,50.1055,14.4506,38,10,57627d6fcd105ec5e345e711,Haru,50.10770968135594,14.4546489750782,Sushi Restaurant
1256,50.1055,14.4506,38,11,5b15032b25ecca002c0625d5,Pho 559,50.103305091856456,14.451752810560087,Vietnamese Restaurant
1257,50.1055,14.4506,38,12,4fcca2d6e4b0bd7c57e14bb2,Restaurace a pivovar Marina,50.10608915544295,14.456544044618804,Brewery
1258,50.1055,14.4506,38,13,5db2cc316eac3900081f82e9,Los Sal√°tos,50.103335,14.450152,Salad Place
1259,50.1055,14.4506,38,14,5482337d498e314a74d0c41c,U N√°s - Restaurace,50.1071186294362,14.453966564958401,Czech Restaurant
1260,50.1055,14.4506,38,15,58e38100a370b949d8fcf3a4,banh‚Äîmi‚Äîba,50.1054703503769,14.456292402940582,Vietnamese Restaurant
1261,50.1055,14.4506,38,16,4b6c0a35f964a520e1202ce3,Restaurace V Domovƒõ,50.10662860014219,14.452634821658092,Eastern European Restaurant
1262,50.1055,14.4506,38,17,57fdf5e0498e9d04889497a7,SUSHI v DUSHI,50.10431975180434,14.454572097136053,Sushi Restaurant
1263,50.1055,14.4506,38,18,4bb229d8f964a5201dbf3ce3,Fu Da,50.105689516217325,14.449617862701416,Chinese Restaurant
1264,50.1055,14.4506,38,19,5ba3872092e7a9002c2ae545,Hurry Curry,50.103884510402814,14.452664268583392,Indian Restaurant
1265,50.1055,14.4506,38,20,5f283b9cf892461133f47457,Yardie,50.10266,14.45291,Food Stand
1266,50.1055,14.4506,38,21,5ceadffa7b4669002b384341,Bistrot Puglia,50.10775382890469,14.450165033340452,Italian Restaurant
1267,50.1055,14.4506,38,22,5e99820e6424ba00070283f8,Phoenix,50.104416,14.449993,Asian Restaurant
1268,50.1055,14.4506,38,23,4e5e0a98d4c08cf7f5874f0b,ƒåesk√° j√≠delna,50.10481557659089,14.449908238360802,Czech Restaurant
1269,50.1055,14.4506,38,24,5bb9d916e1f0aa002ccc5cd4,Kebab,50.103495,14.450153,Kebab Restaurant
1270,50.1055,14.4506,38,25,53822982498e15919e92a1eb,Pizzerie Puccelini,50.102034025126706,14.452589784605166,Italian Restaurant
1271,50.1055,14.4506,38,26,5ad0a2f2c0cacb295ca67c5e,Super Doner Kebab,50.102221,14.449866,Doner Restaurant
1272,50.1055,14.4506,38,27,57dfaf3b498e727c9f5028da,Tacos y Burritos,50.10875898634539,14.452705192751637,Food Truck
1273,50.1055,14.4506,38,28,51387c1be4b0245fe0f6a8f2,Natomash,50.105096909519446,14.452475652982034,Sushi Restaurant
1274,50.1055,14.4506,38,29,56b63dc2498ebb73c6023dad,Opera Prague Restaurant & Bar,50.10959823356135,14.45092543957711,Czech Restaurant
1275,50.1055,14.4506,38,30,586e3fddef46945cba96b662,Kebabƒçi,50.103543,14.449994,Doner Restaurant
1276,50.1055,14.4506,38,31,4d6e38c024b56ea896cbfcfb,Xing Wang,50.10239333385018,14.450071668510523,Chinese Restaurant
1277,50.1055,14.4506,38,32,4b98c8a9f964a5206f4f35e3,Cheng-guang,50.10332804761148,14.452636157118622,Chinese Restaurant
1278,50.1055,14.4506,38,33,4d557beffb65236adf10fab3,Porto's,50.105364,14.455853,Italian Restaurant
1279,50.1055,14.4506,38,34,534d07f1498e86be442939ef,Bistro ≈†pajzka,50.102684020996094,14.452651977539062,Czech Restaurant
1280,50.1055,14.4506,38,35,5cac87b1b9a5a8002cb28401,Mr Wok,50.107152,14.453431,Asian Restaurant
1281,50.1055,14.4506,38,36,53a1716c498e9d35d25d17ec,C√≠sa≈ôsk√° zahrada,50.10752758729405,14.450269920967518,Chinese Restaurant
1282,50.1055,14.4506,38,37,5ee7a3f57d243b0008dddb99,la cucina,50.1019933,14.4510392,Italian Restaurant
1283,50.1055,14.465399999999999,4,0,5d9f41312a8a86000851c07b,Kolkovna Dock,50.104593,14.469268,Czech Restaurant
1284,50.1055,14.465399999999999,4,1,5dbc0e461b29440007df0550,WraP ‚Äòn Roll,50.102318,14.468145,Asian Restaurant
1285,50.1055,14.465399999999999,4,2,51c3527e498eaf8df0aa932d,Meteor Praha Restaurace,50.108977418726674,14.467461525982865,Eastern European Restaurant
1286,50.1055,14.465399999999999,4,3,5593c064498e74a35a087e5a,Torino,50.10567121232527,14.470004997758956,Italian Restaurant
1287,50.1055,14.4802,17,0,57e17c24cd106ef05e1663d7,Namaste India,50.10584671592584,14.47692654445668,Indian Restaurant
1288,50.1055,14.4802,17,1,4afeb523f964a520013022e3,Curry House,50.10333909730317,14.474617364421995,Indian Restaurant
1289,50.1055,14.4802,17,2,57190747cd104e591eb8ed2c,Palmovka Kebab,50.10380973863119,14.474464458511335,Doner Restaurant
1290,50.1055,14.4802,17,3,4b049011f964a520355522e3,La Palma,50.10573483508487,14.47628990470391,Italian Restaurant
1291,50.1055,14.4802,17,4,500d2e91e4b093845411eb28,C&P,50.10327914259069,14.47492817513634,Vietnamese Restaurant
1292,50.1055,14.4802,17,5,4bd0453841b9ef3bfab7f9e5,Yi Xiang Ge,50.1057478,14.48570972857143,Chinese Restaurant
1293,50.1055,14.4802,17,6,5028040de4b0a90de2f05466,Yu Xiang Lou,50.10521385155661,14.474074244499205,Chinese Restaurant
1294,50.1055,14.4802,17,7,4adcdaa2f964a5200d4e21e3,G√≥vinda,50.10517052467836,14.473721004143234,Vegetarian / Vegan Restaurant
1295,50.1055,14.4802,17,8,4b96c532f964a52078e334e3,Shun Li,50.105194067933155,14.474261999130249,Chinese Restaurant
1296,50.1055,14.4802,17,9,573c8e0b498e6f78c4b69142,P≈ô√≠zem√≠,50.10545288101438,14.479013547332379,Czech Restaurant
1297,50.1055,14.4802,17,10,53f48727498ebc81522284e6,Country Saloon,50.102223,14.475398,Czech Restaurant
1298,50.1055,14.4802,17,11,54b7ef74498e8bcbb2e90088,Trattoria Angela,50.10318110680429,14.478233710307967,Italian Restaurant
1299,50.1055,14.4802,17,12,4c95e35882b56dcb75dadcaa,ƒå√≠nsk√° Zahrada,50.10528047557062,14.474846931330722,Asian Restaurant
1300,50.1055,14.4802,17,13,5bdeeccf4c954c002c1e65c4,Masami,50.104275,14.478445,Sushi Restaurant
1301,50.1055,14.4802,17,14,4e81fd52823119f1760b9455,Gyros Venu≈°e,50.10420444,14.47476566,Greek Restaurant
1302,50.1055,14.4802,17,15,55f82264498ec5ffb151c4dd,Krocan√≠ Hn√≠zdo,50.105897900758514,14.473872424708953,Turkish Restaurant
1303,50.1055,14.4802,17,16,4cef89014cd4236a7fffb263,Restaurace D≈ôev√°k,50.10562589705652,14.4785909506585,Pub
1304,50.1055,14.495,28,0,5540810a498e63aa0fe3db6f,≈†nyt,50.10724652155612,14.49060469865799,Czech Restaurant
1305,50.1055,14.495,28,1,54369791498e5eeeb3320df4,Mexicali Mercado,50.105987713858674,14.491711972415569,Imported Food Shop
1306,50.1055,14.495,28,2,4bb0f862f964a520e86e3ce3,≈†vejk restaurant U Br√°zd≈Ø,50.10670162115094,14.48865982800453,Czech Restaurant
1307,50.1055,14.495,28,3,4b88fc90f964a520ce1632e3,Cerreto,50.10705794949289,14.489156286150138,Pizza Place
1308,50.1055,14.495,28,4,57a1cb07498e401d22d7f128,Chef Sultan,50.109665,14.497605,Indian Restaurant
1309,50.1055,14.495,28,5,4cdbd8c2958f236a3f13af03,Texicana,50.104118765868556,14.490918722918291,Burrito Place
1310,50.1055,14.495,28,6,4cebfe4f595cb1f7f639dc14,Kyoto,50.10404188547108,14.49143313180043,Sushi Restaurant
1311,50.1055,14.495,28,7,5dca8ddcf80a3f0008cdf4c0,GO[O]D FOOD,50.103973,14.489678,Asian Restaurant
1312,50.1055,14.495,28,8,59df43d567a9fe39ca40c27b,U Peck≈Ø,50.10912203212798,14.498589634895323,Czech Restaurant
1313,50.1055,14.495,28,9,5b819b33b9a5a8002c6a80ad,Kebab House,50.10705885356809,14.492130875587463,Turkish Restaurant
1314,50.1055,14.495,28,10,5f46ae1a453479399a54320f,The Hummus Bar,50.105171,14.488023,Mediterranean Restaurant
1315,50.1055,14.495,28,11,58d4032c02b60e1dc64b62b6,Satyam,50.10408306680071,14.490845474956851,Indian Restaurant
1316,50.1055,14.495,28,12,4d36e7e14d8a6dcb2919653f,Felfella,50.10416154657943,14.490792223143744,Mediterranean Restaurant
1317,50.1055,14.495,28,13,5150923de4b045dfb58ef5dc,Vistar Fast Food,50.10588622688393,14.490247255250878,Vietnamese Restaurant
1318,50.1055,14.495,28,14,5efc7cb9bc546e00083e2973,La Patrona,50.10418,14.490827,Taco Place
1319,50.1055,14.495,28,15,5f117723eeff8d4a92cb9726,Grill Grill,50.104137,14.490671,BBQ Joint
1320,50.1055,14.495,28,16,5eccf27d4c66cb0008544bf1,Phol·∫Ωvka,50.10377,14.490415,Vietnamese Restaurant
1321,50.1055,14.495,28,17,5eda1f3d357a390008356d46,Ph·ªü Anh Tuan,50.10574,14.490273,Vietnamese Restaurant
1322,50.1055,14.495,28,18,5cf7c9e6f5e9d7002c24ab8f,Running Sushi,50.10411,14.490964,Sushi Restaurant
1323,50.1055,14.495,28,19,4d7a30fef29ab60cdd9bf80a,ƒåerven√© Jablko,50.104139138668124,14.490680196550455,Asian Restaurant
1324,50.1055,14.495,28,20,4da5f6ee8154a54251c3f541,Prima ba≈°ta,50.10419920346776,14.490512618203862,Czech Restaurant
1325,50.1055,14.495,28,21,4efdce294690f6ece83f0938,Cinska Restaurace,50.10382045568637,14.496854427056503,Chinese Restaurant
1326,50.1055,14.495,28,22,508fcaede4b0e6b4428ca4b0,Sajado,50.10413159569479,14.491110210319034,Chinese Restaurant
1327,50.1055,14.495,28,23,4cd28a4883e0721e237e5797,Pizza Bar Triangolo,50.10575488748324,14.490309655666351,Pizza Place
1328,50.1055,14.495,28,24,5cb843bd18d43b002c5a370c,Tombik,50.10683242532897,14.489459395408629,Doner Restaurant
1329,50.1055,14.495,28,25,51838fd6498e0f16602ed194,German Togo,50.104198,14.49102,German Restaurant
1330,50.1055,14.495,28,26,4d3b2ab36de7721e1dfbf549,China Fastfood,50.10414092847954,14.491012997938501,Chinese Restaurant
1331,50.1055,14.495,28,27,4b4c59cdf964a52057b126e3,Fu Le,50.107518489822084,14.490819818638506,Chinese Restaurant
1332,50.1055,14.5098,1,0,5bb4fd96f4b525002c1a27a7,You & Me,50.102905,14.5100975,Vietnamese Restaurant
1333,50.1055,14.5394,2,0,4b605c57f964a520b5e129e3,Ying Bin Lou,50.10616402617737,14.537524790550851,Asian Restaurant
1334,50.1055,14.5394,2,1,4df8d4b162847bdf4fed73d3,Restaurace Rajsk√° Zahada,50.107393274717744,14.543555380202928,Eastern European Restaurant
1335,50.1055,14.5542,6,0,4bf2cdd46991c9b6cc8429e9,Positano,50.108754579052714,14.557243548898946,Italian Restaurant
1336,50.1055,14.5542,6,1,4d8c735e8969a35dd1184d8c,Restaurace Asia,50.10566285485465,14.558643574247943,Asian Restaurant
1337,50.1055,14.5542,6,2,4d36e88b4f36a143be393e27,Sochi,50.1058530950666,14.556261476905657,Caucasian Restaurant
1338,50.1055,14.5542,6,3,54a7ec45498ea948a441ea4a,Hospoda U Volody,50.105096842864015,14.547901700928517,Czech Restaurant
1339,50.1055,14.5542,6,4,4bd6b70029eb9c74d27295e1,Hotel Diana,50.10551657881561,14.554687880514829,Eastern European Restaurant
1340,50.1055,14.5542,6,5,5f709f9199b067634156ff49,Pal√°c Food,50.105595,14.5587845,Chinese Restaurant
1341,50.1055,14.568999999999999,2,0,5aea003fff0306003920f932,Hokejka Restaurace,50.105495,14.574836,Czech Restaurant
1342,50.1055,14.568999999999999,2,1,58af5d2cac329112133bac8c,Hokejka,50.104778,14.574677,Modern European Restaurant
1343,50.1055,14.5838,14,0,4f098471e4b08f5249d4f5ac,IKEA restaurace,50.104157329936314,14.587643539275836,Scandinavian Restaurant
1344,50.1055,14.5838,14,1,59d768d6e1f0aa52972c0695,Restaurace Globus,50.10808776805968,14.585905513800725,Czech Restaurant
1345,50.1055,14.5838,14,2,514c6a95e4b00eabdf0422fe,Running Sushi Sumo,50.108660477079475,14.58594264502965,Sushi Restaurant
1346,50.1055,14.5838,14,3,57d980ea498eae01500b63c0,Spicymama,50.108822304775146,14.584675474440616,Vietnamese Restaurant
1347,50.1055,14.5838,14,4,5a744a5e35811b1082d3eb1c,Thai Thai,50.10864727324514,14.585840365737806,Thai Restaurant
1348,50.1055,14.5838,14,5,5ce30dd14aa3f8002c81923a,Bombay Express,50.108856,14.585361,Indian Restaurant
1349,50.1055,14.5838,14,6,516198a1e4b05eefc69076d1,≈†mak ƒåesk√© kuchynƒõ,50.10865727017036,14.585913492790604,Fast Food Restaurant
1350,50.1055,14.5838,14,7,5dfd03fad4a5490008ad6a13,Jambol,50.108284,14.57984,Asian Restaurant
1351,50.1055,14.5838,14,8,514df085e4b07af147d9108a,Rancheros,50.10871141360853,14.585884926202972,Mexican Restaurant
1352,50.1055,14.5838,14,9,51acbe37498ea2cebec55a40,Pizza Buono,50.10843781757968,14.585746122425146,Pizza Place
1353,50.1055,14.5838,14,10,4f158b40e4b0380206bc4ecf,Hong Xia,50.107275267646166,14.579623368595284,Chinese Restaurant
1354,50.1055,14.5838,14,11,51c74b29498e8a3a7304baa6,July 10,50.10771889999999,14.5854677,Italian Restaurant
1355,50.1055,14.5838,14,12,5aa6641c1755621d76889d08,Sushi Time  Kiosk,50.107753,14.585295,Sushi Restaurant
1356,50.1055,14.5838,14,13,4c83ce0974d7b60c6fdf8cd8,Pizzeria Amfora,50.10706005428442,14.579195510228363,Italian Restaurant
1357,50.1155,14.3766,1,0,5ca22f41603d2a002c536c62,U Matƒõje,50.11307617081543,14.379918835048484,Czech Restaurant
1358,50.1155,14.391399999999999,2,0,59b3db309e3b6542bdcfb50f,DC - Omaha,50.113845,14.389263,Vietnamese Restaurant
1359,50.1155,14.391399999999999,2,1,4ddb88ec1f6e9b46a1257b88,ƒå√≠nsk√© bistru Fu Gui,50.112309,14.395378,Chinese Restaurant
1360,50.1155,14.4062,1,0,51b46761498ee77bf3d349c4,Gulab,50.11883178712404,14.4074950465933,Cafeteria
1361,50.1155,14.421,1,0,4b83ba8af964a520700e31e3,Del Corso,50.11688995702663,14.42241418161282,Italian Restaurant
1362,50.1155,14.4506,1,0,5b2ac4eb1acf11002c2b725e,Sunflower,50.11730871716758,14.456728398799896,Vietnamese Restaurant
1363,50.1155,14.465399999999999,5,0,4bb3a378eb3e9521b96dcb0a,Pivovar u Bulovky (Richter Brewery),50.115146604013376,14.466287618735015,Brewery
1364,50.1155,14.465399999999999,5,1,5947a870db1d815a3bc3aaa1,Restaurace a penzion Kor√°b,50.11326640376875,14.467521568295782,Modern European Restaurant
1365,50.1155,14.465399999999999,5,2,5465e7b1498eb1342cc6f2d4,Obƒçerstven√≠ u bulovky Pho,50.116024,14.467206,Vietnamese Restaurant
1366,50.1155,14.465399999999999,5,3,51d72310498ebac676d7833c,Na Kor√°bƒõ,50.114792206835226,14.470457860083252,Czech Restaurant
1367,50.1155,14.465399999999999,5,4,564b2101498e178a0608b577,restaurace U ƒçerta,50.11583650938579,14.470831930463618,Czech Restaurant
1368,50.1155,14.4802,3,0,4be868c488ed2d7fcfd6cb1d,Xin Fu,50.114356199011326,14.473549122017182,Chinese Restaurant
1369,50.1155,14.4802,3,1,540b04cb498e9f263131e337,Balk√°nsk√° restaurace,50.11539077758789,14.473868370056152,Eastern European Restaurant
1370,50.1155,14.4802,3,2,4c7797aeb4b4b60c4505280e,Restaurace U Peka≈ôky,50.11498030955466,14.478780016207399,Czech Restaurant
1371,50.1155,14.495,2,0,56e9b468498efa2ec978dd04,Michelle Sushi,50.118469822051686,14.499952735337047,Sushi Restaurant
1372,50.1155,14.495,2,1,53ea4c3a498ea715866301a7,SmartSushi,50.117026871724235,14.495778281275543,Japanese Restaurant
1373,50.1155,14.5098,1,0,5150a114e4b069b91ca7ad33,Beznoska Minipivovar,50.117515052513106,14.507195639640727,Brewery
1374,50.1155,14.5986,6,0,4af530e6f964a5208ef821e3,La Trattoria Turbanti,50.11250927592227,14.59636848166136,Italian Restaurant
1375,50.1155,14.5986,6,1,51719331e4b016605a330fcd,≈†pejchar,50.11184514456662,14.596894783447375,Czech Restaurant
1376,50.1155,14.5986,6,2,4d7b5feeda568cfa3b584fff,Jin Man Tang,50.11258307021261,14.594851257224793,Chinese Restaurant
1377,50.1155,14.5986,6,3,5819d296e5025f0b4736765f,Swaad,50.111794,14.596329,Indian Restaurant
1378,50.1155,14.5986,6,4,517564e3e4b049eeb4f36639,Atelier Fiala - Restaurace ≈†pejchar,50.111823644884765,14.597747337304133,American Restaurant
1379,50.1155,14.5986,6,5,59319e6fa5a3154fb14fbd17,Curry & tikka,50.11186842675959,14.596994519233702,Indian Restaurant
1380,50.1155,14.6134,4,0,5183d43d498e2d96389b1ab4,Praga Arena,50.11648714265728,14.606611529560931,Go Kart Track
1381,50.1155,14.6134,4,1,4e917912722ebb868c16a351,Chong Fa Jiu Dian,50.11470264416054,14.608745198164694,Chinese Restaurant
1382,50.1155,14.6134,4,2,506ebbefe4b002a940030f9f,Cinska Restaurace,50.114745,14.608882,Chinese Restaurant
1383,50.1155,14.6134,4,3,50ef338be4b098414e6c6e62,D√∂ner kebab,50.11224538734137,14.618132184343363,Turkish Restaurant
1384,50.1155,14.6282,1,0,541857c5498ebf6212ae835f,Xin Fu,50.11799801365035,14.628786655179466,Asian Restaurant
1385,50.125499999999995,14.287799999999999,1,0,5aff06f1531593002c8c04cc,La Pasteria,50.12659,14.28143,Italian Restaurant
1386,50.125499999999995,14.4062,1,0,57e54739498e67494510c2a0,sushi,50.123363,14.4087,Sushi Restaurant
1387,50.125499999999995,14.421,6,0,5c5dd006610f04002cf1648f,Sola Enotria,50.127354,14.417475,Italian Restaurant
1388,50.125499999999995,14.421,6,1,5275066f11d2462ff8b22dfb,ƒåerven√Ω Kor√°l,50.127685355271915,14.417831164097514,Asian Restaurant
1389,50.125499999999995,14.421,6,2,5c65c312d9051600257e0d56,Running Sushi Yumi,50.12757,14.418155,Sushi Restaurant
1390,50.125499999999995,14.421,6,3,55e9d3c5498e930c90c7b1ea,Grill & Sushi bar,50.127750970020216,14.421870179071776,Asian Restaurant
1391,50.125499999999995,14.421,6,4,5f2e8fd08f1a825ad35f11e2,Prima ba≈°ta,50.12758,14.41799,Czech Restaurant
1392,50.125499999999995,14.421,6,5,529f5d5711d2a8f85e2170a3,Pal√°c Food,50.127662494758255,14.417706703737663,Chinese Restaurant
1393,50.125499999999995,14.4506,8,0,57111b38498eabd0f462722c,Samarkand Kebab,50.12288719718183,14.456060319538972,Doner Restaurant
1394,50.125499999999995,14.4506,8,1,557868bf498eb5276d6d514d,FIGO pizza&pasta,50.125224029891285,14.444977323316117,Italian Restaurant
1395,50.125499999999995,14.4506,8,2,5df8fda4059a360009940f07,Ph·ªü ≈†utka,50.125574,14.444414,Vietnamese Restaurant
1396,50.125499999999995,14.4506,8,3,5e568c1702591a00083f0102,Habibi Bistro,50.124184,14.456703,Falafel Restaurant
1397,50.125499999999995,14.4506,8,4,5b3c9b8fbed483002c68104a,U Cihelny,50.126635,14.454711,Czech Restaurant
1398,50.125499999999995,14.4506,8,5,560695d5498e96c1a2c9320d,Bulharska restaurace Hercovka,50.122094,14.450656,Bulgarian Restaurant
1399,50.125499999999995,14.4506,8,6,5395e405498e085ff3c216f3,Hosp≈Ødka Hercovka,50.12207136420092,14.450277558559852,Eastern European Restaurant
1400,50.125499999999995,14.4506,8,7,4baf5b39f964a520f5f93be3,Dong Hai,50.127068,14.456671,Chinese Restaurant
1401,50.125499999999995,14.465399999999999,9,0,4f759cf5e4b0613b062966b5,Nhat Hai,50.127302590816214,14.467984672105256,Asian Restaurant
1402,50.125499999999995,14.465399999999999,9,1,5a2935fed552c750d220e281,Viet Thai,50.126615,14.469598,Vietnamese Restaurant
1403,50.125499999999995,14.465399999999999,9,2,51dd3922498e0b05c591dd61,J√≠delna AV ƒåR U Slovanky,50.125334,14.467643,Eastern European Restaurant
1404,50.125499999999995,14.465399999999999,9,3,596a444950a6f07512e6b2bb,INTRE,50.12769050864261,14.45994973182678,Italian Restaurant
1405,50.125499999999995,14.465399999999999,9,4,4cf8ce1195153704ab785e89,Sanghaj,50.124623333082795,14.46863331207168,Chinese Restaurant
1406,50.125499999999995,14.465399999999999,9,5,4efb1c8ed3e354f0c06010cb,Shanghai restaurace,50.12662687546478,14.469930243863686,Asian Restaurant
1407,50.125499999999995,14.465399999999999,9,6,4e0de297a8099e152602eb01,K. O. bar restaurant,50.12821188798522,14.460807468494522,Gastropub
1408,50.125499999999995,14.465399999999999,9,7,58db98c7a4367c4e6c15ba24,ƒå√≠na Na L√°dv√≠,50.125999,14.469311,Chinese Restaurant
1409,50.125499999999995,14.465399999999999,9,8,56d99dfa498e2500916e92c9,Asian kingdom,50.128462,14.46118,Vietnamese Restaurant
1410,50.125499999999995,14.4802,3,0,57fbc600498edae0e2a68ee9,Svatoj√°nsk√Ω Dv≈Ør,50.124939982928474,14.482809491333342,Czech Restaurant
1411,50.125499999999995,14.4802,3,1,55c8cbc6498ec4096190ecfd,POD Vƒö≈Ω√ç,50.1252,14.4732,Czech Restaurant
1412,50.125499999999995,14.4802,3,2,4bc6e7d10050b7133bb9b73b,Bei Dai He,50.12773534469688,14.476332338958173,Chinese Restaurant
1413,50.125499999999995,14.495,6,0,4ea061f99a5229904cc2c1ce,Restaurant Plnej pek√°ƒç,50.12472611178807,14.494613948310246,Czech Restaurant
1414,50.125499999999995,14.495,6,1,5c04635bff0306002d8c5b03,Srdcovka Prosek,50.123033081849606,14.496815428279398,Czech Restaurant
1415,50.125499999999995,14.495,6,2,4dd8fe98d1647fcf3e704fc2,Gusto Giusto,50.12531374039801,14.493516106414859,Italian Restaurant
1416,50.125499999999995,14.495,6,3,50c48e6fe4b0e121088a38f4,Asian Bistro,50.12130819364814,14.493672872172283,Vietnamese Restaurant
1417,50.125499999999995,14.495,6,4,5ad3d8ad95a7226989834c17,Doner Kebab,50.12529,14.494709,Doner Restaurant
1418,50.125499999999995,14.495,6,5,51e5892e498e7deddc240f37,U Plotny,50.12508770726615,14.499551749608464,Cuban Restaurant
1419,50.125499999999995,14.5098,4,0,5a228ffa3ba7676492fa6c1c,Restaurace Lovosick√°,50.124012,14.505476,Czech Restaurant
1420,50.125499999999995,14.5098,4,1,50054b12e4b069fdd83812ae,U Huberta,50.124022566590405,14.505463351894534,Vietnamese Restaurant
1421,50.125499999999995,14.5098,4,2,502e7ccce4b0504d9de7349a,Knorrohrad,50.122822373238755,14.505184221881086,Vietnamese Restaurant
1422,50.125499999999995,14.5098,4,3,56b606c7498e123dcaf225bb,Palma Huong Tien U Huberta,50.12432353568895,14.506106377082885,Vietnamese Restaurant
1423,50.125499999999995,14.5542,1,0,4f50aa89e4b0e4085202ae9b,"Dom√°c√≠ Stravov√°n√≠ ""U Mr√°z≈Ø""",50.129018317425945,14.558567991313575,Eastern European Restaurant
1424,50.125499999999995,14.568999999999999,1,0,4bffa48cc30a2d7f1733111d,Periferia Trattoria,50.12556397936109,14.57158275412113,Italian Restaurant
1425,50.125499999999995,14.6282,3,0,5829c29687d6d938708bedca,Hero Bistro,50.124607,14.622841,Asian Restaurant
1426,50.125499999999995,14.6282,3,1,4e451a2b52b18fcc79a29563,Turbanti,50.12470279781202,14.62187781360814,Italian Restaurant
1427,50.125499999999995,14.6282,3,2,5ca1d69fc47cf9002cbf04a8,Viet Food,50.124759,14.622208,Vietnamese Restaurant
1428,50.13549999999999,14.332199999999998,1,0,5971da216eda0232f83d70ea,Raviola Cafe,50.13379,14.336203,Bistro
1429,50.13549999999999,14.347,1,0,56dc7ae8cd103af3db3217e3,ƒåesk√° kuchynƒõ,50.137220085073395,14.344101237726434,Czech Restaurant
1430,50.13549999999999,14.3766,3,0,4bafb582f964a520be193ce3,Cr√™perie Caf√© Girafe,50.133614,14.376899,Creperie
1431,50.13549999999999,14.3766,3,1,5c7966a87dc9e1002c631886,Kebab Ibrahim,50.133293,14.376043,Turkish Restaurant
1432,50.13549999999999,14.3766,3,2,56eaca51498edc13ac3b32ac,V√Ωva≈ôovna u Rozvƒõdƒçice,50.13139825494145,14.37887700824856,Czech Restaurant
1433,50.13549999999999,14.421,1,0,5caa59c0345cbe0039a69a13,Weranda,50.133237418165194,14.416243273209115,Czech Restaurant
1434,50.13549999999999,14.435799999999999,2,0,53e28444498ea67f3a429449,Hostinec Gar√°≈æ,50.13662480325365,14.433139846245783,Czech Restaurant
1435,50.13549999999999,14.435799999999999,2,1,54c52c28498ee56143a03d23,Restaurace Svƒõtlu≈°ka,50.138537059419214,14.435685901468155,Czech Restaurant
1436,50.13549999999999,14.4506,2,0,5e61859765c2c300089b5d85,A posto,50.139966,14.450414,Italian Restaurant
1437,50.13549999999999,14.4506,2,1,4c27829af1272d7f574588c5,Na Zlat√© vyhl√≠dce,50.13205487325465,14.45371023839358,Czech Restaurant
1438,50.13549999999999,14.495,3,0,5debe4c489d1b10008ac2f0f,Phol√©vka,50.135406,14.501087,Vietnamese Restaurant
1439,50.13549999999999,14.495,3,1,4fcc8453e4b05b503523d75d,Panjabi Food,50.13722932411714,14.501257504100689,Indian Restaurant
1440,50.13549999999999,14.495,3,2,4dc92f9dd164033c5739cf11,≈†mak ƒçesk√© kuchynƒõ,50.135779744869744,14.500676107868813,Czech Restaurant
1441,50.13549999999999,14.5098,5,0,4af7e8c1f964a520820a22e3,Ristorante IL Giardino,50.136638777707574,14.51423961246053,Italian Restaurant
1442,50.13549999999999,14.5098,5,1,515dbd5ee4b0bf89170a3b82,Gusto original Kebab,50.137329,14.516051,Turkish Restaurant
1443,50.13549999999999,14.5098,5,2,503c7de5fe7074fd9e039d0e,Jin Yu Fan Dian,50.13583340247388,14.510289430618286,Chinese Restaurant
1444,50.13549999999999,14.5098,5,3,509ec0a3e4b0307537685ccc,Roso 10,50.13775253295898,14.5152530670166,American Restaurant
1445,50.13549999999999,14.5098,5,4,4fbe7480e4b02f0da7781696,ƒå√≠nsk√° Restaurace,50.13574582844244,14.509982225735218,Chinese Restaurant
1446,50.13549999999999,14.5246,1,0,52a9ed7a11d27d7e4edce104,HC Catering,50.134035,14.518075,Arepa Restaurant
1447,50.13549999999999,14.5542,4,0,5ad61442f0ca956b48eb4c1f,Bistro≈°,50.132749555548,14.550707910114767,Sushi Restaurant
1448,50.13549999999999,14.5542,4,1,5d7fca0d55525f0007e3b155,Sushi Bistro & caff√© Kbely,50.132637,14.5505495,Sushi Restaurant
1449,50.13549999999999,14.5542,4,2,4d110d4c9302a35dcfff7e6e,Periferia Tratoria Pizzerie,50.13373253348664,14.558732551045761,Italian Restaurant
1450,50.13549999999999,14.5542,4,3,557c55c4498ea1484db7b490,Restaurant ameti,50.138977,14.550918,Middle Eastern Restaurant
1451,50.13549999999999,14.6578,2,0,5c12bd0d28374e002c7f08b1,LeLe,50.133471,14.660818,Chinese Restaurant
1452,50.13549999999999,14.6578,2,1,5be8991b826444002c0e81ef,Ta Prav√°,50.133567423788165,14.660812318325041,Chinese Restaurant
1453,50.1455,14.332199999999998,2,0,54859a33498e9dcac168f644,hospoda ƒåern√Ω v≈Øl,50.146527,14.331461,Czech Restaurant
1454,50.1455,14.332199999999998,2,1,595b88e9c365882ea408af03,Zazobana Slepice,50.146847,14.335009,Czech Restaurant
1455,50.1455,14.4506,4,0,54c39714498e753931925cdb,Restaurace U Trumpety,50.14608298166153,14.446974425283464,Czech Restaurant
1456,50.1455,14.4506,4,1,5e3b0a27b8824000084db239,Diamond restaurant,50.146126,14.445889,Chinese Restaurant
1457,50.1455,14.4506,4,2,5b34a89b9be522002c5f42d3,Tobiko,50.14635,14.450877,Sushi Restaurant
1458,50.1455,14.4506,4,3,5fc134625e4a23458f28ec7f,Guacamole,50.146159,14.451092,Taco Place
1459,50.1455,14.4802,1,0,59ba6078e1f2287933c3d078,Pod Hvƒõzd√°rnou,50.143454,14.47731,Czech Restaurant
1460,50.1455,14.5098,3,0,50a373aae4b056e2fef06dab,U automatu na snickers,50.143425,14.509034,American Restaurant
1461,50.1455,14.5098,3,1,524be39a11d299c8c918edb7,Blue Orange Restaurant,50.144206155856125,14.50678908522185,Middle Eastern Restaurant
1462,50.1455,14.5098,3,2,522d8434498e7ffcff376d18,u automatu s j√≠dlem,50.143401,14.508974,American Restaurant
1463,50.1455,14.5246,1,0,5cfa05b98fb09e003969ec15,Let≈àansk√° terasa,50.1416892,14.5221764,Czech Restaurant
1464,50.1455,14.5838,6,0,5c9bb199cf72a0002c55ea7a,M·∫π t√¥i,50.14278883969088,14.578304886817932,Asian Restaurant
1465,50.1455,14.5838,6,1,4c76447c3adda143888109af,Restaurace U ƒåern√≠n≈Ø,50.14321627916146,14.578955666844552,Italian Restaurant
1466,50.1455,14.5838,6,2,5f37e6909e84c4203dad9f8e,Uzbeck√© speciality,50.14311,14.578641,Middle Eastern Restaurant
1467,50.1455,14.5838,6,3,4db2fd00316a3bec52502011,Xiang Long,50.14281355330579,14.57847975854371,Chinese Restaurant
1468,50.1455,14.5838,6,4,55324b23498e7dc643310db7,Express Food,50.142773825797114,14.578645631289602,Middle Eastern Restaurant
1469,50.1455,14.5838,6,5,4e2066eb62e1964dbb5bc3b1,El Macho Restaurant,50.14306043535883,14.578578472137451,Mexican Restaurant
1470,50.155499999999996,14.3174,1,0,500eecb0e4b0d914ef2102c8,grill & steakhouse HANKA,50.15894377155727,14.320678330202014,American Restaurant
1471,50.155499999999996,14.5098,1,0,516012ebe4b0db6203767d15,restaurant Maximum,50.151424,14.512661,Middle Eastern Restaurant
1472,50.155499999999996,14.5246,4,0,4d2c4664b818a35de4d2b68a,Ju Feng Yuan Fan Dian,50.15173020347789,14.522806987089114,Chinese Restaurant
1473,50.155499999999996,14.5246,4,1,5bdaf0846336be002c6a458b,Bamboo,50.151537,14.526201,Vietnamese Restaurant
1474,50.155499999999996,14.5246,4,2,5971e6af6fa81f70950981c5,M√¥c,50.151775,14.523921,Vietnamese Restaurant
1475,50.155499999999996,14.5246,4,3,57c6cee8498ee1ad18cfd402,Rudolf√≠num ƒåakoHood,50.154908,14.531486,Czech Restaurant
1476,50.155499999999996,14.5838,1,0,5571cf6a498ecf73a0bae203,"Na statku, P≈ôezletice",50.15204405739651,14.583685240102682,Czech Restaurant
