,lat_centre,long_centre,num_venues,venue_iter,venue_id,venue_name,lat_venue,long_venue,category
0,42.6877,23.3219,11,0,581490db38faae96e39e74f4,Хамачи (Hamachi-ni),42.68743763835418,23.322948218006054,Japanese Restaurant
1,42.6877,23.3219,11,1,595cd1d88173cb5b6fdc4c60,Asia Hot Spot,42.689526,23.321775,Sushi Restaurant
2,42.6877,23.3219,11,2,4ce55d552ea9a1433abd122b,Teatro / Театро,42.689446,23.321651,Italian Restaurant
3,42.6877,23.3219,11,3,50c24b5fe4b0778554b3e434,Механичка,42.68956756591797,23.320711135864258,Eastern European Restaurant
4,42.6877,23.3219,11,4,5c9ca702054e29002ce691ba,Martini Garden,42.686406,23.323763,Italian Restaurant
5,42.6877,23.3219,11,5,4f5b931ee4b0a4baa29dd676,La Tache,42.68964882281778,23.322997145468534,French Restaurant
6,42.6877,23.3219,11,6,4f1fe2fde4b03be7a501fd02,Чичо Гринаж Гостилница,42.686809780693174,23.32281731514236,Eastern European Restaurant
7,42.6877,23.3219,11,7,5ed14aeb53dd4e0008acd3d8,Annapurna,42.686966,23.323343,Indian Restaurant
8,42.6877,23.3219,11,8,5dc54ca5b310680007e0dd2e,Аннапурна,42.687273,23.323349,North Indian Restaurant
9,42.6877,23.3219,11,9,5ce163992632ec002cd65be3,Ineditte Sushi E,42.68919,23.32038,Sushi Restaurant
10,42.6877,23.3219,11,10,5db87968c676eb0008a50ff1,Home,42.688797,23.320976,Scottish Restaurant
11,42.68996092933239,23.318844769894884,34,0,5f513d37a878b571b2a01b71,The Greek Gyros,42.69179,23.31988,Doner Restaurant
12,42.68996092933239,23.318844769894884,34,1,4c1902bf834e2d7f22b62980,Пица Палас (Pizza Palace),42.69183565462419,23.319887241076838,Pizza Place
13,42.68996092933239,23.318844769894884,34,2,51802a77e4b03e61a65c780a,La Bottega Center,42.68977841636666,23.318412495550263,Italian Restaurant
14,42.68996092933239,23.318844769894884,34,3,595cd1d88173cb5b6fdc4c60,Asia Hot Spot,42.689526,23.321775,Sushi Restaurant
15,42.68996092933239,23.318844769894884,34,4,59f374fa356b4949ede8389a,Miral Foods,42.69197426436322,23.31992953967005,Doner Restaurant
16,42.68996092933239,23.318844769894884,34,5,5f143a18a3aaf13f09946e24,Code 39,42.691986,23.319418,Italian Restaurant
17,42.68996092933239,23.318844769894884,34,6,538c67f8498e605030419ce7,Palomino,42.69077601310501,23.318315299881164,Modern European Restaurant
18,42.68996092933239,23.318844769894884,34,7,50462d78e4b0a0d1de5de35d,"Китайски ресторант ""Лъ Фу Мен""",42.69032409693758,23.31883672112447,Chinese Restaurant
19,42.68996092933239,23.318844769894884,34,8,5a4a6b301b0ea523e1879979,Mangia e Bevi,42.690046,23.32161,Italian Restaurant
20,42.68996092933239,23.318844769894884,34,9,4ce55d552ea9a1433abd122b,Teatro / Театро,42.689446,23.321651,Italian Restaurant
21,42.68996092933239,23.318844769894884,34,10,5adb296141868647ccab8732,Бао Дзи Паучи,42.689523,23.319235,Chinese Restaurant
22,42.68996092933239,23.318844769894884,34,11,50c24b5fe4b0778554b3e434,Механичка,42.68956756591797,23.320711135864258,Eastern European Restaurant
23,42.68996092933239,23.318844769894884,34,12,5c8b94100d8a0f002c8c632d,Barry,42.690089,23.321671,Bulgarian Restaurant
24,42.68996092933239,23.318844769894884,34,13,4c757c938d70b713d807d9ad,Pizza Roma,42.69131357938544,23.318914320140966,Italian Restaurant
25,42.68996092933239,23.318844769894884,34,14,5dac9a30667b820008ea389d,Figo,42.689487,23.319054,Italian Restaurant
26,42.68996092933239,23.318844769894884,34,15,4d63a573a5be236a7cd6c3db,Veselata Gozba,42.690948,23.317846,Eastern European Restaurant
27,42.68996092933239,23.318844769894884,34,16,4d7e47cddd4a6ea86d7b6625,Механче,42.69007086753845,23.321741,Eastern European Restaurant
28,42.68996092933239,23.318844769894884,34,17,51a08872498e7d4b47a0e676,Руски Клуб / Russian Club,42.69012145179358,23.318487814234132,Eastern European Restaurant
29,42.68996092933239,23.318844769894884,34,18,4da1d2bf63b5a35dd344f019,La Casa Latina,42.69128224627788,23.320464212951553,Latin American Restaurant
30,42.68996092933239,23.318844769894884,34,19,4fc3ce38e4b06f6d2413456c,7 морета,42.69058214378944,23.321378231048584,Greek Restaurant
31,42.68996092933239,23.318844769894884,34,20,526e6a9e11d2c0a1bedb79e4,Атина Greek Grill,42.690553143661816,23.31960903899792,Greek Restaurant
32,42.68996092933239,23.318844769894884,34,21,52b19285498e38047c99d167,Aromi la BПарчевичottega,42.69070816040039,23.321250915527344,Italian Restaurant
33,42.68996092933239,23.318844769894884,34,22,4baa2a4cf964a520b54f3ae3,Atina Giros,42.69061056104217,23.31955041334508,Greek Restaurant
34,42.68996092933239,23.318844769894884,34,23,52a9ff8b11d2208a05f149bd,Aroni,42.69111,23.321351,Italian Restaurant
35,42.68996092933239,23.318844769894884,34,24,5ac0c92bbd897e291d88f3b4,La Bocca,42.691124,23.32065,Italian Restaurant
36,42.68996092933239,23.318844769894884,34,25,51b0cb1fe4b0a30013b718f5,Сяолин,42.691832058100445,23.318846225738525,Chinese Restaurant
37,42.68996092933239,23.318844769894884,34,26,57a88b48498ef5164dec582f,Hendrick's,42.690992,23.319728,Modern European Restaurant
38,42.68996092933239,23.318844769894884,34,27,4e1cd04cae605fbe03885dd5,Китайски Дракон,42.6897674,23.3166096,Chinese Restaurant
39,42.68996092933239,23.318844769894884,34,28,5579c169498e3218a7f9765c,L'Art de Vivre,42.689132,23.317836,French Restaurant
40,42.68996092933239,23.318844769894884,34,29,5ce163992632ec002cd65be3,Ineditte Sushi E,42.68919,23.32038,Sushi Restaurant
41,42.68996092933239,23.318844769894884,34,30,4f648039e4b0656124c796b4,Ambaka,42.69202588972292,23.319893627597327,Eastern European Restaurant
42,42.68996092933239,23.318844769894884,34,31,55db3490498efd0b5b5311f2,Pasta Box,42.68916,23.318524,Italian Restaurant
43,42.68996092933239,23.318844769894884,34,32,5db87968c676eb0008a50ff1,Home,42.688797,23.320976,Scottish Restaurant
44,42.68996092933239,23.318844769894884,34,33,50c0f724e4b04c4de14620df,"Китайски ресторант ""Ротманс""",42.69028579642215,23.318962832295473,Chinese Restaurant
45,42.685439070667606,23.318844769894884,11,0,56d9ec68cd10611e1862a99a,Трите Прасенца (Greek Suvlaki),42.68462466833724,23.31631138150091,Greek Restaurant
46,42.685439070667606,23.318844769894884,11,1,5b472b24646e38002cf0f357,Casita Food&Wine,42.68457350688575,23.31654837703242,Italian Restaurant
47,42.685439070667606,23.318844769894884,11,2,4be82b1a4485d13a3c0594ee,Шефчето/Капитана,42.68591764274375,23.31604611177785,Eastern European Restaurant
48,42.685439070667606,23.318844769894884,11,3,56487730498eb7f01570ece4,Megas Gyros,42.68459998086418,23.316390053148957,Greek Restaurant
49,42.685439070667606,23.318844769894884,11,4,5669c34b498eb5eec09f3a9c,Restaurant Laura,42.68437290677684,23.318379288509572,Eastern European Restaurant
50,42.685439070667606,23.318844769894884,11,5,510bff1be4b06de82b424410,Кулинарна Академия HRC р-т Таланти,42.68527436639419,23.321766732777444,Mediterranean Restaurant
51,42.685439070667606,23.318844769894884,11,6,53282ded498e3dcf961f5e34,Toccato,42.68474653001193,23.316703539811677,Italian Restaurant
52,42.685439070667606,23.318844769894884,11,7,4e5b5f2162e1de72f70a1c54,Папагал,42.68437815,23.3197613,Eastern European Restaurant
53,42.685439070667606,23.318844769894884,11,8,53947885498e8a555ae4c231,свинзго,42.686710357666016,23.317211151123047,Asian Restaurant
54,42.685439070667606,23.318844769894884,11,9,4cfe0d0ffeec6dcbdc8a5536,Zappa,42.68448760197201,23.316566795213067,Breakfast Spot
55,42.685439070667606,23.318844769894884,11,10,4da05149e8a6721e618634a5,"Китайски ресторант ""Сиклай""",42.68686180183212,23.317004349907027,Chinese Restaurant
56,42.68996092933239,23.324955230105115,35,0,5c6d4b7731ac6c0039404b63,Hummusbar,42.68941806518001,23.32737873337249,Falafel Restaurant
57,42.68996092933239,23.324955230105115,35,1,4b584281f964a520f74f28e3,Дивака (Divaka),42.69113213180654,23.322367265322434,Bulgarian Restaurant
58,42.68996092933239,23.324955230105115,35,2,5f243210f9ef96346d596e2b,Gyro Land,42.690327,23.326153,Doner Restaurant
59,42.68996092933239,23.324955230105115,35,3,4be575f2910020a163f5d214,Анет (Annette),42.69034700900581,23.32196403407864,Moroccan Restaurant
60,42.68996092933239,23.324955230105115,35,4,4bc1b51074a9a5930029d2f6,Халбите (Halbite),42.68953624418061,23.324784418487393,Pub
61,42.68996092933239,23.324955230105115,35,5,4b7ace99f964a520c63d2fe3,Уго (Ugo) (Уго),42.69150336423189,23.32372853028103,Pizza Place
62,42.68996092933239,23.324955230105115,35,6,5ab40f80d7627e3de24aa83c,"Сръбска скара ""Нушич"" - Nushich- Autentic Serbian BBQ",42.68841346306479,23.32676410675049,Eastern European Restaurant
63,42.68996092933239,23.324955230105115,35,7,595ff89b9746173e670e9a05,El Shada,42.689887187817845,23.323258654504972,Italian Restaurant
64,42.68996092933239,23.324955230105115,35,8,4b5855fdf964a520545328e3,Манастирска магерница,42.68929009261634,23.324640172237256,Bulgarian Restaurant
65,42.68996092933239,23.324955230105115,35,9,4b4c7886f964a520d1b326e3,Дивака (Divaka),42.6891902537732,23.325406908988953,Bulgarian Restaurant
66,42.68996092933239,23.324955230105115,35,10,4b59dad0f964a520209c28e3,Mamma Mia,42.68959263881154,23.3279553392284,Pizza Place
67,42.68996092933239,23.324955230105115,35,11,4b5442a7f964a520d9b527e3,Warsteiner,42.69014868800394,23.32348743103085,Beer Garden
68,42.68996092933239,23.324955230105115,35,12,52ff5404498e7c18e7f4d328,La bottega All'Angolo,42.69121370186908,23.322991670195524,Italian Restaurant
69,42.68996092933239,23.324955230105115,35,13,51ffda7c498e490e72e4a0e9,Мелнишка Скара при Марто,42.68877946287866,23.32552240652857,Bulgarian Restaurant
70,42.68996092933239,23.324955230105115,35,14,4daeb6346a23e6c9348ece44,Болярите (Bolyarite),42.69101191593139,23.325138121097616,Bulgarian Restaurant
71,42.68996092933239,23.324955230105115,35,15,51517f3ae4b0e7c3028bd1b0,Ekolog,42.691609,23.32381,Eastern European Restaurant
72,42.68996092933239,23.324955230105115,35,16,51dd9b99498ef4c399d8d952,Болярка,42.690963587616494,23.325028281163494,Middle Eastern Restaurant
73,42.68996092933239,23.324955230105115,35,17,5533da79498e4134d707ffc5,Fritt,42.69112177145943,23.327257403104614,Belgian Restaurant
74,42.68996092933239,23.324955230105115,35,18,593aa01e3362735a7ea8b284,Le Schada,42.689906,23.323423,Italian Restaurant
75,42.68996092933239,23.324955230105115,35,19,4bf992f95efe2d7f69796c34,BitBurger,42.6921883887827,23.325347349890755,German Restaurant
76,42.68996092933239,23.324955230105115,35,20,4ee7b9210aafed860e6b8a04,Warsteiner,42.69101587084812,23.325777053833008,German Restaurant
77,42.68996092933239,23.324955230105115,35,21,4b8425b0f964a520bf2331e3,Restaurant Tino,42.688255282171895,23.325341797212225,Eastern European Restaurant
78,42.68996092933239,23.324955230105115,35,22,4f607d7fe4b071906c37a8ff,Балканска Скара,42.691078554150444,23.325425253240308,Eastern European Restaurant
79,42.68996092933239,23.324955230105115,35,23,4f5ba093e4b0c83982b5becf,13-те стъпала,42.6908399531508,23.325155920355826,Eastern European Restaurant
80,42.68996092933239,23.324955230105115,35,24,52c6a9f9498e65f474d74e0c,Marchese Maccarone,42.69063082831462,23.323586779054263,Italian Restaurant
81,42.68996092933239,23.324955230105115,35,25,53034464498e0a1930f7c51a,La Botega,42.68964713752869,23.32526610069357,Italian Restaurant
82,42.68996092933239,23.324955230105115,35,26,4f5b931ee4b0a4baa29dd676,La Tache,42.68964882281778,23.322997145468534,French Restaurant
83,42.68996092933239,23.324955230105115,35,27,547467bc498e9373345bd3a2,Medgick duner,42.691462178177126,23.325016854152082,Turkish Restaurant
84,42.68996092933239,23.324955230105115,35,28,50e79e6de4b0ed84e1a4fd1c,Do Re Mi,42.68985977252017,23.324488404734094,Eastern European Restaurant
85,42.68996092933239,23.324955230105115,35,29,5079517ee4b08ed64765590f,Pita Gyros,42.68828167471379,23.3266963534715,Greek Restaurant
86,42.68996092933239,23.324955230105115,35,30,578e22a4cd10fe35f3d5a916,При Тъщата,42.688352,23.326933,Bulgarian Restaurant
87,42.68996092933239,23.324955230105115,35,31,51b4a652498e781d10ae2479,Mamma mia WC,42.690992531997544,23.32561373913004,American Restaurant
88,42.68996092933239,23.324955230105115,35,32,5eee0366b0aeb9000816fe45,Del Corso,42.689554,23.326382,Italian Restaurant
89,42.68996092933239,23.324955230105115,35,33,5447849d498eb87372b2bb08,Хапка,42.689896,23.323555,Burger Joint
90,42.68996092933239,23.324955230105115,35,34,5f63a2ad8feef25bed450c0e,Ottimo,42.691006,23.324137,Italian Restaurant
91,42.685439070667606,23.324955230105115,14,0,4b59945cf964a520618d28e3,Жадната Ламя,42.68522663864084,23.325468378683656,Bulgarian Restaurant
92,42.685439070667606,23.324955230105115,14,1,5881e6e776f2ca28a85d5694,Банкович,42.68721817733771,23.32516055172694,BBQ Joint
93,42.685439070667606,23.324955230105115,14,2,5509de18498ee9448f4d74dc,le bistro,42.68446971979943,23.32295100506976,French Restaurant
94,42.685439070667606,23.324955230105115,14,3,4d5d11df3f92236aa97ee51d,Търтей Бистро,42.68539060661682,23.324234205065657,Bulgarian Restaurant
95,42.685439070667606,23.324955230105115,14,4,4dd643a4c65bee535a93fb31,Вратата,42.684236819566166,23.327323764791373,Mediterranean Restaurant
96,42.685439070667606,23.324955230105115,14,5,53807087498ebd1e82594325,Moody,42.687236,23.326502,Belgian Restaurant
97,42.685439070667606,23.324955230105115,14,6,4d9df97fc99fb60cac74d38b,Orfei,42.684307975,23.322625366666667,Eastern European Restaurant
98,42.685439070667606,23.324955230105115,14,7,5c9ca702054e29002ce691ba,Martini Garden,42.686406,23.323763,Italian Restaurant
99,42.685439070667606,23.324955230105115,14,8,5328102c498e9b66cd68d9d8,Trattoria Giuseppe Verdi,42.68550188270423,23.323021357175648,Italian Restaurant
100,42.685439070667606,23.324955230105115,14,9,4f1fe2fde4b03be7a501fd02,Чичо Гринаж Гостилница,42.686809780693174,23.32281731514236,Eastern European Restaurant
101,42.685439070667606,23.324955230105115,14,10,5ed14aeb53dd4e0008acd3d8,Annapurna,42.686966,23.323343,Indian Restaurant
102,42.685439070667606,23.324955230105115,14,11,5dc54ca5b310680007e0dd2e,Аннапурна,42.687273,23.323349,North Indian Restaurant
103,42.685439070667606,23.324955230105115,14,12,4bc5af746936952146548488,Baba's House,42.685897725,23.323863862500005,Eastern European Restaurant
104,42.685439070667606,23.324955230105115,14,13,50521226e4b06a9490faedec,"Бистро ""При  Мамчето""",42.6844374928146,23.323030050072557,Eastern European Restaurant
105,42.6977,23.3219,25,0,4c1b93ce8b3aa593fc61975f,Happy Bar & Grill,42.6966230895512,23.32065053094055,Sushi Restaurant
106,42.6977,23.3219,25,1,59edf9852632ec468f687681,Largo,42.69807887906185,23.322333621555515,Bar
107,42.6977,23.3219,25,2,57052a8a498e8987c3a44d84,Spaghetti Kitchen Bar,42.69608367076322,23.32068943060978,Italian Restaurant
108,42.6977,23.3219,25,3,5b0e6537628c83002c54c50f,DSQUARED2 Cocktails & Lounge,42.696370872124824,23.321717046082213,Lounge
109,42.6977,23.3219,25,4,596f9e7b9deb7d61ed0e8071,Capo Mediterranean Restaurant,42.696587,23.32268,Mediterranean Restaurant
110,42.6977,23.3219,25,5,592d4b6fc0cacb22b584c118,Mr. Rice,42.697571,23.319163,Asian Restaurant
111,42.6977,23.3219,25,6,4ca229e71ee76dcb025deedd,Жерав и Дракон,42.6960825060854,23.32288600955697,Chinese Restaurant
112,42.6977,23.3219,25,7,5501671a498e03d3c98b5dad,"Ресторант ""Сердика""",42.699152614051066,23.320747572504796,Eastern European Restaurant
113,42.6977,23.3219,25,8,5423f437498e4eeeb33de393,Thai food,42.69977951049805,23.321992874145508,Thai Restaurant
114,42.6977,23.3219,25,9,50583191e4b0db00fc1843f9,KIMBO,42.69572428610703,23.320979640005387,Burrito Place
115,42.6977,23.3219,25,10,4da47cfb7aee54816a05fffe,Restaurant Rotonda,42.69669826194966,23.32281920389024,Bulgarian Restaurant
116,42.6977,23.3219,25,11,56d6c7d5498e3da979099c6f,Заведение за хранене Росна Китка 2,42.697707,23.319136,Bulgarian Restaurant
117,42.6977,23.3219,25,12,5b0af26fa5a315002cb7a90d,Restaurant Jerusalem,42.698521,23.322201,Middle Eastern Restaurant
118,42.6977,23.3219,25,13,4beedd3e3686c9b6c216256e,Cantina Italiana,42.696973,23.322114,Italian Restaurant
119,42.6977,23.3219,25,14,59f0a9857564f7187367e73e,Закусвалня Карамел,42.697295,23.319035,Eastern European Restaurant
120,42.6977,23.3219,25,15,518e69ab498ea73ba47f445c,GrandFoods,42.69651725955235,23.322445217147088,Italian Restaurant
121,42.6977,23.3219,25,16,4c5844622308be9ac6fd5a6c,Izvora,42.697478,23.323485,Eastern European Restaurant
122,42.6977,23.3219,25,17,5710d96f498e87c71d1b48cc,Pizza Napolitana,42.697038,23.3206,Italian Restaurant
123,42.6977,23.3219,25,18,5980625e6f706a27c7054484,Крал Кюфте,42.69933,23.322308,Turkish Restaurant
124,42.6977,23.3219,25,19,51bae4cb498eaaef952b38b6,Healthy Food,42.697673456542475,23.31958259090753,Eastern European Restaurant
125,42.6977,23.3219,25,20,56c45818cd10015a632d620c,Pizza Neapolitana,42.697346,23.320454,Italian Restaurant
126,42.6977,23.3219,25,21,573b051b498e17986237f9d4,Mehana Sofiantsi,42.69634,23.323577,Bulgarian Restaurant
127,42.6977,23.3219,25,22,4d4d9ec09ee137041123868b,Sheraton Italian Restaurant,42.69709977491938,23.3218742142539,Italian Restaurant
128,42.6977,23.3219,25,23,5d4f09c7cfb1d1000803419f,Сръбска Скара,42.698731,23.32187,BBQ Joint
129,42.6977,23.3219,25,24,5f89f0817fa393193673d9c6,Moshi Moshi Sushi,42.695991,23.322815,Sushi Restaurant
130,42.69996092933239,23.31884427792296,24,0,4e907b50722ebb868bb5a774,Avrasia (Авразия) (Турски Ресторант „Авразия”),42.70193959357899,23.318740754149072,Turkish Restaurant
131,42.69996092933239,23.31884427792296,24,1,5db5a0630b9d880007c222ca,Иракска фурна,42.701492,23.32068,Bakery
132,42.69996092933239,23.31884427792296,24,2,5501671a498e03d3c98b5dad,"Ресторант ""Сердика""",42.699152614051066,23.320747572504796,Eastern European Restaurant
133,42.69996092933239,23.31884427792296,24,3,542c27a2498ed70e6b878021,при Зоран,42.70142022331665,23.319089282534886,Eastern European Restaurant
134,42.69996092933239,23.31884427792296,24,4,52e3f66511d22691bf92349a,Halal,42.70038604736328,23.32101821899414,Middle Eastern Restaurant
135,42.69996092933239,23.31884427792296,24,5,56ac9470498e0aacc3eeef88,Пиле и дюнер,42.699498568854054,23.318417072296143,Falafel Restaurant
136,42.69996092933239,23.31884427792296,24,6,53135fbd498e349943136d73,Ola - Средиземноморска кухня,42.700505584998716,23.320520009167986,Mediterranean Restaurant
137,42.69996092933239,23.31884427792296,24,7,5a2d40efc6666601b6dff5b3,Ресторант “Старата къща” - на Женския пазар,42.699796,23.317037,Eastern European Restaurant
138,42.69996092933239,23.31884427792296,24,8,5431880f498ef1e030b05237,Гостилница Урожай,42.69997061984074,23.317535503172582,Eastern European Restaurant
139,42.69996092933239,23.31884427792296,24,9,5655a0de498ea97f2a6be125,Китайското в Халите,42.70006561279297,23.32188606262207,Chinese Restaurant
140,42.69996092933239,23.31884427792296,24,10,503d00a2e4b0c1fd76aefa67,При Вуйчо,42.69981533104658,23.320420099501177,Eastern European Restaurant
141,42.69996092933239,23.31884427792296,24,11,5182408a498e1c5fb0a51bce,Китайски Ресторант Двата Лъва,42.70065036912131,23.31749342315882,Chinese Restaurant
142,42.69996092933239,23.31884427792296,24,12,59f1c05d18d43b4d5640c228,Pacha,42.69965,23.315998,Turkish Restaurant
143,42.69996092933239,23.31884427792296,24,13,54195f1d498e4c0443daa75a,Табуле Екзотична Храна,42.70002882220664,23.321850299835205,Middle Eastern Restaurant
144,42.69996092933239,23.31884427792296,24,14,5be47cd31c675b0039723cee,Бирария “Дълбок Зимник”,42.701682,23.320317,Eastern European Restaurant
145,42.69996092933239,23.31884427792296,24,15,58a04da67b43b46edf95a729,Готвени ястия - Женски пазар,42.701023,23.318975,Bulgarian Restaurant
146,42.69996092933239,23.31884427792296,24,16,4ce2c4753644a093584b649f,"Ресторант ""Българска завера""",42.69859492778778,23.318036198616028,Eastern European Restaurant
147,42.69996092933239,23.31884427792296,24,17,51221668e4b02c9c6d407219,джиев& Cig Köfte,42.6988639831543,23.316909790039062,Turkish Restaurant
148,42.69996092933239,23.31884427792296,24,18,56b200a7498e5c1e4272d7d4,Taiwanese Food,42.700024,23.321768,Asian Restaurant
149,42.69996092933239,23.31884427792296,24,19,5013f582e4b0649cc1b932c0,Asia Chinese Restaurant,42.7006163929519,23.31955128037319,Chinese Restaurant
150,42.69996092933239,23.31884427792296,24,20,592e98159cadd93606da6d5b,Бистро Гени,42.700936,23.320144,Eastern European Restaurant
151,42.69996092933239,23.31884427792296,24,21,570f6407498e228c67625a53,Пиротска 10,42.69969780650483,23.320288731930837,Bulgarian Restaurant
152,42.69996092933239,23.31884427792296,24,22,5447a6de498e578995f1bde8,Serbian Grill Pri Zoran,42.701981707304775,23.318409882946643,Fast Food Restaurant
153,42.69996092933239,23.31884427792296,24,23,56067420498e40df0f8c1cb3,Готвено на Женския пазар,42.7010022879327,23.3188152531168,Eastern European Restaurant
154,42.695439070667604,23.31884427792296,50,0,4c1b93ce8b3aa593fc61975f,Happy Bar & Grill,42.6966230895512,23.32065053094055,Sushi Restaurant
155,42.695439070667604,23.31884427792296,50,1,5f7304f8bffee6240599c0c4,Бон Апетито,42.69451,23.318074,Eastern European Restaurant
156,42.695439070667604,23.31884427792296,50,2,57052a8a498e8987c3a44d84,Spaghetti Kitchen Bar,42.69608367076322,23.32068943060978,Italian Restaurant
157,42.695439070667604,23.31884427792296,50,3,508d5e32e4b0c9eb7294a569,Wok to Walk,42.694346773781554,23.320687275066735,Noodle House
158,42.695439070667604,23.31884427792296,50,4,56df0991498e6bbdae007c9e,Космос,42.694807792889144,23.319002859815622,Modern European Restaurant
159,42.695439070667604,23.31884427792296,50,5,543825a3498e707a13a82d8c,Bodega,42.69443365325744,23.319325930761398,Spanish Restaurant
160,42.695439070667604,23.31884427792296,50,6,4bc491f6b492d13af230aa60,Sushi Bar,42.69407341448176,23.318851358612893,Sushi Restaurant
161,42.695439070667604,23.31884427792296,50,7,4c8a6a5a2e333704d06fc341,Пасторант (Pastorant),42.693308337882776,23.319073068112647,Italian Restaurant
162,42.695439070667604,23.31884427792296,50,8,54595ef2498e11c5b5575b2e,Балканска скара,42.69733114885906,23.31742533258796,Eastern European Restaurant
163,42.695439070667604,23.31884427792296,50,9,592d4b6fc0cacb22b584c118,Mr. Rice,42.697571,23.319163,Asian Restaurant
164,42.695439070667604,23.31884427792296,50,10,5c2f3f2ba30619002c0fb714,Karmare (Kармаре),42.696586,23.318892,Modern European Restaurant
165,42.695439070667604,23.31884427792296,50,11,50583191e4b0db00fc1843f9,KIMBO,42.69572428610703,23.320979640005387,Burrito Place
166,42.695439070667604,23.31884427792296,50,12,4f341709e4b0e339bd1cf24d,Graphite,42.69557865690333,23.318057255320934,Italian Restaurant
167,42.695439070667604,23.31884427792296,50,13,5d8b8f085cd19a0008b55941,Big Panda,42.69476,23.317211,Chinese Restaurant
168,42.695439070667604,23.31884427792296,50,14,4f1552fbe4b04b3f0722c96f,Бистро Пепино,42.69426345825195,23.317733764648438,Eastern European Restaurant
169,42.695439070667604,23.31884427792296,50,15,4ec2490a29c25ce5a312d31c,Relax Bistro,42.6953135479979,23.318320512771606,Eastern European Restaurant
170,42.695439070667604,23.31884427792296,50,16,50700c6ae4b0f395b4d741f6,Pasta Box,42.694781076005206,23.321635702221595,Italian Restaurant
171,42.695439070667604,23.31884427792296,50,17,4cd8f6f81891236ae703390b,Pizza Italia,42.69453090799796,23.320652987458452,Italian Restaurant
172,42.695439070667604,23.31884427792296,50,18,4ffc544be4b0017e796d43b8,Караиван,42.695016906643254,23.318371574889902,Eastern European Restaurant
173,42.695439070667604,23.31884427792296,50,19,4fcf267ae4b05b1fd4a9abaa,Protocol,42.695596,23.316496,Eastern European Restaurant
174,42.695439070667604,23.31884427792296,50,20,53fcdea0498e4f7c4a5cf65f,Ресторант Мамбо,42.69593048095703,23.31979751586914,Eastern European Restaurant
175,42.695439070667604,23.31884427792296,50,21,59f0a9857564f7187367e73e,Закусвалня Карамел,42.697295,23.319035,Eastern European Restaurant
176,42.695439070667604,23.31884427792296,50,22,4ed8b07e0e011b46ec426906,Изток,42.69619670352817,23.3189857006073,Chinese Restaurant
177,42.695439070667604,23.31884427792296,50,23,4d3c615884d46ea88e78fd5c,Ресторант Кара Иван,42.69399941020886,23.317308359700302,Eastern European Restaurant
178,42.695439070667604,23.31884427792296,50,24,5aa1725c8fb09e1b060716c0,Rosetta,42.69605,23.318768,Italian Restaurant
179,42.695439070667604,23.31884427792296,50,25,573c3aef38fa2528bf0d0d7c,Гозбите на баба,42.696361,23.317963,Bulgarian Restaurant
180,42.695439070667604,23.31884427792296,50,26,4f622d94e4b02da1e10e30c8,Зафо,42.69466578693234,23.319534193586687,Eastern European Restaurant
181,42.695439070667604,23.31884427792296,50,27,5ca25a813ba767002cbb85d9,Downtown Sushi Spot,42.694044,23.318878,Sushi Restaurant
182,42.695439070667604,23.31884427792296,50,28,4c0d1de5c700c9b6a3e4a1dd,BackGround,42.6935932061432,23.32044907749711,Modern European Restaurant
183,42.695439070667604,23.31884427792296,50,29,5e2741cb86819e00083cbc4a,Gyro Grill,42.6944,23.320676,Sandwich Place
184,42.695439070667604,23.31884427792296,50,30,4f731cc6e4b08f62be3fe628,Lunch Time,42.69446980732259,23.318095207214355,Eastern European Restaurant
185,42.695439070667604,23.31884427792296,50,31,4ed15653e5faa5ec03f19156,Ресторант СБА (Restaurant CBA),42.695770454470114,23.317673254074343,Eastern European Restaurant
186,42.695439070667604,23.31884427792296,50,32,4ee361ed4690f8893f75d040,Шкембе и качамак,42.69336347813747,23.318400620945244,Eastern European Restaurant
187,42.695439070667604,23.31884427792296,50,33,5710d96f498e87c71d1b48cc,Pizza Napolitana,42.697038,23.3206,Italian Restaurant
188,42.695439070667604,23.31884427792296,50,34,558bd83e498e7500ec7e4450,Арагон 91 ЕООД,42.69662094116211,23.318696975708008,Eastern European Restaurant
189,42.695439070667604,23.31884427792296,50,35,5d7fc0fe44e28d0008db9fdd,Altay,42.696044,23.318929,Chinese Restaurant
190,42.695439070667604,23.31884427792296,50,36,4d35de3bf8c9224b61f5cfd2,Il Ristorantino Italiano,42.694648,23.320792,Italian Restaurant
191,42.695439070667604,23.31884427792296,50,37,56c45818cd10015a632d620c,Pizza Neapolitana,42.697346,23.320454,Italian Restaurant
192,42.695439070667604,23.31884427792296,50,38,56f11bee498eb551d7b12d7d,Чешки Сандвичи,42.695066968974615,23.31904403885369,Czech Restaurant
193,42.695439070667604,23.31884427792296,50,39,5141ca25e4b086e8d681e143,ВИНАРНАТА,42.694755,23.318788,Eastern European Restaurant
194,42.695439070667604,23.31884427792296,50,40,529b3f21498e1faad660d7bc,Cozy Nooks,42.69339737272326,23.319141268730164,Mediterranean Restaurant
195,42.695439070667604,23.31884427792296,50,41,5cc56d25c876c8002cb20d42,Кармаре,42.696526,23.318637,Modern European Restaurant
196,42.695439070667604,23.31884427792296,50,42,5e42a11dc646b6000852d9a9,Кулинарен кът “Дивино”,42.694934,23.321713,Eastern European Restaurant
197,42.695439070667604,23.31884427792296,50,43,4fab91bbe4b050ddfdf326ba,Shkembe & Kachamak,42.693606,23.318208,Eastern European Restaurant
198,42.695439070667604,23.31884427792296,50,44,4f9278c7e4b0dcd91196cdfc,Aquarium,42.693969810022956,23.320162384006295,Greek Restaurant
199,42.695439070667604,23.31884427792296,50,45,5388735d498e450b0a212f04,Гьозлеме на сач,42.696590423583984,23.318750381469727,Eastern European Restaurant
200,42.695439070667604,23.31884427792296,50,46,4e5c8ea3b99390f45bff0897,Fairouz,42.694353841420075,23.31803700823567,Middle Eastern Restaurant
201,42.695439070667604,23.31884427792296,50,47,4d356dbc5c2db60c353cdc6c,При Петицата,42.69549411255881,23.318400436985463,Eastern European Restaurant
202,42.695439070667604,23.31884427792296,50,48,5f6b24a72afd3747e80a3274,My Don Fernández,42.694843,23.316309,Mexican Restaurant
203,42.695439070667604,23.31884427792296,50,49,5c4c993d25fb7b002c6c1079,Greek Restaurant Karavaki (Ресторант „Корабчето“),42.693939,23.320217,Greek Restaurant
204,42.69996092933239,23.32495572207704,22,0,4c7e9de41009a0939ffe444e,L'Etranger,42.701005572344094,23.32399421157469,French Restaurant
205,42.69996092933239,23.32495572207704,22,1,5566e816498efaa3ca042fd0,Osteria San Marco,42.701135373374896,23.323376257567357,Italian Restaurant
206,42.69996092933239,23.32495572207704,22,2,5a7f3bd325ecca1932db285f,Macondo,42.698757,23.325234,Bar
207,42.69996092933239,23.32495572207704,22,3,5bb2126981104500399442b1,Felicita,42.699623,23.326294,Italian Restaurant
208,42.69996092933239,23.32495572207704,22,4,4c41b9deda3dc928a246c9b9,Дон Домат (Don Domat),42.69879356457508,23.32571116094438,Pizza Place
209,42.69996092933239,23.32495572207704,22,5,4cea5bdb9f776ea8de506822,Leo's Pizza Trattoria,42.69956538619765,23.32636339629912,Pizza Place
210,42.69996092933239,23.32495572207704,22,6,5423f437498e4eeeb33de393,Thai food,42.69977951049805,23.321992874145508,Thai Restaurant
211,42.69996092933239,23.32495572207704,22,7,5399e788498eae48dd7cd653,Melo By The Ruins,42.69961637785231,23.32479923724425,Mediterranean Restaurant
212,42.69996092933239,23.32495572207704,22,8,524877b911d2654a0f4223f6,Marmaris Lokantasi,42.70112440055315,23.323316934071652,Turkish Restaurant
213,42.69996092933239,23.32495572207704,22,9,50391b55e4b04a184ccfaa38,бистро централ,42.69974848520062,23.32479520119344,Eastern European Restaurant
214,42.69996092933239,23.32495572207704,22,10,5437db34498e1eaab1c2134a,Marmaris Türk Lokantası,42.701115,23.32338,Turkish Home Cooking Restaurant
215,42.69996092933239,23.32495572207704,22,11,518fa553498ea99a80da5720,The Nine Dragons,42.700130462646484,23.325851440429688,Chinese Restaurant
216,42.69996092933239,23.32495572207704,22,12,4dd63a73d4c05d5096cacb14,"Ресторант ""Алкор""",42.69940592189281,23.32601308822632,Eastern European Restaurant
217,42.69996092933239,23.32495572207704,22,13,5b7e8f108c812a002c427529,Doner Kebab Fantasy,42.700196,23.325321,Kebab Restaurant
218,42.69996092933239,23.32495572207704,22,14,4f423c5ce4b0f6acbd1e00a3,Драга,42.70158675787184,23.326648814199178,Eastern European Restaurant
219,42.69996092933239,23.32495572207704,22,15,51f24c92498e2b8ee213ab15,мармарис,42.70028617639609,23.32385271181966,Turkish Restaurant
220,42.69996092933239,23.32495572207704,22,16,5980625e6f706a27c7054484,Крал Кюфте,42.69933,23.322308,Turkish Restaurant
221,42.69996092933239,23.32495572207704,22,17,5e6b75480301d300081bfba6,Kitchen,42.698216,23.326826,Eastern European Restaurant
222,42.69996092933239,23.32495572207704,22,18,5859908b72714f34b34e5c3d,Дубайски нощи (Dubai nights),42.698766,23.325057,Middle Eastern Restaurant
223,42.69996092933239,23.32495572207704,22,19,4edf53780aaf167e5402b1ac,При Македонеца,42.70102661044407,23.32420777215559,Eastern European Restaurant
224,42.69996092933239,23.32495572207704,22,20,54c260df498ed3371d1f387d,китайска супа оод,42.70155056504644,23.32300901412964,Argentinian Restaurant
225,42.69996092933239,23.32495572207704,22,21,514c3d14e4b0744917f289a2,Taco Cafe,42.699966,23.321917,Eastern European Restaurant
226,42.695439070667604,23.32495572207704,16,0,4bc735870050b713de32b83b,При Орлите (Pri Orlite),42.69371118611184,23.325025905433957,Eastern European Restaurant
227,42.695439070667604,23.32495572207704,16,1,50c4ca83e4b032fa83138fff,Ресторантът на Народния театър,42.69390200954696,23.327090870629362,Bulgarian Restaurant
228,42.695439070667604,23.32495572207704,16,2,596f9e7b9deb7d61ed0e8071,Capo Mediterranean Restaurant,42.696587,23.32268,Mediterranean Restaurant
229,42.695439070667604,23.32495572207704,16,3,4ca229e71ee76dcb025deedd,Жерав и Дракон,42.6960825060854,23.32288600955697,Chinese Restaurant
230,42.695439070667604,23.32495572207704,16,4,58a34d9544587f3e248a8563,pizzeria de sud,42.696362,23.325907,Italian Restaurant
231,42.695439070667604,23.32495572207704,16,5,4da47cfb7aee54816a05fffe,Restaurant Rotonda,42.69669826194966,23.32281920389024,Bulgarian Restaurant
232,42.695439070667604,23.32495572207704,16,6,518e69ab498ea73ba47f445c,GrandFoods,42.69651725955235,23.322445217147088,Italian Restaurant
233,42.695439070667604,23.32495572207704,16,7,579d169d498edee3c7f53f5a,Made in sud,42.697227,23.32629,Italian Restaurant
234,42.695439070667604,23.32495572207704,16,8,5968ac3fa6031c5daaa3a5e3,Alloro Restaurant,42.697,23.326054,Italian Restaurant
235,42.695439070667604,23.32495572207704,16,9,50ae0e04e4b09d9e063aa25e,грацко,42.694310463548945,23.324111542333355,Eastern European Restaurant
236,42.695439070667604,23.32495572207704,16,10,573b051b498e17986237f9d4,Mehana Sofiantsi,42.69634,23.323577,Bulgarian Restaurant
237,42.695439070667604,23.32495572207704,16,11,5ad77e690fc1727b9819cade,Akrogiali,42.694046,23.324212,Greek Restaurant
238,42.695439070667604,23.32495572207704,16,12,58ca5e00ce66aa4acc458de8,Pirin Grill House,42.694336,23.323782,Eastern European Restaurant
239,42.695439070667604,23.32495572207704,16,13,4d5654d748ea6ea83573dfa3,Софийска баница,42.69380778517441,23.322902302293162,Eastern European Restaurant
240,42.695439070667604,23.32495572207704,16,14,5f89f0817fa393193673d9c6,Moshi Moshi Sushi,42.695991,23.322815,Sushi Restaurant
241,42.695439070667604,23.32495572207704,16,15,5f954fc6e2a302296874c67d,Pomana,42.694427,23.322397,Doner Restaurant
