,Unnamed: 0,lat_centre,long_centre,num_venues,venue_iter,venue_id,venue_name,lat_venue,long_venue,category
581,581,42.6877,23.33523333333333,15,14,4b598352f964a520b58a28e3,Дворецът на императора,42.69102,23.331347,Chinese Restaurant
953,66,42.689960929332386,23.324955230105115,35,10,4b59dad0f964a520209c28e3,Mamma Mia,42.68959263881154,23.327955339228396,Pizza Place
624,624,42.6977,23.30856666666667,31,1,4b6da656f964a52038832ce3,Happy Bar & Grill,42.69838997328581,23.30839965372305,BBQ Joint
164,164,42.6577,23.33523333333333,3,2,4b715235f964a52006412de3,ELLI'S Bistro,42.65673739095476,23.33696655288666,Eastern European Restaurant
362,362,42.6777,23.29523333333333,17,7,4b71ac1bf964a5201f552de3,Ямас (Yamas),42.67740610603121,23.29064021882279,Greek Restaurant
654,654,42.6977,23.3219,50,0,4b76bcb2f964a5209d5b2ee3,Confetti,42.69418495702396,23.32193736699421,Italian Restaurant
435,435,42.6777,23.33523333333333,12,2,4b7d1d30f964a52010af2fe3,Под Липите (Under the Linden Trees),42.68181169469469,23.335515257705957,Bulgarian Restaurant
964,77,42.689960929332386,23.324955230105115,35,21,4b8425b0f964a520bf2331e3,Restaurant Tino,42.688255282171895,23.32534179721223,Eastern European Restaurant
371,371,42.6777,23.29523333333333,17,16,4b8c2222f964a520e9bf32e3,Kohinoor,42.674145599662594,23.291616439819336,Indian Restaurant
181,181,42.6577,23.37523333333333,8,1,4b993719f964a520716a35e3,Olive's Restaurant,42.6572972342278,23.37444442421807,American Restaurant
97,97,42.6477,23.34856666666667,6,5,4b9e958bf964a52084f136e3,Джиков (Djikov),42.6459383927572,23.34452941857037,Pizza Place
920,33,42.689960929332386,23.318844769894888,34,22,4baa2a4cf964a520b54f3ae3,Atina Giros,42.69061056104217,23.31955041334508,Greek Restaurant
600,600,42.6877,23.3619,7,0,4baceb62f964a52099193be3,Къщата на Джиков,42.68359990574177,23.362822092353124,Pizza Place
494,494,42.6877,23.26856666666667,4,2,4bb3743deb3e95211021cb0a,Questione di Gusti,42.68384965944129,23.2688577632129,Italian Restaurant
498,498,42.6877,23.29523333333333,7,1,4bb46c27f187a593041e14f8,Amaro,42.684984756784814,23.299312365497354,Italian Restaurant
454,454,42.6777,23.3619,30,5,4bc19dfb461576b030307c32,Wasabi Garden,42.676957102363225,23.362450262992287,Sushi Restaurant
103,103,42.6477,23.37523333333333,9,0,4bc43b29abf4952145c1c493,Happy Bar & Grill,42.6482119243966,23.379232275969642,Restaurant
990,103,42.68543907066761,23.324955230105115,14,12,4bc5af746936952146548488,Baba's House,42.685897725,23.323863862500005,Eastern European Restaurant
1113,226,42.695439070667604,23.32495572207704,16,0,4bc735870050b713de32b83b,При Орлите (Pri Orlite),42.69371118611185,23.32502590543396,Eastern European Restaurant
369,369,42.6777,23.29523333333333,17,14,4bc839dfaf07a593b279802d,Дойран 1,42.67885142268295,23.29125165858561,Mediterranean Restaurant
740,740,42.6977,23.34856666666667,25,1,4bd0204b046076b027676f71,Добро (Dobro),42.69688330601518,23.34537613033996,Bulgarian Restaurant
233,233,42.6677,23.29523333333333,18,2,4bd7145a6798ef3b3326668d,Двете Халби,42.664048594912735,23.297148050440363,Eastern European Restaurant
440,440,42.6777,23.33523333333333,12,7,4bdbfc672a3a0f47493bb1b6,Избата,42.6821146160931,23.33483950758023,Bulgarian Restaurant
934,47,42.68543907066761,23.318844769894888,11,2,4be82b1a4485d13a3c0594ee,Шефчето/Капитана,42.685917642743746,23.316046111777847,Eastern European Restaurant
777,777,42.7077,23.29523333333333,19,2,4be9355588ed2d7f88accc1d,Gato Negro Pub,42.711696767251574,23.297096318995763,Bulgarian Restaurant
504,504,42.6877,23.30856666666667,13,0,4bf40e0f706e20a1d0dda898,Happy Bar & Grill,42.68864258937276,23.30803631233393,Bulgarian Restaurant
571,571,42.6877,23.33523333333333,15,4,4bf7b4265efe2d7f0b696934,T&M Turkish Restaurant,42.68834974604424,23.33180793740675,Turkish Restaurant
249,249,42.6677,23.30856666666667,2,0,4bf9017e5ec320a19c9c89d3,Happy Bar & Grill,42.67018133869068,23.313444770165805,Bulgarian Restaurant
962,75,42.689960929332386,23.324955230105115,35,19,4bf992f95efe2d7f69796c34,BitBurger,42.692188388782704,23.32534734989075,German Restaurant
345,345,42.6777,23.2819,13,3,4bfea05adaf9c9b6a7f8f8ef,Джиков (Djikov),42.68018590488549,23.284375742066878,Pizza Place
216,216,42.6677,23.2819,15,0,4bff9051c30a2d7f8a1c111d,BESO,42.66808079268458,23.27980313311101,Diner
2,2,42.6277,23.30856666666667,9,2,4c010ff2de3376b07e30f9a4,Hotel Bansko Restaurant,42.629624605178826,23.3102685213089,Eastern European Restaurant
427,427,42.6777,23.3219,38,32,4c0255e0096ed13a8bb37926,The Golden Apple,42.67541594697384,23.318401939901374,French Restaurant
474,474,42.6777,23.3619,30,25,4c0694008b4520a1519b8597,Xin Gubian Lou,42.678840925,23.363108,Chinese Restaurant
87,87,42.6477,23.33523333333333,8,3,4c0a7bf07e3fc928f9a2f382,Saffron,42.64977673551552,23.33940267410224,Indian Restaurant
85,85,42.6477,23.33523333333333,8,1,4c0a969aa1b32d7fd59599f0,Golden Grosh (Златният Грошъ) (Златният Грошъ),42.645064762600704,23.340039731094254,Bulgarian Restaurant
329,329,42.6677,23.4019,7,0,4c0d27fd98102d7fa0bee106,Fly Bar & Dinner,42.66690342995635,23.40305790954844,Bar
370,370,42.6777,23.29523333333333,17,15,4c14eb20b7b9c928a802ac37,La Cubanita,42.67757905176264,23.2960829357686,Cuban Restaurant
105,105,42.6477,23.37523333333333,9,2,4c1f3212bd9d9521083a983f,Happy Golden,42.65146076214471,23.378353666507557,Chinese Restaurant
707,707,42.6977,23.33523333333333,35,3,4c1fac97e923ef3b7fcb4e54,Ам Гъл (Am Gul),42.696185206828225,23.340072174869324,Eastern European Restaurant
396,396,42.6777,23.3219,38,1,4c2e312c260bc92847481bd3,Лозата,42.677435115514676,23.326213275125195,Bulgarian Restaurant
744,744,42.6977,23.34856666666667,25,5,4c38ae3618e72d7f8dc218f5,Славяни,42.69584392238011,23.344729005352963,Bulgarian Restaurant
169,169,42.6577,23.34856666666667,12,4,4c3d74f67ea89521aa942247,maestross,42.660443027563964,23.346159698622298,Eastern European Restaurant
843,843,42.7177,23.29523333333333,10,0,4c44249df799e21e9c5eada2,"Механа ""Кукуш""",42.71828114359363,23.29094379014921,Eastern European Restaurant
76,76,42.6477,23.26856666666667,11,4,4c448df574ffc9282fb775cc,Ресторант Прима,42.64607962050292,23.272993360069123,Eastern European Restaurant
607,607,42.6877,23.37523333333333,2,0,4c541e0f479fc92865359592,Gustosa,42.684345,23.374466,Greek Restaurant
836,836,42.7177,23.25523333333333,8,4,4c543255479fc9281903b892,Michail Food,42.72088054836377,23.25167298316956,Chinese Restaurant
1008,121,42.6977,23.3219,25,16,4c5844622308be9ac6fd5a6c,Izvora,42.697478000000004,23.323485,Eastern European Restaurant
623,623,42.6977,23.30856666666667,31,0,4c5af2326407d13aafe2b528,Македонска среща,42.6962817152468,23.307341207020446,Eastern European Restaurant
505,505,42.6877,23.30856666666667,13,1,4c6120673986e21ef7cd954f,Пей Сърце,42.68596297072787,23.3063998700852,Mediterranean Restaurant
230,230,42.6677,23.2819,15,14,4c6ea95e4d24b60c4947d9d8,Mystic,42.66432409366361,23.284303321961488,Bar
625,625,42.6977,23.30856666666667,31,2,4c753fd72db5236a1b68bc79,Контеса,42.70209005213964,23.308833080980023,Bulgarian Restaurant
911,24,42.689960929332386,23.318844769894888,34,13,4c757c938d70b713d807d9ad,Pizza Roma,42.69131357938544,23.318914320140966,Italian Restaurant
188,188,42.6577,23.388566666666666,7,0,4c7650ba604a37049cf78449,При Братовчеда,42.656262254802655,23.38679852387657,Bulgarian Restaurant
342,342,42.6777,23.2819,13,0,4c867e012f1c236a86b45d43,"Дюнер ""Фантазия""",42.67824111254123,23.285606447476397,Doner Restaurant
332,332,42.6677,23.4019,7,3,4c87c35e13e3b1f760cfd346,I Pin Low,42.668671044501636,23.396941423416138,Asian Restaurant
1048,161,42.695439070667604,23.31884427792296,50,7,4c8a6a5a2e333704d06fc341,Пасторант (Pastorant),42.69330833788277,23.31907306811265,Italian Restaurant
281,281,42.6677,23.34856666666667,22,4,4c8a7ea652a98cfaee242de9,Mezze,42.66994607181748,23.352513344211033,Greek Restaurant
710,710,42.6977,23.33523333333333,35,6,4c8fb4910b9e37048f90615e,Taj Mahal,42.69817160566966,23.33227345408349,Indian Restaurant
448,448,42.6777,23.34856666666667,4,3,4c910b277088a143c1aaad43,Restaurant Panorama,42.673589063027755,23.347853917478734,Eastern European Restaurant
445,445,42.6777,23.34856666666667,4,0,4c921fa27088a143c989b643,Park Cafe,42.673669853910745,23.347508206294993,Eastern European Restaurant
372,372,42.6777,23.30856666666667,23,0,4c99a86878ffa0936fdb6575,Golden Nero,42.67760130804674,23.309949378359786,Italian Restaurant
618,618,42.6977,23.29523333333333,6,1,4c9ddf65031337044de062d5,Тон Шин Юан,42.700249925015115,23.29856066423252,Chinese Restaurant
508,508,42.6877,23.30856666666667,13,4,4cadf5640c1e6dcb5a0d7abf,Sushi Express,42.688215851997924,23.31233630157595,Sushi Restaurant
757,757,42.6977,23.34856666666667,25,18,4caf660fcbab236a97cd9773,Restaurant Murphy,42.69604480327133,23.34806528779473,Eastern European Restaurant
73,73,42.6477,23.26856666666667,11,1,4cb4914d39458cfa09da21a0,Лимончето,42.64781362106897,23.265263929752106,Eastern European Restaurant
595,595,42.6877,23.34856666666667,18,13,4cb58abd589f236a91c0303d,Имола (Imola),42.68680954364513,23.34557120376658,Eastern European Restaurant
852,852,42.7177,23.29523333333333,10,9,4cb6d25b3ac93704bd7ad60a,Trohata,42.721668755968224,23.29281806945801,Eastern European Restaurant
31,31,42.6277,23.37523333333333,20,18,4cbd7549f50e224b248504fc,"Кулинарна къща ""Na-Na""",42.625721891473816,23.37733954713581,Eastern European Restaurant
847,847,42.7177,23.29523333333333,10,4,4cc126d656bda0930a65ea35,Bistro EnTel,42.718045659910345,23.298015399790568,Eastern European Restaurant
863,863,42.7277,23.30856666666667,9,1,4cc15a171da0a1cdd46d99c6,"Бистро ""Музите""",42.72812042196217,23.308648292468792,Eastern European Restaurant
796,796,42.7077,23.30856666666667,9,2,4cc31c8242d1b60c0a0d1513,Сите българи заедно,42.711095245796216,23.30974625359187,Bulgarian Restaurant
634,634,42.6977,23.30856666666667,31,11,4cc488171e596dcb3035d267,Gatto Silvestro,42.696432,23.313607,Italian Restaurant
444,444,42.6777,23.33523333333333,12,11,4cc6ff7038aaa093b9882162,Sage Bistro,42.678218073347246,23.33127752883548,Italian Restaurant
167,167,42.6577,23.34856666666667,12,2,4cc71045806246884d91452f,Ланг Цао,42.656844530908025,23.343109544442765,Chinese Restaurant
734,734,42.6977,23.33523333333333,35,30,4ccef0202dc43704e3b9d708,Бижу,42.695748892196974,23.33683527858486,Bulgarian Restaurant
25,25,42.6277,23.37523333333333,20,12,4cd04c4d01eaf04d7606b85d,Bricks,42.62791159501243,23.37428840482069,Pizza Place
220,220,42.6677,23.2819,15,4,4cd467b27da9a35d1e6fe3b9,Deng Feng,42.6683663780676,23.2844082121916,Chinese Restaurant
627,627,42.6977,23.30856666666667,31,4,4cd55312b6962c0fc2422e96,Магданоз (Magdanoz) (Магданоз),42.6947346626653,23.310938225097658,Bulgarian Restaurant
569,569,42.6877,23.33523333333333,15,2,4cd5a75bdfb4a1cd2b8b5a5c,Веселото Село,42.683663597201345,23.33709631052982,Eastern European Restaurant
711,711,42.6977,23.33523333333333,35,7,4cd6d8e2886cb60cc1f38b89,Дървеното,42.697463258840145,23.338513225532413,Beer Garden
367,367,42.6777,23.29523333333333,17,12,4cd993089a1a2c0f42d31272,Mehana Vodopadi Krushuna,42.67680092612317,23.295333684058427,Bulgarian Restaurant
727,727,42.6977,23.33523333333333,35,23,4cda7452d4ecb1f716a57348,UNO Restorante,42.69694129785215,23.330041828280567,Italian Restaurant
512,512,42.6877,23.30856666666667,13,8,4cda78f9d5495481333236b2,"Винарна ""Вкусната хапка""",42.68707924,23.31043612,Mediterranean Restaurant
402,402,42.6777,23.3219,38,7,4ce18b50ffcf370414722682,Focaccia,42.67351803391146,23.321749061130728,Mediterranean Restaurant
851,851,42.7177,23.29523333333333,10,8,4ce25ed070bba1cd3f7176c4,Strabag,42.717323531685956,23.293515967514782,Eastern European Restaurant
855,855,42.7277,23.25523333333333,1,0,4ce27d7069136dcba388efe6,Герана,42.73004439,23.25905643,Bulgarian Restaurant
1033,146,42.69996092933239,23.31884427792296,24,16,4ce2c4753644a093584b649f,"Ресторант ""Българска завера""",42.69859492778778,23.31803619861603,Eastern European Restaurant
488,488,42.6877,23.25523333333333,5,1,4ce41436bddcb1f730188089,Китайски ресторант Цай Син Лоу,42.690546386168926,23.25702935672484,Chinese Restaurant
375,375,42.6777,23.30856666666667,23,3,4ce576ccca41236adc757c4b,Амира,42.67632788305714,23.303543506267317,Eastern European Restaurant
404,404,42.6777,23.3219,38,9,4ce5b4b530205941304cf3c7,OLA,42.67858824410725,23.32053977603316,Mediterranean Restaurant
483,483,42.6777,23.388566666666666,1,0,4cebff30f3bda1439c18cfe4,Шишковците,42.679453010848434,23.383352425104274,Eastern European Restaurant
211,211,42.6677,23.26856666666667,10,5,4ceeab9ff368b1f71de681f7,Клуб-ресторант БАТО,42.669703999999996,23.2693,Eastern European Restaurant
741,741,42.6977,23.34856666666667,25,2,4cef9340ed62721e9e0c61fd,"Дюнер ""Мадрид""",42.696363898348544,23.349006008412115,Doner Restaurant
515,515,42.6877,23.30856666666667,13,11,4cf7948f71538cfa33f9bb2e,Elvis,42.69099260031415,23.31044315514428,Eastern European Restaurant
56,56,42.6377,23.37523333333333,14,4,4cf7da491cfea0936616e739,Хуа Нан (Hua Han),42.635545,23.372479000000002,Asian Restaurant
557,557,42.6877,23.3219,50,40,4cfd3382c671721e00a6cc18,Franco Resaurant,42.691289000000005,23.322058,Modern European Restaurant
941,54,42.68543907066761,23.318844769894888,11,9,4cfe0d0ffeec6dcbdc8a5536,Zappa,42.68448760197201,23.31656679521307,Breakfast Spot
779,779,42.7077,23.29523333333333,19,4,4d010ff42685a35db12ccc90,Червено Слънце (Red Sun),42.70536397186324,23.298629056462296,Chinese Restaurant
142,142,42.6577,23.30856666666667,18,1,4d052fe88620224b0b02ad40,Ресторант Фея,42.655024635433456,23.30961227161748,Bulgarian Restaurant
290,290,42.6677,23.34856666666667,22,13,4d060d51e350b60cb46a8b42,Шерифите,42.668632,23.348254,Eastern European Restaurant
117,117,42.6477,23.4019,15,4,4d08a4a984ec224bbf9a2a62,"Механа ""Къщата""",42.650565203805925,23.40504344634176,Middle Eastern Restaurant
223,223,42.6677,23.2819,15,7,4d0e4f5de0b98cfab30fe193,Fortuna Pizza,42.67000375076498,23.284934789343254,Pizza Place
363,363,42.6777,23.29523333333333,17,8,4d10841071e8a1cdb70b81bd,"Механа ""Орехчето""",42.67636829434032,23.29127519840817,Bulgarian Restaurant
858,858,42.7277,23.29523333333333,5,1,4d1255571f95236a19393d06,Механа Чановете,42.727857137234615,23.30033488714318,Eastern European Restaurant
384,384,42.6777,23.30856666666667,23,12,4d1364f0f898b1f705c4df81,Механа Трифон Зарезан,42.680118112436865,23.310232836970325,Eastern European Restaurant
790,790,42.7077,23.29523333333333,19,15,4d1396409844b60cfffbc3d4,мехена Кьошето,42.70398938841698,23.29544991387655,Eastern European Restaurant
240,240,42.6677,23.29523333333333,18,9,4d1605256d103704bbd22dbd,go pasta,42.668863825197185,23.301063938563853,Italian Restaurant
590,590,42.6877,23.34856666666667,18,8,4d237e6f836f5481587d3bf7,Cosa Nostra,42.68899756773921,23.343940547434077,Italian Restaurant
337,337,42.6777,23.25523333333333,4,1,4d25a2583574a143d2b24fd1,"Гостилница ""Гозбите на баба""",42.67922662,23.25082764,Eastern European Restaurant
414,414,42.6777,23.3219,38,19,4d26f8974ab78eec89132c26,Развигор,42.68000946622994,23.32575000668389,Eastern European Restaurant
168,168,42.6577,23.34856666666667,12,3,4d275e5a55a8b60c123dc3c0,Ресторант Магико,42.659085938708174,23.353633527897035,Greek Restaurant
700,700,42.6977,23.3219,50,46,4d28a2ef915fa09395c8fe09,Панорама / Panorama,42.69810740548375,23.327442163082875,Eastern European Restaurant
279,279,42.6677,23.34856666666667,22,2,4d2ae4e7068e8cfaeab3dd4c,Хуа Синг Лоу (Hua Sing Lou),42.67210268470743,23.349672111468767,Chinese Restaurant
339,339,42.6777,23.25523333333333,4,3,4d2c38a2ebacb1f7ee791250,Pomodoro,42.67815995160697,23.255528508447913,Italian Restaurant
199,199,42.6577,23.4019,7,4,4d2c75993c795481e935f19b,Chinese Restaurant,42.65865812953576,23.397786294625462,Chinese Restaurant
394,394,42.6777,23.30856666666667,23,22,4d381103d60c6dcb89fa73bc,kiparis,42.676687,23.311238,Eastern European Restaurant
129,129,42.6577,23.26856666666667,2,0,4d3dbefefb4c548103dbdf14,Turquoise (Тюркоаз),42.659052005018246,23.27255738794358,Turkish Restaurant
206,206,42.6677,23.26856666666667,10,0,4d3eb054fb4c5481f9dee714,Кай Юе,42.669076678517754,23.266353729739986,Chinese Restaurant
431,431,42.6777,23.3219,38,36,4d4d47c74aa3a093d50441ae,Bulgarian Meal,42.678669831183,23.321112250028,Eastern European Restaurant
1014,127,42.6977,23.3219,25,22,4d4d9ec09ee137041123868b,Sheraton Italian Restaurant,42.69709977491938,23.3218742142539,Italian Restaurant
714,714,42.6977,23.33523333333333,35,10,4d4dad3280cb6dcb62531301,Мияби (Miyabi),42.698798636297056,23.330422624312988,Japanese Restaurant
1126,239,42.695439070667604,23.32495572207704,16,13,4d5654d748ea6ea83573dfa3,Софийска баница,42.69380778517441,23.322902302293162,Eastern European Restaurant
617,617,42.6977,23.29523333333333,6,0,4d568f71611aa35ddc824239,Тон Шин Юан (Ton Shin Yuan),42.694451651356246,23.29213944526412,Chinese Restaurant
578,578,42.6877,23.33523333333333,15,11,4d57bdf7c406a35ddb1cec4a,Ресторант Байонет,42.689769972557976,23.332706381520467,Eastern European Restaurant
104,104,42.6477,23.37523333333333,9,1,4d5912ebe092a35d7cacfb0b,Къщата с кипарисите,42.647671736387146,23.372941934398785,Bulgarian Restaurant
717,717,42.6977,23.33523333333333,35,13,4d597058fe7c224b512678b5,Vino & Tapas,42.698253697041416,23.331999392605034,Tapas Restaurant
377,377,42.6777,23.30856666666667,23,5,4d5d07876f6d6ea8c3056bec,Майсторите На Дюнера,42.67687707014189,23.303351560398262,Doner Restaurant
884,884,42.7377,23.30856666666667,4,3,4d5f480f5b276dcb321206c6,Ни-кай,42.73640179452856,23.30732336000816,Eastern European Restaurant
913,26,42.689960929332386,23.318844769894888,34,15,4d63a573a5be236a7cd6c3db,Veselata Gozba,42.690948,23.317846,Eastern European Restaurant
450,450,42.6777,23.3619,30,1,4d6e24d029586dcb5fc2adf1,Мечките,42.679952225956455,23.363404774984282,Bulgarian Restaurant
128,128,42.6577,23.2419,1,0,4d72360d3815f04d86cf8967,Дедо Мацо,42.657394000000004,23.240028,Bulgarian Restaurant
866,866,42.7277,23.30856666666667,9,4,4d7a4ef5fed6a0937b23a056,Бирария Сърцето,42.728025,23.310715,Eastern European Restaurant
478,478,42.6777,23.3619,30,29,4d7b5cc7ea35236aeaf84323,Mechki,42.68025,23.362932999999998,Eastern European Restaurant
914,27,42.689960929332386,23.318844769894888,34,16,4d7e47cddd4a6ea86d7b6625,Механче,42.69007086753845,23.321741,Eastern European Restaurant
798,798,42.7077,23.30856666666667,9,4,4d7e4d42cd09224bfcb14730,Jin Yuan,42.70358912905415,23.308070235270357,Chinese Restaurant
191,191,42.6577,23.388566666666666,7,3,4d81e54dbaf9a35d8c9c9e21,Болярите,42.655729883251716,23.38901722333464,Eastern European Restaurant
609,609,42.6877,23.4019,2,0,4d81ec657252a1cda8f7a25d,Ресторант МитЯн,42.686754809262034,23.40164576879315,Caribbean Restaurant
747,747,42.6977,23.34856666666667,25,8,4d83bdd4f1e56ea85bf0668a,"Банска къща ""Миле Попйорданов""",42.69513218414707,23.35045337677002,Eastern European Restaurant
282,282,42.6677,23.34856666666667,22,5,4d8734a49324236afe02f10e,Лозата (Lozata),42.667487948012216,23.353736420014528,Eastern European Restaurant
136,136,42.6577,23.2819,7,5,4d879bc099b78cfa40ccfc1f,Lounge Bar Sushi & more,42.655395298398425,23.280330411254248,Sushi Restaurant
592,592,42.6877,23.34856666666667,18,10,4d8880a43acc6dcb4352081c,Rich House,42.6898024477253,23.35156730165524,Eastern European Restaurant
567,567,42.6877,23.33523333333333,15,0,4d8f244cc1b1721e0ec33f46,Мимас,42.68744529253959,23.32990746091616,Doner Restaurant
646,646,42.6977,23.30856666666667,31,23,4d936deb922c6ea81bd16579,Shunt Lung,42.69683277991342,23.30496181958872,Chinese Restaurant
854,854,42.7177,23.33523333333333,2,1,4d937372922c6ea8fa566679,Гостилница При Шопите,42.717304908864996,23.33929131452715,Eastern European Restaurant
224,224,42.6677,23.2819,15,8,4d9751acc19fb60cdf509365,Restorant Rodopski Izvor,42.669274,23.285968,Greek Restaurant
277,277,42.6677,23.34856666666667,22,0,4d975537942ba0939689698c,Корейски ресторант Юн,42.66853063082494,23.34380986379519,Korean Restaurant
472,472,42.6777,23.3619,30,23,4d99f8152bd6f04d69768a50,Приятелите,42.676844222540865,23.36227161182292,Eastern European Restaurant
382,382,42.6777,23.30856666666667,23,10,4d9ac5ee2ae860fc72897dcb,Facebook,42.67462811104214,23.312807359348593,Sushi Restaurant
789,789,42.7077,23.29523333333333,19,14,4d9d82a4c4b53704c63a172e,Gray,42.707853652639756,23.298861897636446,Pizza Place
984,97,42.68543907066761,23.324955230105115,14,6,4d9df97fc99fb60cac74d38b,Orfei,42.684307975,23.32262536666667,Eastern European Restaurant
942,55,42.68543907066761,23.318844769894888,11,10,4da05149e8a6721e618634a5,"Китайски ресторант ""Сиклай""",42.686861801832116,23.31700434990703,Chinese Restaurant
381,381,42.6777,23.30856666666667,23,9,4da19523c6e96ea81750c35d,Club Freddy,42.676191565744425,23.31109663033415,Eastern European Restaurant
916,29,42.689960929332386,23.318844769894888,34,18,4da1d2bf63b5a35dd344f019,La Casa Latina,42.69128224627788,23.320464212951556,Latin American Restaurant
822,822,42.7077,23.34856666666667,4,3,4da2cba5c6e96ea8a887db5d,Da Noi,42.709633000000004,23.34889,Italian Restaurant
355,355,42.6777,23.29523333333333,17,0,4da57af7f7b16ce044a4149d,Al Dente,42.68158374449368,23.294189340828158,Italian Restaurant
294,294,42.6677,23.34856666666667,22,17,4da6c2a31e725f122973d4e2,Principi Di Piemonte,42.67042708476878,23.35099536437905,Italian Restaurant
159,159,42.6577,23.3219,3,0,4daefde30cb65a8b0d2588fa,Фаст Бургер,42.659902865353814,23.31667964559277,Fast Food Restaurant
764,764,42.6977,23.37523333333333,1,0,4db0387d1e729fcc563b1607,Чановете,42.69954779040335,23.37128154942552,Eastern European Restaurant
340,340,42.6777,23.26856666666667,2,0,4db410b543a1369cb5b1eceb,Ресторант-градина Славия,42.67917648146826,23.272134177035674,Eastern European Restaurant
102,102,42.6477,23.3619,5,4,4dba90015da389d2c23ddc8f,Ресторант 789,42.6482894019106,23.356550981822647,Bulgarian Restaurant
604,604,42.6877,23.3619,7,4,4dbbc7b3fa8cee72733ad422,aлкохолa,42.689062,23.36241598,Thai Restaurant
572,572,42.6877,23.33523333333333,15,5,4dbc619743a1d8504b8a7db4,Грозд (Grozd) (Грозд),42.691863601353866,23.33636373281479,Eastern European Restaurant
184,184,42.6577,23.37523333333333,8,4,4dbd4fdb0437955ec0490e84,Шанхай,42.66033839662597,23.374649162843248,Asian Restaurant
473,473,42.6777,23.3619,30,24,4dc9716d45dd5c3d15897434,East West,42.673895894750686,23.3623805219,Sushi Restaurant
41,41,42.6377,23.30856666666667,8,4,4dca6777c65bebb82f373c4c,Phoenicia,42.63917982859046,23.31348180770874,Middle Eastern Restaurant
464,464,42.6777,23.3619,30,15,4dce61c21f6eb122707887e1,Тиан Хъ,42.67847041705871,23.360200635029425,Chinese Restaurant
501,501,42.6877,23.29523333333333,7,4,4dd50a93183859a589b008e6,Борсалино,42.688665,23.298699,Eastern European Restaurant
1103,216,42.69996092933239,23.32495572207704,22,12,4dd63a73d4c05d5096cacb14,"Ресторант ""Алкор""",42.69940592189281,23.32601308822632,Eastern European Restaurant
982,95,42.68543907066761,23.324955230105115,14,4,4dd643a4c65bee535a93fb31,Вратата,42.68423681956617,23.32732376479137,Mediterranean Restaurant
453,453,42.6777,23.3619,30,4,4dd693337d8b322663da141b,"Ресторант ""Люти Чушки""",42.679629519758656,23.358111078979267,BBQ Joint
65,65,42.6377,23.37523333333333,14,13,4dd6a897e4cd37c8939830d2,АМИГОС,42.635288933333335,23.37847785,Eastern European Restaurant
232,232,42.6677,23.29523333333333,18,1,4dd8e678e4cd37c893cfa98e,Мън Фу Юен - Благословена градина (Meng Fu Yuan),42.67057727684169,23.295083182532462,Chinese Restaurant
109,109,42.6477,23.37523333333333,9,6,4dde828fe4cd19127381fc06,Picant,42.64942467212678,23.376218676567078,Eastern European Restaurant
602,602,42.6877,23.3619,7,2,4de0cbd08877aab7fe52fc11,Механа При Ловците,42.69019883877882,23.365495505441647,Eastern European Restaurant
8,8,42.6277,23.30856666666667,9,8,4de0ea6345dd3eae877997c0,Restaurant Edi,42.6297406651796,23.30875718971819,Mediterranean Restaurant
799,799,42.7077,23.30856666666667,9,5,4de22ecc52b1d38d29677665,Китайски Ресторант Нова Звезда,42.70458304177244,23.305440988675876,Chinese Restaurant
328,328,42.6677,23.388566666666666,1,0,4de4c71e18385df2b05b31f2,"Ресторант ""Мальовица""",42.66895467059053,23.38691198194807,Eastern European Restaurant
458,458,42.6777,23.3619,30,9,4de65b302271f377c2a8241b,Небесен дракон,42.676024,23.360419,Chinese Restaurant
348,348,42.6777,23.2819,13,6,4de76dd31f6ed9a35eef4882,Леон,42.67748146,23.284238000000002,Eastern European Restaurant
71,71,42.6477,23.25523333333333,1,0,4de914c87d8b02ee9f2631e8,Механа Старата круша,42.649524243243114,23.258967423200804,Bulgarian Restaurant
715,715,42.6977,23.33523333333333,35,11,4df4c20b45dd4e269344f91b,La Piccola Salumeria,42.70034511715056,23.33395602385845,Italian Restaurant
771,771,42.7077,23.26856666666667,5,3,4df9d29b2271faf21fed85bf,Сръбска Скара,42.71142297777542,23.27103972744861,Eastern European Restaurant
140,140,42.6577,23.29523333333333,3,2,4dfb1b01149557de37ac0f6f,Най-вкусните Манджи,42.661696,23.294385000000002,Eastern European Restaurant
559,559,42.6877,23.3219,50,42,4dfceda7ae6033b2a4764d7a,Family,42.691579674808075,23.322587191113772,Czech Restaurant
491,491,42.6877,23.25523333333333,5,4,4dff48bfd4c00c69c14bdcb1,Fast Burger OK2,42.68686786666667,23.258775433333334,Asian Restaurant
361,361,42.6777,23.29523333333333,17,6,4e0213d7b61c90045006fb94,Restorant Club 53,42.67650535598344,23.29136085300468,Chinese Restaurant
586,586,42.6877,23.34856666666667,18,4,4e032529e4cdbd9a51765e47,Ресторант Колелата,42.68745358158718,23.352337461032,Eastern European Restaurant
261,261,42.6677,23.3219,25,10,4e046242c65b59b611da6211,Суен Фън Юен,42.668753288840044,23.318337313310213,Chinese Restaurant
471,471,42.6777,23.3619,30,22,4e09cd416284d9ee92e4a33b,Wurst Haus,42.679152036944735,23.36017825887613,German Restaurant
746,746,42.6977,23.34856666666667,25,7,4e0dcb57aeb7a5b33ee2ebc9,"""Дворецът на драконите""",42.696432562026246,23.35181209875173,Chinese Restaurant
476,476,42.6777,23.3619,30,27,4e120b37483bee47ff372ee3,Дюнер Изток,42.675297313000996,23.358118163004345,Fast Food Restaurant
346,346,42.6777,23.2819,13,4,4e15e68445ddafda4c011457,Механа Байовата Къща,42.67841897514986,23.286928050764494,Bulgarian Restaurant
803,803,42.7077,23.3219,13,0,4e1605428877cd5712135bdb,Хаджидрагановите къщи (Hadjidraganov's Houses),42.70657472921813,23.322629785075478,Bulgarian Restaurant
605,605,42.6877,23.3619,7,5,4e188e65ae6092c27653232a,Шан Хай,42.68915826534775,23.36308916127604,Chinese Restaurant
74,74,42.6477,23.26856666666667,11,2,4e19b9086284ea72470484a8,Боянско ханче,42.64644239261328,23.267103244545456,Bulgarian Restaurant
638,638,42.6977,23.30856666666667,31,15,4e1acbb5fa76194645a6d205,Ciao Ciao,42.698454,23.312458,Eastern European Restaurant
872,872,42.7377,23.25523333333333,1,0,4e1c0db41fc714dc5c312b50,Гостилница,42.734944608052146,23.253711462020874,Eastern European Restaurant
487,487,42.6877,23.25523333333333,5,0,4e1c8b4e14954cd5e423f9a3,пицария Винарната,42.686372426232474,23.255377730761214,Pizza Place
925,38,42.689960929332386,23.318844769894888,34,27,4e1cd04cae605fbe03885dd5,Китайски Дракон,42.6897674,23.316609600000003,Chinese Restaurant
723,723,42.6977,23.33523333333333,35,19,4e1d9d1dfa7653a9b2e47b6a,Senor Taco,42.698016900211655,23.329944521920122,Taco Place
75,75,42.6477,23.26856666666667,11,3,4e21fc1de4cdf685918b6cc2,Три Кладенци,42.64922218657677,23.266109314640442,Eastern European Restaurant
204,204,42.6677,23.25523333333333,4,2,4e2271dfe4cdf68591909208,КръЧмето до сп. нa 111,42.664986829432436,23.25968460620689,American Restaurant
67,67,42.6377,23.388566666666666,2,1,4e2b0bbb18387cce066eb627,Ресторант Вкусно,42.640651796976144,23.38513485397227,Eastern European Restaurant
811,811,42.7077,23.3219,13,8,4e2c4b18a809f1b164187d03,Механа Боляр,42.706625297837,23.321795203712224,Eastern European Restaurant
237,237,42.6677,23.29523333333333,18,6,4e2fe5e245ddcf0f5c86dced,Ресторант Чайка,42.67136462645263,23.29561808735276,Eastern European Restaurant
410,410,42.6777,23.3219,38,15,4e32bec06284e269994a11e3,BMS Българска кухня,42.678490671506545,23.32055340944959,Eastern European Restaurant
245,245,42.6677,23.29523333333333,18,14,4e356e2614952ff6cbc791cc,Italian Food Shop,42.664631910102976,23.298119874507393,Italian Restaurant
256,256,42.6677,23.3219,25,5,4e3c20da52b1a04aff05dcd8,Pavarotti,42.67045905819646,23.31889701422609,Italian Restaurant
635,635,42.6977,23.30856666666667,31,12,4e3c20e62271d21e86e405af,BMS,42.698481679230966,23.309267462220216,Eastern European Restaurant
5,5,42.6277,23.30856666666667,9,5,4e401c7cb0fb875af8844066,Старата Къща,42.627119976523645,23.30826974163373,Eastern European Restaurant
850,850,42.7177,23.29523333333333,10,7,4e424b59b0fb09b6086c7dc1,"Бистро ""При Бай Данчо""",42.71755126063183,23.296392287883357,Eastern European Restaurant
834,834,42.7177,23.25523333333333,8,2,4e496a1f62e13240b6f18cbc,Нова Луна,42.71453164771278,23.256927391503893,Chinese Restaurant
845,845,42.7177,23.29523333333333,10,2,4e4e31cf45ddff0031ad933e,Orbita,42.71728233870186,23.296186084648102,Cuban Restaurant
819,819,42.7077,23.34856666666667,4,0,4e5152287d8bd425e4aa1711,"Механа ""ПРИ ХАДЖИЯТА""",42.706636730782215,23.34804362500061,Bulgarian Restaurant
462,462,42.6777,23.3619,30,13,4e593aad8877c8a76de2cddf,Китайски ресторант ”Небесен дракон”,42.67582301342163,23.35963490827363,Chinese Restaurant
30,30,42.6277,23.37523333333333,20,17,4e5f6db3e4cdfc603ee81765,"Китайски Ресторант ""Hua Nan""",42.62997596760511,23.38049322961397,Chinese Restaurant
718,718,42.6977,23.33523333333333,35,14,4e5fc3e0b61c67886dc7dfb1,"Ресторант ""Българи""",42.698877308210776,23.336873879558567,Eastern European Restaurant
43,43,42.6377,23.30856666666667,8,6,4e6b6b87d164c37bf500284d,Pasha Restaurant,42.637395,23.311575,Middle Eastern Restaurant
748,748,42.6977,23.34856666666667,25,9,4e6de35245dd2932739f2b0b,3 сестри,42.6940202951692,23.348423437615924,Paella Restaurant
429,429,42.6777,23.3219,38,34,4e6f1f4da809952e23b8a37d,Хайдути (Haiduti),42.67784276265325,23.31982437591488,Eastern European Restaurant
726,726,42.6977,23.33523333333333,35,22,4e70d65388773f007b6f1160,m & k,42.695724,23.339961,Italian Restaurant
576,576,42.6877,23.33523333333333,15,9,4e771577d22d80eb33e9a7a8,"Китайски Ресторант ""Цан Чун Гъ""",42.68869484720937,23.329281268854817,Chinese Restaurant
786,786,42.7077,23.29523333333333,19,11,4e7a1f9cd22d391717ecc6ca,"Ресторант ""88""",42.706140733124364,23.290767784411997,Chinese Restaurant
825,825,42.7077,23.3619,4,2,4e7b83d1dab41c8304ddf735,Китайски Ресторант,42.708316770928036,23.356614951863627,Chinese Restaurant
780,780,42.7077,23.29523333333333,19,5,4e7f243ab6347496660f1e81,Дюнер Рафи,42.70590164043328,23.29395133234373,Doner Restaurant
405,405,42.6777,23.3219,38,10,4e81939a61afb19139ddaa74,Заведение За Бързо Хранене Българска И Китайска Кухни,42.67815590540176,23.32121539390668,Chinese Restaurant
321,321,42.6677,23.3619,25,22,4e819e8a77c85327c5bbc6b0,Избата,42.66996315819456,23.358290239832982,Eastern European Restaurant
456,456,42.6777,23.3619,30,7,4e836c5fbe7bdd8e4e82b14e,Chilli Pepper (Lioti Tsoushki),42.67950439453125,23.358774185180664,Eastern European Restaurant
422,422,42.6777,23.3219,38,27,4e83957130f82b8bfa6457ca,SofiaMilk,42.67420081606225,23.318352699279785,Middle Eastern Restaurant
212,212,42.6677,23.26856666666667,10,6,4e85f14a7ee62475b6020d39,"Ресторант ""Градината""",42.66906280920038,23.266355652913965,Eastern European Restaurant
728,728,42.6977,23.33523333333333,35,24,4e85fb150aafdd0b121e54f6,Хуа Синг Син Лоу,42.70026604207784,23.334303883205017,Chinese Restaurant
733,733,42.6977,23.33523333333333,35,29,4e8606f130f873b8fa4bb6d8,Ristorante Italiano da Vincenzo,42.70031627216798,23.333888390149692,Italian Restaurant
94,94,42.6477,23.34856666666667,6,2,4e8ecdcb8b8140003849cb20,НАША КУХНЯ,42.6471388363259,23.354257139317927,Bulgarian Restaurant
307,307,42.6677,23.3619,25,8,4e9076b346908c033f251b1e,La Pastaria,42.666038770311644,23.356989517408284,Italian Restaurant
1017,130,42.69996092933239,23.31884427792296,24,0,4e907b50722ebb868bb5a774,Avrasia (Авразия) (Турски Ресторант „Авразия”),42.70193959357899,23.31874075414907,Turkish Restaurant
390,390,42.6777,23.30856666666667,23,18,4e998623cc218247d95e4f61,Globus,42.676332853182345,23.307678920378304,Eastern European Restaurant
180,180,42.6577,23.37523333333333,8,0,4e9dcd45d3e31270c90e4fd2,Механа Младостъ,42.66186073109982,23.37537163175918,Bulgarian Restaurant
842,842,42.7177,23.2819,1,0,4ea52ed0b80355a982df58ac,При Съско,42.718752525238095,23.27845233197446,Eastern European Restaurant
123,123,42.6477,23.4019,15,10,4ea7e68730f897d8db2c6ed1,FOREGO,42.64878722063313,23.402835278706146,French Restaurant
452,452,42.6777,23.3619,30,3,4eae8582dab4a75e0a86ffd3,Capri / Капри,42.67385786477067,23.36209171680226,Eastern European Restaurant
124,124,42.6477,23.4019,15,11,4eb02db330f8614931ab51e4,Ta Fu Hao,42.648655591493885,23.402890527881475,Chinese Restaurant
119,119,42.6477,23.4019,15,6,4eb2c9f230f8f1e8b99699e2,Кaйрака,42.64838287483357,23.40345566888493,Bulgarian Restaurant
125,125,42.6477,23.4019,15,12,4eb566365c5c5a531ffe91b3,Kairaka,42.64838733489081,23.403423180443802,Eastern European Restaurant
785,785,42.7077,23.29523333333333,19,10,4eb9788d77c8972738bf54fe,Ресторант Градина,42.70705335882005,23.289600551310702,Eastern European Restaurant
22,22,42.6277,23.37523333333333,20,9,4ec291d55c5c3d470df582f4,Tekila,42.626524136542734,23.37326305749464,Mexican Restaurant
364,364,42.6777,23.29523333333333,17,9,4ec29bf177c885a64faf1190,Tavo,42.67369688663016,23.297768747094164,Mexican Restaurant
732,732,42.6977,23.33523333333333,35,28,4ec40da69adf8da74ef24ffc,Небесен Дракон,42.69736805370003,23.32977413632152,Chinese Restaurant
239,239,42.6677,23.29523333333333,18,8,4ec4faca7ee571eed66e242b,Azzurro,42.66731006157541,23.290518211124393,Mediterranean Restaurant
116,116,42.6477,23.4019,15,3,4ec53621775b7dea87aa2d9e,Китайски ресторант ТА ФУ ХАО,42.65013678120225,23.404689681056038,Chinese Restaurant
560,560,42.6877,23.3219,50,43,4ec561f2cc21a1307325525d,Къщата,42.68763779470494,23.317987744292,Eastern European Restaurant
731,731,42.6977,23.33523333333333,35,27,4ec8ecd36c251306cd2657db,Bona Dea Pasta,42.698755418059285,23.33422064781189,Italian Restaurant
742,742,42.6977,23.34856666666667,25,3,4ec8f065e5fa232a76e231f9,Българанъ,42.69552009406336,23.348042079121218,Bulgarian Restaurant
644,644,42.6977,23.30856666666667,31,21,4ec8fe62e5fa232a76f0b280,"Бистро ""При Снежето""",42.69817317093417,23.31066165528382,Eastern European Restaurant
466,466,42.6777,23.3619,30,17,4eca291c49010f98cf9c836a,La Fantasia,42.676043129414275,23.3593360601656,Italian Restaurant
775,775,42.7077,23.29523333333333,19,0,4eccd375e30072984bbe2012,Bar & Dinner FIORE 21,42.705618499336026,23.29395650309729,Italian Restaurant
197,197,42.6577,23.4019,7,2,4ed0cad50e61efa3317c33f6,Ця Хъ Юен,42.66125006674968,23.40089766623355,Chinese Restaurant
868,868,42.7277,23.30856666666667,9,6,4ed4fa8293ad512d8df4fd50,China Town,42.72617932662196,23.311214516273328,Chinese Restaurant
637,637,42.6977,23.30856666666667,31,14,4ed51870722e6f1fda9345c2,Проспериращ Китай,42.69741238132864,23.31452601924144,Chinese Restaurant
776,776,42.7077,23.29523333333333,19,1,4ed6888af7904ee28056cfb3,Nobu,42.70738211830269,23.291401249606746,Italian Restaurant
308,308,42.6677,23.3619,25,9,4edba288f9abeea3db19eec3,Китайски ресторант Изток,42.668010423757075,23.359642121967248,Chinese Restaurant
18,18,42.6277,23.37523333333333,20,5,4edcb507e300851bfc380f56,Fun House Pasta Bar,42.62592289280773,23.375805423975763,Italian Restaurant
1110,223,42.69996092933239,23.32495572207704,22,19,4edf53780aaf167e5402b1ac,При Македонеца,42.70102661044407,23.32420777215559,Eastern European Restaurant
374,374,42.6777,23.30856666666667,23,2,4ee118ff9adf58ec9e815df9,Отечество,42.6788836074778,23.31038855361166,Restaurant
759,759,42.6977,23.34856666666667,25,20,4ee35f2fe4b04d23dfd32502,Дон Дзин Лоу,42.69607249816399,23.347639681078824,Chinese Restaurant
1073,186,42.695439070667604,23.31884427792296,50,32,4ee361ed4690f8893f75d040,Шкембе и качамак,42.69336347813747,23.318400620945244,Eastern European Restaurant
709,709,42.6977,23.33523333333333,35,5,4ee6404bd3e34ebcf187eef4,Uli's,42.70072606013792,23.33270267941246,Eastern European Restaurant
802,802,42.7077,23.30856666666667,9,8,4ee7312d490141636c5b1a13,Дионис (Dionis),42.70679359021775,23.312108516693115,Eastern European Restaurant
36,36,42.6277,23.388566666666666,4,3,4ee9d950775b562a396759e7,Чановете,42.62801908514991,23.382790223953595,Eastern European Restaurant
439,439,42.6777,23.33523333333333,12,6,4eea358093ad7b2e9e8704aa,Вишните,42.67833263383419,23.33370021200761,Mediterranean Restaurant
163,163,42.6577,23.33523333333333,3,1,4eeba56cb8f70294273f0cda,Тополите,42.65490998336371,23.335653568763615,Mediterranean Restaurant
430,430,42.6777,23.3219,38,35,4f019f47b6346feaee7058b2,kitchen 69,42.678851934019264,23.323424227947484,Asian Restaurant
84,84,42.6477,23.33523333333333,8,0,4f02e777b8f787cad3f1b9bc,Национал,42.64831830907673,23.339122848965438,Bulgarian Restaurant
788,788,42.7077,23.29523333333333,19,13,4f088675e4b09a8a3f0cb66b,"Мото Кръчма ""Под Кривата Круша""",42.707004047307954,23.29671609267327,Eastern European Restaurant
21,21,42.6277,23.37523333333333,20,8,4f0c4576d5fb9d5ee472fa96,Go Pasta,42.62772281435753,23.37540864944458,Italian Restaurant
686,686,42.6977,23.3219,50,32,4f102ef9e4b06c588922ceab,Al-Nahrain (Ал-Нахрейн),42.701451124968315,23.321858780201737,Middle Eastern Restaurant
606,606,42.6877,23.3619,7,6,4f145809e4b0865b0a79315f,Китайски Ресторант Шанхай,42.68894923242095,23.36323879766552,Chinese Restaurant
769,769,42.7077,23.26856666666667,5,1,4f1600f2e4b0725ff019d70c,Fast Food,42.711536982741386,23.27016320109536,Taco Place
47,47,42.6377,23.33523333333333,2,0,4f1863eee4b0926438bc4cde,The Italian Job,42.63639515445397,23.33368170495304,Italian Restaurant
601,601,42.6877,23.3619,7,1,4f1c4934e4b04ae083f92e71,Храбрия Шивач,42.69111846533731,23.364896261331946,Bulgarian Restaurant
229,229,42.6677,23.2819,15,13,4f228e92e4b0b653a1907e07,Дънфън,42.668129109279725,23.284666248621548,Chinese Restaurant
693,693,42.6977,23.3219,50,39,4f23fee4e4b0008741d74798,Ciccione Panini Bar & Bakery,42.694270815083314,23.321684593401198,Italian Restaurant
78,78,42.6477,23.26856666666667,11,6,4f242ec8e4b063d4003cc35e,Villa Martini,42.647189286195506,23.26672882118268,Mediterranean Restaurant
88,88,42.6477,23.33523333333333,8,4,4f26c8bfe4b063d402d69447,Богат урожай,42.6448272561337,23.33672208093009,Chinese Restaurant
196,196,42.6577,23.4019,7,1,4f2d7678e4b0b0d083e76dc2,АриZона,42.653889130902726,23.399763647356128,Eastern European Restaurant
247,247,42.6677,23.29523333333333,18,16,4f339c2fe4b0b5f6deb66b61,Перла,42.666459997014314,23.297029093974647,Eastern European Restaurant
306,306,42.6677,23.3619,25,7,4f36a102e4b0a1f195f66e0d,Basilico,42.6701423706931,23.358648572586212,Italian Restaurant
844,844,42.7177,23.29523333333333,10,1,4f4214f1e4b0bf54caac66cb,Чадърите (Umbrellas),42.7172605005524,23.293544425864877,Eastern European Restaurant
1105,218,42.69996092933239,23.32495572207704,22,14,4f423c5ce4b0f6acbd1e00a3,Драга,42.701586757871844,23.326648814199174,Eastern European Restaurant
353,353,42.6777,23.2819,13,11,4f5641ece4b07893e1bf39ed,китайски ресторант,42.676992222037725,23.28789261724576,Chinese Restaurant
263,263,42.6677,23.3219,25,12,4f58fd39e4b0882cd72596e4,7 Halasses,42.67036235452957,23.32412289227779,Greek Restaurant
442,442,42.6777,23.33523333333333,12,9,4f59e632e4b05b19c9e402f0,Китайски Ресторант,42.67450537706651,23.33371116426715,Asian Restaurant
725,725,42.6977,23.33523333333333,35,21,4f5b55b6e4b0090c096ced83,La vita e bella,42.699076916307995,23.332724687674432,Italian Restaurant
966,79,42.689960929332386,23.324955230105115,35,23,4f5ba093e4b0c83982b5becf,13-те стъпала,42.6908399531508,23.325155920355826,Eastern European Restaurant
965,78,42.689960929332386,23.324955230105115,35,22,4f607d7fe4b071906c37a8ff,Балканска Скара,42.69107855415045,23.325425253240308,Eastern European Restaurant
243,243,42.6677,23.29523333333333,18,12,4f60db48e4b0d46100da4017,Space,42.66665868680622,23.29701528759969,Eastern European Restaurant
928,41,42.689960929332386,23.318844769894888,34,30,4f648039e4b0656124c796b4,Ambaka,42.69202588972293,23.319893627597327,Eastern European Restaurant
810,810,42.7077,23.3219,13,7,4f6780fee4b09ff9bf44e48f,Lucky Kitchen,42.70712005982657,23.320820928557488,Italian Restaurant
235,235,42.6677,23.29523333333333,18,4,4f6b1b54e4b0e15b86f47b47,Bistro Diani,42.668560913287465,23.28952362237801,Eastern European Restaurant
289,289,42.6677,23.34856666666667,22,12,4f6c5df5e4b0ca47afd789cf,Jollio,42.669002,23.345588,Eastern European Restaurant
133,133,42.6577,23.2819,7,2,4f6dea66e4b0e0075b00693e,Restorant Vinarnata,42.659538467856216,23.279279621839933,Italian Restaurant
309,309,42.6677,23.3619,25,10,4f70391be4b03b575ea32a61,Главна инспекция по труда,42.668045118288134,23.359480035275446,Japanese Curry Restaurant
24,24,42.6277,23.37523333333333,20,11,4f7d62cfe4b026d7f1ad324d,Funhouse,42.625796851333924,23.375748629382805,Italian Restaurant
186,186,42.6577,23.37523333333333,8,6,4f7de33ce4b0208682068765,Трите мечки,42.65964873766797,23.379107550875798,Eastern European Restaurant
98,98,42.6477,23.3619,5,0,4f808362e4b04cf788e21081,Enjoy,42.65152287743306,23.361891663557127,Eastern European Restaurant
489,489,42.6877,23.25523333333333,5,2,4f88086ae4b0ddfd80e234d3,Дюнери Масис,42.6891819090274,23.25492540840744,Doner Restaurant
34,34,42.6277,23.388566666666666,4,1,4f8fdbade4b027bf9ccca253,Обръщалото,42.625305179457285,23.38458302958736,Eastern European Restaurant
861,861,42.7277,23.29523333333333,5,4,4f92f334e4b0aed81f45b349,The Chinese,42.72893388700933,23.291082244148,Chinese Restaurant
406,406,42.6777,23.3219,38,11,4f930f12e4b0f888dce9f798,Вежен,42.67576626532432,23.320310748851558,Eastern European Restaurant
274,274,42.6677,23.3219,25,23,4f967ae1e4b0e750a1a7e5ee,Amora,42.671514195890474,23.32122300731681,Italian Restaurant
27,27,42.6277,23.37523333333333,20,14,4f97cfb0e4b0d3c3acdb5a1c,Bohemi,42.62865216835472,23.374216363491033,Eastern European Restaurant
424,424,42.6777,23.3219,38,29,4fa4d9dfe4b08e1f8864c081,Rastorant,42.67701377914519,23.325324321803237,Indian Restaurant
221,221,42.6677,23.2819,15,5,4fa50eafe4b0d90525540c57,БГ Бистро,42.66898752921317,23.28420529121487,Eastern European Restaurant
873,873,42.7377,23.26856666666667,1,0,4fa795dbe4b017a5e17862b8,Ресторант Шараните,42.7361337138381,23.2695963135312,Eastern European Restaurant
1084,197,42.695439070667604,23.31884427792296,50,43,4fab91bbe4b050ddfdf326ba,Shkembe & Kachamak,42.693606,23.318208,Eastern European Restaurant
467,467,42.6777,23.3619,30,18,4faccf28e4b0ad9c3fd5837b,Мераклии,42.67831754241722,23.362346498960036,Eastern European Restaurant
296,296,42.6677,23.34856666666667,22,19,4facdbf2e4b03239825c12e9,Джиев юг,42.66887254709741,23.354040590664876,Eastern European Restaurant
860,860,42.7277,23.29523333333333,5,3,4fae7f53e4b03338fae83e09,Мечето,42.72914574590355,23.291071438254427,Greek Restaurant
62,62,42.6377,23.37523333333333,14,10,4fb2715ae4b0da11f33cee91,Dragon,42.6386020956286,23.375543221695303,Chinese Restaurant
469,469,42.6777,23.3619,30,20,4fb80f84e4b01922e9b3d6a6,sushi express,42.68057127835693,23.36159405151671,Sushi Restaurant
207,207,42.6677,23.26856666666667,10,1,4fc110c4e4b0bb07324eca82,Уейфън Ресторант,42.668761460593075,23.270897582085038,Asian Restaurant
514,514,42.6877,23.30856666666667,13,10,4fc124d4e4b03f9cf9a3a375,"Механа ""БИТОЛЯ""",42.68836583767497,23.308939055787267,Eastern European Restaurant
360,360,42.6777,23.29523333333333,17,5,4fc27489e4b0117b73fd0ccf,Хуа шя(Hua shya),42.67807893372903,23.28965261699073,Chinese Restaurant
917,30,42.689960929332386,23.318844769894888,34,19,4fc3ce38e4b06f6d2413456c,7 морета,42.69058214378944,23.321378231048584,Greek Restaurant
49,49,42.6377,23.34856666666667,1,0,4fc7996ae4b0650beb0fa9ba,Сладък живот,42.636521,23.351077,Bulgarian Restaurant
859,859,42.7277,23.29523333333333,5,2,4fc79d1ce4b08ae76c8cdfaf,Китайски Ресторант Пън Лай Шиан Гъ,42.72842863941924,23.300278397476987,Chinese Restaurant
415,415,42.6777,23.3219,38,20,4fca6500e4b0264558207e51,Mehana Veliko Tarnovo,42.67698776636962,23.32500738912668,Noodle House
1060,173,42.695439070667604,23.31884427792296,50,19,4fcf267ae4b05b1fd4a9abaa,Protocol,42.695596,23.316496,Eastern European Restaurant
177,177,42.6577,23.3619,3,0,4fd9b98de4b028d1b09f7bee,MC,42.65544891357422,23.358097076416016,Arepa Restaurant
787,787,42.7077,23.29523333333333,19,12,4fdb5271e4b0d72627297ea3,Warsteiner,42.706546646973415,23.29893115327626,German Restaurant
227,227,42.6677,23.2819,15,11,4fdb8c3be4b08faf493376c0,Egeon (Αιγαίον) (Egeon),42.66780853271485,23.28046989440918,Greek Restaurant
750,750,42.6977,23.34856666666667,25,11,4fdc4fa8e4b0f18e7728f24b,"Китайски ресторант ""Дворец на драконите""",42.69708858832849,23.35336434912091,Chinese Restaurant
613,613,42.6977,23.2819,6,2,4fdf7742e4b0e0780415d67a,"Бирария ""Рибката""",42.69729678382579,23.282558585504063,Bulgarian Restaurant
820,820,42.7077,23.34856666666667,4,1,4fe1f539e4b0cc64d7506faf,"китайски ресторант ""Хун Фън Гъ""",42.70578134815921,23.348279737404642,Chinese Restaurant
161,161,42.6577,23.3219,3,2,4fed6b21e4b0e7487e3dcd43,Закусвалнята,42.65941777041903,23.32010250876323,Middle Eastern Restaurant
391,391,42.6777,23.30856666666667,23,19,4fedebbee4b0005d40fd2cec,Екото,42.680747,23.308049,Ethiopian Restaurant
250,250,42.6677,23.30856666666667,2,1,4ff30e45e4b0044cf0431684,Лудите,42.66599279942616,23.306344291836897,Portuguese Restaurant
385,385,42.6777,23.30856666666667,23,13,4ff93f54e4b04840340ff792,Каса Де Бразил,42.67727049247972,23.30265432405597,Brazilian Restaurant
688,688,42.6977,23.3219,50,34,4ffbf308e4b08b17d9f8890e,Bambucca Sushi,42.698100231576255,23.327805350963892,Sushi Restaurant
645,645,42.6977,23.30856666666667,31,22,4ffd6296e4b07a24bcd962bd,Deloitte's Kitchen,42.69855353748268,23.309253856346068,Eastern European Restaurant
222,222,42.6677,23.2819,15,6,50006e4ee4b000090e8e39c5,Егеон (Egeon),42.6677019333852,23.28006213207757,Greek Restaurant
540,540,42.6877,23.3219,50,23,5001a8b7e4b0ed5449505162,StandBy Bar & Sushi,42.68356316484497,23.32140701819097,Sushi Restaurant
179,179,42.6577,23.3619,3,2,50053664e4b0d28cb4102765,Smiles Duner,42.65694656688139,23.357127974787954,Turkish Restaurant
4,4,42.6277,23.30856666666667,9,4,5006e41ee4b09db42e3a0c06,Ouzaki,42.62900615882543,23.30820150373837,Greek Restaurant
835,835,42.7177,23.25523333333333,8,3,500931dbe4b034274e5cc6b6,мими,42.71882629394531,23.25632286071777,Eastern European Restaurant
437,437,42.6777,23.33523333333333,12,4,500a8d98e4b02b2a7ef2e396,Restaurant Izbata,42.68213742628574,23.33486604328003,Bulgarian Restaurant
443,443,42.6777,23.33523333333333,12,10,500c43c7e4b01145796b845f,"Ресторант ""Гозбите""",42.678414801924895,23.333106637144084,Eastern European Restaurant
291,291,42.6677,23.34856666666667,22,14,500ed6a2e4b0edbb8dc88ecc,Къща 28,42.671902,23.349110999999997,Eastern European Restaurant
1036,149,42.69996092933239,23.31884427792296,24,19,5013f582e4b0649cc1b932c0,Asia Chinese Restaurant,42.7006163929519,23.31955128037319,Chinese Restaurant
327,327,42.6677,23.37523333333333,4,3,5016d85ae4b088cc6d7a64d7,sushi express,42.66361716511031,23.37426326861315,Sushi Restaurant
210,210,42.6677,23.26856666666667,10,4,501f9092e4b0f36f04f14455,Danaroso,42.6693000793457,23.27054023742676,Italian Restaurant
1161,32,42.69430860600141,23.32037208333479,11,7,501fb34be4b0ccb68240b047,Sangria tapas & cocktails,42.69345262315454,23.32047739241089,Tapas Restaurant
821,821,42.7077,23.34856666666667,4,2,5023803ae4b01a8c9c066dab,Механа Хаджи Димитър,42.70394112749217,23.347008108118292,Eastern European Restaurant
319,319,42.6677,23.3619,25,20,5026746ce4b0f23b0161fb84,Спагетките,42.664885989715295,23.361940509400416,Italian Restaurant
651,651,42.6977,23.30856666666667,31,28,5027acb2e4b0c804533bccd6,Хъчен Лоу,42.699492,23.303798999999998,Chinese Restaurant
749,749,42.6977,23.34856666666667,25,10,5027fd39e4b00b8fab9cbf06,Ресторант Мърфи,42.69594880707535,23.348081246510482,Eastern European Restaurant
828,828,42.7077,23.4019,1,0,5027fe13e4b0f67567a075a7,Бистро ММ,42.707570969713174,23.40181834182319,Eastern European Restaurant
333,333,42.6677,23.4019,7,4,502f8dbde4b047ef9a7d61d4,Plomari,42.66446042263409,23.404942878194188,Greek Restaurant
1027,140,42.69996092933239,23.31884427792296,24,10,503d00a2e4b0c1fd76aefa67,При Вуйчо,42.69981533104658,23.320420099501177,Eastern European Restaurant
766,766,42.6977,23.388566666666666,2,1,504645a9e4b0334eda046106,"Руски ресторант ""Арбат""",42.69420105803777,23.38694384482709,Russian Restaurant
480,480,42.6777,23.37523333333333,4,1,50484c7be4b05630680e7356,Принцеси Мая,42.67819990655008,23.37501980478527,Burrito Place
991,104,42.68543907066761,23.324955230105115,14,13,50521226e4b06a9490faedec,"Бистро ""При  Мамчето""",42.6844374928146,23.32303005007256,Eastern European Restaurant
838,838,42.7177,23.25523333333333,8,6,50547f23e4b088edb0f8061c,Китайски ресторант Нова Луна,42.714701822782885,23.25693316579277,Chinese Restaurant
130,130,42.6577,23.26856666666667,2,1,50559cbee4b0c68360012fd4,Проя,42.658568367591855,23.26376323332036,Eastern European Restaurant
784,784,42.7077,23.29523333333333,19,9,505dd6b0e4b071a17f7dac6d,"""При Шишо""",42.70955128374239,23.29623954021612,Dim Sum Restaurant
492,492,42.6877,23.26856666666667,4,0,5064824ee4b03811ff83dfe9,Китайски ресторант Тиан Хъ,42.686658794367816,23.26611552298968,Chinese Restaurant
368,368,42.6777,23.29523333333333,17,13,5066de17e4b007c9371f25c9,Aferim,42.67825321417709,23.295277100112955,Turkish Restaurant
311,311,42.6677,23.3619,25,12,5066f85be4b0e370b1b8cc79,Синята роза,42.669129307673074,23.356393185128336,Eastern European Restaurant
499,499,42.6877,23.29523333333333,7,2,50681d1de4b0b6a07d8f2d14,Edem,42.684007654130546,23.296024937001942,Italian Restaurant
457,457,42.6777,23.3619,30,8,50695da4e4b01301ed4535cd,Kahuki chado,42.675392150878906,23.3583927154541,Asian Restaurant
614,614,42.6977,23.2819,6,3,5069b8ace4b0e86559d2f236,"Китайски ресторант ""Жу И Цан Тин""",42.70103360708023,23.284504537224112,Chinese Restaurant
815,815,42.7077,23.3219,13,12,506ffb7de4b02400623a98e1,"Паланчинкова къща ""Емануил""",42.7113037109375,23.3218994140625,Eastern European Restaurant
154,154,42.6577,23.30856666666667,18,13,5072adf2e4b0ec75e730fca3,Bayerisch Häufchen,42.66057908561239,23.311879257860703,BBQ Joint
972,85,42.689960929332386,23.324955230105115,35,29,5079517ee4b08ed64765590f,Pita Gyros,42.688281674713785,23.326696353471498,Greek Restaurant
226,226,42.6677,23.2819,15,10,507d22f8e4b0b250d6e24fce,Билла стол,42.6658935546875,23.28726959228516,Eastern European Restaurant
408,408,42.6777,23.3219,38,13,507d5938e4b06a750cd5c4db,Българка кухня Classico,42.67509105485737,23.31845942664009,Eastern European Restaurant
438,438,42.6777,23.33523333333333,12,5,5087caade4b0661f48aab746,Lunch Time,42.674040999999995,23.333952,Eastern European Restaurant
849,849,42.7177,23.29523333333333,10,6,508a52a9e4b0167a9c80ecba,Трохата,42.721060606543425,23.29601849954452,Eastern European Restaurant
314,314,42.6677,23.3619,25,15,5095120be4b0f71702b7920e,Genua,42.671389912597625,23.359802911669327,Italian Restaurant
603,603,42.6877,23.3619,7,3,50996a8be4b0171c15aee99f,Maia diner,42.685987700000005,23.358318,African Restaurant
612,612,42.6977,23.2819,6,1,509e3509e4b091ce31170afd,Китайски ресторант Дей Ли Ли,42.69465480153953,23.27991145104167,Asian Restaurant
493,493,42.6877,23.26856666666667,4,1,509eaca9e4b09c8922b53ef0,При Комитите,42.68327773093251,23.269083818183606,Eastern European Restaurant
1122,235,42.695439070667604,23.32495572207704,16,9,50ae0e04e4b09d9e063aa25e,грацко,42.69431046354895,23.324111542333355,Eastern European Restaurant
100,100,42.6477,23.3619,5,2,50ae8a4ee4b0d4508a9483c7,Cesa Çiğ Köfte,42.65001679263718,23.35703607171625,Turkish Restaurant
753,753,42.6977,23.34856666666667,25,14,50b15178e4b03ce491fab910,dixit svurtalishte,42.69638443102828,23.34882898271948,Cajun / Creole Restaurant
336,336,42.6777,23.25523333333333,4,0,50b35fe1e4b0c9aea45e4efe,Pikantiko,42.67747784836683,23.25549782926576,Greek Restaurant
455,455,42.6777,23.3619,30,6,50b3a944e4b078aafd4c4cc5,Trattoria Da Vincenza,42.67616103872819,23.360807887343014,Italian Restaurant
883,883,42.7377,23.30856666666667,4,2,50b6002de4b009224dc422fe,Ming Yuan (Минг Юан),42.73643493652344,23.30721664428711,Chinese Restaurant
160,160,42.6577,23.3219,3,1,50bf9544498eef43d273f1e9,Мазето,42.657691,23.3162,Eastern European Restaurant
931,44,42.689960929332386,23.318844769894888,34,33,50c0f724e4b04c4de14620df,"Китайски ресторант ""Ротманс""",42.690285796422145,23.318962832295476,Chinese Restaurant
149,149,42.6577,23.30856666666667,18,8,50c23f8ee4b0e77d290705c4,BMS,42.65745948312142,23.31419471805813,Eastern European Restaurant
1114,227,42.695439070667604,23.32495572207704,16,1,50c4ca83e4b032fa83138fff,Ресторантът на Народния театър,42.69390200954696,23.32709087062936,Bulgarian Restaurant
42,42,42.6377,23.30856666666667,8,5,50c65d68e4b02d3a87a50330,The One,42.63578266743852,23.30771101799543,Eastern European Restaurant
139,139,42.6577,23.29523333333333,3,1,50cdb783e4b0981e0de28b33,При Бай Илия,42.66167353940219,23.294346286405787,Eastern European Restaurant
351,351,42.6777,23.2819,13,9,50e18988e4b08db5a65097c6,при Цанко,42.67601680495503,23.277664152378726,Eastern European Restaurant
468,468,42.6777,23.3619,30,19,50e603f7395062c54a9eb02f,Mon Ami - life is delicious,42.67907548580439,23.36067038452735,French Restaurant
460,460,42.6777,23.3619,30,11,50e6f544e4b07280731a927c,Greek corner,42.67666244506836,23.35958480834961,Greek Restaurant
971,84,42.689960929332386,23.324955230105115,35,28,50e79e6de4b0ed84e1a4fd1c,Do Re Mi,42.68985977252017,23.32448840473409,Eastern European Restaurant
837,837,42.7177,23.25523333333333,8,5,50ebfc7ce4b03117bf00a00e,Китайски Ресторант,42.72028364934185,23.251635926601505,Chinese Restaurant
864,864,42.7277,23.30856666666667,9,2,50ed72c6e4b0e7253ef34d02,При Майсторите,42.724581,23.304692000000003,Eastern European Restaurant
187,187,42.6577,23.37523333333333,8,7,50f45c6ce4b0481982e0cc69,Иванова механа,42.655546672141796,23.3736954616127,Bulgarian Restaurant
848,848,42.7177,23.29523333333333,10,5,50f697c1e4b0e95747500536,При Шофьорите,42.715532544307656,23.297693360460247,Eastern European Restaurant
61,61,42.6377,23.37523333333333,14,9,50fb06eee4b01b267b7b86d2,Nikol,42.63650512695313,23.37219047546387,Turkish Restaurant
185,185,42.6577,23.37523333333333,8,5,51026062e4b0c4c527b72822,"китайски ресторант ""Шанхай""",42.66204431504392,23.37623594558248,Chinese Restaurant
823,823,42.7077,23.3619,4,0,5104269fe4b01dd7f5f32529,Българани,42.70511064996679,23.357558907145506,Eastern European Restaurant
217,217,42.6677,23.2819,15,1,510f881ee4b04d3fa12814fb,"Механа""Дойранъ""",42.67152450748677,23.28320338903304,Bulgarian Restaurant
865,865,42.7277,23.30856666666667,9,3,510f8c2ce4b0809a92a18e59,Дюнер,42.726848,23.311931,Doner Restaurant
594,594,42.6877,23.34856666666667,18,12,51113180e4b0162f42bc5cfd,Мери Уин,42.686559521166956,23.35025335918755,Eastern European Restaurant
194,194,42.6577,23.388566666666666,7,6,51126464e4b030dc4619699f,Noyveau Sens,42.658935,23.383016,French Restaurant
482,482,42.6777,23.37523333333333,4,3,5113a521e4b012968f0225bf,картофките,42.680755615234375,23.37246131896973,Eastern European Restaurant
238,238,42.6677,23.29523333333333,18,7,5117a632e4b08a572356f472,Фу ли гун,42.67090620890825,23.294832221531593,Chinese Restaurant
886,886,42.7677,23.30856666666667,1,0,511b903fe4b085821b85c0e8,Шотландия,42.76916885375977,23.313220977783203,Eastern European Restaurant
246,246,42.6677,23.29523333333333,18,15,511d352ae4b0eaa0a20a9b5d,Ресторанта в Резиденцията,42.667201533868976,23.292135897607174,Eastern European Restaurant
502,502,42.6877,23.29523333333333,7,5,511d44efe4b0374d480c44e0,на 14я етаж,42.687294,23.297755,Eastern European Restaurant
122,122,42.6477,23.4019,15,9,511d6540e4b0d2f113d2e621,Trattoria Da Vincenzo,42.64961900870893,23.40732029459088,Italian Restaurant
737,737,42.6977,23.33523333333333,35,33,511e1f9de4b04b6e330a5806,бистро зита,42.701564727231975,23.336245416318768,Cuban Restaurant
1034,147,42.69996092933239,23.31884427792296,24,17,51221668e4b02c9c6d407219,джиев& Cig Köfte,42.6988639831543,23.316909790039066,Turkish Restaurant
481,481,42.6777,23.37523333333333,4,2,51236697e4b0b6f90dc03c41,Тропс къща,42.680260986591776,23.372681907581434,Eastern European Restaurant
752,752,42.6977,23.34856666666667,25,13,51291025e4b0e22ffc95f381,Гърнето,42.695066,23.349723,Eastern European Restaurant
134,134,42.6577,23.2819,7,3,512fb779e4b09a95233e6201,Rose Restaurant & Pizza,42.65547760189763,23.280261252358326,Mediterranean Restaurant
248,248,42.6677,23.29523333333333,18,17,51308e75e4b0ca4ebb182d8f,Арианата,42.6668586730957,23.300373077392575,Eastern European Restaurant
312,312,42.6677,23.3619,25,13,513a41a6e4b0eb9b4203e1e1,Ресторант Генуа,42.671319,23.360044,Italian Restaurant
739,739,42.6977,23.34856666666667,25,0,513e0679e4b0c285292674ea,Forno Cipollini,42.69426415997281,23.34556851187477,Italian Restaurant
580,580,42.6877,23.33523333333333,15,13,513e12d9e4b0242478df690f,Peticata,42.68840046565745,23.334136696215033,Eastern European Restaurant
316,316,42.6677,23.3619,25,17,513f0ceae4b049269c07bce4,Jobs Foods,42.66570477276145,23.35664808076108,Mediterranean Restaurant
272,272,42.6677,23.3219,25,21,513f8024e4b087ce7a1e761e,Джишян,42.665211815743255,23.3183051837181,Chinese Restaurant
338,338,42.6777,23.25523333333333,4,2,5140468fe4b01c00d680caa7,кафе Следствието,42.67658611592186,23.25169680262532,Eastern European Restaurant
885,885,42.7477,23.3219,1,0,5141d5aae4b04a2ae55c0d96,механа Илиянци,42.75063206055568,23.318891459302648,Restaurant
841,841,42.7177,23.26856666666667,2,1,5144907ee4b076f4a3308f98,при баба Цецка,42.71607116738731,23.265875578962113,Eastern European Restaurant
642,642,42.6977,23.30856666666667,31,19,51459887e4b0d3269841fb2e,Старият двор,42.69655187734664,23.314467638805965,Turkish Restaurant
562,562,42.6877,23.3219,50,45,51484545e4b0c1a99720334a,Кулинарната Къща,42.68824432269465,23.327663781670125,Eastern European Restaurant
13,13,42.6277,23.37523333333333,20,0,514c0484e4b07ac94d27076e,Ciccione Panini Bar & Bakery,42.62616200215075,23.37644642974927,Italian Restaurant
1112,225,42.69996092933239,23.32495572207704,22,21,514c3d14e4b0744917f289a2,Taco Cafe,42.699965999999996,23.321917000000003,Eastern European Restaurant
832,832,42.7177,23.25523333333333,8,0,514dfc5be4b0a1833de6cb7d,Джсу  Ю Джсу,42.718813,23.258016,Chinese Restaurant
610,610,42.6877,23.4019,2,1,5152d055e4b09334d6723653,Усмивката (Smile),42.685379936115645,23.402747295290236,Eastern European Restaurant
155,155,42.6577,23.30856666666667,18,14,51583bb0e4b0781cc2ccb078,Thang Long,42.657077430016315,23.313838874264636,Sushi Restaurant
470,470,42.6777,23.3619,30,21,51645dc2e4b053b3db6d9951,Aмстердaм,42.68112992404125,23.359915985672302,Eastern European Restaurant
189,189,42.6577,23.388566666666666,7,1,51652c50e4b08d17cab075a0,Стол БИЦ-ИЗОТ,42.654873296551735,23.38950919357131,Eastern European Restaurant
853,853,42.7177,23.33523333333333,2,0,516a80fee4b07e9c17ab3d00,"Механа ""Орешака""",42.72007098876429,23.336681843259967,Eastern European Restaurant
867,867,42.7277,23.30856666666667,9,5,5171b6a6e4b0199cbc83220a,La Tavernita,42.72603093758989,23.30487444776575,Spanish Restaurant
765,765,42.6977,23.388566666666666,2,0,51765bd9e4b0414d969b225c,"хан ""Митака""",42.69867076449518,23.38486838262321,Eastern European Restaurant
730,730,42.6977,23.33523333333333,35,26,517fc231e4b087aa9ac1c62f,Hawai,42.700272924728495,23.336944664500532,Caribbean Restaurant
420,420,42.6777,23.3219,38,25,517fcd97e4b0254100deb3ec,HollyWood Restaurant,42.6781156694473,23.3212142385041,Eastern European Restaurant
183,183,42.6577,23.37523333333333,8,3,5180d999498e09482ccfd19a,"Restorant ""Pri babA si""",42.65609868649041,23.378199171342484,Eastern European Restaurant
178,178,42.6577,23.3619,3,1,518141b1498e583d56b84a68,"бистро ""Златна Есен""",42.661549485888095,23.360497862103077,Eastern European Restaurant
1028,141,42.69996092933239,23.31884427792296,24,11,5182408a498e1c5fb0a51bce,Китайски Ресторант Двата Лъва,42.70065036912131,23.317493423158822,Chinese Restaurant
91,91,42.6477,23.33523333333333,8,7,5187ab46498e194bb179899b,Minos Kahvalti Salonu,42.645223,23.339681,Mexican Restaurant
144,144,42.6577,23.30856666666667,18,3,518a7573498e3d5dd7324f6b,EAT.IT Italian Food Corner,42.65706123479965,23.313745152989245,Italian Restaurant
208,208,42.6677,23.26856666666667,10,2,518a99ad498e5063a8d92a66,Mutsy,42.66866683959961,23.27057647705078,Italian Restaurant
611,611,42.6977,23.2819,6,0,518c07c32fc6c30a0180c766,Рибката (Ribkata),42.698412422384905,23.281188011169434,Eastern European Restaurant
1102,215,42.69996092933239,23.32495572207704,22,11,518fa553498ea99a80da5720,The Nine Dragons,42.70013046264648,23.32585144042969,Chinese Restaurant
113,113,42.6477,23.4019,15,0,518fc79d498e9c89522bb68e,Siracusa Bar & Grill,42.64707245893119,23.40575006757669,BBQ Joint
153,153,42.6577,23.30856666666667,18,12,5193c38b498e7e08da8cfd46,Greek Corner,42.65694954141843,23.313814102299844,Greek Restaurant
45,45,42.6377,23.3219,2,0,5197462e498e3a5e93e2cadc,Lo Wai Lo,42.63593292236328,23.32629203796387,Chinese Restaurant
412,412,42.6777,23.3219,38,17,5197bf0f498e42d10e200603,La Piazzetta,42.67719635623232,23.320332174741694,Italian Restaurant
915,28,42.689960929332386,23.318844769894888,34,17,51a08872498e7d4b47a0e676,Руски Клуб / Russian Club,42.69012145179358,23.31848781423413,Eastern European Restaurant
108,108,42.6477,23.37523333333333,9,5,51a47cac498ea89734dc639f,max Restaurant,42.64494676224889,23.37453314806257,Eastern European Restaurant
720,720,42.6977,23.33523333333333,35,16,51af7c0b498e82524c52ef3b,Ресторант Градина,42.69963452998464,23.33779099462087,Eastern European Restaurant
923,36,42.689960929332386,23.318844769894888,34,25,51b0cb1fe4b0a30013b718f5,Сяолин,42.69183205810045,23.318846225738525,Chinese Restaurant
6,6,42.6277,23.30856666666667,9,6,51b34584498e028dc0776875,Avrasia,42.62912626624824,23.308285569108072,Turkish Restaurant
974,87,42.689960929332386,23.324955230105115,35,31,51b4a652498e781d10ae2479,Mamma mia WC,42.69099253199753,23.325613739130038,American Restaurant
300,300,42.6677,23.3619,25,1,51b6eecf498e42db8881471d,"Гостилница ""Мерак""",42.66927139409749,23.35813379548941,Bulgarian Restaurant
1011,124,42.6977,23.3219,25,19,51bae4cb498eaaef952b38b6,Healthy Food,42.697673456542475,23.31958259090753,Eastern European Restaurant
55,55,42.6377,23.37523333333333,14,3,51c0a4f3498e9cd94ff73dcf,"Турски Ресторант ""Никол""",42.636466,23.372462,Turkish Restaurant
411,411,42.6777,23.3219,38,16,51c9696c498e17f9e06d63c7,Vejen New Restaurant,42.676660999999996,23.324507999999998,Eastern European Restaurant
324,324,42.6677,23.37523333333333,4,0,51d0821f498e476c055c83aa,Приятелите,42.66504864825412,23.37088341776208,Bulgarian Restaurant
791,791,42.7077,23.29523333333333,19,16,51d2ce68498e85c49f0d42bd,Pun Fey,42.7097305686681,23.300241085505014,Chinese Restaurant
341,341,42.6777,23.26856666666667,2,1,51d3fcaf498ebc021cd9c1c2,Бистро Мамбо,42.67925926333993,23.272893849339667,Eastern European Restaurant
173,173,42.6577,23.34856666666667,12,8,51d46d69498e43d2899d2bfa,Ун Та Йен,42.656684999999996,23.34306,Chinese Restaurant
111,111,42.6477,23.37523333333333,9,8,51def22dccdadf148f486043,Pizza Restaurant Flore,42.64770708741239,23.37394952774048,Pizza Place
258,258,42.6677,23.3219,25,7,51e6773b498ef4de59d27970,Peperoncino Pizza & Pasta & Pasticcini,42.665977878456005,23.32500093746789,Italian Restaurant
500,500,42.6877,23.29523333333333,7,3,51e832e3498ead24ab6bad77,Бонония,42.685517,23.297698,Eastern European Restaurant
729,729,42.6977,23.33523333333333,35,25,51e91b0a498e1485f1ede35d,Бай Кузо,42.701782,23.336615,Eastern European Restaurant
758,758,42.6977,23.34856666666667,25,19,51ea88dc498ec4ccf63e8da3,China Express,42.695009000000006,23.346391,Chinese Restaurant
869,869,42.7277,23.30856666666667,9,7,51f00f6c498e4d3d4ad8d9f6,"Китайски Ресторант ""Хай Уай Тиан""",42.72449409907677,23.30549798731226,Chinese Restaurant
1106,219,42.69996092933239,23.32495572207704,22,15,51f24c92498e2b8ee213ab15,мармарис,42.70028617639609,23.323852711819658,Turkish Restaurant
150,150,42.6577,23.30856666666667,18,9,51f25716498e902f1a199c66,Alegría,42.65683040749673,23.313897193257947,Italian Restaurant
416,416,42.6777,23.3219,38,21,51f6b610498eac0a839e23f4,Cocina Italiana,42.677368,23.320192000000002,Italian Restaurant
273,273,42.6677,23.3219,25,22,51f78e04498e7e2d80bfd20b,Benvenuti,42.66588795778646,23.324939690628195,Italian Restaurant
756,756,42.6977,23.34856666666667,25,17,51f8053c498e0a78187ecdaf,Дун Дзин,42.696124,23.347711999999998,Chinese Restaurant
265,265,42.6677,23.3219,25,14,51f93b75498e11c35adc0678,Snack Bar Krasi,42.668459000000006,23.326289000000003,Eastern European Restaurant
593,593,42.6877,23.34856666666667,18,11,520131e1498e362fb70d1129,Кръчма на ул. Мусоргски,42.688697814941406,23.34299659729004,Eastern European Restaurant
809,809,42.7077,23.3219,13,6,520939f111d2b155552fab7f,Forlì,42.704592180012064,23.324108222019987,Cajun / Creole Restaurant
761,761,42.6977,23.34856666666667,25,22,520a744411d276d7db5c239b,син юн гъ,42.6992586032391,23.353224233488504,Chinese Restaurant
112,112,42.6477,23.388566666666666,1,0,520f33b411d2611f3e806c8c,Майстор Вурст (Wurstmeister),42.64714063373267,23.393704093942407,German Restaurant
824,824,42.7077,23.3619,4,1,521b8bd411d2307cc0922cd1,Южен,42.705562591552734,23.357913970947266,Chinese Restaurant
826,826,42.7077,23.3619,4,3,521cbf90498edec233322deb,Ragazzino,42.707371,23.362648,Italian Restaurant
260,260,42.6677,23.3219,25,9,52245f4e11d2638618c3070f,"Домашна Кухня ""Лавови""",42.67068109804872,23.32043283095509,Eastern European Restaurant
68,68,42.6377,23.4019,3,0,5225a70d11d2dd44e554497e,Restaurant Florina,42.640125641894564,23.40428471367641,Eastern European Restaurant
121,121,42.6477,23.4019,15,8,522ee8f111d25434eff0a6ed,"Механа ""Перпер""",42.65053939819336,23.4049015045166,Eastern European Restaurant
182,182,42.6577,23.37523333333333,8,2,52333a4511d2ca05f6554d7e,Ресторант Friends,42.65752054306189,23.375538104701405,Eastern European Restaurant
80,80,42.6477,23.26856666666667,11,8,523b2579498e256cb3af717d,Илинден,42.648339,23.263726000000002,Eastern European Restaurant
101,101,42.6477,23.3619,5,3,52400ca811d20820b75d9674,ЛаФката,42.64741223730812,23.356058335697412,Afghan Restaurant
209,209,42.6677,23.26856666666667,10,3,52401ce3498e9c0a3c092c41,Ресторант Слънце,42.66454607413488,23.266423114025255,Restaurant
475,475,42.6777,23.3619,30,26,524487cc498ecddc4867da2d,Food.,42.680621,23.362967,African Restaurant
400,400,42.6777,23.3219,38,5,5245e5ea11d247b26fada322,Happy Sushi - Пикадили,42.67816019760187,23.32215559476889,Sushi Restaurant
449,449,42.6777,23.3619,30,0,5258203411d2f20916660f6c,Zenobia,42.675160285905726,23.35708869751161,Doner Restaurant
170,170,42.6577,23.34856666666667,12,5,525e6e2f498e3c2d035b39d4,Нашенци,42.66117,23.347196,Eastern European Restaurant
830,830,42.7177,23.2419,3,1,52628f8311d201a788a8c49f,нa мaрти-пaрти кaфето,42.71802853549241,23.24696247260653,Caribbean Restaurant
760,760,42.6977,23.34856666666667,25,21,526bed5e11d2c10667306614,Механа Милева Къща,42.69520568847656,23.35057640075684,Eastern European Restaurant
918,31,42.689960929332386,23.318844769894888,34,20,526e6a9e11d2c0a1bedb79e4,Атина Greek Grill,42.690553143661816,23.31960903899792,Greek Restaurant
797,797,42.7077,23.30856666666667,9,3,526ff42d11d2eff47cef3ff2,Китайски Ресторант,42.703457,23.308052,Asian Restaurant
10,10,42.6277,23.3219,3,1,52723608498edca3c8fcae8d,chichone,42.62944855102166,23.320276056095732,Italian Restaurant
846,846,42.7177,23.29523333333333,10,3,527a226111d24a0e34db78df,"Механа ""Копривщица""",42.718200599813756,23.291044731274862,Eastern European Restaurant
792,792,42.7077,23.29523333333333,19,17,527d1cec498e14a07ede2001,Greek Grill To Nostimo,42.711134943712175,23.293077058009207,Greek Restaurant
496,496,42.6877,23.2819,1,0,52829bdc11d2e076a0e94488,Механа Ничи,42.69182366831935,23.27971035011764,Eastern European Restaurant
195,195,42.6577,23.4019,7,0,528cdc6111d2d269549673d3,"Китайски ресторант "" Уан Фу Лоу """,42.65422828314471,23.40074345375667,Chinese Restaurant
152,152,42.6577,23.30856666666667,18,11,5292575811d28b1ef7d065f0,Eclairs De Paris,42.65811311741588,23.312138257976752,French Restaurant
619,619,42.6977,23.29523333333333,6,2,529479b211d2d883cb4e0f54,Toraldo,42.70087432861328,23.29221534729004,Eastern European Restaurant
403,403,42.6777,23.3219,38,8,5297105011d2d43494c8ee7a,Restaurant LOZENETZ,42.67825514335125,23.32629203796387,Pizza Place
26,26,42.6277,23.37523333333333,20,13,529722f111d24c02a96c5874,Brasserie Holiday Inn,42.628029,23.373872,Mediterranean Restaurant
20,20,42.6277,23.37523333333333,20,7,5297312e498ec023bbc8771d,Brasserie Holiay Inn,42.62528351798364,23.374860860266928,Mediterranean Restaurant
1081,194,42.695439070667604,23.31884427792296,50,40,529b3f21498e1faad660d7bc,Cozy Nooks,42.69339737272326,23.319141268730164,Mediterranean Restaurant
795,795,42.7077,23.30856666666667,9,1,52a4d4d511d2996ecb264ac0,СССР,42.706494191818926,23.303946511322774,Russian Restaurant
3,3,42.6277,23.30856666666667,9,3,52a74cb311d2c727bb00fd41,Orient House,42.62919647949659,23.308443518159255,Turkish Restaurant
812,812,42.7077,23.3219,13,9,52a8a84711d2ea3631be69af,Happy &Grill,42.70759327858425,23.32310455049115,Mediterranean Restaurant
9,9,42.6277,23.3219,3,0,52a9985f11d272d34759bad6,Проя (Proya),42.62369891913829,23.32055353602781,Eastern European Restaurant
921,34,42.689960929332386,23.318844769894888,34,23,52a9ff8b11d2208a05f149bd,Aroni,42.691109999999995,23.321351,Italian Restaurant
919,32,42.689960929332386,23.318844769894888,34,21,52b19285498e38047c99d167,Aromi la BПарчевичottega,42.69070816040039,23.321250915527344,Italian Restaurant
881,881,42.7377,23.30856666666667,4,0,52b5e52e498e6f9c500d21a3,Родопски чанове,42.74014475355474,23.307878350012736,Bulgarian Restaurant
419,419,42.6777,23.3219,38,24,52c05936498e30da4161b067,Расторант,42.677076,23.322492999999998,Eastern European Restaurant
650,650,42.6977,23.30856666666667,31,27,52c166cf11d2a95b2cb26323,Apetitto,42.698182390164426,23.31252975223611,Italian Restaurant
203,203,42.6677,23.25523333333333,4,1,52c41ae0498e98e50866f72f,При братята,42.66646009961587,23.25007250446207,Eastern European Restaurant
967,80,42.689960929332386,23.324955230105115,35,24,52c6a9f9498e65f474d74e0c,Marchese Maccarone,42.69063082831462,23.323586779054263,Italian Restaurant
151,151,42.6577,23.30856666666667,18,10,52c7ed31498e3401ca2d0cfe,Адана (Adana),42.65722285991277,23.314256504997527,Turkish Restaurant
127,127,42.6477,23.4019,15,14,52cc491e498e37814cae8aad,Кайрака,42.6484188087596,23.403450704415587,Eastern European Restaurant
330,330,42.6677,23.4019,7,1,52d3b7fb498ea03421cca9a6,Табиетъ,42.66970668077149,23.39716047766161,Bulgarian Restaurant
640,640,42.6977,23.30856666666667,31,17,52d6c9e4498e136373bd77ac,"Сръбска скара ""Майстор Миро""",42.698472406884186,23.30901513488521,Eastern European Restaurant
773,773,42.7077,23.2819,2,0,52d923d011d2587453994580,Restaurant Bone,42.70697515298894,23.287370624346266,Bulgarian Restaurant
92,92,42.6477,23.34856666666667,6,0,52debb1f498ee13e70608e86,La Campanella,42.651157692072815,23.34553764808967,Italian Restaurant
754,754,42.6977,23.34856666666667,25,15,52e2d39e498e0f113dadb5f4,Italy,42.69924368088665,23.344776933574238,French Restaurant
39,39,42.6377,23.30856666666667,8,2,52e41115498e3ba7659f8f1c,Ман Юан Чун (Man Juan Chun),42.634006268557684,23.310501351878923,Chinese Restaurant
107,107,42.6477,23.37523333333333,9,4,52ed3923498e20d60edc730f,La Trattoria,42.64526289896565,23.37688124848014,Italian Restaurant
751,751,42.6977,23.34856666666667,25,12,52ee875e498e0aa2dae4f13c,yoanka i didi kitchen,42.696285247802734,23.35138893127441,Afghan Restaurant
383,383,42.6777,23.30856666666667,23,11,52efe8a8498e3d152772f04e,"Kafana ""Pirot""",42.676538,23.311325,Eastern European Restaurant
218,218,42.6677,23.2819,15,2,52f8a2ce11d2b8a526c16c86,Банкович,42.668203856158854,23.284678522169813,BBQ Joint
877,877,42.7377,23.29523333333333,7,3,52fa63dd498eacc9ee99b011,Лин Тя Тиоу Лоу,42.73409132635325,23.29806377161221,Chinese Restaurant
554,554,42.6877,23.3219,50,37,52fe3860498e0e5434c35a4e,Franco,42.69135284423828,23.322134017944336,Modern European Restaurant
856,856,42.7277,23.26856666666667,1,0,53025ae9498e196571061657,No Words,42.726113,23.263566,Eastern European Restaurant
968,81,42.689960929332386,23.324955230105115,35,25,53034464498e0a1930f7c51a,La Botega,42.68964713752869,23.325266100693568,Italian Restaurant
620,620,42.6977,23.29523333333333,6,3,53034469498e841ac57aa82d,При Джи-джи (Кървавото),42.69476318695897,23.2986038416572,African Restaurant
533,533,42.6877,23.3219,50,16,530bb62e498ed46f2cb3af1c,Bistro Pesto (Бистро Песто),42.69187792139898,23.32216394125053,Italian Restaurant
532,532,42.6877,23.3219,50,15,5315bfec498ebb289f50e639,La Casa,42.68774572098568,23.327338321040497,Mediterranean Restaurant
871,871,42.7277,23.3219,1,0,5315ebca498e246ed80d5187,yardim,42.72737884521485,23.323810577392575,Afghan Restaurant
156,156,42.6577,23.30856666666667,18,15,53189e1c498eb263b8fd4ff0,Senior Burrito,42.65701977639904,23.31380473473013,Mexican Restaurant
50,50,42.6377,23.3619,2,0,531cac04498e875db7a8a6e4,Lakomito,42.63761040534745,23.367712286272234,Modern European Restaurant
60,60,42.6377,23.37523333333333,14,8,53244078498e5603e8b5b636,Nikol Turkish reataurant,42.635933210469545,23.371257473496733,Turkish Restaurant
986,99,42.68543907066761,23.324955230105115,14,8,5328102c498e9b66cd68d9d8,Trattoria Giuseppe Verdi,42.68550188270422,23.32302135717565,Italian Restaurant
938,51,42.68543907066761,23.318844769894888,11,6,53282ded498e3dcf961f5e34,Toccato,42.68474653001193,23.316703539811677,Italian Restaurant
225,225,42.6677,23.2819,15,9,532897c311d220c02be39839,джун хуа гъ,42.669338,23.276356,Chinese Restaurant
118,118,42.6477,23.4019,15,5,532de1d2498e9bb103e1ab60,Delight,42.65022432220894,23.404803636955148,Turkish Restaurant
1,1,42.6277,23.30856666666667,9,1,533065d2498ec9a188a0673c,Orient House Restaurant Sofia,42.62919896555165,23.30832123756409,Turkish Restaurant
145,145,42.6577,23.30856666666667,18,4,53347675498ebe83227e41c9,Turkish House ADANA,42.65725604766108,23.31389483456996,Turkish Restaurant
393,393,42.6777,23.30856666666667,23,21,533942bb498ef9b7a5e141a3,"Дюнерите на пазара ""Иван Вазов""",42.677068133793675,23.309827455139533,Falafel Restaurant
840,840,42.7177,23.26856666666667,2,0,533954e011d2a2ad52ce20e1,Monterey / Монтерей,42.71341092737415,23.27017779761815,Modern European Restaurant
82,82,42.6477,23.26856666666667,11,10,534fd6d4498e73f8b5cff081,Restaurant Prima,42.645900982438285,23.2729368103355,Eastern European Restaurant
373,373,42.6777,23.30856666666667,23,1,5353e7dd498eac655c0977ea,Samer Grill House,42.67472111890221,23.308500755761674,Turkish Restaurant
347,347,42.6777,23.2819,13,5,535cd76b498ec82a56830fbc,jack bar,42.67829132080078,23.287372589111328,Afghan Restaurant
350,350,42.6777,23.2819,13,8,53622ad911d25baaea677a22,Pizza Sunshine,42.67632675170898,23.28492546081543,Italian Restaurant
423,423,42.6777,23.3219,38,28,536a5652498e8b230ab54e43,Delicato Gusto Italiano,42.677325,23.320487,Italian Restaurant
386,386,42.6777,23.30856666666667,23,14,536a6596498e8f73239cdab6,NUEVO,42.68089647193346,23.31009443572964,Italian Restaurant
51,51,42.6377,23.3619,2,1,5377a80c498ecd8a3ece139b,Лакоmito Bar&Dinner (Lakomito ),42.63802719116211,23.36674499511719,Modern European Restaurant
275,275,42.6677,23.3219,25,24,537a5eb0498ee555a647ef58,Ресторант Provence,42.67016820819862,23.323823193862648,Mediterranean Restaurant
297,297,42.6677,23.34856666666667,22,20,537c76f1498ee446ae5f4803,Бъклицата,42.66745903715112,23.35257028227032,Eastern European Restaurant
253,253,42.6677,23.3219,25,2,537cdd4f498e6cfcacbdcc85,Chef's,42.67028596326149,23.317844902191332,Modern European Restaurant
805,805,42.7077,23.3219,13,2,537dfa9b498e6a087907c77c,Oops!,42.704257732916226,23.323690344388773,Doner Restaurant
983,96,42.68543907066761,23.324955230105115,14,5,53807087498ebd1e82594325,Moody,42.687236,23.326501999999998,Belgian Restaurant
755,755,42.6977,23.34856666666667,25,16,5381c02c498e151a051a597c,Tea & Eat,42.694890698844894,23.34425254568862,French Restaurant
1086,199,42.695439070667604,23.31884427792296,50,45,5388735d498e450b0a212f04,Гьозлеме на сач,42.696590423583984,23.31875038146973,Eastern European Restaurant
509,509,42.6877,23.30856666666667,13,5,538b16c9498e382b6f9d0d83,Златното Зъбче (The Gold Tooth),42.68564463490765,23.306192620912,Eastern European Restaurant
63,63,42.6377,23.37523333333333,14,11,538dfacf498eecce5c714038,jinhuiwenju,42.635555267333984,23.37963676452637,Chinese Restaurant
288,288,42.6677,23.34856666666667,22,11,53919294498e039c5b202226,Джордано,42.66705703735352,23.34997940063477,Eastern European Restaurant
940,53,42.68543907066761,23.318844769894888,11,8,53947885498e8a555ae4c231,свинзго,42.686710357666016,23.31721115112305,Asian Restaurant
507,507,42.6877,23.30856666666667,13,3,53958b5e498e8a555aee1433,Ресторант Дядото,42.69085215666407,23.31044532247531,Eastern European Restaurant
158,158,42.6577,23.30856666666667,18,17,5398adeb498eab4891d95e2f,Kimbo,42.657267,23.313306,Greek Restaurant
516,516,42.6877,23.30856666666667,13,12,53a5af87498e65f063d7a63c,вестибюл,42.689504,23.313135,Eastern European Restaurant
434,434,42.6777,23.33523333333333,12,1,53aaf8b3498e17e204a8cba3,Forno Cipollini,42.680436707796524,23.33158288366135,Pizza Place
401,401,42.6777,23.3219,38,6,53b4170a498ea0178ae96c50,ZORBAS,42.67753946955017,23.32166500095195,Greek Restaurant
608,608,42.6877,23.37523333333333,2,1,53ba692d498ecdc16494765e,157 ГИЧЕ Bar and Dinner,42.68425,23.372273,Spanish Restaurant
878,878,42.7377,23.29523333333333,7,4,53bad0be498e3a0a0d3d8592,Под ореха,42.738698897219145,23.295765197013964,Eastern European Restaurant
380,380,42.6777,23.30856666666667,23,8,53bad44a498ed72edaa3e03d,Solbar,42.676331,23.311246,Mediterranean Restaurant
53,53,42.6377,23.37523333333333,14,1,53bd070e498e0054d3a0afde,FIBU Wine & Dine,42.637734127852845,23.370017306291533,Modern European Restaurant
829,829,42.7177,23.2419,3,0,53bee1c0498e5599b284c3dc,Gofretti,42.72019131104146,23.24360903735884,Modern European Restaurant
510,510,42.6877,23.30856666666667,13,6,53c27308498eaf43f91970d2,При Мишковците,42.68941879272461,23.31397819519043,Eastern European Restaurant
292,292,42.6677,23.34856666666667,22,15,53c41129498ecf02d82de6cc,Сбогом и благодаря за цацата,42.66990441599639,23.34506018638557,Cambodian Restaurant
647,647,42.6977,23.30856666666667,31,24,53d38dfd498eb7ac74196aaa,Souvlaki,42.69445419311523,23.31238555908203,Greek Restaurant
876,876,42.7377,23.29523333333333,7,2,53d7e670498e842548d02af6,Jin San Jiap,42.734043,23.298219,Chinese Restaurant
484,484,42.6777,23.4019,2,0,53e4a535498e8e64c84a15c5,Ola,42.67940227212925,23.40347376059718,Mediterranean Restaurant
148,148,42.6577,23.30856666666667,18,7,5409cee6498ea79b00970a19,Bar Presto,42.65814603182361,23.31443837547152,Italian Restaurant
335,335,42.6677,23.4019,7,6,540c812c498ed28daacdbe3c,ям-гъл,42.66752701750246,23.396167052171826,Sandwich Place
392,392,42.6777,23.30856666666667,23,20,54133a47498e92b3bc0bf990,Тапас Бар (Tapas Bar),42.67736776858462,23.30275222528171,Spanish Restaurant
862,862,42.7277,23.30856666666667,9,0,541429ab498e36876806e223,гостилница Липненски,42.725840709304336,23.303091105122853,Eastern European Restaurant
503,503,42.6877,23.29523333333333,7,6,54146b6c498e587db9e66827,Balito,42.68665015982514,23.297853078802795,Italian Restaurant
1030,143,42.69996092933239,23.31884427792296,24,13,54195f1d498e4c0443daa75a,Табуле Екзотична Храна,42.70002882220664,23.321850299835205,Middle Eastern Restaurant
44,44,42.6377,23.30856666666667,8,7,541ab564498e7ff7ba34ae6b,При Иво,42.634132385253906,23.310792922973636,Eastern European Restaurant
58,58,42.6377,23.37523333333333,14,6,541c101f498e2b7ff86cd28c,Берёзка,42.63728758759629,23.369921876259042,Russian Restaurant
358,358,42.6777,23.29523333333333,17,3,54206134498e3d0290380e84,Съседите,42.67825876183125,23.295285762821194,Modern European Restaurant
817,817,42.7077,23.33523333333333,3,1,542a8ed7498e2a150867b8cd,Rangeela Indian restaurant,42.70554589382576,23.33222785214613,Indian Restaurant
772,772,42.7077,23.26856666666667,5,4,542af29d498eefaceff2c87f,Thang Long,42.7112992250941,23.27074902435205,Thai Restaurant
266,266,42.6677,23.3219,25,15,542bd0c7498e946451e3c162,cafe rendez-vous a.k.a Teнекето,42.666265,23.319257,Cambodian Restaurant
976,89,42.689960929332386,23.324955230105115,35,33,5447849d498eb87372b2bb08,Хапка,42.689896000000005,23.323555,Burger Joint
1039,152,42.69996092933239,23.31884427792296,24,22,5447a6de498e578995f1bde8,Serbian Grill Pri Zoran,42.701981707304775,23.318409882946643,Fast Food Restaurant
451,451,42.6777,23.3619,30,2,5448cf69498e6a11489f159c,My Choice,42.67996966910188,23.36694330799368,Italian Restaurant
461,461,42.6777,23.3619,30,12,544f69df498e020c02bba2cd,коста лулчев,42.6794319152832,23.36594200134277,Chinese Restaurant
29,29,42.6277,23.37523333333333,20,16,54633666498e179a94e9d251,Софрата,42.623825325535506,23.37655793712759,Fast Food Restaurant
736,736,42.6977,23.33523333333333,35,32,54678ca1498e0cb221e1334b,Di Valli,42.69501784579497,23.33995521068573,Restaurant
970,83,42.689960929332386,23.324955230105115,35,27,547467bc498e9373345bd3a2,Medgick duner,42.69146217817713,23.32501685415208,Turkish Restaurant
376,376,42.6777,23.30856666666667,23,4,5479e6fe498e156b2250b235,Spaghetti Company,42.68004160017244,23.31154757259006,Italian Restaurant
587,587,42.6877,23.34856666666667,18,5,547b3468498ef6bf85ec17c7,La bottega al Vicolo,42.687692741432535,23.343523449786854,Italian Restaurant
551,551,42.6877,23.3219,50,34,54882dda498e252b3f904a5f,Чичката,42.683369723538476,23.32116359740914,Modern European Restaurant
366,366,42.6777,23.29523333333333,17,11,548c504f498e4021ca52594b,Hipodruma Park Food & Wine,42.67624286830867,23.295600981842643,Italian Restaurant
598,598,42.6877,23.34856666666667,18,16,548dad2a498e73a77bcebff2,Шалимар,42.685959952073155,23.344977790892077,Pakistani Restaurant
334,334,42.6677,23.4019,7,5,5491fe00498ebaae2fe47d95,механа Кметската къща,42.6664168989663,23.40055547579834,Eastern European Restaurant
365,365,42.6777,23.29523333333333,17,10,5496bc44498ee0902b652102,GrandFoods,42.67714224278707,23.295768859115647,Italian Restaurant
704,704,42.6977,23.33523333333333,35,0,5498101c498e1fbdde8b7f4e,La Cattedrale,42.6953249837663,23.333819087051012,Modern European Restaurant
716,716,42.6977,23.33523333333333,35,12,54a7ea98498e1646d03cf1a3,11th August Restaurant,42.69801394538016,23.33227187654583,Eastern European Restaurant
417,417,42.6777,23.3219,38,22,54aa7270498ea669867a9329,Механа Немаш грижи,42.67734174432687,23.321814108199963,Eastern European Restaurant
745,745,42.6977,23.34856666666667,25,6,54ae6477498ef3925784e633,Фу Ън Юен,42.69468917943532,23.351675377083378,Chinese Restaurant
48,48,42.6377,23.33523333333333,2,1,54b6c3d3498ebbc0b27ebd83,Greek restaurant Maxi,42.64108141763483,23.333783048019058,Greek Restaurant
596,596,42.6877,23.34856666666667,18,14,54b79c68498ed19bf2e6e4d7,Shalimar,42.688016,23.345938,Pakistani Restaurant
1111,224,42.69996092933239,23.32495572207704,22,20,54c260df498ed3371d1f387d,китайска супа оод,42.70155056504644,23.32300901412964,Argentinian Restaurant
485,485,42.6777,23.4019,2,1,54cb6868498e22044d3dc5d0,Ola Taste of MED Cantina,42.68066893328528,23.403797313065954,Mediterranean Restaurant
783,783,42.7077,23.29523333333333,19,8,54cbc446498ea24892080a2e,Restaurant-Garden Luciano,42.70803293515356,23.29874375691168,Modern European Restaurant
570,570,42.6877,23.33523333333333,15,3,54db981a498ea264592e2876,Tasty Noodle,42.686846638960034,23.33052682509749,Noodle House
344,344,42.6777,23.2819,13,2,54dcdb54498ee83fe45586f8,Babino Selo (Бабино село),42.676184629876296,23.285340070724487,Bulgarian Restaurant
171,171,42.6577,23.34856666666667,12,6,54dfb2de498e1183c516da62,Родопчанка,42.654158762188786,23.345203350752115,Eastern European Restaurant
23,23,42.6277,23.37523333333333,20,10,54ef4cb7498e6f1f6d771fa7,Unagi Sushi,42.623820363456936,23.376603855397097,Sushi Restaurant
683,683,42.6977,23.3219,50,29,54ef7922498e6f1f6d7b5521,Ali Baba - бърза закуска,42.69477689041909,23.321981641696965,Turkish Restaurant
315,315,42.6677,23.3619,25,16,54f9f109498ee20952809b60,Трапеза,42.665721557900056,23.363334705687976,Eastern European Restaurant
16,16,42.6277,23.37523333333333,20,3,550021a8498e487626f18e2d,Amici Pizza & Pasta,42.63007280053247,23.377848894954987,Italian Restaurant
426,426,42.6777,23.3219,38,31,550ab8b9498eedf39aeca64b,Еленковата Кръчма,42.678147221221174,23.320394634619852,Eastern European Restaurant
778,778,42.7077,23.29523333333333,19,3,550b05f4498eb5013c7c7ddb,Damasquino,42.70518064510932,23.298456693613872,Middle Eastern Restaurant
295,295,42.6677,23.34856666666667,22,18,55114388498eaf93caab0d08,Днес,42.66750102274579,23.353723580146895,Eastern European Restaurant
46,46,42.6377,23.3219,2,1,55130ba1498efb0bacc8fb52,Sirtaki,42.6387647909235,23.31873721375277,Greek Restaurant
132,132,42.6577,23.2819,7,1,551bbe48498eee61a2bd96cc,Bulgaria mall spaghetti company,42.65751822516543,23.27765290938573,Italian Restaurant
399,399,42.6777,23.3219,38,4,551fe3ac498e1093803a2476,Немската пекарна,42.681777000000004,23.321471,German Restaurant
421,421,42.6777,23.3219,38,26,552432ce498e7155ce94310c,Club&Restaurant 150,42.678191929928985,23.321097233809233,German Restaurant
960,73,42.689960929332386,23.324955230105115,35,17,5533da79498e4134d707ffc5,Fritt,42.69112177145943,23.32725740310461,Belgian Restaurant
28,28,42.6277,23.37523333333333,20,15,5536349a498efd221fa7f019,Dzen Sushi Kitchen,42.62504485855606,23.37871233925024,Sushi Restaurant
628,628,42.6977,23.30856666666667,31,5,5538c06c498e4f8a0230fb57,Top Chef Shawarma,42.701738047347725,23.307362110594987,Falafel Restaurant
190,190,42.6577,23.388566666666666,7,2,5540a805498e2557898eb80f,Черпака,42.65589197487973,23.38912282199345,Eastern European Restaurant
870,870,42.7277,23.30856666666667,9,8,55573d86498eccd4a1386403,Ресторант Асмата,42.726863132791635,23.31138095945513,Eastern European Restaurant
649,649,42.6977,23.30856666666667,31,26,555db8c9498ec0575703f9d5,"Ресторант ""Нефрит""",42.699277,23.306524,Eastern European Restaurant
743,743,42.6977,23.34856666666667,25,4,55630e67498eb97d260d5c38,COTTO,42.694473402186134,23.34544554516049,Italian Restaurant
574,574,42.6877,23.33523333333333,15,7,556890e2498e5bcca268df44,Bella Italia,42.68989420887186,23.337762145744573,Italian Restaurant
806,806,42.7077,23.3219,13,3,556b66cc498eb674bfb2ae69,Готвено на Централна автогара,42.71082305908203,23.32307243347168,Eastern European Restaurant
807,807,42.7077,23.3219,13,4,556b67f4498ec0ef62d597c5,"Готвено на Централна автогара ""Скара Жара Бара""",42.71099557492478,23.323652744293213,Eastern European Restaurant
926,39,42.689960929332386,23.318844769894888,34,28,5579c169498e3218a7f9765c,L'Art de Vivre,42.689132,23.317836,French Restaurant
79,79,42.6477,23.26856666666667,11,7,557da4b5498e2f025a5db934,Restaurant Da Posednem (Да Поседнем),42.64851907512704,23.26364150532243,Eastern European Restaurant
236,236,42.6677,23.29523333333333,18,5,558144e2498e50a8161eb4aa,Тирол-т,42.666418911265716,23.297317246948122,Eastern European Restaurant
278,278,42.6677,23.34856666666667,22,1,558806a4498e121043fe387c,Pizza - Bar Mozzarella,42.666515999999994,23.345557,Italian Restaurant
146,146,42.6577,23.30856666666667,18,5,558a8833498e83940bda734b,Porto Maltese,42.6571241716475,23.31328198951628,Mediterranean Restaurant
219,219,42.6677,23.2819,15,3,558bcfe5498edf933a57e8c1,"Бистро ""Ладога""",42.67030986324036,23.27818433639125,Eastern European Restaurant
1075,188,42.695439070667604,23.31884427792296,50,34,558bd83e498e7500ec7e4450,Арагон 91 ЕООД,42.69662094116211,23.31869697570801,Eastern European Restaurant
497,497,42.6877,23.29523333333333,7,0,559659d9498ee984ee3591f7,il Gusto,42.68363062098282,23.292802380059534,Italian Restaurant
387,387,42.6777,23.30856666666667,23,15,5596c60c498ebfe84b9bf43c,Ресторант Медик,42.681888580322266,23.30825424194336,Eastern European Restaurant
0,0,42.6277,23.30856666666667,9,0,55a0d878498e1f361ebb0f0f,Механа Родопчанка,42.629261043401605,23.30994608716332,Eastern European Restaurant
433,433,42.6777,23.33523333333333,12,0,55b270ce498ec8b29739f73b,Кафана Стефанович,42.673955512727964,23.333761502812905,Eastern European Restaurant
767,767,42.7077,23.25523333333333,1,0,55ca3731498e15d3a93c3f4e,Гофрети,42.71025703724481,23.25961218424613,Bulgarian Restaurant
15,15,42.6277,23.37523333333333,20,2,55d899c8498e7c034d598dd9,Obento Sushi,42.627410292231886,23.378883289478825,Sushi Restaurant
831,831,42.7177,23.2419,3,2,55d9ac0e498e93a181159e21,"Китайски ресторант ""Вълшебен дворец""",42.718063,23.247170999999998,Chinese Restaurant
652,652,42.6977,23.30856666666667,31,29,55daf090498eca1be799d30d,Komfo Kitchen,42.69933468481469,23.31396392417337,Austrian Restaurant
929,42,42.689960929332386,23.318844769894888,34,31,55db3490498efd0b5b5311f2,Pasta Box,42.68916,23.318524,Italian Restaurant
579,579,42.6877,23.33523333333333,15,12,55ddea4b498e2957bd2afc9e,La Palafitte,42.689792809775845,23.337653162259606,Italian Restaurant
320,320,42.6677,23.3619,25,21,55eb34b6498e9c0590a2bdbd,La Famiglia,42.666175,23.363220000000002,Italian Restaurant
722,722,42.6977,23.33523333333333,35,18,55f1b650498edec076dcbbcb,Club Pouchkine (Клуб Пушкин),42.696297371110894,23.329657028747373,Cocktail Bar
64,64,42.6377,23.37523333333333,14,12,55f70129498e8fb9de920ef6,Sushi King,42.635883256412775,23.375272459410915,Sushi Restaurant
479,479,42.6777,23.37523333333333,4,0,55fd5d68498efeb04f4e62d3,Ristorante Da Massimo,42.67477681280954,23.37641622918798,Italian Restaurant
636,636,42.6977,23.30856666666667,31,13,5602ed57498eb33b546986da,AMARE bar & dinner,42.70170759209702,23.307455367925535,Italian Restaurant
1040,153,42.69996092933239,23.31884427792296,24,23,56067420498e40df0f8c1cb3,Готвено на Женския пазар,42.7010022879327,23.3188152531168,Eastern European Restaurant
561,561,42.6877,23.3219,50,44,56081b01498e2ffed3a95aa8,Ресторант Лаура,42.683464252411255,23.320457538997182,Eastern European Restaurant
126,126,42.6477,23.4019,15,13,560d6ef2498e1d7ca107434e,Пинки/Ива,42.64843064191865,23.407675266558165,Eastern European Restaurant
616,616,42.6977,23.2819,6,5,56169e57498e1ee7f25650e1,Хин Тиан Ди,42.69596481323242,23.285837173461914,Chinese Restaurant
706,706,42.6977,23.33523333333333,35,2,56178f2e498ef562ed677534,Piccola Italia,42.69648779316133,23.337875249893397,Italian Restaurant
568,568,42.6877,23.33523333333333,15,1,561909e8498ec903794dadcc,Godzila,42.690309813572725,23.33109427907622,Bulgarian Restaurant
418,418,42.6777,23.3219,38,23,5619417e498ef61a9ed4a7e6,Octoberfest Hilton,42.681763000000004,23.319511,German Restaurant
379,379,42.6777,23.30856666666667,23,7,5623e298498ecd5d34a23b96,Stankovich,42.67636691601403,23.305634249619914,Eastern European Restaurant
285,285,42.6677,23.34856666666667,22,8,56265346498e2eeb9ce9d80e,Ресторант Модера,42.67164503982021,23.35139987320552,Modern European Restaurant
114,114,42.6477,23.4019,15,1,563353cc498e59191980758a,Pure Grand Bistro,42.64668781189573,23.3962744210114,Modern European Restaurant
270,270,42.6677,23.3219,25,19,563359ed498e29329a1437e8,To Elliniko,42.66762337447496,23.318704205092807,Souvlaki Shop
7,7,42.6277,23.30856666666667,9,7,5637a594498eb65f5830c54d,Resto Del Verano,42.62934364239385,23.30812558860032,Mediterranean Restaurant
389,389,42.6777,23.30856666666667,23,17,563cfe58cd102a3399b173ce,Kiparis Restaurant-Club,42.676726,23.311296,Eastern European Restaurant
110,110,42.6477,23.37523333333333,9,7,563dff7dcd10abb6a2f501b9,Supite na lelya Conka,42.65109252929688,23.3774356842041,Eastern European Restaurant
262,262,42.6677,23.3219,25,11,56431b14498e5e790f134c20,Ericsson Kitchen,42.66693720314731,23.326095079868523,Eastern European Restaurant
935,48,42.68543907066761,23.318844769894888,11,3,56487730498eb7f01570ece4,Megas Gyros,42.684599980864185,23.31639005314896,Greek Restaurant
735,735,42.6977,23.33523333333333,35,31,565451b1498e05915eb08368,Sofia,42.700296,23.331056,Russian Restaurant
231,231,42.6677,23.29523333333333,18,0,565464fe498e55590497f458,Djanam Steakhouse,42.66970795753833,23.29161135436152,Steakhouse
1026,139,42.69996092933239,23.31884427792296,24,9,5655a0de498ea97f2a6be125,Китайското в Халите,42.70006561279297,23.32188606262207,Chinese Restaurant
264,264,42.6677,23.3219,25,13,565b13fb498eb48212a9d60c,Rafael's,42.67101021956253,23.320124305038338,Italian Restaurant
441,441,42.6777,23.33523333333333,12,8,5661ed7e498e7d1d08a52bdc,Бистро Патладжан,42.678173961645676,23.33249057270291,Middle Eastern Restaurant
354,354,42.6777,23.2819,13,12,56640fb8498e2a648892a524,Мръсното,42.6815210338223,23.279444343403,Eastern European Restaurant
813,813,42.7077,23.3219,13,10,5666a917498e0f4be6091701,"Закусвалня ""Голямата уста""",42.71126284033507,23.32090575524807,Eastern European Restaurant
52,52,42.6377,23.37523333333333,14,0,56688374498e5eb6f6e1b7cf,Delight,42.64194047276196,23.373598097950918,Turkish Restaurant
349,349,42.6777,23.2819,13,7,566ab947498eefc060b3e948,bistro la forchetta d'oro,42.677833169143774,23.283344029361263,Italian Restaurant
267,267,42.6677,23.3219,25,16,566ec124498e59e73cd38ac0,Gyros Mania,42.67213139192316,23.321352255417995,Souvlaki Shop
428,428,42.6777,23.3219,38,33,5679a31e498e3570677068fd,Azahar,42.67888652083561,23.32252522834109,Paella Restaurant
875,875,42.7377,23.29523333333333,7,1,5687a22438faf7479080e1e0,ASIAN FOOD Sushi! & Chinese food,42.73505690278417,23.292560577392567,Asian Restaurant
157,157,42.6577,23.30856666666667,18,16,56ab98bf498ee7b0f7b55713,Gyros Max,42.656635979809344,23.313812860102722,Greek Restaurant
1035,148,42.69996092933239,23.31884427792296,24,18,56b200a7498e5c1e4272d7d4,Taiwanese Food,42.700024,23.321768,Asian Restaurant
268,268,42.6677,23.3219,25,17,56c24d5fcd1062e5f410fe2c,Fly Българска кухня,42.66834563248858,23.31959992647171,Eastern European Restaurant
463,463,42.6777,23.3619,30,14,56c60728cd10315dbc3f5e24,Домашен Вкус,42.677079,23.364404,Bulgarian Restaurant
932,45,42.68543907066761,23.318844769894888,11,0,56d9ec68cd10611e1862a99a,Трите Прасенца (Greek Suvlaki),42.68462466833724,23.316311381500913,Greek Restaurant
106,106,42.6477,23.37523333333333,9,3,56df13c5cd109da33f113c3e,Noodle House,42.646124,23.376036,Noodle House
213,213,42.6677,23.26856666666667,10,7,56e055b4cd106963be9c7517,Ресторант Кая,42.66880515319917,23.27082395553589,Bulgarian Restaurant
882,882,42.7377,23.30856666666667,4,1,56e41f9d498e6c25299e9ce2,Bao Nguyet Grocery Store,42.739506164072644,23.312845833634306,Grocery Store
242,242,42.6677,23.29523333333333,18,11,56f122cf498e8cfec94bacc4,Гръцки ресторант Med,42.667311,23.290697,Greek Restaurant
388,388,42.6777,23.30856666666667,23,16,56f2733e498e349a04b4ff24,Samit Saray,42.67773295072232,23.310057853893213,Turkish Restaurant
527,527,42.6877,23.3219,50,10,56f6865d498e861a65bf29a0,Niko'las 0/360,42.69187088078967,23.32264000535594,Modern European Restaurant
675,675,42.6977,23.3219,50,21,56ffdbe3498e0a219c982815,Central Restaurant,42.69806798312776,23.315850689523568,Bulgarian Restaurant
37,37,42.6377,23.30856666666667,8,0,5703f143498e91af0dae9b16,Kelari,42.63869598356224,23.311075386066424,Greek Restaurant
19,19,42.6277,23.37523333333333,20,6,570e13d3cd10ab745f35d6ec,Il Peperoncino,42.62865658528085,23.373874940988717,Italian Restaurant
1038,151,42.69996092933239,23.31884427792296,24,21,570f6407498e228c67625a53,Пиротска 10,42.69969780650483,23.320288731930837,Bulgarian Restaurant
269,269,42.6677,23.3219,25,18,570f67d6cd10c8b76804878f,Opashkata na konia,42.670254,23.324177,Bulgarian Restaurant
54,54,42.6377,23.37523333333333,14,2,571b5271498ef3d559ffad20,Pizza Hot,42.640558,23.374418,Italian Restaurant
770,770,42.7077,23.26856666666667,5,2,57238512498ed29772107652,Пица Лъчони (Lachoni Pizza),42.71106619429169,23.27085633602993,Italian Restaurant
577,577,42.6877,23.33523333333333,15,10,5735f2e7498ef836bb82a71f,"Ресторант ""Гурко""",42.688308,23.333419,Bulgarian Restaurant
591,591,42.6877,23.34856666666667,18,9,5738623c498ecc75a58e1056,Pri Yafata Fish&Grill,42.68749312736158,23.34882680448029,Mediterranean Restaurant
95,95,42.6477,23.34856666666667,6,3,573a2acacd107102a0d2325b,Роден Край,42.6492643367954,23.343879472221303,Bulgarian Restaurant
639,639,42.6977,23.30856666666667,31,16,57443261498eae6ff9675f75,Гостилница Край Реката,42.698246000000005,23.302708,Mediterranean Restaurant
99,99,42.6477,23.3619,5,1,574994a3498e74364248592e,Къщата на Ян,42.650887,23.35888,Asian Restaurant
632,632,42.6977,23.30856666666667,31,9,574c09f7498eda5b2eee748c,Cup & Roll,42.70090360465522,23.310288464982637,Korean Restaurant
724,724,42.6977,23.33523333333333,35,20,575148a6498e0f83336a620a,Tirol-T,42.699215,23.338907,Bulgarian Restaurant
70,70,42.6377,23.4019,3,2,5756f023498ea468822323f4,Ресторан ''Кухня Маргариты'',42.63787,23.405924,Eastern European Restaurant
33,33,42.6277,23.388566666666666,4,0,5757e02e498eee143fdfb0d6,Ресторант Камбаните,42.625551,23.384641000000002,Bulgarian Restaurant
286,286,42.6677,23.34856666666667,22,9,575a974d498eb633f9502c0d,Българско Село,42.66762,23.351841,Bulgarian Restaurant
818,818,42.7077,23.33523333333333,3,2,57656498498e440efb97cd97,Бум Бар,42.707405,23.331295,Bulgarian Restaurant
816,816,42.7077,23.33523333333333,3,0,57656990498eee3892cc4a1f,Бумбара,42.70745,23.331026,Bulgarian Restaurant
352,352,42.6777,23.2819,13,10,576574d6498e925813a73eb1,La Pergola Restaurant,42.68116,23.285785999999998,Italian Restaurant
228,228,42.6677,23.2819,15,12,5766c781498ee4a139495ec5,Pandora,42.668938,23.284071,Italian Restaurant
477,477,42.6777,23.3619,30,28,5766d541cd10499ca3d99d44,Гръцки ресторант Трапези,42.681146000000005,23.360028,Greek Restaurant
83,83,42.6477,23.30856666666667,1,0,576910f2498ee497f66ce68a,Turkish House Adana,42.648736,23.313497,Turkish Restaurant
495,495,42.6877,23.26856666666667,4,3,57780802498e44e0634b9a7b,Под върбите,42.688596999999994,23.263293,Bulgarian Restaurant
287,287,42.6677,23.34856666666667,22,10,57853641498e70fa0e34b50a,Rex's Mexican Nexus Rooftop Cocktail and Taco Bar,42.671248999999996,23.352114999999998,Taco Place
973,86,42.689960929332386,23.324955230105115,35,30,578e22a4cd10fe35f3d5a916,При Тъщата,42.688352,23.326933,Bulgarian Restaurant
1120,233,42.695439070667604,23.32495572207704,16,7,579d169d498edee3c7f53f5a,Made in sud,42.697227000000005,23.32629,Italian Restaurant
59,59,42.6377,23.37523333333333,14,7,579df30a498eb7f7312b268f,Yo Ko Sushi,42.639496,23.371338,Sushi Restaurant
924,37,42.689960929332386,23.318844769894888,34,26,57a88b48498ef5164dec582f,Hendrick's,42.690992,23.319728,Modern European Restaurant
214,214,42.6677,23.26856666666667,10,8,57c28bde498e8347cbfa0ed0,Trenolino,42.66455,23.266712,Italian Restaurant
215,215,42.6677,23.26856666666667,10,9,57c28c4d498e1efc103efbbf,Trenolino,42.66488,23.269775,Italian Restaurant
131,131,42.6577,23.2819,7,0,57d40bdc498ec65fdb6bbf65,Stories,42.66050746935258,23.28238302657381,Noodle House
193,193,42.6577,23.388566666666666,7,5,57d97037498e855861a9db1e,"Китайски Ресторант ""Дружба""",42.658932,23.392208,Chinese Restaurant
200,200,42.6577,23.4019,7,5,57d971fc498eea25505f555f,"Китайски Ресторант ""Дружба""",42.658498,23.398085000000002,Chinese Restaurant
323,323,42.6677,23.3619,25,24,57dfc11f498e958c9ec31186,Bellavita,42.668976,23.364529,Italian Restaurant
413,413,42.6777,23.3219,38,18,57e13468498e4cc3ecfd8d15,358 Foods,42.67843,23.320528,Italian Restaurant
252,252,42.6677,23.3219,25,1,57ecea53498e2696cc7cb62b,"Restaurant ""Silhouette""",42.67102152460856,23.32122715779201,Sushi Restaurant
511,511,42.6877,23.30856666666667,13,7,57f3b027498e2e6319b47900,Saray,42.68636,23.311464,Doner Restaurant
465,465,42.6777,23.3619,30,16,57fce104498eacc3cc649e99,Шарена Трапеза,42.674797,23.36041,Bulgarian Restaurant
32,32,42.6277,23.37523333333333,20,19,57ff8a33d67cc0cbf0ff343d,Pasta Hubi-Brothers,42.627753999999996,23.375702,Italian Restaurant
705,705,42.6977,23.33523333333333,35,1,580f2bac38fa53cd4473d222,Стария чинар (Staria chinar) (Стария чинар),42.69914862733156,23.336692465480233,Bulgarian Restaurant
409,409,42.6777,23.3219,38,14,5819be37df57f32bd4e0c768,"Бар & механа ""Лозенец""",42.67719,23.319631,Bulgarian Restaurant
162,162,42.6577,23.33523333333333,3,0,581a51e95d0a1a56bbd4633f,Restaurant Korea,42.65684933175529,23.339379980793076,Korean Restaurant
378,378,42.6777,23.30856666666667,23,6,5824e6162db9f34c9d1d6c85,Oriste,42.676583,23.305595,Greek Restaurant
201,201,42.6577,23.4019,7,6,5833178365be58789aa872df,Alex Foods,42.655212,23.398867000000003,Doner Restaurant
762,762,42.6977,23.34856666666667,25,23,58383ec7016217169faa868a,food point,42.696567,23.349773000000003,Bulgarian Restaurant
827,827,42.7077,23.37523333333333,1,0,5838dc500acb6a4bcbbb71d4,Astra restaurant,42.710304,23.371754,Bulgarian Restaurant
81,81,42.6477,23.26856666666667,11,9,5839b69313af1c57618e97d0,Catch' A maK,42.647063707031506,23.26688085369193,Modern European Restaurant
86,86,42.6477,23.33523333333333,8,2,584567aaf63c54143ec6c7c7,Elenska Mehana,42.649277000000005,23.33295,Bulgarian Restaurant
141,141,42.6577,23.30856666666667,18,0,584940020802cb7df6f04965,Sasa,42.65733262465575,23.31321339910194,Asian Restaurant
1109,222,42.69996092933239,23.32495572207704,22,18,5859908b72714f34b34e5c3d,Дубайски нощи (Dubai nights),42.698766,23.325057,Middle Eastern Restaurant
271,271,42.6677,23.3219,25,20,587756b9266c110d47036bd6,"Домашна кухня ""На Кръста""",42.67172,23.321741,Eastern European Restaurant
1160,31,42.69430860600141,23.32037208333479,11,6,587f62767ff1e46a86849b88,La Bettola,42.693785,23.321168,Italian Restaurant
1032,145,42.69996092933239,23.31884427792296,24,15,58a04da67b43b46edf95a729,Готвени ястия - Женски пазар,42.701023,23.318975,Bulgarian Restaurant
276,276,42.6677,23.33523333333333,1,0,58a5e4dd2a1982214aa47737,La Pizzeria,42.670534,23.330669,Italian Restaurant
302,302,42.6677,23.3619,25,3,58aad5104988da0f65512177,MEAT POINT,42.669883137292,23.358362807697365,Eastern European Restaurant
234,234,42.6677,23.29523333333333,18,3,58b6b0b383622d48660645a8,VinSanto,42.667194,23.290812,Italian Restaurant
259,259,42.6677,23.3219,25,8,58bd4d8b9f25835a4d3616ef,Китайски Ресторант Динг Тай,42.668690000000005,23.31834,Chinese Restaurant
1125,238,42.695439070667604,23.32495572207704,16,12,58ca5e00ce66aa4acc458de8,Pirin Grill House,42.694336,23.323782,Eastern European Restaurant
331,331,42.6677,23.4019,7,2,58ca8310d2433251d97d0589,Chinese Restaurant,42.668714,23.396932999999997,Chinese Restaurant
115,115,42.6477,23.4019,15,2,58daa3bd158bbb634d942ce4,Turkish Restaurant Saray,42.650104015571436,23.40476476447206,Turkish Restaurant
310,310,42.6677,23.3619,25,11,58dcdef90b7e935f8aa873f2,The Xperiment Foodbar,42.666650700420924,23.365747559939045,Eastern European Restaurant
254,254,42.6677,23.3219,25,3,58e250b4528930451a8f5b74,"Дюнер ""Алкен""",42.67180677488,23.321140273329853,Doner Restaurant
283,283,42.6677,23.34856666666667,22,6,58edff39ef46943a9475906f,Ramayana,42.671772,23.349743,Indian Restaurant
257,257,42.6677,23.3219,25,6,58fcc6f9dec1d656aa1b5d29,Silhouette Sushi Buffet (Силует),42.67097096861878,23.321368932702175,Sushi Restaurant
165,165,42.6577,23.34856666666667,12,0,5908d4edfd16bb01482b2c9c,И Диен Юан (Райска Градина),42.658599749428696,23.348308652631143,Chinese Restaurant
712,712,42.6977,23.33523333333333,35,8,5915e7905315935b27adfa4f,Clavera Bar,42.699256,23.33237,Mexican Restaurant
244,244,42.6677,23.29523333333333,18,13,591d77839b047319cb886d64,Menu,42.67111,23.294523,Bulgarian Restaurant
325,325,42.6677,23.37523333333333,4,1,5926b571acc5f53df2439d99,Бабино Село,42.66401641787019,23.372118444231404,Bulgarian Restaurant
1037,150,42.69996092933239,23.31884427792296,24,20,592e98159cadd93606da6d5b,Бистро Гени,42.700936,23.320144,Eastern European Restaurant
202,202,42.6677,23.25523333333333,4,0,59369f831b0ea560e3efb1ad,Механа Каминката,42.668763,23.251701,Bulgarian Restaurant
93,93,42.6477,23.34856666666667,6,1,594bc04893bd6332bdc2ffec,Panino Italiano,42.64947266614065,23.34499118445807,Italian Restaurant
774,774,42.7077,23.2819,2,1,59554ff5840fc216ec32dbce,У Дома,42.70812,23.281271,Eastern European Restaurant
1121,234,42.695439070667604,23.32495572207704,16,8,5968ac3fa6031c5daaa3a5e3,Alloro Restaurant,42.696999999999996,23.326054,Italian Restaurant
631,631,42.6977,23.30856666666667,31,8,596f29df8d0a53337ce47fe3,Вкусито,42.700758,23.308638000000002,Bulgarian Restaurant
14,14,42.6277,23.37523333333333,20,1,597f4bce7dc9e1790c9e6e9b,Casa Della Nonna,42.62710184014078,23.38020387886973,Italian Restaurant
284,284,42.6677,23.34856666666667,22,7,59888c3fa9e40278fdda0f69,Lunch Box Iztok,42.66877972245446,23.35422969611361,Eastern European Restaurant
585,585,42.6877,23.34856666666667,18,3,59970725f0b4907107337801,Da Fabio,42.68470530235963,23.352804630472818,Italian Restaurant
66,66,42.6377,23.388566666666666,2,0,59b9006dd3cce853f4b5ecaf,Пърленките,42.638010019984094,23.38331426013641,Modern European Restaurant
768,768,42.7077,23.26856666666667,5,0,59bd39ef805e3f5982eb5d4c,Restaurant Florans,42.711731,23.270561999999998,Italian Restaurant
147,147,42.6577,23.30856666666667,18,6,59cd08ca3ba76752174f6f75,Yorgos & Pavlos,42.6573,23.313673,Greek Restaurant
120,120,42.6477,23.4019,15,7,59d74f2d4acb19132749ac51,Сръбска Скара - “Белите Вълци”,42.64798236847036,23.402385491702102,Eastern European Restaurant
814,814,42.7077,23.3219,13,11,59e1f58ea2c00b1ad0389633,Ал-Багдади,42.703671,23.322164,Middle Eastern Restaurant
198,198,42.6577,23.4019,7,3,59e88fd00d173f1d25758e8b,Sissy *** Bar & Dinner,42.656662,23.401194,Eastern European Restaurant
1029,142,42.69996092933239,23.31884427792296,24,12,59f1c05d18d43b4d5640c228,Pacha,42.69965,23.315998,Turkish Restaurant
902,15,42.689960929332386,23.318844769894888,34,4,59f374fa356b4949ede8389a,Miral Foods,42.69197426436322,23.319929539670053,Doner Restaurant
322,322,42.6677,23.3619,25,23,5a058a8569e77b140cf04eae,Meatball Bar & Dinner,42.666218,23.363426,Eastern European Restaurant
622,622,42.6977,23.29523333333333,6,5,5a1020c778782c1062d798b7,Софийска баница - Илинден,42.701128000000004,23.292053,Eastern European Restaurant
174,174,42.6577,23.34856666666667,12,9,5a132ef51ffe97407356a09b,NoName Bistro,42.653766999999995,23.346773000000002,Bistro
833,833,42.7177,23.25523333333333,8,1,5a147cb44b78c55a3811e049,"Ресторант-Пицария ""Свети Никола""",42.719982,23.260277,Bulgarian Restaurant
588,588,42.6877,23.34856666666667,18,6,5a219c2e8173cb7b40f66703,Рич Хаус,42.689818,23.351856,Bulgarian Restaurant
12,12,42.6277,23.34856666666667,1,0,5a3426f72c7eb95c9bfd50fc,Roma Bene,42.62417697802521,23.351324535183267,Italian Restaurant
395,395,42.6777,23.3219,38,0,5a511f9469e77b6395d5c883,Банкович,42.67361248464408,23.322513524421293,Eastern European Restaurant
298,298,42.6677,23.34856666666667,22,21,5a6471e4cad1b60bad50bf7a,My French Gourmandises,42.670402981028474,23.350311135933037,French Restaurant
135,135,42.6577,23.2819,7,4,5a798272f0b49079b6c9350b,D.place (A.k.a. Новото),42.658386,23.276367,Bulgarian Restaurant
763,763,42.6977,23.34856666666667,25,24,5aa291a1ee628b7ca30829f5,Irituali,42.695213,23.347084,Modern European Restaurant
69,69,42.6377,23.4019,3,1,5abe237a0f013c33f5ada1dd,Скарата на Мечо,42.638855,23.406093,BBQ Joint
922,35,42.689960929332386,23.318844769894888,34,24,5ac0c92bbd897e291d88f3b4,La Bocca,42.691124,23.32065,Italian Restaurant
35,35,42.6277,23.388566666666666,4,2,5ad079fdf1936e63e7064f85,Павильон Винченцо,42.625846,23.384332,Italian Restaurant
615,615,42.6977,23.2819,6,4,5ad34562d48ec1467b3fab4f,Бабино село,42.695362,23.287054,Bulgarian Restaurant
407,407,42.6777,23.3219,38,12,5ad4ce590dd31f29a5d322df,Konak,42.679656,23.32481,Turkish Restaurant
1124,237,42.695439070667604,23.32495572207704,16,11,5ad77e690fc1727b9819cade,Akrogiali,42.694046,23.324212,Greek Restaurant
356,356,42.6777,23.29523333333333,17,1,5ad7833e947c05515d2e184e,L'hippodrome,42.681293679035676,23.29494320353445,French Restaurant
808,808,42.7077,23.3219,13,5,5af06f9e81635b002c96df83,Шаурма Алгафари (Shaurma Algafari),42.703959999999995,23.323679000000002,Doner Restaurant
318,318,42.6677,23.3619,25,19,5af73919c0af57002c969953,Iv By Chef Evropeiski,42.66897,23.364527,Mediterranean Restaurant
436,436,42.6777,23.33523333333333,12,3,5b09b6a965cdf8002c3bc5c9,Heyday Restaurant,42.676502,23.33338,Restaurant
72,72,42.6477,23.26856666666667,11,0,5b26687d270ee7002c418eac,The School,42.64716,23.266798,Modern European Restaurant
359,359,42.6777,23.29523333333333,17,4,5b2903d15d891b0039a110a0,Da Bono,42.678306,23.290704,Italian Restaurant
721,721,42.6977,23.33523333333333,35,17,5b2d2ddd86bc49002c33bb62,Garlic,42.697452,23.331274,New American Restaurant
933,46,42.68543907066761,23.318844769894888,11,1,5b472b24646e38002cf0f357,Casita Food&Wine,42.68457350688575,23.316548377032422,Italian Restaurant
839,839,42.7177,23.25523333333333,8,7,5b5994c8a6ec98002c4f56c0,Cook 4 Me,42.71803,23.255106,Eastern European Restaurant
447,447,42.6777,23.34856666666667,4,2,5b5c6719121384002c06179c,Pinch Of Pepper,42.673347,23.349373999999997,Modern European Restaurant
1104,217,42.69996092933239,23.32495572207704,22,13,5b7e8f108c812a002c427529,Doner Kebab Fantasy,42.700196000000005,23.325321,Kebab Restaurant
641,641,42.6977,23.30856666666667,31,18,5b7ea189c0cacb002c8d0edb,79 Stories,42.701067,23.309354000000003,Italian Restaurant
38,38,42.6377,23.30856666666667,8,1,5ba23685724750002c644725,La Bottega monte,42.635682,23.310705,Pizza Place
589,589,42.6877,23.34856666666667,18,7,5bb32d7d033693002c94c3c9,New Фемили,42.689126,23.344948000000002,Bulgarian Restaurant
874,874,42.7377,23.29523333333333,7,0,5bb89fa131fd14002cfd10d6,Virtuoso,42.7356,23.293669,Asian Restaurant
343,343,42.6777,23.2819,13,1,5bbcdc4531fd14002c629b40,Китайски Ресторант Дзун Хуа Юен,42.67908,23.285917,Chinese Restaurant
599,599,42.6877,23.34856666666667,18,17,5bc5b5ed9e0d54002cbe4820,New Family Restaurant,42.689246999999995,23.344934,Bulgarian Restaurant
89,89,42.6477,23.33523333333333,8,5,5bc8aaaa1cf2e1002c4ca37d,Spigolo Bistro,42.646059,23.340578,Italian Restaurant
643,643,42.6977,23.30856666666667,31,20,5bc9e9e0ccad6b002cf986ed,"Пица и Дюнер ""Presto""",42.698376,23.31008,Doner Restaurant
800,800,42.7077,23.30856666666667,9,6,5bcaf5eedb2aeb002ca9e120,Joseph & Bagdadj,42.703724700273256,23.306652903556824,Iraqi Restaurant
486,486,42.6877,23.2419,1,0,5bd2f76431fd14002c296530,Долния Стол Срещу Гумаджиите,42.68387,23.242298,Bulgarian Restaurant
573,573,42.6877,23.33523333333333,15,6,5bdf2f29646e38002c8d0c72,Il Siciliano,42.68954188363437,23.336839870446205,Italian Restaurant
1031,144,42.69996092933239,23.31884427792296,24,14,5be47cd31c675b0039723cee,Бирария “Дълбок Зимник”,42.701682,23.320317000000003,Eastern European Restaurant
280,280,42.6677,23.34856666666667,22,3,5be95864c62b49002c0664ba,Adella Ristorante Italiano By Gabriele Federici,42.666798380561154,23.350197531049503,Italian Restaurant
584,584,42.6877,23.34856666666667,18,2,5be964a5a30619002c20bd13,Next Stop Manuka,42.684752,23.345098999999998,Modern European Restaurant
255,255,42.6677,23.3219,25,4,5bedc813dee770003906b9e9,Sasaguri Sushi Bar,42.67048,23.319813,Sushi Restaurant
513,513,42.6877,23.30856666666667,13,9,5c041bdeefa82a002ce7f820,The Kitchen Istanbul,42.685856,23.313917,Turkish Restaurant
459,459,42.6777,23.3619,30,10,5c0aebb6fdb9a7003914fe98,El Kuku,42.681496,23.360521,Spanish Restaurant
582,582,42.6877,23.34856666666667,18,0,5c112bb8018cbb002d84690d,Манука,42.68803,23.346085000000002,Eastern European Restaurant
793,793,42.7077,23.29523333333333,19,18,5c2508d93af988002c091824,Китайски реасторант “Шун Фън”,42.708822999999995,23.295432,Chinese Restaurant
357,357,42.6777,23.29523333333333,17,2,5c2e43cb121384002cd8dc09,Ginger Bar & Dinner,42.677574,23.296232,Modern European Restaurant
506,506,42.6877,23.30856666666667,13,2,5c348daf44f4190025fd2373,Chicken Shack,42.68731,23.310817999999998,Doner Restaurant
708,708,42.6977,23.33523333333333,35,4,5c5c0a83fe3740003956e854,Ninja Bowl,42.697742,23.329795999999998,Thai Restaurant
241,241,42.6677,23.29523333333333,18,10,5c651d97340a58002c062b85,Mistolo,42.66811,23.291247,Bulgarian Restaurant
781,781,42.7077,23.29523333333333,19,6,5c6edc74f709c1002ca0e8ab,Китайска Бърза Храна,42.706734000000004,23.2922,Chinese Restaurant
398,398,42.6777,23.3219,38,3,5c7d3c87a42362002cefeb57,Al Forno,42.67862,23.320713,Italian Restaurant
425,425,42.6777,23.3219,38,30,5c8ff1d6968f31002c873046,Trattoria & Pizzeria,42.678577000000004,23.32098,Italian Restaurant
90,90,42.6477,23.33523333333333,8,6,5c9f645598fbfc002bc40662,Sushi street,42.644886631627294,23.339900493556343,Sushi Restaurant
719,719,42.6977,23.33523333333333,35,15,5ca0abed25fb7b002c3cfb13,In Focus,42.694951,23.339768,Mediterranean Restaurant
1068,181,42.695439070667604,23.31884427792296,50,27,5ca25a813ba767002cbb85d9,Downtown Sushi Spot,42.694044,23.318878,Sushi Restaurant
17,17,42.6277,23.37523333333333,20,4,5caf18da342adf0037b144c6,Nuevo Al Este,42.631361,23.377275,Italian Restaurant
782,782,42.7077,23.29523333333333,19,7,5cafa2a9b9ac38002cb0f8f9,Лилан,42.70654918835765,23.299217820167538,Middle Eastern Restaurant
879,879,42.7377,23.29523333333333,7,5,5cbd878c947c05002c5e14eb,Северняците,42.739647,23.29438,Eastern European Restaurant
1082,195,42.695439070667604,23.31884427792296,50,41,5cc56d25c876c8002cb20d42,Кармаре,42.696526,23.318637,Modern European Restaurant
857,857,42.7277,23.29523333333333,5,0,5ced5c0b0e3239002b55e508,Oops Food,42.72865,23.29992,Turkish Restaurant
541,541,42.6877,23.3219,50,24,5d0e2629aa7be7002ff677d2,Cup & Roll,42.683306,23.321048,Korean Restaurant
648,648,42.6977,23.30856666666667,31,25,5d10b35e2f7b470023f93816,Скара На Дървени Въглища (Стамболийски),42.69842,23.310242000000002,American Restaurant
490,490,42.6877,23.25523333333333,5,3,5d277bba53331f00232ffb5e,Ресторант Дядовци,42.688297,23.249498000000003,Eastern European Restaurant
143,143,42.6577,23.30856666666667,18,2,5d28ac782913580023ae55c7,Wok To Walk,42.657631,23.314415,Asian Restaurant
629,629,42.6977,23.30856666666667,31,6,5d2f044565d0990008953187,Наш’то място,42.700773999999996,23.307495,Bulgarian Restaurant
713,713,42.6977,23.33523333333333,35,9,5d35e72e3700d80008bbebff,Confetti,42.695052000000004,23.339917,Italian Restaurant
575,575,42.6877,23.33523333333333,15,8,5d41a7c22f72ed00080666f1,Ekogrill,42.688544,23.329604,Turkish Restaurant
804,804,42.7077,23.3219,13,1,5d445083f60bdf000874bef6,Vinitalia,42.704034,23.325436,Wine Shop
1015,128,42.6977,23.3219,25,23,5d4f09c7cfb1d1000803419f,Сръбска Скара,42.698731,23.32187,BBQ Joint
446,446,42.6777,23.34856666666667,4,1,5d6a488c2c61ca0008c89192,Food,42.677027632974465,23.346855863928795,Bulgarian Restaurant
801,801,42.7077,23.30856666666667,9,7,5d978b00cd9cbf00089a8619,Ностимо,42.706664,23.305429999999998,Greek Restaurant
251,251,42.6677,23.3219,25,0,5da75687855a1c00081d4ae4,Траянини кошари,42.664846000000004,23.31717,Bulgarian Restaurant
293,293,42.6677,23.34856666666667,22,16,5da9a006e14d480007391e89,Стол 16-и етаж (Панорама),42.670705,23.350635999999998,Bulgarian Restaurant
912,25,42.689960929332386,23.318844769894888,34,14,5dac9a30667b820008ea389d,Figo,42.689487,23.319054,Italian Restaurant
138,138,42.6577,23.29523333333333,3,0,5dacaa80b25318000764239b,La Terra,42.660616,23.293732000000002,Italian Restaurant
597,597,42.6877,23.34856666666667,18,15,5db5ab9da4f2c90007cc6c85,вишните,42.684602000000005,23.352841,Eastern European Restaurant
794,794,42.7077,23.30856666666667,9,0,5dda722ca4403c0008dc22c2,At Fadel’s,42.703693,23.306720000000002,Middle Eastern Restaurant
633,633,42.6977,23.30856666666667,31,10,5ddfbfebdc3aaa00082295a0,Цар Картоф,42.697874,23.314667,Eastern European Restaurant
192,192,42.6577,23.388566666666666,7,4,5debe40889d1b10008aaa70a,Клуб Фратели,42.654892,23.38975,Eastern European Restaurant
653,653,42.6977,23.30856666666667,31,30,5df7afd9a5bc0c000b8ffb57,Yorgos & Pavlos,42.69823,23.309244,Greek Restaurant
172,172,42.6577,23.34856666666667,12,7,5e0389723cb3a10008a1ba03,KFC,42.653504999999996,23.346809,Fast Food Restaurant
630,630,42.6977,23.30856666666667,31,7,5e1762e2ea67c900074352f1,Senior Burrito,42.698315,23.308992,Mexican Restaurant
57,57,42.6377,23.37523333333333,14,5,5e380035257a810008148d75,Попай Дюнер,42.635135999999996,23.378326,Turkish Restaurant
1083,196,42.695439070667604,23.31884427792296,50,42,5e42a11dc646b6000852d9a9,Кулинарен кът “Дивино”,42.694934,23.321713,Eastern European Restaurant
96,96,42.6477,23.34856666666667,6,4,5e600e87fcf7c3000870ed18,Дворецъ,42.643981,23.345659,Bulgarian Restaurant
543,543,42.6877,23.3219,50,26,5e60d96565828b0008dcc532,Mezza,42.691381,23.322305,Middle Eastern Restaurant
326,326,42.6677,23.37523333333333,4,2,5e68c9218fb268000813854f,Resto Cafe @ SofiaTechPark,42.668225,23.373866,Eastern European Restaurant
1108,221,42.69996092933239,23.32495572207704,22,17,5e6b75480301d300081bfba6,Kitchen,42.698215999999995,23.326826,Eastern European Restaurant
301,301,42.6677,23.3619,25,2,5e8628a7e3f76f00085725ed,Pyramids,42.667805,23.360725,Egyptian Restaurant
299,299,42.6677,23.3619,25,0,5e862fefa150e90008d40af2,Chiquita nueva,42.667953000000004,23.36156,Mediterranean Restaurant
313,313,42.6677,23.3619,25,14,5e8631950e151f00077135a7,Папкане,42.6686,23.3594,Austrian Restaurant
397,397,42.6777,23.3219,38,2,5e8c4568210a400008a5748c,The Corner,42.676983,23.320042,New American Restaurant
317,317,42.6677,23.3619,25,18,5e8f491ee2dedb00088024e6,При Котьо,42.667526,23.356582999999997,Latin American Restaurant
304,304,42.6677,23.3619,25,5,5e8f59418906a40008672558,Bango,42.66816,23.360853,Indian Restaurant
305,305,42.6677,23.3619,25,6,5e8f5d0bba01b20008fc154a,Mexico 1986,42.667683000000004,23.360847,Burrito Place
303,303,42.6677,23.3619,25,4,5e8f5d9e4754480007ce05fa,Ko Shi Yam,42.667465,23.361372,Thai Restaurant
626,626,42.6977,23.30856666666667,31,3,5edbc2d82edbe00007de8a02,Sen Viet,42.701029,23.310235000000002,Vietnamese Restaurant
40,40,42.6377,23.30856666666667,8,3,5ee4e55d5615170008558f83,Phoenicia,42.639227000000005,23.313397,Middle Eastern Restaurant
975,88,42.689960929332386,23.324955230105115,35,32,5eee0366b0aeb9000816fe45,Del Corso,42.689554,23.326382000000002,Italian Restaurant
77,77,42.6477,23.26856666666667,11,5,5ef6412e54302000080fb375,Coccolle,42.646793,23.267032,Italian Restaurant
11,11,42.6277,23.3219,3,2,5f09eca54920c93ed12939fe,Проя,42.62382,23.320557,Eastern European Restaurant
903,16,42.689960929332386,23.318844769894888,34,5,5f143a18a3aaf13f09946e24,Code 39,42.691986,23.319418,Italian Restaurant
166,166,42.6577,23.34856666666667,12,1,5f26ede49c11f972d256d7ab,Yamas,42.65768,23.343386,Greek Restaurant
583,583,42.6877,23.34856666666667,18,1,5f492a9b94ea31367d1daf54,RepEat,42.687775,23.344282,Modern European Restaurant
977,90,42.689960929332386,23.324955230105115,35,34,5f63a2ad8feef25bed450c0e,Ottimo,42.691006,23.324137,Italian Restaurant
1089,202,42.695439070667604,23.31884427792296,50,48,5f6b24a72afd3747e80a3274,My Don Fernández,42.694843,23.316309,Mexican Restaurant
137,137,42.6577,23.2819,7,6,5f7af5bcdd53a8329a64b28f,Chicago Lounge,42.65916,23.283153,Modern European Restaurant
176,176,42.6577,23.34856666666667,12,11,5f7d87d5a6dc4431b0d2ef15,При Шопите,42.658775,23.352283,Bulgarian Restaurant
880,880,42.7377,23.29523333333333,7,6,5f8b47b5f0d2f46905f9e192,Rotana Foods,42.73486,23.29334,Doner Restaurant
738,738,42.6977,23.33523333333333,35,34,5f9310a5068fc81a5f8347cd,Трите Щерки,42.698879999999996,23.338356,Bulgarian Restaurant
1128,241,42.695439070667604,23.32495572207704,16,15,5f954fc6e2a302296874c67d,Pomana,42.694427000000005,23.322397,Doner Restaurant
175,175,42.6577,23.34856666666667,12,10,5f9edead364d190aa7e41ad0,Obento Sushi,42.658638,23.346697,Sushi Restaurant
432,432,42.6777,23.3219,38,37,5fba46ff18cb14080d9cd960,Arcadia Balkan Grill,42.679806,23.324474,Eastern European Restaurant
205,205,42.6677,23.25523333333333,4,3,5fba6f982850e110a6b30735,Zenobia,42.665417,23.259775,Doner Restaurant
621,621,42.6977,23.29523333333333,6,4,5fc0e5cc2225812a26db7629,Вкусно,42.701221000000004,23.291894,Eastern European Restaurant
