,lat_centre,long_centre,num_venues,venue_iter,venue_id,venue_name,lat_venue,long_venue,category
0,52.287600000000005,4.7841,1,0,5270eb7411d2264f4c279f62,Steiger 28,52.284857,4.783175,French Restaurant
1,52.287600000000005,4.801023076923077,2,0,4bfeac96369476b028a98c1f,Restaurant Cin Cin,52.2852710078818,4.800230302619797,Italian Restaurant
2,52.287600000000005,4.801023076923077,2,1,59567fd6a0215b2593e1a089,Dracula Steak And Wine,52.285286,4.800082,Romanian Restaurant
3,52.287600000000005,4.953330769230768,1,0,5af4a3b0d8096e002c929d77,Brasserie De Hoge Dijk,52.28646,4.960257,Brasserie
4,52.2976,4.801023076923077,1,0,4e69a33ce4cdb375513a51c7,Molen De Held Jozua,52.29512030188846,4.804914222794239,Monument / Landmark
5,52.2976,4.851792307692307,4,0,4b17b9e4f964a52085c723e3,Chinees Indisch Restaurant Ho Fa,52.297029322860595,4.854427566175424,Chinese Restaurant
6,52.2976,4.851792307692307,4,1,5a0de11af96b2c1712e09dc5,Cyrus De Grote,52.296913,4.854305,Persian Restaurant
7,52.2976,4.851792307692307,4,2,4c9889ac4804a143cd1aec0e,Fung Han,52.29384868714524,4.849553867128752,Chinese Restaurant
8,52.2976,4.851792307692307,4,3,4cbb1052bac937043989ef7c,Selera Anda,52.294486,4.849453,Indian Restaurant
9,52.2976,4.868715384615384,1,0,4d275b9055a8b60c0123c3c0,Kokusai,52.30178845539008,4.8663281009502155,Japanese Restaurant
10,52.2976,4.902561538461538,8,0,5724ef49498e502618bf89f6,Ron Gastrobar Indonesia,52.29751842911275,4.899875338914183,Indonesian Restaurant
11,52.2976,4.902561538461538,8,1,5afc62196dcf04002c13568d,Indiaport Aan De Amstel,52.29744,4.899524,Indian Restaurant
12,52.2976,4.902561538461538,8,2,5cd45a84135b39002c69784b,Pizze Napa Italia,52.296629,4.903515,Italian Restaurant
13,52.2976,4.902561538461538,8,3,4cb1e8849b34199cdde8b863,Cuisine Culinaire Ouderkerk,52.297712,4.900009,French Restaurant
14,52.2976,4.902561538461538,8,4,4e0eed5a483bc2b5f48682c6,Tokoman,52.297893,4.901754,South American Restaurant
15,52.2976,4.902561538461538,8,5,5cd440e2625a66002ce18285,TastoeAmsterdam,52.297826,4.901638,Thai Restaurant
16,52.2976,4.902561538461538,8,6,58f0a76a4acb19754b2d5f80,De Banq,52.296256,4.90347,Dutch Restaurant
17,52.2976,4.902561538461538,8,7,5075a6a0e4b099516b5f5d6a,De Italiaan aan de Amstel,52.297005277627854,4.900403075785741,Italian Restaurant
18,52.2976,4.953330769230768,1,0,5050b827e4b032c997f41a87,Restaurant De Basilic (Amc),52.294042,4.957451,French Restaurant
19,52.2976,4.970253846153845,5,0,5662d319498e7b5975239063,Altijd Lekker,52.294989,4.975842,South American Restaurant
20,52.2976,4.970253846153845,5,1,4d24b227836f54813c5545f7,Eucalyptus,52.296585,4.97492,Middle Eastern Restaurant
21,52.2976,4.970253846153845,5,2,4a270884f964a52004911fe3,Eetland,52.29549319999421,4.975538494193291,Italian Restaurant
22,52.2976,4.970253846153845,5,3,4a27db5af964a52052931fe3,Amore Mio,52.2993259,4.96351386,Italian Restaurant
23,52.2976,4.970253846153845,5,4,50563db5e4b0feb29ad44ddc,Spremište Trešnjevka,52.29342269897461,4.967747211456299,Eastern European Restaurant
24,52.2976,4.987176923076922,2,0,5a770560c876c8600695b927,Bakkerij Kara Firin Zuidoost,52.296834,4.987218,Bakery
25,52.2976,4.987176923076922,2,1,5241cc80498e0a6d09e29bbf,Toko Gein,52.29672150401482,4.988508307484531,Indian Restaurant
26,52.30760000000001,4.834869230769231,1,0,52bc768e498eddf1dc2d2b21,Ristorante Napoli,52.30657287504382,4.834623224126752,Italian Restaurant
27,52.30760000000001,4.851792307692307,6,0,5a044777a795bd5b70959a5e,ANNA,52.304612,4.847156,Event Space
28,52.30760000000001,4.851792307692307,6,1,4b3a7402f964a520b26725e3,De Jonge Dikkert,52.308356994199976,4.847410433163082,French Restaurant
29,52.30760000000001,4.851792307692307,6,2,4bc1fae274a9a593f67dd2f6,Pane & Vino Italiaans Restaurant,52.311007,4.847047,Italian Restaurant
30,52.30760000000001,4.851792307692307,6,3,591730fa396de017a31825c9,Diwali,52.308652,4.847163,Indian Restaurant
31,52.30760000000001,4.851792307692307,6,4,5a9c1539ee71205fb4853fea,Delhi Indian,52.310343,4.846722,Indian Restaurant
32,52.30760000000001,4.851792307692307,6,5,5b1c1b803fcee8002c7cdaba,shouryuu,52.307399,4.855991,Japanese Restaurant
33,52.30760000000001,4.868715384615384,10,0,4b7ec2d2f964a5207dfd2fe3,7 spices,52.310135063749,4.870324510090919,Indian Restaurant
34,52.30760000000001,4.868715384615384,10,1,5cc58af0db2aeb002c3e160c,Indian Street Food & Co,52.305204,4.86974,Indian Restaurant
35,52.30760000000001,4.868715384615384,10,2,5055e39be4b0e7a9783753fe,Hiro Sushi,52.309511,4.86334,Japanese Restaurant
36,52.30760000000001,4.868715384615384,10,3,52efb1f9498e9685342158f6,Taste of Ukraine,52.3085704596075,4.868960380554199,Ukrainian Restaurant
37,52.30760000000001,4.868715384615384,10,4,4c9663fef7cfa1cd80d6c515,Taco Mundo,52.30532500494855,4.87021251619665,Mexican Restaurant
38,52.30760000000001,4.868715384615384,10,5,4df398de52b100c2d7fb251d,the Indian Kitchen,52.3051767642345,4.86978243783433,Indian Restaurant
39,52.30760000000001,4.868715384615384,10,6,554cf70b498ede56d233cfc9,Dinings',52.3095,4.86663,Japanese Restaurant
40,52.30760000000001,4.868715384615384,10,7,4cab486cd971b1f7339629e1,Restaurant kaya,52.305375327303125,4.870054984926973,Korean Restaurant
41,52.30760000000001,4.868715384615384,10,8,4be57a35bcef2d7ffbcf03e5,Take-Ya Sushi & Japanese Specialities,52.309697982536946,4.863396524618752,Japanese Restaurant
42,52.30760000000001,4.868715384615384,10,9,4df39aa1aeb7170aa2f19129,Spice,52.305326960454465,4.8695121158785115,Grocery Store
43,52.30760000000001,4.953330769230768,5,0,515037f8e4b08debf5f604d4,Small Pantry of Epson,52.30915548275862,4.946891200344828,Asian Restaurant
44,52.30760000000001,4.953330769230768,5,1,4e9816195c5ca2073d361270,Turkse Snack Kar,52.307884216308594,4.956523895263672,Moroccan Restaurant
45,52.30760000000001,4.953330769230768,5,2,4ed66e906da1113503447243,H23426,52.30698391949303,4.9533399548819474,Caribbean Restaurant
46,52.30760000000001,4.953330769230768,5,3,574e536e498ed3dc80763a53,GåRD Nordic Kitchen,52.3101182,4.947291799999999,Scandinavian Restaurant
47,52.30760000000001,4.953330769230768,5,4,56e2ccea498e153ca5330095,lomnava kenkey house,52.309014,4.958206,African Restaurant
48,52.30760000000001,4.987176923076922,1,0,5f25857eb3bc6069f641a587,Pop-Up Pannenkoek,52.311077,4.987821,Dutch Restaurant
49,52.317600000000006,4.851792307692307,3,0,53f5106a498eae90b806b72c,tent 10 @sportways,52.32053756713867,4.853105068206787,Arepa Restaurant
50,52.317600000000006,4.851792307692307,3,1,5abd3c24054e2923b6b9e6eb,Mumtaz Indian Restaurant,52.31686,4.857314,Indian Restaurant
51,52.317600000000006,4.851792307692307,3,2,4cc2f78982388cfaf7286435,Warung Baru,52.31887437306744,4.857487460770951,Asian Restaurant
52,52.317600000000006,4.868715384615384,7,0,5d87c1b36931ce00080705b2,Mr. Sushi,52.318058,4.8661623,Sushi Restaurant
53,52.317600000000006,4.868715384615384,7,1,4e65c538e4cdf1e2c0b4fbad,Alons Famous Taco's,52.314499,4.864356,Burrito Place
54,52.317600000000006,4.868715384615384,7,2,4d52eab2e027548199c7b9b6,Chez Yu,52.317591,4.873623,Asian Restaurant
55,52.317600000000006,4.868715384615384,7,3,5af5dfe73149b9002c1f04aa,dakterras @Cityden Up,52.317041,4.871737,Dutch Restaurant
56,52.317600000000006,4.868715384615384,7,4,4d072b4deb582c0f3f927653,B!Digital - Food For Thought,52.31349,4.870859,Italian Restaurant
57,52.317600000000006,4.868715384615384,7,5,57cb0435cd10abf33a310ab2,KHAO,52.314955,4.863706,Thai Restaurant
58,52.317600000000006,4.868715384615384,7,6,4e6e886852b1ebdc1f511ee7,Faga Pagati Lom Swazi Groceries,52.31453,4.864295,African Restaurant
59,52.317600000000006,4.885638461538461,2,0,4f17fa66e4b0a0515bdf38af,Frau Hildegards Speisen Tisch,52.32057378949282,4.881511907062378,German Restaurant
60,52.317600000000006,4.885638461538461,2,1,52597c8711d27aade9fb6908,Alexandros,52.314228831173715,4.8814756437279065,Greek Restaurant
61,52.317600000000006,4.953330769230768,21,0,4b45ca45f964a520601026e3,Pasta di Mamma,52.314779235934964,4.955087427591258,Italian Restaurant
62,52.317600000000006,4.953330769230768,21,1,4a27db1cf964a520fc911fe3,Lucky King & Hong,52.31461124896743,4.954898833483832,Chinese Restaurant
63,52.317600000000006,4.953330769230768,21,2,4a2707fef964a5206b8f1fe3,Asian Fantasy,52.31463343789283,4.954662530359116,Chinese Restaurant
64,52.317600000000006,4.953330769230768,21,3,4a27db80f964a52026941fe3,Kam Yin,52.31553515254512,4.955318393670427,Chinese Restaurant
65,52.317600000000006,4.953330769230768,21,4,546def84498ea560de829b6d,WENBO,52.31471301896423,4.954439510249184,South American Restaurant
66,52.317600000000006,4.953330769230768,21,5,56a8fb51498ecb3b2ecba125,Chilli & Spice,52.31774536119145,4.9584446947454905,North Indian Restaurant
67,52.317600000000006,4.953330769230768,21,6,4a27db41f964a520e2921fe3,Kebabish,52.320145,4.958389,Turkish Restaurant
68,52.317600000000006,4.953330769230768,21,7,4a27db3bf964a520bd921fe3,Tjin's,52.31554466185104,4.955455914284948,Cajun / Creole Restaurant
69,52.317600000000006,4.953330769230768,21,8,5b34c16067a9fe002cc04770,Little Chinatown,52.313454,4.950856,Chinese Restaurant
70,52.317600000000006,4.953330769230768,21,9,5144b1dde4b0c11f7585a5c5,La Parada,52.315492,4.954949,Caribbean Restaurant
71,52.317600000000006,4.953330769230768,21,10,54d35119498ec56ecf1c244f,Dreamzzz,52.314998686449584,4.953790669759619,Italian Restaurant
72,52.317600000000006,4.953330769230768,21,11,4f7ec6a6e4b08fc039a38470,Surinaamse Broodjes,52.31514431870851,4.955465196274626,Latin American Restaurant
73,52.317600000000006,4.953330769230768,21,12,568aa9e7498e1f6916745d4e,Pita Pasta,52.31430071729855,4.951312835481963,Greek Restaurant
74,52.317600000000006,4.953330769230768,21,13,52a2008a498ec58d502fc1cc,Matabo Roti,52.315216064453125,4.9558305740356445,Caribbean Restaurant
75,52.317600000000006,4.953330769230768,21,14,55b11d57498e98fea388aa5c,Picalonga,52.32022456993008,4.955084403387771,Caribbean Restaurant
76,52.317600000000006,4.953330769230768,21,15,4a27053bf964a5203c871fe3,King Döner,52.31463414304925,4.954744002289562,Turkish Restaurant
77,52.317600000000006,4.953330769230768,21,16,519df077498e60de140178a1,Ernos,52.314399045950125,4.952723610094888,Italian Restaurant
78,52.317600000000006,4.953330769230768,21,17,4d26f9f83c795481a01cc09b,Dõnner De Poort,52.316158674145505,4.9491718801608435,Turkish Restaurant
79,52.317600000000006,4.953330769230768,21,18,4ebbb474f7903b1fae9b7ae2,Mr. J - Taste of Surinam,52.31469517479858,4.9543782811302455,Cajun / Creole Restaurant
80,52.317600000000006,4.953330769230768,21,19,596a4d5b1c0b340b75d34332,Fresh & Healthy,52.31339,4.950921,Asian Restaurant
81,52.317600000000006,4.953330769230768,21,20,56cf3b2a498e5c12a83c7b59,Yvette's Kitchen,52.32025280661728,4.958876842711442,Caribbean Restaurant
82,52.317600000000006,4.970253846153845,1,0,5a4a708a911fc41b8683f64f,Roti Ganzenhoef,52.322055,4.970532,Indian Restaurant
83,52.317600000000006,4.987176923076922,1,0,4f637ca9e4b0e78cffa9ea40,Restaurant Thaper,52.316688537597656,4.981593608856201,South American Restaurant
84,52.327600000000004,4.851792307692307,1,0,4e0da5d88877936cb3fd2d56,@Amarosa,52.3271754685783,4.85715792976457,South American Restaurant
85,52.327600000000004,4.868715384615384,15,0,5346d61e498e1d3e706bbd6a,Java Kuliner,52.32467031209043,4.868674832443098,Indonesian Restaurant
86,52.327600000000004,4.868715384615384,15,1,4a270756f964a520a38d1fe3,"Bar-Restaurant ""La Brochette""",52.32466397379195,4.8676369703658295,French Restaurant
87,52.327600000000004,4.868715384615384,15,2,4f4d1b9ce4b0657aa4ec79f4,Kagetsu III,52.32596266622455,4.8707486382501495,Japanese Restaurant
88,52.327600000000004,4.868715384615384,15,3,519f3d1d498e9a7f7e9c6fa4,poidude's,52.32843496152716,4.867296331870127,African Restaurant
89,52.327600000000004,4.868715384615384,15,4,5dc19f163f3910000869a237,Wagyu Yakiniku KANATA,52.3256815,4.868091,Japanese Restaurant
90,52.327600000000004,4.868715384615384,15,5,5d5c2ed69714980008905686,Kanata,52.325697,4.868188,Japanese Restaurant
91,52.327600000000004,4.868715384615384,15,6,530e57d8498e1cd1522b53c6,El Panelazo,52.32605441800386,4.874522335763024,Latin American Restaurant
92,52.327600000000004,4.868715384615384,15,7,4a2704bdf964a52015861fe3,Pronto Italia,52.32603112052579,4.8727091819238195,Italian Restaurant
93,52.327600000000004,4.868715384615384,15,8,4d5fb655e4fe54810d10779e,"Restaurant ""sato""",52.32604819397786,4.874256077255725,Japanese Restaurant
94,52.327600000000004,4.868715384615384,15,9,51daec70498efc2f4647c00b,Machiko,52.33104205155542,4.868687872579958,Sushi Restaurant
95,52.327600000000004,4.868715384615384,15,10,4dfe1a18483b96a3aaab6aa2,Curry Company,52.330763005180984,4.868805129733115,Indian Restaurant
96,52.327600000000004,4.868715384615384,15,11,4e93202d2c5b7223b9bf1087,Belini's,52.325685978399896,4.866528375825785,Italian Restaurant
97,52.327600000000004,4.868715384615384,15,12,4da32befc6e96ea893b3e35d,Golan Grill,52.32591471107471,4.871296161016727,Middle Eastern Restaurant
98,52.327600000000004,4.868715384615384,15,13,57586102498e6a3cdcc72744,Eschmeejs NL stulpje,52.325214,4.87,Japanese Restaurant
99,52.327600000000004,4.868715384615384,15,14,5f33a70ce1f22c6c2bda6d86,Tropico,52.326133,4.874711,Colombian Restaurant
100,52.327600000000004,4.885638461538461,12,0,4a27db23f964a5202c921fe3,Hwa Won,52.32433090886237,4.884572116051503,Korean Restaurant
101,52.327600000000004,4.885638461538461,12,1,4a27db6bf964a520b7931fe3,Khan,52.324457886307634,4.884504066345042,Korean Restaurant
102,52.327600000000004,4.885638461538461,12,2,5c34ee8cd1a402002c89bd54,Sushi Rakuichi,52.325883,4.883508,Sushi Restaurant
103,52.327600000000004,4.885638461538461,12,3,4d6e99f02e6ea0938f1f2050,"Chieh,Sab & Kian",52.331455,4.888922,Asian Restaurant
104,52.327600000000004,4.885638461538461,12,4,4a27db10f964a52099911fe3,Korea,52.32479569411029,4.885158918418513,Korean Restaurant
105,52.327600000000004,4.885638461538461,12,5,4f9d835ce4b0609169a58c63,Kokohili,52.32459749202716,4.884513411851751,Japanese Restaurant
106,52.327600000000004,4.885638461538461,12,6,50d604bbe4b091e3098e19d9,"Amsterdam, Vieuws",52.326324202087186,4.890093403629923,Italian Restaurant
107,52.327600000000004,4.885638461538461,12,7,504251cfe4b0068b20c004b7,화원,52.32446,4.884208,Korean Restaurant
108,52.327600000000004,4.885638461538461,12,8,4f885e50e4b0e81f6677ab60,Kok Hili Japans Restaurant,52.324497793333215,4.884596927012124,Japanese Restaurant
109,52.327600000000004,4.885638461538461,12,9,4a27db6ff964a520cd931fe3,Restaurant H'Baron,52.326083304744735,4.878926200094261,Middle Eastern Restaurant
110,52.327600000000004,4.885638461538461,12,10,4a27081ff964a520b58f1fe3,Chinees Rest Happy Garden,52.324608,4.884576201438904,Chinese Restaurant
111,52.327600000000004,4.885638461538461,12,11,5942b5bfa5a31510a921e104,Restaurant Rozengeur,52.325950261129385,4.879286885261536,Persian Restaurant
112,52.327600000000004,4.919484615384615,2,0,5a35328c64c8e15676e49eee,sligro brasserie,52.324643,4.923726,Brasserie
113,52.327600000000004,4.919484615384615,2,1,5ca47e1ff1936e002c5d9a40,Tokoman,52.32562,4.9258933,South American Restaurant
114,52.327600000000004,4.936407692307692,1,0,4f742fdde4b0e7e85974eb08,The Döner Company,52.323546916847356,4.9361584632020925,Doner Restaurant
115,52.327600000000004,4.953330769230768,4,0,58c2e600297c16462e5a26b0,Jacob's Kitchen Campus,52.32825043687668,4.956205746119792,American Restaurant
116,52.327600000000004,4.953330769230768,4,1,574d5733cd10c7caa4010469,Istanbul Cafe Restaurant,52.32373,4.95483,Turkish Restaurant
117,52.327600000000004,4.953330769230768,4,2,5538cb36498e27fbb33b0ed0,tutta la vita,52.32686628094917,4.959743506741582,Italian Restaurant
118,52.327600000000004,4.953330769230768,4,3,51421e01e4b0abca553c0e77,Porto Pescara,52.325991814892085,4.960105424429346,Greek Restaurant
119,52.3376,4.7841,3,0,4d73d2f30d0ca1431540be83,Restaurant Sun Wing,52.33611676489182,4.780188210003469,Chinese Restaurant
120,52.3376,4.7841,3,1,4dadfe386e81e2dffdbe8121,MooiNiets Place @ Occaisionally,52.33983127142857,4.778527021408081,Mediterranean Restaurant
121,52.3376,4.7841,3,2,4d80ff53551ea1cd500e25c5,Selera Anda,52.338815,4.779515,Asian Restaurant
122,52.3376,4.851792307692307,1,0,5e2b4a1d4ce734000cd0994f,Restaurant CINQ,52.341321,4.852883,Asian Restaurant
123,52.3376,4.868715384615384,31,0,5f3e3d3aea20c619275c9a51,Wurst & Schnitzelhaus,52.335565,4.873111,German Restaurant
124,52.3376,4.868715384615384,31,1,59f9b08efd16bb44127d4df3,Siam Corner,52.33711790478303,4.871556594639996,Thai Restaurant
125,52.3376,4.868715384615384,31,2,4ee7cb468b81e9b756cd8017,Julia's,52.33812,4.8733525,Italian Restaurant
126,52.3376,4.868715384615384,31,3,5b803354037be1002cf9f629,Ramen Ramen,52.33728,4.871571,Ramen Restaurant
127,52.3376,4.868715384615384,31,4,4babcecef964a5204fcb3ae3,wagamama,52.339849627841225,4.872800880764228,Asian Restaurant
128,52.3376,4.868715384615384,31,5,597b0ecaad17892e1418756f,Mizu Bar,52.33688201929487,4.871484900695919,Sushi Restaurant
129,52.3376,4.868715384615384,31,6,5e2b4c643bd73a00081c6cb2,Happyhappyjoyjoy Zuidas,52.335467,4.873828,Asian Restaurant
130,52.3376,4.868715384615384,31,7,5ba9fe841b0ea500398d01b3,Vascobelo Cafe,52.336802,4.868455,Café
131,52.3376,4.868715384615384,31,8,57ee3af6498ede2cc0c47c38,Sushilee,52.336184,4.869698,Japanese Restaurant
132,52.3376,4.868715384615384,31,9,4bb2320342959c74c37e202c,Gustavino,52.33740557638265,4.873578878260789,Italian Restaurant
133,52.3376,4.868715384615384,31,10,5d4478483350fe000818bd5d,La Catrina,52.337276,4.871368,Mexican Restaurant
134,52.3376,4.868715384615384,31,11,4a2704a0f964a520ca851fe3,Koetjes en Kalfjes,52.337627606466036,4.873274963728178,French Restaurant
135,52.3376,4.868715384615384,31,12,5b2a2cd2054e29002c6c177e,Salsa Shop,52.340199,4.873154,Mexican Restaurant
136,52.3376,4.868715384615384,31,13,4e567b26e4cd6917b152a449,Eetcafé Kim,52.33916223451727,4.866181506092268,Indian Restaurant
137,52.3376,4.868715384615384,31,14,598c73df16ef670669f6da2e,Che Buono,52.340242,4.872571,Italian Restaurant
138,52.3376,4.868715384615384,31,15,58737ce806f1a317cfb156d3,Oishii Sushi,52.33709,4.871445,Japanese Restaurant
139,52.3376,4.868715384615384,31,16,5bc5b7f675dcb7002ca62e5c,Biem’s Kitchen,52.337195,4.871571,Latin American Restaurant
140,52.3376,4.868715384615384,31,17,4ccf08917c2ff04dbc24a87e,Bolenius,52.33602672649036,4.873447134351325,French Restaurant
141,52.3376,4.868715384615384,31,18,4c6d2a506af58cfa959d8817,Heat For Food,52.337806,4.871268,Italian Restaurant
142,52.3376,4.868715384615384,31,19,5707d399498e9396a8da0081,à Deauville,52.340026,4.87025,French Restaurant
143,52.3376,4.868715384615384,31,20,4e89d87fb8033d1220e090da,Hello Sushi,52.33734455381809,4.871242766879077,Sushi Restaurant
144,52.3376,4.868715384615384,31,21,4b22be9cf964a520c54c24e3,Heat,52.337920267111244,4.8711097859599235,French Restaurant
145,52.3376,4.868715384615384,31,22,53735452498e7ed5bbf78d64,Kenko Kitchen,52.33684556508503,4.871643916953478,Japanese Restaurant
146,52.3376,4.868715384615384,31,23,57c058bbcd10e84337f96f82,Koetjes terras,52.337774,4.873555,French Restaurant
147,52.3376,4.868715384615384,31,24,54187eb7498e9dd6a628a1b4,Bambou Asian Street Food,52.336713203122045,4.873419479905784,Asian Restaurant
148,52.3376,4.868715384615384,31,25,5628b4c3498e9fa1b24529cf,Corso Como,52.34027277823548,4.873251747993914,Italian Restaurant
149,52.3376,4.868715384615384,31,26,4a270074f964a5207e831fe3,Sushi Time,52.34020900362195,4.873307879222845,Sushi Restaurant
150,52.3376,4.868715384615384,31,27,586d2e286f20d137a0e8ff22,El Mercadito,52.337486,4.8717127,Venezuelan Restaurant
151,52.3376,4.868715384615384,31,28,586f8c7c005a0f1e8faacff4,Trattoria That's Amore @Market 33,52.337395,4.8712063,Italian Restaurant
152,52.3376,4.868715384615384,31,29,589b04c34ca49b64f853d832,Hello Vietnam,52.337224,4.871472,Vietnamese Restaurant
153,52.3376,4.868715384615384,31,30,4a27db62f964a5207f931fe3,De Prinsenkelder,52.338748039422526,4.8733539572385185,French Restaurant
154,52.3376,4.885638461538461,3,0,4a26ff7ef964a520df7f1fe3,Bagna Cauda,52.334944,4.88625,Mediterranean Restaurant
155,52.3376,4.885638461538461,3,1,56843ace498e8ac53017befb,Indonees,52.333998,4.8885,Indonesian Restaurant
156,52.3376,4.885638461538461,3,2,4e660c811838ad3d10575823,Shoyu,52.333648848686735,4.888834234246229,Asian Restaurant
157,52.3376,4.902561538461538,1,0,4e0ca8331f6e9300e4e87977,Taste Of Culture,52.33483342526611,4.900344649463575,Dim Sum Restaurant
158,52.3376,4.919484615384615,6,0,59c9783cb37e2b7e2bfce6e5,George Marina,52.34179008769222,4.918625707342137,Brasserie
159,52.3376,4.919484615384615,6,1,5af09e970dd31f0024ee8dd2,L'Osteria,52.341042012280326,4.918081813491826,Italian Restaurant
160,52.3376,4.919484615384615,6,2,5ab13c44dee7704a4b12ba1f,Persijn Amsterdam,52.338244,4.921291,Dutch Restaurant
161,52.3376,4.919484615384615,6,3,5948feb17dc9e1712722b86a,A Beautiful Mess,52.337701,4.92516,Middle Eastern Restaurant
162,52.3376,4.919484615384615,6,4,5d83c94cb89d6a0008a1c3d3,Cooper & Cecile,52.333368,4.921744,Dutch Restaurant
163,52.3376,4.919484615384615,6,5,50575193e4b05888533c1172,Tasty Melody,52.3344514012117,4.916756616681519,Caribbean Restaurant
164,52.3376,4.953330769230768,9,0,5f3c2e3723e9045f21dd09da,Otra Más Brasserie,52.33839,4.960113,Spanish Restaurant
165,52.3376,4.953330769230768,9,1,4bd9aefce914a5939b6357fa,Bogor Permai,52.34055368217525,4.9557512143988856,Indonesian Restaurant
166,52.3376,4.953330769230768,9,2,4e5bc337d22dfba6f491c965,Ciao-Diemen,52.33932210380911,4.956509030316048,Italian Restaurant
167,52.3376,4.953330769230768,9,3,4f4d11f7e4b0ca29912a2254,"Ristorante ""Ciao""",52.339297449084505,4.956555327888299,Italian Restaurant
168,52.3376,4.953330769230768,9,4,4bed885ebac3c9b68d6efee9,Ciao,52.339652,4.951459,Italian Restaurant
169,52.3376,4.953330769230768,9,5,4e4e7d13c65bb313ba77bc23,Bogor indonesische afhaalcentrum,52.34086312587679,4.954021404561995,Indonesian Restaurant
170,52.3376,4.953330769230768,9,6,4e29e1c718387cce06614fd1,Slachtkamp 168,52.334161359999996,4.95331621,African Restaurant
171,52.3376,4.953330769230768,9,7,4ca7737576d3a09399aa0b6b,Schuilkerk De Hoop,52.33864260569639,4.959735943519199,French Restaurant
172,52.3376,4.953330769230768,9,8,4da1de817ccc816ecedc5b7b,Vero,52.34061990604382,4.955855363597072,Pizza Place
173,52.34760000000001,4.7841,2,0,4f088ebae4b09a8a3f16fc5a,Sari Heemstede,52.34448294957622,4.779315977123394,Indonesian Restaurant
174,52.34760000000001,4.7841,2,1,57cc458a498ede7690ac522f,Tjin's Surinaamse broodjes en maaltijden,52.350105,4.788619,Caribbean Restaurant
175,52.34760000000001,4.801023076923077,4,0,4c2f28dced37a59325be6603,Leziz Restaurant,52.35169859048194,4.798447103054376,Mediterranean Restaurant
176,52.34760000000001,4.801023076923077,4,1,4a270794f964a5204a8e1fe3,Leziz Restaurant,52.35176139202258,4.798735113953591,Turkish Restaurant
177,52.34760000000001,4.801023076923077,4,2,5dd04ec6aabc900008d7bd84,Sanks sushi,52.351943,4.80021,Sushi Restaurant
178,52.34760000000001,4.801023076923077,4,3,5b377fe22a7ab6002c4a675d,Poolse Supermarkt Krakus,52.35189,4.800552,Supermarket
179,52.34760000000001,4.817946153846154,3,0,4ebc03646c25b8c5fa3d4eaa,Yogja indonesisch restaurant,52.34841798774116,4.824374375182232,Asian Restaurant
180,52.34760000000001,4.817946153846154,3,1,4f6b25b0e4b01a6dd5a7ac78,Klaar met engels debat,52.348004110510075,4.817537728448829,Indian Restaurant
181,52.34760000000001,4.817946153846154,3,2,4f6c4b2ee4b058b4bf8934e0,Pancho's food plaza,52.34511,4.81879,Mexican Restaurant
182,52.34760000000001,4.851792307692307,31,0,5c01752c8c35dc002cab4ff0,Neni,52.344844,4.856237,Middle Eastern Restaurant
183,52.34760000000001,4.851792307692307,31,1,58ecfa9cfebfbd7d11521990,Roti King,52.351018,4.849289,Indian Chinese Restaurant
184,52.34760000000001,4.851792307692307,31,2,4daec8394df0f639f2522947,Kebab House Baran,52.35142104528743,4.849976313829513,Turkish Restaurant
185,52.34760000000001,4.851792307692307,31,3,54170b2a498e7466dfa951f9,Warung Padi,52.349553,4.849171,Indonesian Restaurant
186,52.34760000000001,4.851792307692307,31,4,4e383f3cd22d4cf95ee92c09,Warung Barokah,52.34821216898519,4.847802587102282,Diner
187,52.34760000000001,4.851792307692307,31,5,4be9aa11a9900f47bd991540,Sinan restaurant,52.351076,4.854833,Middle Eastern Restaurant
188,52.34760000000001,4.851792307692307,31,6,4dd79c3a1838b8561ceab29f,"Mr-Mix, Amsterdam",52.35198851174881,4.8526477518645565,Argentinian Restaurant
189,52.34760000000001,4.851792307692307,31,7,5b36055cd48ec1002cef54bc,Bowls & Buns,52.351067,4.850998,Asian Restaurant
190,52.34760000000001,4.851792307692307,31,8,4a270899f964a5203f911fe3,Delicieux ! Traiteur en Catering,52.34496616911005,4.855091161055218,French Restaurant
191,52.34760000000001,4.851792307692307,31,9,5509c27b498e59039cc25776,Sukina Sushi,52.351247,4.855343,Sushi Restaurant
192,52.34760000000001,4.851792307692307,31,10,4a27db6df964a520c1931fe3,Warung Bandung,52.349711,4.84936,Asian Restaurant
193,52.34760000000001,4.851792307692307,31,11,55e48da9498ed6653384b4e2,Dalyan,52.351096,4.85483,Turkish Restaurant
194,52.34760000000001,4.851792307692307,31,12,5c707c7b27cbd1002562bf78,Pizzarella,52.349749,4.84916,Italian Restaurant
195,52.34760000000001,4.851792307692307,31,13,4a27002df964a5208d821fe3,Aladdin,52.350843,4.852812,Middle Eastern Restaurant
196,52.34760000000001,4.851792307692307,31,14,53307a12498e9eaed90a7098,warung peti,52.350038,4.849092,Asian Restaurant
197,52.34760000000001,4.851792307692307,31,15,4a2704b5f964a520f6851fe3,Keuken van Tante Til,52.349855,4.8494533,Mediterranean Restaurant
198,52.34760000000001,4.851792307692307,31,16,4a27db30f964a52073921fe3,Warung Min,52.350351782397304,4.849469687292188,Indonesian Restaurant
199,52.34760000000001,4.851792307692307,31,17,4a2703aef964a52008851fe3,Mr Mix,52.35191040239845,4.852923582728645,Argentinian Restaurant
200,52.34760000000001,4.851792307692307,31,18,518a91c5498ec7ae43d4ebbf,De Houtenovenpizzeria,52.34798290220703,4.847355545082036,Italian Restaurant
201,52.34760000000001,4.851792307692307,31,19,4f4a7de6e4b082dc5879159b,Restaurant Mekan,52.35108350956707,4.854804217348267,Turkish Restaurant
202,52.34760000000001,4.851792307692307,31,20,525ac97411d2a558f9288fd5,Dragon Dining Lounge,52.34857971111965,4.858445276490622,Asian Restaurant
203,52.34760000000001,4.851792307692307,31,21,5d8e29962190f90008a27b6b,Bella Ciao,52.345101,4.855047,Italian Restaurant
204,52.34760000000001,4.851792307692307,31,22,4c839667d34ca14378823680,Sap,52.346963,4.854829,Indian Restaurant
205,52.34760000000001,4.851792307692307,31,23,5516b071498e5fd57d8e4fda,Maria's Place,52.35160504256249,4.848450601596889,Deli / Bodega
206,52.34760000000001,4.851792307692307,31,24,5b42689ed48ec100396a1633,Adana Zezzet Gprill,52.351061,4.850964,Turkish Restaurant
207,52.34760000000001,4.851792307692307,31,25,4a26fff2f964a52094811fe3,De Smoezer,52.35082491125305,4.854240202592607,French Restaurant
208,52.34760000000001,4.851792307692307,31,26,4a270893f964a52026911fe3,Thai Xpress,52.350732,4.853429,Thai Restaurant
209,52.34760000000001,4.851792307692307,31,27,56759481498ee88584ad46b1,Agora Catering and Dining,52.344984152713266,4.8550608140003275,Italian Restaurant
210,52.34760000000001,4.851792307692307,31,28,55b7c3c8498e93786290349f,Sushi House,52.350978829150534,4.850781615730368,Sushi Restaurant
211,52.34760000000001,4.851792307692307,31,29,4baa470df964a520575a3ae3,Toko Sinar Mas,52.351106,4.850174,Asian Restaurant
212,52.34760000000001,4.851792307692307,31,30,5f6a367037f4bc1bc050f7ef,mongkol thai food,52.3505,4.853542,Thai Restaurant
213,52.34760000000001,4.868715384615384,11,0,4a27077cf964a520ef8d1fe3,L'Arena,52.34654005286085,4.868531042125034,Italian Restaurant
214,52.34760000000001,4.868715384615384,11,1,4a27db33f964a5207f921fe3,Umeno,52.344678,4.863752,Japanese Restaurant
215,52.34760000000001,4.868715384615384,11,2,5a36ad7a2c7eb95c9bebeea0,Spaghetteria Olympiaplein,52.34620309395684,4.8670930699232695,Italian Restaurant
216,52.34760000000001,4.868715384615384,11,3,5e6680492ed7a000086aa7f7,Daido,52.344764,4.864712,Japanese Restaurant
217,52.34760000000001,4.868715384615384,11,4,50425cf9e4b0ba0a52c07715,Hippy cafe,52.344770338219355,4.871774013236604,Cajun / Creole Restaurant
218,52.34760000000001,4.868715384615384,11,5,53288b03498ed1fb78aeed2e,La Saporita,52.345997,4.865077,Italian Restaurant
219,52.34760000000001,4.868715384615384,11,6,4e76246c88775d593e44f9e1,Warung Tegal,52.346064286313165,4.864416895779172,Indonesian Restaurant
220,52.34760000000001,4.868715384615384,11,7,50ca02c1245f2d4aa8c2b789,Roberto's Restaurant,52.35139264411052,4.871466165546254,Italian Restaurant
221,52.34760000000001,4.868715384615384,11,8,4a27db69f964a520ac931fe3,Sushi Time,52.345933,4.864547,Sushi Restaurant
222,52.34760000000001,4.868715384615384,11,9,4a2704c3f964a52023861fe3,Sushi World,52.34614027154623,4.8644350175048645,Sushi Restaurant
223,52.34760000000001,4.868715384615384,11,10,5f5bb407af65ef27d865deac,Golden Thali,52.346813,4.865613,Restaurant
224,52.34760000000001,4.885638461538461,22,0,54fdee89498e0bee57a6b7f7,Hakata Senpachi,52.34436855488875,4.88931537060811,Japanese Restaurant
225,52.34760000000001,4.885638461538461,22,1,4a2704caf964a5203a861fe3,Djago,52.34426144248816,4.890356669174516,Indonesian Restaurant
226,52.34760000000001,4.885638461538461,22,2,5cd31e43d0a149002c8740bd,Sjefietshé,52.351566,4.8869295,Peruvian Restaurant
227,52.34760000000001,4.885638461538461,22,3,5f05a7de938b7c3b5ec9c65f,Takumi Ramen & Yakisoba Amsterdam,52.347841,4.891557,Ramen Restaurant
228,52.34760000000001,4.885638461538461,22,4,59c798f08496ca583756e68f,Bodon La Grande Brasserie,52.34854517038715,4.885161705333089,Brasserie
229,52.34760000000001,4.885638461538461,22,5,4a27db70f964a520d6931fe3,Orandaya,52.34541130408968,4.890867664166565,Japanese Restaurant
230,52.34760000000001,4.885638461538461,22,6,5e370926fe6a880008377586,Trevi’s,52.350388,4.89001,Italian Restaurant
231,52.34760000000001,4.885638461538461,22,7,4a270781f964a520028e1fe3,Sapporo,52.34488480160625,4.890862169923117,Japanese Restaurant
232,52.34760000000001,4.885638461538461,22,8,4a27db2af964a52060921fe3,Chutima's,52.3447243480047,4.890828761995073,Thai Restaurant
233,52.34760000000001,4.885638461538461,22,9,4a27db2af964a5205b921fe3,Kushi-Tei of Tokyo,52.34800440077846,4.891352698173294,Japanese Restaurant
234,52.34760000000001,4.885638461538461,22,10,4bf2edb96991c9b69dab29e9,Chinese Restaurant Oceania,52.34550831900365,4.890963226308774,Chinese Restaurant
235,52.34760000000001,4.885638461538461,22,11,56d1d1a1498e7ef4ffb6537b,waroeng i. djaja,52.343872,4.886412,Indonesian Restaurant
236,52.34760000000001,4.885638461538461,22,12,5ed78d42a2dc230008140e6b,Takumi,52.347874,4.891532,Ramen Restaurant
237,52.34760000000001,4.885638461538461,22,13,551af772498eb8a27bb29a63,EN Japanese Kitchen @ Sake Bar,52.351137,4.889386,Japanese Restaurant
238,52.34760000000001,4.885638461538461,22,14,4a270789f964a5202e8e1fe3,Nawaab,52.34500311863849,4.89086250774928,Indian Restaurant
239,52.34760000000001,4.885638461538461,22,15,4a2703dcf964a520a6851fe3,Tjing Tjing,52.350638,4.889264702796936,African Restaurant
240,52.34760000000001,4.885638461538461,22,16,5ace46c36f706a7853d2d0b9,Sanpachi,52.344395,4.889294,Japanese Restaurant
241,52.34760000000001,4.885638461538461,22,17,4a26ffa5f964a52083801fe3,Café Dusart,52.351257,4.889485,German Restaurant
242,52.34760000000001,4.885638461538461,22,18,4f258221e4b04f6e6a44f8e7,Japans restaurant Tanaka,52.34778910270478,4.890456414706227,Japanese Restaurant
243,52.34760000000001,4.885638461538461,22,19,504b92e2e4b05ebf6d78e6fa,Buffalo Steakhouse,52.34503728581678,4.890887947889493,Argentinian Restaurant
244,52.34760000000001,4.885638461538461,22,20,54d7aad9498ead5140a8f17c,Insieme,52.346856875199514,4.891152933316222,Italian Restaurant
245,52.34760000000001,4.885638461538461,22,21,4d63f60a03e2721efee7132f,Pizzeria Sicilia,52.34526314673333,4.890900049033109,Pizza Place
246,52.34760000000001,4.902561538461538,37,0,4eec92776da1536879978b5a,Indah Indonesia,52.34631796397839,4.904918908590438,Indonesian Restaurant
247,52.34760000000001,4.902561538461538,37,1,4a27db71f964a520db931fe3,New China Town,52.35117526753469,4.903394799717966,Chinese Restaurant
248,52.34760000000001,4.902561538461538,37,2,5548e3b0498eac5b17774b82,Paskamer,52.350933905922034,4.8977634509635575,Tapas Restaurant
249,52.34760000000001,4.902561538461538,37,3,5a7e0e6d32b61d4c2c6a7067,Yuan‘s Hot Pot Amsterdam Zuid 袁记串串香阿姆南区店,52.3468396156105,4.905257374048233,Chinese Restaurant
250,52.34760000000001,4.902561538461538,37,4,5c129a75772fbc002c0597f1,Mama’s Kitchen,52.351691,4.90302,Syrian Restaurant
251,52.34760000000001,4.902561538461538,37,5,4a27079df964a520648e1fe3,i Trulli,52.34454382375214,4.9058875835059785,Italian Restaurant
252,52.34760000000001,4.902561538461538,37,6,4e7b830162e12bdbfdfefa04,Pind Punjabi,52.34955179116233,4.903832563421833,Indian Restaurant
253,52.34760000000001,4.902561538461538,37,7,5cd85ddd4acb19002c94acdf,Mr Sushi,52.346036,4.905069,Sushi Restaurant
254,52.34760000000001,4.902561538461538,37,8,50b1105de4b046a4fca83d55,J&J Classico,52.343478,4.901471,Italian Restaurant
255,52.34760000000001,4.902561538461538,37,9,5f089f157420543cf2139646,Roti Corner,52.351706,4.903285,Indian Restaurant
256,52.34760000000001,4.902561538461538,37,10,5d56f6b19ccd2d0008a0163f,GialloArancio,52.351695,4.903535,Italian Restaurant
257,52.34760000000001,4.902561538461538,37,11,4a26ff5ff964a520567f1fe3,Reuring,52.350979143319826,4.897776610851896,French Restaurant
258,52.34760000000001,4.902561538461538,37,12,51b38045498e77488e655aff,Warung Berkah Rasa,52.349723,4.904501,Indonesian Restaurant
259,52.34760000000001,4.902561538461538,37,13,55a93b44498e787e7bf930f7,Viviamo,52.351492,4.903426,Italian Restaurant
260,52.34760000000001,4.902561538461538,37,14,4a2707c3f964a520ba8e1fe3,Mangiamore,52.34741724183126,4.895239571553623,Italian Restaurant
261,52.34760000000001,4.902561538461538,37,15,4a270872f964a520c0901fe3,Visrestaurant Andalusia,52.35190090653591,4.9031082121545095,Spanish Restaurant
262,52.34760000000001,4.902561538461538,37,16,4a27db58f964a5204a931fe3,Il Ponte,52.350484,4.903466,Italian Restaurant
263,52.34760000000001,4.902561538461538,37,17,5129014de4b020f716d53589,mexfest,52.34708048015722,4.902945678106965,Mexican Restaurant
264,52.34760000000001,4.902561538461538,37,18,521a4cf3498e47d574665384,Rosticceria Italiana,52.34921095105454,4.901313823719432,Italian Restaurant
265,52.34760000000001,4.902561538461538,37,19,5b1c0d0c89e490002cafe206,袁记串串香,52.346858,4.905075,Szechuan Restaurant
266,52.34760000000001,4.902561538461538,37,20,5251a2e8498e5a8225e9c036,Paulien Culinair,52.350943,4.897916,Italian Restaurant
267,52.34760000000001,4.902561538461538,37,21,53b6da5b498eb8b9a2329479,SUSHISU,52.345125,4.905742,Japanese Restaurant
268,52.34760000000001,4.902561538461538,37,22,517c0e64498e3d704e8bce32,vodkaprazdnik,52.34693329178935,4.9029779157967255,Eastern European Restaurant
269,52.34760000000001,4.902561538461538,37,23,4ddab8361f6ee1468370e720,Kongkha,52.3451625527448,4.905606865112907,Thai Restaurant
270,52.34760000000001,4.902561538461538,37,24,4a27db21f964a52025921fe3,Indonesisch-Maleisia-Singapore Taste of Life,52.346870751744156,4.905008765772587,Indonesian Restaurant
271,52.34760000000001,4.902561538461538,37,25,523c805f11d236ac7b6c3cad,Rosticceria Italiana,52.35203620423732,4.903083471621901,Italian Restaurant
272,52.34760000000001,4.902561538461538,37,26,563b9b05cd10d338a4aa5b25,Namaste India,52.351876262891835,4.90311558120658,Indian Restaurant
273,52.34760000000001,4.902561538461538,37,27,570fe0cccd103ed3b51fe94a,Wok King Amsterdam,52.34575459629679,4.905523931659777,Asian Restaurant
274,52.34760000000001,4.902561538461538,37,28,4bc214b74cdfc9b64d819521,Krua Buppha,52.34942393,4.904006,Thai Restaurant
275,52.34760000000001,4.902561538461538,37,29,4a27081bf964a520a98f1fe3,Kong Ming,52.345762,4.905475,Chinese Restaurant
276,52.34760000000001,4.902561538461538,37,30,4b6e0c8ff964a5205fa62ce3,chris biefstuk,52.343711256980896,4.905156,French Restaurant
277,52.34760000000001,4.902561538461538,37,31,4cfad799c51fa1cdc946e32b,M&M,52.347332,4.90517,Caribbean Restaurant
278,52.34760000000001,4.902561538461538,37,32,5f102947be227b1308465bc5,Yakitori La Kushi,52.346748,4.904848,Japanese Restaurant
279,52.34760000000001,4.902561538461538,37,33,53eba70e498ee86ebe048716,Sushi Su,52.34520124735378,4.905688675121201,Japanese Restaurant
280,52.34760000000001,4.902561538461538,37,34,587a7a264745864e1c42824e,Tulsi Indian Restaurant,52.350698244655426,4.903552357356812,Indian Restaurant
281,52.34760000000001,4.902561538461538,37,35,53cfec93498e76c12359fc41,Warung Atika,52.34965379752524,4.903907202683765,Indonesian Restaurant
282,52.34760000000001,4.902561538461538,37,36,4a27051ff964a520fd861fe3,Kong Kha,52.34518209354613,4.905654920985478,Thai Restaurant
283,52.34760000000001,4.919484615384615,10,0,5762feca498ec7181dcd8579,"The Lobby, Fizeaustraat",52.34542439900525,4.925503247301483,French Restaurant
284,52.34760000000001,4.919484615384615,10,1,590cb79828374e10e4501f56,Le Due Sicilie,52.351298,4.916344,Italian Restaurant
285,52.34760000000001,4.919484615384615,10,2,4a26ffb5f964a520b0801fe3,Café-Restaurant Dauphine,52.34849054831966,4.917228572877027,French Restaurant
286,52.34760000000001,4.919484615384615,10,3,50a0f3a3e4b070da0b3caf70,Buenos Aires,52.344772,4.918005,Argentinian Restaurant
287,52.34760000000001,4.919484615384615,10,4,4eaee10e6da1a0e3a5172676,The luxe,52.349,4.920115,Italian Restaurant
288,52.34760000000001,4.919484615384615,10,5,4d05c40cdc45a093f8e2f0c6,Julia's,52.3466754778035,4.91818253493216,Italian Restaurant
289,52.34760000000001,4.919484615384615,10,6,4f2af564e4b00359246d9af8,Peeking Chinese Restaurant,52.35,4.916667,Chinese Restaurant
290,52.34760000000001,4.919484615384615,10,7,4e2c820efa76bbf847e4be22,Restaurant HACHI,52.34709948713719,4.92335859155776,Japanese Restaurant
291,52.34760000000001,4.919484615384615,10,8,4ca631dbeda2236a884489de,Dolfijn,52.348221,4.917325,Cajun / Creole Restaurant
292,52.34760000000001,4.919484615384615,10,9,4a2704b4f964a520f3851fe3,The Döner Company,52.3463092882758,4.916901465106742,Doner Restaurant
293,52.34760000000001,4.936407692307692,5,0,4a270834f964a520e98f1fe3,Wong Koen,52.34846850742392,4.938520881297928,Chinese Restaurant
294,52.34760000000001,4.936407692307692,5,1,4a27049ff964a520c6851fe3,Merkelbach,52.35124884324287,4.933387851795627,French Restaurant
295,52.34760000000001,4.936407692307692,5,2,4cd3e83f9828b60c85ded784,Meer Winkel,52.351792,4.936534,French Restaurant
296,52.34760000000001,4.936407692307692,5,3,5f1084a4268a0648873a80b9,Il Sogno,52.349389,4.939923,Italian Restaurant
297,52.34760000000001,4.936407692307692,5,4,4d56dd6db4deb1f7f365167a,Theodora & Ewold's,52.348879,4.941096,South American Restaurant
298,52.34760000000001,4.970253846153845,1,0,5ac20ea1a2c00b74b3f3e974,Stick-Up Indo Food Diemen,52.347218,4.969867,Indonesian Restaurant
299,52.34760000000001,5.004099999999999,1,0,4c31dadd7cc0c9b66c55ef9a,Merza,52.351646885516516,5.002127736982938,Turkish Restaurant
300,52.357600000000005,4.801023076923077,16,0,4e561c20b3ad1fc51bd58e57,Sahan Restaurant,52.35836579204695,4.8003088795736115,Turkish Restaurant
301,52.357600000000005,4.801023076923077,16,1,500bd06be4b07957c34439e4,Warung Spang Makandra,52.35714748238426,4.794915899758567,Indonesian Restaurant
302,52.357600000000005,4.801023076923077,16,2,4a270892f964a52022911fe3,Kismet :: Osdorpplein 671,52.359166752353595,4.805601707716233,Mediterranean Restaurant
303,52.357600000000005,4.801023076923077,16,3,4f85e3f9e4b01c6ea3a2eca0,Flavours of singapore,52.3537847,4.8047602,Asian Restaurant
304,52.357600000000005,4.801023076923077,16,4,4e4ea296cc3f9e658a78e9b3,Ken-Ichi,52.35830225502692,4.800566091948069,Sushi Restaurant
305,52.357600000000005,4.801023076923077,16,5,4f6c555de4b0a4e20e7b8009,Saturko's sushi,52.35571111111111,4.805075555555556,Sushi Restaurant
306,52.357600000000005,4.801023076923077,16,6,58a6ea480a3d5449dc2c4ef3,aryana,52.359416,4.806638,Afghan Restaurant
307,52.357600000000005,4.801023076923077,16,7,5e2f172167b6f4000710788e,Ravioli,52.358192,4.801858,Italian Restaurant
308,52.357600000000005,4.801023076923077,16,8,4a27db37f964a520a0921fe3,Asian Delight,52.359151,4.805999,Asian Restaurant
309,52.357600000000005,4.801023076923077,16,9,58b2bbac4287c926c6bfe192,DönerAbi,52.359367,4.806403,Doner Restaurant
310,52.357600000000005,4.801023076923077,16,10,52cc5a9911d2dc51262c59f3,Beymen café & restaurant,52.357292590881656,4.795867714028245,Turkish Restaurant
311,52.357600000000005,4.801023076923077,16,11,5287541111d2d63ab44bfbd5,Kin Arai,52.36009216308594,4.797080993652344,Thai Restaurant
312,52.357600000000005,4.801023076923077,16,12,4a27db52f964a52029931fe3,KING Kumpir Osdorp,52.35908369,4.805177,Vegetarian / Vegan Restaurant
313,52.357600000000005,4.801023076923077,16,13,4a27084ff964a52038901fe3,Peninsula,52.35812531036291,4.800231900796576,Chinese Restaurant
314,52.357600000000005,4.801023076923077,16,14,57f8b504498e3aa87b369374,Brasserie De Serre,52.358757,4.8049736,Dutch Restaurant
315,52.357600000000005,4.801023076923077,16,15,5dc1155054db040008b9ddb2,Ferayes Cafe & Restaurant,52.35907757503776,4.806202054023743,Turkish Restaurant
316,52.357600000000005,4.834869230769231,10,0,4a2707b1f964a520998e1fe3,Perla di Roma,52.35840535035962,4.827865520732161,Italian Restaurant
317,52.357600000000005,4.834869230769231,10,1,4f6b2a99e4b0d8154bd79625,Dropkick,52.35915104387232,4.8339259109807875,Japanese Restaurant
318,52.357600000000005,4.834869230769231,10,2,55e82449498e28d2005feff7,Roti Shop,52.35622787475586,4.8301825523376465,South American Restaurant
319,52.357600000000005,4.834869230769231,10,3,4dd6520ce4cd37c8938ed18d,Miskaa Brasserie,52.355452,4.839112,Indian Restaurant
320,52.357600000000005,4.834869230769231,10,4,4f686109e4b0eb08939a5f63,Flashpoint,52.35915104387232,4.8340068563053675,Australian Restaurant
321,52.357600000000005,4.834869230769231,10,5,5e19e0a95a231d0008b0e50d,Dar Sultan,52.356589,4.837601,Moroccan Restaurant
322,52.357600000000005,4.834869230769231,10,6,4f4e15afe4b027c873d5826b,Caland Döner & Snacks,52.3557607956752,4.828649900364301,Turkish Restaurant
323,52.357600000000005,4.834869230769231,10,7,4d28ca8aebacb1f791a9f44f,Cigkofte Partisi,52.359182,4.829588,Cigkofte Place
324,52.357600000000005,4.834869230769231,10,8,5f7580e83cfe6e64cfb88fc2,Lemoene,52.359829,4.840958,Syrian Restaurant
325,52.357600000000005,4.834869230769231,10,9,58e135bdfc73d45035c99862,Flavours Of India,52.35612,4.8295264,Indian Restaurant
326,52.357600000000005,4.851792307692307,22,0,4a27003ff964a520cf821fe3,Gent aan de Schinkel,52.35475521974998,4.853131516068616,Belgian Restaurant
327,52.357600000000005,4.851792307692307,22,1,5a5a39d9dab4b1392393d7a1,Gustatio,52.358427,4.858795,Italian Restaurant
328,52.357600000000005,4.851792307692307,22,2,4acf2d18f964a52098d220e3,WestCord Fashion Hotel,52.35769498544328,4.844535464378366,Hotel
329,52.357600000000005,4.851792307692307,22,3,599c7d2832b61d2d9704a7c9,parallel amsterdam,52.35803,4.857742,Tapas Restaurant
330,52.357600000000005,4.851792307692307,22,4,54e77976498e543536669b1d,Adam,52.35801497581497,4.856638933518454,French Restaurant
331,52.357600000000005,4.851792307692307,22,5,4d83a93799b78cfa98fca51f,Siam Lounge Restaurant,52.3582215,4.857317500000001,Asian Restaurant
332,52.357600000000005,4.851792307692307,22,6,4fe5c864e4b01cb912eda833,Tromer,52.357902563562874,4.850983843080521,French Restaurant
333,52.357600000000005,4.851792307692307,22,7,4bbcc5e3f57ba593b237adb9,De Pizzabakkers,52.358165947364,4.85711238039528,Pizza Place
334,52.357600000000005,4.851792307692307,22,8,4cfa24542c6459411bf5414a,Mangiamo Grill,52.35598089,4.8503793625,Mediterranean Restaurant
335,52.357600000000005,4.851792307692307,22,9,55a28294498ea5a1afa5c767,Brasserie Frans,52.3549106284358,4.851297745060122,French Restaurant
336,52.357600000000005,4.851792307692307,22,10,57d47e38498e9835456f0725,Tawazo,52.357969,4.857118,Pakistani Restaurant
337,52.357600000000005,4.851792307692307,22,11,4a577ed6f964a52041b61fe3,In 't Vierde Baarsje,52.358198714036064,4.854164859138471,French Restaurant
338,52.357600000000005,4.851792307692307,22,12,534ae170498e858c2f8b09f8,Blouw,52.355029,4.853012,Indonesian Restaurant
339,52.357600000000005,4.851792307692307,22,13,599c7df68d0a5361efbb760f,parallel amsterdam,52.3581078,4.8576019,Tapas Restaurant
340,52.357600000000005,4.851792307692307,22,14,553ceb8c498e07ead1a412be,Boteco do nerynho,52.35739142254506,4.850508670152118,Brazilian Restaurant
341,52.357600000000005,4.851792307692307,22,15,5a4e70d6f870fd2b52da470f,Indian Dinner,52.3581,4.854254,Indian Restaurant
342,52.357600000000005,4.851792307692307,22,16,4c3edb80b8b4be9addabccef,Pasta & Pizza Cannolo,52.35850974686077,4.853877414924638,Italian Restaurant
343,52.357600000000005,4.851792307692307,22,17,5aabffec35811b126338e5c9,La Polpetta,52.358204,4.854,Italian Restaurant
344,52.357600000000005,4.851792307692307,22,18,4a771fbbf964a520a8e31fe3,Pomorosso,52.35440463565261,4.855603461644027,Italian Restaurant
345,52.357600000000005,4.851792307692307,22,19,4c700e5ed97fa14320cbf4ca,Olive 63,52.353958,4.855698,Greek Restaurant
346,52.357600000000005,4.851792307692307,22,20,4a27086cf964a520a9901fe3,Punjabi Food,52.360898,4.855708,Indian Restaurant
347,52.357600000000005,4.851792307692307,22,21,4a270809f964a520908f1fe3,Surabaya Green,52.358171,4.853873,South American Restaurant
348,52.357600000000005,4.868715384615384,37,0,5f4a9c44fc9d580dd7f4f653,Frizzanteria,52.35377,4.866956,Italian Restaurant
349,52.357600000000005,4.868715384615384,37,1,5d2624a9256bfd00238317d7,Batoni Khinkali,52.35565,4.870731,Caucasian Restaurant
350,52.357600000000005,4.868715384615384,37,2,4a27db68f964a520a3931fe3,Fenan Klein Afrika,52.361211682228,4.8649929875387175,Ethiopian Restaurant
351,52.357600000000005,4.868715384615384,37,3,4ab4b9c2f964a520737120e3,Brasserie Van Dam,52.355728968866046,4.87091283590454,Bistro
352,52.357600000000005,4.868715384615384,37,4,4b4c6f3df964a520e6b226e3,George W.P.A.,52.35719987404816,4.874581014412732,French Restaurant
353,52.357600000000005,4.868715384615384,37,5,4a2707baf964a520a18e1fe3,Sardegna,52.355359,4.871358,Italian Restaurant
354,52.357600000000005,4.868715384615384,37,6,5d3a17bd2b57380008c8d67f,Gangnam Chicken,52.360924,4.865404,Korean Restaurant
355,52.357600000000005,4.868715384615384,37,7,4a27085af964a5206a901fe3,Daar Baand,52.36046395018312,4.8659498342978,Persian Restaurant
356,52.357600000000005,4.868715384615384,37,8,4a270781f964a520068e1fe3,Addis Ababa,52.35998235700982,4.864199577957539,Ethiopian Restaurant
357,52.357600000000005,4.868715384615384,37,9,4a27005bf964a52030831fe3,Abyssinia Afrikaans Eetcafe,52.36047107099556,4.865475138383872,Ethiopian Restaurant
358,52.357600000000005,4.868715384615384,37,10,4a270831f964a520e18f1fe3,Bellavista,52.35388,4.8694448,Italian Restaurant
359,52.357600000000005,4.868715384615384,37,11,4a270890f964a5201a911fe3,Lalibela,52.36104759300509,4.865448216006593,Ethiopian Restaurant
360,52.357600000000005,4.868715384615384,37,12,4a270785f964a520168e1fe3,Waroeng Asje,52.36095816858731,4.865180783235584,Indonesian Restaurant
361,52.357600000000005,4.868715384615384,37,13,50d89039fe70a1e0c30eb05a,Restaurant Classico | Italian/mediterranian kitchen,52.35705473111609,4.8743451333739145,Italian Restaurant
362,52.357600000000005,4.868715384615384,37,14,5dbbe2cb607ad200087ba545,TOZI Amsterdam,52.354262,4.866468,Italian Restaurant
363,52.357600000000005,4.868715384615384,37,15,5788eecbcd1046e593a09629,Resto willems,52.355882,4.870594,Dutch Restaurant
364,52.357600000000005,4.868715384615384,37,16,52170a5c11d2950cd8dcd355,Olivity,52.361047926219115,4.868770995346457,Greek Restaurant
365,52.357600000000005,4.868715384615384,37,17,5c549e099e0d54002c17d355,Pipistrello,52.361084,4.865063,Italian Restaurant
366,52.357600000000005,4.868715384615384,37,18,504a480be4b07201958754ee,Can Pont,52.354378008865055,4.866028153188109,Tapas Restaurant
367,52.357600000000005,4.868715384615384,37,19,577ab13ecd1001858510f49b,Taste of Ethiopia,52.359871,4.864272,Ethiopian Restaurant
368,52.357600000000005,4.868715384615384,37,20,50843fc9e4b00dbb9e517de3,Willems,52.3559439312729,4.870631410324487,French Restaurant
369,52.357600000000005,4.868715384615384,37,21,4a2704b8f964a52000861fe3,Brasserie Senz,52.353597724979096,4.870240407564679,French Restaurant
370,52.357600000000005,4.868715384615384,37,22,4a2707f3f964a520508f1fe3,Ah-Sang,52.361364,4.869866,Chinese Restaurant
371,52.357600000000005,4.868715384615384,37,23,4d97621fdaec224b90e02e3e,Grand Aspendos,52.36104471870916,4.865096876617858,Middle Eastern Restaurant
372,52.357600000000005,4.868715384615384,37,24,5dec029bf93ca90007e34b5b,Greazy,52.36062,4.8661284,American Restaurant
373,52.357600000000005,4.868715384615384,37,25,4a75c3a1f964a52036e11fe3,Tomatillo,52.36080096094398,4.867626469976871,Mexican Restaurant
374,52.357600000000005,4.868715384615384,37,26,4a270789f964a5202d8e1fe3,Turks Restaurant Aspendos,52.36106938092172,4.865086862289409,Turkish Restaurant
375,52.357600000000005,4.868715384615384,37,27,55cf6e3a498e4eca2f418b44,VIDA Amsterdam,52.35376997090085,4.8668858715794245,Tapas Restaurant
376,52.357600000000005,4.868715384615384,37,28,4a2703ccf964a52074851fe3,Sal Gorda,52.35593653505611,4.873454714037157,Tapas Restaurant
377,52.357600000000005,4.868715384615384,37,29,59875f116fd626071da3841c,Blauwe Draak,52.355195,4.868358,Japanese Restaurant
378,52.357600000000005,4.868715384615384,37,30,56b39ab5498e5ac013921d68,Paprika Csárda,52.357744,4.873914,Hungarian Restaurant
379,52.357600000000005,4.868715384615384,37,31,4b705381f964a520e1122de3,restaurant moerdijk,52.356122,4.871057,French Restaurant
380,52.357600000000005,4.868715384615384,37,32,532cb5eb498e32f687908e62,Nightshop,52.36163330078125,4.870551109313965,Turkish Restaurant
381,52.357600000000005,4.868715384615384,37,33,50898826e4b02a7b08007e2f,Fan's Kitchen,52.361312532161904,4.869801906475533,Chinese Restaurant
382,52.357600000000005,4.868715384615384,37,34,4d934df2fa1ef04dab6e69c7,GMR Proeverij,52.356734,4.874503,French Restaurant
383,52.357600000000005,4.868715384615384,37,35,4a2703edf964a520ba851fe3,Paloma Blanca,52.361261,4.864924,Moroccan Restaurant
384,52.357600000000005,4.868715384615384,37,36,5b5a03eab6b04b002c6b6a56,de Pizzabakkers,52.355823,4.870039,Italian Restaurant
385,52.357600000000005,4.885638461538461,50,0,4a27080cf964a5209b8f1fe3,Levant,52.360947196232885,4.887000995388796,Turkish Restaurant
386,52.357600000000005,4.885638461538461,50,1,5c8a9a9ab5cb7600393c9faf,Fiko,52.355592,4.891726,Pizza Place
387,52.357600000000005,4.885638461538461,50,2,5de6a80cadb67f0008d35997,Yuan's Chuan Chuan Xiang Amsterdam De Pijp袁记串串香阿姆喜力博物馆店,52.357073,4.890552,Chinese Restaurant
388,52.357600000000005,4.885638461538461,50,3,4acb1ca0f964a52042c320e3,Renzo's Delicatessen,52.3549277,4.8810932,Deli / Bodega
389,52.357600000000005,4.885638461538461,50,4,52b5908e498e25b1fd6f7a11,Pasta Pasta,52.354703930194326,4.890414432098538,Italian Restaurant
390,52.357600000000005,4.885638461538461,50,5,4a26ffcef964a52019811fe3,Barça,52.356994,4.891618,Bar
391,52.357600000000005,4.885638461538461,50,6,5bbb7e3a2db4a9002c315f7d,Spaghetteria,52.356224,4.891639,Italian Restaurant
392,52.357600000000005,4.885638461538461,50,7,5149cf8a70432b6e7fd04ea7,Miss Korea,52.354842879432866,4.889580066263741,Korean Restaurant
393,52.357600000000005,4.885638461538461,50,8,5075c4a8e4b0416afc9422e2,Izakaya,52.35462084945091,4.887186018219195,Japanese Restaurant
394,52.357600000000005,4.885638461538461,50,9,5d95cc001128280007106ee2,Takumi Ramen Kitchen,52.356328,4.890546,Ramen Restaurant
395,52.357600000000005,4.885638461538461,50,10,4a954c2ef964a520e02220e3,MOMO,52.36159735761838,4.882536682506547,Asian Restaurant
396,52.357600000000005,4.885638461538461,50,11,4a2707b1f964a520978e1fe3,Otaru,52.35858591622102,4.889019077468404,Sushi Restaurant
397,52.357600000000005,4.885638461538461,50,12,537cdbcc498e976c85be52a5,Pho 91,52.35517807185446,4.891184968964705,Vietnamese Restaurant
398,52.357600000000005,4.885638461538461,50,13,4a270866f964a52091901fe3,Cafe Restaurant Mamouche,52.356710186321564,4.892157529030803,Moroccan Restaurant
399,52.357600000000005,4.885638461538461,50,14,5b6c79851ffe9700396c73d5,Wok To Walk,52.355977,4.890593,Asian Restaurant
400,52.357600000000005,4.885638461538461,50,15,5956bc03a0215b25934f88b4,Floreyn,52.35457,4.887814,Dutch Restaurant
401,52.357600000000005,4.885638461538461,50,16,4a2703cff964a5207b851fe3,LOKANTA,52.3553038398716,4.889849946667931,Mediterranean Restaurant
402,52.357600000000005,4.885638461538461,50,17,56472bb8498e479533253d65,Salsa Shop,52.35772777354002,4.890915013608085,Burrito Place
403,52.357600000000005,4.885638461538461,50,18,4a27089af964a52041911fe3,Solo Eten & Drinken,52.3561997940526,4.880129843307251,Mediterranean Restaurant
404,52.357600000000005,4.885638461538461,50,19,5daacbc539f40e00087b2897,Brasserie Lolita,52.35550974887033,4.890316128730774,Brasserie
405,52.357600000000005,4.885638461538461,50,20,5092aba5e4b0192dd6a9a187,Eazie,52.357096515867205,4.890841613773445,Noodle House
406,52.357600000000005,4.885638461538461,50,21,4eff57b90e01089c552b0130,Conservatorium Brasserie & Lounge,52.35860584260839,4.879009585292059,French Restaurant
407,52.357600000000005,4.885638461538461,50,22,4b6c3b1ff964a520d42a2ce3,SenT,52.35574438179687,4.888940644804844,French Restaurant
408,52.357600000000005,4.885638461538461,50,23,570fcdc6498ef98443eb7498,Onigiri Ya!,52.3555453527531,4.890466091745714,Japanese Restaurant
409,52.357600000000005,4.885638461538461,50,24,5c4b051e00b068002d1a2e76,Restaurant Watergang,52.361031,4.888751,French Restaurant
410,52.357600000000005,4.885638461538461,50,25,4a2707a3f964a520788e1fe3,Taj Mahal,52.35723274632768,4.89098891302439,Indian Restaurant
411,52.357600000000005,4.885638461538461,50,26,4a2704a6f964a520d9851fe3,Brasserie Bark,52.35530810292323,4.880465408873005,Seafood Restaurant
412,52.357600000000005,4.885638461538461,50,27,4a2703d1f964a52085851fe3,L'Entrecôte et les Dames,52.355733447825806,4.880336265364196,French Restaurant
413,52.357600000000005,4.885638461538461,50,28,544a8c1d498ecb0abc89361a,Taiko,52.35846378294343,4.879264862943597,Asian Restaurant
414,52.357600000000005,4.885638461538461,50,29,5f4273e3e5287a421f8c585e,De Patchka,52.355232,4.8912067,Korean Restaurant
415,52.357600000000005,4.885638461538461,50,30,4d90a94aca75b60ce1002da9,"Restaurant ""Le Garage""",52.3540138,4.8830406,French Restaurant
416,52.357600000000005,4.885638461538461,50,31,4a27083df964a52007901fe3,Warung Spang Makandra,52.35530945950131,4.89001874265431,Indonesian Restaurant
417,52.357600000000005,4.885638461538461,50,32,4e1dc395d1640dd252091108,Robeco Zomerrestaurant,52.356272546435186,4.8786490503218385,French Restaurant
418,52.357600000000005,4.885638461538461,50,33,5cf40a28270ee7002c624573,Restaurant Lier,52.355735,4.879255,Modern European Restaurant
419,52.357600000000005,4.885638461538461,50,34,4a270804f964a5207d8f1fe3,Albina,52.35492729162367,4.889828753080029,Chinese Restaurant
420,52.357600000000005,4.885638461538461,50,35,576c23db498e0a8a3e7b0090,Auberge Jean & Marie,52.354804530900395,4.889264426413418,French Restaurant
421,52.357600000000005,4.885638461538461,50,36,4cb0621139458cfa2a1c02a0,Nam Kee,52.35753532093774,4.891028026065406,Chinese Restaurant
422,52.357600000000005,4.885638461538461,50,37,5f37c29058a5b74d726819a8,Sababa,52.354693,4.888256,Middle Eastern Restaurant
423,52.357600000000005,4.885638461538461,50,38,4fb15a22e4b01d7a90f92dbc,Ikura,52.35485011135734,4.889579575073619,Sushi Restaurant
424,52.357600000000005,4.885638461538461,50,39,4a27db1ff964a52018921fe3,No Sushi,52.3540746741991,4.8817116022109985,Sushi Restaurant
425,52.357600000000005,4.885638461538461,50,40,5689b14e498efbacb9552d9f,Ginger,52.35645715350726,4.8906147692645,Asian Restaurant
426,52.357600000000005,4.885638461538461,50,41,4ecbd086722efb00f8b735c7,Keuken V,52.3585918,4.8796961,African Restaurant
427,52.357600000000005,4.885638461538461,50,42,58bb04bf89151d6351574e93,Hennequin & To,52.356621,4.890549,French Restaurant
428,52.357600000000005,4.885638461538461,50,43,4dc331d82271f27050f4e680,Doner Company,52.357982,4.8913298,Doner Restaurant
429,52.357600000000005,4.885638461538461,50,44,5d4ef97648faba0008ba9b3b,Isshin,52.35705,4.888673,Japanese Restaurant
430,52.357600000000005,4.885638461538461,50,45,4a26fffaf964a520b6811fe3,Top Wok,52.3571,4.891072511672974,Asian Restaurant
431,52.357600000000005,4.885638461538461,50,46,4a270800f964a5206d8f1fe3,Szechuan Kitchen,52.354804,4.887628,Chinese Restaurant
432,52.357600000000005,4.885638461538461,50,47,4bf6ced94a67c928e97122cf,Taverna Barcelona,52.35578489322623,4.8886713844261855,Mediterranean Restaurant
433,52.357600000000005,4.885638461538461,50,48,56eea74ccd10a5c732b9abbb,Ecole,52.356976869127976,4.891147446088988,French Restaurant
434,52.357600000000005,4.885638461538461,50,49,4f256c67e4b01dc94c995dd3,jingles,52.35533905029297,4.890134334564209,Ethiopian Restaurant
435,52.357600000000005,4.902561538461538,50,0,5914b60fad17891f9c21ef9f,Escobar,52.35660385603116,4.8972491041197,Spanish Restaurant
436,52.357600000000005,4.902561538461538,50,1,5f529e4a8a57a84a37fbf346,Vegan Sushi Bar,52.355362,4.900983,Sushi Restaurant
437,52.357600000000005,4.902561538461538,50,2,5d08e8ef7b0b520023730b1c,Nazka,52.3537502,4.9019057,Peruvian Restaurant
438,52.357600000000005,4.902561538461538,50,3,566349da498efe11ebff7f25,Calle Ocho,52.356428850759116,4.896964063702356,South American Restaurant
439,52.357600000000005,4.902561538461538,50,4,58a9e976ed0a327078e7790f,Fou Fow Ramen,52.35759406953366,4.899397993915533,Ramen Restaurant
440,52.357600000000005,4.902561538461538,50,5,4a85a430f964a520bbfe1fe3,Fa. Pekelhaaring,52.35324516815201,4.9025551359212844,Italian Restaurant
441,52.357600000000005,4.902561538461538,50,6,4a27db34f964a5208c921fe3,Pata Negra,52.36145720252549,4.899150104625573,Spanish Restaurant
442,52.357600000000005,4.902561538461538,50,7,596650eb35d3fc1e6ee2f2a2,Franggo,52.35622269172725,4.897646772546211,Fried Chicken Joint
443,52.357600000000005,4.902561538461538,50,8,587fbdf08cb34e771add428b,Impero Romano,52.35678596829745,4.904640002755308,Italian Restaurant
444,52.357600000000005,4.902561538461538,50,9,4a27088cf964a52013911fe3,Azmarino,52.354022768995584,4.899329791099864,Ethiopian Restaurant
445,52.357600000000005,4.902561538461538,50,10,5370f773498e32f5604e3876,De Pizzabakkers,52.35634901049651,4.89753088398226,Italian Restaurant
446,52.357600000000005,4.902561538461538,50,11,56eb1ef1cd1036573f84ef5b,Graham's Kitchen,52.356665,4.902584,Modern European Restaurant
447,52.357600000000005,4.902561538461538,50,12,4bf3c6f6cad2c928991a9b99,Uliveto Nobili Ingredienti,52.35923560657794,4.89646503543813,Deli / Bodega
448,52.357600000000005,4.902561538461538,50,13,57fd1114498ea8c2e605a55c,Arles,52.35628677437768,4.89811517489653,French Restaurant
449,52.357600000000005,4.902561538461538,50,14,5ceef2228f90d90023c6b69f,Zoldering,52.361265,4.899399,French Restaurant
450,52.357600000000005,4.902561538461538,50,15,57ed5107498e1648f299ff8f,Pepenero,52.35579,4.907731,Italian Restaurant
451,52.357600000000005,4.902561538461538,50,16,596e317216fa0433db623567,Saffraan,52.355258,4.907656,Middle Eastern Restaurant
452,52.357600000000005,4.902561538461538,50,17,4a27004ff964a520f5821fe3,Eetcafe Ibis,52.355727665840284,4.907274665477033,African Restaurant
453,52.357600000000005,4.902561538461538,50,18,56d9d62d498efaad3240edef,Saravanaa Bhavan,52.35773860688338,4.899400848141028,South Indian Restaurant
454,52.357600000000005,4.902561538461538,50,19,4d66974be07aa35d1399aa8f,Mangiassai,52.35730594550904,4.909443922353648,Italian Restaurant
455,52.357600000000005,4.902561538461538,50,20,4f28505de4b0279eab47458a,Spaghetteria,52.35349776449129,4.902465220123396,Italian Restaurant
456,52.357600000000005,4.902561538461538,50,21,4a27004ff964a520fa821fe3,Warung-Mini,52.35511468862449,4.902041068611701,Caribbean Restaurant
457,52.357600000000005,4.902561538461538,50,22,4b9bd2d0f964a520932936e3,Restaurant ARTIST,52.355643200330974,4.898134295767443,Middle Eastern Restaurant
458,52.357600000000005,4.902561538461538,50,23,4a2703d6f964a52090851fe3,Le Hollandais,52.355172416771154,4.9058418112151765,French Restaurant
459,52.357600000000005,4.902561538461538,50,24,53541af5498eebb09d99f084,Casa Nostra,52.3554572948612,4.903159030133888,Italian Restaurant
460,52.357600000000005,4.902561538461538,50,25,4c13b1b682a3c9b633dcfbf8,Axum Ethiopisch Restaurant,52.36157476902008,4.899841,Ethiopian Restaurant
461,52.357600000000005,4.902561538461538,50,26,54f5efa2498e33a9d04091e6,Bistrot des Alpes,52.36200040873267,4.901349861506372,French Restaurant
462,52.357600000000005,4.902561538461538,50,27,50006bece4b0fbfbe8d875ac,Bakkerij Lavina,52.35669026986961,4.89970185201022,Turkish Restaurant
463,52.357600000000005,4.902561538461538,50,28,5b8e71dc16fa04002c434c79,Pho Long,52.356724,4.899851,Vietnamese Restaurant
464,52.357600000000005,4.902561538461538,50,29,4afac658f964a520a01822e3,Gaziantep Pastahanesi,52.356759,4.899777,Turkish Restaurant
465,52.357600000000005,4.902561538461538,50,30,4eb865f1be7bfc284b8fc366,Dromenland,52.361878,4.901178,Indian Restaurant
466,52.357600000000005,4.902561538461538,50,31,4f72010be4b0022eba2f4164,Restaurant Magritte,52.357031761620156,4.9091859252853975,French Restaurant
467,52.357600000000005,4.902561538461538,50,32,4e45aa87e4cd9d94fb17dcd2,Shoarma Ferdinand Bol,52.35603557327733,4.902694762542939,Middle Eastern Restaurant
468,52.357600000000005,4.902561538461538,50,33,4d4a54495129a35dfcac42ac,Barra (by Siempre),52.356984,4.896377921104431,Spanish Restaurant
469,52.357600000000005,4.902561538461538,50,34,4b1172dcf964a520c97c23e3,Altman Restaurant+Bar,52.356874,4.90466,French Restaurant
470,52.357600000000005,4.902561538461538,50,35,5be2d97960255e002c2e8495,Amsterdam Arepa’s,52.35617,4.897499,Arepa Restaurant
471,52.357600000000005,4.902561538461538,50,36,5a0f326abfc6d02bea731af5,Ramen Izakaya Sora,52.35621088303791,4.896189858833671,Ramen Restaurant
472,52.357600000000005,4.902561538461538,50,37,4fcf9752e4b099aae4202fb2,wokhuis,52.355,4.9016,Asian Restaurant
473,52.357600000000005,4.902561538461538,50,38,4a270838f964a520fb8f1fe3,Athene,52.35580855609668,4.907300349510159,Greek Restaurant
474,52.357600000000005,4.902561538461538,50,39,53075b10498e3d68a11ce1a7,Fresh2Go,52.35649,4.899886,Sushi Restaurant
475,52.357600000000005,4.902561538461538,50,40,546507a2498e799c1ee1e756,Bar Americano,52.3568313331226,4.904438463764812,Italian Restaurant
476,52.357600000000005,4.902561538461538,50,41,5e57a66595d0410008614f67,Pasta E Pizza,52.357466,4.899613,Italian Restaurant
477,52.357600000000005,4.902561538461538,50,42,4b549c23f964a52089c227e3,Indo Jaya,52.35315063743609,4.902686522310032,Asian Restaurant
478,52.357600000000005,4.902561538461538,50,43,4a270788f964a520298e1fe3,Taj Tandoori Indian Restaurant,52.357420384322864,4.908203973241689,Indian Restaurant
479,52.357600000000005,4.902561538461538,50,44,4a2704e9f964a52070861fe3,Ora,52.353521,4.9025,Mediterranean Restaurant
480,52.357600000000005,4.902561538461538,50,45,4ec7995f9adf9c7bf32412a2,Private Tosti Palace,52.354400857739364,4.903417993391067,German Restaurant
481,52.357600000000005,4.902561538461538,50,46,58bb18578f0be43210575d8e,Zaagmolen,52.355588,4.898243,Modern European Restaurant
482,52.357600000000005,4.902561538461538,50,47,4a2707f7f964a5205c8f1fe3,Sranant Food,52.35506088349044,4.902563095092773,South American Restaurant
483,52.357600000000005,4.902561538461538,50,48,5206a3ab11d2ecbb5d6fb1b7,Ristorante Pizzeria il Mare,52.35636050822158,4.900620109911768,Italian Restaurant
484,52.357600000000005,4.902561538461538,50,49,513a17e6e4b08d57cd2d3346,Restaurant MOZO,52.354641,4.901573,Moroccan Restaurant
485,52.357600000000005,4.919484615384615,45,0,4d09f4b5454c6dcb570c3c8e,Hampshire Hotel - The Manor Amsterdam,52.359230719791896,4.926070419407511,Hotel
486,52.357600000000005,4.919484615384615,45,1,5cac7be02b9844002d630f3c,The Bab,52.358087,4.913207,Korean Restaurant
487,52.357600000000005,4.919484615384615,45,2,54952223498e91fedc3f29c3,Eddy Spaghetti,52.35396737630543,4.920498683101644,Italian Restaurant
488,52.357600000000005,4.919484615384615,45,3,57bc7f5c498e8eea065f100d,Spaghetteria,52.35481417420031,4.92178769771623,Italian Restaurant
489,52.357600000000005,4.919484615384615,45,4,4a2704caf964a52039861fe3,Sinbad,52.35680247451532,4.9125346245294566,Middle Eastern Restaurant
490,52.357600000000005,4.919484615384615,45,5,50a7d919e4b0497d75f17782,Michel Inn,52.35521336648404,4.9229926540577145,Mediterranean Restaurant
491,52.357600000000005,4.919484615384615,45,6,5b3a13e1065ef5002c5eb046,Mister Chen,52.359386,4.925659,Asian Restaurant
492,52.357600000000005,4.919484615384615,45,7,4a2704d4f964a52051861fe3,Somjit Thai Shop,52.357015,4.913482,Thai Restaurant
493,52.357600000000005,4.919484615384615,45,8,577ab1fecd1001858512570b,Soto & Sate,52.35757053943562,4.918125271797179,Indonesian Restaurant
494,52.357600000000005,4.919484615384615,45,9,54e61ca6498eedd95fafafd3,Curry Boefje,52.35731506347656,4.918178081512451,Indian Restaurant
495,52.357600000000005,4.919484615384615,45,10,53b2e52e498eb839deff3f6c,Doner XL,52.35693229424627,4.91396126446368,Turkish Restaurant
496,52.357600000000005,4.919484615384615,45,11,5d32fa0ea08f700008e6dcaf,Koma House,52.354435,4.919988,Vietnamese Restaurant
497,52.357600000000005,4.919484615384615,45,12,52d170b3498e31943d8b823c,Toko Muji,52.358054566325386,4.912655976819587,Indonesian Restaurant
498,52.357600000000005,4.919484615384615,45,13,57ee9dce498e629325b130ae,Mama Dough,52.357068896436346,4.918279484011874,Italian Restaurant
499,52.357600000000005,4.919484615384615,45,14,51c876dc498e52a035eea446,Somjit,52.35755963108316,4.914786285032999,Thai Restaurant
500,52.357600000000005,4.919484615384615,45,15,504c7b6ee4b0838e30cce90a,Hoofdgerechten,52.35598,4.91606,German Restaurant
501,52.357600000000005,4.919484615384615,45,16,4c011899cf3aa593216dccb0,Vishandel Gibraltar,52.354862397499126,4.92105094403763,Mediterranean Restaurant
502,52.357600000000005,4.919484615384615,45,17,58cc2375f16bb51b8c9563cf,Batoni Khinkali,52.35735314447421,4.917973375137358,Caucasian Restaurant
503,52.357600000000005,4.919484615384615,45,18,5e5c132c2d56cc000802d714,beyoglu restaurant & cafe,52.357218,4.913767,Turkish Restaurant
504,52.357600000000005,4.919484615384615,45,19,5d296d3f61bdc400233295c4,Galli Poli Restorant,52.359923,4.919934,French Restaurant
505,52.357600000000005,4.919484615384615,45,20,517e6ae5e4b0a8be7c9cb541,Amsteram Elit Restaurant,52.35715351437199,4.913907901307715,Turkish Restaurant
506,52.357600000000005,4.919484615384615,45,21,52af6e9511d2e494189a2df9,Warung Domburg,52.356478,4.91872,Indonesian Restaurant
507,52.357600000000005,4.919484615384615,45,22,4d9364f3fa1ef04da4c96bc7,Akdeniz,52.35722280000001,4.913973,Middle Eastern Restaurant
508,52.357600000000005,4.919484615384615,45,23,5a1092bc018cbb6a216ee71a,Missisipi,52.356667,4.9180965,American Restaurant
509,52.357600000000005,4.919484615384615,45,24,4b1936a9f964a5204cd923e3,Restaurant Oost,52.359247308175604,4.914358435980844,Italian Restaurant
510,52.357600000000005,4.919484615384615,45,25,56eaf1af498eba4b1f8c8c8c,ristorante momento,52.35865,4.912915,Italian Restaurant
511,52.357600000000005,4.919484615384615,45,26,4a270801f964a520728f1fe3,Warung Singo,52.356375,4.918596,Asian Restaurant
512,52.357600000000005,4.919484615384615,45,27,4dfb045152b145696e35719b,Enoteca,52.359289127442544,4.925995890237037,Italian Restaurant
513,52.357600000000005,4.919484615384615,45,28,4f71f376e4b0f11afa2a5c21,El Shygh,52.35422269619625,4.92222830486728,African Restaurant
514,52.357600000000005,4.919484615384615,45,29,576cf084498e6c4527e043dd,Taytu,52.35759019675256,4.913163185119629,Ethiopian Restaurant
515,52.357600000000005,4.919484615384615,45,30,4a27db76f964a520f3931fe3,Meram Oost,52.355948158761365,4.925698339837538,Turkish Restaurant
516,52.357600000000005,4.919484615384615,45,31,5389f2cf498ea2dd8e321d13,Kilimanjaro Take Away,52.357077849942755,4.918352472999469,Ethiopian Restaurant
517,52.357600000000005,4.919484615384615,45,32,53fcab86498ee8e8183e3609,Keukenette cafe,52.35725,4.917773,Italian Restaurant
518,52.357600000000005,4.919484615384615,45,33,51643db7e4b07dd558fa4ddb,Domburg,52.356408,4.918404,Indonesian Restaurant
519,52.357600000000005,4.919484615384615,45,34,4a270501f964a520be861fe3,Toko Willy Tjong,52.35542552523937,4.919874646025606,Food Truck
520,52.357600000000005,4.919484615384615,45,35,5d6820a4bde37a00087f5216,PakuPaku,52.357537,4.917848,Shabu-Shabu Restaurant
521,52.357600000000005,4.919484615384615,45,36,501d6ff9e4b0cf97af9f9a6c,Thai Coon,52.35737609863281,4.918160915374756,Thai Restaurant
522,52.357600000000005,4.919484615384615,45,37,4f7c7abfe4b06b6ab99721f3,Meram Amsterdam Oost,52.35599697993547,4.925630264162696,Turkish Restaurant
523,52.357600000000005,4.919484615384615,45,38,583d561bea29b856017cc202,Cha House,52.359303625945266,4.925538897514343,Ramen Restaurant
524,52.357600000000005,4.919484615384615,45,39,51e6b596498e1d3cbd9f2fbb,Restaurant Lulu,52.35718119961742,4.91819702773382,French Restaurant
525,52.357600000000005,4.919484615384615,45,40,532f11d6498e09b63ad00ea0,Olives & More,52.35483153445628,4.921982288360596,Deli / Bodega
526,52.357600000000005,4.919484615384615,45,41,5be5df1a135b39002cec9c4b,Oost Antipasti Pizza Pasta,52.359264,4.9142704,Italian Restaurant
527,52.357600000000005,4.919484615384615,45,42,5c4354a997cf5a002c5a66b5,Tomatillo,52.354294,4.922334,Mexican Restaurant
528,52.357600000000005,4.919484615384615,45,43,5228df6b11d27f70272adfb3,Ege Restaurant,52.356868,4.918055,Turkish Restaurant
529,52.357600000000005,4.919484615384615,45,44,4a27db3df964a520c2921fe3,Thaicoon,52.35717898056759,4.918036011396017,Asian Restaurant
530,52.357600000000005,4.936407692307692,16,0,5ef655f65cb67a0008838094,Thúskomme,52.35948519999999,4.938337,Restaurant
531,52.357600000000005,4.936407692307692,16,1,4a2703aff964a5200c851fe3,Bar Restaurant 1900,52.35476275728779,4.932987917344453,French Restaurant
532,52.357600000000005,4.936407692307692,16,2,5d17cd436d54f800239c2442,Olido,52.35534,4.9336605,Italian Restaurant
533,52.357600000000005,4.936407692307692,16,3,5baa8a63031320002c3d5099,Dimitri’s,52.361377,4.932433,Mediterranean Restaurant
534,52.357600000000005,4.936407692307692,16,4,4d71487ba4ef3704aadc16b3,Ayumi,52.35608068417962,4.936240777675905,Japanese Restaurant
535,52.357600000000005,4.936407692307692,16,5,4da48692d686b60c78d4e128,Asilah Marina,52.361534,4.939192,Moroccan Restaurant
536,52.357600000000005,4.936407692307692,16,6,4c3757a2dfb0e21ead93aca8,Brasserie Hogeweg (voorheen Klein Jansen),52.355439,4.933521,French Restaurant
537,52.357600000000005,4.936407692307692,16,7,50dc9c74e4b0cde381838e78,Amarcord,52.35541250453877,4.933586364731786,Italian Restaurant
538,52.357600000000005,4.936407692307692,16,8,4daed1fe8154d1d4886dd11d,Surinaams Eethuis Carmen,52.361192,4.93279,South American Restaurant
539,52.357600000000005,4.936407692307692,16,9,57ea86d1498ead24242c976c,Broodje Bonjour,52.360874,4.932355,Turkish Restaurant
540,52.357600000000005,4.936407692307692,16,10,4a27082ef964a520d18f1fe3,Fook Sing,52.360610187792204,4.940088880760087,Chinese Restaurant
541,52.357600000000005,4.936407692307692,16,11,5ad0ebb93d47910778076543,Il Borgo,52.35478,4.932392,Italian Restaurant
542,52.357600000000005,4.936407692307692,16,12,4f2ac458e4b09f4f37b2de49,Ayumi Sushi & Bento,52.355580429809926,4.940513705644071,Japanese Restaurant
543,52.357600000000005,4.936407692307692,16,13,537cdd1e498e89c92fc6282e,Osteria Nessun Dorma,52.355387,4.933721,Italian Restaurant
544,52.357600000000005,4.936407692307692,16,14,4e00ddfa22717718d39eafea,Chinees Specialiteiten Restaurant KOTA RADJA,52.361206,4.939569,Chinese Restaurant
545,52.357600000000005,4.936407692307692,16,15,4fd781cee4b0884f34d190de,Willy tjong,52.359182236621876,4.93847734354079,Caribbean Restaurant
546,52.357600000000005,4.953330769230768,3,0,4ecb8c2482319a184a833b46,De Bunker Keet,52.35856628417969,4.95209264755249,Portuguese Restaurant
547,52.357600000000005,4.953330769230768,3,1,517e6c5e498e4dd1a7b6b946,iL PoZZo,52.355344244046854,4.948524791000263,Italian Restaurant
548,52.357600000000005,4.953330769230768,3,2,4c0f72ab7189c928d507dab6,Sapori Del Mondo (Science Park),52.35640146000001,4.955877,Italian Restaurant
549,52.357600000000005,4.987176923076922,8,0,57121b4b498e3021c2b4faa9,Il Sogno,52.356278,4.993656,Italian Restaurant
550,52.357600000000005,4.987176923076922,8,1,4a27082ff964a520d78f1fe3,Gouden Kom,52.3579979596131,4.99128711524387,Chinese Restaurant
551,52.357600000000005,4.987176923076922,8,2,5f4bc0d2172de970d1a1bceb,Toko Noor IJburg,52.359238,4.989863,Indonesian Restaurant
552,52.357600000000005,4.987176923076922,8,3,52c546b3498e24239555edca,Keuken van Levant,52.359207,4.988052,Mediterranean Restaurant
553,52.357600000000005,4.987176923076922,8,4,56bb813f498ec640c3afed68,Pinxos Tapas Bar,52.358608,4.988742,Tapas Restaurant
554,52.357600000000005,4.987176923076922,8,5,513638dce4b0ed44a49816b4,Buena Carne argentina grill,52.358594,4.98867,Argentinian Restaurant
555,52.357600000000005,4.987176923076922,8,6,5bd09d7bbfc6d0002cda72c3,TOKOH,52.357826,4.9909115,Indonesian Restaurant
556,52.357600000000005,4.987176923076922,8,7,589390ce1470b050baf33e52,Kitchen Of Happiness,52.35789,4.990857,Asian Restaurant
557,52.357600000000005,5.004099999999999,2,0,5abe87ff6bd36b38a9defbc3,Cana,52.353214,5.005727,Spanish Restaurant
558,52.357600000000005,5.004099999999999,2,1,5720dfc1498efc0395c9e775,Marina Club Amsterdam,52.3536511600837,5.006460379519023,Turkish Restaurant
559,52.3676,4.801023076923077,2,0,52488ebb11d2516dbf814ba1,Grieks Restaurant Rhodos,52.36495590209961,4.804627895355225,Greek Restaurant
560,52.3676,4.801023076923077,2,1,51e5a47e498e6768c0253837,Restaurant Toros,52.36394,4.796985,Turkish Restaurant
561,52.3676,4.834869230769231,2,0,56a13b78498ed39412037b5d,Haveli,52.363976,4.8384085,Indian Restaurant
562,52.3676,4.834869230769231,2,1,4a2707cef964a520d88e1fe3,Avenida,52.36356595019016,4.8364258614091336,Sandwich Place
563,52.3676,4.851792307692307,31,0,5e108fe69855690007ff9734,Cafe Goldmund,52.364605,4.8568473,Café
564,52.3676,4.851792307692307,31,1,5c363b588c812a002c66f664,Sapporo Ramen Sora,52.371294,4.855144,Ramen Restaurant
565,52.3676,4.851792307692307,31,2,4f1ef58ae4b07fde7f1695b7,Haweli Indian Restaurant,52.364437103271484,4.856551170349121,Indian Restaurant
566,52.3676,4.851792307692307,31,3,5884d985727ba3235c35c682,Genki Sushi Bowl,52.369873,4.851431,Sushi Restaurant
567,52.3676,4.851792307692307,31,4,4beed62e3686c9b61909256e,Billa Da Dhaba,52.364592,4.856525,Indian Restaurant
568,52.3676,4.851792307692307,31,5,4be17dde0365c9b6b4cdb338,Rotishop Gieta,52.368957,4.854071,Caribbean Restaurant
569,52.3676,4.851792307692307,31,6,505c8f54e4b0e4ac149d4a70,Warung Redjo,52.3641073572418,4.853145505586257,Latin American Restaurant
570,52.3676,4.851792307692307,31,7,546f7fea498ee3458f4a22e3,poco poco,52.369850158691406,4.851438999176025,Tapas Restaurant
571,52.3676,4.851792307692307,31,8,5176aaf0e4b04270a57290ab,De Peperpot,52.364322,4.854723,South American Restaurant
572,52.3676,4.851792307692307,31,9,4db1bba0cda14b702a4c38fc,Thai Take Away,52.37043596005674,4.853965070678374,Thai Restaurant
573,52.3676,4.851792307692307,31,10,557ccbb1498e3a71d28308e5,Baraka,52.370874,4.854865,Moroccan Restaurant
574,52.3676,4.851792307692307,31,11,502ff2bee4b0c65b4b12765d,Ice and Bites,52.369745752002295,4.8509969463185545,Pizza Place
575,52.3676,4.851792307692307,31,12,5cdda27ff1fdaf0039701152,Intisari Bistro Indonesia,52.369215,4.854637,Indonesian Restaurant
576,52.3676,4.851792307692307,31,13,4ec80ffa722e1437970f59fe,Wok On Fire,52.37075216377971,4.854469920360783,Asian Restaurant
577,52.3676,4.851792307692307,31,14,4cbb21b29552b60ce223de8b,Vishandel Jan Evertsen,52.36972326,4.85141624,Mediterranean Restaurant
578,52.3676,4.851792307692307,31,15,4f5ca8f8e4b075ad7aa513a0,Medina Restaurant,52.36363279565731,4.851077685920403,Turkish Restaurant
579,52.3676,4.851792307692307,31,16,4d441361e198721e1dbab78b,Cafe Restaurant Open,52.365984,4.858552,French Restaurant
580,52.3676,4.851792307692307,31,17,4a27db63f964a52087931fe3,A la Ghazi,52.370326,4.853605,Caribbean Restaurant
581,52.3676,4.851792307692307,31,18,4bf6c393b182c9b62071745a,Jade Garden,52.369927082873915,4.851115725733787,Chinese Restaurant
582,52.3676,4.851792307692307,31,19,5a65ea5312138424d8364894,The Pom Bar,52.369125,4.852034,Caribbean Restaurant
583,52.3676,4.851792307692307,31,20,51efb20d498e68b405eb5b59,Ruben's Tropical,52.369066478105864,4.85330974954649,South American Restaurant
584,52.3676,4.851792307692307,31,21,551d7f93498ea1884065e42f,Mr. Pinoy,52.369243,4.851978,Filipino Restaurant
585,52.3676,4.851792307692307,31,22,54cd16e0498ec288176337f3,Ufuk Restaurant,52.37097,4.855329,Turkish Restaurant
586,52.3676,4.851792307692307,31,23,588cf696d8f3e93aa5e4fda1,Genki Café,52.369904,4.8513203,Japanese Restaurant
587,52.3676,4.851792307692307,31,24,4a270872f964a520bd901fe3,Indian Touch,52.363985693437826,4.855107075824867,Indian Restaurant
588,52.3676,4.851792307692307,31,25,4bddace46198c9b6ad3611ff,Ah-Sin Chinees-Surinaams Eethuis,52.368803182968286,4.85170420076579,Chinese Restaurant
589,52.3676,4.851792307692307,31,26,5c8d676bcd441c002c117340,Akama Sushi,52.370614,4.854862,Sushi Restaurant
590,52.3676,4.851792307692307,31,27,4df63e88c65bf55ee534a8ab,Shareef's,52.37025,4.854091,Cajun / Creole Restaurant
591,52.3676,4.851792307692307,31,28,567443d2498e1a0ccc0f3c27,beyza,52.367111,4.852317,Turkish Restaurant
592,52.3676,4.851792307692307,31,29,57499ce4498e4467587fde35,Toko Surima,52.370255,4.853921,South American Restaurant
593,52.3676,4.851792307692307,31,30,51cc7be8498ea3a930e46346,Sendar Simit Turks Eethuis,52.36486153963068,4.855727545384692,Turkish Restaurant
594,52.3676,4.868715384615384,50,0,582052726401964ad521ce5a,Kanarie Club,52.36734814638268,4.867791407662048,Modern European Restaurant
595,52.3676,4.868715384615384,50,1,5cb4ff54e1f0aa002c207c09,Ramona,52.37025,4.868006,Dutch Restaurant
596,52.3676,4.868715384615384,50,2,56a4ffe4498edbdc61795c79,MOAK Pancakes West,52.37122188173573,4.871275276753277,Creperie
597,52.3676,4.868715384615384,50,3,4a2704b3f964a520f0851fe3,Dönerland Eethuis,52.36499621267611,4.8634145335024055,Moroccan Restaurant
598,52.3676,4.868715384615384,50,4,55b3c1c2498e1bf8d1e07af8,Happyhappyjoyjoy,52.36749554136531,4.871968201151223,Asian Restaurant
599,52.3676,4.868715384615384,50,5,57cdacba38fa90333fcd3059,Café Amoi,52.36740753472026,4.872828045859926,Indonesian Restaurant
600,52.3676,4.868715384615384,50,6,58021ac838fa3d88e7ba2740,Dim Sum Thing,52.367072187688024,4.86812208090694,Dim Sum Restaurant
601,52.3676,4.868715384615384,50,7,5308e326498eac93ff470ca1,Spaghetteria,52.368238993299144,4.866247590473278,Italian Restaurant
602,52.3676,4.868715384615384,50,8,54282f7a498e4ff3ecfce64a,Jacketz,52.36764944864664,4.873235380238579,Dutch Restaurant
603,52.3676,4.868715384615384,50,9,57a384f1498e39ed4d9933db,Seoul Food,52.367094917809574,4.871659791954687,Korean Restaurant
604,52.3676,4.868715384615384,50,10,5fc281dd2ace9b0759791899,Sabor Cubana,52.370091,4.86683,Cuban Restaurant
605,52.3676,4.868715384615384,50,11,594aadaca2a6ce5a03ebab40,Poké Perfect,52.367074284213665,4.871689466154026,Hawaiian Restaurant
606,52.3676,4.868715384615384,50,12,576c0aa2498eba1b9f6180dc,Baires,52.368945387454566,4.869848181127083,Empanada Restaurant
607,52.3676,4.868715384615384,50,13,5ad1da53bfdc5e1f635567c2,Fento,52.369701,4.873488,Mexican Restaurant
608,52.3676,4.868715384615384,50,14,56c7734bcd10e7ee2a8402cf,Toko Bersama,52.368527820062965,4.871219439431209,Indonesian Restaurant
609,52.3676,4.868715384615384,50,15,5fba82bcd90bc55453f73a4e,Kazik,52.365852,4.8728404,Polish Restaurant
610,52.3676,4.868715384615384,50,16,5ce839fd3731ee002cb9dfcd,Franggo,52.370184,4.866553,Fried Chicken Joint
611,52.3676,4.868715384615384,50,17,4d99fc2a61a3a1cd16c2f042,Iboenda,52.37073776913151,4.869419778109656,Indonesian Restaurant
612,52.3676,4.868715384615384,50,18,5e3495cb03915e0008d828da,Druis,52.372022,4.869826,French Restaurant
613,52.3676,4.868715384615384,50,19,5e0506209264f8000761031b,Dutch Meat Ball Company,52.36683,4.868281,Dutch Restaurant
614,52.3676,4.868715384615384,50,20,575aeeab38fa14fba41f482c,Piccolo,52.367380269772696,4.868881560026436,Italian Restaurant
615,52.3676,4.868715384615384,50,21,5ce2dafd916bc1002c077e72,Sababa,52.365517,4.8659062,Middle Eastern Restaurant
616,52.3676,4.868715384615384,50,22,5e37117df142190008d46c74,Vegan Sushi Bar,52.366898,4.871502,Vegetarian / Vegan Restaurant
617,52.3676,4.868715384615384,50,23,4dfb6f4bd164f73de7cd02ee,Pastis,52.364934149674596,4.87396300270025,French Restaurant
618,52.3676,4.868715384615384,50,24,537d1ce9498e956dc854a7fa,Remise47,52.36786783972519,4.868110623227936,Modern European Restaurant
619,52.3676,4.868715384615384,50,25,5d2b4550d0ae5e003087343f,Parakeet,52.368639500981345,4.865853041410446,Mexican Restaurant
620,52.3676,4.868715384615384,50,26,4a270504f964a520cc861fe3,Mesut,52.370803296498046,4.869607395509316,Turkish Restaurant
621,52.3676,4.868715384615384,50,27,580289cdd67c533488cfa30b,FENTO,52.367074,4.868158,Mexican Restaurant
622,52.3676,4.868715384615384,50,28,54f20190498e6a39f0826695,Viet View,52.367014914654526,4.868158147667472,Vietnamese Restaurant
623,52.3676,4.868715384615384,50,29,4fed8402e4b0d57e700e28fd,Miss Saigon,52.36593909636166,4.873119912208149,Vietnamese Restaurant
624,52.3676,4.868715384615384,50,30,4a27db19f964a520e9911fe3,Hotel-Restaurant Larende,52.370044217775046,4.8660006654576335,Hotel
625,52.3676,4.868715384615384,50,31,5ce2b66716fa04002c510f37,Taqueria Lima,52.36694440796742,4.868240438050978,Mexican Restaurant
626,52.3676,4.868715384615384,50,32,5d559d1c1137220008f102ba,Pho 91,52.366955,4.8716874,Vietnamese Restaurant
627,52.3676,4.868715384615384,50,33,5b687aa895a722002cf81b27,Ashoka,52.368123,4.875808,Indian Restaurant
628,52.3676,4.868715384615384,50,34,51435f73e4b01d91e01a59ba,Himalayan Kitchen,52.36688930096444,4.866963506778168,Tibetan Restaurant
629,52.3676,4.868715384615384,50,35,4bdb43133904a5939c86499e,Sushi Sakura,52.368045,4.87511595,Japanese Restaurant
630,52.3676,4.868715384615384,50,36,57e7bac9498ebca3beecc8d0,filiz manti,52.367315,4.867578,Turkish Restaurant
631,52.3676,4.868715384615384,50,37,4a2707e8f964a5202d8f1fe3,Papa Longo,52.37131542134646,4.8714494705200195,Italian Restaurant
632,52.3676,4.868715384615384,50,38,4d3748521931224b888113cb,Pauli's Pizza Place,52.370075588888895,4.869572325,Italian Restaurant
633,52.3676,4.868715384615384,50,39,5967d58b9cadd94f2c04a767,FIKO,52.370523,4.868961,Italian Restaurant
634,52.3676,4.868715384615384,50,40,4f9d650fe4b0de62689e2e18,Snackbar De Costa,52.369499,4.873778,Middle Eastern Restaurant
635,52.3676,4.868715384615384,50,41,589efb9d84677a520ffa0230,Pita,52.367125,4.868034,Mediterranean Restaurant
636,52.3676,4.868715384615384,50,42,4e46beaf14959d51c16744f8,S&R's 3 Star Restaurant,52.369442,4.874919,American Restaurant
637,52.3676,4.868715384615384,50,43,4e2992ef7d8b613361981b6b,Rustem,52.36611995583993,4.867440957145432,Indian Restaurant
638,52.3676,4.868715384615384,50,44,51a0cec5498e6dbb3b61c84a,Andrew's Coffeshop & Lounge,52.369485,4.865914,Arepa Restaurant
639,52.3676,4.868715384615384,50,45,4a27db43f964a520ee921fe3,Star of India,52.37085,4.869782,Indian Restaurant
640,52.3676,4.868715384615384,50,46,4d724208311f6ea8cabbd8ea,اشهيوات و حلويات,52.370317,4.866101,Mediterranean Restaurant
641,52.3676,4.868715384615384,50,47,540745cd498e5c53149a66f6,ROOM 66,52.367447,4.872756,Mediterranean Restaurant
642,52.3676,4.868715384615384,50,48,57f6853e498e592ab16dbf00,Sumthing,52.367123,4.8682833,Dim Sum Restaurant
643,52.3676,4.868715384615384,50,49,5400b021498ed8dfcfdf1562,Moti Mahal,52.37124545779224,4.86469346295735,Indian Restaurant
644,52.3676,4.885638461538461,50,0,4a270806f964a520858f1fe3,Kantjil & de Tijger,52.369158383226605,4.889121253766562,Indonesian Restaurant
645,52.3676,4.885638461538461,50,1,55105ffe498e2cba788783f0,Sumo,52.363416216161106,4.883759271274172,Sushi Restaurant
646,52.3676,4.885638461538461,50,2,4aa68993f964a5201c4a20e3,Casa Perù,52.366426,4.882981,Latin American Restaurant
647,52.3676,4.885638461538461,50,3,58387e93a6118c60b583b341,The Lebanese Sajeria,52.36875648205039,4.887505185286836,Lebanese Restaurant
648,52.3676,4.885638461538461,50,4,4db199c8cda14b702a4896d4,Rancho,52.368948,4.891319,Argentinian Restaurant
649,52.3676,4.885638461538461,50,5,59cb63f950a6f0209c7bfce1,Umaimon,52.36464899374385,4.882639935709376,Ramen Restaurant
650,52.3676,4.885638461538461,50,6,5564c448498effbebd316cfd,Ron Gastrobar Oriental,52.365911489860316,4.884769384342688,Asian Restaurant
651,52.3676,4.885638461538461,50,7,58e3f571ac32911b5149ac51,Verona Restorante Italiano,52.36679702681027,4.88945587893149,Italian Restaurant
652,52.3676,4.885638461538461,50,8,4d04d38337036dcbb22a13fb,Lion Noir,52.36650458142847,4.8903593925487225,French Restaurant
653,52.3676,4.885638461538461,50,9,4a270056f964a52016831fe3,Satellite Sportscafé,52.36408861338606,4.883443571625654,Sports Bar
654,52.3676,4.885638461538461,50,10,4bccb642fb84c9b608e4203e,Pazzi Italian Slow Food,52.36929558897549,4.880814409211811,Pizza Place
655,52.3676,4.885638461538461,50,11,505c741a011c7f0b2487f919,Los Pilones Cantina Mexico,52.36505537555716,4.88611398512205,Mexican Restaurant
656,52.3676,4.885638461538461,50,12,4a270851f964a5203f901fe3,Peppino,52.363367747536415,4.884586083132871,Italian Restaurant
657,52.3676,4.885638461538461,50,13,5bafa981c0f163002cee1782,Bar Parry,52.368954,4.881132,Tapas Restaurant
658,52.3676,4.885638461538461,50,14,4a2703dbf964a520a2851fe3,Haesje Claes,52.3698402,4.8891781,Dutch Restaurant
659,52.3676,4.885638461538461,50,15,5332b661498e2231c7159b77,Wurst & Schnitzelhaus,52.364560009027365,4.885031067724939,German Restaurant
660,52.3676,4.885638461538461,50,16,51ec2c2a498e2236f65e12f9,Casa Di Sergio,52.36391885413719,4.883826862948625,Italian Restaurant
661,52.3676,4.885638461538461,50,17,585000f23493551a7a9565fb,Proeflokaal A. van Wees,52.3699843531431,4.8869824556273675,Dutch Restaurant
662,52.3676,4.885638461538461,50,18,5c6c24f2ecb3ed0025efda90,Full Moon Garden,52.364660530207175,4.884052500128746,Chinese Restaurant
663,52.3676,4.885638461538461,50,19,5a9d5f34a2a6ce58f7486eb8,Roses by SAL,52.366344032852176,4.891236581251886,Latin American Restaurant
664,52.3676,4.885638461538461,50,20,542ef5a3498e14ac517bee46,Fou Fow Ramen,52.3701920766011,4.882416070294968,Ramen Restaurant
665,52.3676,4.885638461538461,50,21,5bb10f64364d97002c367e6a,Baibua Thai Eethuis,52.36654,4.891534,Thai Restaurant
666,52.3676,4.885638461538461,50,22,4a2707a1f964a520738e1fe3,Casa di David,52.36843995727509,4.887874498405346,Italian Restaurant
667,52.3676,4.885638461538461,50,23,4a26ffb6f964a520b5801fe3,Eetcafé Festina Lente,52.368679,4.881404,Bar
668,52.3676,4.885638461538461,50,24,4a270803f964a520768f1fe3,La Festa,52.36991118013545,4.880365226785609,Italian Restaurant
669,52.3676,4.885638461538461,50,25,4a2707c0f964a520b08e1fe3,Goodies,52.36883810755008,4.8858727077637285,Sandwich Place
670,52.3676,4.885638461538461,50,26,4a2705e4f964a5203d891fe3,De Kring,52.3635573966358,4.8834625361013595,French Restaurant
671,52.3676,4.885638461538461,50,27,4a27db1cf964a52001921fe3,Sherpa,52.363203967911296,4.88474395216921,Tibetan Restaurant
672,52.3676,4.885638461538461,50,28,4a2703c5f964a5205a851fe3,Pasta e Basta,52.36479276284802,4.889898662061348,Italian Restaurant
673,52.3676,4.885638461538461,50,29,5c48c1ee492822002d02ce43,Fou Fow Udon,52.371077,4.883208,Udon Restaurant
674,52.3676,4.885638461538461,50,30,4aa94878f964a520e15220e3,Rakang Thai Restaurant,52.36981571887408,4.881251917696607,Thai Restaurant
675,52.3676,4.885638461538461,50,31,4a2703d0f964a52081851fe3,The Pantry,52.363497023808904,4.884878870611629,Dutch Restaurant
676,52.3676,4.885638461538461,50,32,4a2704bef964a52019861fe3,Downtown,52.36651991704449,4.890373976492423,Coffee Shop
677,52.3676,4.885638461538461,50,33,4cf96d6ed7206ea8c9b23269,Grand Café DeLaMar,52.364445699378514,4.881027842811869,French Restaurant
678,52.3676,4.885638461538461,50,34,5d5ebaf85c9a0300089744c0,ITA Brasserie,52.363926,4.882396,Brasserie
679,52.3676,4.885638461538461,50,35,4a270819f964a520a38f1fe3,Ristorante Piccolino,52.36363064728292,4.885156711059021,Italian Restaurant
680,52.3676,4.885638461538461,50,36,5eda7eee357a3900080c408f,Bar Rouge,52.367994,4.889311,Cocktail Bar
681,52.3676,4.885638461538461,50,37,4f92f9b6e4b0f08d3fca9fdf,Genki Garden,52.366454763881165,4.890224170761175,Sushi Restaurant
682,52.3676,4.885638461538461,50,38,4a2707e2f964a5201a8f1fe3,Wok to Walk,52.36467652071543,4.883655931845822,Noodle House
683,52.3676,4.885638461538461,50,39,56195619498e8c61daae7a67,Brasserie Ambassade,52.369288,4.887159,French Restaurant
684,52.3676,4.885638461538461,50,40,4c0bddcddb369c7405dd91ea,Cibo & Vino,52.36921459263361,4.87947886673753,Italian Restaurant
685,52.3676,4.885638461538461,50,41,4e592f72b993732579e521ac,El Vino,52.36388276439681,4.884800849248413,Mexican Restaurant
686,52.3676,4.885638461538461,50,42,5de24f46d02cb90007c2e3be,Pancakes Amsterdam,52.3691308,4.8913775,Dutch Restaurant
687,52.3676,4.885638461538461,50,43,5f3ff1468614da026799176b,Dutch Dabba Wala,52.369053,4.878789,Fast Food Restaurant
688,52.3676,4.885638461538461,50,44,4e3c5ce31f6e844231d6b3f7,Shanghai Noodle,52.36816908575157,4.89282749136189,Noodle House
689,52.3676,4.885638461538461,50,45,4a270860f964a5207f901fe3,Antonio's,52.36363226300169,4.885036842566377,Italian Restaurant
690,52.3676,4.885638461538461,50,46,4d519fd3dcce224b20fee31b,Billy Thais Restaurant,52.36787246348806,4.882484512592879,Thai Restaurant
691,52.3676,4.885638461538461,50,47,5c794c3975eee4002c13ba55,Fenicie Amsterdam,52.363505,4.883597,Lebanese Restaurant
692,52.3676,4.885638461538461,50,48,5315dba511d2fb67fc44c353,Il Primo Ristorante,52.36677209414334,4.889520933584602,Italian Restaurant
693,52.3676,4.885638461538461,50,49,4a26ff8ff964a5202c801fe3,Dante Kitchen & Bar,52.36905913504806,4.888681554369117,Italian Restaurant
694,52.3676,4.919484615384615,14,0,5dd16fd24c052b0008fbe6b8,Amsterdam Brewboys,52.366961,4.925622,Dutch Restaurant
695,52.3676,4.919484615384615,14,1,59f5c6fa81635b6a6315e838,D&A Hummus Bistro,52.36756123231274,4.925378812803362,Middle Eastern Restaurant
696,52.3676,4.919484615384615,14,2,4a27db40f964a520df921fe3,Restaurant Elkaar,52.36327,4.91921,French Restaurant
697,52.3676,4.919484615384615,14,3,4d31fc6e72a8b1f7bfb999d0,Indian Heaven,52.365590697252465,4.925596863946025,Indian Restaurant
698,52.3676,4.919484615384615,14,4,57deb770498ee67583517b76,tom yum kung,52.368897,4.921408,Thai Restaurant
699,52.3676,4.919484615384615,14,5,4a2707abf964a520878e1fe3,Il Forno,52.36883216090038,4.921653818031879,Mediterranean Restaurant
700,52.3676,4.919484615384615,14,6,55ef0880498e1f6933933a03,Burritomaker,52.367016,4.925473,Mexican Restaurant
701,52.3676,4.919484615384615,14,7,5d407c0364d9380008416f85,Bread and Salt,52.367225,4.912354,Syrian Restaurant
702,52.3676,4.919484615384615,14,8,54e2314b498e6c6790ffa4ac,The Burrito Maker,52.36677,4.9252243,Taco Place
703,52.3676,4.919484615384615,14,9,4e91c7cb02d5ee38b745626e,Lina,52.367565520643524,4.915105930445557,Greek Restaurant
704,52.3676,4.919484615384615,14,10,5c559d882db4a9002cd1d249,Burritos Anonymous,52.366757,4.92552,Mexican Restaurant
705,52.3676,4.919484615384615,14,11,4c8a7aea2e333704720dc441,Maccheroni,52.369853946395075,4.91854542135713,Italian Restaurant
706,52.3676,4.919484615384615,14,12,4f907536e4b06b50afcc041d,Da Damiano,52.36868380004182,4.915655205381034,Italian Restaurant
707,52.3676,4.919484615384615,14,13,5241cfdc498e608886bef362,Dappertutto,52.36562910616189,4.925780101110337,Italian Restaurant
708,52.3676,4.936407692307692,29,0,4b194603f964a5204ada23e3,Restaurant Pompstation,52.36601908247345,4.933360739232659,French Restaurant
709,52.3676,4.936407692307692,29,1,5edd1eb53e6f4200087de7fd,Betsubara,52.363849,4.933632,Ramen Restaurant
710,52.3676,4.936407692307692,29,2,54634651498eb8c45094c082,La Fucina,52.363776303343954,4.936059836116557,Italian Restaurant
711,52.3676,4.936407692307692,29,3,538a2566498e8301b3168f6f,Walter's - The Walter Woodbury Bar,52.36370901244598,4.933447803907358,Modern European Restaurant
712,52.3676,4.936407692307692,29,4,55239a2d498e7ad873f8cce3,Gallizia,52.363849396557576,4.934254775194617,Italian Restaurant
713,52.3676,4.936407692307692,29,5,4b893ec8f964a520a42532e3,Saray eethuis,52.36384240696234,4.9385923895644135,Bakery
714,52.3676,4.936407692307692,29,6,5b574afea795bd002cf48ee2,Sushito,52.363764,4.934783,Sushi Restaurant
715,52.3676,4.936407692307692,29,7,5aa3e8d295da0c6a5499b0d3,Tarbush,52.363715,4.934397,Lebanese Restaurant
716,52.3676,4.936407692307692,29,8,5edd1ef8bfe33e0008368689,Betsubara,52.363848,4.933759,Ramen Restaurant
717,52.3676,4.936407692307692,29,9,4d823d85bede5481392a0ed1,Thai Tiger,52.36381115489139,4.939794271216886,Thai Restaurant
718,52.3676,4.936407692307692,29,10,4a2707f2f964a5204d8f1fe3,Lago Maggiore,52.363717,4.935484,Italian Restaurant
719,52.3676,4.936407692307692,29,11,5220c759498e91707fe14678,Kook En Kunst,52.370958,4.931646,Spanish Restaurant
720,52.3676,4.936407692307692,29,12,5aa3e8884a1cc0781a8c163f,Tarbush,52.363633,4.934184,Lebanese Restaurant
721,52.3676,4.936407692307692,29,13,5ee3c44037d5680eefb13576,Mito Restaurant,52.371246,4.9401813,Japanese Restaurant
722,52.3676,4.936407692307692,29,14,4e6b78bdaeb7c31e43815d6b,Korean Taco Party HQ,52.36378043,4.93818658,Korean Restaurant
723,52.3676,4.936407692307692,29,15,4de293b0d164df8574fe8ed2,Restaurant Zen,52.36601,4.93927,Chinese Restaurant
724,52.3676,4.936407692307692,29,16,5c1be28756c89f002c8b39a5,Mirchi,52.36367,4.935051,Indian Restaurant
725,52.3676,4.936407692307692,29,17,4c6ff1fcd97fa143d560f4ca,Nur Kabab,52.3637455397574,4.936758413979747,Middle Eastern Restaurant
726,52.3676,4.936407692307692,29,18,4a27db19f964a520eb911fe3,Antep Sofrasi,52.364216043231295,4.937901556936509,Eastern European Restaurant
727,52.3676,4.936407692307692,29,19,4f871b7ce4b0cec3a91d0214,Mangetsu,52.365739949214266,4.935657394890719,Japanese Restaurant
728,52.3676,4.936407692307692,29,20,57211573498efab8426900f4,Marina Club Antep Sofrasi Marina,52.364155,4.937788,Turkish Restaurant
729,52.3676,4.936407692307692,29,21,54d61677498e5cbf0a1254e0,Comfort Food,52.364617,4.94172,Asian Restaurant
730,52.3676,4.936407692307692,29,22,5989ba29d69ed03866e1fb9a,Nour,52.363777,4.936549,Middle Eastern Restaurant
731,52.3676,4.936407692307692,29,23,500868a7e4b00abeade02edb,Dönerpoint Borneo,52.37146966154888,4.936206861094115,Turkish Restaurant
732,52.3676,4.936407692307692,29,24,50f04eb0e4b01d8d1ee41927,LMK,52.36969757080078,4.942061901092529,Chinese Restaurant
733,52.3676,4.936407692307692,29,25,53f4a972498e10536ff00ff0,Tugra Baklava,52.363632,4.934306,Turkish Restaurant
734,52.3676,4.936407692307692,29,26,56f6d944cd1083ad490587ce,Koksmuts Cinar,52.363840712263595,4.936585818011375,Turkish Restaurant
735,52.3676,4.936407692307692,29,27,5f720bdda2da6e7143d594fd,Indonesia Indah,52.363848,4.9344,Indonesian Restaurant
736,52.3676,4.936407692307692,29,28,5fbaa80dc2351c27dd77cc20,Sushi Only Oost,52.36359,4.936874,Sushi Restaurant
737,52.3676,4.970253846153845,1,0,50156a2de4b0073bd0d68921,Kon esi baka,52.36643646718603,4.9759917127031015,South American Restaurant
738,52.37760000000001,4.817946153846154,9,0,5c992165e1f228002c898f01,Istanbul Steak House,52.380516,4.820875,Turkish Restaurant
739,52.37760000000001,4.817946153846154,9,1,4e4039251495bf24a5fe25da,Meram West,52.38023296121058,4.820814088280693,Turkish Restaurant
740,52.37760000000001,4.817946153846154,9,2,561ed816498e17ea4b895d27,BeyMen Restaurant Café & Club,52.3805667015349,4.821009615807667,Turkish Restaurant
741,52.37760000000001,4.817946153846154,9,3,4c4335b2cc410f47fddaad61,Bella Vita,52.38125406103509,4.821562743151936,Italian Restaurant
742,52.37760000000001,4.817946153846154,9,4,4c2238cd13c00f47a71d87de,Döner Plaza,52.38082090966698,4.821073110680584,Turkish Restaurant
743,52.37760000000001,4.817946153846154,9,5,5c042ec7da5e56002c342f0c,Restaurant Arbanasi,52.37725986,4.81299258,Bulgarian Restaurant
744,52.37760000000001,4.817946153846154,9,6,5f1c9d6848b24b791366e245,sortie cafe & restaurant,52.379192,4.822758,Turkish Restaurant
745,52.37760000000001,4.817946153846154,9,7,4fb63b8be4b03aaec07b5a51,Churros Mister U.S.A.,52.380504679612,4.822107553482056,Spanish Restaurant
746,52.37760000000001,4.817946153846154,9,8,4b92adf3f964a520b01034e3,Osdorp Express Slotermeer,52.38083867935628,4.820895195007324,Moroccan Restaurant
747,52.37760000000001,4.834869230769231,10,0,5f50170d6a698b6289d823fd,Woopa Wok & Pasta,52.379127,4.837758,Asian Restaurant
748,52.37760000000001,4.834869230769231,10,1,4a27077df964a520f18d1fe3,Konak Restaurant,52.37990648233543,4.830770918807624,Turkish Restaurant
749,52.37760000000001,4.834869230769231,10,2,592078eaa8eb605d2f97464a,Kebapçı Amsterdam,52.3796491937883,4.832779534654594,Kebab Restaurant
750,52.37760000000001,4.834869230769231,10,3,538a0e30498ed108270fe9a8,Havzan,52.38007109111843,4.829836071097837,Turkish Restaurant
751,52.37760000000001,4.834869230769231,10,4,50ebd802e4b04e9a35ecc63e,"Aida Ala Thai,Market Palace",52.3788088737759,4.837174356254054,Thai Restaurant
752,52.37760000000001,4.834869230769231,10,5,50c5df7ce4b0bd0f658043e4,Kapadokya eethuis,52.379624,4.832711,Pizza Place
753,52.37760000000001,4.834869230769231,10,6,55f1a5b3498e01a55dbc3feb,Tokyo Sushi Bar - Take Away,52.37929968633659,4.841252729989223,Sushi Restaurant
754,52.37760000000001,4.834869230769231,10,7,4f3aa100e4b0e724f16d86aa,Grillroom Zion,52.379314989598754,4.83207713799144,Turkish Restaurant
755,52.37760000000001,4.834869230769231,10,8,569f7abd498eb5f7c176deed,neyzen restaurant,52.37496,4.831689,Turkish Restaurant
756,52.37760000000001,4.834869230769231,10,9,5ee1207ac1bdb621c6d53a4e,Atilla Turkish Food,52.378082,4.840726,Turkish Restaurant
757,52.37760000000001,4.851792307692307,27,0,4a27db6bf964a520b9931fe3,Birtat,52.378587,4.848157,Mediterranean Restaurant
758,52.37760000000001,4.851792307692307,27,1,4ca89260b0b8236a4392b4e6,Kratiam Thai,52.38002142525989,4.853776208444199,Thai Restaurant
759,52.37760000000001,4.851792307692307,27,2,587f5116abc6d61062b34472,lezzet resturant,52.378512,4.850698,Doner Restaurant
760,52.37760000000001,4.851792307692307,27,3,54ce0591498e263faaaec65d,Meram Bos en Lommer,52.37778328943226,4.84627369113875,Turkish Restaurant
761,52.37760000000001,4.851792307692307,27,4,4b93eb08f964a520be5934e3,Restaurant Betawi,52.38098433022274,4.854042239794505,Indonesian Restaurant
762,52.37760000000001,4.851792307692307,27,5,530a3ff1498e50850748bd00,King Kumpir,52.378340555631645,4.848448332969783,Turkish Restaurant
763,52.37760000000001,4.851792307692307,27,6,4bee7362d355a593d7e40a60,Abia,52.376866,4.846543,African Restaurant
764,52.37760000000001,4.851792307692307,27,7,4fc384c6e4b0cec932eecfcc,Shukran,52.381561014746715,4.849854002343155,Turkish Restaurant
765,52.37760000000001,4.851792307692307,27,8,5227711611d2fe0d1fd90352,Eetcafé Corner Admiraal,52.37715254476237,4.857848926030505,Turkish Restaurant
766,52.37760000000001,4.851792307692307,27,9,5399ce50498e6ead0c57e27b,pizzalina,52.376909,4.84976,Italian Restaurant
767,52.37760000000001,4.851792307692307,27,10,4b8a8f3ef964a520477232e3,Bakkerij Bos en Lommerplein,52.37807860718195,4.846108489442979,Bakery
768,52.37760000000001,4.851792307692307,27,11,4a2704faf964a520ae861fe3,Toko Shiv Surinaams Indian Afhaalcentrum,52.373616,4.851193,Indian Restaurant
769,52.37760000000001,4.851792307692307,27,12,4be268051dd22d7f2a1b94bd,Cihan,52.377162891191745,4.8468201879473,Middle Eastern Restaurant
770,52.37760000000001,4.851792307692307,27,13,5228c03111d2a84db784b9db,Sera Restaurant,52.37874759332626,4.850653167558597,Turkish Restaurant
771,52.37760000000001,4.851792307692307,27,14,4df1ca8b1f6e818dadf99b6a,Saffron,52.379177813507454,4.845553377370407,Chinese Restaurant
772,52.37760000000001,4.851792307692307,27,15,4ba26a58f964a520bff637e3,Snackbar Desiree,52.38090257624339,4.854165362960972,Asian Restaurant
773,52.37760000000001,4.851792307692307,27,16,4f08849ce4b000dd758052c6,Snackbar Outlawz,52.381292122494145,4.849863082226107,Turkish Restaurant
774,52.37760000000001,4.851792307692307,27,17,4d5807c4de8f6dcbf58e0691,Mesken XL,52.37746,4.846492,Middle Eastern Restaurant
775,52.37760000000001,4.851792307692307,27,18,56449d88498ed7e63c207610,Eminönü Balikcisi Amsterdam,52.378942,4.846814,Turkish Restaurant
776,52.37760000000001,4.851792307692307,27,19,562282c6498e732a60435621,adjani & Manon,52.376974,4.850879,Korean Restaurant
777,52.37760000000001,4.851792307692307,27,20,4fec61f6e4b0044db3fa3d74,Kedai Jalan-jalan,52.374668,4.856565,Asian Restaurant
778,52.37760000000001,4.851792307692307,27,21,5cbdd377a2a6ce002c8a707c,Noor Alsham,52.379071,4.856555,Syrian Restaurant
779,52.37760000000001,4.851792307692307,27,22,4a2704e9f964a52071861fe3,Marhaba,52.380886429155225,4.8541153845564375,Moroccan Restaurant
780,52.37760000000001,4.851792307692307,27,23,50488db2e4b0ecd310c38971,1Tat Döner,52.378551754634444,4.847904842768557,Turkish Restaurant
781,52.37760000000001,4.851792307692307,27,24,520d09ad11d2688fd8651d1d,Supermarkt-Toko Admiraal,52.381904,4.85078,Brazilian Restaurant
782,52.37760000000001,4.851792307692307,27,25,50c4c08ce4b09610f39dd506,Frezya,52.37782234060385,4.846386211015998,Turkish Restaurant
783,52.37760000000001,4.851792307692307,27,26,4fe1f52ae4b05fd6aee35ed3,Sushi + Wok,52.38096584914146,4.854162928074195,Sushi Restaurant
784,52.37760000000001,4.868715384615384,22,0,559957ce498eb48bf7428bb6,Plato Loco,52.37799063489079,4.874099224273423,Caribbean Restaurant
785,52.37760000000001,4.868715384615384,22,1,5f516b535b3a2956537bb00e,Yemeni Restaurant,52.375286,4.8640924,Yemeni Restaurant
786,52.37760000000001,4.868715384615384,22,2,5c73e49db25fee002c8f6052,La Piccola Baracca,52.374826,4.87326,Italian Restaurant
787,52.37760000000001,4.868715384615384,22,3,520bd1a511d281b143dbce46,Restaurant Jun,52.3758116538742,4.87345663316682,Indonesian Restaurant
788,52.37760000000001,4.868715384615384,22,4,4a27db61f964a5207c931fe3,Orontes West,52.37474004074881,4.872927825636604,Mediterranean Restaurant
789,52.37760000000001,4.868715384615384,22,5,4a2707c2f964a520b78e1fe3,YamYam Trattoria Pizzeria,52.37611755504976,4.873602358503639,Pizza Place
790,52.37760000000001,4.868715384615384,22,6,51910f15498eb9d7b9cfbb9c,Aarti2,52.37450246721646,4.873594447441595,South American Restaurant
791,52.37760000000001,4.868715384615384,22,7,5b2c1fc1c9a5170039df2b16,Mamas Tapas,52.37468,4.873031,Tapas Restaurant
792,52.37760000000001,4.868715384615384,22,8,50efada3e4b0876c40dc18db,Van Rappardstraat,52.37851154821776,4.870189611448745,German Restaurant
793,52.37760000000001,4.868715384615384,22,9,4a27008af964a520aa831fe3,Mano a Mano,52.3745951,4.8733682,Tapas Restaurant
794,52.37760000000001,4.868715384615384,22,10,4bf2bd6055c7c9b6636e6204,Rodos,52.37980862184633,4.8714574408733675,Greek Restaurant
795,52.37760000000001,4.868715384615384,22,11,4f9ec235e4b01da401cf37f8,Spuytenduyvil Salsa Headquarters,52.375700354830734,4.866599471003414,Taco Place
796,52.37760000000001,4.868715384615384,22,12,4a270542f964a52054871fe3,Fong Ling,52.37945,4.871981,Chinese Restaurant
797,52.37760000000001,4.868715384615384,22,13,58f677b8d7627e74d56d2477,Het Paviljoen,52.381051,4.870567,Dutch Restaurant
798,52.37760000000001,4.868715384615384,22,14,5571e382498ecb997ac62509,Restaurant 1915,52.375068901430986,4.871222808765125,Modern European Restaurant
799,52.37760000000001,4.868715384615384,22,15,578939a3498ee0c0269ac763,Mauresque,52.380242,4.873175,Moroccan Restaurant
800,52.37760000000001,4.868715384615384,22,16,4ae496baf964a520009c21e3,Restaurant Più,52.38034414042228,4.87328705662772,Italian Restaurant
801,52.37760000000001,4.868715384615384,22,17,4b6efaedf964a5207ad42ce3,Ibo Döner Kebab,52.37466988793096,4.8729341396455865,Turkish Restaurant
802,52.37760000000001,4.868715384615384,22,18,4ba51674f964a52061db38e3,Lazagne,52.37836530761993,4.875262971204816,Italian Restaurant
803,52.37760000000001,4.868715384615384,22,19,50631ca6e4b058a95fc06cd8,De Vlotebakkers,52.37737133391843,4.871070153511147,Indonesian Restaurant
804,52.37760000000001,4.868715384615384,22,20,4a27db11f964a520a2911fe3,Mitsos Traiterie,52.37447596082372,4.873561500954367,Greek Restaurant
805,52.37760000000001,4.868715384615384,22,21,56671d50498eabc21bc0c6cc,Kemang,52.3745855145741,4.873043421527797,Indonesian Restaurant
806,52.37760000000001,4.885638461538461,50,0,50ae0f6ee4b0f104212a6fb2,Caldi E Freddi,52.37491634338784,4.890857878573183,Deli / Bodega
807,52.37760000000001,4.885638461538461,50,1,5a96f3562bf9a90623b897cc,Hinata Ramen,52.378770228791865,4.885134191813472,Ramen Restaurant
808,52.37760000000001,4.885638461538461,50,2,4d0fbb3a59606dcba987703e,Restaurant Luna,52.38027520653764,4.884520018733725,Argentinian Restaurant
809,52.37760000000001,4.885638461538461,50,3,5cefc5b5d552c7002c9b6b1f,Meat And Greek,52.38089,4.890297,Greek Restaurant
810,52.37760000000001,4.885638461538461,50,4,4a270005f964a520e9811fe3,De Klepel,52.37794444634737,4.88675658102199,Bar
811,52.37760000000001,4.885638461538461,50,5,4a270891f964a5201f911fe3,La Oliva,52.37669,4.88224,Spanish Restaurant
812,52.37760000000001,4.885638461538461,50,6,5d064615491be7002cb978d6,New Dutch Amsterdam,52.377763,4.886227,Dutch Restaurant
813,52.37760000000001,4.885638461538461,50,7,4a27001cf964a52039821fe3,Il Panorama,52.37356542720236,4.886823892593383,Italian Restaurant
814,52.37760000000001,4.885638461538461,50,8,4f770ac1e4b0294fd3b69735,Salvatorica,52.37689707294756,4.878790678702957,Italian Restaurant
815,52.37760000000001,4.885638461538461,50,9,4eb97add30f8d0f18e0deee6,Maenaam Thai,52.375184010070036,4.891260441151285,Thai Restaurant
816,52.37760000000001,4.885638461538461,50,10,4a270795f964a520508e1fe3,Shah Jahan,52.377952,4.883446,Indian Restaurant
817,52.37760000000001,4.885638461538461,50,11,4a270890f964a5201b911fe3,Toscanini,52.380145,4.8853728,Italian Restaurant
818,52.37760000000001,4.885638461538461,50,12,50c4d941e4b069afe43915b3,Songkran,52.379266,4.879484,Thai Restaurant
819,52.37760000000001,4.885638461538461,50,13,4a99928ff964a520262f20e3,Singel 101,52.375918,4.891239,French Restaurant
820,52.37760000000001,4.885638461538461,50,14,5bb1e8cea2a6ce002ca31a50,Houtje Bijten,52.380096,4.8800907,Dutch Restaurant
821,52.37760000000001,4.885638461538461,50,15,5e4d8a92d60a390008c06001,spuistraat 122 - italian restaurant 5 junior - spuistraat,52.375098,4.891028,Italian Restaurant
822,52.37760000000001,4.885638461538461,50,16,504272e2183f6159b95afb8b,Ibericus,52.38054778734432,4.891005691830636,Tapas Restaurant
823,52.37760000000001,4.885638461538461,50,17,5ce3be0451950e002cd12f96,Mondial Pancake House,52.373944,4.885035,Dutch Restaurant
824,52.37760000000001,4.885638461538461,50,18,4a2707aef964a520908e1fe3,Cinema Paradiso,52.37834331262415,4.881562497278125,Italian Restaurant
825,52.37760000000001,4.885638461538461,50,19,5cc37652270ee7002c645d79,El Pibe,52.37865,4.8839383,Argentinian Restaurant
826,52.37760000000001,4.885638461538461,50,20,4ea72656b8f7ff211a5a48e7,Mendoza,52.37407951570288,4.883853372315336,Argentinian Restaurant
827,52.37760000000001,4.885638461538461,50,21,4a2707acf964a520888e1fe3,De Luwte,52.37520343868725,4.886677775765728,Restaurant
828,52.37760000000001,4.885638461538461,50,22,4a27077ff964a520f68d1fe3,Ko Chang,52.37851218962148,4.883991026717215,Thai Restaurant
829,52.37760000000001,4.885638461538461,50,23,4a26ffd7f964a52031811fe3,Duende Dos,52.380837119996755,4.881024245922441,Tapas Restaurant
830,52.37760000000001,4.885638461538461,50,24,4a2707bcf964a520a88e1fe3,De Belhamel,52.379421,4.892003,French Restaurant
831,52.37760000000001,4.885638461538461,50,25,4a270785f964a520148e1fe3,Caramba,52.37970230380313,4.88076377806065,Mexican Restaurant
832,52.37760000000001,4.885638461538461,50,26,4db1c6600437a93f7f917226,L'invité le Restaurant,52.374844282267205,4.881398757479242,French Restaurant
833,52.37760000000001,4.885638461538461,50,27,5c117a365d891b002ce2b026,Ristorante Gusto Dei Signori,52.377203,4.888998,Italian Restaurant
834,52.37760000000001,4.885638461538461,50,28,4a270849f964a5202a901fe3,Manis,52.38126803062078,4.8854966585738335,Indonesian Restaurant
835,52.37760000000001,4.885638461538461,50,29,4a2707c3f964a520c08e1fe3,La Vita,52.38053448531485,4.886872625869806,Italian Restaurant
836,52.37760000000001,4.885638461538461,50,30,59d7d32866611613973567e8,Mr. Haz Taco Bar,52.37710592455589,4.884221999521745,Taco Place
837,52.37760000000001,4.885638461538461,50,31,4a27086df964a520ab901fe3,Assaggi,52.376921211361804,4.882011666213365,Italian Restaurant
838,52.37760000000001,4.885638461538461,50,32,4bad01a8f964a520ad233be3,Swietie Sranang,52.38134362282009,4.886779600658978,Indonesian Restaurant
839,52.37760000000001,4.885638461538461,50,33,4a26fff3f964a52096811fe3,Jottum,52.37805627832892,4.883472663750965,Spanish Restaurant
840,52.37760000000001,4.885638461538461,50,34,53a7174a498e183ecb32f215,Swieti Sranang,52.37835508182743,4.882560208137408,Indonesian Restaurant
841,52.37760000000001,4.885638461538461,50,35,5ef88cdc18cbdf00080dc88c,Café Parlotte,52.378256,4.881766,French Restaurant
842,52.37760000000001,4.885638461538461,50,36,4a26ffbcf964a520ca801fe3,Duende,52.38051919611826,4.886164544346121,Spanish Restaurant
843,52.37760000000001,4.885638461538461,50,37,5aabd60e3fcee80ae2663293,La Fiorita,52.377104,4.881758,Italian Restaurant
844,52.37760000000001,4.885638461538461,50,38,4a270797f964a520578e1fe3,Lucky House,52.38135865079429,4.885430933308584,Chinese Restaurant
845,52.37760000000001,4.885638461538461,50,39,5bdb2d856f0aa2002c8a5cc8,Domenica,52.380113,4.887461,Italian Restaurant
846,52.37760000000001,4.885638461538461,50,40,58b1e6779dc8d02dc624a9c5,Locanda,52.378195,4.883414,Italian Restaurant
847,52.37760000000001,4.885638461538461,50,41,587b65f60393cc5a9569053a,Nossa Terra,52.37976,4.882046,Portuguese Restaurant
848,52.37760000000001,4.885638461538461,50,42,4a270797f964a520568e1fe3,Hostaria,52.376769439592245,4.882091198953931,Italian Restaurant
849,52.37760000000001,4.885638461538461,50,43,5de03404bf9a070008769a29,Sajj & Mezza's,52.37463504046371,4.888587176783403,Vegetarian / Vegan Restaurant
850,52.37760000000001,4.885638461538461,50,44,4c82b80c51ada1cdea7f1f10,Sefa,52.37406981843832,4.883795364758194,Turkish Restaurant
851,52.37760000000001,4.885638461538461,50,45,4ba7606af964a520248f39e3,La Maschera,52.3775785657772,4.8828465754496095,Italian Restaurant
852,52.37760000000001,4.885638461538461,50,46,59858122a9e40278fd801093,Crêperie Bretonne Cocotte,52.374264,4.890306,Dutch Restaurant
853,52.37760000000001,4.885638461538461,50,47,4a26ffc9f964a520f9801fe3,La Trattoria Di Donna Sofia,52.37740934301828,4.88167426277513,Italian Restaurant
854,52.37760000000001,4.885638461538461,50,48,5bf84079112c6c002cf7ee19,Lazagne,52.376645,4.882085,Italian Restaurant
855,52.37760000000001,4.885638461538461,50,49,4e4e39d662844166697c46a6,Padang Boelan,52.379619,4.882764,Indonesian Restaurant
856,52.37760000000001,4.902561538461538,50,0,586a6209000bef215b1db525,Saigon Càphê,52.3792231338176,4.902406132181101,Vietnamese Restaurant
857,52.37760000000001,4.902561538461538,50,1,56ffc217cd10d4a79807100a,Bravi Ragazzi,52.37587237284519,4.896576267849065,Italian Restaurant
858,52.37760000000001,4.902561538461538,50,2,4f707285e4b03b575ed77f23,Mata Hari,52.37454854921772,4.900176632761354,Mediterranean Restaurant
859,52.37760000000001,4.902561538461538,50,3,4a284bc3f964a52008951fe3,Julia's,52.38006512764384,4.90022118119971,Italian Restaurant
860,52.37760000000001,4.902561538461538,50,4,5d8fa9bc3b659800086a4502,Bird Thais Restaurant,52.374596,4.900457,Thai Restaurant
861,52.37760000000001,4.902561538461538,50,5,4a2707c8f964a520c78e1fe3,New King,52.373592111315155,4.9002842900895525,Chinese Restaurant
862,52.37760000000001,4.902561538461538,50,6,556f298b498eedd7a7f6d003,wagamama,52.38018271645732,4.899809676645096,Asian Restaurant
863,52.37760000000001,4.902561538461538,50,7,5772a8d0498e387fd0db0169,Thaise Snackbar Bird,52.37458225036672,4.900604241377973,Thai Restaurant
864,52.37760000000001,4.902561538461538,50,8,4a424b00f964a520b3a51fe3,Vapiano,52.37569806871261,4.908188144651513,Italian Restaurant
865,52.37760000000001,4.902561538461538,50,9,5193c714498e2de7c04d4809,Pasta Pasta,52.37542258707073,4.898268438021975,Italian Restaurant
866,52.37760000000001,4.902561538461538,50,10,574f4d9c498efc56a240b8c2,Salsa Shop,52.37958465946948,4.900045992389015,Burrito Place
867,52.37760000000001,4.902561538461538,50,11,4c5ebda794fd0f478beace45,Pastabar,52.376518317007275,4.897432239315534,Italian Restaurant
868,52.37760000000001,4.902561538461538,50,12,5c4e00d9840fc2002c7cda7f,Ramen Kingdom,52.376749,4.901552,Ramen Restaurant
869,52.37760000000001,4.902561538461538,50,13,5650bd5e498e58a4af099b37,MoJo Japanese Kitchen,52.37587707678783,4.907453608427976,Japanese Restaurant
870,52.37760000000001,4.902561538461538,50,14,5b1aeee53e6741002ceba229,Kampai!,52.375515,4.902409,Cocktail Bar
871,52.37760000000001,4.902561538461538,50,15,4baa7559f964a520106c3ae3,The Döner Company,52.38034067767117,4.8993274542827026,Doner Restaurant
872,52.37760000000001,4.902561538461538,50,16,589e02069435a916784033d7,Sham,52.375879500203,4.898355853378996,Middle Eastern Restaurant
873,52.37760000000001,4.902561538461538,50,17,4a27087bf964a520e5901fe3,Marco Polo,52.37602479919688,4.896817129967837,Italian Restaurant
874,52.37760000000001,4.902561538461538,50,18,505c751a011c7f0b24880fb7,Los Pilones Cantina Mexico,52.37322289950994,4.901112950658033,Mexican Restaurant
875,52.37760000000001,4.902561538461538,50,19,4ba4ffecf964a5207bce38e3,Indian Restaurant Ganesha,52.37590617233295,4.902400970283389,Indian Restaurant
876,52.37760000000001,4.902561538461538,50,20,4a2707aef964a5208f8e1fe3,Nam Kee,52.37371122792227,4.900345037675095,Chinese Restaurant
877,52.37760000000001,4.902561538461538,50,21,4a270844f964a52022901fe3,China Sichuan Restaurant,52.37595896101101,4.899093208915664,Szechuan Restaurant
878,52.37760000000001,4.902561538461538,50,22,4a270791f964a520418e1fe3,Geisha Restaurant & Lounge,52.37535879413971,4.903220997467626,Japanese Restaurant
879,52.37760000000001,4.902561538461538,50,23,4a27083af964a52000901fe3,New Season,52.37557609146913,4.898473543570862,Chinese Restaurant
880,52.37760000000001,4.902561538461538,50,24,4a270820f964a520b98f1fe3,Hoi Tin,52.373470756627555,4.900077194603488,Chinese Restaurant
881,52.37760000000001,4.902561538461538,50,25,4a27db10f964a5209e911fe3,Little Thai Prince,52.37555757436526,4.900885316573875,Thai Restaurant
882,52.37760000000001,4.902561538461538,50,26,5ca8f99c1f7440002d1d45e5,Bella Roma,52.374838,4.898934,Italian Restaurant
883,52.37760000000001,4.902561538461538,50,27,50e0701ce4b0b93ee6a8e718,Sumo,52.37735404239675,4.895204479077521,Sushi Restaurant
884,52.37760000000001,4.902561538461538,50,28,4b599470f964a520698d28e3,Vermeer,52.376668800320914,4.90045354006153,French Restaurant
885,52.37760000000001,4.902561538461538,50,29,4db4714e6a23c31a03178683,La Cubanita,52.37387250227814,4.902141247148365,Tapas Restaurant
886,52.37760000000001,4.902561538461538,50,30,57654ebb498e6aa8a7c07eec,Wurst Und Schnitzelhaus,52.3798476570594,4.900700252637762,German Restaurant
887,52.37760000000001,4.902561538461538,50,31,4ffb4b11e4b0283dcd721ec9,Dabka,52.37594023747345,4.900792562709549,Middle Eastern Restaurant
888,52.37760000000001,4.902561538461538,50,32,58b2fd345804ea3b2ad2af62,Kyoto Sushi,52.37940583169266,4.901755662168939,Japanese Restaurant
889,52.37760000000001,4.902561538461538,50,33,4a27db80f964a52028941fe3,Kam Yin,52.376399064429584,4.899353814135657,Chinese Restaurant
890,52.37760000000001,4.902561538461538,50,34,51a087f8498e6b546f6c584f,Flame Grill Restaurant,52.37794671575165,4.8966885457506635,Argentinian Restaurant
891,52.37760000000001,4.902561538461538,50,35,4a2707a0f964a5206f8e1fe3,Eat Mode,52.3738394179958,4.900307177997245,Asian Restaurant
892,52.37760000000001,4.902561538461538,50,36,5bcded88b9b37b0039692a69,Vatten Ramen,52.375052,4.900811,Ramen Restaurant
893,52.37760000000001,4.902561538461538,50,37,4b635310f964a5203e722ae3,Madre Maria,52.37806008999112,4.895628138337841,Argentinian Restaurant
894,52.37760000000001,4.902561538461538,50,38,4a270879f964a520dc901fe3,Italia Oggi,52.37385013233056,4.902233193309274,Italian Restaurant
895,52.37760000000001,4.902561538461538,50,39,4c0e2158adcd9c74cba402f6,Wok to Walk,52.374750953594024,4.897328389729821,Asian Restaurant
896,52.37760000000001,4.902561538461538,50,40,4b06f081f964a52098f322e3,OCHA,52.37402436900276,4.901682513396316,Thai Restaurant
897,52.37760000000001,4.902561538461538,50,41,4bf433fd98ac0f47dcb763a8,La Casa Argentina,52.37540307147307,4.900963703622354,Argentinian Restaurant
898,52.37760000000001,4.902561538461538,50,42,5d389693fa9ffc000874eb4c,Chuan Yan,52.373901,4.902116,Chinese Restaurant
899,52.37760000000001,4.902561538461538,50,43,5b6c36ba28374e002c8c5121,De Pael Brewery,52.375528,4.899518,Gastropub
900,52.37760000000001,4.902561538461538,50,44,4a27075df964a520af8d1fe3,Argentinos Restaurant San Thomas,52.37789566813741,4.896605410231052,Argentinian Restaurant
901,52.37760000000001,4.902561538461538,50,45,5de82ecc6750ab00086b4341,Churros & Crepes,52.375171,4.897979,Belgian Restaurant
902,52.37760000000001,4.902561538461538,50,46,5331e286498e8854d473aa7d,Little Saigon,52.37423856104408,4.900407709084858,Vietnamese Restaurant
903,52.37760000000001,4.902561538461538,50,47,4a270781f964a520008e1fe3,Sea Palace,52.37530771106915,4.907356202602386,Chinese Restaurant
904,52.37760000000001,4.902561538461538,50,48,59bbc557bcbf7a6bb6bc6ed5,Italiaans Restaurant San Abram,52.376637,4.896413,Italian Restaurant
905,52.37760000000001,4.902561538461538,50,49,4a85f650f964a520d6ff1fe3,Sanda,52.373993251604894,4.900227697486465,Karaoke Bar
906,52.37760000000001,4.919484615384615,6,0,590dbcc36dcf047c52d510ce,Hotel Jakarta,52.37932886407255,4.922324526236797,Hotel
907,52.37760000000001,4.919484615384615,6,1,573e0505498e5a5092f16569,Scheepskameel,52.375561462076554,4.914219696116631,Modern European Restaurant
908,52.37760000000001,4.919484615384615,6,2,5db48ef6ebb02600092b8eb9,Pepenero,52.379528,4.925541,Italian Restaurant
909,52.37760000000001,4.919484615384615,6,3,53a07a05498e2eba58add450,Food4U,52.37655110687369,4.9208194683490545,Asian Restaurant
910,52.37760000000001,4.919484615384615,6,4,5ccee13dc9f907002c4cb94a,Main Dining Room,52.378334,4.9157515,Dutch Restaurant
911,52.37760000000001,4.919484615384615,6,5,4a2707b1f964a520988e1fe3,Pasta Vino,52.37951891457597,4.9255369313253805,Italian Restaurant
912,52.37760000000001,4.936407692307692,9,0,5eee24f6ab537200082bd92f,Taparia,52.374764,4.934733,Tapas Restaurant
913,52.37760000000001,4.936407692307692,9,1,5b75847fdb2aeb002cf4e55c,Bombarie,52.37413855448149,4.9355073273181915,Comfort Food Restaurant
914,52.37760000000001,4.936407692307692,9,2,4e78783d45ddedd585eebacc,Puerto Pata Negra,52.37453868381266,4.934702517035741,Spanish Restaurant
915,52.37760000000001,4.936407692307692,9,3,4a270808f964a5208c8f1fe3,Chengdu,52.377212097,4.936350231875894,Chinese Restaurant
916,52.37760000000001,4.936407692307692,9,4,57c87f62498e532c5edf2ff4,The Glass House,52.378494,4.93108,Dutch Restaurant
917,52.37760000000001,4.936407692307692,9,5,4a27050df964a520da861fe3,De Piraat,52.37775385379791,4.935978055000305,Chinese Restaurant
918,52.37760000000001,4.936407692307692,9,6,57b49c08498eefc4284d66af,De Kleine Kaart,52.37653,4.941645,Modern European Restaurant
919,52.37760000000001,4.936407692307692,9,7,58357f0b8f0be46bcaf53841,Man Cave,52.376436,4.940072,Mexican Restaurant
920,52.37760000000001,4.936407692307692,9,8,5e4e74e762b20d0007586d9a,La Mariscada B.V.,52.378588,4.9313459,Spanish Restaurant
921,52.387600000000006,4.834869230769231,5,0,4b9fa419f964a520f63037e3,Mr. Long,52.38887363666423,4.838774542135027,Asian Restaurant
922,52.387600000000006,4.834869230769231,5,1,4f3a5138e4b00bffdf083c60,Fridays,52.385501,4.837778399999999,American Restaurant
923,52.387600000000006,4.834869230769231,5,2,5e62374d66f50a00077d38d0,Beykoz,52.389664,4.841353,Turkish Restaurant
924,52.387600000000006,4.834869230769231,5,3,4cbd7e9ad8e9bfb762d1d6d2,Doner Company,52.38890435928618,4.838565360529452,Doner Restaurant
925,52.387600000000006,4.834869230769231,5,4,4c8f4349ad70a1430016900f,Julia's,52.38904172764405,4.837750749701973,Italian Restaurant
926,52.387600000000006,4.851792307692307,7,0,567889ca498e7572a9d0bb1b,La Casa de Michael,52.38460321110661,4.84701588526063,Italian Restaurant
927,52.387600000000006,4.851792307692307,7,1,4f45246ae4b00f93ced50b9d,Hap li,52.384,4.84839,Chinese Restaurant
928,52.387600000000006,4.851792307692307,7,2,51a3a684498e9aef3cb35d22,Yang Ming,52.38448191650002,4.847561200530808,Chinese Restaurant
929,52.387600000000006,4.851792307692307,7,3,57a1b31f498e6dc5e117f696,Bisceglias House,52.385382,4.847736,Mediterranean Restaurant
930,52.387600000000006,4.851792307692307,7,4,4a27db62f964a52080931fe3,Lei Ping,52.384495614784186,4.847618450475151,Chinese Restaurant
931,52.387600000000006,4.851792307692307,7,5,59aaac2164c8e17ec032e28a,Il Gusto Gelateria & Rosticceria Italiana,52.38479,4.8513875,Italian Restaurant
932,52.387600000000006,4.851792307692307,7,6,4ddb8cfaae60aa30018eb65a,Raan Isaan Thai Lao,52.38474369049072,4.85171914100647,Thai Restaurant
933,52.387600000000006,4.868715384615384,10,0,5f2ec08a7c8f6806c56c6236,Rond De Tafel,52.386806,4.868949,Dutch Restaurant
934,52.387600000000006,4.868715384615384,10,1,5f22fc1b29cb1b58efa66cac,Grand Caron,52.386417,4.872652,French Restaurant
935,52.387600000000006,4.868715384615384,10,2,4aeac2adf964a52027bc21e3,Raïnaraï Westergasfabriek,52.38561008647764,4.86574631329771,Mediterranean Restaurant
936,52.387600000000006,4.868715384615384,10,3,590f421c18d43b465d4bb9cf,Primi Amsterdam,52.384386,4.871831,Italian Restaurant
937,52.387600000000006,4.868715384615384,10,4,5a75ce0bbd897e5943e6d66b,roberto’s,52.385913,4.872283,Italian Restaurant
938,52.387600000000006,4.868715384615384,10,5,4a270528f964a5200f871fe3,Taksim,52.384865,4.870676,Italian Restaurant
939,52.387600000000006,4.868715384615384,10,6,55328f35498edd66444ffc58,Piri Piri Amsterdam,52.38438415527344,4.871913433074951,BBQ Joint
940,52.387600000000006,4.868715384615384,10,7,5beda175005ac1002c3a69a3,Uncle Lee,52.384054,4.86501,Fried Chicken Joint
941,52.387600000000006,4.868715384615384,10,8,4dc541f0c65b89d3ca68bb54,Maria's Event,52.387554,4.872911,Arepa Restaurant
942,52.387600000000006,4.868715384615384,10,9,5894dbf144587f122ade2b0f,Bacco,52.384522,4.873307,Italian Restaurant
943,52.387600000000006,4.885638461538461,32,0,4a2703d0f964a5207e851fe3,De Gouden Reael,52.388121,4.889985,French Restaurant
944,52.387600000000006,4.885638461538461,32,1,5ae1b54bc03635002c5197b7,Dumplings,52.38526426479201,4.881910085678101,Chinese Restaurant
945,52.387600000000006,4.885638461538461,32,2,56745405498e84771cdc71f6,Pikoteo,52.39009136079556,4.885563401020474,Tapas Restaurant
946,52.387600000000006,4.885638461538461,32,3,5912ff3b3ba7673276a4131a,Bayu,52.383553,4.885446,Indonesian Restaurant
947,52.387600000000006,4.885638461538461,32,4,4b4f5182f964a520190127e3,Erol Doner,52.389533050867485,4.8793157763437796,Turkish Restaurant
948,52.387600000000006,4.885638461538461,32,5,5ef793c1bdbe3f0007c54937,Restaurant Bellou,52.384148,4.8841214,Mediterranean Restaurant
949,52.387600000000006,4.885638461538461,32,6,587bbe876431e516ca5d8195,BAUT,52.388762,4.880192,Dutch Restaurant
950,52.387600000000006,4.885638461538461,32,7,513f6d99e4b0c3129bd5b772,The Burrito Maker,52.384427994333635,4.883133599276568,Burrito Place
951,52.387600000000006,4.885638461538461,32,8,4bf813605317a593011cff7e,Holy Ravioli,52.3887353713186,4.879963137612981,Italian Restaurant
952,52.387600000000006,4.885638461538461,32,9,59b951f9e1f0aa4d013c9b02,58F,52.385666,4.8892627,Eastern European Restaurant
953,52.387600000000006,4.885638461538461,32,10,5a044520e1f0aa21d4c491b4,A Volo,52.384194,4.884558,Italian Restaurant
954,52.387600000000006,4.885638461538461,32,11,50c2e308f2e7ea62b7485f6d,Germany,52.38412614985728,4.884538650512695,German Restaurant
955,52.387600000000006,4.885638461538461,32,12,59b952710d8a0f17c03d31a5,58F,52.38557,4.889339,Eastern European Restaurant
956,52.387600000000006,4.885638461538461,32,13,4fd495e7e4b06a2d8d981f53,Warung Barokah,52.391104170391344,4.881550861537469,Indonesian Restaurant
957,52.387600000000006,4.885638461538461,32,14,4a2707f2f964a5204e8f1fe3,Marius,52.388957260127505,4.887535292883999,French Restaurant
958,52.387600000000006,4.885638461538461,32,15,4ec1abe80aaf6450bb85eed9,Niko Niko,52.38760995013214,4.879330926981379,Sushi Restaurant
959,52.387600000000006,4.885638461538461,32,16,599eb4369be5226794b987bc,Oba Döner,52.389551,4.879078,Doner Restaurant
960,52.387600000000006,4.885638461538461,32,17,58addc7c37da1d192df49c93,Panzerotti,52.388323,4.88572,Italian Restaurant
961,52.387600000000006,4.885638461538461,32,18,54909acb498eec4e0f314318,Dulhan Eethuis,52.389147,4.880147,Indian Restaurant
962,52.387600000000006,4.885638461538461,32,19,56608e08498e1e6bea24d13f,Bij Ons,52.388071,4.880452,Indonesian Restaurant
963,52.387600000000006,4.885638461538461,32,20,5751d286498e26dacda7668f,Brasserie van Noordt,52.389107,4.879735,Brasserie
964,52.387600000000006,4.885638461538461,32,21,4ec1ac64775b98876f057319,Mexico City,52.388279,4.880014,Mexican Restaurant
965,52.387600000000006,4.885638461538461,32,22,50816d2819a9e8ad858fa4a8,Min Twintig,52.38420473181391,4.884474277496338,Diner
966,52.387600000000006,4.885638461538461,32,23,5467a4d2498eb46210dde680,biancolatte,52.3842266117002,4.884628924639098,Café
967,52.387600000000006,4.885638461538461,32,24,4b55f8a3f964a5209ff927e3,Wendy's Eethuis,52.38808197328678,4.880660897934728,Indonesian Restaurant
968,52.387600000000006,4.885638461538461,32,25,54455791498eb42496cb9860,Yummie Sushi,52.388759,4.879922,Sushi Restaurant
969,52.387600000000006,4.885638461538461,32,26,53adc872498e3f6a672c329d,Bocconi,52.38812544312855,4.880315598884484,Italian Restaurant
970,52.387600000000006,4.885638461538461,32,27,58bade1f3f5a5c1c89f93073,Pho House,52.388626,4.87977,Vietnamese Restaurant
971,52.387600000000006,4.885638461538461,32,28,5ec8298c5ccc140008d1f7f1,De Pizzabakkers,52.383436,4.885935,Pizza Place
972,52.387600000000006,4.885638461538461,32,29,4e7ced6cf5b98afc701a7658,Casa Di Anna Luna,52.389340442793184,4.886785875529473,Italian Restaurant
973,52.387600000000006,4.885638461538461,32,30,5cbc9a6b18d43b002cd73b7b,Mercado Uno,52.388786,4.886421,Empanada Restaurant
974,52.387600000000006,4.885638461538461,32,31,5f5fcbbd0ed4c262cb067756,Upside Down Express,52.386462,4.887194,Food Service
975,52.387600000000006,4.902561538461538,3,0,5dd1cb5b2cc9eb0008646923,Bacalar,52.391417,4.903967,Taco Place
976,52.387600000000006,4.902561538461538,3,1,58357f30d439073da74f77eb,Il Pecorino,52.386697014218704,4.9083403572232855,Italian Restaurant
977,52.387600000000006,4.902561538461538,3,2,5167c61be4b03c0c69b55491,de vrouwenbazaar,52.38936996459961,4.908598899841309,Middle Eastern Restaurant
978,52.387600000000006,4.919484615384615,8,0,5b6055a2e679bc002c438f26,Little Saigon,52.387152,4.925422,Vietnamese Restaurant
979,52.387600000000006,4.919484615384615,8,1,5f3986715b880d233781114f,Roti-Noord,52.385406,4.9255934,Caribbean Restaurant
980,52.387600000000006,4.919484615384615,8,2,58643a3aa36ecd3c73bfba55,Anytime Pizza,52.387375,4.9259925,Turkish Restaurant
981,52.387600000000006,4.919484615384615,8,3,56b241f5498e8704e41ba692,'t Houtskooltje,52.38747023831639,4.924484688990257,Turkish Restaurant
982,52.387600000000006,4.919484615384615,8,4,51bdcf3f498e9339af579885,Horeca Catering,52.388347,4.919529,Indonesian Restaurant
983,52.387600000000006,4.919484615384615,8,5,5b69b6c066fc65002df28411,Absolute Delicious,52.387130190226046,4.925091066097593,Dutch Restaurant
984,52.387600000000006,4.919484615384615,8,6,5776b861498e9b4c2d4ffdbb,Missy Missy,52.385918,4.9204955,Chinese Restaurant
985,52.387600000000006,4.919484615384615,8,7,4ee6441a823180a98d0b6cd3,Carlo Di Luca Sapori Italiani,52.3866739232863,4.9255315484161875,Italian Restaurant
986,52.387600000000006,4.936407692307692,1,0,4da0b69bbf22a143150a8af8,Di Gigi,52.39172367830051,4.937299054692214,Italian Restaurant
987,52.387600000000006,4.953330769230768,1,0,4dc4499a18387d1bd51f8037,Nasi Goreng HQ,52.390449,4.947881,Asian Restaurant
988,52.397600000000004,4.851792307692307,1,0,5caf4a97d9a6e60031e6f11b,GymFood,52.39479891815498,4.8465317487716675,Dutch Restaurant
989,52.397600000000004,4.868715384615384,1,0,55fdbbb0498edba2281f5609,Brooklyn bier & worst diner,52.396554,4.871391,New American Restaurant
990,52.397600000000004,4.885638461538461,3,0,5d06899c971317002d8145f6,Karaat,52.395987,4.880013,Modern European Restaurant
991,52.397600000000004,4.885638461538461,3,1,5eee62dc376fb40007c35324,Vessel,52.394846,4.882028,French Restaurant
992,52.397600000000004,4.885638461538461,3,2,4a270783f964a5200e8e1fe3,Pollux Pacific,52.40000995802058,4.888572692871094,Asian Restaurant
993,52.397600000000004,4.902561538461538,1,0,520c017e11d2d63655f7a907,Chef's Table op het IJ,52.397847,4.897558,French Restaurant
994,52.397600000000004,4.919484615384615,7,0,56f8d66a498e9abeab718fb5,Restaurant Hanimeli,52.396879207703826,4.91394471932113,Turkish Restaurant
995,52.397600000000004,4.919484615384615,7,1,4a270553f964a5208b871fe3,Adana Döner,52.39592288060904,4.914079603524447,Turkish Restaurant
996,52.397600000000004,4.919484615384615,7,2,57067da1498e76066768c074,Toekie,52.398021,4.912357,Thai Restaurant
997,52.397600000000004,4.919484615384615,7,3,5483482f498e36f1d863d3a1,Toeki,52.398153,4.912214,Thai Restaurant
998,52.397600000000004,4.919484615384615,7,4,5ee60ebb466ac60007a23cd8,Turquoise Meating,52.396718,4.914118,Turkish Restaurant
999,52.397600000000004,4.919484615384615,7,5,4b781e66f964a520b2b62ee3,Thais afhaalrestaurant Muang Phrom,52.39485025405884,4.9166446924209595,Thai Restaurant
1000,52.397600000000004,4.919484615384615,7,6,522b393911d2c46318a12328,Toko Tante Lies,52.399398,4.921363,Indonesian Restaurant
1001,52.397600000000004,4.936407692307692,10,0,59d4fd44c5309364e6c2f23d,tropische toko noord,52.399068,4.937843,Grocery Store
1002,52.397600000000004,4.936407692307692,10,1,567ec01b498e84036e2a9a92,Midas Gordion,52.398459,4.935555,Greek Restaurant
1003,52.397600000000004,4.936407692307692,10,2,5038fd54e4b0133c7204a329,Musashi,52.3982412110147,4.936289556732589,Japanese Restaurant
1004,52.397600000000004,4.936407692307692,10,3,5f0efe0804314b318822e7fd,Hollywood Cafe,52.400613,4.934102,American Restaurant
1005,52.397600000000004,4.936407692307692,10,4,4d871a1ee83fa1435dc79ca1,Brasserie Roezemoes,52.39783041056067,4.941044869335025,Brasserie
1006,52.397600000000004,4.936407692307692,10,5,52ac5cd1498ecd8bc155834d,Chef's Doner,52.397826,4.941012,Turkish Restaurant
1007,52.397600000000004,4.936407692307692,10,6,5f01de0e7029a957725ef781,Hollywood Event Center,52.40067,4.9349046,American Restaurant
1008,52.397600000000004,4.936407692307692,10,7,4a270835f964a520f18f1fe3,Tjon Express,52.40011927053922,4.935757441785262,Asian Restaurant
1009,52.397600000000004,4.936407692307692,10,8,4a2707cef964a520d78e1fe3,Wong Kee,52.39824404424956,4.941648266287111,Chinese Restaurant
1010,52.397600000000004,4.936407692307692,10,9,4a2707c3f964a520be8e1fe3,Mei Wah,52.39814059264416,4.936359286574861,Chinese Restaurant
1011,52.397600000000004,4.953330769230768,1,0,5051fe4fe4b0e2b08b1c994c,capitool,52.3985132,4.9586542,South American Restaurant
1012,52.4076,4.902561538461538,1,0,4f79f5d1e4b03b459fba78a9,sushi,52.4073,4.899,Japanese Restaurant
1013,52.4076,4.919484615384615,2,0,58cedb994bc2f11bdccf4f4e,Erva Café & Restaurant,52.40778300198228,4.917236870945013,Turkish Restaurant
1014,52.4076,4.919484615384615,2,1,53204fcb498e106a8737b001,aspava,52.4077263415352,4.917217855024271,Turkish Restaurant
1015,52.41760000000001,4.868715384615384,1,0,553a87f5498e8c490710afb9,Toko Tante Lies,52.418718310073,4.87273215316236,Indonesian Restaurant
1016,52.41760000000001,4.902561538461538,1,0,51c53028498ed6347a1a82f2,Restaurant Bij Brons,52.41789198131248,4.9046725544255105,French Restaurant
1017,52.427600000000005,4.868715384615384,1,0,5f250b1663bb3862e9ea2414,Zaanse Kathmandu Kitchen,52.42817557573595,4.873139262199402,Dutch Restaurant
1018,52.427600000000005,4.919484615384615,4,0,4d9f43d9ded9a093c8920107,La Boca,52.428395472120314,4.914087244349866,Italian Restaurant
1019,52.427600000000005,4.919484615384615,4,1,4c38a0673849c92812c6bfb1,Swieti Sranang afhaal,52.42962145,4.91368115,Caribbean Restaurant
1020,52.427600000000005,4.919484615384615,4,2,4e297e5e52b1c37d35cc6e2c,Radboud 12,52.42638397216797,4.916310787200928,Asian Restaurant
1021,52.427600000000005,4.919484615384615,4,3,4ab64b3df964a520817620e3,Afhaal Thai Ubon,52.430363732953296,4.91386618333544,Thai Restaurant
