,lat_centre,long_centre,num_venues,venue_iter,venue_id,venue_name,lat_venue,long_venue,category
0,52.35533907066761,4.889315656260641,29,0,5149cf8a70432b6e7fd04ea7,Miss Korea,52.354842879432866,4.889580066263741,Korean Restaurant
1,52.35533907066761,4.889315656260641,29,1,4a2703cff964a5207b851fe3,LOKANTA,52.3553038398716,4.889849946667931,Mediterranean Restaurant
2,52.35533907066761,4.889315656260641,29,2,5daacbc539f40e00087b2897,Brasserie Lolita,52.35550974887033,4.890316128730774,Brasserie
3,52.35533907066761,4.889315656260641,29,3,4b6c3b1ff964a520d42a2ce3,SenT,52.35574438179687,4.888940644804844,French Restaurant
4,52.35533907066761,4.889315656260641,29,4,570fcdc6498ef98443eb7498,Onigiri Ya!,52.3555453527531,4.890466091745714,Japanese Restaurant
5,52.35533907066761,4.889315656260641,29,5,4a27083df964a52007901fe3,Warung Spang Makandra,52.35530945950131,4.89001874265431,Indonesian Restaurant
6,52.35533907066761,4.889315656260641,29,6,4a270804f964a5207d8f1fe3,Albina,52.35492729162367,4.889828753080029,Chinese Restaurant
7,52.35533907066761,4.889315656260641,29,7,576c23db498e0a8a3e7b0090,Auberge Jean & Marie,52.354804530900395,4.889264426413418,French Restaurant
8,52.35533907066761,4.889315656260641,29,8,4fb15a22e4b01d7a90f92dbc,Ikura,52.35485011135734,4.889579575073619,Sushi Restaurant
9,52.35533907066761,4.889315656260641,29,9,4bf6ced94a67c928e97122cf,Taverna Barcelona,52.35578489322623,4.8886713844261855,Mediterranean Restaurant
10,52.35533907066761,4.889315656260641,29,10,4f256c67e4b01dc94c995dd3,jingles,52.35533905029297,4.890134334564209,Ethiopian Restaurant
11,52.35533907066761,4.889315656260641,29,11,4dc594357d8b14fb462e62ee,Wok and Fries,52.354968,4.889327,Asian Restaurant
12,52.35533907066761,4.889315656260641,29,12,4a270500f964a520b9861fe3,Shalom,52.35524845482012,4.89023969913205,Middle Eastern Restaurant
13,52.35533907066761,4.889315656260641,29,13,4a27db33f964a52081921fe3,Sari Citra,52.35576875081275,4.890462938849988,Indonesian Restaurant
14,52.35533907066761,4.889315656260641,29,14,4a27db3df964a520c8921fe3,Poros,52.354667,4.888419,Greek Restaurant
15,52.35533907066761,4.889315656260641,29,15,4a2707c4f964a520c28e1fe3,Orontes,52.35467644712307,4.888620103069332,Mediterranean Restaurant
16,52.35533907066761,4.889315656260641,29,16,59df8a8dd7627e1026b931fc,Sale E Pepe,52.35477,4.8892345,Italian Restaurant
17,52.35533907066761,4.889315656260641,29,17,4c3b8f40a9509c7413cb385b,The Grill Room,52.355012,4.890117762838018,Middle Eastern Restaurant
18,52.35533907066761,4.889315656260641,29,18,4d3f03726b3d236a8af27764,Spang makandra javaanse-surinaamse restaurant,52.355345538955156,4.889898601591784,South American Restaurant
19,52.35533907066761,4.889315656260641,29,19,4cacfadc36fa6dcb5444e378,the Grillroom,52.355263,4.89033,Middle Eastern Restaurant
20,52.35533907066761,4.889315656260641,29,20,580a947238fa6db875a89e0a,Snacks & Vlaamse Friet Moes,52.35541,4.8903112,Turkish Restaurant
21,52.35533907066761,4.889315656260641,29,21,5caf88e55c6838002c1b4f37,Trattoria Olivo,52.354656,4.8891673,Italian Restaurant
22,52.35533907066761,4.889315656260641,29,22,56b9c9cf498efedc0a83386a,Wok & Roll,52.354861,4.889533,Caribbean Restaurant
23,52.35533907066761,4.889315656260641,29,23,4a27db16f964a520cc911fe3,Zagros,52.354731,4.888696019999999,Middle Eastern Restaurant
24,52.35533907066761,4.889315656260641,29,24,587e6b2f4745864e1c09c802,eetcafe angelo,52.354955,4.889381,Middle Eastern Restaurant
25,52.35533907066761,4.889315656260641,29,25,4a2703bef964a5204c851fe3,Caffè 500,52.354835675016645,4.889357822604726,Italian Restaurant
26,52.35533907066761,4.889315656260641,29,26,4a2707a6f964a520798e1fe3,Balti House,52.3547430172472,4.888494747957497,Indian Restaurant
27,52.35533907066761,4.889315656260641,29,27,55e2e45e498e0c906c503357,Paper Planes,52.35561748247594,4.888492769999955,American Restaurant
28,52.35533907066761,4.889315656260641,29,28,5f6e32c327e1ea14a9703c5a,Pho Viet,52.35468,4.888884,Vietnamese Restaurant
29,52.354208606001414,4.8874771529602645,14,0,5075c4a8e4b0416afc9422e2,Izakaya,52.35462084945091,4.887186018219195,Japanese Restaurant
30,52.354208606001414,4.8874771529602645,14,1,5956bc03a0215b25934f88b4,Floreyn,52.35457,4.887814,Dutch Restaurant
31,52.354208606001414,4.8874771529602645,14,2,5f37c29058a5b74d726819a8,Sababa,52.354693,4.888256,Middle Eastern Restaurant
32,52.354208606001414,4.8874771529602645,14,3,4a270800f964a5206d8f1fe3,Szechuan Kitchen,52.354804,4.887628,Chinese Restaurant
33,52.354208606001414,4.8874771529602645,14,4,4a27db3df964a520c8921fe3,Poros,52.354667,4.888419,Greek Restaurant
34,52.354208606001414,4.8874771529602645,14,5,4a2707c4f964a520c28e1fe3,Orontes,52.35467644712307,4.888620103069332,Mediterranean Restaurant
35,52.354208606001414,4.8874771529602645,14,6,5dfcbf9bbd059b000859477e,Hot and Hot Hotpot,52.354127097838145,4.886249899864196,Chinese Restaurant
36,52.354208606001414,4.8874771529602645,14,7,53e68698498e0ed4c576d5aa,Mihangelo's,52.354622,4.888241,Italian Restaurant
37,52.354208606001414,4.8874771529602645,14,8,5ccc8ba1121384002c843621,Nunzio-Haidi,52.354188,4.886408,Italian Restaurant
38,52.354208606001414,4.8874771529602645,14,9,507da525e4b0550bf3eb83f0,Ristorante Due Napoletani,52.35418431017645,4.886514442089917,Italian Restaurant
39,52.354208606001414,4.8874771529602645,14,10,5d8c5d347a1e19000893c5e0,Yzakaya,52.35472,4.887267,Japanese Restaurant
40,52.354208606001414,4.8874771529602645,14,11,4a270029f964a52079821fe3,Pheun Thai,52.35358597242465,4.886495018592261,Thai Restaurant
41,52.354208606001414,4.8874771529602645,14,12,4a2707fdf964a520678f1fe3,Monte Verde,52.354671007198846,4.887163392270472,Italian Restaurant
42,52.354208606001414,4.8874771529602645,14,13,4a2707a6f964a520798e1fe3,Balti House,52.3547430172472,4.888494747957497,Indian Restaurant
43,52.35646953533381,4.891154159561018,19,0,5de6a80cadb67f0008d35997,Yuan's Chuan Chuan Xiang Amsterdam De Pijp袁记串串香阿姆喜力博物馆店,52.357073,4.890552,Chinese Restaurant
44,52.35646953533381,4.891154159561018,19,1,4a26ffcef964a52019811fe3,Barça,52.356994,4.891618,Bar
45,52.35646953533381,4.891154159561018,19,2,5bbb7e3a2db4a9002c315f7d,Spaghetteria,52.356224,4.891639,Italian Restaurant
46,52.35646953533381,4.891154159561018,19,3,5d95cc001128280007106ee2,Takumi Ramen Kitchen,52.356328,4.890546,Ramen Restaurant
47,52.35646953533381,4.891154159561018,19,4,4a270866f964a52091901fe3,Cafe Restaurant Mamouche,52.356710186321564,4.892157529030803,Moroccan Restaurant
48,52.35646953533381,4.891154159561018,19,5,5b6c79851ffe9700396c73d5,Wok To Walk,52.355977,4.890593,Asian Restaurant
49,52.35646953533381,4.891154159561018,19,6,5092aba5e4b0192dd6a9a187,Eazie,52.357096515867205,4.890841613773445,Noodle House
50,52.35646953533381,4.891154159561018,19,7,4a2707a3f964a520788e1fe3,Taj Mahal,52.35723274632768,4.89098891302439,Indian Restaurant
51,52.35646953533381,4.891154159561018,19,8,5689b14e498efbacb9552d9f,Ginger,52.35645715350726,4.8906147692645,Asian Restaurant
52,52.35646953533381,4.891154159561018,19,9,58bb04bf89151d6351574e93,Hennequin & To,52.356621,4.890549,French Restaurant
53,52.35646953533381,4.891154159561018,19,10,4a26fffaf964a520b6811fe3,Top Wok,52.3571,4.891072511672974,Asian Restaurant
54,52.35646953533381,4.891154159561018,19,11,56eea74ccd10a5c732b9abbb,Ecole,52.356976869127976,4.891147446088988,French Restaurant
55,52.35646953533381,4.891154159561018,19,12,4a270890f964a52019911fe3,Zaza's,52.3561320701457,4.892238896403098,French Restaurant
56,52.35646953533381,4.891154159561018,19,13,4a27db33f964a52081921fe3,Sari Citra,52.35576875081275,4.890462938849988,Indonesian Restaurant
57,52.35646953533381,4.891154159561018,19,14,4e25bf40d22df6f8887ca2bd,Doner King,52.357209,4.891245,Eastern European Restaurant
58,52.35646953533381,4.891154159561018,19,15,4beea8723686c9b67bbd246e,Jottum,52.3559455043305,4.891490936279297,Mediterranean Restaurant
59,52.35646953533381,4.891154159561018,19,16,57e65b09498e4eeaa6d4d733,Cucina L'Ozio Italiana,52.356748,4.890595,Italian Restaurant
60,52.35646953533381,4.891154159561018,19,17,57bb122e498ef0c32994fa28,Juicebar,52.356113,4.8904877,Dutch Restaurant
61,52.35646953533381,4.891154159561018,19,18,55508dec498efd4192699f44,南记NAM KEE,52.357292865026274,4.89132849157982,Asian Restaurant
62,52.354208606001414,4.891154159561018,3,0,54317eb8498efe7960d511fc,ManaMana,52.354025131343626,4.890416115604876,Middle Eastern Restaurant
63,52.354208606001414,4.891154159561018,3,1,52b5908e498e25b1fd6f7a11,Pasta Pasta,52.354703930194326,4.890414432098538,Italian Restaurant
64,52.354208606001414,4.891154159561018,3,2,4c47428919fde21e9dbe0776,Da Evelien,52.354291,4.891737,Mediterranean Restaurant
65,52.35533907066761,4.898884343739358,5,0,4b9bd2d0f964a520932936e3,Restaurant ARTIST,52.355643200330974,4.898134295767443,Middle Eastern Restaurant
66,52.35533907066761,4.898884343739358,5,1,58bb18578f0be43210575d8e,Zaagmolen,52.355588,4.898243,Modern European Restaurant
67,52.35533907066761,4.898884343739358,5,2,4d13523312916dcb99fedc8a,Sushikings,52.355775,4.898031,Sushi Restaurant
68,52.35533907066761,4.898884343739358,5,3,5d1362f253331f002f418862,Frankie Bos.,52.355687,4.898378,Café
69,52.35533907066761,4.898884343739358,5,4,4d4d95b0fe7fb1f7bff65d42,Barra,52.35573609168478,4.898001160365244,Tapas Restaurant
70,52.35646953533381,4.897045840438981,16,0,5914b60fad17891f9c21ef9f,Escobar,52.35660385603116,4.8972491041197,Spanish Restaurant
71,52.35646953533381,4.897045840438981,16,1,566349da498efe11ebff7f25,Calle Ocho,52.356428850759116,4.896964063702356,South American Restaurant
72,52.35646953533381,4.897045840438981,16,2,596650eb35d3fc1e6ee2f2a2,Franggo,52.35622269172725,4.897646772546211,Fried Chicken Joint
73,52.35646953533381,4.897045840438981,16,3,5370f773498e32f5604e3876,De Pizzabakkers,52.35634901049651,4.89753088398226,Italian Restaurant
74,52.35646953533381,4.897045840438981,16,4,57fd1114498ea8c2e605a55c,Arles,52.35628677437768,4.89811517489653,French Restaurant
75,52.35646953533381,4.897045840438981,16,5,4d4a54495129a35dfcac42ac,Barra (by Siempre),52.356984,4.896377921104431,Spanish Restaurant
76,52.35646953533381,4.897045840438981,16,6,5be2d97960255e002c2e8495,Amsterdam Arepa’s,52.35617,4.897499,Arepa Restaurant
77,52.35646953533381,4.897045840438981,16,7,5a0f326abfc6d02bea731af5,Ramen Izakaya Sora,52.35621088303791,4.896189858833671,Ramen Restaurant
78,52.35646953533381,4.897045840438981,16,8,55cf8858498ed4b63ba2e2a5,De Japanner,52.35647129858305,4.897033403787089,Japanese Restaurant
79,52.35646953533381,4.897045840438981,16,9,4a27db27f964a5204b921fe3,Warung Swietie,52.356756351927665,4.897166869645021,South American Restaurant
80,52.35646953533381,4.897045840438981,16,10,546c9dd8498eabb0f2058138,Los Churros,52.356381,4.896907,Spanish Restaurant
81,52.35646953533381,4.897045840438981,16,11,50c370a3e4b025007f62d96c,Il Pastificio,52.35610665121645,4.897791441989611,Italian Restaurant
82,52.35646953533381,4.897045840438981,16,12,546f9d6e498e180cb6a154fd,19 it,52.35713595424938,4.896124616057759,Italian Restaurant
83,52.35646953533381,4.897045840438981,16,13,4d4c6b3d1ae43704607ff460,Femmeli,52.35686015669782,4.898326178380352,Tapas Restaurant
84,52.35646953533381,4.897045840438981,16,14,4d13dd0abb488cfa6fa691d4,SushiKings Centrum,52.356804,4.89785159,Sushi Restaurant
85,52.35646953533381,4.897045840438981,16,15,5fccd810521a0c59e84d105e,Sushi Fanatics,52.356678,4.898265,Sushi Restaurant
86,52.354208606001414,4.897045840438981,1,0,4e305bc7e4cdb5a70d71e8ce,Indian Restaurant Shiva,52.353728522751794,4.897355235009164,Indian Restaurant
87,52.35646953533381,4.900722847039734,19,0,50006bece4b0fbfbe8d875ac,Bakkerij Lavina,52.35669026986961,4.89970185201022,Turkish Restaurant
88,52.35646953533381,4.900722847039734,19,1,5b8e71dc16fa04002c434c79,Pho Long,52.356724,4.899851,Vietnamese Restaurant
89,52.35646953533381,4.900722847039734,19,2,4afac658f964a520a01822e3,Gaziantep Pastahanesi,52.356759,4.899777,Turkish Restaurant
90,52.35646953533381,4.900722847039734,19,3,53075b10498e3d68a11ce1a7,Fresh2Go,52.35649,4.899886,Sushi Restaurant
91,52.35646953533381,4.900722847039734,19,4,5206a3ab11d2ecbb5d6fb1b7,Ristorante Pizzeria il Mare,52.35636050822158,4.900620109911768,Italian Restaurant
92,52.35646953533381,4.900722847039734,19,5,4a27052af964a52015871fe3,Yu Fung,52.35594,4.900252,Chinese Restaurant
93,52.35646953533381,4.900722847039734,19,6,4d2b490977a2a1cd7ed67bb7,Suvi,52.35679327874975,4.899838817189142,Sushi Restaurant
94,52.35646953533381,4.900722847039734,19,7,4c7ffb672f1c236a63912243,Potala Sushi & Thai,52.356748,4.901695,Japanese Restaurant
95,52.35646953533381,4.900722847039734,19,8,4d0924d9cda254813bc53065,Sushi Wok Sonchi,52.35594330527463,4.900368065354704,Sushi Restaurant
96,52.35646953533381,4.900722847039734,19,9,562fc1cc498e72431dcd1075,Da Magda,52.356828,4.899656,Italian Restaurant
97,52.35646953533381,4.900722847039734,19,10,4fad3dabe4b027422cf840ce,Çiğköftem,52.3562050879452,4.90024192426568,Cigkofte Place
98,52.35646953533381,4.900722847039734,19,11,4c669906aebea5930a7573d0,Ersoy,52.355866,4.900525,Mediterranean Restaurant
99,52.35646953533381,4.900722847039734,19,12,5eba6a7d5812bd0007b61258,Rodja,52.356554,4.899949,Deli / Bodega
100,52.35646953533381,4.900722847039734,19,13,50b4f660e4b0fc92b3f6537b,kagetsu,52.3565692015032,4.89986930098121,Japanese Restaurant
101,52.35646953533381,4.900722847039734,19,14,5582fbd6498ee4c66a8984fd,Warung Mini,52.35686948918938,4.899660347457058,Cajun / Creole Restaurant
102,52.35646953533381,4.900722847039734,19,15,4c8b91322e333704d9fdcd41,La Dolce,52.355882,4.90038154,Mediterranean Restaurant
103,52.35646953533381,4.900722847039734,19,16,5059f4c4e4b0a3bd55f0793a,Roopram,52.35638921125872,4.900018282096357,South American Restaurant
104,52.35646953533381,4.900722847039734,19,17,57239dc0498ef3de59efe6ea,Chiapas Taco Cartel,52.35657481055178,4.8999075926604645,Burrito Place
105,52.35646953533381,4.900722847039734,19,18,5c0c0925a5a315002c7a1654,101 Gowrie,52.356491,4.899343,Dutch Restaurant
106,52.354208606001414,4.900722847039734,6,0,5d08e8ef7b0b520023730b1c,Nazka,52.3537502,4.9019057,Peruvian Restaurant
107,52.354208606001414,4.900722847039734,6,1,4a27088cf964a52013911fe3,Azmarino,52.354022768995584,4.899329791099864,Ethiopian Restaurant
108,52.354208606001414,4.900722847039734,6,2,513a17e6e4b08d57cd2d3346,Restaurant MOZO,52.354641,4.901573,Moroccan Restaurant
109,52.354208606001414,4.900722847039734,6,3,4bddadb8587b2d7f23a15409,Fatiem,52.35451582549394,4.901518130076518,Moroccan Restaurant
110,52.354208606001414,4.900722847039734,6,4,56acb5fa498eed4820830842,Noodles & More,52.354129,4.901854,Noodle House
111,52.354208606001414,4.900722847039734,6,5,5560aad9498e62cbad60124c,Tahra's Tapas Bar,52.354244232177734,4.901805877685547,Tapas Restaurant
112,52.36533907066761,4.8819604344631395,6,0,59cb63f950a6f0209c7bfce1,Umaimon,52.36464899374385,4.882639935709376,Ramen Restaurant
113,52.36533907066761,4.8819604344631395,6,1,5e58164b36507b0008f95948,Restaurant Gandhi,52.364895,4.883212,Indian Restaurant
114,52.36533907066761,4.8819604344631395,6,2,586fcba41e1de52825102f8e,Vietnamese Restaurant & Noodle Bar Pho,52.36467,4.882576,Vietnamese Restaurant
115,52.36533907066761,4.8819604344631395,6,3,4a270852f964a52044901fe3,Bombay Inn,52.36510274909614,4.882919008307246,Indian Restaurant
116,52.36533907066761,4.8819604344631395,6,4,4a27075bf964a520a78d1fe3,Akbar Indian Restaurant,52.365247204025835,4.881920755713727,Indian Restaurant
117,52.36533907066761,4.8819604344631395,6,5,4a270809f964a520918f1fe3,Maurya,52.364831,4.88247391,Indian Restaurant
118,52.36420860600141,4.880121515041444,3,0,4cf96d6ed7206ea8c9b23269,Grand Café DeLaMar,52.364445699378514,4.881027842811869,French Restaurant
119,52.36420860600141,4.880121515041444,3,1,59f32f70c47cf9709984cf95,The Food Stage,52.364623965189736,4.880850152657447,Food Truck
120,52.36420860600141,4.880121515041444,3,2,4d95fa70af3d236a0f8afec6,Trattoria Fantasia,52.364473687315105,4.8811034356028875,Italian Restaurant
121,52.366469535333806,4.883799353884835,4,0,4aa68993f964a5201c4a20e3,Casa Perù,52.366426,4.882981,Latin American Restaurant
122,52.366469535333806,4.883799353884835,4,1,5564c448498effbebd316cfd,Ron Gastrobar Oriental,52.365911489860316,4.884769384342688,Asian Restaurant
123,52.366469535333806,4.883799353884835,4,2,4a2707c1f964a520b38e1fe3,Pastini Trattoria,52.366612,4.884615,Italian Restaurant
124,52.366469535333806,4.883799353884835,4,3,535e8b0b11d27368b03b4ee7,HENK,52.366254,4.882392,Modern European Restaurant
125,52.36420860600141,4.883799353884835,50,0,55105ffe498e2cba788783f0,Sumo,52.363416216161106,4.883759271274172,Sushi Restaurant
126,52.36420860600141,4.883799353884835,50,1,59cb63f950a6f0209c7bfce1,Umaimon,52.36464899374385,4.882639935709376,Ramen Restaurant
127,52.36420860600141,4.883799353884835,50,2,4a270056f964a52016831fe3,Satellite Sportscafé,52.36408861338606,4.883443571625654,Sports Bar
128,52.36420860600141,4.883799353884835,50,3,5332b661498e2231c7159b77,Wurst & Schnitzelhaus,52.364560009027365,4.885031067724939,German Restaurant
129,52.36420860600141,4.883799353884835,50,4,51ec2c2a498e2236f65e12f9,Casa Di Sergio,52.36391885413719,4.883826862948625,Italian Restaurant
130,52.36420860600141,4.883799353884835,50,5,5c6c24f2ecb3ed0025efda90,Full Moon Garden,52.364660530207175,4.884052500128746,Chinese Restaurant
131,52.36420860600141,4.883799353884835,50,6,4a2705e4f964a5203d891fe3,De Kring,52.3635573966358,4.8834625361013595,French Restaurant
132,52.36420860600141,4.883799353884835,50,7,4a2707e2f964a5201a8f1fe3,Wok to Walk,52.36467652071543,4.883655931845822,Noodle House
133,52.36420860600141,4.883799353884835,50,8,4e592f72b993732579e521ac,El Vino,52.36388276439681,4.884800849248413,Mexican Restaurant
134,52.36420860600141,4.883799353884835,50,9,5c794c3975eee4002c13ba55,Fenicie Amsterdam,52.363505,4.883597,Lebanese Restaurant
135,52.36420860600141,4.883799353884835,50,10,5e58164b36507b0008f95948,Restaurant Gandhi,52.364895,4.883212,Indian Restaurant
136,52.36420860600141,4.883799353884835,50,11,4f22ab28e4b04b552389b14f,Braziliaans Grill Restaurant,52.364267,4.884151,Brazilian Restaurant
137,52.36420860600141,4.883799353884835,50,12,52374f6911d2c78a04e308ed,Steak House,52.363915581077414,4.883746520656842,Mexican Restaurant
138,52.36420860600141,4.883799353884835,50,13,54bfdaf0498e899b8de37632,Tokapi,52.364124108444514,4.884418375843811,Moroccan Restaurant
139,52.36420860600141,4.883799353884835,50,14,4bc60321db8fa5938c999b37,Street Food,52.36413131484836,4.884199620510064,Asian Restaurant
140,52.36420860600141,4.883799353884835,50,15,4e99cbb5f5b9d590044926ea,Ristorante Settebello,52.363763929664486,4.883911062436958,Italian Restaurant
141,52.36420860600141,4.883799353884835,50,16,4fb7f139e4b0d712566245e5,Bollywood Indian Restaurant,52.3639814390084,4.88460817142086,Indian Restaurant
142,52.36420860600141,4.883799353884835,50,17,4a27084bf964a52033901fe3,Pisa,52.36440565072917,4.883982753770888,Italian Restaurant
143,52.36420860600141,4.883799353884835,50,18,4a2707c9f964a520ce8e1fe3,O Sole Mio,52.364395979123515,4.884005556079686,Italian Restaurant
144,52.36420860600141,4.883799353884835,50,19,5dfe77f25ac68900084b3a2a,Restaurant Torre Di Pisa,52.36443,4.883933,Italian Restaurant
145,52.36420860600141,4.883799353884835,50,20,4a270841f964a52019901fe3,Maya's Steakhouse,52.36352271240678,4.884373096067683,Argentinian Restaurant
146,52.36420860600141,4.883799353884835,50,21,586fcba41e1de52825102f8e,Vietnamese Restaurant & Noodle Bar Pho,52.36467,4.882576,Vietnamese Restaurant
147,52.36420860600141,4.883799353884835,50,22,5776ae72498e283010a59dee,Maaz,52.364619,4.88363,Middle Eastern Restaurant
148,52.36420860600141,4.883799353884835,50,23,5c0ff15ee97dfb002c62d6ce,Saigon Càphê,52.364633,4.883796,Vietnamese Restaurant
149,52.36420860600141,4.883799353884835,50,24,4b96ad30f964a5204add34e3,Sumo,52.364479499244204,4.8827005741426035,Sushi Restaurant
150,52.36420860600141,4.883799353884835,50,25,4fc3a3fbe4b05c2ab9ba13a0,Waves Greek Restaurant,52.36429820720359,4.884184375613701,Greek Restaurant
151,52.36420860600141,4.883799353884835,50,26,53aafeaf498ecfb18ff07685,Matius,52.363792419433594,4.884040832519531,Mexican Restaurant
152,52.36420860600141,4.883799353884835,50,27,5a22e057c21cb1727d9aca58,De Molenwiek,52.363752767934734,4.884038139186758,Dutch Restaurant
153,52.36420860600141,4.883799353884835,50,28,4a27db3df964a520c6921fe3,Royal Thai Restaurant,52.36413350950855,4.884296498589584,Thai Restaurant
154,52.36420860600141,4.883799353884835,50,29,4a270872f964a520be901fe3,Pizza Pino,52.36404421094228,4.884506711438102,Pizza Place
155,52.36420860600141,4.883799353884835,50,30,4b9aefddf964a520dfe435e3,Crystal,52.364774398245544,4.884111693080079,Falafel Restaurant
156,52.36420860600141,4.883799353884835,50,31,54d3d636498e153e6ded6082,Elnino,52.363836,4.884798,Mexican Restaurant
157,52.36420860600141,4.883799353884835,50,32,5c683c31e55d8b002d941a82,Fenicie,52.36353,4.883544,Middle Eastern Restaurant
158,52.36420860600141,4.883799353884835,50,33,516727cee4b062682a3b03e9,Villa Maria Quality Steak,52.36402839092446,4.884576079197429,Argentinian Restaurant
159,52.36420860600141,4.883799353884835,50,34,5c1ac5bb66f3cd002cd5482e,Zero20,52.364314670069476,4.884281158447266,New American Restaurant
160,52.36420860600141,4.883799353884835,50,35,4a27088af964a52011911fe3,Do Brasil,52.364296658423626,4.884140278189767,Brazilian Restaurant
161,52.36420860600141,4.883799353884835,50,36,4e57c1c8b61c5534c2857d60,Tex-Mex,52.3637752482716,4.8848151093820835,Mexican Restaurant
162,52.36420860600141,4.883799353884835,50,37,4c2f342416adc928cb17bd9c,Casa Di Italiana,52.363525391254655,4.884315660798906,Italian Restaurant
163,52.36420860600141,4.883799353884835,50,38,5c8145b261f070002cc0be66,Amsterdam Wood Fired Pizza,52.364393,4.88502,Italian Restaurant
164,52.36420860600141,4.883799353884835,50,39,4a26fff0f964a52087811fe3,De Oesterbar,52.364488714788,4.882685823071586,French Restaurant
165,52.36420860600141,4.883799353884835,50,40,5287a210498eb77c7bfb5b55,crystal halal restaurant,52.364871978759766,4.884037017822266,Middle Eastern Restaurant
166,52.36420860600141,4.883799353884835,50,41,4b3bd2f6f964a520eb7b25e3,Rancho,52.364153,4.883752,Argentinian Restaurant
167,52.36420860600141,4.883799353884835,50,42,4a27db20f964a52020921fe3,Mai Thai,52.36370945245843,4.884094380158514,Thai Restaurant
168,52.36420860600141,4.883799353884835,50,43,58e4b300040d534c757d74bd,Brasserie Stadsschouwburg,52.364053,4.882678,Dutch Restaurant
169,52.36420860600141,4.883799353884835,50,44,4cc1b5725684a35db27eba0d,Bella Napoli,52.3642928319627,4.884238243103027,Italian Restaurant
170,52.36420860600141,4.883799353884835,50,45,4a270786f964a5201c8e1fe3,Turks Eethuis Restaurant Mesken 2,52.36471284,4.88338225,Turkish Restaurant
171,52.36420860600141,4.883799353884835,50,46,5d17d4bce324520023d9a837,Il Padrino,52.363854,4.883827,Italian Restaurant
172,52.36420860600141,4.883799353884835,50,47,4d583ebf1270236a3b939359,Circolo Amichi Del Buon Vino Italiano,52.3640711,4.8844668,Italian Restaurant
173,52.36420860600141,4.883799353884835,50,48,4e8ca71d6da188ea92cd5f01,Tandoor Indian Restaurant,52.36486535184139,4.883291347001035,Indian Restaurant
174,52.36420860600141,4.883799353884835,50,49,4a27db70f964a520d3931fe3,Puri Mas,52.364056355152265,4.88453223766456,Indonesian Restaurant
175,52.36533907066761,4.889316488613782,1,0,4a2703c5f964a5205a851fe3,Pasta e Basta,52.36479276284802,4.889898662061348,Italian Restaurant
176,52.36420860600141,4.887477569192087,1,0,56fc291a498e6283da35457a,restaurant peppino,52.36406,4.886551,Italian Restaurant
177,52.366469535333806,4.891155408035478,29,0,4d04d38337036dcbb22a13fb,Lion Noir,52.36650458142847,4.8903593925487225,French Restaurant
178,52.366469535333806,4.891155408035478,29,1,5a9d5f34a2a6ce58f7486eb8,Roses by SAL,52.366344032852176,4.891236581251886,Latin American Restaurant
179,52.366469535333806,4.891155408035478,29,2,5bb10f64364d97002c367e6a,Baibua Thai Eethuis,52.36654,4.891534,Thai Restaurant
180,52.366469535333806,4.891155408035478,29,3,4a2704bef964a52019861fe3,Downtown,52.36651991704449,4.890373976492423,Coffee Shop
181,52.366469535333806,4.891155408035478,29,4,4f92f9b6e4b0f08d3fca9fdf,Genki Garden,52.366454763881165,4.890224170761175,Sushi Restaurant
182,52.366469535333806,4.891155408035478,29,5,521f7c51498ec4571e1d26bb,Campo de' Fiori,52.36644488172689,4.890845385210585,Italian Restaurant
183,52.366469535333806,4.891155408035478,29,6,4a2707c4f964a520c18e1fe3,Sampurna,52.36694,4.890208,Indonesian Restaurant
184,52.366469535333806,4.891155408035478,29,7,4a27080af964a520978f1fe3,Sichuan Food,52.366485198370775,4.890520762325372,Chinese Restaurant
185,52.366469535333806,4.891155408035478,29,8,5d0f6acda8da6700231e1f75,La Fucina Bloemenmarkt,52.366553,4.891532,Italian Restaurant
186,52.366469535333806,4.891155408035478,29,9,5329ca52498ec677838e31fc,Genroku,52.36646432332977,4.890068480718668,Sushi Restaurant
187,52.366469535333806,4.891155408035478,29,10,4a27db2ff964a5206c921fe3,Amarylles,52.36691879725965,4.89217304482552,Spanish Restaurant
188,52.366469535333806,4.891155408035478,29,11,50b23a5ee4b06cad40ac1ce9,Pasta house,52.36673,4.8914,Italian Restaurant
189,52.366469535333806,4.891155408035478,29,12,4a27db20f964a5201f921fe3,La Margarita,52.3664114074053,4.891127315464646,Mexican Restaurant
190,52.366469535333806,4.891155408035478,29,13,4f6c698be4b07a4bc360aac4,Rimini,52.366519927978516,4.891713619232178,Middle Eastern Restaurant
191,52.366469535333806,4.891155408035478,29,14,4a27db19f964a520ea911fe3,Los Amigos,52.366347202084995,4.891571391396564,Argentinian Restaurant
192,52.366469535333806,4.891155408035478,29,15,4ecd30b346907179cbd53dfc,Asian King,52.36642185649256,4.891932538532796,Asian Restaurant
193,52.366469535333806,4.891155408035478,29,16,5bcdfcf59ba3e500390c2fa5,Pasta Factory,52.366335,4.890718,Italian Restaurant
194,52.366469535333806,4.891155408035478,29,17,5d8fb7bd7e19ea00086f54f7,middl•eat,52.366662,4.889941,Middle Eastern Restaurant
195,52.366469535333806,4.891155408035478,29,18,4c18a0a64ff90f476e9f0e49,La Mancha,52.366459912978314,4.8916682968868965,Spanish Restaurant
196,52.366469535333806,4.891155408035478,29,19,5b108a34bcbf7a002cc6eca3,Oztas Doner,52.366311,4.891358,Fast Food Restaurant
197,52.366469535333806,4.891155408035478,29,20,51bc9660498e45609877341d,Norling,52.36655480852178,4.890034374533278,Tibetan Restaurant
198,52.366469535333806,4.891155408035478,29,21,536bf531498e9544dac31368,Snappers,52.366586789236386,4.889970349109912,Cocktail Bar
199,52.366469535333806,4.891155408035478,29,22,4a27db0ef964a5208f911fe3,Garlic Queen,52.36651468313971,4.89019595022269,Mediterranean Restaurant
200,52.366469535333806,4.891155408035478,29,23,583d944dd60c8b0149eef650,Maydakookt,52.366709,4.890399,Arepa Restaurant
201,52.366469535333806,4.891155408035478,29,24,4efb7048f9ab2e6685926045,Dobson Uzcudun,52.366492434708576,4.89148250270284,Argentinian Restaurant
202,52.366469535333806,4.891155408035478,29,25,5aaa638a58aa7f222d0e0ab0,Bread and Salt,52.366629,4.891564,Middle Eastern Restaurant
203,52.366469535333806,4.891155408035478,29,26,4a2707eef964a5203e8f1fe3,Dynasty,52.366431659924835,4.890696916494039,Asian Restaurant
204,52.366469535333806,4.891155408035478,29,27,53399b02498eb26e1c41ae8d,Wok & Sushi,52.366597,4.891715,Sushi Restaurant
205,52.366469535333806,4.891155408035478,29,28,5b532e557564f7002c0f4c72,Maria To Go,52.366688,4.890501,South American Restaurant
206,52.36420860600141,4.891155408035478,1,0,588a4a6bd98f3662f273a6f5,Arepa Shop,52.364284,4.890396,Arepa Restaurant
207,52.3676,4.868715384615384,19,0,582052726401964ad521ce5a,Kanarie Club,52.36734814638268,4.867791407662048,Modern European Restaurant
208,52.3676,4.868715384615384,19,1,58021ac838fa3d88e7ba2740,Dim Sum Thing,52.367072187688024,4.86812208090694,Dim Sum Restaurant
209,52.3676,4.868715384615384,19,2,5e0506209264f8000761031b,Dutch Meat Ball Company,52.36683,4.868281,Dutch Restaurant
210,52.3676,4.868715384615384,19,3,575aeeab38fa14fba41f482c,Piccolo,52.367380269772696,4.868881560026436,Italian Restaurant
211,52.3676,4.868715384615384,19,4,537d1ce9498e956dc854a7fa,Remise47,52.36786783972519,4.868110623227936,Modern European Restaurant
212,52.3676,4.868715384615384,19,5,580289cdd67c533488cfa30b,FENTO,52.367074,4.868158,Mexican Restaurant
213,52.3676,4.868715384615384,19,6,54f20190498e6a39f0826695,Viet View,52.367014914654526,4.868158147667472,Vietnamese Restaurant
214,52.3676,4.868715384615384,19,7,5ce2b66716fa04002c510f37,Taqueria Lima,52.36694440796742,4.868240438050978,Mexican Restaurant
215,52.3676,4.868715384615384,19,8,57e7bac9498ebca3beecc8d0,filiz manti,52.367315,4.867578,Turkish Restaurant
216,52.3676,4.868715384615384,19,9,589efb9d84677a520ffa0230,Pita,52.367125,4.868034,Mediterranean Restaurant
217,52.3676,4.868715384615384,19,10,57f6853e498e592ab16dbf00,Sumthing,52.367123,4.8682833,Dim Sum Restaurant
218,52.3676,4.868715384615384,19,11,56223e8b498e8dfc37342794,Jabugo Bar Iberico,52.366815062205724,4.8683391395794535,Tapas Restaurant
219,52.3676,4.868715384615384,19,12,577ba09d498ec5cc1dba3aa5,Godfather's Kitchen,52.36692,4.8680496,Italian Restaurant
220,52.3676,4.868715384615384,19,13,5be6cfa886f4cc002c868127,Txosta,52.366909,4.868353,Tapas Restaurant
221,52.3676,4.868715384615384,19,14,552c02ed498e21e522dcc345,Shirkhan,52.36691882768561,4.868227758990727,Indian Restaurant
222,52.3676,4.868715384615384,19,15,55633c92498e62cbb3742b9a,Meneer Temaki,52.36697113590443,4.868212157952756,Sushi Restaurant
223,52.3676,4.868715384615384,19,16,5635f679498e6c1e166ad3ba,pasta di mama,52.36731207994449,4.868052665804112,Italian Restaurant
224,52.3676,4.868715384615384,19,17,5880ba8faf7d1738f0030b46,Great Catch,52.367043,4.8681436,Asian Restaurant
225,52.3676,4.868715384615384,19,18,54abcb10498eaa1a9deffbcc,De BallenBar,52.36704161731882,4.868137391202563,Dutch Restaurant
226,52.3687304646662,4.866876371077723,3,0,5308e326498eac93ff470ca1,Spaghetteria,52.368238993299144,4.866247590473278,Italian Restaurant
227,52.3687304646662,4.866876371077723,3,1,5d2b4550d0ae5e003087343f,Parakeet,52.368639500981345,4.865853041410446,Mexican Restaurant
228,52.3687304646662,4.866876371077723,3,2,57e03827498ee69b6d341fb1,Goulash Home,52.3681,4.866138,Hungarian Restaurant
229,52.366469535333806,4.866876371077723,9,0,51435f73e4b01d91e01a59ba,Himalayan Kitchen,52.36688930096444,4.866963506778168,Tibetan Restaurant
230,52.366469535333806,4.866876371077723,9,1,4e2992ef7d8b613361981b6b,Rustem,52.36611995583993,4.867440957145432,Indian Restaurant
231,52.366469535333806,4.866876371077723,9,2,577ba09d498ec5cc1dba3aa5,Godfather's Kitchen,52.36692,4.8680496,Italian Restaurant
232,52.366469535333806,4.866876371077723,9,3,4e202a7ac65b2b5e3538bf97,Döner House Isikogullari,52.36581274074348,4.867211580276489,Turkish Restaurant
233,52.366469535333806,4.866876371077723,9,4,544b977e498e7d4b1bb9fa01,Has Doner,52.36576948614203,4.866085676631871,Turkish Restaurant
234,52.366469535333806,4.866876371077723,9,5,4a270818f964a520a18f1fe3,Chong Kee,52.365804,4.866683,Asian Restaurant
235,52.366469535333806,4.866876371077723,9,6,59148f11ad910e51930c93f0,Thai Company,52.366091,4.868014,Thai Restaurant
236,52.366469535333806,4.866876371077723,9,7,4d94ce8f3048b1f79ede3964,Restaurant Madrid,52.367126,4.866547,Spanish Restaurant
237,52.366469535333806,4.866876371077723,9,8,4a2705c9f964a520d5881fe3,Warung Swietie,52.367107,4.866853,South American Restaurant
238,52.3687304646662,4.870554398153045,6,0,576c0aa2498eba1b9f6180dc,Baires,52.368945387454566,4.869848181127083,Empanada Restaurant
239,52.3687304646662,4.870554398153045,6,1,56c7734bcd10e7ee2a8402cf,Toko Bersama,52.368527820062965,4.871219439431209,Indonesian Restaurant
240,52.3687304646662,4.870554398153045,6,2,5184ce46498eb7d5098ba852,Portami Via,52.36839418042833,4.871180373542069,Italian Restaurant
241,52.3687304646662,4.870554398153045,6,3,5218cffabce66201f8b58207,Suri-Exquise,52.3683807436603,4.871084690093994,Caribbean Restaurant
242,52.3687304646662,4.870554398153045,6,4,569fe142498ed07305ad75c6,Rosetta's Kitchen,52.368477,4.871318,Italian Restaurant
243,52.3687304646662,4.870554398153045,6,5,5468fa7a498e482997479619,Bistro Döner,52.36824,4.871434,Turkish Restaurant
244,52.366469535333806,4.870554398153045,5,0,5e37117df142190008d46c74,Vegan Sushi Bar,52.366898,4.871502,Vegetarian / Vegan Restaurant
245,52.366469535333806,4.870554398153045,5,1,5d559d1c1137220008f102ba,Pho 91,52.366955,4.8716874,Vietnamese Restaurant
246,52.366469535333806,4.870554398153045,5,2,4ff85ce2e4b021ccc819aeec,Don Patatas,52.3669,4.8716,Caribbean Restaurant
247,52.366469535333806,4.870554398153045,5,3,4a270500f964a520b8861fe3,Marmara,52.36668191539618,4.870039511918556,Turkish Restaurant
248,52.366469535333806,4.870554398153045,5,4,5df123a17275f80008a8092b,Pad Thai,52.366467,4.869438,Thai Restaurant
249,52.3698609293324,4.889316488613782,15,0,4a270806f964a520858f1fe3,Kantjil & de Tijger,52.369158383226605,4.889121253766562,Indonesian Restaurant
250,52.3698609293324,4.889316488613782,15,1,4a2703dbf964a520a2851fe3,Haesje Claes,52.3698402,4.8891781,Dutch Restaurant
251,52.3698609293324,4.889316488613782,15,2,4a26ff8ff964a5202c801fe3,Dante Kitchen & Bar,52.36905913504806,4.888681554369117,Italian Restaurant
252,52.3698609293324,4.889316488613782,15,3,54103c52498e888bed7998ef,Verbijsterend Kookschool en Private Dinning,52.3700583543253,4.88855653652472,French Restaurant
253,52.3698609293324,4.889316488613782,15,4,4fa9335de4b0ad11ded3be27,Los Santos,52.36939944183718,4.888878759002617,Argentinian Restaurant
254,52.3698609293324,4.889316488613782,15,5,5e550b7578ee900008bc626e,Little Brazil,52.370196,4.888581,Brazilian Restaurant
255,52.3698609293324,4.889316488613782,15,6,5babb33e345cbe002c852760,Hanoi Old Quarter,52.370308,4.8895106,Vietnamese Restaurant
256,52.3698609293324,4.889316488613782,15,7,4cc1ce4e914137047cbcaf55,La Piccola Trattoria,52.36901903860058,4.889287324127021,Italian Restaurant
257,52.3698609293324,4.889316488613782,15,8,4b8ad17df964a520248332e3,Kantjil To Go,52.36908399181781,4.889314121164516,Indonesian Restaurant
258,52.3698609293324,4.889316488613782,15,9,4de8e4a1d1648c97963d8924,New Asian,52.369072,4.888828,Asian Restaurant
259,52.3698609293324,4.889316488613782,15,10,59c15ada66f3cd5089525ae8,Bistro De Struisvogel,52.370365,4.890045,Dutch Restaurant
260,52.3698609293324,4.889316488613782,15,11,4a27db50f964a5201d931fe3,Huiskamerrestaurant Kookerij De Singel,52.370244417597235,4.8885029554367065,Mediterranean Restaurant
261,52.3698609293324,4.889316488613782,15,12,574df728498e459bfcd54856,Grekas Griekse Traiterie,52.3703786,4.888597400000001,Greek Restaurant
262,52.3698609293324,4.889316488613782,15,13,4bf5681ae5eba5939bba2090,Grekas Greek Deli,52.370364247434345,4.888161055893438,Greek Restaurant
263,52.3698609293324,4.889316488613782,15,14,4a27db46f964a520fd921fe3,Trattoria Caprese,52.3703070200966,4.889072533602221,Italian Restaurant
264,52.370991393998594,4.887477380947658,3,0,561fee76498effadeb6cbb7e,Indonesian Kitchen,52.37090056033015,4.886964938325078,Indonesian Restaurant
265,52.370991393998594,4.887477380947658,3,1,50feb90ce4b0870dc064332e,W+K All Agency Mtg,52.371424,4.886875,Dim Sum Restaurant
266,52.370991393998594,4.887477380947658,3,2,4bf5681ae5eba5939bba2090,Grekas Greek Deli,52.370364247434345,4.888161055893438,Greek Restaurant
267,52.3687304646662,4.887477380947658,11,0,58387e93a6118c60b583b341,The Lebanese Sajeria,52.36875648205039,4.887505185286836,Lebanese Restaurant
268,52.3687304646662,4.887477380947658,11,1,4a2707a1f964a520738e1fe3,Casa di David,52.36843995727509,4.887874498405346,Italian Restaurant
269,52.3687304646662,4.887477380947658,11,2,56195619498e8c61daae7a67,Brasserie Ambassade,52.369288,4.887159,French Restaurant
270,52.3687304646662,4.887477380947658,11,3,4a26ff8ff964a5202c801fe3,Dante Kitchen & Bar,52.36905913504806,4.888681554369117,Italian Restaurant
271,52.3687304646662,4.887477380947658,11,4,4a27033ff964a520e0841fe3,Tapas bar Català,52.369013116327785,4.888797774133406,Tapas Restaurant
272,52.3687304646662,4.887477380947658,11,5,53aab3c9498e19106dbd52a7,Caffè Milano,52.36887126508515,4.888519985071146,Italian Restaurant
273,52.3687304646662,4.887477380947658,11,6,599d730cdee77055bd347153,welcome to italy,52.369125,4.888205,Italian Restaurant
274,52.3687304646662,4.887477380947658,11,7,4de8e4a1d1648c97963d8924,New Asian,52.369072,4.888828,Asian Restaurant
275,52.3687304646662,4.887477380947658,11,8,54de8572498e42d62ff8a635,de Paki,52.368938,4.888837,Afghan Restaurant
276,52.3687304646662,4.887477380947658,11,9,4a2707dbf964a520088f1fe3,Beulings,52.36803114505354,4.887702860702847,French Restaurant
277,52.3687304646662,4.887477380947658,11,10,4a2707d0f964a520e68e1fe3,Pianeta Terra,52.36805516881032,4.8879344846954735,Italian Restaurant
278,52.370991393998594,4.891155596279907,2,0,4a27db14f964a520bb911fe3,La Tosca,52.371003,4.89071,Italian Restaurant
279,52.370991393998594,4.891155596279907,2,1,4a27086cf964a520a8901fe3,Yun Zhong,52.371389,4.890187,Chinese Restaurant
280,52.3687304646662,4.891155596279907,12,0,4db199c8cda14b702a4896d4,Rancho,52.368948,4.891319,Argentinian Restaurant
281,52.3687304646662,4.891155596279907,12,1,5de24f46d02cb90007c2e3be,Pancakes Amsterdam,52.3691308,4.8913775,Dutch Restaurant
282,52.3687304646662,4.891155596279907,12,2,4a27db6ef964a520ca931fe3,Vasso,52.3691209499392,4.89041961453549,Italian Restaurant
283,52.3687304646662,4.891155596279907,12,3,57050355498e4aa7acb1025b,Ling's wok,52.369354,4.891693,Asian Restaurant
284,52.3687304646662,4.891155596279907,12,4,4a27db39f964a520ab921fe3,Alberto's,52.36900474495115,4.891349765312104,Steakhouse
285,52.3687304646662,4.891155596279907,12,5,5956a106178a2a234abd1692,Wok 2 Home,52.368076,4.8908377,Asian Restaurant
286,52.3687304646662,4.891155596279907,12,6,4dab15cc1e72c1ab9c023e4f,Dakterras La Margharita,52.369043,4.89246,Mexican Restaurant
287,52.3687304646662,4.891155596279907,12,7,4a270881f964a520f9901fe3,Ristorante Italiano Maria,52.36842512182119,4.89242543860245,Italian Restaurant
288,52.3687304646662,4.891155596279907,12,8,4a27db1cf964a520fb911fe3,Sushi,52.3691992433258,4.891868147755,Sushi Restaurant
289,52.3687304646662,4.891155596279907,12,9,52ee3ae7498e015e74e4771a,Wok Snack Chinese Food,52.36931319921103,4.891921876678979,Chinese Restaurant
290,52.3687304646662,4.891155596279907,12,10,5c8d38ee1ffed7002cbcfaa9,silom,52.367965,4.891086,Thai Restaurant
291,52.3687304646662,4.891155596279907,12,11,5c5748e951950e002cc2204f,The Chicken Bar,52.368134,4.89057,American Restaurant
292,52.375339070667614,4.8988826785440835,33,0,5193c714498e2de7c04d4809,Pasta Pasta,52.37542258707073,4.898268438021975,Italian Restaurant
293,52.375339070667614,4.8988826785440835,33,1,589e02069435a916784033d7,Sham,52.375879500203,4.898355853378996,Middle Eastern Restaurant
294,52.375339070667614,4.8988826785440835,33,2,4a270844f964a52022901fe3,China Sichuan Restaurant,52.37595896101101,4.899093208915664,Szechuan Restaurant
295,52.375339070667614,4.8988826785440835,33,3,4a27083af964a52000901fe3,New Season,52.37557609146913,4.898473543570862,Chinese Restaurant
296,52.375339070667614,4.8988826785440835,33,4,5ca8f99c1f7440002d1d45e5,Bella Roma,52.374838,4.898934,Italian Restaurant
297,52.375339070667614,4.8988826785440835,33,5,5b6c36ba28374e002c8c5121,De Pael Brewery,52.375528,4.899518,Gastropub
298,52.375339070667614,4.8988826785440835,33,6,5de82ecc6750ab00086b4341,Churros & Crepes,52.375171,4.897979,Belgian Restaurant
299,52.375339070667614,4.8988826785440835,33,7,4e2445ccc65b2b5e35629ad1,Kamasutra,52.37510828952715,4.898458507612439,Indian Restaurant
300,52.375339070667614,4.8988826785440835,33,8,4a27084cf964a52036901fe3,Argentinos San Thomas - WS,52.37611306335646,4.899464695949128,Argentinian Restaurant
301,52.375339070667614,4.8988826785440835,33,9,51701eaae4b04f4fec4dc173,New king zeedijk,52.37507800592068,4.899347918213445,Asian Restaurant
302,52.375339070667614,4.8988826785440835,33,10,4d1b541111fca093c43a9dce,Da Giorgio,52.375731499063875,4.898478606387667,Italian Restaurant
303,52.375339070667614,4.8988826785440835,33,11,4a27db1cf964a52000921fe3,Tango,52.37536931991125,4.898223870792485,Argentinian Restaurant
304,52.375339070667614,4.8988826785440835,33,12,4a27db56f964a5203c931fe3,Restaurant La Paella,52.37554314370049,4.898453296200548,Paella Restaurant
305,52.375339070667614,4.8988826785440835,33,13,560af1fb498e89dc965e8143,Wok Inn,52.37523431906288,4.897739386678147,Cantonese Restaurant
306,52.375339070667614,4.8988826785440835,33,14,4bec3d9ea9900f47e4c51840,Rodizio.nl,52.37491,4.900132,Brazilian Restaurant
307,52.375339070667614,4.8988826785440835,33,15,4a27db0ff964a52095911fe3,Kamasutra,52.37511033759884,4.898471509527398,Indian Restaurant
308,52.375339070667614,4.8988826785440835,33,16,4a270857f964a5205e901fe3,Aneka Rasa,52.37581148146688,4.898817028596447,Indonesian Restaurant
309,52.375339070667614,4.8988826785440835,33,17,4fbfd2a5e4b0bb0731d5f954,Spiritz4,52.37501278729669,4.898634409131312,Mexican Restaurant
310,52.375339070667614,4.8988826785440835,33,18,4c531543479fc928e743e890,Argentinian Grill Restaurant,52.37564783965004,4.89890546868502,Argentinian Restaurant
311,52.375339070667614,4.8988826785440835,33,19,4a27006df964a5206a831fe3,Mekhong River,52.375237787749136,4.899682509549149,Bar
312,52.375339070667614,4.8988826785440835,33,20,4ced504c7b943704b31f2653,Olivar,52.37554669567444,4.900064824119103,Tapas Restaurant
313,52.375339070667614,4.8988826785440835,33,21,504e3b17e4b086b599a1ac11,Bosporus Pizzeria-Ristorante,52.374977,4.898947,Italian Restaurant
314,52.375339070667614,4.8988826785440835,33,22,4a2703c8f964a52062851fe3,"Restaurant ""Manolo""",52.376081,4.899065314285714,Spanish Restaurant
315,52.375339070667614,4.8988826785440835,33,23,59d92a45a4b51b3d780ab979,Xampanyeria Centra,52.37487050907747,4.8991459608078,Tapas Restaurant
316,52.375339070667614,4.8988826785440835,33,24,508c23f8e4b09f7bb96b0081,San Tommaso - WS,52.376115977455875,4.89924699844992,Italian Restaurant
317,52.375339070667614,4.8988826785440835,33,25,57712b13498e8fac344d8c4b,Hong Kong Kitchen,52.37493121164721,4.898907056089867,Cantonese Restaurant
318,52.375339070667614,4.8988826785440835,33,26,4a270893f964a52024911fe3,Tibet Restaurant,52.37483368223459,4.899033515464521,Tibetan Restaurant
319,52.375339070667614,4.8988826785440835,33,27,4f9c1ce5e4b0e868c27e84b9,Ancho,52.375664,4.898752,Argentinian Restaurant
320,52.375339070667614,4.8988826785440835,33,28,4a2707f1f964a5204a8f1fe3,Shoarma Teddy,52.374776,4.898907,Middle Eastern Restaurant
321,52.375339070667614,4.8988826785440835,33,29,5e52772135835a0008949dd5,Argentango steakhouse,52.374925,4.898684,Argentinian Restaurant
322,52.375339070667614,4.8988826785440835,33,30,4a2703cff964a5207c851fe3,Pacifico,52.37571381903727,4.898728963433145,Mexican Restaurant
323,52.375339070667614,4.8988826785440835,33,31,5814b31a38faeaa041f895c6,Grizzly,52.37521736797249,4.8978065896445,New American Restaurant
324,52.375339070667614,4.8988826785440835,33,32,4a27db0ff964a52096911fe3,De Kooning van Siam,52.374904142452976,4.89946734203632,Thai Restaurant
325,52.37646953533381,4.897043342756617,12,0,56ffc217cd10d4a79807100a,Bravi Ragazzi,52.37587237284519,4.896576267849065,Italian Restaurant
326,52.37646953533381,4.897043342756617,12,1,4c5ebda794fd0f478beace45,Pastabar,52.376518317007275,4.897432239315534,Italian Restaurant
327,52.37646953533381,4.897043342756617,12,2,4a27087bf964a520e5901fe3,Marco Polo,52.37602479919688,4.896817129967837,Italian Restaurant
328,52.37646953533381,4.897043342756617,12,3,59bbc557bcbf7a6bb6bc6ed5,Italiaans Restaurant San Abram,52.376637,4.896413,Italian Restaurant
329,52.37646953533381,4.897043342756617,12,4,4cf14b1f7e0da1cd37ae9097,Nieuwendijk,52.376342139825056,4.895914741487244,Chinese Restaurant
330,52.37646953533381,4.897043342756617,12,5,5b3e13ddc4404e001cf34e84,Smaak Versterker,52.377126,4.896184,Caribbean Restaurant
331,52.37646953533381,4.897043342756617,12,6,4e8c891355037f60ca849cad,Warung JW,52.376978,4.897058,Asian Restaurant
332,52.37646953533381,4.897043342756617,12,7,581f016e6401964ad59334d5,Tutto Food,52.376558,4.896295,Italian Restaurant
333,52.37646953533381,4.897043342756617,12,8,4dc0771a5da3c1af51100767,Kabab House,52.37591304070472,4.896106026765762,Doner Restaurant
334,52.37646953533381,4.897043342756617,12,9,51f3b8d0498ed6b9c70fb2b5,Il Pacioccone,52.37649941924858,4.89562229038751,Italian Restaurant
335,52.37646953533381,4.897043342756617,12,10,4cb93f09adcd548132a31ba2,Allstars,52.37593438842052,4.896786974601052,Argentinian Restaurant
336,52.37646953533381,4.897043342756617,12,11,506db1d5e4b0f42ca37655a9,Haci Baba,52.376953,4.897128,Doner Restaurant
337,52.37420860600142,4.897043342756617,7,0,4c0e2158adcd9c74cba402f6,Wok to Walk,52.374750953594024,4.897328389729821,Asian Restaurant
338,52.37420860600142,4.897043342756617,7,1,525d76ca498ea24929aa976f,Mevlana Döner,52.374088,4.897376,Turkish Restaurant
339,52.37420860600142,4.897043342756617,7,2,54a7dbe0498ea669864e7459,Caffè Italia,52.37457136414534,4.89708771696898,Italian Restaurant
340,52.37420860600142,4.897043342756617,7,3,58a1ef974f417a34e462b3ff,Damskoe,52.374159,4.897875,African Restaurant
341,52.37420860600142,4.897043342756617,7,4,5028f6a5e4b030d4edc51a93,Wijnkaart Restaurant Mendoza,52.37404317563911,4.8965401006107765,Argentinian Restaurant
342,52.37420860600142,4.897043342756617,7,5,5814e65d38fa0816c57ab795,cafe d'italie 93,52.374509,4.897154,Italian Restaurant
343,52.37420860600142,4.897043342756617,7,6,52ee621411d23672f42b84c6,Amsterdam Büyükşehir Belediyesi Sosyal Tesisleri,52.37451542016466,4.897309823003926,Turkish Restaurant
344,52.37646953533381,4.90072201433155,15,0,5c4e00d9840fc2002c7cda7f,Ramen Kingdom,52.376749,4.901552,Ramen Restaurant
345,52.37646953533381,4.90072201433155,15,1,4b599470f964a520698d28e3,Vermeer,52.376668800320914,4.90045354006153,French Restaurant
346,52.37646953533381,4.90072201433155,15,2,4ffb4b11e4b0283dcd721ec9,Dabka,52.37594023747345,4.900792562709549,Middle Eastern Restaurant
347,52.37646953533381,4.90072201433155,15,3,4a27db80f964a52028941fe3,Kam Yin,52.376399064429584,4.899353814135657,Chinese Restaurant
348,52.37646953533381,4.90072201433155,15,4,4a27084cf964a52036901fe3,Argentinos San Thomas - WS,52.37611306335646,4.899464695949128,Argentinian Restaurant
349,52.37646953533381,4.90072201433155,15,5,4c02a59f0d0e0f47e768019a,Grillhouse,52.3763235,4.9013995,Argentinian Restaurant
350,52.37646953533381,4.90072201433155,15,6,5ccd668d4a1cc00039f8ece2,Naylor's,52.376668800320914,4.90045354006153,French Restaurant
351,52.37646953533381,4.90072201433155,15,7,4c361abf0a71c9b66d8f3cc9,cafe versailles,52.376902,4.901421,Moroccan Restaurant
352,52.37646953533381,4.90072201433155,15,8,580b840138fa69fff102bf2e,Mister Meatball,52.37590701463164,4.900036454200745,Dutch Restaurant
353,52.37646953533381,4.90072201433155,15,9,4fbfe097e4b0117b7303dca9,In de Keuken bij Vermeer,52.37636623515424,4.9005576324903,French Restaurant
354,52.37646953533381,4.90072201433155,15,10,4a27085df964a52073901fe3,Grieks Rstaurant Thalassa,52.375879,4.900678,Greek Restaurant
355,52.37646953533381,4.90072201433155,15,11,4a27db40f964a520da921fe3,Al Argentino,52.37565463084559,4.9007859579206245,Argentinian Restaurant
356,52.37646953533381,4.90072201433155,15,12,4e1b4462aeb75c8b520d70a5,Kam Mee Chinees Restaurant,52.376108982919526,4.900596359450817,Chinese Restaurant
357,52.37646953533381,4.90072201433155,15,13,4a27003af964a520c4821fe3,Casablanca Variété,52.37557310836147,4.9007772384348005,French Restaurant
358,52.37646953533381,4.90072201433155,15,14,5478e684498e0910b5915430,T Kelderke,52.375892,4.901678,Belgian Restaurant
359,52.37420860600142,4.90072201433155,42,0,4f707285e4b03b575ed77f23,Mata Hari,52.37454854921772,4.900176632761354,Mediterranean Restaurant
360,52.37420860600142,4.90072201433155,42,1,5d8fa9bc3b659800086a4502,Bird Thais Restaurant,52.374596,4.900457,Thai Restaurant
361,52.37420860600142,4.90072201433155,42,2,4a2707c8f964a520c78e1fe3,New King,52.373592111315155,4.9002842900895525,Chinese Restaurant
362,52.37420860600142,4.90072201433155,42,3,5772a8d0498e387fd0db0169,Thaise Snackbar Bird,52.37458225036672,4.900604241377973,Thai Restaurant
363,52.37420860600142,4.90072201433155,42,4,4a2707aef964a5208f8e1fe3,Nam Kee,52.37371122792227,4.900345037675095,Chinese Restaurant
364,52.37420860600142,4.90072201433155,42,5,4a270820f964a520b98f1fe3,Hoi Tin,52.373470756627555,4.900077194603488,Chinese Restaurant
365,52.37420860600142,4.90072201433155,42,6,4a2707a0f964a5206f8e1fe3,Eat Mode,52.3738394179958,4.900307177997245,Asian Restaurant
366,52.37420860600142,4.90072201433155,42,7,5bcded88b9b37b0039692a69,Vatten Ramen,52.375052,4.900811,Ramen Restaurant
367,52.37420860600142,4.90072201433155,42,8,4b06f081f964a52098f322e3,OCHA,52.37402436900276,4.901682513396316,Thai Restaurant
368,52.37420860600142,4.90072201433155,42,9,5331e286498e8854d473aa7d,Little Saigon,52.37423856104408,4.900407709084858,Vietnamese Restaurant
369,52.37420860600142,4.90072201433155,42,10,4a85f650f964a520d6ff1fe3,Sanda,52.373993251604894,4.900227697486465,Karaoke Bar
370,52.37420860600142,4.90072201433155,42,11,539dcabb498e1bf851a85f23,Piccolo Mondo,52.37408499370375,4.901513117040572,Italian Restaurant
371,52.37420860600142,4.90072201433155,42,12,558f0fb8498ec62492432a4c,Cucina Divina,52.374183,4.900305,Italian Restaurant
372,52.37420860600142,4.90072201433155,42,13,4a27db5cf964a52063931fe3,Dim Sum King,52.37431631005065,4.900585431443707,Asian Restaurant
373,52.37420860600142,4.90072201433155,42,14,51e9aabb498e32e3c3f8bcf5,Del Posto,52.37348082790036,4.900183821099918,Italian Restaurant
374,52.37420860600142,4.90072201433155,42,15,5cb24bba356b49002cc842ac,The Turkish Grill,52.373521,4.900015,Turkish Restaurant
375,52.37420860600142,4.90072201433155,42,16,4a2707fcf964a520628f1fe3,Wing Kee,52.3744313181618,4.900423273274656,Chinese Restaurant
376,52.37420860600142,4.90072201433155,42,17,4bb7992a98c7ef3b26093002,Welcome,52.374947384453655,4.900984602836246,Vietnamese Restaurant
377,52.37420860600142,4.90072201433155,42,18,5be2d4ed1af8520039a4f79e,Plank 69,52.37471,4.9008923,Sandwich Place
378,52.37420860600142,4.90072201433155,42,19,4bec3d9ea9900f47e4c51840,Rodizio.nl,52.37491,4.900132,Brazilian Restaurant
379,52.37420860600142,4.90072201433155,42,20,50e5cb0ce4b08ec8fcd017fb,Stephie's plaza,52.373913,4.900202,Asian Restaurant
380,52.37420860600142,4.90072201433155,42,21,5075a1c1e4b05f253de6913f,Kam Kee,52.37392199838857,4.900446784273801,Chinese Restaurant
381,52.37420860600142,4.90072201433155,42,22,5d061661bf5e0e0023acb6ca,Isabella Pizza-Grill,52.374329,4.900487,Argentinian Restaurant
382,52.37420860600142,4.90072201433155,42,23,4ea08be4dab4b59126ce3f94,Maria,52.37504072861051,4.901011285099136,Argentinian Restaurant
383,52.37420860600142,4.90072201433155,42,24,576d62b4498e6907ad9798f2,China Sichuan Restaurant,52.37382,4.900303,Szechuan Restaurant
384,52.37420860600142,4.90072201433155,42,25,5d84bd0b903bdb0007705942,Dun Yong Lunchroom,52.374302,4.900939,Ramen Restaurant
385,52.37420860600142,4.90072201433155,42,26,50b144a0e4b0823457b85083,La Vida Argentinian Steakhouse,52.37407493005288,4.900326656187147,Argentinian Restaurant
386,52.37420860600142,4.90072201433155,42,27,5c9e5acd838e59002ca99b47,Pad Thai,52.373516,4.900168,Thai Restaurant
387,52.37420860600142,4.90072201433155,42,28,5e4b124d1efa0d00081908eb,Hot and Hot Hot Pot Amsterdam Chinatown 沸腾三国阿明唐人街店,52.374932,4.901016,Chinese Restaurant
388,52.37420860600142,4.90072201433155,42,29,5686729a498e4c2af3eff03a,Santa Vergine Italiaans Restaurant,52.37486670123443,4.900846239640651,Italian Restaurant
389,52.37420860600142,4.90072201433155,42,30,4a2703c7f964a52060851fe3,Looks Restaurant,52.37394045644376,4.901970104017863,French Restaurant
390,52.37420860600142,4.90072201433155,42,31,4a2707c9f964a520c98e1fe3,Il Mare,52.37483703732983,4.900789494346311,Italian Restaurant
391,52.37420860600142,4.90072201433155,42,32,4f15e11de4b0865b0c063fec,Vietnamees Restaurant 'Welcome',52.37487674498816,4.901426985876995,Vietnamese Restaurant
392,52.37420860600142,4.90072201433155,42,33,4a27db3bf964a520bb921fe3,Azzurro,52.37503651966065,4.900802831170655,Italian Restaurant
393,52.37420860600142,4.90072201433155,42,34,4d0cb55f257d6dcb06399767,La Brasa,52.374094,4.900369,Argentinian Restaurant
394,52.37420860600142,4.90072201433155,42,35,4e4015fd2271d21e8717b6f9,Sushi Cafe,52.374141254125355,4.9003108640933375,Sushi Restaurant
395,52.37420860600142,4.90072201433155,42,36,57374cfbcd10b91a64975e71,Il Peperoncino,52.37416,4.9002857,Italian Restaurant
396,52.37420860600142,4.90072201433155,42,37,544410d2498e6255f15203c2,Hong Kee,52.3739013671875,4.900269985198975,Asian Restaurant
397,52.37420860600142,4.90072201433155,42,38,4a270859f964a52064901fe3,Dim Sum Court,52.37370684562869,4.900257529426658,Dim Sum Restaurant
398,52.37420860600142,4.90072201433155,42,39,51b9e447498e3b7c16917630,Daily Sushi,52.3747295456451,4.900818922650858,Sushi Restaurant
399,52.37420860600142,4.90072201433155,42,40,4be31951f07b0f47ca15f743,Soytasty,52.374717,4.90076908,Sushi Restaurant
400,52.37420860600142,4.90072201433155,42,41,4a270050f964a520fb821fe3,Lime,52.37388449071606,4.900251333154724,Cocktail Bar
