,lat_centre,long_centre,num_venues,venue_iter,venue_id,venue_name,lat_venue,long_venue,category
0,52.357600000000005,4.885638461538461,5,0,5d4ef97648faba0008ba9b3b,Isshin,52.35705,4.888673,Japanese Restaurant
1,52.357600000000005,4.885638461538461,5,1,4a27db23f964a5202e921fe3,Zen,52.35703855458401,4.888798197883849,Japanese Restaurant
2,52.357600000000005,4.885638461538461,5,2,4a270775f964a520e38d1fe3,Le Restaurant Amsterdam,52.357762,4.88886,French Restaurant
3,52.357600000000005,4.885638461538461,5,3,584367295da8f471f28f4fb2,Cafe Caron,52.357442594062086,4.888850122594896,French Restaurant
4,52.357600000000005,4.885638461538461,5,4,52b2f6b511d21e07f871f4ea,Brasserie Winters,52.35874996297449,4.883401393890381,Brasserie
5,52.3598609293324,4.881961266816281,9,0,4a954c2ef964a520e02220e3,MOMO,52.36159735761838,4.882536682506547,Asian Restaurant
6,52.3598609293324,4.881961266816281,9,1,4eff57b90e01089c552b0130,Conservatorium Brasserie & Lounge,52.35860584260839,4.879009585292059,French Restaurant
7,52.3598609293324,4.881961266816281,9,2,544a8c1d498ecb0abc89361a,Taiko,52.35846378294343,4.879264862943597,Asian Restaurant
8,52.3598609293324,4.881961266816281,9,3,4ecbd086722efb00f8b735c7,Keuken V,52.3585918,4.8796961,African Restaurant
9,52.3598609293324,4.881961266816281,9,4,4a270780f964a520fb8d1fe3,Srikandi,52.361683610887965,4.88366800291648,Indonesian Restaurant
10,52.3598609293324,4.881961266816281,9,5,52b2f6b511d21e07f871f4ea,Brasserie Winters,52.35874996297449,4.883401393890381,Brasserie
11,52.3598609293324,4.881961266816281,9,6,4ce859738ef78cfadae2999b,Speak Easy about the fabulous Martini,52.36005127429962,4.880081,Cocktail Bar
12,52.3598609293324,4.881961266816281,9,7,53b6ddb7498ecca74338db18,WuSH,52.360547561763454,4.885165689230327,German Restaurant
13,52.3598609293324,4.881961266816281,9,8,57af4d69498e264dfcde689a,sama sebo,52.36079249766098,4.883040900869383,Indonesian Restaurant
14,52.35533907066761,4.881961266816281,13,0,4acb1ca0f964a52042c320e3,Renzo's Delicatessen,52.3549277,4.8810932,Deli / Bodega
15,52.35533907066761,4.881961266816281,13,1,4a27089af964a52041911fe3,Solo Eten & Drinken,52.3561997940526,4.880129843307251,Mediterranean Restaurant
16,52.35533907066761,4.881961266816281,13,2,4a2704a6f964a520d9851fe3,Brasserie Bark,52.35530810292323,4.880465408873005,Seafood Restaurant
17,52.35533907066761,4.881961266816281,13,3,4a2703d1f964a52085851fe3,L'Entrecôte et les Dames,52.355733447825806,4.880336265364196,French Restaurant
18,52.35533907066761,4.881961266816281,13,4,4d90a94aca75b60ce1002da9,"Restaurant ""Le Garage""",52.3540138,4.8830406,French Restaurant
19,52.35533907066761,4.881961266816281,13,5,4e1dc395d1640dd252091108,Robeco Zomerrestaurant,52.356272546435186,4.8786490503218385,French Restaurant
20,52.35533907066761,4.881961266816281,13,6,5cf40a28270ee7002c624573,Restaurant Lier,52.355735,4.879255,Modern European Restaurant
21,52.35533907066761,4.881961266816281,13,7,4a270806f964a520868f1fe3,Nieuw Peking,52.35353426941397,4.881749862356773,Chinese Restaurant
22,52.35533907066761,4.881961266816281,13,8,4a27db1ff964a52018921fe3,No Sushi,52.3540746741991,4.8817116022109985,Sushi Restaurant
23,52.35533907066761,4.881961266816281,13,9,4a2707c1f964a520b58e1fe3,Brasserie van Baerle,52.35389188289831,4.881481972297855,French Restaurant
24,52.35533907066761,4.881961266816281,13,10,5e0a5342e4e2230008daf21e,Sita Djanoko,52.355179,4.880824,Indian Restaurant
25,52.35533907066761,4.881961266816281,13,11,4bc9c6f7511f95214731aec7,Scalla della Pasta,52.355247780068524,4.885567542757104,Italian Restaurant
26,52.35533907066761,4.881961266816281,13,12,4a270779f964a520e98d1fe3,Sita Djanoko,52.35506907450535,4.881024956703186,Himalayan Restaurant
27,52.3598609293324,4.889315656260641,15,0,4a27080cf964a5209b8f1fe3,Levant,52.360947196232885,4.887000995388796,Turkish Restaurant
28,52.3598609293324,4.889315656260641,15,1,4a2707b1f964a520978e1fe3,Otaru,52.35858591622102,4.889019077468404,Sushi Restaurant
29,52.3598609293324,4.889315656260641,15,2,4cb72c5156fca1cd6f9d5b18,Trattoria That's Amore,52.361604449698575,4.891518098100221,Italian Restaurant
30,52.3598609293324,4.889315656260641,15,3,5c4b051e00b068002d1a2e76,Restaurant Watergang,52.361031,4.888751,French Restaurant
31,52.3598609293324,4.889315656260641,15,4,5cc3fe7f8c812a002cca9631,Proper Indofood,52.360779,4.891505,Indonesian Restaurant
32,52.3598609293324,4.889315656260641,15,5,4dc331d82271f27050f4e680,Doner Company,52.357982,4.8913298,Doner Restaurant
33,52.3598609293324,4.889315656260641,15,6,4a27076cf964a520c98d1fe3,Van Vlaanderen,52.359765746070686,4.892379978693131,French Restaurant
34,52.3598609293324,4.889315656260641,15,7,4e63be60e4cdf1e2bfdbed99,Curry Company,52.35804498195648,4.891233444213867,Indian Restaurant
35,52.3598609293324,4.889315656260641,15,8,4a270775f964a520e38d1fe3,Le Restaurant Amsterdam,52.357762,4.88886,French Restaurant
36,52.3598609293324,4.889315656260641,15,9,52e03792498e93099ff91be5,L'Ozio,52.3582,4.8892,Italian Restaurant
37,52.3598609293324,4.889315656260641,15,10,4d5d88bf9c31b60ce5c9c0ee,La Cacerola,52.361064115182714,4.888658315445461,Brazilian Restaurant
38,52.3598609293324,4.889315656260641,15,11,57c0219bcd10e843378e22dc,how do you roll?,52.361403,4.891461,Sushi Restaurant
39,52.3598609293324,4.889315656260641,15,12,4a2703c9f964a5206a851fe3,La Storia della Vita,52.35954600295792,4.892148639877075,Italian Restaurant
40,52.3598609293324,4.889315656260641,15,13,54294f11498e259fb7550402,Boenda,52.360549,4.891117,Indonesian Restaurant
41,52.3598609293324,4.889315656260641,15,14,4f69b97fe4b0ffb80aaa9ad2,Masseria Palmo,52.36063766479492,4.891399383544922,Italian Restaurant
42,52.35533907066761,4.889315656260641,50,0,5c8a9a9ab5cb7600393c9faf,Fiko,52.355592,4.891726,Pizza Place
43,52.35533907066761,4.889315656260641,50,1,5de6a80cadb67f0008d35997,Yuan's Chuan Chuan Xiang Amsterdam De Pijp袁记串串香阿姆喜力博物馆店,52.357073,4.890552,Chinese Restaurant
44,52.35533907066761,4.889315656260641,50,2,54317eb8498efe7960d511fc,ManaMana,52.354025131343626,4.890416115604876,Middle Eastern Restaurant
45,52.35533907066761,4.889315656260641,50,3,52b5908e498e25b1fd6f7a11,Pasta Pasta,52.354703930194326,4.890414432098538,Italian Restaurant
46,52.35533907066761,4.889315656260641,50,4,4a26ffcef964a52019811fe3,Barça,52.356994,4.891618,Bar
47,52.35533907066761,4.889315656260641,50,5,5bbb7e3a2db4a9002c315f7d,Spaghetteria,52.356224,4.891639,Italian Restaurant
48,52.35533907066761,4.889315656260641,50,6,5149cf8a70432b6e7fd04ea7,Miss Korea,52.354842879432866,4.889580066263741,Korean Restaurant
49,52.35533907066761,4.889315656260641,50,7,527d2ff511d259128fadc3bd,Bar Mash,52.3560331111506,4.892803027620247,Bar
50,52.35533907066761,4.889315656260641,50,8,5075c4a8e4b0416afc9422e2,Izakaya,52.35462084945091,4.887186018219195,Japanese Restaurant
51,52.35533907066761,4.889315656260641,50,9,5d95cc001128280007106ee2,Takumi Ramen Kitchen,52.356328,4.890546,Ramen Restaurant
52,52.35533907066761,4.889315656260641,50,10,537cdbcc498e976c85be52a5,Pho 91,52.35517807185446,4.891184968964705,Vietnamese Restaurant
53,52.35533907066761,4.889315656260641,50,11,4a270866f964a52091901fe3,Cafe Restaurant Mamouche,52.356710186321564,4.892157529030803,Moroccan Restaurant
54,52.35533907066761,4.889315656260641,50,12,5b6c79851ffe9700396c73d5,Wok To Walk,52.355977,4.890593,Asian Restaurant
55,52.35533907066761,4.889315656260641,50,13,5956bc03a0215b25934f88b4,Floreyn,52.35457,4.887814,Dutch Restaurant
56,52.35533907066761,4.889315656260641,50,14,4a2703cff964a5207b851fe3,LOKANTA,52.3553038398716,4.889849946667931,Mediterranean Restaurant
57,52.35533907066761,4.889315656260641,50,15,5daacbc539f40e00087b2897,Brasserie Lolita,52.35550974887033,4.890316128730774,Brasserie
58,52.35533907066761,4.889315656260641,50,16,5092aba5e4b0192dd6a9a187,Eazie,52.357096515867205,4.890841613773445,Noodle House
59,52.35533907066761,4.889315656260641,50,17,4b6c3b1ff964a520d42a2ce3,SenT,52.35574438179687,4.888940644804844,French Restaurant
60,52.35533907066761,4.889315656260641,50,18,570fcdc6498ef98443eb7498,Onigiri Ya!,52.3555453527531,4.890466091745714,Japanese Restaurant
61,52.35533907066761,4.889315656260641,50,19,4a2707a3f964a520788e1fe3,Taj Mahal,52.35723274632768,4.89098891302439,Indian Restaurant
62,52.35533907066761,4.889315656260641,50,20,5f4273e3e5287a421f8c585e,De Patchka,52.355232,4.8912067,Korean Restaurant
63,52.35533907066761,4.889315656260641,50,21,4a27083df964a52007901fe3,Warung Spang Makandra,52.35530945950131,4.89001874265431,Indonesian Restaurant
64,52.35533907066761,4.889315656260641,50,22,4a270804f964a5207d8f1fe3,Albina,52.35492729162367,4.889828753080029,Chinese Restaurant
65,52.35533907066761,4.889315656260641,50,23,576c23db498e0a8a3e7b0090,Auberge Jean & Marie,52.354804530900395,4.889264426413418,French Restaurant
66,52.35533907066761,4.889315656260641,50,24,5f37c29058a5b74d726819a8,Sababa,52.354693,4.888256,Middle Eastern Restaurant
67,52.35533907066761,4.889315656260641,50,25,4fb15a22e4b01d7a90f92dbc,Ikura,52.35485011135734,4.889579575073619,Sushi Restaurant
68,52.35533907066761,4.889315656260641,50,26,5689b14e498efbacb9552d9f,Ginger,52.35645715350726,4.8906147692645,Asian Restaurant
69,52.35533907066761,4.889315656260641,50,27,58bb04bf89151d6351574e93,Hennequin & To,52.356621,4.890549,French Restaurant
70,52.35533907066761,4.889315656260641,50,28,5a47bec9cf72a02cf17f8e8e,La Mian,52.355553,4.892797,Asian Restaurant
71,52.35533907066761,4.889315656260641,50,29,5d4ef97648faba0008ba9b3b,Isshin,52.35705,4.888673,Japanese Restaurant
72,52.35533907066761,4.889315656260641,50,30,4a26fffaf964a520b6811fe3,Top Wok,52.3571,4.891072511672974,Asian Restaurant
73,52.35533907066761,4.889315656260641,50,31,4a270800f964a5206d8f1fe3,Szechuan Kitchen,52.354804,4.887628,Chinese Restaurant
74,52.35533907066761,4.889315656260641,50,32,4bf6ced94a67c928e97122cf,Taverna Barcelona,52.35578489322623,4.8886713844261855,Mediterranean Restaurant
75,52.35533907066761,4.889315656260641,50,33,56eea74ccd10a5c732b9abbb,Ecole,52.356976869127976,4.891147446088988,French Restaurant
76,52.35533907066761,4.889315656260641,50,34,4f256c67e4b01dc94c995dd3,jingles,52.35533905029297,4.890134334564209,Ethiopian Restaurant
77,52.35533907066761,4.889315656260641,50,35,4dc594357d8b14fb462e62ee,Wok and Fries,52.354968,4.889327,Asian Restaurant
78,52.35533907066761,4.889315656260641,50,36,4a270028f964a5206e821fe3,Siriphon,52.357439847547255,4.890001415519684,Thai Restaurant
79,52.35533907066761,4.889315656260641,50,37,4a270500f964a520b9861fe3,Shalom,52.35524845482012,4.89023969913205,Middle Eastern Restaurant
80,52.35533907066761,4.889315656260641,50,38,4a270890f964a52019911fe3,Zaza's,52.3561320701457,4.892238896403098,French Restaurant
81,52.35533907066761,4.889315656260641,50,39,4a270504f964a520c9861fe3,Golden Dragon,52.355645,4.892921,Chinese Restaurant
82,52.35533907066761,4.889315656260641,50,40,4a27db33f964a52081921fe3,Sari Citra,52.35576875081275,4.890462938849988,Indonesian Restaurant
83,52.35533907066761,4.889315656260641,50,41,4a27db3df964a520c8921fe3,Poros,52.354667,4.888419,Greek Restaurant
84,52.35533907066761,4.889315656260641,50,42,4a2707c4f964a520c28e1fe3,Orontes,52.35467644712307,4.888620103069332,Mediterranean Restaurant
85,52.35533907066761,4.889315656260641,50,43,4a27db23f964a5202e921fe3,Zen,52.35703855458401,4.888798197883849,Japanese Restaurant
86,52.35533907066761,4.889315656260641,50,44,4e25bf40d22df6f8887ca2bd,Doner King,52.357209,4.891245,Eastern European Restaurant
87,52.35533907066761,4.889315656260641,50,45,59df8a8dd7627e1026b931fc,Sale E Pepe,52.35477,4.8892345,Italian Restaurant
88,52.35533907066761,4.889315656260641,50,46,4c3b8f40a9509c7413cb385b,The Grill Room,52.355012,4.890117762838018,Middle Eastern Restaurant
89,52.35533907066761,4.889315656260641,50,47,4beea8723686c9b67bbd246e,Jottum,52.3559455043305,4.891490936279297,Mediterranean Restaurant
90,52.35533907066761,4.889315656260641,50,48,4d3f03726b3d236a8af27764,Spang makandra javaanse-surinaamse restaurant,52.355345538955156,4.889898601591784,South American Restaurant
91,52.35533907066761,4.889315656260641,50,49,4a27db41f964a520e0921fe3,Ãz Nazar :: Gerard Douplein 8HS,52.355889,4.892534,Mediterranean Restaurant
92,52.357600000000005,4.902561538461538,36,0,58a9e976ed0a327078e7790f,Fou Fow Ramen,52.35759406953366,4.899397993915533,Ramen Restaurant
93,52.357600000000005,4.902561538461538,36,1,587fbdf08cb34e771add428b,Impero Romano,52.35678596829745,4.904640002755308,Italian Restaurant
94,52.357600000000005,4.902561538461538,36,2,56eb1ef1cd1036573f84ef5b,Graham's Kitchen,52.356665,4.902584,Modern European Restaurant
95,52.357600000000005,4.902561538461538,36,3,56d9d62d498efaad3240edef,Saravanaa Bhavan,52.35773860688338,4.899400848141028,South Indian Restaurant
96,52.357600000000005,4.902561538461538,36,4,53541af5498eebb09d99f084,Casa Nostra,52.3554572948612,4.903159030133888,Italian Restaurant
97,52.357600000000005,4.902561538461538,36,5,50006bece4b0fbfbe8d875ac,Bakkerij Lavina,52.35669026986961,4.89970185201022,Turkish Restaurant
98,52.357600000000005,4.902561538461538,36,6,5b8e71dc16fa04002c434c79,Pho Long,52.356724,4.899851,Vietnamese Restaurant
99,52.357600000000005,4.902561538461538,36,7,4afac658f964a520a01822e3,Gaziantep Pastahanesi,52.356759,4.899777,Turkish Restaurant
100,52.357600000000005,4.902561538461538,36,8,4e45aa87e4cd9d94fb17dcd2,Shoarma Ferdinand Bol,52.35603557327733,4.902694762542939,Middle Eastern Restaurant
101,52.357600000000005,4.902561538461538,36,9,4b1172dcf964a520c97c23e3,Altman Restaurant+Bar,52.356874,4.90466,French Restaurant
102,52.357600000000005,4.902561538461538,36,10,53075b10498e3d68a11ce1a7,Fresh2Go,52.35649,4.899886,Sushi Restaurant
103,52.357600000000005,4.902561538461538,36,11,546507a2498e799c1ee1e756,Bar Americano,52.3568313331226,4.904438463764812,Italian Restaurant
104,52.357600000000005,4.902561538461538,36,12,5e57a66595d0410008614f67,Pasta E Pizza,52.357466,4.899613,Italian Restaurant
105,52.357600000000005,4.902561538461538,36,13,5206a3ab11d2ecbb5d6fb1b7,Ristorante Pizzeria il Mare,52.35636050822158,4.900620109911768,Italian Restaurant
106,52.357600000000005,4.902561538461538,36,14,4a27052af964a52015871fe3,Yu Fung,52.35594,4.900252,Chinese Restaurant
107,52.357600000000005,4.902561538461538,36,15,4d2b490977a2a1cd7ed67bb7,Suvi,52.35679327874975,4.899838817189142,Sushi Restaurant
108,52.357600000000005,4.902561538461538,36,16,50254d96e4b06497245befad,Marokkaans eetcafe Noumidia,52.357440574683444,4.899221341907162,Moroccan Restaurant
109,52.357600000000005,4.902561538461538,36,17,4a270057f964a5201a831fe3,Ah-Lung,52.35726164501424,4.899548405596299,Chinese Restaurant
110,52.357600000000005,4.902561538461538,36,18,4c7ffb672f1c236a63912243,Potala Sushi & Thai,52.356748,4.901695,Japanese Restaurant
111,52.357600000000005,4.902561538461538,36,19,50f579c2e4b047fcd1653eaf,ManaMana,52.355683,4.903255,Middle Eastern Restaurant
112,52.357600000000005,4.902561538461538,36,20,4a2707d6f964a520018f1fe3,Taco Mundo,52.355552613141185,4.903619408647617,Mexican Restaurant
113,52.357600000000005,4.902561538461538,36,21,4e67a3f6483bef6eb808e988,Monmibia,52.357951,4.899286,Moroccan Restaurant
114,52.357600000000005,4.902561538461538,36,22,5b744f8561e53b002c64374b,Ah Lung,52.357346,4.899685,Chinese Restaurant
115,52.357600000000005,4.902561538461538,36,23,4a270835f964a520ef8f1fe3,L'Angoletto,52.35740054046041,4.902110860970699,Italian Restaurant
116,52.357600000000005,4.902561538461538,36,24,4d0924d9cda254813bc53065,Sushi Wok Sonchi,52.35594330527463,4.900368065354704,Sushi Restaurant
117,52.357600000000005,4.902561538461538,36,25,4d568bd458856dcbfd0f596d,Cape Town Spice,52.35538423061371,4.9031872000000005,Tapas Restaurant
118,52.357600000000005,4.902561538461538,36,26,562fc1cc498e72431dcd1075,Da Magda,52.356828,4.899656,Italian Restaurant
119,52.357600000000005,4.902561538461538,36,27,4fad3dabe4b027422cf840ce,Çiğköftem,52.3562050879452,4.90024192426568,Cigkofte Place
120,52.357600000000005,4.902561538461538,36,28,4c669906aebea5930a7573d0,Ersoy,52.355866,4.900525,Mediterranean Restaurant
121,52.357600000000005,4.902561538461538,36,29,5eba6a7d5812bd0007b61258,Rodja,52.356554,4.899949,Deli / Bodega
122,52.357600000000005,4.902561538461538,36,30,59b675c628122f42d24cdb21,Mantı,52.356983,4.8991213,Turkish Restaurant
123,52.357600000000005,4.902561538461538,36,31,50b4f660e4b0fc92b3f6537b,kagetsu,52.3565692015032,4.89986930098121,Japanese Restaurant
124,52.357600000000005,4.902561538461538,36,32,5582fbd6498ee4c66a8984fd,Warung Mini,52.35686948918938,4.899660347457058,Cajun / Creole Restaurant
125,52.357600000000005,4.902561538461538,36,33,4c8b91322e333704d9fdcd41,La Dolce,52.355882,4.90038154,Mediterranean Restaurant
126,52.357600000000005,4.902561538461538,36,34,5059f4c4e4b0a3bd55f0793a,Roopram,52.35638921125872,4.900018282096357,South American Restaurant
127,52.357600000000005,4.902561538461538,36,35,57239dc0498ef3de59efe6ea,Chiapas Taco Cartel,52.35657481055178,4.8999075926604645,Burrito Place
128,52.3598609293324,4.898884343739358,12,0,4a27db34f964a5208c921fe3,Pata Negra,52.36145720252549,4.899150104625573,Spanish Restaurant
129,52.3598609293324,4.898884343739358,12,1,4bf3c6f6cad2c928991a9b99,Uliveto Nobili Ingredienti,52.35923560657794,4.89646503543813,Deli / Bodega
130,52.3598609293324,4.898884343739358,12,2,5ceef2228f90d90023c6b69f,Zoldering,52.361265,4.899399,French Restaurant
131,52.3598609293324,4.898884343739358,12,3,56d9d62d498efaad3240edef,Saravanaa Bhavan,52.35773860688338,4.899400848141028,South Indian Restaurant
132,52.3598609293324,4.898884343739358,12,4,52f78dc5498eb24093d7e046,Ku Kitchen & Bar,52.36172194013589,4.8990557970130935,Japanese Restaurant
133,52.3598609293324,4.898884343739358,12,5,4c13b1b682a3c9b633dcfbf8,Axum Ethiopisch Restaurant,52.36157476902008,4.899841,Ethiopian Restaurant
134,52.3598609293324,4.898884343739358,12,6,4b52268af964a520b06b27e3,Le Bouchon Du Centre,52.360416507644125,4.896560133224674,French Restaurant
135,52.3598609293324,4.898884343739358,12,7,4a2704bdf964a52011861fe3,Il Boccalino,52.36156616056363,4.899201467397955,Italian Restaurant
136,52.3598609293324,4.898884343739358,12,8,4a27082bf964a520c58f1fe3,MadeWithLove by Tagore,52.36134398227621,4.8992368976181115,Indian Restaurant
137,52.3598609293324,4.898884343739358,12,9,4e67a3f6483bef6eb808e988,Monmibia,52.357951,4.899286,Moroccan Restaurant
138,52.3598609293324,4.898884343739358,12,10,4edbaaf0e300851bfb06340d,AlfonSo,52.36208711118504,4.8986739689998755,Mexican Restaurant
139,52.3598609293324,4.898884343739358,12,11,4b69c190f964a5203bb22be3,Restaurant Serge,52.361332,4.899077,French Restaurant
140,52.35533907066761,4.898884343739358,50,0,5914b60fad17891f9c21ef9f,Escobar,52.35660385603116,4.8972491041197,Spanish Restaurant
141,52.35533907066761,4.898884343739358,50,1,5f529e4a8a57a84a37fbf346,Vegan Sushi Bar,52.355362,4.900983,Sushi Restaurant
142,52.35533907066761,4.898884343739358,50,2,566349da498efe11ebff7f25,Calle Ocho,52.356428850759116,4.896964063702356,South American Restaurant
143,52.35533907066761,4.898884343739358,50,3,596650eb35d3fc1e6ee2f2a2,Franggo,52.35622269172725,4.897646772546211,Fried Chicken Joint
144,52.35533907066761,4.898884343739358,50,4,4a27088cf964a52013911fe3,Azmarino,52.354022768995584,4.899329791099864,Ethiopian Restaurant
145,52.35533907066761,4.898884343739358,50,5,5370f773498e32f5604e3876,De Pizzabakkers,52.35634901049651,4.89753088398226,Italian Restaurant
146,52.35533907066761,4.898884343739358,50,6,57fd1114498ea8c2e605a55c,Arles,52.35628677437768,4.89811517489653,French Restaurant
147,52.35533907066761,4.898884343739358,50,7,4a27004ff964a520fa821fe3,Warung-Mini,52.35511468862449,4.902041068611701,Caribbean Restaurant
148,52.35533907066761,4.898884343739358,50,8,4b9bd2d0f964a520932936e3,Restaurant ARTIST,52.355643200330974,4.898134295767443,Middle Eastern Restaurant
149,52.35533907066761,4.898884343739358,50,9,5b8e71dc16fa04002c434c79,Pho Long,52.356724,4.899851,Vietnamese Restaurant
150,52.35533907066761,4.898884343739358,50,10,50006bece4b0fbfbe8d875ac,Bakkerij Lavina,52.35669026986961,4.89970185201022,Turkish Restaurant
151,52.35533907066761,4.898884343739358,50,11,4afac658f964a520a01822e3,Gaziantep Pastahanesi,52.356759,4.899777,Turkish Restaurant
152,52.35533907066761,4.898884343739358,50,12,4d4a54495129a35dfcac42ac,Barra (by Siempre),52.356984,4.896377921104431,Spanish Restaurant
153,52.35533907066761,4.898884343739358,50,13,5be2d97960255e002c2e8495,Amsterdam Arepa’s,52.35617,4.897499,Arepa Restaurant
154,52.35533907066761,4.898884343739358,50,14,5a0f326abfc6d02bea731af5,Ramen Izakaya Sora,52.35621088303791,4.896189858833671,Ramen Restaurant
155,52.35533907066761,4.898884343739358,50,15,4fcf9752e4b099aae4202fb2,wokhuis,52.355,4.9016,Asian Restaurant
156,52.35533907066761,4.898884343739358,50,16,53075b10498e3d68a11ce1a7,Fresh2Go,52.35649,4.899886,Sushi Restaurant
157,52.35533907066761,4.898884343739358,50,17,5e57a66595d0410008614f67,Pasta E Pizza,52.357466,4.899613,Italian Restaurant
158,52.35533907066761,4.898884343739358,50,18,4a27079ff964a5206b8e1fe3,Saskia's Huiskamer,52.35609337279504,4.895546088938876,Tapas Restaurant
159,52.35533907066761,4.898884343739358,50,19,58bb18578f0be43210575d8e,Zaagmolen,52.355588,4.898243,Modern European Restaurant
160,52.35533907066761,4.898884343739358,50,20,5206a3ab11d2ecbb5d6fb1b7,Ristorante Pizzeria il Mare,52.35636050822158,4.900620109911768,Italian Restaurant
161,52.35533907066761,4.898884343739358,50,21,513a17e6e4b08d57cd2d3346,Restaurant MOZO,52.354641,4.901573,Moroccan Restaurant
162,52.35533907066761,4.898884343739358,50,22,4d13523312916dcb99fedc8a,Sushikings,52.355775,4.898031,Sushi Restaurant
163,52.35533907066761,4.898884343739358,50,23,4a27052af964a52015871fe3,Yu Fung,52.35594,4.900252,Chinese Restaurant
164,52.35533907066761,4.898884343739358,50,24,4c24dba3a852c928c1cbe36c,De kleine Griek,52.354987263679504,4.90156178,Greek Restaurant
165,52.35533907066761,4.898884343739358,50,25,4d2b490977a2a1cd7ed67bb7,Suvi,52.35679327874975,4.899838817189142,Sushi Restaurant
166,52.35533907066761,4.898884343739358,50,26,50254d96e4b06497245befad,Marokkaans eetcafe Noumidia,52.357440574683444,4.899221341907162,Moroccan Restaurant
167,52.35533907066761,4.898884343739358,50,27,4bddadb8587b2d7f23a15409,Fatiem,52.35451582549394,4.901518130076518,Moroccan Restaurant
168,52.35533907066761,4.898884343739358,50,28,55cf8858498ed4b63ba2e2a5,De Japanner,52.35647129858305,4.897033403787089,Japanese Restaurant
169,52.35533907066761,4.898884343739358,50,29,4a270057f964a5201a831fe3,Ah-Lung,52.35726164501424,4.899548405596299,Chinese Restaurant
170,52.35533907066761,4.898884343739358,50,30,4a27db27f964a5204b921fe3,Warung Swietie,52.356756351927665,4.897166869645021,South American Restaurant
171,52.35533907066761,4.898884343739358,50,31,4c7ffb672f1c236a63912243,Potala Sushi & Thai,52.356748,4.901695,Japanese Restaurant
172,52.35533907066761,4.898884343739358,50,32,546c9dd8498eabb0f2058138,Los Churros,52.356381,4.896907,Spanish Restaurant
173,52.35533907066761,4.898884343739358,50,33,5b744f8561e53b002c64374b,Ah Lung,52.357346,4.899685,Chinese Restaurant
174,52.35533907066761,4.898884343739358,50,34,4ca7762e97c8a1cdd7ab7aa5,Ciro 1939,52.355018,4.901526,Italian Restaurant
175,52.35533907066761,4.898884343739358,50,35,4d0924d9cda254813bc53065,Sushi Wok Sonchi,52.35594330527463,4.900368065354704,Sushi Restaurant
176,52.35533907066761,4.898884343739358,50,36,50c370a3e4b025007f62d96c,Il Pastificio,52.35610665121645,4.897791441989611,Italian Restaurant
177,52.35533907066761,4.898884343739358,50,37,5d1362f253331f002f418862,Frankie Bos.,52.355687,4.898378,Café
178,52.35533907066761,4.898884343739358,50,38,4a27db34f964a52087921fe3,Vamos a Ver,52.35639993367212,4.898741964313037,Spanish Restaurant
179,52.35533907066761,4.898884343739358,50,39,56acb5fa498eed4820830842,Noodles & More,52.354129,4.901854,Noodle House
180,52.35533907066761,4.898884343739358,50,40,562fc1cc498e72431dcd1075,Da Magda,52.356828,4.899656,Italian Restaurant
181,52.35533907066761,4.898884343739358,50,41,4fad3dabe4b027422cf840ce,Çiğköftem,52.3562050879452,4.90024192426568,Cigkofte Place
182,52.35533907066761,4.898884343739358,50,42,4c669906aebea5930a7573d0,Ersoy,52.355866,4.900525,Mediterranean Restaurant
183,52.35533907066761,4.898884343739358,50,43,5eba6a7d5812bd0007b61258,Rodja,52.356554,4.899949,Deli / Bodega
184,52.35533907066761,4.898884343739358,50,44,57a4bf28498e1239be69c5f8,Soi74,52.355261,4.900499,Asian Restaurant
185,52.35533907066761,4.898884343739358,50,45,4d4c6b3d1ae43704607ff460,Femmeli,52.35686015669782,4.898326178380352,Tapas Restaurant
186,52.35533907066761,4.898884343739358,50,46,59b675c628122f42d24cdb21,Mantı,52.356983,4.8991213,Turkish Restaurant
187,52.35533907066761,4.898884343739358,50,47,4e305bc7e4cdb5a70d71e8ce,Indian Restaurant Shiva,52.353728522751794,4.897355235009164,Indian Restaurant
188,52.35533907066761,4.898884343739358,50,48,4d4d95b0fe7fb1f7bff65d42,Barra,52.35573609168478,4.898001160365244,Tapas Restaurant
189,52.35533907066761,4.898884343739358,50,49,4d13dd0abb488cfa6fa691d4,SushiKings Centrum,52.356804,4.89785159,Sushi Restaurant
190,52.3598609293324,4.906238733183718,1,0,4d3b2b9249cb236ab67ec147,Amstel Bar & Brasserie,52.36001532958312,4.904962956008391,French Restaurant
191,52.35533907066761,4.906238733183718,15,0,587fbdf08cb34e771add428b,Impero Romano,52.35678596829745,4.904640002755308,Italian Restaurant
192,52.35533907066761,4.906238733183718,15,1,57ed5107498e1648f299ff8f,Pepenero,52.35579,4.907731,Italian Restaurant
193,52.35533907066761,4.906238733183718,15,2,596e317216fa0433db623567,Saffraan,52.355258,4.907656,Middle Eastern Restaurant
194,52.35533907066761,4.906238733183718,15,3,4a27004ff964a520f5821fe3,Eetcafe Ibis,52.355727665840284,4.907274665477033,African Restaurant
195,52.35533907066761,4.906238733183718,15,4,4a2703d6f964a52090851fe3,Le Hollandais,52.355172416771154,4.9058418112151765,French Restaurant
196,52.35533907066761,4.906238733183718,15,5,53541af5498eebb09d99f084,Casa Nostra,52.3554572948612,4.903159030133888,Italian Restaurant
197,52.35533907066761,4.906238733183718,15,6,5a85cf75f870fd754e9657c8,Arc. By Luté,52.353146,4.906862,French Restaurant
198,52.35533907066761,4.906238733183718,15,7,4b1172dcf964a520c97c23e3,Altman Restaurant+Bar,52.356874,4.90466,French Restaurant
199,52.35533907066761,4.906238733183718,15,8,4a270838f964a520fb8f1fe3,Athene,52.35580855609668,4.907300349510159,Greek Restaurant
200,52.35533907066761,4.906238733183718,15,9,546507a2498e799c1ee1e756,Bar Americano,52.3568313331226,4.904438463764812,Italian Restaurant
201,52.35533907066761,4.906238733183718,15,10,4ec7995f9adf9c7bf32412a2,Private Tosti Palace,52.354400857739364,4.903417993391067,German Restaurant
202,52.35533907066761,4.906238733183718,15,11,507c5820498ec32f6de826c8,Filo Maria,52.3553645992759,4.903225324317774,Pizza Place
203,52.35533907066761,4.906238733183718,15,12,50f579c2e4b047fcd1653eaf,ManaMana,52.355683,4.903255,Middle Eastern Restaurant
204,52.35533907066761,4.906238733183718,15,13,4a2707d6f964a520018f1fe3,Taco Mundo,52.355552613141185,4.903619408647617,Mexican Restaurant
205,52.35533907066761,4.906238733183718,15,14,4d568bd458856dcbfd0f596d,Cape Town Spice,52.35538423061371,4.9031872000000005,Tapas Restaurant
206,52.3676,4.868715384615384,50,0,582052726401964ad521ce5a,Kanarie Club,52.36734814638268,4.867791407662048,Modern European Restaurant
207,52.3676,4.868715384615384,50,1,55b3c1c2498e1bf8d1e07af8,Happyhappyjoyjoy,52.36749554136531,4.871968201151223,Asian Restaurant
208,52.3676,4.868715384615384,50,2,58021ac838fa3d88e7ba2740,Dim Sum Thing,52.367072187688024,4.86812208090694,Dim Sum Restaurant
209,52.3676,4.868715384615384,50,3,5308e326498eac93ff470ca1,Spaghetteria,52.368238993299144,4.866247590473278,Italian Restaurant
210,52.3676,4.868715384615384,50,4,57a384f1498e39ed4d9933db,Seoul Food,52.367094917809574,4.871659791954687,Korean Restaurant
211,52.3676,4.868715384615384,50,5,594aadaca2a6ce5a03ebab40,Poké Perfect,52.367074284213665,4.871689466154026,Hawaiian Restaurant
212,52.3676,4.868715384615384,50,6,576c0aa2498eba1b9f6180dc,Baires,52.368945387454566,4.869848181127083,Empanada Restaurant
213,52.3676,4.868715384615384,50,7,56c7734bcd10e7ee2a8402cf,Toko Bersama,52.368527820062965,4.871219439431209,Indonesian Restaurant
214,52.3676,4.868715384615384,50,8,5e0506209264f8000761031b,Dutch Meat Ball Company,52.36683,4.868281,Dutch Restaurant
215,52.3676,4.868715384615384,50,9,575aeeab38fa14fba41f482c,Piccolo,52.367380269772696,4.868881560026436,Italian Restaurant
216,52.3676,4.868715384615384,50,10,5e37117df142190008d46c74,Vegan Sushi Bar,52.366898,4.871502,Vegetarian / Vegan Restaurant
217,52.3676,4.868715384615384,50,11,537d1ce9498e956dc854a7fa,Remise47,52.36786783972519,4.868110623227936,Modern European Restaurant
218,52.3676,4.868715384615384,50,12,5d2b4550d0ae5e003087343f,Parakeet,52.368639500981345,4.865853041410446,Mexican Restaurant
219,52.3676,4.868715384615384,50,13,580289cdd67c533488cfa30b,FENTO,52.367074,4.868158,Mexican Restaurant
220,52.3676,4.868715384615384,50,14,54f20190498e6a39f0826695,Viet View,52.367014914654526,4.868158147667472,Vietnamese Restaurant
221,52.3676,4.868715384615384,50,15,5ce2b66716fa04002c510f37,Taqueria Lima,52.36694440796742,4.868240438050978,Mexican Restaurant
222,52.3676,4.868715384615384,50,16,51435f73e4b01d91e01a59ba,Himalayan Kitchen,52.36688930096444,4.866963506778168,Tibetan Restaurant
223,52.3676,4.868715384615384,50,17,5d559d1c1137220008f102ba,Pho 91,52.366955,4.8716874,Vietnamese Restaurant
224,52.3676,4.868715384615384,50,18,57e7bac9498ebca3beecc8d0,filiz manti,52.367315,4.867578,Turkish Restaurant
225,52.3676,4.868715384615384,50,19,589efb9d84677a520ffa0230,Pita,52.367125,4.868034,Mediterranean Restaurant
226,52.3676,4.868715384615384,50,20,4e2992ef7d8b613361981b6b,Rustem,52.36611995583993,4.867440957145432,Indian Restaurant
227,52.3676,4.868715384615384,50,21,57f6853e498e592ab16dbf00,Sumthing,52.367123,4.8682833,Dim Sum Restaurant
228,52.3676,4.868715384615384,50,22,56223e8b498e8dfc37342794,Jabugo Bar Iberico,52.366815062205724,4.8683391395794535,Tapas Restaurant
229,52.3676,4.868715384615384,50,23,5184ce46498eb7d5098ba852,Portami Via,52.36839418042833,4.871180373542069,Italian Restaurant
230,52.3676,4.868715384615384,50,24,5218cffabce66201f8b58207,Suri-Exquise,52.3683807436603,4.871084690093994,Caribbean Restaurant
231,52.3676,4.868715384615384,50,25,577ba09d498ec5cc1dba3aa5,Godfather's Kitchen,52.36692,4.8680496,Italian Restaurant
232,52.3676,4.868715384615384,50,26,5be6cfa886f4cc002c868127,Txosta,52.366909,4.868353,Tapas Restaurant
233,52.3676,4.868715384615384,50,27,552c02ed498e21e522dcc345,Shirkhan,52.36691882768561,4.868227758990727,Indian Restaurant
234,52.3676,4.868715384615384,50,28,4e202a7ac65b2b5e3538bf97,Döner House Isikogullari,52.36581274074348,4.867211580276489,Turkish Restaurant
235,52.3676,4.868715384615384,50,29,55633c92498e62cbb3742b9a,Meneer Temaki,52.36697113590443,4.868212157952756,Sushi Restaurant
236,52.3676,4.868715384615384,50,30,4d5104fb07b1a090fd30073c,Sjiek Cafe & Deli,52.367829884996254,4.871704134192814,Italian Restaurant
237,52.3676,4.868715384615384,50,31,4c9e052c542b224b297cef9f,Demirel,52.36630534787633,4.868700754807188,Mediterranean Restaurant
238,52.3676,4.868715384615384,50,32,57e03827498ee69b6d341fb1,Goulash Home,52.3681,4.866138,Hungarian Restaurant
239,52.3676,4.868715384615384,50,33,5ad0dcd68496ca60cf240e07,Yummy Hummus,52.366276,4.869003,Israeli Restaurant
240,52.3676,4.868715384615384,50,34,569fe142498ed07305ad75c6,Rosetta's Kitchen,52.368477,4.871318,Italian Restaurant
241,52.3676,4.868715384615384,50,35,4ff85ce2e4b021ccc819aeec,Don Patatas,52.3669,4.8716,Caribbean Restaurant
242,52.3676,4.868715384615384,50,36,4a270098f964a520cd831fe3,New Pearl,52.368036,4.871594,Chinese Restaurant
243,52.3676,4.868715384615384,50,37,52e4f13111d233363913f86a,Transilvania Food,52.36736297607422,4.867166996002197,Romanian Restaurant
244,52.3676,4.868715384615384,50,38,4a270500f964a520b8861fe3,Marmara,52.36668191539618,4.870039511918556,Turkish Restaurant
245,52.3676,4.868715384615384,50,39,4a270818f964a520a18f1fe3,Chong Kee,52.365804,4.866683,Asian Restaurant
246,52.3676,4.868715384615384,50,40,58555c3dd8f3e92d76421508,Salsa Shop,52.366295411602366,4.8686074979181155,Burrito Place
247,52.3676,4.868715384615384,50,41,5e285bb0dc4860000741fa2c,Sushi Only,52.36643,4.868801,Sushi Restaurant
248,52.3676,4.868715384615384,50,42,5635f679498e6c1e166ad3ba,pasta di mama,52.36731207994449,4.868052665804112,Italian Restaurant
249,52.3676,4.868715384615384,50,43,59148f11ad910e51930c93f0,Thai Company,52.366091,4.868014,Thai Restaurant
250,52.3676,4.868715384615384,50,44,4d94ce8f3048b1f79ede3964,Restaurant Madrid,52.367126,4.866547,Spanish Restaurant
251,52.3676,4.868715384615384,50,45,5df123a17275f80008a8092b,Pad Thai,52.366467,4.869438,Thai Restaurant
252,52.3676,4.868715384615384,50,46,5468fa7a498e482997479619,Bistro Döner,52.36824,4.871434,Turkish Restaurant
253,52.3676,4.868715384615384,50,47,5880ba8faf7d1738f0030b46,Great Catch,52.367043,4.8681436,Asian Restaurant
254,52.3676,4.868715384615384,50,48,4a2705c9f964a520d5881fe3,Warung Swietie,52.367107,4.866853,South American Restaurant
255,52.3676,4.868715384615384,50,49,54abcb10498eaa1a9deffbcc,De BallenBar,52.36704161731882,4.868137391202563,Dutch Restaurant
256,52.3698609293324,4.8650373575400625,18,0,5cb4ff54e1f0aa002c207c09,Ramona,52.37025,4.868006,Dutch Restaurant
257,52.3698609293324,4.8650373575400625,18,1,5308e326498eac93ff470ca1,Spaghetteria,52.368238993299144,4.866247590473278,Italian Restaurant
258,52.3698609293324,4.8650373575400625,18,2,5fc281dd2ace9b0759791899,Sabor Cubana,52.370091,4.86683,Cuban Restaurant
259,52.3698609293324,4.8650373575400625,18,3,5ce839fd3731ee002cb9dfcd,Franggo,52.370184,4.866553,Fried Chicken Joint
260,52.3698609293324,4.8650373575400625,18,4,5d2b4550d0ae5e003087343f,Parakeet,52.368639500981345,4.865853041410446,Mexican Restaurant
261,52.3698609293324,4.8650373575400625,18,5,4a27db19f964a520e9911fe3,Hotel-Restaurant Larende,52.370044217775046,4.8660006654576335,Hotel
262,52.3698609293324,4.8650373575400625,18,6,51a0cec5498e6dbb3b61c84a,Andrew's Coffeshop & Lounge,52.369485,4.865914,Arepa Restaurant
263,52.3698609293324,4.8650373575400625,18,7,4d724208311f6ea8cabbd8ea,اشهيوات و حلويات,52.370317,4.866101,Mediterranean Restaurant
264,52.3698609293324,4.8650373575400625,18,8,5400b021498ed8dfcfdf1562,Moti Mahal,52.37124545779224,4.86469346295735,Indian Restaurant
265,52.3698609293324,4.8650373575400625,18,9,4c0bf7d36071a593770fe232,B&B's Kribbe,52.36795,4.863788,Moroccan Restaurant
266,52.3698609293324,4.8650373575400625,18,10,50a7dc2ee4b0170b3138b76e,Cantinetta wine & pasta,52.37012516091521,4.866599766019809,Italian Restaurant
267,52.3698609293324,4.8650373575400625,18,11,54bbf45a498e05024fc5cdcd,Zenzai Sushi,52.368545,4.862348,Sushi Restaurant
268,52.3698609293324,4.8650373575400625,18,12,4d88da2c7139b1f71795a9d4,Reba,52.370888,4.865151,Asian Restaurant
269,52.3698609293324,4.8650373575400625,18,13,4a2705bcf964a520a8881fe3,Mehtap,52.371003577010924,4.86263752661976,Fast Food Restaurant
270,52.3698609293324,4.8650373575400625,18,14,4a26ffdaf964a5203f811fe3,To Ouzeri,52.37014305859251,4.866598359322064,Greek Restaurant
271,52.3698609293324,4.8650373575400625,18,15,57e03827498ee69b6d341fb1,Goulash Home,52.3681,4.866138,Hungarian Restaurant
272,52.3698609293324,4.8650373575400625,18,16,51869516498ea00e99884165,Lecco pizza & pasta,52.370435167216236,4.867922170630767,Italian Restaurant
273,52.3698609293324,4.8650373575400625,18,17,52ce7c68498eaa5a27830b80,Fes Patisserie,52.37015415205001,4.8658887745698784,Turkish Restaurant
274,52.36533907066761,4.8650373575400625,28,0,4a2704b3f964a520f0851fe3,Dönerland Eethuis,52.36499621267611,4.8634145335024055,Moroccan Restaurant
275,52.36533907066761,4.8650373575400625,28,1,543aa988498ec74795efe11d,Holy Ravioli,52.363926,4.863007,Italian Restaurant
276,52.36533907066761,4.8650373575400625,28,2,4a2705bcf964a520a6881fe3,Öz Kismet,52.364585043705745,4.861747509632635,Turkish Restaurant
277,52.36533907066761,4.8650373575400625,28,3,5ce2dafd916bc1002c077e72,Sababa,52.365517,4.8659062,Middle Eastern Restaurant
278,52.36533907066761,4.8650373575400625,28,4,51435f73e4b01d91e01a59ba,Himalayan Kitchen,52.36688930096444,4.866963506778168,Tibetan Restaurant
279,52.36533907066761,4.8650373575400625,28,5,4e2992ef7d8b613361981b6b,Rustem,52.36611995583993,4.867440957145432,Indian Restaurant
280,52.36533907066761,4.8650373575400625,28,6,54aa7617498e6c1a0a9d0dd6,'t Saoto Huisje,52.364651110891145,4.861860674735348,South American Restaurant
281,52.36533907066761,4.8650373575400625,28,7,4e202a7ac65b2b5e3538bf97,Döner House Isikogullari,52.36581274074348,4.867211580276489,Turkish Restaurant
282,52.36533907066761,4.8650373575400625,28,8,4a270541f964a52050871fe3,Afhaalcentrum Warung Kinker,52.365994876282066,4.864657451439611,Caribbean Restaurant
283,52.36533907066761,4.8650373575400625,28,9,510d80e6e4b0ec5cc6d06b58,Carribean Restaurant,52.366019320902375,4.865329423037773,Caribbean Restaurant
284,52.36533907066761,4.8650373575400625,28,10,4bdc508fafe8c9b6b3d54e85,Dönerland Kinker,52.36501583606854,4.863432435854487,Mediterranean Restaurant
285,52.36533907066761,4.8650373575400625,28,11,544b977e498e7d4b1bb9fa01,Has Doner,52.36576948614203,4.866085676631871,Turkish Restaurant
286,52.36533907066761,4.8650373575400625,28,12,5ac35fb1a92d9855a14fe1f1,Asian King,52.365706,4.865939,Sushi Restaurant
287,52.36533907066761,4.8650373575400625,28,13,4a27db18f964a520da911fe3,Biladi,52.364252508387196,4.862773003261434,Moroccan Restaurant
288,52.36533907066761,4.8650373575400625,28,14,4a270818f964a520a18f1fe3,Chong Kee,52.365804,4.866683,Asian Restaurant
289,52.36533907066761,4.8650373575400625,28,15,4f8035cce4b024a26cf931f9,Pangestu,52.364712,4.861586,Caribbean Restaurant
290,52.36533907066761,4.8650373575400625,28,16,51b8b5b7498e221e63c51190,isaan thai,52.365166,4.864187,Thai Restaurant
291,52.36533907066761,4.8650373575400625,28,17,56c86796cd105c3eba082bd2,Tropical Brasil,52.3647693314519,4.862406480916436,Brazilian Restaurant
292,52.36533907066761,4.8650373575400625,28,18,4ae5e4faf964a520f1a221e3,Thailicious,52.365201,4.864273,Thai Restaurant
293,52.36533907066761,4.8650373575400625,28,19,51c1e39a498e3b4dde3c6149,Eethuis Infinity,52.3647575378418,4.861960411071777,Moroccan Restaurant
294,52.36533907066761,4.8650373575400625,28,20,4fd0edb3e4b0d96f9644608a,Jasmine Thai Xpress,52.365315,4.864079,Thai Restaurant
295,52.36533907066761,4.8650373575400625,28,21,59148f11ad910e51930c93f0,Thai Company,52.366091,4.868014,Thai Restaurant
296,52.36533907066761,4.8650373575400625,28,22,588ce1571d21ba220208651a,Casa Sabatelli,52.365695,4.865911,Italian Restaurant
297,52.36533907066761,4.8650373575400625,28,23,5d3d60cac6d1fa00086b0d3e,Marcia’s Kitchen Brazilian Restaurant,52.364785,4.861984,Brazilian Restaurant
298,52.36533907066761,4.8650373575400625,28,24,4d94ce8f3048b1f79ede3964,Restaurant Madrid,52.367126,4.866547,Spanish Restaurant
299,52.36533907066761,4.8650373575400625,28,25,4a2705c9f964a520d5881fe3,Warung Swietie,52.367107,4.866853,South American Restaurant
300,52.36533907066761,4.8650373575400625,28,26,55f06179498e77636e64d09a,Barceloneta,52.3657221,4.8659946,Tapas Restaurant
301,52.36533907066761,4.8650373575400625,28,27,5d35c18f40a07e00082b98b3,Himalaya Sushi Bar,52.36484973,4.86220019,Sushi Restaurant
302,52.3698609293324,4.872393411690705,35,0,53e22ee3498e8aba799620f7,Waterkant,52.36979445074386,4.876006553880177,Caribbean Restaurant
303,52.3698609293324,4.872393411690705,35,1,56a4ffe4498edbdc61795c79,MOAK Pancakes West,52.37122188173573,4.871275276753277,Creperie
304,52.3698609293324,4.872393411690705,35,2,4a8af4def964a520000b20e3,Fuoco Vivo,52.37166363906874,4.873550157209708,Italian Restaurant
305,52.3698609293324,4.872393411690705,35,3,50e0903ae4b070c03119ab2b,Manoto,52.37160164564951,4.87316460866009,Persian Restaurant
306,52.3698609293324,4.872393411690705,35,4,576c0aa2498eba1b9f6180dc,Baires,52.368945387454566,4.869848181127083,Empanada Restaurant
307,52.3698609293324,4.872393411690705,35,5,5ad1da53bfdc5e1f635567c2,Fento,52.369701,4.873488,Mexican Restaurant
308,52.3698609293324,4.872393411690705,35,6,56c7734bcd10e7ee2a8402cf,Toko Bersama,52.368527820062965,4.871219439431209,Indonesian Restaurant
309,52.3698609293324,4.872393411690705,35,7,4d99fc2a61a3a1cd16c2f042,Iboenda,52.37073776913151,4.869419778109656,Indonesian Restaurant
310,52.3698609293324,4.872393411690705,35,8,4a270504f964a520cc861fe3,Mesut,52.370803296498046,4.869607395509316,Turkish Restaurant
311,52.3698609293324,4.872393411690705,35,9,4a2707e8f964a5202d8f1fe3,Papa Longo,52.37131542134646,4.8714494705200195,Italian Restaurant
312,52.3698609293324,4.872393411690705,35,10,4d3748521931224b888113cb,Pauli's Pizza Place,52.370075588888895,4.869572325,Italian Restaurant
313,52.3698609293324,4.872393411690705,35,11,5967d58b9cadd94f2c04a767,FIKO,52.370523,4.868961,Italian Restaurant
314,52.3698609293324,4.872393411690705,35,12,4f9d650fe4b0de62689e2e18,Snackbar De Costa,52.369499,4.873778,Middle Eastern Restaurant
315,52.3698609293324,4.872393411690705,35,13,59de870b6adbf55ab4f7dafa,Tasty Burger,52.371687,4.873225,Burger Joint
316,52.3698609293324,4.872393411690705,35,14,4e46beaf14959d51c16744f8,S&R's 3 Star Restaurant,52.369442,4.874919,American Restaurant
317,52.3698609293324,4.872393411690705,35,15,4a27db43f964a520ee921fe3,Star of India,52.37085,4.869782,Indian Restaurant
318,52.3698609293324,4.872393411690705,35,16,4a27080bf964a520988f1fe3,My Burrito,52.37166269194424,4.873420202391381,Mexican Restaurant
319,52.3698609293324,4.872393411690705,35,17,5184ce46498eb7d5098ba852,Portami Via,52.36839418042833,4.871180373542069,Italian Restaurant
320,52.3698609293324,4.872393411690705,35,18,5218cffabce66201f8b58207,Suri-Exquise,52.3683807436603,4.871084690093994,Caribbean Restaurant
321,52.3698609293324,4.872393411690705,35,19,4e3005cde4cdb5a70d6de267,Candela,52.370176568613495,4.870405232106123,Chocolate Shop
322,52.3698609293324,4.872393411690705,35,20,4a2707d7f964a520028f1fe3,Thai Kitchen The Only One,52.37132852214897,4.872865676879883,Thai Restaurant
323,52.3698609293324,4.872393411690705,35,21,4a27db22f964a5202b921fe3,Tandoori Express,52.36786612139915,4.8740610466861884,Indian Restaurant
324,52.3698609293324,4.872393411690705,35,22,4d5104fb07b1a090fd30073c,Sjiek Cafe & Deli,52.367829884996254,4.871704134192814,Italian Restaurant
325,52.3698609293324,4.872393411690705,35,23,5177ff84e4b00951bb6a82d7,Ristorante Collina,52.37119273451122,4.871395752836915,Italian Restaurant
326,52.3698609293324,4.872393411690705,35,24,4a270819f964a520a48f1fe3,Mother India,52.37021645598248,4.869971821548583,Indian Restaurant
327,52.3698609293324,4.872393411690705,35,25,569fe142498ed07305ad75c6,Rosetta's Kitchen,52.368477,4.871318,Italian Restaurant
328,52.3698609293324,4.872393411690705,35,26,4a270098f964a520cd831fe3,New Pearl,52.368036,4.871594,Chinese Restaurant
329,52.3698609293324,4.872393411690705,35,27,5373964c498e91fa74ba9cf6,La cocina de Dulcinea,52.370622,4.868968,Tapas Restaurant
330,52.3698609293324,4.872393411690705,35,28,4a27081ef964a520b48f1fe3,Pagode,52.369921331436366,4.870412500170754,Chinese Restaurant
331,52.3698609293324,4.872393411690705,35,29,4b9a814df964a520aabb35e3,Warung Tresno,52.371053,4.871163,South American Restaurant
332,52.3698609293324,4.872393411690705,35,30,546f9e0b498e96a890056685,Burrito,52.371688,4.873496,Mexican Restaurant
333,52.3698609293324,4.872393411690705,35,31,59e63ad6840fc2686fffbd1f,Parsa Restaurant,52.3718594,4.8737336,Italian Restaurant
334,52.3698609293324,4.872393411690705,35,32,5d8a51d0e3e85a0008d1a89c,Diptych - Omakase Room,52.369338,4.872754,Japanese Restaurant
335,52.3698609293324,4.872393411690705,35,33,50cc78a829a61f268d8b0e75,Rocva Dinner Club,52.36839481825166,4.874328651151743,French Restaurant
336,52.3698609293324,4.872393411690705,35,34,5468fa7a498e482997479619,Bistro Döner,52.36824,4.871434,Turkish Restaurant
337,52.36533907066761,4.872393411690705,28,0,5f69d5653c5d034040e26306,Rue La Bastille,52.364546,4.874352,Mediterranean Restaurant
338,52.36533907066761,4.872393411690705,28,1,55b3c1c2498e1bf8d1e07af8,Happyhappyjoyjoy,52.36749554136531,4.871968201151223,Asian Restaurant
339,52.36533907066761,4.872393411690705,28,2,57cdacba38fa90333fcd3059,Café Amoi,52.36740753472026,4.872828045859926,Indonesian Restaurant
340,52.36533907066761,4.872393411690705,28,3,57a384f1498e39ed4d9933db,Seoul Food,52.367094917809574,4.871659791954687,Korean Restaurant
341,52.36533907066761,4.872393411690705,28,4,594aadaca2a6ce5a03ebab40,Poké Perfect,52.367074284213665,4.871689466154026,Hawaiian Restaurant
342,52.36533907066761,4.872393411690705,28,5,5fba82bcd90bc55453f73a4e,Kazik,52.365852,4.8728404,Polish Restaurant
343,52.36533907066761,4.872393411690705,28,6,5e37117df142190008d46c74,Vegan Sushi Bar,52.366898,4.871502,Vegetarian / Vegan Restaurant
344,52.36533907066761,4.872393411690705,28,7,4dfb6f4bd164f73de7cd02ee,Pastis,52.364934149674596,4.87396300270025,French Restaurant
345,52.36533907066761,4.872393411690705,28,8,4fed8402e4b0d57e700e28fd,Miss Saigon,52.36593909636166,4.873119912208149,Vietnamese Restaurant
346,52.36533907066761,4.872393411690705,28,9,5d559d1c1137220008f102ba,Pho 91,52.366955,4.8716874,Vietnamese Restaurant
347,52.36533907066761,4.872393411690705,28,10,5a7359f74c954c49897cadbc,Tapasrestaurant Narbonne,52.365536,4.8759837,Tapas Restaurant
348,52.36533907066761,4.872393411690705,28,11,5d22703d72590d00306101f9,De Japanner West,52.364018,4.874675,Japanese Restaurant
349,52.36533907066761,4.872393411690705,28,12,540745cd498e5c53149a66f6,ROOM 66,52.367447,4.872756,Mediterranean Restaurant
350,52.36533907066761,4.872393411690705,28,13,4a2707d3f964a520f28e1fe3,Taco Mundo,52.365459295546344,4.873393343437539,Mexican Restaurant
351,52.36533907066761,4.872393411690705,28,14,4b10272ff964a5201e6a23e3,Soytasty,52.366358021834685,4.872822663622447,Sushi Restaurant
352,52.36533907066761,4.872393411690705,28,15,4ff85ce2e4b021ccc819aeec,Don Patatas,52.3669,4.8716,Caribbean Restaurant
353,52.36533907066761,4.872393411690705,28,16,5780eadc498e9ca4f0c144ca,Pizzeria ijssalon Italia,52.364021,4.874269,Italian Restaurant
354,52.36533907066761,4.872393411690705,28,17,4a270500f964a520b8861fe3,Marmara,52.36668191539618,4.870039511918556,Turkish Restaurant
355,52.36533907066761,4.872393411690705,28,18,55c74335498e6665baf61548,Peruvian Cuisine,52.366917565308285,4.872390005916481,Peruvian Restaurant
356,52.36533907066761,4.872393411690705,28,19,51039cdbe4b0f2b950605902,Szomowong,52.36665918062952,4.8724370327191595,Chinese Restaurant
357,52.36533907066761,4.872393411690705,28,20,5ef08af918cbdf000855ec5b,Alberto Rodriguez Zapata,52.3668674,4.872671500000001,Peruvian Restaurant
358,52.36533907066761,4.872393411690705,28,21,4a270781f964a520ff8d1fe3,Zina,52.365043,4.874293,Middle Eastern Restaurant
359,52.36533907066761,4.872393411690705,28,22,532748af498e0c5b0bcd240b,Mozzarella Bar,52.36400176665012,4.874211624193919,Italian Restaurant
360,52.36533907066761,4.872393411690705,28,23,527d252f498eca4075576fca,Eethuis Maramara,52.36512740705478,4.873320975057177,Turkish Restaurant
361,52.36533907066761,4.872393411690705,28,24,4a2707c2f964a520b88e1fe3,Riaz,52.366588247541856,4.872675170338703,South American Restaurant
362,52.36533907066761,4.872393411690705,28,25,5df123a17275f80008a8092b,Pad Thai,52.366467,4.869438,Thai Restaurant
363,52.36533907066761,4.872393411690705,28,26,5cd5c6be1ffed7002c998db5,La Roma,52.364099,4.874355,Pizza Place
364,52.36533907066761,4.872393411690705,28,27,50eac592e4b0a168bddcb6c2,Pop-up restaurant By Niven Kunz,52.36393173467725,4.874393760645904,French Restaurant
365,52.3676,4.885638461538461,24,0,4aa68993f964a5201c4a20e3,Casa Perù,52.366426,4.882981,Latin American Restaurant
366,52.3676,4.885638461538461,24,1,58387e93a6118c60b583b341,The Lebanese Sajeria,52.36875648205039,4.887505185286836,Lebanese Restaurant
367,52.3676,4.885638461538461,24,2,5564c448498effbebd316cfd,Ron Gastrobar Oriental,52.365911489860316,4.884769384342688,Asian Restaurant
368,52.3676,4.885638461538461,24,3,4a2707a1f964a520738e1fe3,Casa di David,52.36843995727509,4.887874498405346,Italian Restaurant
369,52.3676,4.885638461538461,24,4,4a2707c0f964a520b08e1fe3,Goodies,52.36883810755008,4.8858727077637285,Sandwich Place
370,52.3676,4.885638461538461,24,5,56195619498e8c61daae7a67,Brasserie Ambassade,52.369288,4.887159,French Restaurant
371,52.3676,4.885638461538461,24,6,4d519fd3dcce224b20fee31b,Billy Thais Restaurant,52.36787246348806,4.882484512592879,Thai Restaurant
372,52.3676,4.885638461538461,24,7,588ba0b818384c6bf170561b,Tjin's,52.365852,4.8860393,African Restaurant
373,52.3676,4.885638461538461,24,8,4a2707c1f964a520b38e1fe3,Pastini Trattoria,52.366612,4.884615,Italian Restaurant
374,52.3676,4.885638461538461,24,9,53aab3c9498e19106dbd52a7,Caffè Milano,52.36887126508515,4.888519985071146,Italian Restaurant
375,52.3676,4.885638461538461,24,10,50f991dfe4b0141902c28555,Christofiori,52.368069,4.883084,Eastern European Restaurant
376,52.3676,4.885638461538461,24,11,5d500e8fb42d68000861b83c,Kit At 384,52.36927,4.884013,Sushi Restaurant
377,52.3676,4.885638461538461,24,12,4c9f861d0e9bb1f76731f15f,Kadijk De Winkel,52.368843,4.885299,Asian Restaurant
378,52.3676,4.885638461538461,24,13,513cc501e4b02357e8e540aa,Golden bear,52.36563403636532,4.885029327610227,Portuguese Restaurant
379,52.3676,4.885638461538461,24,14,4a27db1df964a52004921fe3,Restaurant Portugalia,52.36562362222581,4.885140832364926,Portuguese Restaurant
380,52.3676,4.885638461538461,24,15,599d730cdee77055bd347153,welcome to italy,52.369125,4.888205,Italian Restaurant
381,52.3676,4.885638461538461,24,16,55e2d442498ed5c509d0d1aa,The French Connection,52.367486545299315,4.88889992237091,French Restaurant
382,52.3676,4.885638461538461,24,17,4ebfed916da15b4ddf11fe80,U.S. Food,52.365486,4.885757,American Restaurant
383,52.3676,4.885638461538461,24,18,5db7226ebfb9f20008e0e6f6,Happyhappyjoyjoy Downtown,52.367637,4.888799,Asian Restaurant
384,52.3676,4.885638461538461,24,19,4a270752f964a520968d1fe3,Restaurant Vinkeles,52.369239553552404,4.8836822547790915,French Restaurant
385,52.3676,4.885638461538461,24,20,4a2707dbf964a520088f1fe3,Beulings,52.36803114505354,4.887702860702847,French Restaurant
386,52.3676,4.885638461538461,24,21,52b6ac55498e9578dd48ec20,Johannes,52.36744646334398,4.8871117159165225,French Restaurant
387,52.3676,4.885638461538461,24,22,4a2707d0f964a520e68e1fe3,Pianeta Terra,52.36805516881032,4.8879344846954735,Italian Restaurant
388,52.3676,4.885638461538461,24,23,4f4400e8e4b0a2bdc7fd9a58,Leidsplein,52.36551422587261,4.886024145140785,Asian Restaurant
389,52.3698609293324,4.8819604344631395,36,0,4b101cd8f964a520446923e3,Raïnaraï,52.371941171594386,4.882669991052285,Deli / Bodega
390,52.3698609293324,4.8819604344631395,36,1,4bccb642fb84c9b608e4203e,Pazzi Italian Slow Food,52.36929558897549,4.880814409211811,Pizza Place
391,52.3698609293324,4.8819604344631395,36,2,5bafa981c0f163002cee1782,Bar Parry,52.368954,4.881132,Tapas Restaurant
392,52.3698609293324,4.8819604344631395,36,3,542ef5a3498e14ac517bee46,Fou Fow Ramen,52.3701920766011,4.882416070294968,Ramen Restaurant
393,52.3698609293324,4.8819604344631395,36,4,4a26ffb6f964a520b5801fe3,Eetcafé Festina Lente,52.368679,4.881404,Bar
394,52.3698609293324,4.8819604344631395,36,5,4a270803f964a520768f1fe3,La Festa,52.36991118013545,4.880365226785609,Italian Restaurant
395,52.3698609293324,4.8819604344631395,36,6,5c48c1ee492822002d02ce43,Fou Fow Udon,52.371077,4.883208,Udon Restaurant
396,52.3698609293324,4.8819604344631395,36,7,4aa94878f964a520e15220e3,Rakang Thai Restaurant,52.36981571887408,4.881251917696607,Thai Restaurant
397,52.3698609293324,4.8819604344631395,36,8,4c0bddcddb369c7405dd91ea,Cibo & Vino,52.36921459263361,4.87947886673753,Italian Restaurant
398,52.3698609293324,4.8819604344631395,36,9,5f3ff1468614da026799176b,Dutch Dabba Wala,52.369053,4.878789,Fast Food Restaurant
399,52.3698609293324,4.8819604344631395,36,10,4d519fd3dcce224b20fee31b,Billy Thais Restaurant,52.36787246348806,4.882484512592879,Thai Restaurant
400,52.3698609293324,4.8819604344631395,36,11,59de13b79de23b0861f74d29,Men Impossible,52.370672,4.88001,Ramen Restaurant
401,52.3698609293324,4.8819604344631395,36,12,4a26ffc5f964a520eb801fe3,Balthazar's Keuken,52.369387803392534,4.879847054427781,French Restaurant
402,52.3698609293324,4.8819604344631395,36,13,4dc2c8e7fa7608e86fe18c74,Trattoria Totó da Lucia,52.3679043122613,4.881750823227537,Italian Restaurant
403,52.3698609293324,4.8819604344631395,36,14,4b76fdb6f964a52028722ee3,A La Plancha Tapas Bar,52.368965,4.881068,Tapas Restaurant
404,52.3698609293324,4.8819604344631395,36,15,4a270781f964a520048e1fe3,De Struisvogel,52.3703580121279,4.884425860868299,French Restaurant
405,52.3698609293324,4.8819604344631395,36,16,4f1199d7e4b0d3f8a58f22be,Medina Marrakech,52.369103012865445,4.8787490170798105,Moroccan Restaurant
406,52.3698609293324,4.8819604344631395,36,17,5bba4466e65d0c003959bb7c,29 Spices,52.37004,4.88152,Indian Restaurant
407,52.3698609293324,4.8819604344631395,36,18,4a26ffeff964a52083811fe3,A la Plancha,52.36895427704314,4.881090434728954,Tapas Restaurant
408,52.3698609293324,4.8819604344631395,36,19,4cd30df508f48cfa02009e85,Hazenstraat,52.37174627075743,4.88186812373057,American Restaurant
409,52.3698609293324,4.8819604344631395,36,20,5880b182bbec6667dfb48502,Libertine Café Café,52.370355006404516,4.8855351330401415,Italian Restaurant
410,52.3698609293324,4.8819604344631395,36,21,50f991dfe4b0141902c28555,Christofiori,52.368069,4.883084,Eastern European Restaurant
411,52.3698609293324,4.8819604344631395,36,22,5d500e8fb42d68000861b83c,Kit At 384,52.36927,4.884013,Sushi Restaurant
412,52.3698609293324,4.8819604344631395,36,23,52bd710a11d23846b6d1dc90,Kathmandu Kitchen Nepali Indian Restaurant Amsterdam,52.37000707031183,4.881627503694306,Indian Restaurant
413,52.3698609293324,4.8819604344631395,36,24,52e93e18498e3bfbfcf312ec,Agra Eethuis,52.36904625333804,4.878609307866925,Indian Restaurant
414,52.3698609293324,4.8819604344631395,36,25,5a5a04a8f62f2b466d62a512,Libertine Comptoir De Cuisine,52.370365,4.8836803,French Restaurant
415,52.3698609293324,4.8819604344631395,36,26,513cb9e6e4b024278488540b,De Proeverij,52.37075210141353,4.882094604153422,French Restaurant
416,52.3698609293324,4.8819604344631395,36,27,4f6ee5d1e4b03b3f3ab4b251,Keizerculinair,52.370741,4.878844,Mediterranean Restaurant
417,52.3698609293324,4.8819604344631395,36,28,4a270752f964a520968d1fe3,Restaurant Vinkeles,52.369239553552404,4.8836822547790915,French Restaurant
418,52.3698609293324,4.8819604344631395,36,29,4a270854f964a5204c901fe3,Bromo Indah,52.369521,4.880525,Indian Restaurant
419,52.3698609293324,4.8819604344631395,36,30,4be70768cf200f47bd2a153c,Traiteur De Zeven Heuvels,52.36905,4.878817,Mediterranean Restaurant
420,52.3698609293324,4.8819604344631395,36,31,590b4593d1a4026ce670a843,Dapoer Djawa Amsterdam,52.369092,4.878598,Indonesian Restaurant
421,52.3698609293324,4.8819604344631395,36,32,5ed388ffe28f8b00076c587c,Pad Thai World,52.370369,4.883487,Thai Restaurant
422,52.3698609293324,4.8819604344631395,36,33,4b4027dcf964a52058b625e3,Envy,52.371635,4.883209,Modern European Restaurant
423,52.3698609293324,4.8819604344631395,36,34,4a27002cf964a5208a821fe3,Palladio,52.36985998108479,4.88130205219132,Italian Restaurant
424,52.3698609293324,4.8819604344631395,36,35,4a270876f964a520d0901fe3,Thai Fusion,52.37037566090093,4.883968946170543,Thai Restaurant
425,52.36533907066761,4.8819604344631395,50,0,55105ffe498e2cba788783f0,Sumo,52.363416216161106,4.883759271274172,Sushi Restaurant
426,52.36533907066761,4.8819604344631395,50,1,4aa68993f964a5201c4a20e3,Casa Perù,52.366426,4.882981,Latin American Restaurant
427,52.36533907066761,4.8819604344631395,50,2,59cb63f950a6f0209c7bfce1,Umaimon,52.36464899374385,4.882639935709376,Ramen Restaurant
428,52.36533907066761,4.8819604344631395,50,3,5564c448498effbebd316cfd,Ron Gastrobar Oriental,52.365911489860316,4.884769384342688,Asian Restaurant
429,52.36533907066761,4.8819604344631395,50,4,4a270056f964a52016831fe3,Satellite Sportscafé,52.36408861338606,4.883443571625654,Sports Bar
430,52.36533907066761,4.8819604344631395,50,5,5332b661498e2231c7159b77,Wurst & Schnitzelhaus,52.364560009027365,4.885031067724939,German Restaurant
431,52.36533907066761,4.8819604344631395,50,6,51ec2c2a498e2236f65e12f9,Casa Di Sergio,52.36391885413719,4.883826862948625,Italian Restaurant
432,52.36533907066761,4.8819604344631395,50,7,5c6c24f2ecb3ed0025efda90,Full Moon Garden,52.364660530207175,4.884052500128746,Chinese Restaurant
433,52.36533907066761,4.8819604344631395,50,8,4a2705e4f964a5203d891fe3,De Kring,52.3635573966358,4.8834625361013595,French Restaurant
434,52.36533907066761,4.8819604344631395,50,9,4cf96d6ed7206ea8c9b23269,Grand Café DeLaMar,52.364445699378514,4.881027842811869,French Restaurant
435,52.36533907066761,4.8819604344631395,50,10,5d5ebaf85c9a0300089744c0,ITA Brasserie,52.363926,4.882396,Brasserie
436,52.36533907066761,4.8819604344631395,50,11,4a2707e2f964a5201a8f1fe3,Wok to Walk,52.36467652071543,4.883655931845822,Noodle House
437,52.36533907066761,4.8819604344631395,50,12,5c794c3975eee4002c13ba55,Fenicie Amsterdam,52.363505,4.883597,Lebanese Restaurant
438,52.36533907066761,4.8819604344631395,50,13,5e58164b36507b0008f95948,Restaurant Gandhi,52.364895,4.883212,Indian Restaurant
439,52.36533907066761,4.8819604344631395,50,14,4f22ab28e4b04b552389b14f,Braziliaans Grill Restaurant,52.364267,4.884151,Brazilian Restaurant
440,52.36533907066761,4.8819604344631395,50,15,52374f6911d2c78a04e308ed,Steak House,52.363915581077414,4.883746520656842,Mexican Restaurant
441,52.36533907066761,4.8819604344631395,50,16,54bfdaf0498e899b8de37632,Tokapi,52.364124108444514,4.884418375843811,Moroccan Restaurant
442,52.36533907066761,4.8819604344631395,50,17,4bc60321db8fa5938c999b37,Street Food,52.36413131484836,4.884199620510064,Asian Restaurant
443,52.36533907066761,4.8819604344631395,50,18,4e99cbb5f5b9d590044926ea,Ristorante Settebello,52.363763929664486,4.883911062436958,Italian Restaurant
444,52.36533907066761,4.8819604344631395,50,19,4fb7f139e4b0d712566245e5,Bollywood Indian Restaurant,52.3639814390084,4.88460817142086,Indian Restaurant
445,52.36533907066761,4.8819604344631395,50,20,4a2707c1f964a520b38e1fe3,Pastini Trattoria,52.366612,4.884615,Italian Restaurant
446,52.36533907066761,4.8819604344631395,50,21,535e8b0b11d27368b03b4ee7,HENK,52.366254,4.882392,Modern European Restaurant
447,52.36533907066761,4.8819604344631395,50,22,4a27084bf964a52033901fe3,Pisa,52.36440565072917,4.883982753770888,Italian Restaurant
448,52.36533907066761,4.8819604344631395,50,23,4a2707c9f964a520ce8e1fe3,O Sole Mio,52.364395979123515,4.884005556079686,Italian Restaurant
449,52.36533907066761,4.8819604344631395,50,24,5dfe77f25ac68900084b3a2a,Restaurant Torre Di Pisa,52.36443,4.883933,Italian Restaurant
450,52.36533907066761,4.8819604344631395,50,25,59f32f70c47cf9709984cf95,The Food Stage,52.364623965189736,4.880850152657447,Food Truck
451,52.36533907066761,4.8819604344631395,50,26,586fcba41e1de52825102f8e,Vietnamese Restaurant & Noodle Bar Pho,52.36467,4.882576,Vietnamese Restaurant
452,52.36533907066761,4.8819604344631395,50,27,5776ae72498e283010a59dee,Maaz,52.364619,4.88363,Middle Eastern Restaurant
453,52.36533907066761,4.8819604344631395,50,28,5c0ff15ee97dfb002c62d6ce,Saigon Càphê,52.364633,4.883796,Vietnamese Restaurant
454,52.36533907066761,4.8819604344631395,50,29,4b96ad30f964a5204add34e3,Sumo,52.364479499244204,4.8827005741426035,Sushi Restaurant
455,52.36533907066761,4.8819604344631395,50,30,4fc3a3fbe4b05c2ab9ba13a0,Waves Greek Restaurant,52.36429820720359,4.884184375613701,Greek Restaurant
456,52.36533907066761,4.8819604344631395,50,31,53aafeaf498ecfb18ff07685,Matius,52.363792419433594,4.884040832519531,Mexican Restaurant
457,52.36533907066761,4.8819604344631395,50,32,5a22e057c21cb1727d9aca58,De Molenwiek,52.363752767934734,4.884038139186758,Dutch Restaurant
458,52.36533907066761,4.8819604344631395,50,33,4a270852f964a52044901fe3,Bombay Inn,52.36510274909614,4.882919008307246,Indian Restaurant
459,52.36533907066761,4.8819604344631395,50,34,513cc501e4b02357e8e540aa,Golden bear,52.36563403636532,4.885029327610227,Portuguese Restaurant
460,52.36533907066761,4.8819604344631395,50,35,4a27db3df964a520c6921fe3,Royal Thai Restaurant,52.36413350950855,4.884296498589584,Thai Restaurant
461,52.36533907066761,4.8819604344631395,50,36,4a27db1df964a52004921fe3,Restaurant Portugalia,52.36562362222581,4.885140832364926,Portuguese Restaurant
462,52.36533907066761,4.8819604344631395,50,37,4a270872f964a520be901fe3,Pizza Pino,52.36404421094228,4.884506711438102,Pizza Place
463,52.36533907066761,4.8819604344631395,50,38,4d95fa70af3d236a0f8afec6,Trattoria Fantasia,52.364473687315105,4.8811034356028875,Italian Restaurant
464,52.36533907066761,4.8819604344631395,50,39,4dd6c37352b1a5c6443bf84b,Restaurant Thijs,52.3650894157896,4.884199710529581,Mediterranean Restaurant
465,52.36533907066761,4.8819604344631395,50,40,4b9aefddf964a520dfe435e3,Crystal,52.364774398245544,4.884111693080079,Falafel Restaurant
466,52.36533907066761,4.8819604344631395,50,41,5c683c31e55d8b002d941a82,Fenicie,52.36353,4.883544,Middle Eastern Restaurant
467,52.36533907066761,4.8819604344631395,50,42,516727cee4b062682a3b03e9,Villa Maria Quality Steak,52.36402839092446,4.884576079197429,Argentinian Restaurant
468,52.36533907066761,4.8819604344631395,50,43,5c1ac5bb66f3cd002cd5482e,Zero20,52.364314670069476,4.884281158447266,New American Restaurant
469,52.36533907066761,4.8819604344631395,50,44,4a27088af964a52011911fe3,Do Brasil,52.364296658423626,4.884140278189767,Brazilian Restaurant
470,52.36533907066761,4.8819604344631395,50,45,53f8de0c498ef2ad1a7750b2,DoBrasil,52.365359,4.885141,Brazilian Restaurant
471,52.36533907066761,4.8819604344631395,50,46,5c8145b261f070002cc0be66,Amsterdam Wood Fired Pizza,52.364393,4.88502,Italian Restaurant
472,52.36533907066761,4.8819604344631395,50,47,4a26fff0f964a52087811fe3,De Oesterbar,52.364488714788,4.882685823071586,French Restaurant
473,52.36533907066761,4.8819604344631395,50,48,5287a210498eb77c7bfb5b55,crystal halal restaurant,52.364871978759766,4.884037017822266,Middle Eastern Restaurant
474,52.36533907066761,4.8819604344631395,50,49,4b3bd2f6f964a520eb7b25e3,Rancho,52.364153,4.883752,Argentinian Restaurant
475,52.3698609293324,4.889316488613782,50,0,5b918a0460d11b002c3228e1,Cecconi’s,52.372066,4.888894,Italian Restaurant
476,52.3698609293324,4.889316488613782,50,1,4a270806f964a520858f1fe3,Kantjil & de Tijger,52.369158383226605,4.889121253766562,Indonesian Restaurant
477,52.3698609293324,4.889316488613782,50,2,58387e93a6118c60b583b341,The Lebanese Sajeria,52.36875648205039,4.887505185286836,Lebanese Restaurant
478,52.3698609293324,4.889316488613782,50,3,4db199c8cda14b702a4896d4,Rancho,52.368948,4.891319,Argentinian Restaurant
479,52.3698609293324,4.889316488613782,50,4,594ce9756eda024e0ab89e50,Metropolitain,52.37040188377881,4.892747281420158,French Restaurant
480,52.3698609293324,4.889316488613782,50,5,4a2703dbf964a520a2851fe3,Haesje Claes,52.3698402,4.8891781,Dutch Restaurant
481,52.3698609293324,4.889316488613782,50,6,585000f23493551a7a9565fb,Proeflokaal A. van Wees,52.3699843531431,4.8869824556273675,Dutch Restaurant
482,52.3698609293324,4.889316488613782,50,7,57bb33fd498e97d5fda09865,Adam & Siam,52.37010561748997,4.892682420094104,Thai Restaurant
483,52.3698609293324,4.889316488613782,50,8,4a2707a1f964a520738e1fe3,Casa di David,52.36843995727509,4.887874498405346,Italian Restaurant
484,52.3698609293324,4.889316488613782,50,9,5eda7eee357a3900080c408f,Bar Rouge,52.367994,4.889311,Cocktail Bar
485,52.3698609293324,4.889316488613782,50,10,56195619498e8c61daae7a67,Brasserie Ambassade,52.369288,4.887159,French Restaurant
486,52.3698609293324,4.889316488613782,50,11,5de24f46d02cb90007c2e3be,Pancakes Amsterdam,52.3691308,4.8913775,Dutch Restaurant
487,52.3698609293324,4.889316488613782,50,12,5568a855498e977c132fd3cc,Café de Paris,52.370399927654276,4.892720601945337,French Restaurant
488,52.3698609293324,4.889316488613782,50,13,4a26ff8ff964a5202c801fe3,Dante Kitchen & Bar,52.36905913504806,4.888681554369117,Italian Restaurant
489,52.3698609293324,4.889316488613782,50,14,4a27db6ef964a520ca931fe3,Vasso,52.3691209499392,4.89041961453549,Italian Restaurant
490,52.3698609293324,4.889316488613782,50,15,4a27033ff964a520e0841fe3,Tapas bar Català,52.369013116327785,4.888797774133406,Tapas Restaurant
491,52.3698609293324,4.889316488613782,50,16,4ce1272bc4f6a35d8c9ed96c,Noname,52.370484619994684,4.88617210282462,Asian Restaurant
492,52.3698609293324,4.889316488613782,50,17,54103c52498e888bed7998ef,Verbijsterend Kookschool en Private Dinning,52.3700583543253,4.88855653652472,French Restaurant
493,52.3698609293324,4.889316488613782,50,18,4a27db14f964a520bb911fe3,La Tosca,52.371003,4.89071,Italian Restaurant
494,52.3698609293324,4.889316488613782,50,19,561fee76498effadeb6cbb7e,Indonesian Kitchen,52.37090056033015,4.886964938325078,Indonesian Restaurant
495,52.3698609293324,4.889316488613782,50,20,520f9a2311d2be9b2394738f,the dutch tapas bar,52.37134552001953,4.889347076416016,Spanish Restaurant
496,52.3698609293324,4.889316488613782,50,21,5aaa5ec078782c26564f0166,indogo,52.369466,4.892352,Indonesian Restaurant
497,52.3698609293324,4.889316488613782,50,22,4fa9335de4b0ad11ded3be27,Los Santos,52.36939944183718,4.888878759002617,Argentinian Restaurant
498,52.3698609293324,4.889316488613782,50,23,4ef3683d2c5b6efc35fcead5,Restaurant Tropics Lounge,52.37187576293945,4.8906474113464355,Spanish Restaurant
499,52.3698609293324,4.889316488613782,50,24,53aab3c9498e19106dbd52a7,Caffè Milano,52.36887126508515,4.888519985071146,Italian Restaurant
500,52.3698609293324,4.889316488613782,50,25,554e4017498e552cc320194d,Terpentijn,52.369762889835506,4.892434777096831,Cocktail Bar
501,52.3698609293324,4.889316488613782,50,26,4a27086cf964a520a8901fe3,Yun Zhong,52.371389,4.890187,Chinese Restaurant
502,52.3698609293324,4.889316488613782,50,27,5e550b7578ee900008bc626e,Little Brazil,52.370196,4.888581,Brazilian Restaurant
503,52.3698609293324,4.889316488613782,50,28,5babb33e345cbe002c852760,Hanoi Old Quarter,52.370308,4.8895106,Vietnamese Restaurant
504,52.3698609293324,4.889316488613782,50,29,57050355498e4aa7acb1025b,Ling's wok,52.369354,4.891693,Asian Restaurant
505,52.3698609293324,4.889316488613782,50,30,4a27db39f964a520ab921fe3,Alberto's,52.36900474495115,4.891349765312104,Steakhouse
506,52.3698609293324,4.889316488613782,50,31,5956a106178a2a234abd1692,Wok 2 Home,52.368076,4.8908377,Asian Restaurant
507,52.3698609293324,4.889316488613782,50,32,599d730cdee77055bd347153,welcome to italy,52.369125,4.888205,Italian Restaurant
508,52.3698609293324,4.889316488613782,50,33,4dab15cc1e72c1ab9c023e4f,Dakterras La Margharita,52.369043,4.89246,Mexican Restaurant
509,52.3698609293324,4.889316488613782,50,34,4cc1ce4e914137047cbcaf55,La Piccola Trattoria,52.36901903860058,4.889287324127021,Italian Restaurant
510,52.3698609293324,4.889316488613782,50,35,4b8ad17df964a520248332e3,Kantjil To Go,52.36908399181781,4.889314121164516,Indonesian Restaurant
511,52.3698609293324,4.889316488613782,50,36,4e57c05952b1748f806bd631,Vladitos,52.370892,4.889242,Mexican Restaurant
512,52.3698609293324,4.889316488613782,50,37,4de8e4a1d1648c97963d8924,New Asian,52.369072,4.888828,Asian Restaurant
513,52.3698609293324,4.889316488613782,50,38,50feb90ce4b0870dc064332e,W+K All Agency Mtg,52.371424,4.886875,Dim Sum Restaurant
514,52.3698609293324,4.889316488613782,50,39,5db7226ebfb9f20008e0e6f6,Happyhappyjoyjoy Downtown,52.367637,4.888799,Asian Restaurant
515,52.3698609293324,4.889316488613782,50,40,520a1c5e498ee4e0b74bcdb6,Winjkaart Barsserie,52.369368,4.892635,Italian Restaurant
516,52.3698609293324,4.889316488613782,50,41,4a27db1cf964a520fb911fe3,Sushi,52.3691992433258,4.891868147755,Sushi Restaurant
517,52.3698609293324,4.889316488613782,50,42,54de8572498e42d62ff8a635,de Paki,52.368938,4.888837,Afghan Restaurant
518,52.3698609293324,4.889316488613782,50,43,4a2707dbf964a520088f1fe3,Beulings,52.36803114505354,4.887702860702847,French Restaurant
519,52.3698609293324,4.889316488613782,50,44,59c15ada66f3cd5089525ae8,Bistro De Struisvogel,52.370365,4.890045,Dutch Restaurant
520,52.3698609293324,4.889316488613782,50,45,59492d81625a666444390e03,Huisregels,52.368057,4.890118,Dutch Restaurant
521,52.3698609293324,4.889316488613782,50,46,4a2707d0f964a520e68e1fe3,Pianeta Terra,52.36805516881032,4.8879344846954735,Italian Restaurant
522,52.3698609293324,4.889316488613782,50,47,4a27db50f964a5201d931fe3,Huiskamerrestaurant Kookerij De Singel,52.370244417597235,4.8885029554367065,Mediterranean Restaurant
523,52.3698609293324,4.889316488613782,50,48,574df728498e459bfcd54856,Grekas Griekse Traiterie,52.3703786,4.888597400000001,Greek Restaurant
524,52.3698609293324,4.889316488613782,50,49,52ee3ae7498e015e74e4771a,Wok Snack Chinese Food,52.36931319921103,4.891921876678979,Chinese Restaurant
525,52.36533907066761,4.889316488613782,50,0,58e3f571ac32911b5149ac51,Verona Restorante Italiano,52.36679702681027,4.88945587893149,Italian Restaurant
526,52.36533907066761,4.889316488613782,50,1,4d04d38337036dcbb22a13fb,Lion Noir,52.36650458142847,4.8903593925487225,French Restaurant
527,52.36533907066761,4.889316488613782,50,2,505c741a011c7f0b2487f919,Los Pilones Cantina Mexico,52.36505537555716,4.88611398512205,Mexican Restaurant
528,52.36533907066761,4.889316488613782,50,3,4f7360d3be77a14fae4a0d3f,Sumo,52.36546388699385,4.892687201499939,Sushi Restaurant
529,52.36533907066761,4.889316488613782,50,4,5a9d5f34a2a6ce58f7486eb8,Roses by SAL,52.366344032852176,4.891236581251886,Latin American Restaurant
530,52.36533907066761,4.889316488613782,50,5,5bb10f64364d97002c367e6a,Baibua Thai Eethuis,52.36654,4.891534,Thai Restaurant
531,52.36533907066761,4.889316488613782,50,6,4a2703c5f964a5205a851fe3,Pasta e Basta,52.36479276284802,4.889898662061348,Italian Restaurant
532,52.36533907066761,4.889316488613782,50,7,4a2704bef964a52019861fe3,Downtown,52.36651991704449,4.890373976492423,Coffee Shop
533,52.36533907066761,4.889316488613782,50,8,4f92f9b6e4b0f08d3fca9fdf,Genki Garden,52.366454763881165,4.890224170761175,Sushi Restaurant
534,52.36533907066761,4.889316488613782,50,9,59467cde3149b909cb0be63c,Vatten Ramen,52.36338723869722,4.888783722206461,Ramen Restaurant
535,52.36533907066761,4.889316488613782,50,10,5315dba511d2fb67fc44c353,Il Primo Ristorante,52.36677209414334,4.889520933584602,Italian Restaurant
536,52.36533907066761,4.889316488613782,50,11,521f7c51498ec4571e1d26bb,Campo de' Fiori,52.36644488172689,4.890845385210585,Italian Restaurant
537,52.36533907066761,4.889316488613782,50,12,5814dd2338fae2e5a287a722,The Big Apple,52.366671,4.889696,New American Restaurant
538,52.36533907066761,4.889316488613782,50,13,4a2707c4f964a520c18e1fe3,Sampurna,52.36694,4.890208,Indonesian Restaurant
539,52.36533907066761,4.889316488613782,50,14,588ba0b818384c6bf170561b,Tjin's,52.365852,4.8860393,African Restaurant
540,52.36533907066761,4.889316488613782,50,15,4a270834f964a520eb8f1fe3,Saturnino,52.36689044849317,4.889295232263505,Italian Restaurant
541,52.36533907066761,4.889316488613782,50,16,4a27080af964a520978f1fe3,Sichuan Food,52.366485198370775,4.890520762325372,Chinese Restaurant
542,52.36533907066761,4.889316488613782,50,17,50911051e4b09fc320fc2e52,Fior di Pasta,52.36332321166992,4.888507843017578,Italian Restaurant
543,52.36533907066761,4.889316488613782,50,18,5d0f6acda8da6700231e1f75,La Fucina Bloemenmarkt,52.366553,4.891532,Italian Restaurant
544,52.36533907066761,4.889316488613782,50,19,5329ca52498ec677838e31fc,Genroku,52.36646432332977,4.890068480718668,Sushi Restaurant
545,52.36533907066761,4.889316488613782,50,20,5570aff2498e61b3f3607eb1,Mimi,52.363396064064595,4.888784840039023,Italian Restaurant
546,52.36533907066761,4.889316488613782,50,21,50b23a5ee4b06cad40ac1ce9,Pasta house,52.36673,4.8914,Italian Restaurant
547,52.36533907066761,4.889316488613782,50,22,4a27db20f964a5201f921fe3,La Margarita,52.3664114074053,4.891127315464646,Mexican Restaurant
548,52.36533907066761,4.889316488613782,50,23,4f6c698be4b07a4bc360aac4,Rimini,52.366519927978516,4.891713619232178,Middle Eastern Restaurant
549,52.36533907066761,4.889316488613782,50,24,4a27db19f964a520ea911fe3,Los Amigos,52.366347202084995,4.891571391396564,Argentinian Restaurant
550,52.36533907066761,4.889316488613782,50,25,4ecd30b346907179cbd53dfc,Asian King,52.36642185649256,4.891932538532796,Asian Restaurant
551,52.36533907066761,4.889316488613782,50,26,52c0458c11d25a4721849930,el verano,52.366832,4.889387,Italian Restaurant
552,52.36533907066761,4.889316488613782,50,27,5bcdfcf59ba3e500390c2fa5,Pasta Factory,52.366335,4.890718,Italian Restaurant
553,52.36533907066761,4.889316488613782,50,28,5d8fb7bd7e19ea00086f54f7,middl•eat,52.366662,4.889941,Middle Eastern Restaurant
554,52.36533907066761,4.889316488613782,50,29,4ed93b47f5b92139873ed721,Pasta Primo,52.366737164249294,4.889592604855728,Italian Restaurant
555,52.36533907066761,4.889316488613782,50,30,4c18a0a64ff90f476e9f0e49,La Mancha,52.366459912978314,4.8916682968868965,Spanish Restaurant
556,52.36533907066761,4.889316488613782,50,31,4d9b4fad3f785481c38bddd1,Mauriya,52.365295,4.885715,Indian Restaurant
557,52.36533907066761,4.889316488613782,50,32,5741dd7e498e1eb5df4c2545,Las Estrellas,52.36529140069566,4.885670600573625,Italian Restaurant
558,52.36533907066761,4.889316488613782,50,33,56fc291a498e6283da35457a,restaurant peppino,52.36406,4.886551,Italian Restaurant
559,52.36533907066761,4.889316488613782,50,34,55e2d442498ed5c509d0d1aa,The French Connection,52.367486545299315,4.88889992237091,French Restaurant
560,52.36533907066761,4.889316488613782,50,35,5b108a34bcbf7a002cc6eca3,Oztas Doner,52.366311,4.891358,Fast Food Restaurant
561,52.36533907066761,4.889316488613782,50,36,51bc9660498e45609877341d,Norling,52.36655480852178,4.890034374533278,Tibetan Restaurant
562,52.36533907066761,4.889316488613782,50,37,588a4a6bd98f3662f273a6f5,Arepa Shop,52.364284,4.890396,Arepa Restaurant
563,52.36533907066761,4.889316488613782,50,38,4ebfed916da15b4ddf11fe80,U.S. Food,52.365486,4.885757,American Restaurant
564,52.36533907066761,4.889316488613782,50,39,536bf531498e9544dac31368,Snappers,52.366586789236386,4.889970349109912,Cocktail Bar
565,52.36533907066761,4.889316488613782,50,40,54539808498ec012db32cb70,L'Arco Ristorante,52.365309,4.885818,Italian Restaurant
566,52.36533907066761,4.889316488613782,50,41,4b1bf431f964a52097ff23e3,Phutakun,52.36678480740706,4.889486033027072,Thai Restaurant
567,52.36533907066761,4.889316488613782,50,42,4a27db0ef964a5208f911fe3,Garlic Queen,52.36651468313971,4.89019595022269,Mediterranean Restaurant
568,52.36533907066761,4.889316488613782,50,43,583d944dd60c8b0149eef650,Maydakookt,52.366709,4.890399,Arepa Restaurant
569,52.36533907066761,4.889316488613782,50,44,57b20fba498e2973f5b3c0c0,The SHIFT Pasta Take Away,52.36316,4.8884587,Italian Restaurant
570,52.36533907066761,4.889316488613782,50,45,506dc9a1e4b0d3e0a48febf9,La Vaca Argentina,52.36681485888425,4.889409425488308,Argentinian Restaurant
571,52.36533907066761,4.889316488613782,50,46,4efb7048f9ab2e6685926045,Dobson Uzcudun,52.366492434708576,4.89148250270284,Argentinian Restaurant
572,52.36533907066761,4.889316488613782,50,47,5aaa638a58aa7f222d0e0ab0,Bread and Salt,52.366629,4.891564,Middle Eastern Restaurant
573,52.36533907066761,4.889316488613782,50,48,4a2707eef964a5203e8f1fe3,Dynasty,52.366431659924835,4.890696916494039,Asian Restaurant
574,52.36533907066761,4.889316488613782,50,49,4f4400e8e4b0a2bdc7fd9a58,Leidsplein,52.36551422587261,4.886024145140785,Asian Restaurant
575,52.37760000000001,4.885638461538461,35,0,5a96f3562bf9a90623b897cc,Hinata Ramen,52.378770228791865,4.885134191813472,Ramen Restaurant
576,52.37760000000001,4.885638461538461,35,1,4a270005f964a520e9811fe3,De Klepel,52.37794444634737,4.88675658102199,Bar
577,52.37760000000001,4.885638461538461,35,2,5d064615491be7002cb978d6,New Dutch Amsterdam,52.377763,4.886227,Dutch Restaurant
578,52.37760000000001,4.885638461538461,35,3,4a270795f964a520508e1fe3,Shah Jahan,52.377952,4.883446,Indian Restaurant
579,52.37760000000001,4.885638461538461,35,4,5cc37652270ee7002c645d79,El Pibe,52.37865,4.8839383,Argentinian Restaurant
580,52.37760000000001,4.885638461538461,35,5,4a27077ff964a520f68d1fe3,Ko Chang,52.37851218962148,4.883991026717215,Thai Restaurant
581,52.37760000000001,4.885638461538461,35,6,5c117a365d891b002ce2b026,Ristorante Gusto Dei Signori,52.377203,4.888998,Italian Restaurant
582,52.37760000000001,4.885638461538461,35,7,59d7d32866611613973567e8,Mr. Haz Taco Bar,52.37710592455589,4.884221999521745,Taco Place
583,52.37760000000001,4.885638461538461,35,8,4a26fff3f964a52096811fe3,Jottum,52.37805627832892,4.883472663750965,Spanish Restaurant
584,52.37760000000001,4.885638461538461,35,9,53a7174a498e183ecb32f215,Swieti Sranang,52.37835508182743,4.882560208137408,Indonesian Restaurant
585,52.37760000000001,4.885638461538461,35,10,58b1e6779dc8d02dc624a9c5,Locanda,52.378195,4.883414,Italian Restaurant
586,52.37760000000001,4.885638461538461,35,11,4ba7606af964a520248f39e3,La Maschera,52.3775785657772,4.8828465754496095,Italian Restaurant
587,52.37760000000001,4.885638461538461,35,12,4ac64d2cf964a5209bb320e3,Kinnaree Thai Cuisine,52.378080426473105,4.88343920835746,Thai Restaurant
588,52.37760000000001,4.885638461538461,35,13,505c74a3011c7f0b2488057b,Los Pilones Cantina Mexico,52.37814696249686,4.8834228515625,Mexican Restaurant
589,52.37760000000001,4.885638461538461,35,14,56587f7b498e715f61a1e9d1,Alninen,52.377908061515946,4.885214179247101,Italian Restaurant
590,52.37760000000001,4.885638461538461,35,15,5e562a4391bc610008b8d22e,Oeuf Herenstraat,52.377166,4.888824,Breakfast Spot
591,52.37760000000001,4.885638461538461,35,16,511e96ade4b0ed97e0fad075,Bi Yerde,52.37827,4.883137,Turkish Restaurant
592,52.37760000000001,4.885638461538461,35,17,4a27007ff964a5208f831fe3,Koevoet,52.37969017280098,4.885295208888536,Italian Restaurant
593,52.37760000000001,4.885638461538461,35,18,552c0440498e707ea5239f9b,De Eetalage,52.378103,4.883389,Breakfast Spot
594,52.37760000000001,4.885638461538461,35,19,4a2707e6f964a520248f1fe3,Pe-Pe,52.37831073475305,4.882560850019408,Italian Restaurant
595,52.37760000000001,4.885638461538461,35,20,565d8c72498e30567819ba08,Al Ninen,52.378472,4.884467,Italian Restaurant
596,52.37760000000001,4.885638461538461,35,21,4b9a9059f964a520a4c135e3,Sogni Del Sud,52.3780405,4.883493,Italian Restaurant
597,52.37760000000001,4.885638461538461,35,22,5e6bde1cb52bd70008279855,Momenti,52.37721,4.888573,Theme Restaurant
598,52.37760000000001,4.885638461538461,35,23,57c42579cd1044d897c011fc,Asseblies loempia's,52.37933,4.886289,Vietnamese Restaurant
599,52.37760000000001,4.885638461538461,35,24,4a27db64f964a5208c931fe3,Tasca Bellota,52.37724753075422,4.8887809858858455,Mediterranean Restaurant
600,52.37760000000001,4.885638461538461,35,25,4a27085ff964a5207c901fe3,De 2 Grieken,52.37793877899626,4.886858860492972,Greek Restaurant
601,52.37760000000001,4.885638461538461,35,26,4a270860f964a52081901fe3,La Scarpetta,52.37710772877227,4.889188425498928,Italian Restaurant
602,52.37760000000001,4.885638461538461,35,27,4fad499ce4b0346fb5cd295c,Moederskeuken,52.3780506,4.8856576,Tapas Restaurant
603,52.37760000000001,4.885638461538461,35,28,543d793b498eee6cfba2e4d7,The Taste of Vietnam,52.37735447931022,4.88865852355957,Vietnamese Restaurant
604,52.37760000000001,4.885638461538461,35,29,55748953498e4f6cc1e00d60,Mahou,52.377263,4.888781,Paella Restaurant
605,52.37760000000001,4.885638461538461,35,30,4a2707cff964a520e28e1fe3,Prego,52.37727074650271,4.88865106072274,French Restaurant
606,52.37760000000001,4.885638461538461,35,31,59aa774ab23dfa7736c77da0,Rigoletto Cafe,52.377851,4.887046,Café
607,52.37760000000001,4.885638461538461,35,32,5470e03a498efd572e0fc54f,illmattarello,52.378455,4.88441,Italian Restaurant
608,52.37760000000001,4.885638461538461,35,33,4a27051ef964a520fb861fe3,Pondok Indah,52.37821134000001,4.886236,Indonesian Restaurant
609,52.37760000000001,4.885638461538461,35,34,5fd2176d8590195ccb13d7c5,Plato Loco,52.377236,4.888513,Restaurant
610,52.3798609293324,4.8819596016210065,42,0,5a96f3562bf9a90623b897cc,Hinata Ramen,52.378770228791865,4.885134191813472,Ramen Restaurant
611,52.3798609293324,4.8819596016210065,42,1,4d0fbb3a59606dcba987703e,Restaurant Luna,52.38027520653764,4.884520018733725,Argentinian Restaurant
612,52.3798609293324,4.8819596016210065,42,2,4a270795f964a520508e1fe3,Shah Jahan,52.377952,4.883446,Indian Restaurant
613,52.3798609293324,4.8819596016210065,42,3,4a270890f964a5201b911fe3,Toscanini,52.380145,4.8853728,Italian Restaurant
614,52.3798609293324,4.8819596016210065,42,4,50c4d941e4b069afe43915b3,Songkran,52.379266,4.879484,Thai Restaurant
615,52.3798609293324,4.8819596016210065,42,5,5bb1e8cea2a6ce002ca31a50,Houtje Bijten,52.380096,4.8800907,Dutch Restaurant
616,52.3798609293324,4.8819596016210065,42,6,4a2707aef964a520908e1fe3,Cinema Paradiso,52.37834331262415,4.881562497278125,Italian Restaurant
617,52.3798609293324,4.8819596016210065,42,7,5cc37652270ee7002c645d79,El Pibe,52.37865,4.8839383,Argentinian Restaurant
618,52.3798609293324,4.8819596016210065,42,8,4a27077ff964a520f68d1fe3,Ko Chang,52.37851218962148,4.883991026717215,Thai Restaurant
619,52.3798609293324,4.8819596016210065,42,9,4a26ffd7f964a52031811fe3,Duende Dos,52.380837119996755,4.881024245922441,Tapas Restaurant
620,52.3798609293324,4.8819596016210065,42,10,4a270785f964a520148e1fe3,Caramba,52.37970230380313,4.88076377806065,Mexican Restaurant
621,52.3798609293324,4.8819596016210065,42,11,4a26fff3f964a52096811fe3,Jottum,52.37805627832892,4.883472663750965,Spanish Restaurant
622,52.3798609293324,4.8819596016210065,42,12,53a7174a498e183ecb32f215,Swieti Sranang,52.37835508182743,4.882560208137408,Indonesian Restaurant
623,52.3798609293324,4.8819596016210065,42,13,5ef88cdc18cbdf00080dc88c,Café Parlotte,52.378256,4.881766,French Restaurant
624,52.3798609293324,4.8819596016210065,42,14,58b1e6779dc8d02dc624a9c5,Locanda,52.378195,4.883414,Italian Restaurant
625,52.3798609293324,4.8819596016210065,42,15,587b65f60393cc5a9569053a,Nossa Terra,52.37976,4.882046,Portuguese Restaurant
626,52.3798609293324,4.8819596016210065,42,16,4e4e39d662844166697c46a6,Padang Boelan,52.379619,4.882764,Indonesian Restaurant
627,52.3798609293324,4.8819596016210065,42,17,4ac64d2cf964a5209bb320e3,Kinnaree Thai Cuisine,52.378080426473105,4.88343920835746,Thai Restaurant
628,52.3798609293324,4.8819596016210065,42,18,505c74a3011c7f0b2488057b,Los Pilones Cantina Mexico,52.37814696249686,4.8834228515625,Mexican Restaurant
629,52.3798609293324,4.8819596016210065,42,19,511e96ade4b0ed97e0fad075,Bi Yerde,52.37827,4.883137,Turkish Restaurant
630,52.3798609293324,4.8819596016210065,42,20,4ba3bb9af964a520705938e3,Cocina Mexicana,52.379653,4.880797,Mexican Restaurant
631,52.3798609293324,4.8819596016210065,42,21,4a27083ef964a5200e901fe3,Terang Boelan,52.37968477145401,4.882610286493877,Indonesian Restaurant
632,52.3798609293324,4.8819596016210065,42,22,4a27007ff964a5208f831fe3,Koevoet,52.37969017280098,4.885295208888536,Italian Restaurant
633,52.3798609293324,4.8819596016210065,42,23,54c5414f498ebfa050997fee,Roti Palace Ramzan,52.38117218017578,4.884337425231934,South American Restaurant
634,52.3798609293324,4.8819596016210065,42,24,552c0440498e707ea5239f9b,De Eetalage,52.378103,4.883389,Breakfast Spot
635,52.3798609293324,4.8819596016210065,42,25,4a2707e6f964a520248f1fe3,Pe-Pe,52.37831073475305,4.882560850019408,Italian Restaurant
636,52.3798609293324,4.8819596016210065,42,26,565d8c72498e30567819ba08,Al Ninen,52.378472,4.884467,Italian Restaurant
637,52.3798609293324,4.8819596016210065,42,27,4a26ffcef964a52017811fe3,Som-Tam Thaifood,52.380500177445484,4.884146531059886,Thai Restaurant
638,52.3798609293324,4.8819596016210065,42,28,4b9a9059f964a520a4c135e3,Sogni Del Sud,52.3780405,4.883493,Italian Restaurant
639,52.3798609293324,4.8819596016210065,42,29,4cc4709580624688dc7a362f,Atakan,52.381802541362006,4.8809147760491065,Middle Eastern Restaurant
640,52.3798609293324,4.8819596016210065,42,30,4a27080cf964a5209d8f1fe3,Casa Juan,52.38008226455248,4.8826664686203,Paella Restaurant
641,52.3798609293324,4.8819596016210065,42,31,4a2704d4f964a52050861fe3,Pienong Thai,52.3813040542119,4.879387458193357,Thai Restaurant
642,52.3798609293324,4.8819596016210065,42,32,4d600fe0865a224bbb75a685,Lunchroom & Fonduerie,52.37918,4.8796120400000005,Swiss Restaurant
643,52.3798609293324,4.8819596016210065,42,33,509e4ad1e4b0bbf77638e2e4,Oca Mix,52.38097412187903,4.880750651704914,Brazilian Restaurant
644,52.3798609293324,4.8819596016210065,42,34,4df0796fd22d43368717a667,International House of L.O.V.E.,52.37805940670554,4.8799894736835965,Dutch Restaurant
645,52.3798609293324,4.8819596016210065,42,35,4d3abc3ccc48224b1f01404f,Broodjeszaak De Horizon,52.381548131402056,4.882806728895133,Sandwich Place
646,52.3798609293324,4.8819596016210065,42,36,55eb63b3498e3930347099af,Murugan,52.37903513204012,4.879879907056006,Indian Restaurant
647,52.3798609293324,4.8819596016210065,42,37,4df24e821f6e818dadfc33cf,Sim's Rotishop,52.381207,4.884414,Cajun / Creole Restaurant
648,52.3798609293324,4.8819596016210065,42,38,5470e03a498efd572e0fc54f,illmattarello,52.378455,4.88441,Italian Restaurant
649,52.3798609293324,4.8819596016210065,42,39,5d3efb970badea0008134301,Magnani,52.380233,4.885361,Italian Restaurant
650,52.3798609293324,4.8819596016210065,42,40,4a270879f964a520dd901fe3,Sugoi,52.381116,4.883839,Sushi Restaurant
651,52.3798609293324,4.8819596016210065,42,41,5f68a3554b21af47104b36fb,Candiland Jordaan Headquarters,52.379983,4.879562,New American Restaurant
652,52.375339070667614,4.8819596016210065,37,0,4a270891f964a5201f911fe3,La Oliva,52.37669,4.88224,Spanish Restaurant
653,52.375339070667614,4.8819596016210065,37,1,4a2707cef964a520dd8e1fe3,Long Pura,52.37366577713486,4.881100147548961,Indonesian Restaurant
654,52.375339070667614,4.8819596016210065,37,2,4ea72656b8f7ff211a5a48e7,Mendoza,52.37407951570288,4.883853372315336,Argentinian Restaurant
655,52.375339070667614,4.8819596016210065,37,3,4ab41d2ef964a520e66f20e3,Eethuis de Jordaan,52.373313020361145,4.880385216359207,Turkish Restaurant
656,52.375339070667614,4.8819596016210065,37,4,4db1c6600437a93f7f917226,L'invité le Restaurant,52.374844282267205,4.881398757479242,French Restaurant
657,52.375339070667614,4.8819596016210065,37,5,59d7d32866611613973567e8,Mr. Haz Taco Bar,52.37710592455589,4.884221999521745,Taco Place
658,52.375339070667614,4.8819596016210065,37,6,4a27086df964a520ab901fe3,Assaggi,52.376921211361804,4.882011666213365,Italian Restaurant
659,52.375339070667614,4.8819596016210065,37,7,5aabd60e3fcee80ae2663293,La Fiorita,52.377104,4.881758,Italian Restaurant
660,52.375339070667614,4.8819596016210065,37,8,4a270797f964a520568e1fe3,Hostaria,52.376769439592245,4.882091198953931,Italian Restaurant
661,52.375339070667614,4.8819596016210065,37,9,4c82b80c51ada1cdea7f1f10,Sefa,52.37406981843832,4.883795364758194,Turkish Restaurant
662,52.375339070667614,4.8819596016210065,37,10,4a26ffc9f964a520f9801fe3,La Trattoria Di Donna Sofia,52.37740934301828,4.88167426277513,Italian Restaurant
663,52.375339070667614,4.8819596016210065,37,11,5bf84079112c6c002cf7ee19,Lazagne,52.376645,4.882085,Italian Restaurant
664,52.375339070667614,4.8819596016210065,37,12,52ff829b11d2ee3c3eb8849e,Taiyaki,52.377132,4.881869,Japanese Restaurant
665,52.375339070667614,4.8819596016210065,37,13,4accfe24f964a52071ca20e3,Mantoe,52.37545443871328,4.880783006119838,Afghan Restaurant
666,52.375339070667614,4.8819596016210065,37,14,4f1ac3cae4b0b4fde88db964,Here Brasil,52.37339259614247,4.8823794587515055,Brazilian Restaurant
667,52.375339070667614,4.8819596016210065,37,15,4c050a910d0e0f473db5049a,Venezia Del Nord,52.37383630198705,4.882610265419669,Pizza Place
668,52.375339070667614,4.8819596016210065,37,16,56c0e52ecd10414e982f9618,Restaurant Garra,52.374234,4.882746,Tapas Restaurant
669,52.375339070667614,4.8819596016210065,37,17,56e00e09498e9fa069919035,Tanoshii Sushi,52.377197556215556,4.881851662286245,Sushi Restaurant
670,52.375339070667614,4.8819596016210065,37,18,5e5aba87d9b82c0008d40f92,Cantina Mexicana Rosario,52.37683,4.882134,Mexican Restaurant
671,52.375339070667614,4.8819596016210065,37,19,59d4142a345cbe2f01078979,Little Sal,52.37362,4.880889,Latin American Restaurant
672,52.375339070667614,4.8819596016210065,37,20,4f3fdcd4e4b09425fd6dd933,Pizzeria Ristorante Steakhouse,52.374029695389865,4.883053102997443,Argentinian Restaurant
673,52.375339070667614,4.8819596016210065,37,21,56b48f74498ecd024d63e9a3,Restaurant Bolhuis,52.374161,4.88273,Tapas Restaurant
674,52.375339070667614,4.8819596016210065,37,22,4a27089af964a52047911fe3,Japanese Pancake World,52.37644366569547,4.882249821902466,Japanese Restaurant
675,52.375339070667614,4.8819596016210065,37,23,4c1be9b3fcf8c9b6d231a90b,Grillroom Twins,52.37716697,4.881859,Middle Eastern Restaurant
676,52.375339070667614,4.8819596016210065,37,24,4f916491e4b0ad2455c978f5,Here Brasil Products & Food,52.37378577700952,4.88233322177494,Brazilian Restaurant
677,52.375339070667614,4.8819596016210065,37,25,5812438038faec4197af56ad,Rosita's Mexican Restaurant & BBQ Bar,52.373658,4.882203,Mexican Restaurant
678,52.375339070667614,4.8819596016210065,37,26,4a3bfcf3f964a520f9a01fe3,Soen,52.37410498191917,4.883261528914921,Thai Restaurant
679,52.375339070667614,4.8819596016210065,37,27,5b5ca2c0fe63bd002b49d315,Taka Zoku Shou,52.37677494420273,4.882091252486214,Ramen Restaurant
680,52.375339070667614,4.8819596016210065,37,28,4a26ffe7f964a52065811fe3,Jur,52.376277,4.882268116472602,French Restaurant
681,52.375339070667614,4.8819596016210065,37,29,5d66681c86125400088dea13,Prins Van Oranje,52.374203,4.882846,Dutch Restaurant
682,52.375339070667614,4.8819596016210065,37,30,56c59f75cd10be6d782d9e71,Restaurant Parra,52.374197153629055,4.8830858847981675,Tapas Restaurant
683,52.375339070667614,4.8819596016210065,37,31,5613c514498ec1a21e008694,Tuk Tuk Thai,52.373859770578896,4.8823256179416745,Thai Restaurant
684,52.375339070667614,4.8819596016210065,37,32,51ed58f9498e1d69b1569c4b,Tuin 10,52.37714774515729,4.881773507492423,Mediterranean Restaurant
685,52.375339070667614,4.8819596016210065,37,33,4a2704c5f964a52028861fe3,Noodle&Go,52.373513026622916,4.882655739784241,Noodle House
686,52.375339070667614,4.8819596016210065,37,34,4a2707aef964a5208e8e1fe3,Koh-I-Noor,52.374063095033705,4.8837315583793925,Indian Restaurant
687,52.375339070667614,4.8819596016210065,37,35,5f09acae35d1e26f924c2ece,Indonesisch Restaurant Long Pura,52.3736528,4.881125,Asian Restaurant
688,52.375339070667614,4.8819596016210065,37,36,4a27007ff964a52091831fe3,Argentijns Restaurant Amigo,52.37385148527783,4.8824646733927555,Argentinian Restaurant
689,52.3798609293324,4.889317321455915,32,0,5cefc5b5d552c7002c9b6b1f,Meat And Greek,52.38089,4.890297,Greek Restaurant
690,52.3798609293324,4.889317321455915,32,1,504272e2183f6159b95afb8b,Ibericus,52.38054778734432,4.891005691830636,Tapas Restaurant
691,52.3798609293324,4.889317321455915,32,2,5db5fc54f4e2210008d6d005,Café Nieuw Amsterdam,52.380165,4.891958,Dutch Restaurant
692,52.3798609293324,4.889317321455915,32,3,4a27db18f964a520e0911fe3,Thai & Co,52.3800940868002,4.8925200065652845,Thai Restaurant
693,52.3798609293324,4.889317321455915,32,4,4a2707bcf964a520a88e1fe3,De Belhamel,52.379421,4.892003,French Restaurant
694,52.3798609293324,4.889317321455915,32,5,5eec8878787faf0008740951,Hick’s,52.380083,4.892639,Brasserie
695,52.3798609293324,4.889317321455915,32,6,4a2707c3f964a520c08e1fe3,La Vita,52.38053448531485,4.886872625869806,Italian Restaurant
696,52.3798609293324,4.889317321455915,32,7,4bad01a8f964a520ad233be3,Swietie Sranang,52.38134362282009,4.886779600658978,Indonesian Restaurant
697,52.3798609293324,4.889317321455915,32,8,4a26ffbcf964a520ca801fe3,Duende,52.38051919611826,4.886164544346121,Spanish Restaurant
698,52.3798609293324,4.889317321455915,32,9,5da1b19af2dd0d0008447326,Pho Viet,52.381706,4.8889685,Vietnamese Restaurant
699,52.3798609293324,4.889317321455915,32,10,5bdb2d856f0aa2002c8a5cc8,Domenica,52.380113,4.887461,Italian Restaurant
700,52.3798609293324,4.889317321455915,32,11,4db451460437fa536a28dc53,Yummie Sushi Tepanyaki,52.3816756122638,4.8889326535998565,Sushi Restaurant
701,52.3798609293324,4.889317321455915,32,12,574dea27498e3a7d124bb455,Tapas Cafe Duende,52.3806187,4.8861552,Spanish Restaurant
702,52.3798609293324,4.889317321455915,32,13,4a27049bf964a520c0851fe3,Il Fiore,52.380572964476535,4.887104197301642,Bed & Breakfast
703,52.3798609293324,4.889317321455915,32,14,4d45c4f63616b60c0caef1c2,La Brasa Steakhouse,52.38179845902881,4.888754743680709,South American Restaurant
704,52.3798609293324,4.889317321455915,32,15,4b644131f964a520a0a62ae3,Meeuwig & Zn.,52.3802446902378,4.891924397706289,Food & Drink Shop
705,52.3798609293324,4.889317321455915,32,16,4eaebfb12c5bb67b242adece,Ova's,52.38206625237708,4.8886289696659,Middle Eastern Restaurant
706,52.3798609293324,4.889317321455915,32,17,545fcfe4498e24d7ad6d6e29,PhoHouse,52.381690702719254,4.888939254327247,Vietnamese Restaurant
707,52.3798609293324,4.889317321455915,32,18,4a270856f964a52058901fe3,Royal Mandarin,52.380673851977726,4.890919584979718,Chinese Restaurant
708,52.3798609293324,4.889317321455915,32,19,52c1d54211d2af4c9890dfa7,Argentijns Steakhouse,52.380395,4.891407,Argentinian Restaurant
709,52.3798609293324,4.889317321455915,32,20,57c42579cd1044d897c011fc,Asseblies loempia's,52.37933,4.886289,Vietnamese Restaurant
710,52.3798609293324,4.889317321455915,32,21,5ac8ee2f840fc22a318e5d89,Panda's Kitchen,52.38195526800272,4.888556599617004,Chinese Restaurant
711,52.3798609293324,4.889317321455915,32,22,58d2bc6015fb4351252b0ab5,De Hu's Asian Tapas Bar,52.380648,4.890836,Asian Restaurant
712,52.3798609293324,4.889317321455915,32,23,4b3b9092f964a520f17525e3,Snow Lion,52.38008594073956,4.8925721034524745,Tibetan Restaurant
713,52.3798609293324,4.889317321455915,32,24,502948fce4b067a8632ebc5f,Studio 52,52.377825,4.890415,Australian Restaurant
714,52.3798609293324,4.889317321455915,32,25,5214bfa5498e217d250c12a0,ستيك هاوس القدس,52.380881,4.890281,Middle Eastern Restaurant
715,52.3798609293324,4.889317321455915,32,26,4a2707b3f964a5209f8e1fe3,Balraj Indian Restaurant,52.381993551384745,4.888500945653554,Indian Restaurant
716,52.3798609293324,4.889317321455915,32,27,4a2703def964a520af851fe3,San Pedro,52.38042723031703,4.891395048431628,Steakhouse
717,52.3798609293324,4.889317321455915,32,28,57a4d404498e465a9a48e3a1,De Tokoman,52.380379,4.892018,South American Restaurant
718,52.3798609293324,4.889317321455915,32,29,50bdff79e4b036798971b150,Steakhouse San Fernando,52.38039054748734,4.891416700496057,Argentinian Restaurant
719,52.3798609293324,4.889317321455915,32,30,57585706498e901b3e140940,Lucca Due,52.38111929148052,4.89004961771619,Italian Restaurant
720,52.3798609293324,4.889317321455915,32,31,4a2707f6f964a520578f1fe3,Capri,52.38031000671617,4.885905154119458,Italian Restaurant
721,52.375339070667614,4.889317321455915,49,0,50ae0f6ee4b0f104212a6fb2,Caldi E Freddi,52.37491634338784,4.890857878573183,Deli / Bodega
722,52.375339070667614,4.889317321455915,49,1,4eb97add30f8d0f18e0deee6,Maenaam Thai,52.375184010070036,4.891260441151285,Thai Restaurant
723,52.375339070667614,4.889317321455915,49,2,55e5ff02498e9eb3a234f62c,Kaagman & Kortekaas,52.37487809219845,4.892455494640974,French Restaurant
724,52.375339070667614,4.889317321455915,49,3,4a99928ff964a520262f20e3,Singel 101,52.375918,4.891239,French Restaurant
725,52.375339070667614,4.889317321455915,49,4,4a2705bdf964a520ad881fe3,Sie Joe,52.37422239578776,4.892022992155489,Indonesian Restaurant
726,52.375339070667614,4.889317321455915,49,5,5e4d8a92d60a390008c06001,spuistraat 122 - italian restaurant 5 junior - spuistraat,52.375098,4.891028,Italian Restaurant
727,52.375339070667614,4.889317321455915,49,6,4e6673a1483bef6eb78aa1f4,Ponte Vecchio,52.374955494175346,4.891807288007514,Italian Restaurant
728,52.375339070667614,4.889317321455915,49,7,4a2707acf964a520888e1fe3,De Luwte,52.37520343868725,4.886677775765728,Restaurant
729,52.375339070667614,4.889317321455915,49,8,5c117a365d891b002ce2b026,Ristorante Gusto Dei Signori,52.377203,4.888998,Italian Restaurant
730,52.375339070667614,4.889317321455915,49,9,53f5e79b498e7a69318653ad,Alfredo Espresso,52.37336782471901,4.889912178542042,Italian Restaurant
731,52.375339070667614,4.889317321455915,49,10,5de03404bf9a070008769a29,Sajj & Mezza's,52.37463504046371,4.888587176783403,Vegetarian / Vegan Restaurant
732,52.375339070667614,4.889317321455915,49,11,59858122a9e40278fd801093,Crêperie Bretonne Cocotte,52.374264,4.890306,Dutch Restaurant
733,52.375339070667614,4.889317321455915,49,12,53da6ad2498e72221d30ccbb,italian restaurant da massimo & ricardo,52.374508,4.890371,Italian Restaurant
734,52.375339070667614,4.889317321455915,49,13,517a580a498e7ee29277d552,The Original California Burrito Company,52.37461,4.8886228,Burrito Place
735,52.375339070667614,4.889317321455915,49,14,4d5e634f1939a35dc93808ee,Sara's Wok House,52.373396422222214,4.887763,Asian Restaurant
736,52.375339070667614,4.889317321455915,49,15,4f93158ee4b0f888dcef8655,St George,52.375660734518746,4.892932338033409,Argentinian Restaurant
737,52.375339070667614,4.889317321455915,49,16,5e562a4391bc610008b8d22e,Oeuf Herenstraat,52.377166,4.888824,Breakfast Spot
738,52.375339070667614,4.889317321455915,49,17,5cd32d15d41bb7002cd5765d,Tacos & Tequila,52.373775,4.89033,Taco Place
739,52.375339070667614,4.889317321455915,49,18,5f145c0a1e35e50b6ae8bdc2,De Iuwte,52.37524,4.886858,Brasserie
740,52.375339070667614,4.889317321455915,49,19,5286849d498e317b4f6716ef,Afhalen & Bezorgen,52.37615,4.892487,Indian Restaurant
741,52.375339070667614,4.889317321455915,49,20,587fa71925911e15b1e6803d,Sushime,52.374619,4.888607,Sushi Restaurant
742,52.375339070667614,4.889317321455915,49,21,4d78d3bbc1d56ea88c0cd62b,Pane & Olio,52.37465196443217,4.88882097822207,Deli / Bodega
743,52.375339070667614,4.889317321455915,49,22,5398b2e3498ec50858fa3eda,au pair / tourist dating netherlands,52.37403,4.889690000000002,Nightclub
744,52.375339070667614,4.889317321455915,49,23,4a270838f964a520f88f1fe3,Usama,52.376262,4.892521,Chinese Restaurant
745,52.375339070667614,4.889317321455915,49,24,5a49455232b61d131d1b4498,La Casa Pizza & Grill,52.374504,4.891593,Italian Restaurant
746,52.375339070667614,4.889317321455915,49,25,5264241d11d25d346c003335,Mangiame,52.374492,4.890277,Italian Restaurant
747,52.375339070667614,4.889317321455915,49,26,5649ce86498efa951968c1f2,5Junior,52.374445,4.890187,Italian Restaurant
748,52.375339070667614,4.889317321455915,49,27,54aea1fc498e215dcc14995e,Chef's Podium,52.374925000779584,4.890900763615834,Modern European Restaurant
749,52.375339070667614,4.889317321455915,49,28,4c52e06899ecc9b67f0c715b,Over De Kook,52.37486703887602,4.8925545999999995,French Restaurant
750,52.375339070667614,4.889317321455915,49,29,53944589498efde5f31815bf,AA Noodle Culture,52.374413,4.891442,Japanese Restaurant
751,52.375339070667614,4.889317321455915,49,30,5e6bde1cb52bd70008279855,Momenti,52.37721,4.888573,Theme Restaurant
752,52.375339070667614,4.889317321455915,49,31,5650fc67498ecc8d90170074,Falafelburger,52.374836,4.888157,Mediterranean Restaurant
753,52.375339070667614,4.889317321455915,49,32,4e99d606b63497cda99507b3,Dal Migliore,52.374325,4.892374,Italian Restaurant
754,52.375339070667614,4.889317321455915,49,33,4a27db64f964a5208c931fe3,Tasca Bellota,52.37724753075422,4.8887809858858455,Mediterranean Restaurant
755,52.375339070667614,4.889317321455915,49,34,4a270808f964a5208d8f1fe3,Crignon,52.37434208393097,4.891887903213501,French Restaurant
756,52.375339070667614,4.889317321455915,49,35,5e19c375a9ac880007a57899,Dim Sum District,52.37374,4.890524,Dim Sum Restaurant
757,52.375339070667614,4.889317321455915,49,36,4a270860f964a52081901fe3,La Scarpetta,52.37710772877227,4.889188425498928,Italian Restaurant
758,52.375339070667614,4.889317321455915,49,37,5ceacf6f33e118002cb8bfba,Lima Lima,52.373771,4.890459,Peruvian Restaurant
759,52.375339070667614,4.889317321455915,49,38,543d793b498eee6cfba2e4d7,The Taste of Vietnam,52.37735447931022,4.88865852355957,Vietnamese Restaurant
760,52.375339070667614,4.889317321455915,49,39,4baa5abff964a52040623ae3,Curry Express,52.376268,4.892542,Indian Restaurant
761,52.375339070667614,4.889317321455915,49,40,55748953498e4f6cc1e00d60,Mahou,52.377263,4.888781,Paella Restaurant
762,52.375339070667614,4.889317321455915,49,41,4a2707cff964a520e28e1fe3,Prego,52.37727074650271,4.88865106072274,French Restaurant
763,52.375339070667614,4.889317321455915,49,42,4bb78c46cf2fc9b621619e02,Chez Georges,52.377003544897626,4.889406508058678,French Restaurant
764,52.375339070667614,4.889317321455915,49,43,4a2707b6f964a520a08e1fe3,d' Theeboom,52.37372496024383,4.889113249827421,French Restaurant
765,52.375339070667614,4.889317321455915,49,44,4e49511418a8f9804cee49c3,Restorante Pizzeria Il Centro,52.37501482402586,4.891830729798185,Italian Restaurant
766,52.375339070667614,4.889317321455915,49,45,5cea6b8f3fcee8002b193a84,China Supreme 至高無上,52.373664,4.890375,Chinese Restaurant
767,52.375339070667614,4.889317321455915,49,46,5c4e0e447c891c002dcb94c9,Restaurant Max - Indonesian Cuisine,52.376884,4.889137,Indonesian Restaurant
768,52.375339070667614,4.889317321455915,49,47,5d98b47905330000080f0c5e,Lios,52.373627,4.890376,Greek Restaurant
769,52.375339070667614,4.889317321455915,49,48,5fd2176d8590195ccb13d7c5,Plato Loco,52.377236,4.888513,Restaurant
770,52.37760000000001,4.902561538461538,26,0,586a6209000bef215b1db525,Saigon Càphê,52.3792231338176,4.902406132181101,Vietnamese Restaurant
771,52.37760000000001,4.902561538461538,26,1,5c4e00d9840fc2002c7cda7f,Ramen Kingdom,52.376749,4.901552,Ramen Restaurant
772,52.37760000000001,4.902561538461538,26,2,5b1aeee53e6741002ceba229,Kampai!,52.375515,4.902409,Cocktail Bar
773,52.37760000000001,4.902561538461538,26,3,4ba4ffecf964a5207bce38e3,Indian Restaurant Ganesha,52.37590617233295,4.902400970283389,Indian Restaurant
774,52.37760000000001,4.902561538461538,26,4,4b599470f964a520698d28e3,Vermeer,52.376668800320914,4.90045354006153,French Restaurant
775,52.37760000000001,4.902561538461538,26,5,4ffb4b11e4b0283dcd721ec9,Dabka,52.37594023747345,4.900792562709549,Middle Eastern Restaurant
776,52.37760000000001,4.902561538461538,26,6,58b2fd345804ea3b2ad2af62,Kyoto Sushi,52.37940583169266,4.901755662168939,Japanese Restaurant
777,52.37760000000001,4.902561538461538,26,7,581daa8e6401963ccde470af,City Café,52.376585,4.905094,Dutch Restaurant
778,52.37760000000001,4.902561538461538,26,8,4c02a59f0d0e0f47e768019a,Grillhouse,52.3763235,4.9013995,Argentinian Restaurant
779,52.37760000000001,4.902561538461538,26,9,4a2703d4f964a5208b851fe3,Vijaya,52.3755555176131,4.90219110569158,Indian Restaurant
780,52.37760000000001,4.902561538461538,26,10,5ccd668d4a1cc00039f8ece2,Naylor's,52.376668800320914,4.90045354006153,French Restaurant
781,52.37760000000001,4.902561538461538,26,11,4c361abf0a71c9b66d8f3cc9,cafe versailles,52.376902,4.901421,Moroccan Restaurant
782,52.37760000000001,4.902561538461538,26,12,527a991911d2b569c71c6329,Il Mattarello,52.378509486480375,4.905281825474903,Italian Restaurant
783,52.37760000000001,4.902561538461538,26,13,4c29c5d39eb1952133ca2959,Restaurant Lastage,52.375512181517344,4.902226648415133,French Restaurant
784,52.37760000000001,4.902561538461538,26,14,4fbfe097e4b0117b7303dca9,In de Keuken bij Vermeer,52.37636623515424,4.9005576324903,French Restaurant
785,52.37760000000001,4.902561538461538,26,15,4a27085df964a52073901fe3,Grieks Rstaurant Thalassa,52.375879,4.900678,Greek Restaurant
786,52.37760000000001,4.902561538461538,26,16,4a27db40f964a520da921fe3,Al Argentino,52.37565463084559,4.9007859579206245,Argentinian Restaurant
787,52.37760000000001,4.902561538461538,26,17,4e1b4462aeb75c8b520d70a5,Kam Mee Chinees Restaurant,52.376108982919526,4.900596359450817,Chinese Restaurant
788,52.37760000000001,4.902561538461538,26,18,569266ab498ee1363790c1f5,Wok to Walk,52.37864097533055,4.9004938029153005,Noodle House
789,52.37760000000001,4.902561538461538,26,19,4fb5424be4b0c2c27f924be0,Farogrill,52.37553936448919,4.90324212705313,Portuguese Restaurant
790,52.37760000000001,4.902561538461538,26,20,51e6d329498ed24d023807a9,L'ULTIMO BASTARDO,52.377874,4.90506,Italian Restaurant
791,52.37760000000001,4.902561538461538,26,21,5478e684498e0910b5915430,T Kelderke,52.375892,4.901678,Belgian Restaurant
792,52.37760000000001,4.902561538461538,26,22,50bb8123e4b054161d331eaa,Grill Steak House Guadalupe,52.376622552860006,4.9022598408939055,Mexican Restaurant
793,52.37760000000001,4.902561538461538,26,23,5f61c1e34328ce2c23366bdb,Rabaab Restaurant,52.37544198197314,4.902756214141846,Indonesian Restaurant
794,52.37760000000001,4.902561538461538,26,24,5f61c146ea22580848135740,Ranjit Singh,52.375920114072244,4.902557730674744,Indonesian Restaurant
795,52.37760000000001,4.902561538461538,26,25,4c4f176af53d0f47e8d99aa7,Grand Café Restaurant 1e Klas,52.37801940277355,4.900672220316123,Café
796,52.3798609293324,4.8988826785440835,16,0,586a6209000bef215b1db525,Saigon Càphê,52.3792231338176,4.902406132181101,Vietnamese Restaurant
797,52.3798609293324,4.8988826785440835,16,1,4a284bc3f964a52008951fe3,Julia's,52.38006512764384,4.90022118119971,Italian Restaurant
798,52.3798609293324,4.8988826785440835,16,2,556f298b498eedd7a7f6d003,wagamama,52.38018271645732,4.899809676645096,Asian Restaurant
799,52.3798609293324,4.8988826785440835,16,3,574f4d9c498efc56a240b8c2,Salsa Shop,52.37958465946948,4.900045992389015,Burrito Place
800,52.3798609293324,4.8988826785440835,16,4,4baa7559f964a520106c3ae3,The Döner Company,52.38034067767117,4.8993274542827026,Doner Restaurant
801,52.3798609293324,4.8988826785440835,16,5,57654ebb498e6aa8a7c07eec,Wurst Und Schnitzelhaus,52.3798476570594,4.900700252637762,German Restaurant
802,52.3798609293324,4.8988826785440835,16,6,58b2fd345804ea3b2ad2af62,Kyoto Sushi,52.37940583169266,4.901755662168939,Japanese Restaurant
803,52.3798609293324,4.8988826785440835,16,7,52eadaef498e187a38ecb6ea,halal restaurant,52.37813561154765,4.897724285600837,Turkish Restaurant
804,52.3798609293324,4.8988826785440835,16,8,4e5f2dbc22718258c4989fcb,Enoteca Amsterdam,52.37896728515625,4.898409843444824,Italian Restaurant
805,52.3798609293324,4.8988826785440835,16,9,4e4ebb51d164978659c02030,Doosty,52.37971205267341,4.899140315439617,American Restaurant
806,52.3798609293324,4.8988826785440835,16,10,55df29a0498e887157dc57a7,Istanbul Restaurant,52.37885970860172,4.8962376817099305,Turkish Restaurant
807,52.3798609293324,4.8988826785440835,16,11,4c9a2df09c663704e65c56fd,Restaurant Fijn Hout,52.37910449962862,4.899332372097827,Italian Restaurant
808,52.3798609293324,4.8988826785440835,16,12,569266ab498ee1363790c1f5,Wok to Walk,52.37864097533055,4.9004938029153005,Noodle House
809,52.3798609293324,4.8988826785440835,16,13,4d08e76f7b30a1cd1225a2cc,Pacific Place,52.38099039217195,4.897120585395839,Chinese Restaurant
810,52.3798609293324,4.8988826785440835,16,14,4ebd17fb7ee5326f02179257,San Estefano,52.377926847714356,4.897173922780411,Italian Restaurant
811,52.3798609293324,4.8988826785440835,16,15,4c4f176af53d0f47e8d99aa7,Grand Café Restaurant 1e Klas,52.37801940277355,4.900672220316123,Café
812,52.375339070667614,4.8988826785440835,50,0,56ffc217cd10d4a79807100a,Bravi Ragazzi,52.37587237284519,4.896576267849065,Italian Restaurant
813,52.375339070667614,4.8988826785440835,50,1,4f707285e4b03b575ed77f23,Mata Hari,52.37454854921772,4.900176632761354,Mediterranean Restaurant
814,52.375339070667614,4.8988826785440835,50,2,51c5cc0a498e570ebbb6a807,Cut Throat,52.37448598409153,4.89562311048386,Salon / Barbershop
815,52.375339070667614,4.8988826785440835,50,3,5d8fa9bc3b659800086a4502,Bird Thais Restaurant,52.374596,4.900457,Thai Restaurant
816,52.375339070667614,4.8988826785440835,50,4,4a2707c8f964a520c78e1fe3,New King,52.373592111315155,4.9002842900895525,Chinese Restaurant
817,52.375339070667614,4.8988826785440835,50,5,5772a8d0498e387fd0db0169,Thaise Snackbar Bird,52.37458225036672,4.900604241377973,Thai Restaurant
818,52.375339070667614,4.8988826785440835,50,6,5193c714498e2de7c04d4809,Pasta Pasta,52.37542258707073,4.898268438021975,Italian Restaurant
819,52.375339070667614,4.8988826785440835,50,7,4c5ebda794fd0f478beace45,Pastabar,52.376518317007275,4.897432239315534,Italian Restaurant
820,52.375339070667614,4.8988826785440835,50,8,5c4e00d9840fc2002c7cda7f,Ramen Kingdom,52.376749,4.901552,Ramen Restaurant
821,52.375339070667614,4.8988826785440835,50,9,5b1aeee53e6741002ceba229,Kampai!,52.375515,4.902409,Cocktail Bar
822,52.375339070667614,4.8988826785440835,50,10,589e02069435a916784033d7,Sham,52.375879500203,4.898355853378996,Middle Eastern Restaurant
823,52.375339070667614,4.8988826785440835,50,11,4a27087bf964a520e5901fe3,Marco Polo,52.37602479919688,4.896817129967837,Italian Restaurant
824,52.375339070667614,4.8988826785440835,50,12,4ba4ffecf964a5207bce38e3,Indian Restaurant Ganesha,52.37590617233295,4.902400970283389,Indian Restaurant
825,52.375339070667614,4.8988826785440835,50,13,4a2707aef964a5208f8e1fe3,Nam Kee,52.37371122792227,4.900345037675095,Chinese Restaurant
826,52.375339070667614,4.8988826785440835,50,14,4a270844f964a52022901fe3,China Sichuan Restaurant,52.37595896101101,4.899093208915664,Szechuan Restaurant
827,52.375339070667614,4.8988826785440835,50,15,4a27083af964a52000901fe3,New Season,52.37557609146913,4.898473543570862,Chinese Restaurant
828,52.375339070667614,4.8988826785440835,50,16,4a270820f964a520b98f1fe3,Hoi Tin,52.373470756627555,4.900077194603488,Chinese Restaurant
829,52.375339070667614,4.8988826785440835,50,17,4a27db10f964a5209e911fe3,Little Thai Prince,52.37555757436526,4.900885316573875,Thai Restaurant
830,52.375339070667614,4.8988826785440835,50,18,5ca8f99c1f7440002d1d45e5,Bella Roma,52.374838,4.898934,Italian Restaurant
831,52.375339070667614,4.8988826785440835,50,19,4b599470f964a520698d28e3,Vermeer,52.376668800320914,4.90045354006153,French Restaurant
832,52.375339070667614,4.8988826785440835,50,20,4ffb4b11e4b0283dcd721ec9,Dabka,52.37594023747345,4.900792562709549,Middle Eastern Restaurant
833,52.375339070667614,4.8988826785440835,50,21,4a27db80f964a52028941fe3,Kam Yin,52.376399064429584,4.899353814135657,Chinese Restaurant
834,52.375339070667614,4.8988826785440835,50,22,4a2707a0f964a5206f8e1fe3,Eat Mode,52.3738394179958,4.900307177997245,Asian Restaurant
835,52.375339070667614,4.8988826785440835,50,23,5bcded88b9b37b0039692a69,Vatten Ramen,52.375052,4.900811,Ramen Restaurant
836,52.375339070667614,4.8988826785440835,50,24,4c0e2158adcd9c74cba402f6,Wok to Walk,52.374750953594024,4.897328389729821,Asian Restaurant
837,52.375339070667614,4.8988826785440835,50,25,525d76ca498ea24929aa976f,Mevlana Döner,52.374088,4.897376,Turkish Restaurant
838,52.375339070667614,4.8988826785440835,50,26,4b06f081f964a52098f322e3,OCHA,52.37402436900276,4.901682513396316,Thai Restaurant
839,52.375339070667614,4.8988826785440835,50,27,4bf433fd98ac0f47dcb763a8,La Casa Argentina,52.37540307147307,4.900963703622354,Argentinian Restaurant
840,52.375339070667614,4.8988826785440835,50,28,5b6c36ba28374e002c8c5121,De Pael Brewery,52.375528,4.899518,Gastropub
841,52.375339070667614,4.8988826785440835,50,29,5de82ecc6750ab00086b4341,Churros & Crepes,52.375171,4.897979,Belgian Restaurant
842,52.375339070667614,4.8988826785440835,50,30,5331e286498e8854d473aa7d,Little Saigon,52.37423856104408,4.900407709084858,Vietnamese Restaurant
843,52.375339070667614,4.8988826785440835,50,31,59bbc557bcbf7a6bb6bc6ed5,Italiaans Restaurant San Abram,52.376637,4.896413,Italian Restaurant
844,52.375339070667614,4.8988826785440835,50,32,4a85f650f964a520d6ff1fe3,Sanda,52.373993251604894,4.900227697486465,Karaoke Bar
845,52.375339070667614,4.8988826785440835,50,33,4e2445ccc65b2b5e35629ad1,Kamasutra,52.37510828952715,4.898458507612439,Indian Restaurant
846,52.375339070667614,4.8988826785440835,50,34,4f79e37ce4b0a174b18479d2,Rodizio Braziliaans Grill Restaurant,52.37550597983772,4.90082149255641,Steakhouse
847,52.375339070667614,4.8988826785440835,50,35,54a7dbe0498ea669864e7459,Caffè Italia,52.37457136414534,4.89708771696898,Italian Restaurant
848,52.375339070667614,4.8988826785440835,50,36,4a27084cf964a52036901fe3,Argentinos San Thomas - WS,52.37611306335646,4.899464695949128,Argentinian Restaurant
849,52.375339070667614,4.8988826785440835,50,37,539dcabb498e1bf851a85f23,Piccolo Mondo,52.37408499370375,4.901513117040572,Italian Restaurant
850,52.375339070667614,4.8988826785440835,50,38,4c02a59f0d0e0f47e768019a,Grillhouse,52.3763235,4.9013995,Argentinian Restaurant
851,52.375339070667614,4.8988826785440835,50,39,51701eaae4b04f4fec4dc173,New king zeedijk,52.37507800592068,4.899347918213445,Asian Restaurant
852,52.375339070667614,4.8988826785440835,50,40,4d1b541111fca093c43a9dce,Da Giorgio,52.375731499063875,4.898478606387667,Italian Restaurant
853,52.375339070667614,4.8988826785440835,50,41,558f0fb8498ec62492432a4c,Cucina Divina,52.374183,4.900305,Italian Restaurant
854,52.375339070667614,4.8988826785440835,50,42,4a27db1cf964a52000921fe3,Tango,52.37536931991125,4.898223870792485,Argentinian Restaurant
855,52.375339070667614,4.8988826785440835,50,43,4a27db56f964a5203c931fe3,Restaurant La Paella,52.37554314370049,4.898453296200548,Paella Restaurant
856,52.375339070667614,4.8988826785440835,50,44,4a27db5cf964a52063931fe3,Dim Sum King,52.37431631005065,4.900585431443707,Asian Restaurant
857,52.375339070667614,4.8988826785440835,50,45,58a1ef974f417a34e462b3ff,Damskoe,52.374159,4.897875,African Restaurant
858,52.375339070667614,4.8988826785440835,50,46,560af1fb498e89dc965e8143,Wok Inn,52.37523431906288,4.897739386678147,Cantonese Restaurant
859,52.375339070667614,4.8988826785440835,50,47,51e9aabb498e32e3c3f8bcf5,Del Posto,52.37348082790036,4.900183821099918,Italian Restaurant
860,52.375339070667614,4.8988826785440835,50,48,5cb24bba356b49002cc842ac,The Turkish Grill,52.373521,4.900015,Turkish Restaurant
861,52.375339070667614,4.8988826785440835,50,49,54c7cc41498e259a3c7687a0,Sorrento Pizzeria Steakhouse,52.37503586015612,4.895555214964681,Italian Restaurant
862,52.3798609293324,4.906240398378992,2,0,527a991911d2b569c71c6329,Il Mattarello,52.378509486480375,4.905281825474903,Italian Restaurant
863,52.3798609293324,4.906240398378992,2,1,51e6d329498ed24d023807a9,L'ULTIMO BASTARDO,52.377874,4.90506,Italian Restaurant
864,52.375339070667614,4.906240398378992,8,0,4a424b00f964a520b3a51fe3,Vapiano,52.37569806871261,4.908188144651513,Italian Restaurant
865,52.375339070667614,4.906240398378992,8,1,5650bd5e498e58a4af099b37,MoJo Japanese Kitchen,52.37587707678783,4.907453608427976,Japanese Restaurant
866,52.375339070667614,4.906240398378992,8,2,4a270791f964a520418e1fe3,Geisha Restaurant & Lounge,52.37535879413971,4.903220997467626,Japanese Restaurant
867,52.375339070667614,4.906240398378992,8,3,4a270781f964a520008e1fe3,Sea Palace,52.37530771106915,4.907356202602386,Chinese Restaurant
868,52.375339070667614,4.906240398378992,8,4,581daa8e6401963ccde470af,City Café,52.376585,4.905094,Dutch Restaurant
869,52.375339070667614,4.906240398378992,8,5,4f91893ce4b03439aa351167,แม่สมใจ amsterdam,52.373902347957745,4.90367633298318,Thai Restaurant
870,52.375339070667614,4.906240398378992,8,6,4fb5424be4b0c2c27f924be0,Farogrill,52.37553936448919,4.90324212705313,Portuguese Restaurant
871,52.375339070667614,4.906240398378992,8,7,5f61c1e34328ce2c23366bdb,Rabaab Restaurant,52.37544198197314,4.902756214141846,Indonesian Restaurant
