,Unnamed: 0,lat_centre,long_centre,num_venues,venue_iter,venue_id,venue_name,lat_venue,long_venue,category
1530,257,52.34760000000001,4.902561538461538,37,11,4a26ff5ff964a520567f1fe3,Reuring,52.350979143319826,4.8977766108518965,French Restaurant
1427,154,52.3376,4.885638461538461,3,0,4a26ff7ef964a520df7f1fe3,Bagna Cauda,52.334944,4.88625,Mediterranean Restaurant
1514,241,52.34760000000001,4.885638461538461,22,17,4a26ffa5f964a52083801fe3,Café Dusart,52.351257000000004,4.889485,German Restaurant
1558,285,52.34760000000001,4.919484615384615,10,2,4a26ffb5f964a520b0801fe3,Café-Restaurant Dauphine,52.34849054831965,4.917228572877027,French Restaurant
802,401,52.3698609293324,4.88196043446314,36,12,4a26ffc5f964a520eb801fe3,Balthazar's Keuken,52.369387803392534,4.879847054427781,French Restaurant
1038,637,52.3798609293324,4.881959601621007,42,27,4a26ffcef964a52017811fe3,Som-Tam Thaifood,52.38050017744549,4.884146531059887,Thai Restaurant
671,270,52.3698609293324,4.865037357540063,18,14,4a26ffdaf964a5203f811fe3,To Ouzeri,52.37014305859251,4.866598359322063,Greek Restaurant
1081,680,52.37533907066762,4.881959601621007,37,28,4a26ffe7f964a52065811fe3,Jur,52.376277,4.882268116472601,French Restaurant
808,407,52.3698609293324,4.88196043446314,36,18,4a26ffeff964a52083811fe3,A la Plancha,52.368954277043144,4.881090434728954,Tapas Restaurant
1480,207,52.34760000000001,4.851792307692307,31,25,4a26fff2f964a52094811fe3,De Smoezer,52.35082491125304,4.854240202592607,French Restaurant
2086,813,52.37760000000001,4.885638461538461,50,7,4a27001cf964a52039821fe3,Il Panorama,52.37356542720236,4.886823892593383,Italian Restaurant
479,78,52.35533907066761,4.889315656260642,50,36,4a270028f964a5206e821fe3,Siriphon,52.357439847547255,4.890001415519683,Thai Restaurant
40,40,52.35420860600141,4.8874771529602645,14,11,4a270029f964a52079821fe3,Pheun Thai,52.35358597242465,4.886495018592262,Thai Restaurant
824,423,52.3698609293324,4.88196043446314,36,34,4a27002cf964a5208a821fe3,Palladio,52.36985998108479,4.88130205219132,Italian Restaurant
1468,195,52.34760000000001,4.851792307692307,31,13,4a27002df964a5208d821fe3,Aladdin,52.350843,4.852812,Middle Eastern Restaurant
357,357,52.37646953533381,4.90072201433155,15,13,4a27003af964a520c4821fe3,Casablanca Variété,52.37557310836147,4.9007772384348005,French Restaurant
1599,326,52.35760000000001,4.851792307692307,22,0,4a27003ff964a520cf821fe3,Gent aan de Schinkel,52.354755219749975,4.853131516068616,Belgian Restaurant
1630,357,52.35760000000001,4.868715384615384,37,9,4a27005bf964a52030831fe3,Abyssinia Afrikaans Eetcafe,52.36047107099556,4.865475138383872,Ethiopian Restaurant
1422,149,52.3376,4.868715384615384,31,26,4a270074f964a5207e831fe3,Sushi Time,52.34020900362195,4.873307879222845,Sushi Restaurant
1089,688,52.37533907066762,4.881959601621007,37,36,4a27007ff964a52091831fe3,Argentijns Restaurant Amigo,52.373851485277825,4.882464673392756,Argentinian Restaurant
2066,793,52.37760000000001,4.868715384615384,22,9,4a27008af964a520aa831fe3,Mano a Mano,52.3745951,4.8733682,Tapas Restaurant
1472,199,52.34760000000001,4.851792307692307,31,17,4a2703aef964a52008851fe3,Mr Mix,52.35191040239845,4.8529235827286445,Argentinian Restaurant
1804,531,52.35760000000001,4.936407692307691,16,1,4a2703aff964a5200c851fe3,Bar Restaurant 1900,52.35476275728779,4.9329879173444535,French Restaurant
25,25,52.35533907066761,4.889315656260642,29,25,4a2703bef964a5204c851fe3,Caffè 500,52.35483567501665,4.889357822604727,Italian Restaurant
389,389,52.374208606001424,4.90072201433155,42,30,4a2703c7f964a52060851fe3,Looks Restaurant,52.373940456443755,4.901970104017863,French Restaurant
314,314,52.37533907066762,4.898882678544084,33,22,4a2703c8f964a52062851fe3,"Restaurant ""Manolo""",52.376081,4.899065314285714,Spanish Restaurant
440,39,52.3598609293324,4.889315656260642,15,12,4a2703c9f964a5206a851fe3,La Storia della Vita,52.35954600295793,4.892148639877075,Italian Restaurant
1649,376,52.35760000000001,4.868715384615384,37,28,4a2703ccf964a52074851fe3,Sal Gorda,52.3559365350561,4.873454714037157,Tapas Restaurant
322,322,52.37533907066762,4.898882678544084,33,30,4a2703cff964a5207c851fe3,Pacifico,52.37571381903727,4.898728963433145,Mexican Restaurant
2216,943,52.387600000000006,4.885638461538461,32,0,4a2703d0f964a5207e851fe3,De Gouden Reael,52.388121000000005,4.889985,French Restaurant
1948,675,52.3676,4.885638461538461,50,31,4a2703d0f964a52081851fe3,The Pantry,52.3634970238089,4.884878870611629,Dutch Restaurant
1180,779,52.37760000000001,4.902561538461538,26,9,4a2703d4f964a5208b851fe3,Vijaya,52.37555551761311,4.90219110569158,Indian Restaurant
1512,239,52.34760000000001,4.885638461538461,22,15,4a2703dcf964a520a6851fe3,Tjing Tjing,52.350638000000004,4.889264702796937,African Restaurant
1656,383,52.35760000000001,4.868715384615384,37,35,4a2703edf964a520ba851fe3,Paloma Blanca,52.361261,4.864923999999999,Moroccan Restaurant
1567,294,52.34760000000001,4.936407692307691,5,1,4a27049ff964a520c6851fe3,Merkelbach,52.351248843242864,4.933387851795627,French Restaurant
1407,134,52.3376,4.868715384615384,31,11,4a2704a0f964a520ca851fe3,Koetjes en Kalfjes,52.337627606466036,4.873274963728178,French Restaurant
1565,292,52.34760000000001,4.919484615384615,10,9,4a2704b4f964a520f3851fe3,The Döner Company,52.3463092882758,4.916901465106743,Doner Restaurant
1470,197,52.34760000000001,4.851792307692307,31,15,4a2704b5f964a520f6851fe3,Keuken van Tante Til,52.349855,4.8494532999999995,Mediterranean Restaurant
1642,369,52.35760000000001,4.868715384615384,37,21,4a2704b8f964a52000861fe3,Brasserie Senz,52.3535977249791,4.870240407564679,French Restaurant
536,135,52.3598609293324,4.8988843437393585,12,7,4a2704bdf964a52011861fe3,Il Boccalino,52.36156616056363,4.899201467397955,Italian Restaurant
1365,92,52.3276,4.868715384615384,15,7,4a2704bdf964a52015861fe3,Pronto Italia,52.32603112052579,4.87270918192382,Italian Restaurant
1495,222,52.34760000000001,4.868715384615384,11,9,4a2704c3f964a52023861fe3,Sushi World,52.34614027154623,4.8644350175048645,Sushi Restaurant
1762,489,52.35760000000001,4.919484615384615,45,4,4a2704caf964a52039861fe3,Sinbad,52.35680247451533,4.9125346245294566,Middle Eastern Restaurant
1498,225,52.34760000000001,4.885638461538461,22,1,4a2704caf964a5203a861fe3,Djago,52.344261442488154,4.890356669174516,Indonesian Restaurant
1042,641,52.3798609293324,4.881959601621007,42,31,4a2704d4f964a52050861fe3,Pienong Thai,52.3813040542119,4.8793874581933565,Thai Restaurant
1765,492,52.35760000000001,4.919484615384615,45,7,4a2704d4f964a52051861fe3,Somjit Thai Shop,52.357015000000004,4.913482,Thai Restaurant
1752,479,52.35760000000001,4.902561538461538,50,44,4a2704e9f964a52070861fe3,Ora,52.353521,4.9025,Mediterranean Restaurant
2052,779,52.37760000000001,4.851792307692307,27,22,4a2704e9f964a52071861fe3,Marhaba,52.38088642915522,4.8541153845564375,Moroccan Restaurant
2041,768,52.37760000000001,4.851792307692307,27,11,4a2704faf964a520ae861fe3,Toko Shiv Surinaams Indian Afhaalcentrum,52.373616,4.851193,Indian Restaurant
482,81,52.35533907066761,4.889315656260642,50,39,4a270504f964a520c9861fe3,Golden Dragon,52.355645,4.892921,Chinese Restaurant
2190,917,52.37760000000001,4.936407692307691,9,5,4a27050df964a520da861fe3,De Piraat,52.377753853797905,4.935978055000304,Chinese Restaurant
1009,608,52.37760000000001,4.885638461538461,35,33,4a27051ef964a520fb861fe3,Pondok Indah,52.37821134000001,4.886236,Indonesian Restaurant
1555,282,52.34760000000001,4.902561538461538,37,36,4a27051ff964a520fd861fe3,Kong Kha,52.345182093546136,4.905654920985479,Thai Restaurant
2211,938,52.387600000000006,4.868715384615384,10,5,4a270528f964a5200f871fe3,Taksim,52.384865000000005,4.8706760000000004,Italian Restaurant
1349,76,52.31760000000001,4.953330769230769,21,15,4a27053bf964a5203c871fe3,King Döner,52.31463414304925,4.954744002289561,Turkish Restaurant
683,282,52.36533907066761,4.865037357540063,28,8,4a270541f964a52050871fe3,Afhaalcentrum Warung Kinker,52.36599487628207,4.864657451439611,Caribbean Restaurant
2069,796,52.37760000000001,4.868715384615384,22,12,4a270542f964a52054871fe3,Fong Ling,52.37945,4.871981,Chinese Restaurant
2268,995,52.3976,4.919484615384615,7,1,4a270553f964a5208b871fe3,Adana Döner,52.395922880609035,4.914079603524447,Turkish Restaurant
677,276,52.36533907066761,4.865037357540063,28,2,4a2705bcf964a520a6881fe3,Öz Kismet,52.36458504370575,4.861747509632634,Turkish Restaurant
670,269,52.3698609293324,4.865037357540063,18,13,4a2705bcf964a520a8881fe3,Mehtap,52.371003577010924,4.86263752661976,Fast Food Restaurant
1126,725,52.37533907066762,4.889317321455915,49,4,4a2705bdf964a520ad881fe3,Sie Joe,52.374222395787754,4.892022992155488,Indonesian Restaurant
1359,86,52.3276,4.868715384615384,15,1,4a270756f964a520a38d1fe3,"Bar-Restaurant ""La Brochette""",52.32466397379195,4.8676369703658295,French Restaurant
116,116,52.36533907066761,4.88196043446314,6,4,4a27075bf964a520a78d1fe3,Akbar Indian Restaurant,52.36524720402584,4.881920755713726,Indian Restaurant
2173,900,52.37760000000001,4.902561538461538,50,44,4a27075df964a520af8d1fe3,Argentinos Restaurant San Thomas,52.377895668137405,4.896605410231052,Argentinian Restaurant
434,33,52.3598609293324,4.889315656260642,15,6,4a27076cf964a520c98d1fe3,Van Vlaanderen,52.35976574607069,4.892379978693131,French Restaurant
427,26,52.35533907066761,4.8819612668162815,13,12,4a270779f964a520e98d1fe3,Sita Djanoko,52.35506907450535,4.881024956703187,Himalayan Restaurant
1486,213,52.34760000000001,4.868715384615384,11,0,4a27077cf964a520ef8d1fe3,L'Arena,52.34654005286085,4.868531042125034,Italian Restaurant
2021,748,52.37760000000001,4.834869230769232,10,1,4a27077df964a520f18d1fe3,Konak Restaurant,52.379906482335436,4.830770918807624,Turkish Restaurant
410,9,52.3598609293324,4.8819612668162815,9,4,4a270780f964a520fb8d1fe3,Srikandi,52.361683610887965,4.8836680029164805,Indonesian Restaurant
1504,231,52.34760000000001,4.885638461538461,22,7,4a270781f964a520028e1fe3,Sapporo,52.344884801606256,4.890862169923117,Japanese Restaurant
805,404,52.3698609293324,4.88196043446314,36,15,4a270781f964a520048e1fe3,De Struisvogel,52.370358012127895,4.884425860868299,French Restaurant
1629,356,52.35760000000001,4.868715384615384,37,8,4a270781f964a520068e1fe3,Addis Ababa,52.35998235700982,4.864199577957539,Ethiopian Restaurant
759,358,52.36533907066761,4.872393411690704,28,21,4a270781f964a520ff8d1fe3,Zina,52.365043,4.874293,Middle Eastern Restaurant
2265,992,52.3976,4.885638461538461,3,2,4a270783f964a5200e8e1fe3,Pollux Pacific,52.40000995802058,4.888572692871094,Asian Restaurant
1633,360,52.35760000000001,4.868715384615384,37,12,4a270785f964a520168e1fe3,Waroeng Asje,52.36095816858731,4.865180783235584,Indonesian Restaurant
170,170,52.364208606001405,4.883799353884835,50,45,4a270786f964a5201c8e1fe3,Turks Eethuis Restaurant Mesken 2,52.36471284,4.88338225,Turkish Restaurant
1751,478,52.35760000000001,4.902561538461538,50,43,4a270788f964a520298e1fe3,Taj Tandoori Indian Restaurant,52.357420384322864,4.9082039732416884,Indian Restaurant
1647,374,52.35760000000001,4.868715384615384,37,26,4a270789f964a5202d8e1fe3,Turks Restaurant Aspendos,52.36106938092172,4.8650868622894095,Turkish Restaurant
1511,238,52.34760000000001,4.885638461538461,22,14,4a270789f964a5202e8e1fe3,Nawaab,52.345003118638495,4.89086250774928,Indian Restaurant
1449,176,52.34760000000001,4.8010230769230775,4,1,4a270794f964a5204a8e1fe3,Leziz Restaurant,52.35176139202258,4.798735113953591,Turkish Restaurant
2117,844,52.37760000000001,4.885638461538461,50,38,4a270797f964a520578e1fe3,Lucky House,52.38135865079429,4.885430933308584,Chinese Restaurant
1524,251,52.34760000000001,4.902561538461538,37,5,4a27079df964a520648e1fe3,i Trulli,52.34454382375213,4.9058875835059785,Italian Restaurant
559,158,52.35533907066761,4.8988843437393585,50,18,4a27079ff964a5206b8e1fe3,Saskia's Huiskamer,52.35609337279504,4.895546088938876,Tapas Restaurant
1972,699,52.3676,4.919484615384615,14,5,4a2707abf964a520878e1fe3,Il Forno,52.36883216090038,4.921653818031879,Mediterranean Restaurant
1087,686,52.37533907066762,4.881959601621007,37,34,4a2707aef964a5208e8e1fe3,Koh-I-Noor,52.374063095033705,4.8837315583793925,Indian Restaurant
2184,911,52.37760000000001,4.919484615384615,6,5,4a2707b1f964a520988e1fe3,Pasta Vino,52.37951891457597,4.9255369313253805,Italian Restaurant
1589,316,52.35760000000001,4.834869230769232,10,0,4a2707b1f964a520998e1fe3,Perla di Roma,52.35840535035962,4.8278655207321615,Italian Restaurant
1116,715,52.3798609293324,4.889317321455915,32,26,4a2707b3f964a5209f8e1fe3,Balraj Indian Restaurant,52.381993551384745,4.888500945653553,Indian Restaurant
1165,764,52.37533907066762,4.889317321455915,49,43,4a2707b6f964a520a08e1fe3,d' Theeboom,52.37372496024383,4.889113249827421,French Restaurant
1626,353,52.35760000000001,4.868715384615384,37,5,4a2707baf964a520a18e1fe3,Sardegna,52.355359,4.871358,Italian Restaurant
424,23,52.35533907066761,4.8819612668162815,13,9,4a2707c1f964a520b58e1fe3,Brasserie van Baerle,52.35389188289831,4.8814819722978555,French Restaurant
762,361,52.36533907066761,4.872393411690704,28,24,4a2707c2f964a520b88e1fe3,Riaz,52.366588247541856,4.872675170338703,South American Restaurant
1533,260,52.34760000000001,4.902561538461538,37,14,4a2707c3f964a520ba8e1fe3,Mangiamore,52.34741724183125,4.895239571553623,Italian Restaurant
2283,1010,52.3976,4.936407692307691,10,9,4a2707c3f964a520be8e1fe3,Mei Wah,52.398140592644154,4.936359286574861,Chinese Restaurant
390,390,52.374208606001424,4.90072201433155,42,31,4a2707c9f964a520c98e1fe3,Il Mare,52.374837037329826,4.900789494346312,Italian Restaurant
2282,1009,52.3976,4.936407692307691,10,8,4a2707cef964a520d78e1fe3,Wong Kee,52.398244044249566,4.941648266287111,Chinese Restaurant
1054,653,52.37533907066762,4.881959601621007,37,1,4a2707cef964a520dd8e1fe3,Long Pura,52.37366577713486,4.881100147548961,Indonesian Restaurant
751,350,52.36533907066761,4.872393411690704,28,13,4a2707d3f964a520f28e1fe3,Taco Mundo,52.365459295546344,4.873393343437539,Mexican Restaurant
723,322,52.3698609293324,4.872393411690704,35,20,4a2707d7f964a520028f1fe3,Thai Kitchen The Only One,52.37132852214897,4.872865676879883,Thai Restaurant
320,320,52.37533907066762,4.898882678544084,33,28,4a2707f1f964a5204a8f1fe3,Shoarma Teddy,52.374776000000004,4.898907,Middle Eastern Restaurant
1991,718,52.3676,4.936407692307691,29,10,4a2707f2f964a5204d8f1fe3,Lago Maggiore,52.363717,4.935484,Italian Restaurant
2230,957,52.387600000000006,4.885638461538461,32,14,4a2707f2f964a5204e8f1fe3,Marius,52.388957260127505,4.887535292883999,French Restaurant
1643,370,52.35760000000001,4.868715384615384,37,22,4a2707f3f964a520508f1fe3,Ah-Sang,52.361364,4.869866,Chinese Restaurant
1121,720,52.3798609293324,4.889317321455915,32,31,4a2707f6f964a520578f1fe3,Capri,52.38031000671617,4.885905154119458,Italian Restaurant
1755,482,52.35760000000001,4.902561538461538,50,47,4a2707f7f964a5205c8f1fe3,Sranant Food,52.35506088349044,4.902563095092773,South American Restaurant
375,375,52.374208606001424,4.90072201433155,42,16,4a2707fcf964a520628f1fe3,Wing Kee,52.37443131816179,4.900423273274656,Chinese Restaurant
41,41,52.35420860600141,4.8874771529602645,14,12,4a2707fdf964a520678f1fe3,Monte Verde,52.354671007198846,4.887163392270471,Italian Restaurant
1336,63,52.31760000000001,4.953330769230769,21,2,4a2707fef964a5206b8f1fe3,Asian Fantasy,52.31463343789283,4.9546625303591165,Chinese Restaurant
1784,511,52.35760000000001,4.919484615384615,45,26,4a270801f964a520728f1fe3,Warung Singo,52.356375,4.918596,Asian Restaurant
422,21,52.35533907066761,4.8819612668162815,13,7,4a270806f964a520868f1fe3,Nieuw Peking,52.35353426941397,4.881749862356774,Chinese Restaurant
2188,915,52.37760000000001,4.936407692307691,9,3,4a270808f964a5208c8f1fe3,Chengdu,52.377212097,4.936350231875894,Chinese Restaurant
1156,755,52.37533907066762,4.889317321455915,49,34,4a270808f964a5208d8f1fe3,Crignon,52.37434208393097,4.891887903213501,French Restaurant
1620,347,52.35760000000001,4.851792307692307,22,21,4a270809f964a520908f1fe3,Surabaya Green,52.358171,4.853873,South American Restaurant
117,117,52.36533907066761,4.88196043446314,6,5,4a270809f964a520918f1fe3,Maurya,52.364831,4.88247391,Indian Restaurant
719,318,52.3698609293324,4.872393411690704,35,16,4a27080bf964a520988f1fe3,My Burrito,52.371662691944245,4.87342020239138,Mexican Restaurant
1041,640,52.3798609293324,4.881959601621007,42,30,4a27080cf964a5209d8f1fe3,Casa Juan,52.38008226455248,4.882666468620299,Paella Restaurant
1952,679,52.3676,4.885638461538461,50,35,4a270819f964a520a38f1fe3,Ristorante Piccolino,52.363630647282925,4.885156711059022,Italian Restaurant
727,326,52.3698609293324,4.872393411690704,35,24,4a270819f964a520a48f1fe3,Mother India,52.37021645598247,4.8699718215485825,Indian Restaurant
1548,275,52.34760000000001,4.902561538461538,37,29,4a27081bf964a520a98f1fe3,Kong Ming,52.345762,4.905475,Chinese Restaurant
731,330,52.3698609293324,4.872393411690704,35,28,4a27081ef964a520b48f1fe3,Pagode,52.369921331436366,4.8704125001707546,Chinese Restaurant
1383,110,52.3276,4.885638461538461,12,10,4a27081ff964a520b58f1fe3,Chinees Rest Happy Garden,52.324608000000005,4.884576201438903,Chinese Restaurant
537,136,52.3598609293324,4.8988843437393585,12,8,4a27082bf964a520c58f1fe3,MadeWithLove by Tagore,52.36134398227621,4.899236897618112,Indian Restaurant
1813,540,52.35760000000001,4.936407692307691,16,10,4a27082ef964a520d18f1fe3,Fook Sing,52.36061018779222,4.9400888807600865,Chinese Restaurant
1823,550,52.35760000000001,4.987176923076921,8,1,4a27082ff964a520d78f1fe3,Gouden Kom,52.3579979596131,4.99128711524387,Chinese Restaurant
1631,358,52.35760000000001,4.868715384615384,37,10,4a270831f964a520e18f1fe3,Bellavista,52.35388,4.869444799999999,Italian Restaurant
1566,293,52.34760000000001,4.936407692307691,5,0,4a270834f964a520e98f1fe3,Wong Koen,52.348468507423924,4.9385208812979275,Chinese Restaurant
941,540,52.36533907066761,4.889316488613782,50,15,4a270834f964a520eb8f1fe3,Saturnino,52.36689044849317,4.889295232263505,Italian Restaurant
516,115,52.35760000000001,4.902561538461538,36,23,4a270835f964a520ef8f1fe3,L'Angoletto,52.357400540460404,4.9021108609707,Italian Restaurant
2281,1008,52.3976,4.936407692307691,10,7,4a270835f964a520f18f1fe3,Tjon Express,52.400119270539214,4.935757441785261,Asian Restaurant
1145,744,52.37533907066762,4.889317321455915,49,23,4a270838f964a520f88f1fe3,Usama,52.376262,4.892521,Chinese Restaurant
1032,631,52.3798609293324,4.881959601621007,42,21,4a27083ef964a5200e901fe3,Terang Boelan,52.37968477145401,4.882610286493877,Indonesian Restaurant
145,145,52.364208606001405,4.883799353884835,50,20,4a270841f964a52019901fe3,Maya's Steakhouse,52.36352271240678,4.884373096067684,Argentinian Restaurant
2107,834,52.37760000000001,4.885638461538461,50,28,4a270849f964a5202a901fe3,Manis,52.38126803062079,4.8854966585738335,Indonesian Restaurant
1586,313,52.35760000000001,4.8010230769230775,16,13,4a27084ff964a52038901fe3,Peninsula,52.3581253103629,4.800231900796576,Chinese Restaurant
1929,656,52.3676,4.885638461538461,50,12,4a270851f964a5203f901fe3,Peppino,52.36336774753642,4.884586083132872,Italian Restaurant
819,418,52.3698609293324,4.88196043446314,36,29,4a270854f964a5204c901fe3,Bromo Indah,52.369521,4.880525,Indian Restaurant
1108,707,52.3798609293324,4.889317321455915,32,18,4a270856f964a52058901fe3,Royal Mandarin,52.38067385197773,4.890919584979717,Chinese Restaurant
308,308,52.37533907066762,4.898882678544084,33,16,4a270857f964a5205e901fe3,Aneka Rasa,52.37581148146688,4.898817028596447,Indonesian Restaurant
397,397,52.374208606001424,4.90072201433155,42,38,4a270859f964a52064901fe3,Dim Sum Court,52.37370684562869,4.900257529426658,Dim Sum Restaurant
1628,355,52.35760000000001,4.868715384615384,37,7,4a27085af964a5206a901fe3,Daar Baand,52.36046395018312,4.8659498342978,Persian Restaurant
1001,600,52.37760000000001,4.885638461538461,35,25,4a27085ff964a5207c901fe3,De 2 Grieken,52.37793877899626,4.886858860492971,Greek Restaurant
1962,689,52.3676,4.885638461538461,50,45,4a270860f964a5207f901fe3,Antonio's,52.36363226300169,4.885036842566377,Italian Restaurant
1619,346,52.35760000000001,4.851792307692307,22,20,4a27086cf964a520a9901fe3,Punjabi Food,52.360898,4.855708,Indian Restaurant
1860,587,52.3676,4.851792307692307,31,24,4a270872f964a520bd901fe3,Indian Touch,52.363985693437826,4.855107075824867,Indian Restaurant
1534,261,52.34760000000001,4.902561538461538,37,15,4a270872f964a520c0901fe3,Visrestaurant Andalusia,52.3519009065359,4.9031082121545095,Spanish Restaurant
825,424,52.3698609293324,4.88196043446314,36,35,4a270876f964a520d0901fe3,Thai Fusion,52.370375660900926,4.883968946170543,Thai Restaurant
2167,894,52.37760000000001,4.902561538461538,50,38,4a270879f964a520dc901fe3,Italia Oggi,52.37385013233056,4.902233193309273,Italian Restaurant
1051,650,52.3798609293324,4.881959601621007,42,40,4a270879f964a520dd901fe3,Sugoi,52.381116,4.883839,Sushi Restaurant
287,287,52.36873046466621,4.891155596279908,12,7,4a270881f964a520f9901fe3,Ristorante Italiano Maria,52.36842512182118,4.892425438602451,Italian Restaurant
1294,21,52.2976,4.970253846153844,5,2,4a270884f964a52004911fe3,Eetland,52.29549319999421,4.975538494193291,Italian Restaurant
1632,359,52.35760000000001,4.868715384615384,37,11,4a270890f964a5201a911fe3,Lalibela,52.3610475930051,4.865448216006593,Ethiopian Restaurant
1575,302,52.35760000000001,4.8010230769230775,16,2,4a270892f964a52022911fe3,Kismet :: Osdorpplein 671,52.3591667523536,4.805601707716233,Mediterranean Restaurant
318,318,52.37533907066762,4.898882678544084,33,26,4a270893f964a52024911fe3,Tibet Restaurant,52.374833682234595,4.899033515464522,Tibetan Restaurant
1481,208,52.34760000000001,4.851792307692307,31,26,4a270893f964a52026911fe3,Thai Xpress,52.350732,4.853429,Thai Restaurant
1463,190,52.34760000000001,4.851792307692307,31,8,4a270899f964a5203f911fe3,Delicieux ! Traiteur en Catering,52.34496616911005,4.855091161055218,French Restaurant
1075,674,52.37533907066762,4.881959601621007,37,22,4a27089af964a52047911fe3,Japanese Pancake World,52.37644366569547,4.882249821902466,Japanese Restaurant
307,307,52.37533907066762,4.898882678544084,33,15,4a27db0ff964a52095911fe3,Kamasutra,52.37511033759885,4.898471509527399,Indian Restaurant
324,324,52.37533907066762,4.898882678544084,33,32,4a27db0ff964a52096911fe3,De Kooning van Siam,52.374904142452976,4.899467342036321,Thai Restaurant
1377,104,52.3276,4.885638461538461,12,4,4a27db10f964a52099911fe3,Korea,52.324795694110286,4.885158918418513,Korean Restaurant
2077,804,52.37760000000001,4.868715384615384,22,20,4a27db11f964a520a2911fe3,Mitsos Traiterie,52.374475960823716,4.873561500954367,Greek Restaurant
23,23,52.35533907066761,4.889315656260642,29,23,4a27db16f964a520cc911fe3,Zagros,52.354731,4.8886960199999985,Middle Eastern Restaurant
688,287,52.36533907066761,4.865037357540063,28,13,4a27db18f964a520da911fe3,Biladi,52.3642525083872,4.862773003261434,Moroccan Restaurant
1093,692,52.3798609293324,4.889317321455915,32,3,4a27db18f964a520e0911fe3,Thai & Co,52.380094086800206,4.8925200065652845,Thai Restaurant
1999,726,52.3676,4.936407692307691,29,18,4a27db19f964a520eb911fe3,Antep Sofrasi,52.364216043231295,4.9379015569365095,Eastern European Restaurant
1944,671,52.3676,4.885638461538461,50,27,4a27db1cf964a52001921fe3,Sherpa,52.3632039679113,4.8847439521692095,Tibetan Restaurant
1335,62,52.31760000000001,4.953330769230769,21,1,4a27db1cf964a520fc911fe3,Lucky King & Hong,52.31461124896743,4.954898833483832,Chinese Restaurant
167,167,52.364208606001405,4.883799353884835,50,42,4a27db20f964a52020921fe3,Mai Thai,52.36370945245843,4.884094380158514,Thai Restaurant
1543,270,52.34760000000001,4.902561538461538,37,24,4a27db21f964a52025921fe3,Indonesisch-Maleisia-Singapore Taste of Life,52.346870751744156,4.905008765772587,Indonesian Restaurant
724,323,52.3698609293324,4.872393411690704,35,21,4a27db22f964a5202b921fe3,Tandoori Express,52.367866121399146,4.8740610466861884,Indian Restaurant
1373,100,52.3276,4.885638461538461,12,0,4a27db23f964a5202c921fe3,Hwa Won,52.32433090886237,4.884572116051503,Korean Restaurant
1506,233,52.34760000000001,4.885638461538461,22,9,4a27db2af964a5205b921fe3,Kushi-Tei of Tokyo,52.348004400778464,4.891352698173294,Japanese Restaurant
1505,232,52.34760000000001,4.885638461538461,22,8,4a27db2af964a52060921fe3,Chutima's,52.3447243480047,4.890828761995073,Thai Restaurant
187,187,52.36646953533381,4.891155408035479,29,10,4a27db2ff964a5206c921fe3,Amarylles,52.36691879725964,4.892173044825519,Spanish Restaurant
1471,198,52.34760000000001,4.851792307692307,31,16,4a27db30f964a52073921fe3,Warung Min,52.3503517823973,4.8494696872921885,Indonesian Restaurant
1487,214,52.34760000000001,4.868715384615384,11,1,4a27db33f964a5207f921fe3,Umeno,52.344678,4.863752,Japanese Restaurant
579,178,52.35533907066761,4.8988843437393585,50,38,4a27db34f964a52087921fe3,Vamos a Ver,52.356399933672115,4.898741964313038,Spanish Restaurant
1581,308,52.35760000000001,4.8010230769230775,16,8,4a27db37f964a520a0921fe3,Asian Delight,52.359151000000004,4.805999,Asian Restaurant
392,392,52.374208606001424,4.90072201433155,42,33,4a27db3bf964a520bb921fe3,Azzurro,52.37503651966065,4.9008028311706555,Italian Restaurant
1341,68,52.31760000000001,4.953330769230769,21,7,4a27db3bf964a520bd921fe3,Tjin's,52.31554466185104,4.955455914284948,Cajun / Creole Restaurant
1802,529,52.35760000000001,4.919484615384615,45,44,4a27db3df964a520c2921fe3,Thaicoon,52.357178980567596,4.918036011396016,Asian Restaurant
1969,696,52.3676,4.919484615384615,14,2,4a27db40f964a520df921fe3,Restaurant Elkaar,52.36327,4.91921,French Restaurant
492,91,52.35533907066761,4.889315656260642,50,49,4a27db41f964a520e0921fe3,Ãz Nazar :: Gerard Douplein 8HS,52.355889000000005,4.8925339999999995,Mediterranean Restaurant
1340,67,52.31760000000001,4.953330769230769,21,6,4a27db41f964a520e2921fe3,Kebabish,52.320145000000004,4.958389,Turkish Restaurant
263,263,52.3698609293324,4.889316488613782,15,14,4a27db46f964a520fd921fe3,Trattoria Caprese,52.3703070200966,4.889072533602222,Italian Restaurant
1585,312,52.35760000000001,4.8010230769230775,16,12,4a27db52f964a52029931fe3,KING Kumpir Osdorp,52.35908369,4.805177,Vegetarian / Vegan Restaurant
1535,262,52.34760000000001,4.902561538461538,37,16,4a27db58f964a5204a931fe3,Il Ponte,52.350484,4.903466000000001,Italian Restaurant
1295,22,52.2976,4.970253846153844,5,3,4a27db5af964a52052931fe3,Amore Mio,52.2993259,4.96351386,Italian Restaurant
2061,788,52.37760000000001,4.868715384615384,22,4,4a27db61f964a5207c931fe3,Orontes West,52.37474004074882,4.872927825636603,Mediterranean Restaurant
1426,153,52.3376,4.868715384615384,31,30,4a27db62f964a5207f931fe3,De Prinsenkelder,52.33874803942253,4.873353957238519,French Restaurant
2203,930,52.387600000000006,4.851792307692307,7,4,4a27db62f964a52080931fe3,Lei Ping,52.384495614784186,4.847618450475151,Chinese Restaurant
1853,580,52.3676,4.851792307692307,31,17,4a27db63f964a52087931fe3,A la Ghazi,52.370326,4.853605,Caribbean Restaurant
1623,350,52.35760000000001,4.868715384615384,37,2,4a27db68f964a520a3931fe3,Fenan Klein Afrika,52.361211682228,4.8649929875387175,Ethiopian Restaurant
1494,221,52.34760000000001,4.868715384615384,11,8,4a27db69f964a520ac931fe3,Sushi Time,52.345933,4.864547,Sushi Restaurant
1374,101,52.3276,4.885638461538461,12,1,4a27db6bf964a520b7931fe3,Khan,52.32445788630763,4.884504066345042,Korean Restaurant
2030,757,52.37760000000001,4.851792307692307,27,0,4a27db6bf964a520b9931fe3,Birtat,52.378586999999996,4.848157,Mediterranean Restaurant
1465,192,52.34760000000001,4.851792307692307,31,10,4a27db6df964a520c1931fe3,Warung Bandung,52.349711,4.84936,Asian Restaurant
1382,109,52.3276,4.885638461538461,12,9,4a27db6ff964a520cd931fe3,Restaurant H'Baron,52.32608330474474,4.878926200094262,Middle Eastern Restaurant
174,174,52.364208606001405,4.883799353884835,50,49,4a27db70f964a520d3931fe3,Puri Mas,52.36405635515226,4.884532237664559,Indonesian Restaurant
1502,229,52.34760000000001,4.885638461538461,22,5,4a27db70f964a520d6931fe3,Orandaya,52.34541130408968,4.890867664166565,Japanese Restaurant
1520,247,52.34760000000001,4.902561538461538,37,1,4a27db71f964a520db931fe3,New China Town,52.351175267534686,4.903394799717966,Chinese Restaurant
1788,515,52.35760000000001,4.919484615384615,45,30,4a27db76f964a520f3931fe3,Meram Oost,52.355948158761365,4.925698339837538,Turkish Restaurant
1337,64,52.31760000000001,4.953330769230769,21,3,4a27db80f964a52026941fe3,Kam Yin,52.31553515254512,4.955318393670427,Chinese Restaurant
1079,678,52.37533907066762,4.881959601621007,37,26,4a3bfcf3f964a520f9a01fe3,Soen,52.374104981919174,4.883261528914921,Thai Restaurant
1610,337,52.35760000000001,4.851792307692307,22,11,4a577ed6f964a52041b61fe3,In 't Vierde Baarsje,52.358198714036064,4.854164859138471,French Restaurant
1646,373,52.35760000000001,4.868715384615384,37,25,4a75c3a1f964a52036e11fe3,Tomatillo,52.360800960943976,4.867626469976871,Mexican Restaurant
1617,344,52.35760000000001,4.851792307692307,22,18,4a771fbbf964a520a8e31fe3,Pomorosso,52.35440463565261,4.855603461644027,Italian Restaurant
1713,440,52.35760000000001,4.902561538461538,50,5,4a85a430f964a520bbfe1fe3,Fa. Pekelhaaring,52.35324516815201,4.9025551359212844,Italian Restaurant
705,304,52.3698609293324,4.872393411690704,35,2,4a8af4def964a520000b20e3,Fuoco Vivo,52.37166363906875,4.873550157209708,Italian Restaurant
1056,655,52.37533907066762,4.881959601621007,37,3,4ab41d2ef964a520e66f20e3,Eethuis de Jordaan,52.37331302036114,4.880385216359207,Turkish Restaurant
2294,1021,52.42760000000001,4.919484615384615,4,3,4ab64b3df964a520817620e3,Afhaal Thai Ubon,52.4303637329533,4.91386618333544,Thai Restaurant
1066,665,52.37533907066762,4.881959601621007,37,13,4accfe24f964a52071ca20e3,Mantoe,52.375454438713284,4.880783006119838,Afghan Restaurant
2073,800,52.37760000000001,4.868715384615384,22,16,4ae496baf964a520009c21e3,Restaurant Più,52.38034414042228,4.87328705662772,Italian Restaurant
693,292,52.36533907066761,4.865037357540063,28,18,4ae5e4faf964a520f1a221e3,Thailicious,52.365201,4.864273000000001,Thai Restaurant
2208,935,52.387600000000006,4.868715384615384,10,2,4aeac2adf964a52027bc21e3,Raïnaraï Westergasfabriek,52.38561008647764,4.86574631329771,Mediterranean Restaurant
752,351,52.36533907066761,4.872393411690704,28,14,4b10272ff964a5201e6a23e3,Soytasty,52.366358021834685,4.872822663622447,Sushi Restaurant
1278,5,52.2976,4.851792307692307,4,0,4b17b9e4f964a52085c723e3,Chinees Indisch Restaurant Ho Fa,52.2970293228606,4.854427566175424,Chinese Restaurant
1782,509,52.35760000000001,4.919484615384615,45,24,4b1936a9f964a5204cd923e3,Restaurant Oost,52.359247308175604,4.914358435980844,Italian Restaurant
1981,708,52.3676,4.936407692307691,29,0,4b194603f964a5204ada23e3,Restaurant Pompstation,52.36601908247345,4.9333607392326595,French Restaurant
967,566,52.36533907066761,4.889316488613782,50,41,4b1bf431f964a52097ff23e3,Phutakun,52.366784807407065,4.889486033027072,Thai Restaurant
1417,144,52.3376,4.868715384615384,31,21,4b22be9cf964a520c54c24e3,Heat,52.33792026711125,4.871109785959924,French Restaurant
1301,28,52.30760000000001,4.851792307692307,6,1,4b3a7402f964a520b26725e3,De Jonge Dikkert,52.308356994199976,4.847410433163082,French Restaurant
1113,712,52.3798609293324,4.889317321455915,32,23,4b3b9092f964a520f17525e3,Snow Lion,52.38008594073956,4.8925721034524745,Tibetan Restaurant
823,422,52.3698609293324,4.88196043446314,36,33,4b4027dcf964a52058b625e3,Envy,52.371635,4.883209,Modern European Restaurant
1334,61,52.31760000000001,4.953330769230769,21,0,4b45ca45f964a520601026e3,Pasta di Mamma,52.314779235934964,4.955087427591257,Italian Restaurant
1625,352,52.35760000000001,4.868715384615384,37,4,4b4c6f3df964a520e6b226e3,George W.P.A.,52.357199874048156,4.8745810144127315,French Restaurant
2220,947,52.387600000000006,4.885638461538461,32,4,4b4f5182f964a520190127e3,Erol Doner,52.38953305086749,4.87931577634378,Turkish Restaurant
535,134,52.3598609293324,4.8988843437393585,12,6,4b52268af964a520b06b27e3,Le Bouchon Du Centre,52.36041650764413,4.896560133224674,French Restaurant
1750,477,52.35760000000001,4.902561538461538,50,42,4b549c23f964a52089c227e3,Indo Jaya,52.353150637436094,4.902686522310033,Asian Restaurant
2240,967,52.387600000000006,4.885638461538461,32,24,4b55f8a3f964a5209ff927e3,Wendy's Eethuis,52.38808197328678,4.880660897934728,Indonesian Restaurant
2166,893,52.37760000000001,4.902561538461538,50,37,4b635310f964a5203e722ae3,Madre Maria,52.37806008999112,4.895628138337841,Argentinian Restaurant
540,139,52.3598609293324,4.8988843437393585,12,11,4b69c190f964a5203bb22be3,Restaurant Serge,52.361332,4.899076999999999,French Restaurant
1549,276,52.34760000000001,4.902561538461538,37,30,4b6e0c8ff964a5205fa62ce3,chris biefstuk,52.343711256980896,4.905156,French Restaurant
2074,801,52.37760000000001,4.868715384615384,22,17,4b6efaedf964a5207ad42ce3,Ibo Döner Kebab,52.37466988793096,4.8729341396455865,Turkish Restaurant
1652,379,52.35760000000001,4.868715384615384,37,31,4b705381f964a520e1122de3,restaurant moerdijk,52.356122,4.871057,French Restaurant
804,403,52.3698609293324,4.88196043446314,36,14,4b76fdb6f964a52028722ee3,A La Plancha Tapas Bar,52.368965,4.881068,Tapas Restaurant
2272,999,52.3976,4.919484615384615,7,5,4b781e66f964a520b2b62ee3,Thais afhaalrestaurant Muang Phrom,52.394850254058845,4.91664469242096,Thai Restaurant
1306,33,52.30760000000001,4.868715384615384,10,0,4b7ec2d2f964a5207dfd2fe3,7 spices,52.310135063749,4.870324510090919,Indian Restaurant
2019,746,52.37760000000001,4.817946153846154,9,8,4b92adf3f964a520b01034e3,Osdorp Express Slotermeer,52.38083867935628,4.820895195007324,Moroccan Restaurant
2034,761,52.37760000000001,4.851792307692307,27,4,4b93eb08f964a520be5934e3,Restaurant Betawi,52.38098433022274,4.854042239794505,Indonesian Restaurant
732,331,52.3698609293324,4.872393411690704,35,29,4b9a814df964a520aabb35e3,Warung Tresno,52.371053,4.871163,South American Restaurant
2194,921,52.387600000000006,4.834869230769232,5,0,4b9fa419f964a520f63037e3,Mr. Long,52.38887363666423,4.8387745421350274,Asian Restaurant
2045,772,52.37760000000001,4.851792307692307,27,15,4ba26a58f964a520bff637e3,Snackbar Desiree,52.38090257624339,4.854165362960972,Asian Restaurant
1031,630,52.3798609293324,4.881959601621007,42,20,4ba3bb9af964a520705938e3,Cocina Mexicana,52.379653000000005,4.880797,Mexican Restaurant
2075,802,52.37760000000001,4.868715384615384,22,18,4ba51674f964a52061db38e3,Lazagne,52.37836530761994,4.875262971204816,Italian Restaurant
1484,211,52.34760000000001,4.851792307692307,31,29,4baa470df964a520575a3ae3,Toko Sinar Mas,52.351106,4.850174,Asian Restaurant
1161,760,52.37533907066762,4.889317321455915,49,39,4baa5abff964a52040623ae3,Curry Express,52.376267999999996,4.892542,Indian Restaurant
1400,127,52.3376,4.868715384615384,31,4,4babcecef964a5204fcb3ae3,wagamama,52.33984962784122,4.8728008807642285,Asian Restaurant
1405,132,52.3376,4.868715384615384,31,9,4bb2320342959c74c37e202c,Gustavino,52.33740557638264,4.873578878260789,Italian Restaurant
1164,763,52.37533907066762,4.889317321455915,49,42,4bb78c46cf2fc9b621619e02,Chez Georges,52.37700354489761,4.889406508058678,French Restaurant
376,376,52.374208606001424,4.90072201433155,42,17,4bb7992a98c7ef3b26093002,Welcome,52.37494738445366,4.900984602836246,Vietnamese Restaurant
1302,29,52.30760000000001,4.851792307692307,6,2,4bc1fae274a9a593f67dd2f6,Pane & Vino Italiaans Restaurant,52.311007000000004,4.847047,Italian Restaurant
1547,274,52.34760000000001,4.902561538461538,37,28,4bc214b74cdfc9b64d819521,Krua Buppha,52.34942393,4.904006,Thai Restaurant
426,25,52.35533907066761,4.8819612668162815,13,11,4bc9c6f7511f95214731aec7,Scalla della Pasta,52.35524778006853,4.885567542757103,Italian Restaurant
1438,165,52.3376,4.953330769230769,9,1,4bd9aefce914a5939b6357fa,Bogor Permai,52.34055368217525,4.9557512143988856,Indonesian Restaurant
1902,629,52.3676,4.868715384615384,50,35,4bdb43133904a5939c86499e,Sushi Sakura,52.368045,4.87511595,Japanese Restaurant
685,284,52.36533907066761,4.865037357540063,28,10,4bdc508fafe8c9b6b3d54e85,Dönerland Kinker,52.36501583606854,4.863432435854487,Mediterranean Restaurant
1861,588,52.3676,4.851792307692307,31,25,4bddace46198c9b6ad3611ff,Ah-Sin Chinees-Surinaams Eethuis,52.36880318296829,4.85170420076579,Chinese Restaurant
1841,568,52.3676,4.851792307692307,31,5,4be17dde0365c9b6b4cdb338,Rotishop Gieta,52.368957,4.854071,Caribbean Restaurant
2042,769,52.37760000000001,4.851792307692307,27,12,4be268051dd22d7f2a1b94bd,Cihan,52.37716289119175,4.8468201879473005,Middle Eastern Restaurant
399,399,52.374208606001424,4.90072201433155,42,40,4be31951f07b0f47ca15f743,Soytasty,52.374717,4.90076908,Sushi Restaurant
1314,41,52.30760000000001,4.868715384615384,10,8,4be57a35bcef2d7ffbcf03e5,Take-Ya Sushi & Japanese Specialities,52.30969798253695,4.863396524618752,Japanese Restaurant
820,419,52.3698609293324,4.88196043446314,36,30,4be70768cf200f47bd2a153c,Traiteur De Zeven Heuvels,52.36905,4.878817,Mediterranean Restaurant
1460,187,52.34760000000001,4.851792307692307,31,5,4be9aa11a9900f47bd991540,Sinan restaurant,52.351076,4.854833,Middle Eastern Restaurant
1441,168,52.3376,4.953330769230769,9,4,4bed885ebac3c9b68d6efee9,Ciao,52.339652,4.951459,Italian Restaurant
2036,763,52.37760000000001,4.851792307692307,27,6,4bee7362d355a593d7e40a60,Abia,52.376866,4.846543,African Restaurant
1840,567,52.3676,4.851792307692307,31,4,4beed62e3686c9b61909256e,Billa Da Dhaba,52.364592,4.856525,Indian Restaurant
2067,794,52.37760000000001,4.868715384615384,22,10,4bf2bd6055c7c9b6636e6204,Rodos,52.37980862184633,4.871457440873368,Greek Restaurant
1507,234,52.34760000000001,4.885638461538461,22,10,4bf2edb96991c9b69dab29e9,Chinese Restaurant Oceania,52.34550831900365,4.890963226308773,Chinese Restaurant
1854,581,52.3676,4.851792307692307,31,18,4bf6c393b182c9b62071745a,Jade Garden,52.36992708287393,4.851115725733787,Chinese Restaurant
2224,951,52.387600000000006,4.885638461538461,32,8,4bf813605317a593011cff7e,Holy Ravioli,52.388735371318596,4.8799631376129815,Italian Restaurant
1274,1,52.28760000000001,4.8010230769230775,2,0,4bfeac96369476b028a98c1f,Restaurant Cin Cin,52.285271007881796,4.800230302619797,Italian Restaurant
1774,501,52.35760000000001,4.919484615384615,45,16,4c011899cf3aa593216dccb0,Vishandel Gibraltar,52.35486239749913,4.9210509440376295,Mediterranean Restaurant
666,265,52.3698609293324,4.865037357540063,18,9,4c0bf7d36071a593770fe232,B&B's Kribbe,52.36795,4.863788,Moroccan Restaurant
1821,548,52.35760000000001,4.953330769230769,3,2,4c0f72ab7189c928d507dab6,Sapori Del Mondo (Science Park),52.35640146000001,4.955877,Italian Restaurant
1076,675,52.37533907066762,4.881959601621007,37,23,4c1be9b3fcf8c9b6d231a90b,Grillroom Twins,52.37716697,4.8818589999999995,Middle Eastern Restaurant
2015,742,52.37760000000001,4.817946153846154,9,4,4c2238cd13c00f47a71d87de,Döner Plaza,52.38082090966698,4.821073110680584,Turkish Restaurant
565,164,52.35533907066761,4.8988843437393585,50,24,4c24dba3a852c928c1cbe36c,De kleine Griek,52.354987263679504,4.90156178,Greek Restaurant
1184,783,52.37760000000001,4.902561538461538,26,13,4c29c5d39eb1952133ca2959,Restaurant Lastage,52.375512181517344,4.902226648415133,French Restaurant
1448,175,52.34760000000001,4.8010230769230775,4,0,4c2f28dced37a59325be6603,Leziz Restaurant,52.35169859048194,4.798447103054376,Mediterranean Restaurant
162,162,52.364208606001405,4.883799353884835,50,37,4c2f342416adc928cb17bd9c,Casa Di Italiana,52.363525391254655,4.884315660798906,Italian Restaurant
1572,299,52.34760000000001,5.004099999999998,1,0,4c31dadd7cc0c9b66c55ef9a,Merza,52.35164688551652,5.002127736982938,Turkish Restaurant
1809,536,52.35760000000001,4.936407692307691,16,6,4c3757a2dfb0e21ead93aca8,Brasserie Hogeweg (voorheen Klein Jansen),52.355439000000004,4.933521,French Restaurant
2292,1019,52.42760000000001,4.919484615384615,4,1,4c38a0673849c92812c6bfb1,Swieti Sranang afhaal,52.42962145,4.91368115,Caribbean Restaurant
1615,342,52.35760000000001,4.851792307692307,22,16,4c3edb80b8b4be9addabccef,Pasta & Pizza Cannolo,52.35850974686077,4.8538774149246375,Italian Restaurant
2014,741,52.37760000000001,4.817946153846154,9,3,4c4335b2cc410f47fddaad61,Bella Vita,52.38125406103509,4.821562743151937,Italian Restaurant
64,64,52.35420860600141,4.891154159561018,3,2,4c47428919fde21e9dbe0776,Da Evelien,52.354290999999996,4.891737,Mediterranean Restaurant
1150,749,52.37533907066762,4.889317321455915,49,28,4c52e06899ecc9b67f0c715b,Over De Kook,52.374867038876026,4.8925546,French Restaurant
310,310,52.37533907066762,4.898882678544084,33,18,4c531543479fc928e743e890,Argentinian Grill Restaurant,52.37564783965004,4.89890546868502,Argentinian Restaurant
1414,141,52.3376,4.868715384615384,31,18,4c6d2a506af58cfa959d8817,Heat For Food,52.337806,4.871268,Italian Restaurant
1998,725,52.3676,4.936407692307691,29,17,4c6ff1fcd97fa143d560f4ca,Nur Kabab,52.363745539757396,4.936758413979748,Middle Eastern Restaurant
1618,345,52.35760000000001,4.851792307692307,22,19,4c700e5ed97fa14320cbf4ca,Olive 63,52.353958,4.855698,Greek Restaurant
1477,204,52.34760000000001,4.851792307692307,31,22,4c839667d34ca14378823680,Sap,52.346963,4.8548290000000005,Indian Restaurant
1978,705,52.3676,4.919484615384615,14,11,4c8a7aea2e333704720dc441,Maccheroni,52.36985394639508,4.91854542135713,Italian Restaurant
2198,925,52.387600000000006,4.834869230769232,5,4,4c8f4349ad70a1430016900f,Julia's,52.38904172764404,4.837750749701972,Italian Restaurant
1310,37,52.30760000000001,4.868715384615384,10,4,4c9663fef7cfa1cd80d6c515,Taco Mundo,52.30532500494855,4.87021251619665,Mexican Restaurant
1280,7,52.2976,4.851792307692307,4,2,4c9889ac4804a143cd1aec0e,Fung Han,52.29384868714524,4.849553867128752,Chinese Restaurant
1208,807,52.3798609293324,4.898882678544084,16,11,4c9a2df09c663704e65c56fd,Restaurant Fijn Hout,52.37910449962862,4.8993323720978275,Italian Restaurant
638,237,52.3676,4.868715384615384,50,31,4c9e052c542b224b297cef9f,Demirel,52.36630534787633,4.868700754807189,Mediterranean Restaurant
778,377,52.3676,4.885638461538461,24,12,4c9f861d0e9bb1f76731f15f,Kadijk De Winkel,52.368843,4.885299,Asian Restaurant
1564,291,52.34760000000001,4.919484615384615,10,8,4ca631dbeda2236a884489de,Dolfijn,52.348221,4.917325,Cajun / Creole Restaurant
1444,171,52.3376,4.953330769230769,9,7,4ca7737576d3a09399aa0b6b,Schuilkerk De Hoop,52.33864260569639,4.9597359435192,French Restaurant
575,174,52.35533907066761,4.8988843437393585,50,34,4ca7762e97c8a1cdd7ab7aa5,Ciro 1939,52.355018,4.9015260000000005,Italian Restaurant
2031,758,52.37760000000001,4.851792307692307,27,1,4ca89260b0b8236a4392b4e6,Kratiam Thai,52.3800214252599,4.853776208444199,Thai Restaurant
1313,40,52.30760000000001,4.868715384615384,10,7,4cab486cd971b1f7339629e1,Restaurant kaya,52.30537532730313,4.8700549849269725,Korean Restaurant
19,19,52.35533907066761,4.889315656260642,29,19,4cacfadc36fa6dcb5444e378,the Grillroom,52.355263,4.8903300000000005,Middle Eastern Restaurant
1694,421,52.35760000000001,4.885638461538461,50,36,4cb0621139458cfa2a1c02a0,Nam Kee,52.357535320937735,4.891028026065406,Chinese Restaurant
1286,13,52.2976,4.902561538461538,8,3,4cb1e8849b34199cdde8b863,Cuisine Culinaire Ouderkerk,52.297712,4.900009,French Restaurant
430,29,52.3598609293324,4.889315656260642,15,2,4cb72c5156fca1cd6f9d5b18,Trattoria That's Amore,52.36160444969858,4.891518098100222,Italian Restaurant
335,335,52.37646953533381,4.897043342756617,12,10,4cb93f09adcd548132a31ba2,Allstars,52.375934388420525,4.896786974601052,Argentinian Restaurant
1281,8,52.2976,4.851792307692307,4,3,4cbb1052bac937043989ef7c,Selera Anda,52.294486,4.849453,Indian Restaurant
1850,577,52.3676,4.851792307692307,31,14,4cbb21b29552b60ce223de8b,Vishandel Jan Evertsen,52.36972326,4.85141624,Mediterranean Restaurant
2197,924,52.387600000000006,4.834869230769232,5,3,4cbd7e9ad8e9bfb762d1d6d2,Doner Company,52.38890435928619,4.838565360529452,Doner Restaurant
169,169,52.364208606001405,4.883799353884835,50,44,4cc1b5725684a35db27eba0d,Bella Napoli,52.3642928319627,4.884238243103027,Italian Restaurant
1324,51,52.31760000000001,4.851792307692307,3,2,4cc2f78982388cfaf7286435,Warung Baru,52.31887437306744,4.857487460770951,Asian Restaurant
1040,639,52.3798609293324,4.881959601621007,42,29,4cc4709580624688dc7a362f,Atakan,52.381802541362006,4.8809147760491065,Middle Eastern Restaurant
1413,140,52.3376,4.868715384615384,31,17,4ccf08917c2ff04dbc24a87e,Bolenius,52.33602672649037,4.873447134351325,French Restaurant
809,408,52.3698609293324,4.88196043446314,36,19,4cd30df508f48cfa02009e85,Hazenstraat,52.37174627075743,4.88186812373057,American Restaurant
1568,295,52.34760000000001,4.936407692307691,5,2,4cd3e83f9828b60c85ded784,Meer Winkel,52.351791999999996,4.936534,French Restaurant
892,491,52.3698609293324,4.889316488613782,50,16,4ce1272bc4f6a35d8c9ed96c,Noname,52.37048461999469,4.88617210282462,Asian Restaurant
312,312,52.37533907066762,4.898882678544084,33,20,4ced504c7b943704b31f2653,Olivar,52.37554669567444,4.900064824119103,Tapas Restaurant
329,329,52.37646953533381,4.897043342756617,12,4,4cf14b1f7e0da1cd37ae9097,Nieuwendijk,52.376342139825056,4.895914741487244,Chinese Restaurant
1607,334,52.35760000000001,4.851792307692307,22,8,4cfa24542c6459411bf5414a,Mangiamo Grill,52.35598089,4.8503793625,Mediterranean Restaurant
1550,277,52.34760000000001,4.902561538461538,37,31,4cfad799c51fa1cdc946e32b,M&M,52.347332,4.90517,Caribbean Restaurant
1561,288,52.34760000000001,4.919484615384615,10,5,4d05c40cdc45a093f8e2f0c6,Julia's,52.346675477803494,4.918182534932161,Italian Restaurant
1329,56,52.31760000000001,4.868715384615384,7,4,4d072b4deb582c0f3f927653,B!Digital - Food For Thought,52.31349,4.870858999999999,Italian Restaurant
1210,809,52.3798609293324,4.898882678544084,16,13,4d08e76f7b30a1cd1225a2cc,Pacific Place,52.38099039217195,4.897120585395839,Chinese Restaurant
393,393,52.374208606001424,4.90072201433155,42,34,4d0cb55f257d6dcb06399767,La Brasa,52.374094,4.900369,Argentinian Restaurant
1293,20,52.2976,4.970253846153844,5,1,4d24b227836f54813c5545f7,Eucalyptus,52.296585,4.97492,Middle Eastern Restaurant
1351,78,52.31760000000001,4.953330769230769,21,17,4d26f9f83c795481a01cc09b,Dõnner De Poort,52.316158674145505,4.949171880160844,Turkish Restaurant
1282,9,52.2976,4.868715384615384,1,0,4d275b9055a8b60c0123c3c0,Kokusai,52.30178845539008,4.866328100950216,Japanese Restaurant
1970,697,52.3676,4.919484615384615,14,3,4d31fc6e72a8b1f7bfb999d0,Indian Heaven,52.365590697252465,4.9255968639460255,Indian Restaurant
591,190,52.3598609293324,4.906238733183717,1,0,4d3b2b9249cb236ab67ec147,Amstel Bar & Brasserie,52.36001532958312,4.904962956008391,French Restaurant
1852,579,52.3676,4.851792307692307,31,16,4d441361e198721e1dbab78b,Cafe Restaurant Open,52.365984000000005,4.8585519999999995,French Restaurant
1104,703,52.3798609293324,4.889317321455915,32,14,4d45c4f63616b60c0caef1c2,La Brasa Steakhouse,52.381798459028815,4.888754743680709,South American Restaurant
1327,54,52.31760000000001,4.868715384615384,7,2,4d52eab2e027548199c7b9b6,Chez Yu,52.317591,4.873623,Asian Restaurant
1570,297,52.34760000000001,4.936407692307691,5,4,4d56dd6db4deb1f7f365167a,Theodora & Ewold's,52.348879,4.941096,South American Restaurant
2047,774,52.37760000000001,4.851792307692307,27,17,4d5807c4de8f6dcbf58e0691,Mesken XL,52.37746,4.846492,Middle Eastern Restaurant
172,172,52.364208606001405,4.883799353884835,50,47,4d583ebf1270236a3b939359,Circolo Amichi Del Buon Vino Italiano,52.364071100000004,4.8844668,Italian Restaurant
438,37,52.3598609293324,4.889315656260642,15,10,4d5d88bf9c31b60ce5c9c0ee,La Cacerola,52.361064115182714,4.88865831544546,Brazilian Restaurant
1136,735,52.37533907066762,4.889317321455915,49,14,4d5e634f1939a35dc93808ee,Sara's Wok House,52.373396422222214,4.887763,Asian Restaurant
1366,93,52.3276,4.868715384615384,15,8,4d5fb655e4fe54810d10779e,"Restaurant ""sato""",52.32604819397786,4.874256077255724,Japanese Restaurant
1043,642,52.3798609293324,4.881959601621007,42,32,4d600fe0865a224bbb75a685,Lunchroom & Fonduerie,52.37918,4.8796120400000005,Swiss Restaurant
1727,454,52.35760000000001,4.902561538461538,50,19,4d66974be07aa35d1399aa8f,Mangiassai,52.35730594550904,4.909443922353648,Italian Restaurant
1376,103,52.3276,4.885638461538461,12,3,4d6e99f02e6ea0938f1f2050,"Chieh,Sab & Kian",52.331455,4.888922,Asian Restaurant
1807,534,52.35760000000001,4.936407692307691,16,4,4d71487ba4ef3704aadc16b3,Ayumi,52.356080684179624,4.936240777675906,Japanese Restaurant
1392,119,52.3376,4.7841,3,0,4d73d2f30d0ca1431540be83,Restaurant Sun Wing,52.33611676489183,4.780188210003469,Chinese Restaurant
1394,121,52.3376,4.7841,3,2,4d80ff53551ea1cd500e25c5,Selera Anda,52.338815000000004,4.779515,Asian Restaurant
1990,717,52.3676,4.936407692307691,29,9,4d823d85bede5481392a0ed1,Thai Tiger,52.36381115489139,4.939794271216886,Thai Restaurant
1604,331,52.35760000000001,4.851792307692307,22,5,4d83a93799b78cfa98fca51f,Siam Lounge Restaurant,52.3582215,4.8573175000000015,Asian Restaurant
669,268,52.3698609293324,4.865037357540063,18,12,4d88da2c7139b1f71795a9d4,Reba,52.370888,4.865151,Asian Restaurant
1655,382,52.35760000000001,4.868715384615384,37,34,4d934df2fa1ef04dab6e69c7,GMR Proeverij,52.356734,4.874503,French Restaurant
1780,507,52.35760000000001,4.919484615384615,45,22,4d9364f3fa1ef04da4c96bc7,Akdeniz,52.35722280000001,4.913973,Middle Eastern Restaurant
1644,371,52.35760000000001,4.868715384615384,37,23,4d97621fdaec224b90e02e3e,Grand Aspendos,52.36104471870915,4.865096876617859,Middle Eastern Restaurant
957,556,52.36533907066761,4.889316488613782,50,31,4d9b4fad3f785481c38bddd1,Mauriya,52.365295,4.885715,Indian Restaurant
2291,1018,52.42760000000001,4.919484615384615,4,0,4d9f43d9ded9a093c8920107,La Boca,52.42839547212032,4.914087244349866,Italian Restaurant
2259,986,52.387600000000006,4.936407692307691,1,0,4da0b69bbf22a143150a8af8,Di Gigi,52.39172367830051,4.937299054692214,Italian Restaurant
1370,97,52.3276,4.868715384615384,15,12,4da32befc6e96ea893b3e35d,Golan Grill,52.32591471107472,4.871296161016726,Middle Eastern Restaurant
1808,535,52.35760000000001,4.936407692307691,16,5,4da48692d686b60c78d4e128,Asilah Marina,52.361534000000006,4.939192,Moroccan Restaurant
1393,120,52.3376,4.7841,3,1,4dadfe386e81e2dffdbe8121,MooiNiets Place @ Occaisionally,52.339831271428565,4.778527021408081,Mediterranean Restaurant
1457,184,52.34760000000001,4.851792307692307,31,2,4daec8394df0f639f2522947,Kebab House Baran,52.35142104528743,4.849976313829512,Turkish Restaurant
1811,538,52.35760000000001,4.936407692307691,16,8,4daed1fe8154d1d4886dd11d,Surinaams Eethuis Carmen,52.361191999999996,4.93279,South American Restaurant
1845,572,52.3676,4.851792307692307,31,9,4db1bba0cda14b702a4c38fc,Thai Take Away,52.370435960056746,4.853965070678374,Thai Restaurant
1101,700,52.3798609293324,4.889317321455915,32,11,4db451460437fa536a28dc53,Yummie Sushi Tepanyaki,52.38167561226379,4.8889326535998565,Sushi Restaurant
2158,885,52.37760000000001,4.902561538461538,50,29,4db4714e6a23c31a03178683,La Cubanita,52.37387250227814,4.902141247148365,Tapas Restaurant
333,333,52.37646953533381,4.897043342756617,12,8,4dc0771a5da3c1af51100767,Kabab House,52.37591304070472,4.896106026765762,Doner Restaurant
803,402,52.3698609293324,4.88196043446314,36,13,4dc2c8e7fa7608e86fe18c74,Trattoria Totó da Lucia,52.367904312261295,4.881750823227537,Italian Restaurant
2260,987,52.387600000000006,4.953330769230769,1,0,4dc4499a18387d1bd51f8037,Nasi Goreng HQ,52.390449,4.947881,Asian Restaurant
2214,941,52.387600000000006,4.868715384615384,10,8,4dc541f0c65b89d3ca68bb54,Maria's Event,52.387553999999994,4.872911,Arepa Restaurant
1592,319,52.35760000000001,4.834869230769232,10,3,4dd6520ce4cd37c8938ed18d,Miskaa Brasserie,52.355452,4.839112,Indian Restaurant
865,464,52.36533907066761,4.88196043446314,50,39,4dd6c37352b1a5c6443bf84b,Restaurant Thijs,52.365089415789605,4.884199710529582,Mediterranean Restaurant
1461,188,52.34760000000001,4.851792307692307,31,6,4dd79c3a1838b8561ceab29f,"Mr-Mix, Amsterdam",52.35198851174881,4.8526477518645565,Argentinian Restaurant
1542,269,52.34760000000001,4.902561538461538,37,23,4ddab8361f6ee1468370e720,Kongkha,52.345162552744796,4.905606865112907,Thai Restaurant
2205,932,52.387600000000006,4.851792307692307,7,6,4ddb8cfaae60aa30018eb65a,Raan Isaan Thai Lao,52.38474369049072,4.85171914100647,Thai Restaurant
1996,723,52.3676,4.936407692307691,29,15,4de293b0d164df8574fe8ed2,Restaurant Zen,52.366009999999996,4.93927,Chinese Restaurant
1045,644,52.3798609293324,4.881959601621007,42,34,4df0796fd22d43368717a667,International House of L.O.V.E.,52.37805940670554,4.8799894736835965,Dutch Restaurant
2044,771,52.37760000000001,4.851792307692307,27,14,4df1ca8b1f6e818dadf99b6a,Saffron,52.37917781350746,4.845553377370407,Chinese Restaurant
1048,647,52.3798609293324,4.881959601621007,42,37,4df24e821f6e818dadfc33cf,Sim's Rotishop,52.381207,4.884414,Cajun / Creole Restaurant
1311,38,52.30760000000001,4.868715384615384,10,5,4df398de52b100c2d7fb251d,the Indian Kitchen,52.3051767642345,4.86978243783433,Indian Restaurant
1863,590,52.3676,4.851792307692307,31,27,4df63e88c65bf55ee534a8ab,Shareef's,52.37025,4.854091,Cajun / Creole Restaurant
1785,512,52.35760000000001,4.919484615384615,45,27,4dfb045152b145696e35719b,Enoteca,52.359289127442544,4.925995890237037,Italian Restaurant
1368,95,52.3276,4.868715384615384,15,10,4dfe1a18483b96a3aaab6aa2,Curry Company,52.33076300518098,4.868805129733116,Indian Restaurant
1817,544,52.35760000000001,4.936407692307691,16,14,4e00ddfa22717718d39eafea,Chinees Specialiteiten Restaurant KOTA RADJA,52.361206,4.9395690000000005,Chinese Restaurant
1430,157,52.3376,4.902561538461538,1,0,4e0ca8331f6e9300e4e87977,Taste Of Culture,52.33483342526611,4.900344649463576,Dim Sum Restaurant
1357,84,52.3276,4.851792307692307,1,0,4e0da5d88877936cb3fd2d56,@Amarosa,52.327175468578304,4.85715792976457,South American Restaurant
1287,14,52.2976,4.902561538461538,8,4,4e0eed5a483bc2b5f48682c6,Tokoman,52.297893,4.901754,South American Restaurant
2293,1020,52.42760000000001,4.919484615384615,4,2,4e297e5e52b1c37d35cc6e2c,Radboud 12,52.42638397216797,4.916310787200928,Asian Restaurant
1443,170,52.3376,4.953330769230769,9,6,4e29e1c718387cce06614fd1,Slachtkamp 168,52.33416136,4.95331621,African Restaurant
1563,290,52.34760000000001,4.919484615384615,10,7,4e2c820efa76bbf847e4be22,Restaurant HACHI,52.347099487137186,4.92335859155776,Japanese Restaurant
394,394,52.374208606001424,4.90072201433155,42,35,4e4015fd2271d21e8717b6f9,Sushi Cafe,52.374141254125355,4.9003108640933375,Sushi Restaurant
2012,739,52.37760000000001,4.817946153846154,9,1,4e4039251495bf24a5fe25da,Meram West,52.380232961210574,4.820814088280693,Turkish Restaurant
1166,765,52.37533907066762,4.889317321455915,49,44,4e49511418a8f9804cee49c3,Restorante Pizzeria Il Centro,52.37501482402586,4.891830729798184,Italian Restaurant
1442,169,52.3376,4.953330769230769,9,5,4e4e7d13c65bb313ba77bc23,Bogor indonesische afhaalcentrum,52.34086312587679,4.9540214045619955,Indonesian Restaurant
1577,304,52.35760000000001,4.8010230769230775,16,4,4e4ea296cc3f9e658a78e9b3,Ken-Ichi,52.35830225502692,4.800566091948068,Sushi Restaurant
1206,805,52.3798609293324,4.898882678544084,16,9,4e4ebb51d164978659c02030,Doosty,52.379712052673405,4.899140315439617,American Restaurant
1573,300,52.35760000000001,4.8010230769230775,16,0,4e561c20b3ad1fc51bd58e57,Sahan Restaurant,52.35836579204696,4.800308879573612,Turkish Restaurant
1409,136,52.3376,4.868715384615384,31,13,4e567b26e4cd6917b152a449,Eetcafé Kim,52.33916223451727,4.866181506092269,Indian Restaurant
912,511,52.3698609293324,4.889316488613782,50,36,4e57c05952b1748f806bd631,Vladitos,52.370892,4.889241999999999,Mexican Restaurant
161,161,52.364208606001405,4.883799353884835,50,36,4e57c1c8b61c5534c2857d60,Tex-Mex,52.3637752482716,4.884815109382084,Mexican Restaurant
1439,166,52.3376,4.953330769230769,9,2,4e5bc337d22dfba6f491c965,Ciao-Diemen,52.33932210380911,4.956509030316048,Italian Restaurant
1205,804,52.3798609293324,4.898882678544084,16,8,4e5f2dbc22718258c4989fcb,Enoteca Amsterdam,52.37896728515625,4.898409843444824,Italian Restaurant
435,34,52.3598609293324,4.889315656260642,15,7,4e63be60e4cdf1e2bfdbed99,Curry Company,52.358044981956475,4.891233444213867,Indian Restaurant
1429,156,52.3376,4.885638461538461,3,2,4e660c811838ad3d10575823,Shoyu,52.33364884868674,4.888834234246229,Asian Restaurant
1128,727,52.37533907066762,4.889317321455915,49,6,4e6673a1483bef6eb78aa1f4,Ponte Vecchio,52.374955494175346,4.891807288007514,Italian Restaurant
1995,722,52.3676,4.936407692307691,29,14,4e6b78bdaeb7c31e43815d6b,Korean Taco Party HQ,52.36378043,4.93818658,Korean Restaurant
1331,58,52.31760000000001,4.868715384615384,7,6,4e6e886852b1ebdc1f511ee7,Faga Pagati Lom Swazi Groceries,52.31453,4.864294999999999,African Restaurant
1492,219,52.34760000000001,4.868715384615384,11,6,4e76246c88775d593e44f9e1,Warung Tegal,52.34606428631317,4.864416895779172,Indonesian Restaurant
2187,914,52.37760000000001,4.936407692307691,9,2,4e78783d45ddedd585eebacc,Puerto Pata Negra,52.37453868381266,4.934702517035741,Spanish Restaurant
1525,252,52.34760000000001,4.902561538461538,37,6,4e7b830162e12bdbfdfefa04,Pind Punjabi,52.34955179116233,4.903832563421833,Indian Restaurant
2245,972,52.387600000000006,4.885638461538461,32,29,4e7ced6cf5b98afc701a7658,Casa Di Anna Luna,52.38934044279318,4.886785875529473,Italian Restaurant
1416,143,52.3376,4.868715384615384,31,20,4e89d87fb8033d1220e090da,Hello Sushi,52.33734455381809,4.871242766879077,Sushi Restaurant
331,331,52.37646953533381,4.897043342756617,12,6,4e8c891355037f60ca849cad,Warung JW,52.376978,4.897058,Asian Restaurant
173,173,52.364208606001405,4.883799353884835,50,48,4e8ca71d6da188ea92cd5f01,Tandoor Indian Restaurant,52.364865351841395,4.883291347001035,Indian Restaurant
1976,703,52.3676,4.919484615384615,14,9,4e91c7cb02d5ee38b745626e,Lina,52.367565520643524,4.915105930445557,Greek Restaurant
1369,96,52.3276,4.868715384615384,15,11,4e93202d2c5b7223b9bf1087,Belini's,52.325685978399896,4.866528375825785,Italian Restaurant
1317,44,52.30760000000001,4.953330769230769,5,1,4e9816195c5ca2073d361270,Turkse Snack Kar,52.307884216308594,4.956523895263672,Moroccan Restaurant
1154,753,52.37533907066762,4.889317321455915,49,32,4e99d606b63497cda99507b3,Dal Migliore,52.374325,4.892374,Italian Restaurant
382,382,52.374208606001424,4.90072201433155,42,23,4ea08be4dab4b59126ce3f94,Maria,52.37504072861051,4.901011285099137,Argentinian Restaurant
1106,705,52.3798609293324,4.889317321455915,32,16,4eaebfb12c5bb67b242adece,Ova's,52.38206625237708,4.8886289696659,Middle Eastern Restaurant
1560,287,52.34760000000001,4.919484615384615,10,4,4eaee10e6da1a0e3a5172676,The luxe,52.349,4.920115,Italian Restaurant
1738,465,52.35760000000001,4.902561538461538,50,30,4eb865f1be7bfc284b8fc366,Dromenland,52.361878000000004,4.901178,Indian Restaurant
1352,79,52.31760000000001,4.953330769230769,21,18,4ebbb474f7903b1fae9b7ae2,Mr. J - Taste of Surinam,52.31469517479857,4.9543782811302455,Cajun / Creole Restaurant
1452,179,52.34760000000001,4.817946153846154,3,0,4ebc03646c25b8c5fa3d4eaa,Yogja indonesisch restaurant,52.34841798774116,4.824374375182232,Asian Restaurant
1211,810,52.3798609293324,4.898882678544084,16,14,4ebd17fb7ee5326f02179257,San Estefano,52.377926847714356,4.897173922780412,Italian Restaurant
2231,958,52.387600000000006,4.885638461538461,32,15,4ec1abe80aaf6450bb85eed9,Niko Niko,52.38760995013214,4.879330926981379,Sushi Restaurant
2237,964,52.387600000000006,4.885638461538461,32,21,4ec1ac64775b98876f057319,Mexico City,52.388279,4.880014,Mexican Restaurant
1849,576,52.3676,4.851792307692307,31,13,4ec80ffa722e1437970f59fe,Wok On Fire,52.370752163779706,4.854469920360783,Asian Restaurant
1819,546,52.35760000000001,4.953330769230769,3,0,4ecb8c2482319a184a833b46,De Bunker Keet,52.35856628417969,4.95209264755249,Portuguese Restaurant
1318,45,52.30760000000001,4.953330769230769,5,2,4ed66e906da1113503447243,H23426,52.30698391949303,4.9533399548819474,Caribbean Restaurant
955,554,52.36533907066761,4.889316488613782,50,29,4ed93b47f5b92139873ed721,Pasta Primo,52.366737164249294,4.8895926048557286,Italian Restaurant
539,138,52.3598609293324,4.8988843437393585,12,10,4edbaaf0e300851bfb06340d,AlfonSo,52.36208711118503,4.898673968999876,Mexican Restaurant
2258,985,52.387600000000006,4.919484615384615,8,7,4ee6441a823180a98d0b6cd3,Carlo Di Luca Sapori Italiani,52.386673923286295,4.925531548416188,Italian Restaurant
1398,125,52.3376,4.868715384615384,31,2,4ee7cb468b81e9b756cd8017,Julia's,52.33812,4.8733525,Italian Restaurant
1519,246,52.34760000000001,4.902561538461538,37,0,4eec92776da1536879978b5a,Indah Indonesia,52.346317963978386,4.904918908590439,Indonesian Restaurant
899,498,52.3698609293324,4.889316488613782,50,23,4ef3683d2c5b6efc35fcead5,Restaurant Tropics Lounge,52.37187576293945,4.890647411346436,Spanish Restaurant
2046,773,52.37760000000001,4.851792307692307,27,16,4f08849ce4b000dd758052c6,Snackbar Outlawz,52.381292122494145,4.849863082226107,Turkish Restaurant
1446,173,52.34760000000001,4.7841,2,0,4f088ebae4b09a8a3f16fc5a,Sari Heemstede,52.34448294957622,4.779315977123393,Indonesian Restaurant
806,405,52.3698609293324,4.88196043446314,36,16,4f1199d7e4b0d3f8a58f22be,Medina Marrakech,52.36910301286546,4.8787490170798105,Moroccan Restaurant
391,391,52.374208606001424,4.90072201433155,42,32,4f15e11de4b0865b0c063fec,Vietnamees Restaurant 'Welcome',52.37487674498816,4.901426985876995,Vietnamese Restaurant
1332,59,52.31760000000001,4.885638461538461,2,0,4f17fa66e4b0a0515bdf38af,Frau Hildegards Speisen Tisch,52.32057378949282,4.881511907062378,German Restaurant
1067,666,52.37533907066762,4.881959601621007,37,14,4f1ac3cae4b0b4fde88db964,Here Brasil,52.37339259614247,4.8823794587515055,Brazilian Restaurant
1838,565,52.3676,4.851792307692307,31,2,4f1ef58ae4b07fde7f1695b7,Haweli Indian Restaurant,52.36443710327149,4.856551170349121,Indian Restaurant
1515,242,52.34760000000001,4.885638461538461,22,18,4f258221e4b04f6e6a44f8e7,Japans restaurant Tanaka,52.34778910270478,4.890456414706226,Japanese Restaurant
1728,455,52.35760000000001,4.902561538461538,50,20,4f28505de4b0279eab47458a,Spaghetteria,52.353497764491294,4.902465220123396,Italian Restaurant
1815,542,52.35760000000001,4.936407692307691,16,12,4f2ac458e4b09f4f37b2de49,Ayumi Sushi & Bento,52.35558042980993,4.940513705644071,Japanese Restaurant
1562,289,52.34760000000001,4.919484615384615,10,6,4f2af564e4b00359246d9af8,Peeking Chinese Restaurant,52.35,4.9166669999999995,Chinese Restaurant
2195,922,52.387600000000006,4.834869230769232,5,1,4f3a5138e4b00bffdf083c60,Fridays,52.385501,4.837778399999999,American Restaurant
2027,754,52.37760000000001,4.834869230769232,10,7,4f3aa100e4b0e724f16d86aa,Grillroom Zion,52.379314989598754,4.8320771379914405,Turkish Restaurant
1073,672,52.37533907066762,4.881959601621007,37,20,4f3fdcd4e4b09425fd6dd933,Pizzeria Ristorante Steakhouse,52.374029695389865,4.883053102997443,Argentinian Restaurant
2200,927,52.387600000000006,4.851792307692307,7,1,4f45246ae4b00f93ced50b9d,Hap li,52.38399999999999,4.84839,Chinese Restaurant
1474,201,52.34760000000001,4.851792307692307,31,19,4f4a7de6e4b082dc5879159b,Restaurant Mekan,52.35108350956707,4.854804217348267,Turkish Restaurant
1440,167,52.3376,4.953330769230769,9,3,4f4d11f7e4b0ca29912a2254,"Ristorante ""Ciao""",52.3392974490845,4.956555327888299,Italian Restaurant
1360,87,52.3276,4.868715384615384,15,2,4f4d1b9ce4b0657aa4ec79f4,Kagetsu III,52.32596266622455,4.8707486382501495,Japanese Restaurant
1595,322,52.35760000000001,4.834869230769232,10,6,4f4e15afe4b027c873d5826b,Caland Döner & Snacks,52.3557607956752,4.828649900364301,Turkish Restaurant
1851,578,52.3676,4.851792307692307,31,15,4f5ca8f8e4b075ad7aa513a0,Medina Restaurant,52.36363279565731,4.851077685920403,Turkish Restaurant
1356,83,52.31760000000001,4.987176923076921,1,0,4f637ca9e4b0e78cffa9ea40,Restaurant Thaper,52.316688537597656,4.981593608856201,South American Restaurant
1593,320,52.35760000000001,4.834869230769232,10,4,4f686109e4b0eb08939a5f63,Flashpoint,52.359151043872316,4.834006856305368,Australian Restaurant
442,41,52.3598609293324,4.889315656260642,15,14,4f69b97fe4b0ffb80aaa9ad2,Masseria Palmo,52.36063766479492,4.891399383544922,Italian Restaurant
1453,180,52.34760000000001,4.817946153846154,3,1,4f6b25b0e4b01a6dd5a7ac78,Klaar met engels debat,52.34800411051008,4.817537728448829,Indian Restaurant
1590,317,52.35760000000001,4.834869230769232,10,1,4f6b2a99e4b0d8154bd79625,Dropkick,52.359151043872316,4.833925910980788,Japanese Restaurant
1454,181,52.34760000000001,4.817946153846154,3,2,4f6c4b2ee4b058b4bf8934e0,Pancho's food plaza,52.34511,4.81879,Mexican Restaurant
1578,305,52.35760000000001,4.8010230769230775,16,5,4f6c555de4b0a4e20e7b8009,Saturko's sushi,52.355711111111106,4.805075555555557,Sushi Restaurant
817,416,52.3698609293324,4.88196043446314,36,27,4f6ee5d1e4b03b3f3ab4b251,Keizerculinair,52.370740999999995,4.878844,Mediterranean Restaurant
1786,513,52.35760000000001,4.919484615384615,45,28,4f71f376e4b0f11afa2a5c21,El Shygh,52.35422269619625,4.92222830486728,African Restaurant
1739,466,52.35760000000001,4.902561538461538,50,31,4f72010be4b0022eba2f4164,Restaurant Magritte,52.357031761620156,4.9091859252853975,French Restaurant
929,528,52.36533907066761,4.889316488613782,50,3,4f7360d3be77a14fae4a0d3f,Sumo,52.365463886993844,4.892687201499938,Sushi Restaurant
1387,114,52.3276,4.936407692307691,1,0,4f742fdde4b0e7e85974eb08,The Döner Company,52.32354691684736,4.9361584632020925,Doner Restaurant
2087,814,52.37760000000001,4.885638461538461,50,8,4f770ac1e4b0294fd3b69735,Salvatorica,52.37689707294756,4.878790678702957,Italian Restaurant
2285,1012,52.4076,4.902561538461538,1,0,4f79f5d1e4b03b459fba78a9,sushi,52.4073,4.899,Japanese Restaurant
1795,522,52.35760000000001,4.919484615384615,45,37,4f7c7abfe4b06b6ab99721f3,Meram Amsterdam Oost,52.35599697993546,4.925630264162696,Turkish Restaurant
1345,72,52.31760000000001,4.953330769230769,21,11,4f7ec6a6e4b08fc039a38470,Surinaamse Broodjes,52.315144318708505,4.955465196274626,Latin American Restaurant
690,289,52.36533907066761,4.865037357540063,28,15,4f8035cce4b024a26cf931f9,Pangestu,52.364712,4.861586,Caribbean Restaurant
1576,303,52.35760000000001,4.8010230769230775,16,3,4f85e3f9e4b01c6ea3a2eca0,Flavours of singapore,52.3537847,4.8047602,Asian Restaurant
2000,727,52.3676,4.936407692307691,29,19,4f871b7ce4b0cec3a91d0214,Mangetsu,52.36573994921426,4.935657394890718,Japanese Restaurant
1381,108,52.3276,4.885638461538461,12,8,4f885e50e4b0e81f6677ab60,Kok Hili Japans Restaurant,52.324497793333215,4.884596927012124,Japanese Restaurant
1979,706,52.3676,4.919484615384615,14,12,4f907536e4b06b50afcc041d,Da Damiano,52.36868380004182,4.915655205381034,Italian Restaurant
1077,676,52.37533907066762,4.881959601621007,37,24,4f916491e4b0ad2455c978f5,Here Brasil Products & Food,52.37378577700952,4.882333221774941,Brazilian Restaurant
1270,869,52.37533907066762,4.906240398378992,8,5,4f91893ce4b03439aa351167,แม่สมใจ amsterdam,52.37390234795775,4.90367633298318,Thai Restaurant
1137,736,52.37533907066762,4.889317321455915,49,15,4f93158ee4b0f888dcef8655,St George,52.37566073451874,4.892932338033409,Argentinian Restaurant
319,319,52.37533907066762,4.898882678544084,33,27,4f9c1ce5e4b0e868c27e84b9,Ancho,52.375664,4.898752,Argentinian Restaurant
1378,105,52.3276,4.885638461538461,12,5,4f9d835ce4b0609169a58c63,Kokohili,52.32459749202716,4.884513411851751,Japanese Restaurant
1003,602,52.37760000000001,4.885638461538461,35,27,4fad499ce4b0346fb5cd295c,Moederskeuken,52.3780506,4.885657599999999,Tapas Restaurant
2018,745,52.37760000000001,4.817946153846154,9,7,4fb63b8be4b03aaec07b5a51,Churros Mister U.S.A.,52.380504679611995,4.8221075534820566,Spanish Restaurant
309,309,52.37533907066762,4.898882678544084,33,17,4fbfd2a5e4b0bb0731d5f954,Spiritz4,52.37501278729668,4.898634409131311,Mexican Restaurant
2037,764,52.37760000000001,4.851792307692307,27,7,4fc384c6e4b0cec932eecfcc,Shukran,52.38156101474672,4.849854002343156,Turkish Restaurant
695,294,52.36533907066761,4.865037357540063,28,20,4fd0edb3e4b0d96f9644608a,Jasmine Thai Xpress,52.365315,4.864079,Thai Restaurant
2229,956,52.387600000000006,4.885638461538461,32,13,4fd495e7e4b06a2d8d981f53,Warung Barokah,52.39110417039134,4.881550861537469,Indonesian Restaurant
1818,545,52.35760000000001,4.936407692307691,16,15,4fd781cee4b0884f34d190de,Willy tjong,52.35918223662188,4.93847734354079,Caribbean Restaurant
2056,783,52.37760000000001,4.851792307692307,27,26,4fe1f52ae4b05fd6aee35ed3,Sushi + Wok,52.38096584914146,4.854162928074196,Sushi Restaurant
1605,332,52.35760000000001,4.851792307692307,22,6,4fe5c864e4b01cb912eda833,Tromer,52.35790256356288,4.850983843080521,French Restaurant
2050,777,52.37760000000001,4.851792307692307,27,20,4fec61f6e4b0044db3fa3d74,Kedai Jalan-jalan,52.374668,4.856565,Asian Restaurant
2004,731,52.3676,4.936407692307691,29,23,500868a7e4b00abeade02edb,Dönerpoint Borneo,52.37146966154888,4.936206861094115,Turkish Restaurant
1574,301,52.35760000000001,4.8010230769230775,16,1,500bd06be4b07957c34439e4,Warung Spang Makandra,52.35714748238426,4.794915899758567,Indonesian Restaurant
2010,737,52.3676,4.970253846153844,1,0,50156a2de4b0073bd0d68921,Kon esi baka,52.366436467186034,4.9759917127031015,South American Restaurant
1794,521,52.35760000000001,4.919484615384615,45,36,501d6ff9e4b0cf97af9f9a6c,Thai Coon,52.35737609863281,4.918160915374756,Thai Restaurant
341,341,52.374208606001424,4.897043342756617,7,4,5028f6a5e4b030d4edc51a93,Wijnkaart Restaurant Mendoza,52.3740431756391,4.8965401006107765,Argentinian Restaurant
1114,713,52.3798609293324,4.889317321455915,32,24,502948fce4b067a8632ebc5f,Studio 52,52.377825,4.890415,Australian Restaurant
2276,1003,52.3976,4.936407692307691,10,2,5038fd54e4b0133c7204a329,Musashi,52.3982412110147,4.936289556732589,Japanese Restaurant
1380,107,52.3276,4.885638461538461,12,7,504251cfe4b0068b20c004b7,화원,52.324459999999995,4.884208,Korean Restaurant
1490,217,52.34760000000001,4.868715384615384,11,4,50425cf9e4b0ba0a52c07715,Hippy cafe,52.344770338219355,4.871774013236604,Cajun / Creole Restaurant
2053,780,52.37760000000001,4.851792307692307,27,23,50488db2e4b0ecd310c38971,1Tat Döner,52.37855175463446,4.847904842768556,Turkish Restaurant
1639,366,52.35760000000001,4.868715384615384,37,18,504a480be4b07201958754ee,Can Pont,52.35437800886506,4.866028153188108,Tapas Restaurant
1516,243,52.34760000000001,4.885638461538461,22,19,504b92e2e4b05ebf6d78e6fa,Buffalo Steakhouse,52.34503728581679,4.890887947889493,Argentinian Restaurant
1773,500,52.35760000000001,4.919484615384615,45,15,504c7b6ee4b0838e30cce90a,Hoofdgerechten,52.355979999999995,4.91606,German Restaurant
313,313,52.37533907066762,4.898882678544084,33,21,504e3b17e4b086b599a1ac11,Bosporus Pizzeria-Ristorante,52.374977,4.898947,Italian Restaurant
1291,18,52.2976,4.953330769230769,1,0,5050b827e4b032c997f41a87,Restaurant De Basilic (Amc),52.294042,4.957451,French Restaurant
2284,1011,52.3976,4.953330769230769,1,0,5051fe4fe4b0e2b08b1c994c,capitool,52.398513200000004,4.9586542,South American Restaurant
1308,35,52.30760000000001,4.868715384615384,10,2,5055e39be4b0e7a9783753fe,Hiro Sushi,52.309511,4.86334,Japanese Restaurant
1296,23,52.2976,4.970253846153844,5,4,50563db5e4b0feb29ad44ddc,Spremište Trešnjevka,52.29342269897461,4.967747211456299,Eastern European Restaurant
1436,163,52.3376,4.919484615384615,6,5,50575193e4b05888533c1172,Tasty Melody,52.3344514012117,4.916756616681519,Caribbean Restaurant
2147,874,52.37760000000001,4.902561538461538,50,18,505c751a011c7f0b24880fb7,Los Pilones Cantina Mexico,52.37322289950993,4.9011129506580335,Mexican Restaurant
1842,569,52.3676,4.851792307692307,31,6,505c8f54e4b0e4ac149d4a70,Warung Redjo,52.36410735724179,4.853145505586257,Latin American Restaurant
2076,803,52.37760000000001,4.868715384615384,22,19,50631ca6e4b058a95fc06cd8,De Vlotebakkers,52.377371333918425,4.8710701535111465,Indonesian Restaurant
336,336,52.37646953533381,4.897043342756617,12,11,506db1d5e4b0f42ca37655a9,Haci Baba,52.376953,4.8971279999999995,Doner Restaurant
971,570,52.36533907066761,4.889316488613782,50,45,506dc9a1e4b0d3e0a48febf9,La Vaca Argentina,52.36681485888425,4.889409425488308,Argentinian Restaurant
380,380,52.374208606001424,4.90072201433155,42,21,5075a1c1e4b05f253de6913f,Kam Kee,52.37392199838857,4.900446784273801,Chinese Restaurant
1290,17,52.2976,4.902561538461538,8,7,5075a6a0e4b099516b5f5d6a,De Italiaan aan de Amstel,52.29700527762786,4.900403075785741,Italian Restaurant
38,38,52.35420860600141,4.8874771529602645,14,9,507da525e4b0550bf3eb83f0,Ristorante Due Napoletani,52.35418431017645,4.886514442089917,Italian Restaurant
1641,368,52.35760000000001,4.868715384615384,37,20,50843fc9e4b00dbb9e517de3,Willems,52.3559439312729,4.870631410324487,French Restaurant
1654,381,52.35760000000001,4.868715384615384,37,33,50898826e4b02a7b08007e2f,Fan's Kitchen,52.3613125321619,4.869801906475534,Chinese Restaurant
316,316,52.37533907066762,4.898882678544084,33,24,508c23f8e4b09f7bb96b0081,San Tommaso - WS,52.37611597745588,4.89924699844992,Italian Restaurant
943,542,52.36533907066761,4.889316488613782,50,17,50911051e4b09fc320fc2e52,Fior di Pasta,52.36332321166992,4.888507843017578,Italian Restaurant
1044,643,52.3798609293324,4.881959601621007,42,33,509e4ad1e4b0bbf77638e2e4,Oca Mix,52.380974121879035,4.880750651704914,Brazilian Restaurant
1559,286,52.34760000000001,4.919484615384615,10,3,50a0f3a3e4b070da0b3caf70,Buenos Aires,52.344772,4.918005,Argentinian Restaurant
1763,490,52.35760000000001,4.919484615384615,45,5,50a7d919e4b0497d75f17782,Michel Inn,52.355213366484044,4.9229926540577145,Mediterranean Restaurant
667,266,52.3698609293324,4.865037357540063,18,10,50a7dc2ee4b0170b3138b76e,Cantinetta wine & pasta,52.370125160915215,4.866599766019808,Italian Restaurant
1527,254,52.34760000000001,4.902561538461538,37,8,50b1105de4b046a4fca83d55,J&J Classico,52.343478000000005,4.901471,Italian Restaurant
385,385,52.374208606001424,4.90072201433155,42,26,50b144a0e4b0823457b85083,La Vida Argentinian Steakhouse,52.374074930052885,4.900326656187146,Argentinian Restaurant
1193,792,52.37760000000001,4.902561538461538,26,22,50bb8123e4b054161d331eaa,Grill Steak House Guadalupe,52.37662255286001,4.9022598408939055,Mexican Restaurant
1119,718,52.3798609293324,4.889317321455915,32,29,50bdff79e4b036798971b150,Steakhouse San Fernando,52.380390547487345,4.891416700496056,Argentinian Restaurant
2227,954,52.387600000000006,4.885638461538461,32,11,50c2e308f2e7ea62b7485f6d,Germany,52.38412614985728,4.884538650512695,German Restaurant
2055,782,52.37760000000001,4.851792307692307,27,25,50c4c08ce4b09610f39dd506,Frezya,52.37782234060385,4.846386211015998,Turkish Restaurant
1493,220,52.34760000000001,4.868715384615384,11,7,50ca02c1245f2d4aa8c2b789,Roberto's Restaurant,52.351392644110526,4.871466165546254,Italian Restaurant
736,335,52.3698609293324,4.872393411690704,35,33,50cc78a829a61f268d8b0e75,Rocva Dinner Club,52.36839481825166,4.8743286511517425,French Restaurant
1379,106,52.3276,4.885638461538461,12,6,50d604bbe4b091e3098e19d9,"Amsterdam, Vieuws",52.326324202087186,4.890093403629923,Italian Restaurant
1634,361,52.35760000000001,4.868715384615384,37,13,50d89039fe70a1e0c30eb05a,Restaurant Classico | Italian/mediterranian kitchen,52.357054731116094,4.8743451333739145,Italian Restaurant
1810,537,52.35760000000001,4.936407692307691,16,7,50dc9c74e4b0cde381838e78,Amarcord,52.355412504538776,4.933586364731786,Italian Restaurant
2156,883,52.37760000000001,4.902561538461538,50,27,50e0701ce4b0b93ee6a8e718,Sumo,52.377354042396746,4.895204479077521,Sushi Restaurant
706,305,52.3698609293324,4.872393411690704,35,3,50e0903ae4b070c03119ab2b,Manoto,52.37160164564951,4.87316460866009,Persian Restaurant
379,379,52.374208606001424,4.90072201433155,42,20,50e5cb0ce4b08ec8fcd017fb,Stephie's plaza,52.373913,4.900201999999999,Asian Restaurant
765,364,52.36533907066761,4.872393411690704,28,27,50eac592e4b0a168bddcb6c2,Pop-up restaurant By Niven Kunz,52.36393173467725,4.874393760645903,French Restaurant
2024,751,52.37760000000001,4.834869230769232,10,4,50ebd802e4b04e9a35ecc63e,"Aida Ala Thai,Market Palace",52.3788088737759,4.837174356254054,Thai Restaurant
2065,792,52.37760000000001,4.868715384615384,22,8,50efada3e4b0876c40dc18db,Van Rappardstraat,52.37851154821775,4.870189611448745,German Restaurant
2005,732,52.3676,4.936407692307691,29,24,50f04eb0e4b01d8d1ee41927,LMK,52.36969757080078,4.942061901092528,Chinese Restaurant
757,356,52.36533907066761,4.872393411690704,28,19,51039cdbe4b0f2b950605902,Szomowong,52.36665918062952,4.87243703271916,Chinese Restaurant
684,283,52.36533907066761,4.865037357540063,28,9,510d80e6e4b0ec5cc6d06b58,Carribean Restaurant,52.36601932090239,4.865329423037774,Caribbean Restaurant
1536,263,52.34760000000001,4.902561538461538,37,17,5129014de4b020f716d53589,mexfest,52.347080480157224,4.902945678106965,Mexican Restaurant
1827,554,52.35760000000001,4.987176923076921,8,5,513638dce4b0ed44a49816b4,Buena Carne argentina grill,52.358594000000004,4.98867,Argentinian Restaurant
816,415,52.3698609293324,4.88196043446314,36,26,513cb9e6e4b024278488540b,De Proeverij,52.37075210141353,4.882094604153422,French Restaurant
1391,118,52.3276,4.953330769230769,4,3,51421e01e4b0abca553c0e77,Porto Pescara,52.32599181489209,4.960105424429347,Greek Restaurant
1343,70,52.31760000000001,4.953330769230769,21,9,5144b1dde4b0c11f7585a5c5,La Parada,52.315492,4.954949,Caribbean Restaurant
1316,43,52.30760000000001,4.953330769230769,5,0,515037f8e4b08debf5f604d4,Small Pantry of Epson,52.30915548275862,4.946891200344829,Asian Restaurant
1791,518,52.35760000000001,4.919484615384615,45,33,51643db7e4b07dd558fa4ddb,Domburg,52.356408,4.918404,Indonesian Restaurant
2250,977,52.387600000000006,4.902561538461538,3,2,5167c61be4b03c0c69b55491,de vrouwenbazaar,52.38936996459961,4.908598899841309,Middle Eastern Restaurant
1844,571,52.3676,4.851792307692307,31,8,5176aaf0e4b04270a57290ab,De Peperpot,52.364321999999994,4.854723,South American Restaurant
726,325,52.3698609293324,4.872393411690704,35,23,5177ff84e4b00951bb6a82d7,Ristorante Collina,52.371192734511226,4.871395752836915,Italian Restaurant
1541,268,52.34760000000001,4.902561538461538,37,22,517c0e64498e3d704e8bce32,vodkaprazdnik,52.34693329178935,4.9029779157967255,Eastern European Restaurant
1778,505,52.35760000000001,4.919484615384615,45,20,517e6ae5e4b0a8be7c9cb541,Amsteram Elit Restaurant,52.357153514371994,4.913907901307715,Turkish Restaurant
1820,547,52.35760000000001,4.953330769230769,3,1,517e6c5e498e4dd1a7b6b946,iL PoZZo,52.35534424404685,4.9485247910002625,Italian Restaurant
673,272,52.3698609293324,4.865037357540063,18,16,51869516498ea00e99884165,Lecco pizza & pasta,52.37043516721624,4.8679221706307665,Italian Restaurant
1473,200,52.34760000000001,4.851792307692307,31,18,518a91c5498ec7ae43d4ebbf,De Houtenovenpizzeria,52.34798290220703,4.847355545082037,Italian Restaurant
2063,790,52.37760000000001,4.868715384615384,22,6,51910f15498eb9d7b9cfbb9c,Aarti2,52.374502467216466,4.873594447441595,South American Restaurant
1350,77,52.31760000000001,4.953330769230769,21,16,519df077498e60de140178a1,Ernos,52.31439904595014,4.952723610094887,Italian Restaurant
1361,88,52.3276,4.868715384615384,15,3,519f3d1d498e9a7f7e9c6fa4,poidude's,52.32843496152716,4.867296331870127,African Restaurant
2163,890,52.37760000000001,4.902561538461538,50,34,51a087f8498e6b546f6c584f,Flame Grill Restaurant,52.37794671575165,4.896688545750664,Argentinian Restaurant
2201,928,52.387600000000006,4.851792307692307,7,2,51a3a684498e9aef3cb35d22,Yang Ming,52.38448191650002,4.847561200530809,Chinese Restaurant
1531,258,52.34760000000001,4.902561538461538,37,12,51b38045498e77488e655aff,Warung Berkah Rasa,52.349723,4.904501,Indonesian Restaurant
691,290,52.36533907066761,4.865037357540063,28,16,51b8b5b7498e221e63c51190,isaan thai,52.365165999999995,4.864187,Thai Restaurant
398,398,52.374208606001424,4.90072201433155,42,39,51b9e447498e3b7c16917630,Daily Sushi,52.3747295456451,4.900818922650858,Sushi Restaurant
2255,982,52.387600000000006,4.919484615384615,8,4,51bdcf3f498e9339af579885,Horeca Catering,52.388346999999996,4.919529,Indonesian Restaurant
694,293,52.36533907066761,4.865037357540063,28,19,51c1e39a498e3b4dde3c6149,Eethuis Infinity,52.3647575378418,4.861960411071777,Moroccan Restaurant
2289,1016,52.41760000000001,4.902561538461538,1,0,51c53028498ed6347a1a82f2,Restaurant Bij Brons,52.41789198131247,4.904672554425511,French Restaurant
1772,499,52.35760000000001,4.919484615384615,45,14,51c876dc498e52a035eea446,Somjit,52.357559631083156,4.914786285032999,Thai Restaurant
1866,593,52.3676,4.851792307692307,31,30,51cc7be8498ea3a930e46346,Sendar Simit Turks Eethuis,52.36486153963068,4.855727545384691,Turkish Restaurant
1367,94,52.3276,4.868715384615384,15,9,51daec70498efc2f4647c00b,Machiko,52.33104205155542,4.868687872579958,Sushi Restaurant
1833,560,52.3676,4.8010230769230775,2,1,51e5a47e498e6768c0253837,Restaurant Toros,52.36394,4.796985,Turkish Restaurant
1797,524,52.35760000000001,4.919484615384615,45,39,51e6b596498e1d3cbd9f2fbb,Restaurant Lulu,52.35718119961742,4.91819702773382,French Restaurant
1085,684,52.37533907066762,4.881959601621007,37,32,51ed58f9498e1d69b1569c4b,Tuin 10,52.37714774515729,4.881773507492423,Mediterranean Restaurant
1856,583,52.3676,4.851792307692307,31,20,51efb20d498e68b405eb5b59,Ruben's Tropical,52.36906647810586,4.85330974954649,South American Restaurant
334,334,52.37646953533381,4.897043342756617,12,9,51f3b8d0498ed6b9c70fb2b5,Il Pacioccone,52.37649941924858,4.89562229038751,Italian Restaurant
916,515,52.3698609293324,4.889316488613782,50,40,520a1c5e498ee4e0b74bcdb6,Winjkaart Barsserie,52.369368,4.892635,Italian Restaurant
2060,787,52.37760000000001,4.868715384615384,22,3,520bd1a511d281b143dbce46,Restaurant Jun,52.37581165387421,4.87345663316682,Indonesian Restaurant
2266,993,52.3976,4.902561538461538,1,0,520c017e11d2d63655f7a907,Chef's Table op het IJ,52.397847,4.897558,French Restaurant
2054,781,52.37760000000001,4.851792307692307,27,24,520d09ad11d2688fd8651d1d,Supermarkt-Toko Admiraal,52.381904,4.85078,Brazilian Restaurant
896,495,52.3698609293324,4.889316488613782,50,20,520f9a2311d2be9b2394738f,the dutch tapas bar,52.37134552001953,4.8893470764160165,Spanish Restaurant
1115,714,52.3798609293324,4.889317321455915,32,25,5214bfa5498e217d250c12a0,ستيك هاوس القدس,52.380881,4.890281,Middle Eastern Restaurant
1637,364,52.35760000000001,4.868715384615384,37,16,52170a5c11d2950cd8dcd355,Olivity,52.36104792621912,4.868770995346456,Greek Restaurant
1537,264,52.34760000000001,4.902561538461538,37,18,521a4cf3498e47d574665384,Rosticceria Italiana,52.34921095105454,4.901313823719431,Italian Restaurant
1992,719,52.3676,4.936407692307691,29,11,5220c759498e91707fe14678,Kook En Kunst,52.370958,4.931646,Spanish Restaurant
2038,765,52.37760000000001,4.851792307692307,27,8,5227711611d2fe0d1fd90352,Eetcafé Corner Admiraal,52.37715254476236,4.857848926030504,Turkish Restaurant
2043,770,52.37760000000001,4.851792307692307,27,13,5228c03111d2a84db784b9db,Sera Restaurant,52.37874759332625,4.850653167558597,Turkish Restaurant
1801,528,52.35760000000001,4.919484615384615,45,43,5228df6b11d27f70272adfb3,Ege Restaurant,52.356868,4.918055000000001,Turkish Restaurant
2273,1000,52.3976,4.919484615384615,7,6,522b393911d2c46318a12328,Toko Tante Lies,52.399398,4.9213629999999995,Indonesian Restaurant
1544,271,52.34760000000001,4.902561538461538,37,25,523c805f11d236ac7b6c3cad,Rosticceria Italiana,52.352036204237315,4.903083471621901,Italian Restaurant
1298,25,52.2976,4.987176923076921,2,1,5241cc80498e0a6d09e29bbf,Toko Gein,52.29672150401482,4.988508307484532,Indian Restaurant
1980,707,52.3676,4.919484615384615,14,13,5241cfdc498e608886bef362,Dappertutto,52.36562910616189,4.925780101110337,Italian Restaurant
1832,559,52.3676,4.8010230769230775,2,0,52488ebb11d2516dbf814ba1,Grieks Restaurant Rhodos,52.36495590209961,4.804627895355225,Greek Restaurant
1539,266,52.34760000000001,4.902561538461538,37,20,5251a2e8498e5a8225e9c036,Paulien Culinair,52.350943,4.897916,Italian Restaurant
1333,60,52.31760000000001,4.885638461538461,2,1,52597c8711d27aade9fb6908,Alexandros,52.314228831173715,4.8814756437279065,Greek Restaurant
1475,202,52.34760000000001,4.851792307692307,31,20,525ac97411d2a558f9288fd5,Dragon Dining Lounge,52.348579711119655,4.858445276490622,Asian Restaurant
1147,746,52.37533907066762,4.889317321455915,49,25,5264241d11d25d346c003335,Mangiame,52.374492,4.890276999999999,Italian Restaurant
1273,0,52.28760000000001,4.7841,1,0,5270eb7411d2264f4c279f62,Steiger 28,52.284857,4.783175,French Restaurant
761,360,52.36533907066761,4.872393411690704,28,23,527d252f498eca4075576fca,Eethuis Maramara,52.36512740705478,4.873320975057177,Turkish Restaurant
1141,740,52.37533907066762,4.889317321455915,49,19,5286849d498e317b4f6716ef,Afhalen & Bezorgen,52.37615,4.892487,Indian Restaurant
1584,311,52.35760000000001,4.8010230769230775,16,11,5287541111d2d63ab44bfbd5,Kin Arai,52.36009216308594,4.797080993652344,Thai Restaurant
1347,74,52.31760000000001,4.953330769230769,21,13,52a2008a498ec58d502fc1cc,Matabo Roti,52.31521606445313,4.9558305740356445,Caribbean Restaurant
2279,1006,52.3976,4.936407692307691,10,5,52ac5cd1498ecd8bc155834d,Chef's Doner,52.397826,4.941012000000001,Turkish Restaurant
1779,506,52.35760000000001,4.919484615384615,45,21,52af6e9511d2e494189a2df9,Warung Domburg,52.356478,4.9187199999999995,Indonesian Restaurant
787,386,52.3676,4.885638461538461,24,21,52b6ac55498e9578dd48ec20,Johannes,52.367446463343974,4.8871117159165225,French Restaurant
1299,26,52.30760000000001,4.834869230769232,1,0,52bc768e498eddf1dc2d2b21,Ristorante Napoli,52.30657287504382,4.834623224126752,Italian Restaurant
813,412,52.3698609293324,4.88196043446314,36,23,52bd710a11d23846b6d1dc90,Kathmandu Kitchen Nepali Indian Restaurant Amsterdam,52.370007070311836,4.881627503694307,Indian Restaurant
952,551,52.36533907066761,4.889316488613782,50,26,52c0458c11d25a4721849930,el verano,52.366832,4.889387,Italian Restaurant
1109,708,52.3798609293324,4.889317321455915,32,19,52c1d54211d2af4c9890dfa7,Argentijns Steakhouse,52.380395,4.891407,Argentinian Restaurant
1825,552,52.35760000000001,4.987176923076921,8,3,52c546b3498e24239555edca,Keuken van Levant,52.359207,4.988052,Mediterranean Restaurant
1583,310,52.35760000000001,4.8010230769230775,16,10,52cc5a9911d2dc51262c59f3,Beymen café & restaurant,52.357292590881656,4.795867714028245,Turkish Restaurant
674,273,52.3698609293324,4.865037357540063,18,17,52ce7c68498eaa5a27830b80,Fes Patisserie,52.370154152050006,4.8658887745698784,Turkish Restaurant
1770,497,52.35760000000001,4.919484615384615,45,12,52d170b3498e31943d8b823c,Toko Muji,52.35805456632538,4.912655976819587,Indonesian Restaurant
437,36,52.3598609293324,4.889315656260642,15,9,52e03792498e93099ff91be5,L'Ozio,52.3582,4.8892,Italian Restaurant
644,243,52.3676,4.868715384615384,50,37,52e4f13111d233363913f86a,Transilvania Food,52.36736297607422,4.867166996002197,Romanian Restaurant
814,413,52.3698609293324,4.88196043446314,36,24,52e93e18498e3bfbfcf312ec,Agra Eethuis,52.36904625333804,4.878609307866925,Indian Restaurant
1204,803,52.3798609293324,4.898882678544084,16,7,52eadaef498e187a38ecb6ea,halal restaurant,52.37813561154765,4.8977242856008365,Turkish Restaurant
343,343,52.374208606001424,4.897043342756617,7,6,52ee621411d23672f42b84c6,Amsterdam Büyükşehir Belediyesi Sosyal Tesisleri,52.37451542016465,4.897309823003925,Turkish Restaurant
1309,36,52.30760000000001,4.868715384615384,10,3,52efb1f9498e9685342158f6,Taste of Ukraine,52.308570459607495,4.868960380554199,Ukrainian Restaurant
533,132,52.3598609293324,4.8988843437393585,12,4,52f78dc5498eb24093d7e046,Ku Kitchen & Bar,52.36172194013589,4.8990557970130935,Japanese Restaurant
1065,664,52.37533907066762,4.881959601621007,37,12,52ff829b11d2ee3c3eb8849e,Taiyaki,52.377132,4.881869,Japanese Restaurant
2035,762,52.37760000000001,4.851792307692307,27,5,530a3ff1498e50850748bd00,King Kumpir,52.378340555631645,4.848448332969783,Turkish Restaurant
1364,91,52.3276,4.868715384615384,15,6,530e57d8498e1cd1522b53c6,El Panelazo,52.32605441800386,4.874522335763023,Latin American Restaurant
2287,1014,52.4076,4.919484615384615,2,1,53204fcb498e106a8737b001,aspava,52.40772634153521,4.917217855024272,Turkish Restaurant
760,359,52.36533907066761,4.872393411690704,28,22,532748af498e0c5b0bcd240b,Mozzarella Bar,52.36400176665011,4.874211624193919,Italian Restaurant
1491,218,52.34760000000001,4.868715384615384,11,5,53288b03498ed1fb78aeed2e,La Saporita,52.345997,4.865076999999999,Italian Restaurant
1653,380,52.35760000000001,4.868715384615384,37,32,532cb5eb498e32f687908e62,Nightshop,52.36163330078125,4.870551109313965,Turkish Restaurant
1469,196,52.34760000000001,4.851792307692307,31,14,53307a12498e9eaed90a7098,warung peti,52.350038,4.849092,Asian Restaurant
204,204,52.36646953533381,4.891155408035479,29,27,53399b02498eb26e1c41ae8d,Wok & Sushi,52.366597,4.8917150000000005,Sushi Restaurant
1358,85,52.3276,4.868715384615384,15,0,5346d61e498e1d3e706bbd6a,Java Kuliner,52.324670312090426,4.868674832443098,Indonesian Restaurant
1611,338,52.35760000000001,4.851792307692307,22,12,534ae170498e858c2f8b09f8,Blouw,52.355028999999995,4.8530120000000005,Indonesian Restaurant
1418,145,52.3376,4.868715384615384,31,22,53735452498e7ed5bbf78d64,Kenko Kitchen,52.33684556508503,4.871643916953478,Japanese Restaurant
730,329,52.3698609293324,4.872393411690704,35,27,5373964c498e91fa74ba9cf6,La cocina de Dulcinea,52.370622,4.868968,Tapas Restaurant
1816,543,52.35760000000001,4.936407692307691,16,13,537cdd1e498e89c92fc6282e,Osteria Nessun Dorma,52.355387,4.933721,Italian Restaurant
1789,516,52.35760000000001,4.919484615384615,45,31,5389f2cf498ea2dd8e321d13,Kilimanjaro Take Away,52.35707784994276,4.918352472999469,Ethiopian Restaurant
2023,750,52.37760000000001,4.834869230769232,10,3,538a0e30498ed108270fe9a8,Havzan,52.38007109111843,4.829836071097837,Turkish Restaurant
1984,711,52.3676,4.936407692307691,29,3,538a2566498e8301b3168f6f,Walter's - The Walter Woodbury Bar,52.36370901244597,4.933447803907359,Modern European Restaurant
1151,750,52.37533907066762,4.889317321455915,49,29,53944589498efde5f31815bf,AA Noodle Culture,52.374413,4.891442,Japanese Restaurant
2039,766,52.37760000000001,4.851792307692307,27,9,5399ce50498e6ead0c57e27b,pizzalina,52.376909000000005,4.84976,Italian Restaurant
2182,909,52.37760000000001,4.919484615384615,6,3,53a07a05498e2eba58add450,Food4U,52.376551106873684,4.920819468349055,Asian Restaurant
2242,969,52.387600000000006,4.885638461538461,32,26,53adc872498e3f6a672c329d,Bocconi,52.388125443128544,4.880315598884484,Italian Restaurant
1768,495,52.35760000000001,4.919484615384615,45,10,53b2e52e498eb839deff3f6c,Doner XL,52.35693229424627,4.91396126446368,Turkish Restaurant
1540,267,52.34760000000001,4.902561538461538,37,21,53b6da5b498eb8b9a2329479,SUSHISU,52.345125,4.905742,Japanese Restaurant
413,12,52.3598609293324,4.8819612668162815,9,7,53b6ddb7498ecca74338db18,WuSH,52.36054756176346,4.885165689230327,German Restaurant
1554,281,52.34760000000001,4.902561538461538,37,35,53cfec93498e76c12359fc41,Warung Atika,52.34965379752524,4.903907202683765,Indonesian Restaurant
1134,733,52.37533907066762,4.889317321455915,49,12,53da6ad2498e72221d30ccbb,italian restaurant da massimo & ricardo,52.374508,4.890371,Italian Restaurant
703,302,52.3698609293324,4.872393411690704,35,0,53e22ee3498e8aba799620f7,Waterkant,52.36979445074385,4.876006553880177,Caribbean Restaurant
36,36,52.35420860600141,4.8874771529602645,14,7,53e68698498e0ed4c576d5aa,Mihangelo's,52.354622,4.888241000000001,Italian Restaurant
1552,279,52.34760000000001,4.902561538461538,37,33,53eba70e498ee86ebe048716,Sushi Su,52.345201247353785,4.905688675121201,Japanese Restaurant
2006,733,52.3676,4.936407692307691,29,25,53f4a972498e10536ff00ff0,Tugra Baklava,52.363632,4.934305999999999,Turkish Restaurant
1322,49,52.31760000000001,4.851792307692307,3,0,53f5106a498eae90b806b72c,tent 10 @sportways,52.32053756713867,4.853105068206787,Arepa Restaurant
1131,730,52.37533907066762,4.889317321455915,49,9,53f5e79b498e7a69318653ad,Alfredo Espresso,52.37336782471901,4.889912178542041,Italian Restaurant
871,470,52.36533907066761,4.88196043446314,50,45,53f8de0c498ef2ad1a7750b2,DoBrasil,52.365359000000005,4.885141,Brazilian Restaurant
1790,517,52.35760000000001,4.919484615384615,45,32,53fcab86498ee8e8183e3609,Keukenette cafe,52.35725,4.917773,Italian Restaurant
1458,185,52.34760000000001,4.851792307692307,31,3,54170b2a498e7466dfa951f9,Warung Padi,52.349553,4.849171,Indonesian Restaurant
1420,147,52.3376,4.868715384615384,31,24,54187eb7498e9dd6a628a1b4,Bambou Asian Street Food,52.336713203122045,4.873419479905784,Asian Restaurant
1875,602,52.3676,4.868715384615384,50,8,54282f7a498e4ff3ecfce64a,Jacketz,52.36764944864664,4.873235380238579,Dutch Restaurant
441,40,52.3598609293324,4.889315656260642,15,13,54294f11498e259fb7550402,Boenda,52.360549,4.8911169999999995,Indonesian Restaurant
676,275,52.36533907066761,4.865037357540063,28,1,543aa988498ec74795efe11d,Holy Ravioli,52.363926,4.863007,Italian Restaurant
396,396,52.374208606001424,4.90072201433155,42,37,544410d2498e6255f15203c2,Hong Kee,52.3739013671875,4.900269985198975,Asian Restaurant
2241,968,52.387600000000006,4.885638461538461,32,25,54455791498eb42496cb9860,Yummie Sushi,52.388759,4.8799220000000005,Sushi Restaurant
966,565,52.36533907066761,4.889316488613782,50,40,54539808498ec012db32cb70,L'Arco Ristorante,52.365309,4.885818,Italian Restaurant
1107,706,52.3798609293324,4.889317321455915,32,17,545fcfe4498e24d7ad6d6e29,PhoHouse,52.38169070271925,4.888939254327247,Vietnamese Restaurant
1983,710,52.3676,4.936407692307691,29,2,54634651498eb8c45094c082,La Fucina,52.363776303343954,4.936059836116557,Italian Restaurant
1338,65,52.31760000000001,4.953330769230769,21,4,546def84498ea560de829b6d,WENBO,52.31471301896423,4.954439510249184,South American Restaurant
1843,570,52.3676,4.851792307692307,31,7,546f7fea498ee3458f4a22e3,poco poco,52.369850158691406,4.851438999176025,Tapas Restaurant
82,82,52.356469535333815,4.897045840438982,16,12,546f9d6e498e180cb6a154fd,19 it,52.35713595424938,4.896124616057759,Italian Restaurant
733,332,52.3698609293324,4.872393411690704,35,30,546f9e0b498e96a890056685,Burrito,52.371688,4.873496,Mexican Restaurant
2270,997,52.3976,4.919484615384615,7,3,5483482f498e36f1d863d3a1,Toeki,52.398153,4.912214,Thai Restaurant
2234,961,52.387600000000006,4.885638461538461,32,18,54909acb498eec4e0f314318,Dulhan Eethuis,52.389146999999994,4.880147,Indian Restaurant
1760,487,52.35760000000001,4.919484615384615,45,2,54952223498e91fedc3f29c3,Eddy Spaghetti,52.35396737630543,4.920498683101643,Italian Restaurant
681,280,52.36533907066761,4.865037357540063,28,6,54aa7617498e6c1a0a9d0dd6,'t Saoto Huisje,52.364651110891145,4.861860674735348,South American Restaurant
1149,748,52.37533907066762,4.889317321455915,49,27,54aea1fc498e215dcc14995e,Chef's Podium,52.374925000779584,4.890900763615834,Modern European Restaurant
668,267,52.3698609293324,4.865037357540063,18,11,54bbf45a498e05024fc5cdcd,Zenzai Sushi,52.368545000000005,4.862348,Sushi Restaurant
1034,633,52.3798609293324,4.881959601621007,42,23,54c5414f498ebfa050997fee,Roti Palace Ramzan,52.38117218017578,4.884337425231934,South American Restaurant
1262,861,52.37533907066762,4.898882678544084,50,49,54c7cc41498e259a3c7687a0,Sorrento Pizzeria Steakhouse,52.37503586015612,4.8955552149646815,Italian Restaurant
1858,585,52.3676,4.851792307692307,31,22,54cd16e0498ec288176337f3,Ufuk Restaurant,52.37097,4.855329,Turkish Restaurant
2033,760,52.37760000000001,4.851792307692307,27,3,54ce0591498e263faaaec65d,Meram Bos en Lommer,52.37778328943226,4.84627369113875,Turkish Restaurant
1344,71,52.31760000000001,4.953330769230769,21,10,54d35119498ec56ecf1c244f,Dreamzzz,52.31499868644958,4.953790669759619,Italian Restaurant
156,156,52.364208606001405,4.883799353884835,50,31,54d3d636498e153e6ded6082,Elnino,52.363836,4.884798,Mexican Restaurant
2002,729,52.3676,4.936407692307691,29,21,54d61677498e5cbf0a1254e0,Comfort Food,52.364616999999996,4.94172,Asian Restaurant
1517,244,52.34760000000001,4.885638461538461,22,20,54d7aad9498ead5140a8f17c,Insieme,52.34685687519953,4.891152933316222,Italian Restaurant
1767,494,52.35760000000001,4.919484615384615,45,9,54e61ca6498eedd95fafafd3,Curry Boefje,52.35731506347656,4.918178081512451,Indian Restaurant
1603,330,52.35760000000001,4.851792307692307,22,4,54e77976498e543536669b1d,Adam,52.358014975814974,4.856638933518454,French Restaurant
1734,461,52.35760000000001,4.902561538461538,50,26,54f5efa2498e33a9d04091e6,Bistrot des Alpes,52.36200040873267,4.901349861506372,French Restaurant
1497,224,52.34760000000001,4.885638461538461,22,0,54fdee89498e0bee57a6b7f7,Hakata Senpachi,52.34436855488875,4.88931537060811,Japanese Restaurant
1464,191,52.34760000000001,4.851792307692307,31,9,5509c27b498e59039cc25776,Sukina Sushi,52.351247,4.855343,Sushi Restaurant
1510,237,52.34760000000001,4.885638461538461,22,13,551af772498eb8a27bb29a63,EN Japanese Kitchen @ Sake Bar,52.351137,4.889386,Japanese Restaurant
1857,584,52.3676,4.851792307692307,31,21,551d7f93498ea1884065e42f,Mr. Pinoy,52.369243,4.851978,Filipino Restaurant
1985,712,52.3676,4.936407692307691,29,4,55239a2d498e7ad873f8cce3,Gallizia,52.363849396557576,4.934254775194617,Italian Restaurant
1390,117,52.3276,4.953330769230769,4,2,5538cb36498e27fbb33b0ed0,tutta la vita,52.326866280949176,4.9597435067415825,Italian Restaurant
2288,1015,52.41760000000001,4.868715384615384,1,0,553a87f5498e8c490710afb9,Toko Tante Lies,52.418718310073004,4.87273215316236,Indonesian Restaurant
1613,340,52.35760000000001,4.851792307692307,22,14,553ceb8c498e07ead1a412be,Boteco do nerynho,52.357391422545064,4.850508670152118,Brazilian Restaurant
1521,248,52.34760000000001,4.902561538461538,37,2,5548e3b0498eac5b17774b82,Paskamer,52.350933905922034,4.8977634509635575,Tapas Restaurant
1312,39,52.30760000000001,4.868715384615384,10,6,554cf70b498ede56d233cfc9,Dinings',52.3095,4.866630000000001,Japanese Restaurant
61,61,52.356469535333815,4.891154159561018,19,18,55508dec498efd4192699f44,南记NAM KEE,52.357292865026274,4.89132849157982,Asian Restaurant
111,111,52.35420860600141,4.9007228470397335,6,5,5560aad9498e62cbad60124c,Tahra's Tapas Bar,52.35424423217773,4.901805877685547,Tapas Restaurant
888,487,52.3698609293324,4.889316488613782,50,12,5568a855498e977c132fd3cc,Café de Paris,52.37039992765428,4.892720601945337,French Restaurant
946,545,52.36533907066761,4.889316488613782,50,20,5570aff2498e61b3f3607eb1,Mimi,52.363396064064595,4.8887848400390235,Italian Restaurant
2071,798,52.37760000000001,4.868715384615384,22,14,5571e382498ecb997ac62509,Restaurant 1915,52.37506890143098,4.8712228087651255,Modern European Restaurant
1846,573,52.3676,4.851792307692307,31,10,557ccbb1498e3a71d28308e5,Baraka,52.370874,4.854865,Moroccan Restaurant
2057,784,52.37760000000001,4.868715384615384,22,0,559957ce498eb48bf7428bb6,Plato Loco,52.377990634890786,4.874099224273423,Caribbean Restaurant
1608,335,52.35760000000001,4.851792307692307,22,9,55a28294498ea5a1afa5c767,Brasserie Frans,52.354910628435796,4.851297745060122,French Restaurant
1532,259,52.34760000000001,4.902561538461538,37,13,55a93b44498e787e7bf930f7,Viviamo,52.351492,4.9034260000000005,Italian Restaurant
1348,75,52.31760000000001,4.953330769230769,21,14,55b11d57498e98fea388aa5c,Picalonga,52.320224569930076,4.9550844033877715,Caribbean Restaurant
1483,210,52.34760000000001,4.851792307692307,31,28,55b7c3c8498e93786290349f,Sushi House,52.350978829150534,4.850781615730368,Sushi Restaurant
756,355,52.36533907066761,4.872393411690704,28,18,55c74335498e6665baf61548,Peruvian Cuisine,52.366917565308285,4.872390005916482,Peruvian Restaurant
1648,375,52.35760000000001,4.868715384615384,37,27,55cf6e3a498e4eca2f418b44,VIDA Amsterdam,52.35376997090085,4.8668858715794245,Tapas Restaurant
1207,806,52.3798609293324,4.898882678544084,16,10,55df29a0498e887157dc57a7,Istanbul Restaurant,52.37885970860172,4.8962376817099305,Turkish Restaurant
27,27,52.35533907066761,4.889315656260642,29,27,55e2e45e498e0c906c503357,Paper Planes,52.355617482475935,4.888492769999956,American Restaurant
1466,193,52.34760000000001,4.851792307692307,31,11,55e48da9498ed6653384b4e2,Dalyan,52.351096000000005,4.854830000000001,Turkish Restaurant
1124,723,52.37533907066762,4.889317321455915,49,2,55e5ff02498e9eb3a234f62c,Kaagman & Kortekaas,52.37487809219846,4.8924554946409735,French Restaurant
1591,318,52.35760000000001,4.834869230769232,10,2,55e82449498e28d2005feff7,Roti Shop,52.35622787475586,4.830182552337647,South American Restaurant
1047,646,52.3798609293324,4.881959601621007,42,36,55eb63b3498e3930347099af,Murugan,52.379035132040116,4.879879907056005,Indian Restaurant
1973,700,52.3676,4.919484615384615,14,6,55ef0880498e1f6933933a03,Burritomaker,52.367016,4.925473,Mexican Restaurant
701,300,52.36533907066761,4.865037357540063,28,26,55f06179498e77636e64d09a,Barceloneta,52.3657221,4.8659946,Tapas Restaurant
2026,753,52.37760000000001,4.834869230769232,10,6,55f1a5b3498e01a55dbc3feb,Tokyo Sushi Bar - Take Away,52.379299686336594,4.841252729989223,Sushi Restaurant
2262,989,52.3976,4.868715384615384,1,0,55fdbbb0498edba2281f5609,Brooklyn bier & worst diner,52.396553999999995,4.871391,New American Restaurant
1084,683,52.37533907066762,4.881959601621007,37,31,5613c514498ec1a21e008694,Tuk Tuk Thai,52.373859770578896,4.8823256179416745,Thai Restaurant
2013,740,52.37760000000001,4.817946153846154,9,2,561ed816498e17ea4b895d27,BeyMen Restaurant Café & Club,52.3805667015349,4.821009615807667,Turkish Restaurant
2049,776,52.37760000000001,4.851792307692307,27,19,562282c6498e732a60435621,adjani & Manon,52.376974,4.850879,Korean Restaurant
1421,148,52.3376,4.868715384615384,31,25,5628b4c3498e9fa1b24529cf,Corso Como,52.34027277823547,4.873251747993914,Italian Restaurant
1545,272,52.34760000000001,4.902561538461538,37,26,563b9b05cd10d338a4aa5b25,Namaste India,52.35187626289184,4.903115581206579,Indian Restaurant
2048,775,52.37760000000001,4.851792307692307,27,18,56449d88498ed7e63c207610,Eminönü Balikcisi Amsterdam,52.378941999999995,4.846814,Turkish Restaurant
1148,747,52.37533907066762,4.889317321455915,49,26,5649ce86498efa951968c1f2,5Junior,52.374445,4.890187,Italian Restaurant
1153,752,52.37533907066762,4.889317321455915,49,31,5650fc67498ecc8d90170074,Falafelburger,52.374836,4.888157,Mediterranean Restaurant
990,589,52.37760000000001,4.885638461538461,35,14,56587f7b498e715f61a1e9d1,Alninen,52.37790806151594,4.885214179247101,Italian Restaurant
2235,962,52.387600000000006,4.885638461538461,32,19,56608e08498e1e6bea24d13f,Bij Ons,52.388071000000004,4.880452,Indonesian Restaurant
1292,19,52.2976,4.970253846153844,5,0,5662d319498e7b5975239063,Altijd Lekker,52.294989,4.975842,South American Restaurant
2078,805,52.37760000000001,4.868715384615384,22,21,56671d50498eabc21bc0c6cc,Kemang,52.3745855145741,4.873043421527797,Indonesian Restaurant
1864,591,52.3676,4.851792307692307,31,28,567443d2498e1a0ccc0f3c27,beyza,52.367111,4.852317,Turkish Restaurant
2218,945,52.387600000000006,4.885638461538461,32,2,56745405498e84771cdc71f6,Pikoteo,52.390091360795566,4.885563401020474,Tapas Restaurant
1482,209,52.34760000000001,4.851792307692307,31,27,56759481498ee88584ad46b1,Agora Catering and Dining,52.34498415271327,4.855060814000328,Italian Restaurant
2199,926,52.387600000000006,4.851792307692307,7,0,567889ca498e7572a9d0bb1b,La Casa de Michael,52.38460321110661,4.84701588526063,Italian Restaurant
2275,1002,52.3976,4.936407692307691,10,1,567ec01b498e84036e2a9a92,Midas Gordion,52.398459,4.935555,Greek Restaurant
1428,155,52.3376,4.885638461538461,3,1,56843ace498e8ac53017befb,Indonees,52.333998,4.8885,Indonesian Restaurant
388,388,52.374208606001424,4.90072201433155,42,29,5686729a498e4c2af3eff03a,Santa Vergine Italiaans Restaurant,52.374866701234424,4.900846239640651,Italian Restaurant
1346,73,52.31760000000001,4.953330769230769,21,12,568aa9e7498e1f6916745d4e,Pita Pasta,52.31430071729854,4.951312835481963,Greek Restaurant
2028,755,52.37760000000001,4.834869230769232,10,8,569f7abd498eb5f7c176deed,neyzen restaurant,52.374959999999994,4.831689,Turkish Restaurant
1834,561,52.3676,4.834869230769232,2,0,56a13b78498ed39412037b5d,Haveli,52.363976,4.8384085,Indian Restaurant
1339,66,52.31760000000001,4.953330769230769,21,5,56a8fb51498ecb3b2ecba125,Chilli & Spice,52.317745361191456,4.9584446947454905,North Indian Restaurant
2254,981,52.387600000000006,4.919484615384615,8,3,56b241f5498e8704e41ba692,'t Houtskooltje,52.387470238316396,4.9244846889902565,Turkish Restaurant
1651,378,52.35760000000001,4.868715384615384,37,30,56b39ab5498e5ac013921d68,Paprika Csárda,52.357744,4.873914,Hungarian Restaurant
1074,673,52.37533907066762,4.881959601621007,37,21,56b48f74498ecd024d63e9a3,Restaurant Bolhuis,52.374161,4.8827300000000005,Tapas Restaurant
22,22,52.35533907066761,4.889315656260642,29,22,56b9c9cf498efedc0a83386a,Wok & Roll,52.354861,4.889533,Caribbean Restaurant
1826,553,52.35760000000001,4.987176923076921,8,4,56bb813f498ec640c3afed68,Pinxos Tapas Bar,52.358608000000004,4.988742,Tapas Restaurant
1069,668,52.37533907066762,4.881959601621007,37,16,56c0e52ecd10414e982f9618,Restaurant Garra,52.374234,4.882746,Tapas Restaurant
1083,682,52.37533907066762,4.881959601621007,37,30,56c59f75cd10be6d782d9e71,Restaurant Parra,52.37419715362906,4.883085884798168,Tapas Restaurant
692,291,52.36533907066761,4.865037357540063,28,17,56c86796cd105c3eba082bd2,Tropical Brasil,52.3647693314519,4.8624064809164365,Brazilian Restaurant
1354,81,52.31760000000001,4.953330769230769,21,20,56cf3b2a498e5c12a83c7b59,Yvette's Kitchen,52.320252806617276,4.958876842711441,Caribbean Restaurant
1508,235,52.34760000000001,4.885638461538461,22,11,56d1d1a1498e7ef4ffb6537b,waroeng i. djaja,52.343872,4.886412,Indonesian Restaurant
1070,669,52.37533907066762,4.881959601621007,37,17,56e00e09498e9fa069919035,Tanoshii Sushi,52.37719755621556,4.881851662286246,Sushi Restaurant
1320,47,52.30760000000001,4.953330769230769,5,4,56e2ccea498e153ca5330095,lomnava kenkey house,52.309014000000005,4.958206,African Restaurant
1783,510,52.35760000000001,4.919484615384615,45,25,56eaf1af498eba4b1f8c8c8c,ristorante momento,52.35865,4.912915,Italian Restaurant
2007,734,52.3676,4.936407692307691,29,26,56f6d944cd1083ad490587ce,Koksmuts Cinar,52.3638407122636,4.936585818011375,Turkish Restaurant
2267,994,52.3976,4.919484615384615,7,0,56f8d66a498e9abeab718fb5,Restaurant Hanimeli,52.396879207703826,4.91394471932113,Turkish Restaurant
2269,996,52.3976,4.919484615384615,7,2,57067da1498e76066768c074,Toekie,52.398021,4.912357,Thai Restaurant
1415,142,52.3376,4.868715384615384,31,19,5707d399498e9396a8da0081,à Deauville,52.340026,4.87025,French Restaurant
1546,273,52.34760000000001,4.902561538461538,37,27,570fe0cccd103ed3b51fe94a,Wok King Amsterdam,52.345754596296786,4.905523931659777,Asian Restaurant
1822,549,52.35760000000001,4.987176923076921,8,0,57121b4b498e3021c2b4faa9,Il Sogno,52.356278,4.993656,Italian Restaurant
1831,558,52.35760000000001,5.004099999999998,2,1,5720dfc1498efc0395c9e775,Marina Club Amsterdam,52.35365116008371,5.006460379519023,Turkish Restaurant
2001,728,52.3676,4.936407692307691,29,20,57211573498efab8426900f4,Marina Club Antep Sofrasi Marina,52.364155,4.937787999999999,Turkish Restaurant
1283,10,52.2976,4.902561538461538,8,0,5724ef49498e502618bf89f6,Ron Gastrobar Indonesia,52.29751842911275,4.899875338914184,Indonesian Restaurant
395,395,52.374208606001424,4.90072201433155,42,36,57374cfbcd10b91a64975e71,Il Peperoncino,52.374159999999996,4.9002857,Italian Restaurant
2180,907,52.37760000000001,4.919484615384615,6,1,573e0505498e5a5092f16569,Scheepskameel,52.37556146207656,4.914219696116631,Modern European Restaurant
958,557,52.36533907066761,4.889316488613782,50,32,5741dd7e498e1eb5df4c2545,Las Estrellas,52.36529140069566,4.885670600573625,Italian Restaurant
1865,592,52.3676,4.851792307692307,31,29,57499ce4498e4467587fde35,Toko Surima,52.370255,4.853921,South American Restaurant
1389,116,52.3276,4.953330769230769,4,1,574d5733cd10c7caa4010469,Istanbul Cafe Restaurant,52.32373,4.95483,Turkish Restaurant
1102,701,52.3798609293324,4.889317321455915,32,12,574dea27498e3a7d124bb455,Tapas Cafe Duende,52.38061870000001,4.8861552,Spanish Restaurant
1319,46,52.30760000000001,4.953330769230769,5,3,574e536e498ed3dc80763a53,GåRD Nordic Kitchen,52.310118200000005,4.947291799999999,Scandinavian Restaurant
1120,719,52.3798609293324,4.889317321455915,32,30,57585706498e901b3e140940,Lucca Due,52.38111929148052,4.8900496177161905,Italian Restaurant
1371,98,52.3276,4.868715384615384,15,13,57586102498e6a3cdcc72744,Eschmeejs NL stulpje,52.325214,4.87,Japanese Restaurant
1556,283,52.34760000000001,4.919484615384615,10,0,5762feca498ec7181dcd8579,"The Lobby, Fizeaustraat",52.34542439900525,4.925503247301483,French Restaurant
1787,514,52.35760000000001,4.919484615384615,45,29,576cf084498e6c4527e043dd,Taytu,52.35759019675256,4.913163185119629,Ethiopian Restaurant
383,383,52.374208606001424,4.90072201433155,42,24,576d62b4498e6907ad9798f2,China Sichuan Restaurant,52.37382,4.900303,Szechuan Restaurant
317,317,52.37533907066762,4.898882678544084,33,25,57712b13498e8fac344d8c4b,Hong Kong Kitchen,52.374931211647215,4.898907056089867,Cantonese Restaurant
2257,984,52.387600000000006,4.919484615384615,8,6,5776b861498e9b4c2d4ffdbb,Missy Missy,52.385918,4.9204955,Chinese Restaurant
1640,367,52.35760000000001,4.868715384615384,37,19,577ab13ecd1001858510f49b,Taste of Ethiopia,52.359871000000005,4.864272,Ethiopian Restaurant
1766,493,52.35760000000001,4.919484615384615,45,8,577ab1fecd1001858512570b,Soto & Sate,52.35757053943561,4.918125271797179,Indonesian Restaurant
754,353,52.36533907066761,4.872393411690704,28,16,5780eadc498e9ca4f0c144ca,Pizzeria ijssalon Italia,52.364021,4.874269,Italian Restaurant
1636,363,52.35760000000001,4.868715384615384,37,15,5788eecbcd1046e593a09629,Resto willems,52.355882,4.8705940000000005,Dutch Restaurant
2072,799,52.37760000000001,4.868715384615384,22,15,578939a3498ee0c0269ac763,Mauresque,52.380241999999996,4.873175,Moroccan Restaurant
2202,929,52.387600000000006,4.851792307692307,7,3,57a1b31f498e6dc5e117f696,Bisceglias House,52.385382,4.847736,Mediterranean Restaurant
585,184,52.35533907066761,4.8988843437393585,50,44,57a4bf28498e1239be69c5f8,Soi74,52.355261,4.900499,Asian Restaurant
1118,717,52.3798609293324,4.889317321455915,32,28,57a4d404498e465a9a48e3a1,De Tokoman,52.380379,4.892018,South American Restaurant
414,13,52.3598609293324,4.8819612668162815,9,8,57af4d69498e264dfcde689a,sama sebo,52.36079249766098,4.883040900869383,Indonesian Restaurant
970,569,52.36533907066761,4.889316488613782,50,44,57b20fba498e2973f5b3c0c0,The SHIFT Pasta Take Away,52.36316,4.8884587,Italian Restaurant
2191,918,52.37760000000001,4.936407692307691,9,6,57b49c08498eefc4284d66af,De Kleine Kaart,52.376529999999995,4.941644999999999,Modern European Restaurant
60,60,52.356469535333815,4.891154159561018,19,17,57bb122e498ef0c32994fa28,Juicebar,52.356113,4.8904877,Dutch Restaurant
883,482,52.3698609293324,4.889316488613782,50,7,57bb33fd498e97d5fda09865,Adam & Siam,52.37010561748997,4.892682420094104,Thai Restaurant
1761,488,52.35760000000001,4.919484615384615,45,3,57bc7f5c498e8eea065f100d,Spaghetteria,52.354814174200314,4.921787697716231,Italian Restaurant
439,38,52.3598609293324,4.889315656260642,15,11,57c0219bcd10e843378e22dc,how do you roll?,52.361403,4.891461,Sushi Restaurant
1419,146,52.3376,4.868715384615384,31,23,57c058bbcd10e84337f96f82,Koetjes terras,52.337773999999996,4.8735550000000005,French Restaurant
2189,916,52.37760000000001,4.936407692307691,9,4,57c87f62498e532c5edf2ff4,The Glass House,52.378494,4.931080000000001,Dutch Restaurant
1330,57,52.31760000000001,4.868715384615384,7,5,57cb0435cd10abf33a310ab2,KHAO,52.314955,4.863706,Thai Restaurant
1447,174,52.34760000000001,4.7841,2,1,57cc458a498ede7690ac522f,Tjin's Surinaamse broodjes en maaltijden,52.350105,4.788619000000001,Caribbean Restaurant
1609,336,52.35760000000001,4.851792307692307,22,10,57d47e38498e9835456f0725,Tawazo,52.357969,4.857118,Pakistani Restaurant
1971,698,52.3676,4.919484615384615,14,4,57deb770498ee67583517b76,tom yum kung,52.368897,4.9214080000000004,Thai Restaurant
59,59,52.356469535333815,4.891154159561018,19,16,57e65b09498e4eeaa6d4d733,Cucina L'Ozio Italiana,52.356747999999996,4.890594999999999,Italian Restaurant
1812,539,52.35760000000001,4.936407692307691,16,9,57ea86d1498ead24242c976c,Broodje Bonjour,52.360874,4.932355,Turkish Restaurant
1404,131,52.3376,4.868715384615384,31,8,57ee3af6498ede2cc0c47c38,Sushilee,52.336184,4.8696980000000005,Japanese Restaurant
1771,498,52.35760000000001,4.919484615384615,45,13,57ee9dce498e629325b130ae,Mama Dough,52.357068896436346,4.918279484011874,Italian Restaurant
1587,314,52.35760000000001,4.8010230769230775,16,14,57f8b504498e3aa87b369374,Brasserie De Serre,52.358757000000004,4.804973599999999,Dutch Restaurant
20,20,52.35533907066761,4.889315656260642,29,20,580a947238fa6db875a89e0a,Snacks & Vlaamse Friet Moes,52.35541,4.8903112,Turkish Restaurant
352,352,52.37646953533381,4.90072201433155,15,8,580b840138fa69fff102bf2e,Mister Meatball,52.37590701463164,4.9000364542007455,Dutch Restaurant
1078,677,52.37533907066762,4.881959601621007,37,25,5812438038faec4197af56ad,Rosita's Mexican Restaurant & BBQ Bar,52.373658,4.882203,Mexican Restaurant
323,323,52.37533907066762,4.898882678544084,33,31,5814b31a38faeaa041f895c6,Grizzly,52.37521736797249,4.8978065896445,New American Restaurant
938,537,52.36533907066761,4.889316488613782,50,12,5814dd2338fae2e5a287a722,The Big Apple,52.366671000000004,4.889696,New American Restaurant
342,342,52.374208606001424,4.897043342756617,7,5,5814e65d38fa0816c57ab795,cafe d'italie 93,52.374509,4.8971540000000005,Italian Restaurant
332,332,52.37646953533381,4.897043342756617,12,7,581f016e6401964ad59334d5,Tutto Food,52.376558,4.896294999999999,Italian Restaurant
2192,919,52.37760000000001,4.936407692307691,9,7,58357f0b8f0be46bcaf53841,Man Cave,52.376436,4.940072,Mexican Restaurant
2249,976,52.387600000000006,4.902561538461538,3,1,58357f30d439073da74f77eb,Il Pecorino,52.386697014218704,4.9083403572232855,Italian Restaurant
1796,523,52.35760000000001,4.919484615384615,45,38,583d561bea29b856017cc202,Cha House,52.35930362594527,4.925538897514342,Ramen Restaurant
404,3,52.35760000000001,4.885638461538461,5,3,584367295da8f471f28f4fb2,Cafe Caron,52.35744259406209,4.888850122594897,French Restaurant
2253,980,52.387600000000006,4.919484615384615,8,2,58643a3aa36ecd3c73bfba55,Anytime Pizza,52.387375,4.9259925,Turkish Restaurant
1423,150,52.3376,4.868715384615384,31,27,586d2e286f20d137a0e8ff22,El Mercadito,52.337486,4.8717127,Venezuelan Restaurant
1424,151,52.3376,4.868715384615384,31,28,586f8c7c005a0f1e8faacff4,Trattoria That's Amore @Market 33,52.337395,4.8712063,Italian Restaurant
1411,138,52.3376,4.868715384615384,31,15,58737ce806f1a317cfb156d3,Oishii Sushi,52.33709,4.871445,Japanese Restaurant
1553,280,52.34760000000001,4.902561538461538,37,34,587a7a264745864e1c42824e,Tulsi Indian Restaurant,52.350698244655426,4.903552357356812,Indian Restaurant
2222,949,52.387600000000006,4.885638461538461,32,6,587bbe876431e516ca5d8195,BAUT,52.388762,4.880192,Dutch Restaurant
24,24,52.35533907066761,4.889315656260642,29,24,587e6b2f4745864e1c09c802,eetcafe angelo,52.354955,4.889381,Middle Eastern Restaurant
2032,759,52.37760000000001,4.851792307692307,27,2,587f5116abc6d61062b34472,lezzet resturant,52.378512,4.850698,Doner Restaurant
1142,741,52.37533907066762,4.889317321455915,49,20,587fa71925911e15b1e6803d,Sushime,52.374619,4.888607,Sushi Restaurant
810,409,52.3698609293324,4.88196043446314,36,20,5880b182bbec6667dfb48502,Libertine Café Café,52.37035500640452,4.8855351330401415,Italian Restaurant
1839,566,52.3676,4.851792307692307,31,3,5884d985727ba3235c35c682,Genki Sushi Bowl,52.369873,4.851431,Sushi Restaurant
697,296,52.36533907066761,4.865037357540063,28,22,588ce1571d21ba220208651a,Casa Sabatelli,52.365695,4.865911,Italian Restaurant
1859,586,52.3676,4.851792307692307,31,23,588cf696d8f3e93aa5e4fda1,Genki Café,52.369904,4.8513203,Japanese Restaurant
1829,556,52.35760000000001,4.987176923076921,8,7,589390ce1470b050baf33e52,Kitchen Of Happiness,52.357890000000005,4.990857,Asian Restaurant
2215,942,52.387600000000006,4.868715384615384,10,9,5894dbf144587f122ade2b0f,Bacco,52.384522,4.873307,Italian Restaurant
1425,152,52.3376,4.868715384615384,31,29,589b04c34ca49b64f853d832,Hello Vietnam,52.337224,4.871472,Vietnamese Restaurant
1579,306,52.35760000000001,4.8010230769230775,16,6,58a6ea480a3d5449dc2c4ef3,aryana,52.359415999999996,4.8066379999999995,Afghan Restaurant
2233,960,52.387600000000006,4.885638461538461,32,17,58addc7c37da1d192df49c93,Panzerotti,52.388323,4.88572,Italian Restaurant
1582,309,52.35760000000001,4.8010230769230775,16,9,58b2bbac4287c926c6bfe192,DönerAbi,52.359367,4.8064029999999995,Doner Restaurant
2243,970,52.387600000000006,4.885638461538461,32,27,58bade1f3f5a5c1c89f93073,Pho House,52.388626,4.87977,Vietnamese Restaurant
1388,115,52.3276,4.953330769230769,4,0,58c2e600297c16462e5a26b0,Jacob's Kitchen Campus,52.32825043687668,4.9562057461197915,American Restaurant
1775,502,52.35760000000001,4.919484615384615,45,17,58cc2375f16bb51b8c9563cf,Batoni Khinkali,52.35735314447421,4.917973375137358,Caucasian Restaurant
2286,1013,52.4076,4.919484615384615,2,0,58cedb994bc2f11bdccf4f4e,Erva Café & Restaurant,52.40778300198228,4.917236870945013,Turkish Restaurant
1112,711,52.3798609293324,4.889317321455915,32,22,58d2bc6015fb4351252b0ab5,De Hu's Asian Tapas Bar,52.380648,4.890836,Asian Restaurant
1598,325,52.35760000000001,4.834869230769232,10,9,58e135bdfc73d45035c99862,Flavours Of India,52.356120000000004,4.829526400000001,Indian Restaurant
168,168,52.364208606001405,4.883799353884835,50,43,58e4b300040d534c757d74bd,Brasserie Stadsschouwburg,52.364053000000006,4.882678,Dutch Restaurant
1456,183,52.34760000000001,4.851792307692307,31,1,58ecfa9cfebfbd7d11521990,Roti King,52.351017999999996,4.849289,Indian Chinese Restaurant
1289,16,52.2976,4.902561538461538,8,6,58f0a76a4acb19754b2d5f80,De Banq,52.296256,4.9034699999999996,Dutch Restaurant
2070,797,52.37760000000001,4.868715384615384,22,13,58f677b8d7627e74d56d2477,Het Paviljoen,52.381051,4.870566999999999,Dutch Restaurant
821,420,52.3698609293324,4.88196043446314,36,31,590b4593d1a4026ce670a843,Dapoer Djawa Amsterdam,52.369091999999995,4.878598,Indonesian Restaurant
1557,284,52.34760000000001,4.919484615384615,10,1,590cb79828374e10e4501f56,Le Due Sicilie,52.351298,4.9163440000000005,Italian Restaurant
2209,936,52.387600000000006,4.868715384615384,10,3,590f421c18d43b465d4bb9cf,Primi Amsterdam,52.384386,4.871830999999999,Italian Restaurant
2219,946,52.387600000000006,4.885638461538461,32,3,5912ff3b3ba7673276a4131a,Bayu,52.383553000000006,4.885446,Indonesian Restaurant
1303,30,52.30760000000001,4.851792307692307,6,3,591730fa396de017a31825c9,Diwali,52.308652,4.847163,Indian Restaurant
2022,749,52.37760000000001,4.834869230769232,10,2,592078eaa8eb605d2f97464a,Kebapçı Amsterdam,52.379649193788296,4.832779534654594,Kebab Restaurant
1384,111,52.3276,4.885638461538461,12,11,5942b5bfa5a31510a921e104,Restaurant Rozengeur,52.32595026112938,4.8792868852615365,Persian Restaurant
935,534,52.36533907066761,4.889316488613782,50,9,59467cde3149b909cb0be63c,Vatten Ramen,52.363387238697214,4.888783722206461,Ramen Restaurant
1434,161,52.3376,4.919484615384615,6,3,5948feb17dc9e1712722b86a,A Beautiful Mess,52.337701,4.92516,Middle Eastern Restaurant
921,520,52.3698609293324,4.889316488613782,50,45,59492d81625a666444390e03,Huisregels,52.368057,4.890118,Dutch Restaurant
880,479,52.3698609293324,4.889316488613782,50,4,594ce9756eda024e0ab89e50,Metropolitain,52.37040188377881,4.892747281420158,French Restaurant
1275,2,52.28760000000001,4.8010230769230775,2,1,59567fd6a0215b2593e1a089,Dracula Steak And Wine,52.285286,4.800082,Romanian Restaurant
1353,80,52.31760000000001,4.953330769230769,21,19,596a4d5b1c0b340b75d34332,Fresh & Healthy,52.313390000000005,4.950921,Asian Restaurant
1401,128,52.3376,4.868715384615384,31,5,597b0ecaad17892e1418756f,Mizu Bar,52.33688201929486,4.871484900695918,Sushi Restaurant
1650,377,52.35760000000001,4.868715384615384,37,29,59875f116fd626071da3841c,Blauwe Draak,52.355195,4.868358,Japanese Restaurant
2003,730,52.3676,4.936407692307691,29,22,5989ba29d69ed03866e1fb9a,Nour,52.363777,4.936548999999999,Middle Eastern Restaurant
1410,137,52.3376,4.868715384615384,31,14,598c73df16ef670669f6da2e,Che Buono,52.340241999999996,4.872571,Italian Restaurant
1602,329,52.35760000000001,4.851792307692307,22,3,599c7d2832b61d2d9704a7c9,parallel amsterdam,52.35803,4.857742,Tapas Restaurant
1612,339,52.35760000000001,4.851792307692307,22,13,599c7df68d0a5361efbb760f,parallel amsterdam,52.3581078,4.8576019,Tapas Restaurant
2232,959,52.387600000000006,4.885638461538461,32,16,599eb4369be5226794b987bc,Oba Döner,52.389551000000004,4.879078,Doner Restaurant
2204,931,52.387600000000006,4.851792307692307,7,5,59aaac2164c8e17ec032e28a,Il Gusto Gelateria & Rosticceria Italiana,52.38479,4.8513875,Italian Restaurant
2225,952,52.387600000000006,4.885638461538461,32,9,59b951f9e1f0aa4d013c9b02,58F,52.385666,4.8892627,Eastern European Restaurant
2228,955,52.387600000000006,4.885638461538461,32,12,59b952710d8a0f17c03d31a5,58F,52.38557,4.889339,Eastern European Restaurant
1072,671,52.37533907066762,4.881959601621007,37,19,59d4142a345cbe2f01078979,Little Sal,52.37362,4.880889,Latin American Restaurant
315,315,52.37533907066762,4.898882678544084,33,23,59d92a45a4b51b3d780ab979,Xampanyeria Centra,52.374870509077475,4.899145960807799,Tapas Restaurant
801,400,52.3698609293324,4.88196043446314,36,11,59de13b79de23b0861f74d29,Men Impossible,52.370672,4.8800099999999995,Ramen Restaurant
734,333,52.3698609293324,4.872393411690704,35,31,59e63ad6840fc2686fffbd1f,Parsa Restaurant,52.3718594,4.8737335999999996,Italian Restaurant
1968,695,52.3676,4.919484615384615,14,1,59f5c6fa81635b6a6315e838,D&A Hummus Bistro,52.367561232312745,4.925378812803362,Middle Eastern Restaurant
1397,124,52.3376,4.868715384615384,31,1,59f9b08efd16bb44127d4df3,Siam Corner,52.33711790478303,4.871556594639996,Thai Restaurant
2226,953,52.387600000000006,4.885638461538461,32,10,5a044520e1f0aa21d4c491b4,A Volo,52.384194,4.884558,Italian Restaurant
1279,6,52.2976,4.851792307692307,4,1,5a0de11af96b2c1712e09dc5,Cyrus De Grote,52.296913,4.854305,Persian Restaurant
1781,508,52.35760000000001,4.919484615384615,45,23,5a1092bc018cbb6a216ee71a,Missisipi,52.356667,4.9180965,American Restaurant
1488,215,52.34760000000001,4.868715384615384,11,2,5a36ad7a2c7eb95c9bebeea0,Spaghetteria Olympiaplein,52.346203093956845,4.8670930699232695,Italian Restaurant
471,70,52.35533907066761,4.889315656260642,50,28,5a47bec9cf72a02cf17f8e8e,La Mian,52.355553,4.892797,Asian Restaurant
1146,745,52.37533907066762,4.889317321455915,49,24,5a49455232b61d131d1b4498,La Casa Pizza & Grill,52.374503999999995,4.891593,Italian Restaurant
1355,82,52.31760000000001,4.970253846153844,1,0,5a4a708a911fc41b8683f64f,Roti Ganzenhoef,52.322055,4.970532,Indian Restaurant
1614,341,52.35760000000001,4.851792307692307,22,15,5a4e70d6f870fd2b52da470f,Indian Dinner,52.3581,4.854254,Indian Restaurant
815,414,52.3698609293324,4.88196043446314,36,25,5a5a04a8f62f2b466d62a512,Libertine Comptoir De Cuisine,52.370365,4.8836803,French Restaurant
1600,327,52.35760000000001,4.851792307692307,22,1,5a5a39d9dab4b1392393d7a1,Gustatio,52.358427,4.858795,Italian Restaurant
1855,582,52.3676,4.851792307692307,31,19,5a65ea5312138424d8364894,The Pom Bar,52.369125,4.852034,Caribbean Restaurant
748,347,52.36533907066761,4.872393411690704,28,10,5a7359f74c954c49897cadbc,Tapasrestaurant Narbonne,52.365536,4.8759837,Tapas Restaurant
2210,937,52.387600000000006,4.868715384615384,10,4,5a75ce0bbd897e5943e6d66b,roberto’s,52.385913,4.872283,Italian Restaurant
1522,249,52.34760000000001,4.902561538461538,37,3,5a7e0e6d32b61d4c2c6a7067,Yuan‘s Hot Pot Amsterdam Zuid 袁记串串香阿姆南区店,52.346839615610506,4.905257374048234,Chinese Restaurant
598,197,52.35533907066761,4.906238733183717,15,6,5a85cf75f870fd754e9657c8,Arc. By Luté,52.353146,4.906862,French Restaurant
1304,31,52.30760000000001,4.851792307692307,6,4,5a9c1539ee71205fb4853fea,Delhi Indian,52.310342999999996,4.846722,Indian Restaurant
1993,720,52.3676,4.936407692307691,29,12,5aa3e8884a1cc0781a8c163f,Tarbush,52.363633,4.934183999999999,Lebanese Restaurant
1988,715,52.3676,4.936407692307691,29,7,5aa3e8d295da0c6a5499b0d3,Tarbush,52.363715,4.934397,Lebanese Restaurant
897,496,52.3698609293324,4.889316488613782,50,21,5aaa5ec078782c26564f0166,indogo,52.369465999999996,4.892352,Indonesian Restaurant
1616,343,52.35760000000001,4.851792307692307,22,17,5aabffec35811b126338e5c9,La Polpetta,52.358204,4.854,Italian Restaurant
1433,160,52.3376,4.919484615384615,6,2,5ab13c44dee7704a4b12ba1f,Persijn Amsterdam,52.338244,4.921291,Dutch Restaurant
1323,50,52.31760000000001,4.851792307692307,3,1,5abd3c24054e2923b6b9e6eb,Mumtaz Indian Restaurant,52.31686,4.857314,Indian Restaurant
1830,557,52.35760000000001,5.004099999999998,2,0,5abe87ff6bd36b38a9defbc3,Cana,52.353214,5.005726999999999,Spanish Restaurant
1571,298,52.34760000000001,4.970253846153844,1,0,5ac20ea1a2c00b74b3f3e974,Stick-Up Indo Food Diemen,52.347218,4.969867,Indonesian Restaurant
687,286,52.36533907066761,4.865037357540063,28,12,5ac35fb1a92d9855a14fe1f1,Asian King,52.365706,4.865939,Sushi Restaurant
1111,710,52.3798609293324,4.889317321455915,32,21,5ac8ee2f840fc22a318e5d89,Panda's Kitchen,52.38195526800272,4.8885565996170035,Chinese Restaurant
1513,240,52.34760000000001,4.885638461538461,22,16,5ace46c36f706a7853d2d0b9,Sanpachi,52.344395,4.8892940000000005,Japanese Restaurant
640,239,52.3676,4.868715384615384,50,33,5ad0dcd68496ca60cf240e07,Yummy Hummus,52.366276,4.869003,Israeli Restaurant
1814,541,52.35760000000001,4.936407692307691,16,11,5ad0ebb93d47910778076543,Il Borgo,52.35478,4.932392,Italian Restaurant
2217,944,52.387600000000006,4.885638461538461,32,1,5ae1b54bc03635002c5197b7,Dumplings,52.385264264792006,4.8819100856781015,Chinese Restaurant
1432,159,52.3376,4.919484615384615,6,1,5af09e970dd31f0024ee8dd2,L'Osteria,52.34104201228033,4.918081813491826,Italian Restaurant
1328,55,52.31760000000001,4.868715384615384,7,3,5af5dfe73149b9002c1f04aa,dakterras @Cityden Up,52.317040999999996,4.871737,Dutch Restaurant
1284,11,52.2976,4.902561538461538,8,1,5afc62196dcf04002c13568d,Indiaport Aan De Amstel,52.29744,4.8995239999999995,Indian Restaurant
1538,265,52.34760000000001,4.902561538461538,37,19,5b1c0d0c89e490002cafe206,袁记串串香,52.346858000000005,4.905075,Szechuan Restaurant
1305,32,52.30760000000001,4.851792307692307,6,5,5b1c1b803fcee8002c7cdaba,shouryuu,52.307399,4.855991,Japanese Restaurant
1408,135,52.3376,4.868715384615384,31,12,5b2a2cd2054e29002c6c177e,Salsa Shop,52.340199,4.873154,Mexican Restaurant
2064,791,52.37760000000001,4.868715384615384,22,7,5b2c1fc1c9a5170039df2b16,Mamas Tapas,52.37468,4.873031,Tapas Restaurant
1342,69,52.31760000000001,4.953330769230769,21,8,5b34c16067a9fe002cc04770,Little Chinatown,52.313454,4.950856,Chinese Restaurant
1462,189,52.34760000000001,4.851792307692307,31,7,5b36055cd48ec1002cef54bc,Bowls & Buns,52.351067,4.850998000000001,Asian Restaurant
1764,491,52.35760000000001,4.919484615384615,45,6,5b3a13e1065ef5002c5eb046,Mister Chen,52.359386,4.925659,Asian Restaurant
330,330,52.37646953533381,4.897043342756617,12,5,5b3e13ddc4404e001cf34e84,Smaak Versterker,52.377126000000004,4.896184,Caribbean Restaurant
1479,206,52.34760000000001,4.851792307692307,31,24,5b42689ed48ec100396a1633,Adana Zezzet Gprill,52.351061,4.850964,Turkish Restaurant
205,205,52.36646953533381,4.891155408035479,29,28,5b532e557564f7002c0f4c72,Maria To Go,52.366688,4.890501,South American Restaurant
1987,714,52.3676,4.936407692307691,29,6,5b574afea795bd002cf48ee2,Sushito,52.363764,4.934783,Sushi Restaurant
1657,384,52.35760000000001,4.868715384615384,37,36,5b5a03eab6b04b002c6b6a56,de Pizzabakkers,52.355823,4.870039,Italian Restaurant
1080,679,52.37533907066762,4.881959601621007,37,27,5b5ca2c0fe63bd002b49d315,Taka Zoku Shou,52.37677494420273,4.882091252486214,Ramen Restaurant
2251,978,52.387600000000006,4.919484615384615,8,0,5b6055a2e679bc002c438f26,Little Saigon,52.387152,4.925422,Vietnamese Restaurant
1900,627,52.3676,4.868715384615384,50,33,5b687aa895a722002cf81b27,Ashoka,52.368123,4.875808,Indian Restaurant
2256,983,52.387600000000006,4.919484615384615,8,5,5b69b6c066fc65002df28411,Absolute Delicious,52.38713019022605,4.925091066097592,Dutch Restaurant
2186,913,52.37760000000001,4.936407692307691,9,1,5b75847fdb2aeb002cf4e55c,Bombarie,52.3741385544815,4.935507327318192,Comfort Food Restaurant
1399,126,52.3376,4.868715384615384,31,3,5b803354037be1002cf9f629,Ramen Ramen,52.33728,4.871571,Ramen Restaurant
876,475,52.3698609293324,4.889316488613782,50,0,5b918a0460d11b002c3228e1,Cecconi’s,52.372066,4.8888940000000005,Italian Restaurant
1806,533,52.35760000000001,4.936407692307691,16,3,5baa8a63031320002c3d5099,Dimitri’s,52.361377000000005,4.9324330000000005,Mediterranean Restaurant
807,406,52.3698609293324,4.88196043446314,36,17,5bba4466e65d0c003959bb7c,29 Spices,52.37004,4.88152,Indian Restaurant
1412,139,52.3376,4.868715384615384,31,16,5bc5b7f675dcb7002ca62e5c,Biem’s Kitchen,52.337195,4.871571,Latin American Restaurant
1828,555,52.35760000000001,4.987176923076921,8,6,5bd09d7bbfc6d0002cda72c3,TOKOH,52.357826,4.9909115,Indonesian Restaurant
1799,526,52.35760000000001,4.919484615384615,45,41,5be5df1a135b39002cec9c4b,Oost Antipasti Pizza Pasta,52.359264,4.9142704,Italian Restaurant
1455,182,52.34760000000001,4.851792307692307,31,0,5c01752c8c35dc002cab4ff0,Neni,52.344844,4.856237,Middle Eastern Restaurant
2016,743,52.37760000000001,4.817946153846154,9,5,5c042ec7da5e56002c342f0c,Restaurant Arbanasi,52.37725986,4.81299258,Bulgarian Restaurant
105,105,52.356469535333815,4.9007228470397335,19,18,5c0c0925a5a315002c7a1654,101 Gowrie,52.356491,4.899343,Dutch Restaurant
1523,250,52.34760000000001,4.902561538461538,37,4,5c129a75772fbc002c0597f1,Mama’s Kitchen,52.351690999999995,4.90302,Syrian Restaurant
1997,724,52.3676,4.936407692307691,29,16,5c1be28756c89f002c8b39a5,Mirchi,52.36367,4.9350510000000005,Indian Restaurant
1375,102,52.3276,4.885638461538461,12,2,5c34ee8cd1a402002c89bd54,Sushi Rakuichi,52.325883000000005,4.883508,Sushi Restaurant
1837,564,52.3676,4.851792307692307,31,1,5c363b588c812a002c66f664,Sapporo Ramen Sora,52.371294,4.855144,Ramen Restaurant
1800,527,52.35760000000001,4.919484615384615,45,42,5c4354a997cf5a002c5a66b5,Tomatillo,52.354294,4.922333999999999,Mexican Restaurant
1168,767,52.37533907066762,4.889317321455915,49,46,5c4e0e447c891c002dcb94c9,Restaurant Max - Indonesian Cuisine,52.376884000000004,4.889137,Indonesian Restaurant
1638,365,52.35760000000001,4.868715384615384,37,17,5c549e099e0d54002c17d355,Pipistrello,52.361084000000005,4.865063,Italian Restaurant
1977,704,52.3676,4.919484615384615,14,10,5c559d882db4a9002cd1d249,Burritos Anonymous,52.366757,4.92552,Mexican Restaurant
291,291,52.36873046466621,4.891155596279908,12,11,5c5748e951950e002cc2204f,The Chicken Bar,52.368134000000005,4.890569999999999,American Restaurant
1467,194,52.34760000000001,4.851792307692307,31,12,5c707c7b27cbd1002562bf78,Pizzarella,52.349748999999996,4.8491599999999995,Italian Restaurant
2059,786,52.37760000000001,4.868715384615384,22,2,5c73e49db25fee002c8f6052,La Piccola Baracca,52.374826,4.87326,Italian Restaurant
290,290,52.36873046466621,4.891155596279908,12,10,5c8d38ee1ffed7002cbcfaa9,silom,52.367965000000005,4.8910860000000005,Thai Restaurant
1862,589,52.3676,4.851792307692307,31,26,5c8d676bcd441c002c117340,Akama Sushi,52.370614,4.854862000000001,Sushi Restaurant
2011,738,52.37760000000001,4.817946153846154,9,0,5c992165e1f228002c898f01,Istanbul Steak House,52.380516,4.820875,Turkish Restaurant
386,386,52.374208606001424,4.90072201433155,42,27,5c9e5acd838e59002ca99b47,Pad Thai,52.373515999999995,4.900168,Thai Restaurant
1386,113,52.3276,4.919484615384615,2,1,5ca47e1ff1936e002c5d9a40,Tokoman,52.32562,4.925893299999999,South American Restaurant
1759,486,52.35760000000001,4.919484615384615,45,1,5cac7be02b9844002d630f3c,The Bab,52.358087,4.913207,Korean Restaurant
2261,988,52.3976,4.851792307692307,1,0,5caf4a97d9a6e60031e6f11b,GymFood,52.394798918154976,4.846531748771668,Dutch Restaurant
21,21,52.35533907066761,4.889315656260642,29,21,5caf88e55c6838002c1b4f37,Trattoria Olivo,52.354656,4.8891672999999995,Italian Restaurant
2246,973,52.387600000000006,4.885638461538461,32,30,5cbc9a6b18d43b002cd73b7b,Mercado Uno,52.388785999999996,4.886421,Empanada Restaurant
2051,778,52.37760000000001,4.851792307692307,27,21,5cbdd377a2a6ce002c8a707c,Noor Alsham,52.379071,4.856555,Syrian Restaurant
432,31,52.3598609293324,4.889315656260642,15,4,5cc3fe7f8c812a002cca9631,Proper Indofood,52.360779,4.891505,Indonesian Restaurant
1307,34,52.30760000000001,4.868715384615384,10,1,5cc58af0db2aeb002c3e160c,Indian Street Food & Co,52.305203999999996,4.86974,Indian Restaurant
37,37,52.35420860600141,4.8874771529602645,14,8,5ccc8ba1121384002c843621,Nunzio-Haidi,52.354188,4.886408,Italian Restaurant
2183,910,52.37760000000001,4.919484615384615,6,4,5ccee13dc9f907002c4cb94a,Main Dining Room,52.378334,4.9157515,Dutch Restaurant
1499,226,52.34760000000001,4.885638461538461,22,2,5cd31e43d0a149002c8740bd,Sjefietshé,52.351566,4.8869295,Peruvian Restaurant
1288,15,52.2976,4.902561538461538,8,5,5cd440e2625a66002ce18285,TastoeAmsterdam,52.297826,4.901638,Thai Restaurant
1285,12,52.2976,4.902561538461538,8,2,5cd45a84135b39002c69784b,Pizze Napa Italia,52.296628999999996,4.9035150000000005,Italian Restaurant
1526,253,52.34760000000001,4.902561538461538,37,7,5cd85ddd4acb19002c94acdf,Mr Sushi,52.346036,4.905069,Sushi Restaurant
1848,575,52.3676,4.851792307692307,31,12,5cdda27ff1fdaf0039701152,Intisari Bistro Indonesia,52.369215000000004,4.854637,Indonesian Restaurant
2096,823,52.37760000000001,4.885638461538461,50,17,5ce3be0451950e002cd12f96,Mondial Pancake House,52.373944,4.885035,Dutch Restaurant
1167,766,52.37533907066762,4.889317321455915,49,45,5cea6b8f3fcee8002b193a84,China Supreme 至高無上,52.373664,4.890375,Chinese Restaurant
1159,758,52.37533907066762,4.889317321455915,49,37,5ceacf6f33e118002cb8bfba,Lima Lima,52.373771000000005,4.890459,Peruvian Restaurant
381,381,52.374208606001424,4.90072201433155,42,22,5d061661bf5e0e0023acb6ca,Isabella Pizza-Grill,52.374328999999996,4.900487,Argentinian Restaurant
2263,990,52.3976,4.885638461538461,3,0,5d06899c971317002d8145f6,Karaat,52.395987,4.880013,Modern European Restaurant
1805,532,52.35760000000001,4.936407692307691,16,2,5d17cd436d54f800239c2442,Olido,52.355340000000005,4.9336605,Italian Restaurant
171,171,52.364208606001405,4.883799353884835,50,46,5d17d4bce324520023d9a837,Il Padrino,52.363853999999996,4.883826999999999,Italian Restaurant
749,348,52.36533907066761,4.872393411690704,28,11,5d22703d72590d00306101f9,De Japanner West,52.364018,4.874675,Japanese Restaurant
1622,349,52.35760000000001,4.868715384615384,37,1,5d2624a9256bfd00238317d7,Batoni Khinkali,52.35565,4.870731,Caucasian Restaurant
1777,504,52.35760000000001,4.919484615384615,45,19,5d296d3f61bdc400233295c4,Galli Poli Restorant,52.359922999999995,4.919934,French Restaurant
1769,496,52.35760000000001,4.919484615384615,45,11,5d32fa0ea08f700008e6dcaf,Koma House,52.354434999999995,4.919988,Vietnamese Restaurant
702,301,52.36533907066761,4.865037357540063,28,27,5d35c18f40a07e00082b98b3,Himalaya Sushi Bar,52.36484973,4.86220019,Sushi Restaurant
2171,898,52.37760000000001,4.902561538461538,50,42,5d389693fa9ffc000874eb4c,Chuan Yan,52.373901000000004,4.902116,Chinese Restaurant
1627,354,52.35760000000001,4.868715384615384,37,6,5d3a17bd2b57380008c8d67f,Gangnam Chicken,52.360924,4.865404,Korean Restaurant
698,297,52.36533907066761,4.865037357540063,28,23,5d3d60cac6d1fa00086b0d3e,Marcia’s Kitchen Brazilian Restaurant,52.364785,4.861984,Brazilian Restaurant
1050,649,52.3798609293324,4.881959601621007,42,39,5d3efb970badea0008134301,Magnani,52.380233000000004,4.885361,Italian Restaurant
1974,701,52.3676,4.919484615384615,14,7,5d407c0364d9380008416f85,Bread and Salt,52.367225,4.912354,Syrian Restaurant
1406,133,52.3376,4.868715384615384,31,10,5d4478483350fe000818bd5d,La Catrina,52.337276,4.871368,Mexican Restaurant
1529,256,52.34760000000001,4.902561538461538,37,10,5d56f6b19ccd2d0008a0163f,GialloArancio,52.351695,4.903535,Italian Restaurant
1363,90,52.3276,4.868715384615384,15,5,5d5c2ed69714980008905686,Kanata,52.325697,4.868188,Japanese Restaurant
1082,681,52.37533907066762,4.881959601621007,37,29,5d66681c86125400088dea13,Prins Van Oranje,52.374203,4.882846,Dutch Restaurant
1793,520,52.35760000000001,4.919484615384615,45,35,5d6820a4bde37a00087f5216,PakuPaku,52.357537,4.917848,Shabu-Shabu Restaurant
1435,162,52.3376,4.919484615384615,6,4,5d83c94cb89d6a0008a1c3d3,Cooper & Cecile,52.333368,4.921744,Dutch Restaurant
384,384,52.374208606001424,4.90072201433155,42,25,5d84bd0b903bdb0007705942,Dun Yong Lunchroom,52.374302,4.900939,Ramen Restaurant
1325,52,52.31760000000001,4.868715384615384,7,0,5d87c1b36931ce00080705b2,Mr. Sushi,52.318058,4.8661623,Sushi Restaurant
735,334,52.3698609293324,4.872393411690704,35,32,5d8a51d0e3e85a0008d1a89c,Diptych - Omakase Room,52.369338,4.8727540000000005,Japanese Restaurant
39,39,52.35420860600141,4.8874771529602645,14,10,5d8c5d347a1e19000893c5e0,Yzakaya,52.35472,4.887267,Japanese Restaurant
1476,203,52.34760000000001,4.851792307692307,31,21,5d8e29962190f90008a27b6b,Bella Ciao,52.345101,4.855047,Italian Restaurant
1169,768,52.37533907066762,4.889317321455915,49,47,5d98b47905330000080f0c5e,Lios,52.373627,4.890376,Greek Restaurant
1099,698,52.3798609293324,4.889317321455915,32,9,5da1b19af2dd0d0008447326,Pho Viet,52.381706,4.8889685,Vietnamese Restaurant
2181,908,52.37760000000001,4.919484615384615,6,2,5db48ef6ebb02600092b8eb9,Pepenero,52.379528,4.925541,Italian Restaurant
1092,691,52.3798609293324,4.889317321455915,32,2,5db5fc54f4e2210008d6d005,Café Nieuw Amsterdam,52.380165000000005,4.891958,Dutch Restaurant
1635,362,52.35760000000001,4.868715384615384,37,14,5dbbe2cb607ad200087ba545,TOZI Amsterdam,52.354262,4.866468,Italian Restaurant
1588,315,52.35760000000001,4.8010230769230775,16,15,5dc1155054db040008b9ddb2,Ferayes Cafe & Restaurant,52.35907757503776,4.806202054023744,Turkish Restaurant
1362,89,52.3276,4.868715384615384,15,4,5dc19f163f3910000869a237,Wagyu Yakiniku KANATA,52.3256815,4.868091000000001,Japanese Restaurant
1450,177,52.34760000000001,4.8010230769230775,4,2,5dd04ec6aabc900008d7bd84,Sanks sushi,52.351943,4.80021,Sushi Restaurant
1967,694,52.3676,4.919484615384615,14,0,5dd16fd24c052b0008fbe6b8,Amsterdam Brewboys,52.366960999999996,4.925622,Dutch Restaurant
1645,372,52.35760000000001,4.868715384615384,37,24,5dec029bf93ca90007e34b5b,Greazy,52.360620000000004,4.866128400000001,American Restaurant
35,35,52.35420860600141,4.8874771529602645,14,6,5dfcbf9bbd059b000859477e,Hot and Hot Hotpot,52.354127097838145,4.886249899864196,Chinese Restaurant
425,24,52.35533907066761,4.8819612668162815,13,10,5e0a5342e4e2230008daf21e,Sita Djanoko,52.355179,4.880824,Indian Restaurant
1157,756,52.37533907066762,4.889317321455915,49,35,5e19c375a9ac880007a57899,Dim Sum District,52.373740000000005,4.890524,Dim Sum Restaurant
1594,321,52.35760000000001,4.834869230769232,10,5,5e19e0a95a231d0008b0e50d,Dar Sultan,52.356589,4.837601,Moroccan Restaurant
648,247,52.3676,4.868715384615384,50,41,5e285bb0dc4860000741fa2c,Sushi Only,52.36643,4.868801,Sushi Restaurant
1395,122,52.3376,4.851792307692307,1,0,5e2b4a1d4ce734000cd0994f,Restaurant CINQ,52.341321,4.852883,Asian Restaurant
1402,129,52.3376,4.868715384615384,31,6,5e2b4c643bd73a00081c6cb2,Happyhappyjoyjoy Zuidas,52.335467,4.873828,Asian Restaurant
1580,307,52.35760000000001,4.8010230769230775,16,7,5e2f172167b6f4000710788e,Ravioli,52.358191999999995,4.801858,Italian Restaurant
1885,612,52.3676,4.868715384615384,50,18,5e3495cb03915e0008d828da,Druis,52.372021999999994,4.869826,French Restaurant
1503,230,52.34760000000001,4.885638461538461,22,6,5e370926fe6a880008377586,Trevi’s,52.350388,4.89001,Italian Restaurant
387,387,52.374208606001424,4.90072201433155,42,28,5e4b124d1efa0d00081908eb,Hot and Hot Hot Pot Amsterdam Chinatown 沸腾三国阿明唐人街店,52.374932,4.901016,Chinese Restaurant
2193,920,52.37760000000001,4.936407692307691,9,8,5e4e74e762b20d0007586d9a,La Mariscada B.V.,52.378588,4.9313459,Spanish Restaurant
321,321,52.37533907066762,4.898882678544084,33,29,5e52772135835a0008949dd5,Argentango steakhouse,52.374925,4.898683999999999,Argentinian Restaurant
1071,670,52.37533907066762,4.881959601621007,37,18,5e5aba87d9b82c0008d40f92,Cantina Mexicana Rosario,52.37683,4.882134,Mexican Restaurant
1776,503,52.35760000000001,4.919484615384615,45,18,5e5c132c2d56cc000802d714,beyoglu restaurant & cafe,52.357217999999996,4.913767,Turkish Restaurant
2196,923,52.387600000000006,4.834869230769232,5,2,5e62374d66f50a00077d38d0,Beykoz,52.389664,4.841353,Turkish Restaurant
1489,216,52.34760000000001,4.868715384615384,11,3,5e6680492ed7a000086aa7f7,Daido,52.344764,4.864712,Japanese Restaurant
822,421,52.3698609293324,4.88196043446314,36,32,5ed388ffe28f8b00076c587c,Pad Thai World,52.370369000000004,4.883487000000001,Thai Restaurant
1509,236,52.34760000000001,4.885638461538461,22,12,5ed78d42a2dc230008140e6b,Takumi,52.347874,4.891532,Ramen Restaurant
1982,709,52.3676,4.936407692307691,29,1,5edd1eb53e6f4200087de7fd,Betsubara,52.363849,4.933632,Ramen Restaurant
1989,716,52.3676,4.936407692307691,29,8,5edd1ef8bfe33e0008368689,Betsubara,52.363848,4.933758999999999,Ramen Restaurant
2029,756,52.37760000000001,4.834869230769232,10,9,5ee1207ac1bdb621c6d53a4e,Atilla Turkish Food,52.378082,4.840726,Turkish Restaurant
1994,721,52.3676,4.936407692307691,29,13,5ee3c44037d5680eefb13576,Mito Restaurant,52.371246,4.9401813,Japanese Restaurant
2271,998,52.3976,4.919484615384615,7,4,5ee60ebb466ac60007a23cd8,Turquoise Meating,52.396718,4.914118,Turkish Restaurant
2185,912,52.37760000000001,4.936407692307691,9,0,5eee24f6ab537200082bd92f,Taparia,52.374764,4.9347330000000005,Tapas Restaurant
2264,991,52.3976,4.885638461538461,3,1,5eee62dc376fb40007c35324,Vessel,52.394846,4.882028,French Restaurant
758,357,52.36533907066761,4.872393411690704,28,20,5ef08af918cbdf000855ec5b,Alberto Rodriguez Zapata,52.3668674,4.872671500000001,Peruvian Restaurant
1803,530,52.35760000000001,4.936407692307691,16,0,5ef655f65cb67a0008838094,Thúskomme,52.35948519999999,4.938337000000001,Restaurant
2221,948,52.387600000000006,4.885638461538461,32,5,5ef793c1bdbe3f0007c54937,Restaurant Bellou,52.384147999999996,4.884121400000001,Mediterranean Restaurant
2280,1007,52.3976,4.936407692307691,10,6,5f01de0e7029a957725ef781,Hollywood Event Center,52.40067,4.934904599999999,American Restaurant
1500,227,52.34760000000001,4.885638461538461,22,3,5f05a7de938b7c3b5ec9c65f,Takumi Ramen & Yakisoba Amsterdam,52.347840999999995,4.891557,Ramen Restaurant
1528,255,52.34760000000001,4.902561538461538,37,9,5f089f157420543cf2139646,Roti Corner,52.351706,4.9032849999999994,Indian Restaurant
1088,687,52.37533907066762,4.881959601621007,37,35,5f09acae35d1e26f924c2ece,Indonesisch Restaurant Long Pura,52.3736528,4.881125,Asian Restaurant
2277,1004,52.3976,4.936407692307691,10,3,5f0efe0804314b318822e7fd,Hollywood Cafe,52.400613,4.934101999999999,American Restaurant
1551,278,52.34760000000001,4.902561538461538,37,32,5f102947be227b1308465bc5,Yakitori La Kushi,52.346748,4.904848,Japanese Restaurant
1569,296,52.34760000000001,4.936407692307691,5,3,5f1084a4268a0648873a80b9,Il Sogno,52.349389,4.939923,Italian Restaurant
2017,744,52.37760000000001,4.817946153846154,9,6,5f1c9d6848b24b791366e245,sortie cafe & restaurant,52.379191999999996,4.822758,Turkish Restaurant
2207,934,52.387600000000006,4.868715384615384,10,1,5f22fc1b29cb1b58efa66cac,Grand Caron,52.386417,4.8726519999999995,French Restaurant
2290,1017,52.42760000000001,4.868715384615384,1,0,5f250b1663bb3862e9ea2414,Zaanse Kathmandu Kitchen,52.42817557573595,4.873139262199403,Dutch Restaurant
1321,48,52.30760000000001,4.987176923076921,1,0,5f25857eb3bc6069f641a587,Pop-Up Pannenkoek,52.311077000000004,4.987821,Dutch Restaurant
2206,933,52.387600000000006,4.868715384615384,10,0,5f2ec08a7c8f6806c56c6236,Rond De Tafel,52.386806,4.868949,Dutch Restaurant
1372,99,52.3276,4.868715384615384,15,14,5f33a70ce1f22c6c2bda6d86,Tropico,52.326133,4.8747110000000005,Colombian Restaurant
2252,979,52.387600000000006,4.919484615384615,8,1,5f3986715b880d233781114f,Roti-Noord,52.385406,4.9255934,Caribbean Restaurant
1437,164,52.3376,4.953330769230769,9,0,5f3c2e3723e9045f21dd09da,Otra Más Brasserie,52.338390000000004,4.960113,Spanish Restaurant
1396,123,52.3376,4.868715384615384,31,0,5f3e3d3aea20c619275c9a51,Wurst & Schnitzelhaus,52.335565,4.873111,German Restaurant
1621,348,52.35760000000001,4.868715384615384,37,0,5f4a9c44fc9d580dd7f4f653,Frizzanteria,52.353770000000004,4.866956,Italian Restaurant
1824,551,52.35760000000001,4.987176923076921,8,2,5f4bc0d2172de970d1a1bceb,Toko Noor IJburg,52.359238,4.989863,Indonesian Restaurant
2020,747,52.37760000000001,4.834869230769232,10,0,5f50170d6a698b6289d823fd,Woopa Wok & Pasta,52.379127000000004,4.837758,Asian Restaurant
2058,785,52.37760000000001,4.868715384615384,22,1,5f516b535b3a2956537bb00e,Yemeni Restaurant,52.375285999999996,4.8640924000000005,Yemeni Restaurant
1496,223,52.34760000000001,4.868715384615384,11,10,5f5bb407af65ef27d865deac,Golden Thali,52.346813,4.865613,Restaurant
1195,794,52.37760000000001,4.902561538461538,26,24,5f61c146ea22580848135740,Ranjit Singh,52.375920114072244,4.9025577306747445,Indonesian Restaurant
1052,651,52.3798609293324,4.881959601621007,42,41,5f68a3554b21af47104b36fb,Candiland Jordaan Headquarters,52.379983,4.879562,New American Restaurant
738,337,52.36533907066761,4.872393411690704,28,0,5f69d5653c5d034040e26306,Rue La Bastille,52.364546000000004,4.874352,Mediterranean Restaurant
1485,212,52.34760000000001,4.851792307692307,31,30,5f6a367037f4bc1bc050f7ef,mongkol thai food,52.3505,4.853542,Thai Restaurant
28,28,52.35533907066761,4.889315656260642,29,28,5f6e32c327e1ea14a9703c5a,Pho Viet,52.35468,4.888884,Vietnamese Restaurant
2008,735,52.3676,4.936407692307691,29,27,5f720bdda2da6e7143d594fd,Indonesia Indah,52.363848,4.9344,Indonesian Restaurant
1597,324,52.35760000000001,4.834869230769232,10,8,5f7580e83cfe6e64cfb88fc2,Lemoene,52.359829,4.8409580000000005,Syrian Restaurant
2009,736,52.3676,4.936407692307691,29,28,5fbaa80dc2351c27dd77cc20,Sushi Only Oost,52.36359,4.9368739999999995,Sushi Restaurant
85,85,52.356469535333815,4.897045840438982,16,15,5fccd810521a0c59e84d105e,Sushi Fanatics,52.356678,4.898265,Sushi Restaurant
