,lat_centre,long_centre,num_venues,venue_iter,venue_id,venue_name,lat_venue,long_venue,category
0,55.66609999999999,12.559209090909091,7,0,55af8322498ee9a4d8806d54,Magasasa,55.667158907684716,12.558952343698705,Dim Sum Restaurant
1,55.66609999999999,12.559209090909091,7,1,4c77fd792d3ba143c85d89d0,Pizzaria San Pietro,55.66571132931218,12.556586079467467,Pizza Place
2,55.66609999999999,12.559209090909091,7,2,5bfd79c512c8f0002c7ac884,Mør restaurant,55.667168,12.557099,Brazilian Restaurant
3,55.66609999999999,12.559209090909091,7,3,58123a4938fabe486d9d6ff9,Mangal,55.667419,12.559044,Turkish Restaurant
4,55.66609999999999,12.559209090909091,7,4,5550effd498e1d5fa814f685,Lele,55.667957,12.561144,Asian Restaurant
5,55.66609999999999,12.559209090909091,7,5,5a2c1f79628c833792bd6901,Karma Sushi - Kødbyen,55.666495,12.558402,Sushi Restaurant
6,55.66609999999999,12.559209090909091,7,6,575436fe498e9fd59ac44899,Yuca Taco Kødbyen,55.667156,12.558158,Taco Place
7,55.66836092933239,12.55522731909053,37,0,5bcec5ceeaf49a002c07ea79,La Neta Vesterbro,55.66923407509467,12.55310833454132,Taco Place
8,55.66836092933239,12.55522731909053,37,1,4c6d70afe6b7b1f759bca98e,Mother,55.66839389655701,12.557760446089558,Italian Restaurant
9,55.66836092933239,12.55522731909053,37,2,56fd4071498e29dd7be604dd,Hija de Sánchez (Kødbyen),55.668986,12.55844,Taco Place
10,55.66836092933239,12.55522731909053,37,3,52fe2ccf498edcd638513f48,BollyFood,55.668930174876756,12.558649050068153,Indian Restaurant
11,55.66836092933239,12.55522731909053,37,4,558ec7a4498e1196c137d109,Fleisch,55.668985,12.558736,Scandinavian Restaurant
12,55.66836092933239,12.55522731909053,37,5,4b69cad7f964a5208db42be3,Ban-Gaw,55.66900852965627,12.55744325366627,Thai Restaurant
13,55.66836092933239,12.55522731909053,37,6,56c0d175cd104fc364433650,Papa Ramen,55.66850198830504,12.554285282146362,Ramen Restaurant
14,55.66836092933239,12.55522731909053,37,7,5c892fc11c0b3400395ba184,Gao Istedgade,55.669033,12.552262,Dim Sum Restaurant
15,55.66836092933239,12.55522731909053,37,8,5c3f5b8b1a292500259a70c9,Falang,55.670194,12.556326,Thai Restaurant
16,55.66836092933239,12.55522731909053,37,9,5a0ec503b04056129dc964d7,Sanchez,55.669804856423525,12.555151514153476,Mexican Restaurant
17,55.66836092933239,12.55522731909053,37,10,4b01535ef964a5201b4222e3,Paté Paté,55.668988,12.558863,Tapas Restaurant
18,55.66836092933239,12.55522731909053,37,11,5e5bebf06c502e000729adad,Louis Burger,55.670358,12.557006,Burger Joint
19,55.66836092933239,12.55522731909053,37,12,4b3f8a31f964a520afa825e3,Sticks'n'Sushi,55.669697,12.554686,Sushi Restaurant
20,55.66836092933239,12.55522731909053,37,13,4d1c1fff7e10a35d0af9fc82,Café De Fire Årstider,55.66949581582389,12.558473193124682,Modern European Restaurant
21,55.66836092933239,12.55522731909053,37,14,4efb4a7ce5fa4f286ecc2dfc,Kawaii Sushi,55.66732063419734,12.554371069043027,Sushi Restaurant
22,55.66836092933239,12.55522731909053,37,15,4d5e8eb01ee8721e6db99321,Ban Keaw Thai Restaurant,55.66921722791147,12.558768253769179,Asian Restaurant
23,55.66836092933239,12.55522731909053,37,16,4b685790f964a520be722be3,Sivas Kebab,55.66984817013209,12.555253362049248,Fast Food Restaurant
24,55.66836092933239,12.55522731909053,37,17,55e19d51498e34b614268ec8,Brasa,55.66840648629884,12.55898817869408,Brazilian Restaurant
25,55.66836092933239,12.55522731909053,37,18,50521314e4b05b8794bb6572,Yuma,55.6696630389491,12.555231082734805,Asian Restaurant
26,55.66836092933239,12.55522731909053,37,19,5bfd79c512c8f0002c7ac884,Mør restaurant,55.667168,12.557099,Brazilian Restaurant
27,55.66836092933239,12.55522731909053,37,20,5b507d9ddff815002bb042f5,Public - The italian social dining bar,55.669347,12.557998,Italian Restaurant
28,55.66836092933239,12.55522731909053,37,21,515f0936498e3da879eed8dd,Aroii,55.66983460251749,12.555064720407191,Thai Restaurant
29,55.66836092933239,12.55522731909053,37,22,4f85bd2fe4b0a7ed05e42d7c,Iamacombo,55.668454,12.557001,Scandinavian Restaurant
30,55.66836092933239,12.55522731909053,37,23,5b507e80fc9e94003933b371,public - the italian social dining bar,55.669306,12.558027,Italian Restaurant
31,55.66836092933239,12.55522731909053,37,24,4f9c1980e4b0a3d1dc1049cd,Social Act,55.6683302230764,12.557186059337118,Scandinavian Restaurant
32,55.66836092933239,12.55522731909053,37,25,4c0947cfffb8c9b69ba36961,1001 Shawarma,55.66926328198566,12.551949490531264,Middle Eastern Restaurant
33,55.66836092933239,12.55522731909053,37,26,4e4d57d2aeb77d4a40e76606,Tandoori Masala,55.6700481,12.5574463,Indian Restaurant
34,55.66836092933239,12.55522731909053,37,27,4bf97d108d30d13a954e0218,Restaurant Porn-Sak,55.66919293705128,12.558009782586447,Thai Restaurant
35,55.66836092933239,12.55522731909053,37,28,4f2c26f2e4b0fc7ec666f23b,I'm a Combo,55.66825823522041,12.557076057627915,Scandinavian Restaurant
36,55.66836092933239,12.55522731909053,37,29,511d21a8e4b0957876a491b5,SushiBest,55.667168,12.554421,Sushi Restaurant
37,55.66836092933239,12.55522731909053,37,30,5a68d3660a08ab7faf608624,The Caribbean Housewife,55.669125,12.554147,Soup Place
38,55.66836092933239,12.55522731909053,37,31,526a7b1311d27d4830d7b620,Frisk Pasta/Is,55.66904,12.554295,Italian Restaurant
39,55.66836092933239,12.55522731909053,37,32,55508888498e4a08fa9d703a,Skank,55.67012495673789,12.55628785174025,Breakfast Spot
40,55.66836092933239,12.55522731909053,37,33,50391fe1e4b06348eb4ab482,Sushi Best,55.66718219357037,12.554324552977727,Sushi Restaurant
41,55.66836092933239,12.55522731909053,37,34,575436fe498e9fd59ac44899,Yuca Taco Kødbyen,55.667156,12.558158,Taco Place
42,55.66836092933239,12.55522731909053,37,35,5f624f7924ae6f671d82e1a1,PakoMex,55.667106,12.553358,Food Truck
43,55.66836092933239,12.55522731909053,37,36,4bfd67dc4cf820a17a6cecf4,Señorita,55.66968267186218,12.554806233752576,Mexican Restaurant
44,55.6638390706676,12.55522731909053,3,0,4c77fd792d3ba143c85d89d0,Pizzaria San Pietro,55.66571132931218,12.556586079467467,Pizza Place
45,55.6638390706676,12.55522731909053,3,1,533da77f498e884755b19302,restaurant brunello abel cathrines gade21a,55.6657533397525,12.55391730194356,Italian Restaurant
46,55.6638390706676,12.55522731909053,3,2,4c89108810523704a7a4c5f1,Naan House,55.66587606408999,12.554570115286936,Indian Restaurant
47,55.66836092933239,12.563190862727652,4,0,5550effd498e1d5fa814f685,Lele,55.667957,12.561144,Asian Restaurant
48,55.66836092933239,12.563190862727652,4,1,5390aa00498ec1ba1d8fba73,Skeletske,55.66910171508789,12.560850143432617,Taco Place
49,55.66836092933239,12.563190862727652,4,2,5a96c52b29551359c09d1dab,Kewei’s Kitchen,55.669082,12.560792,Chinese Restaurant
50,55.66836092933239,12.563190862727652,4,3,4b6070f6f964a5201ae629e3,Spisehuset,55.66931295716907,12.563867029837292,Scandinavian Restaurant
51,55.6638390706676,12.563190862727652,8,0,4c067750517d0f476c00f615,Just Thai,55.662358083323554,12.56286924890737,Thai Restaurant
52,55.6638390706676,12.563190862727652,8,1,4c5ff79090b2c9b6f29e3b22,Indiana Mexican Restaurant,55.66235782482697,12.563300427201655,Mexican Restaurant
53,55.6638390706676,12.563190862727652,8,2,53c980b0498e9959101f699b,Cyprus,55.66226113799485,12.561024875219449,Greek Restaurant
54,55.6638390706676,12.563190862727652,8,3,4ce548cc2b4e721e9ee0332b,Ristorante Panorama,55.66239562328112,12.563258356810458,Italian Restaurant
55,55.6638390706676,12.563190862727652,8,4,4e3545dbd1649e45e3cf4e54,Shawarma Fisketovet,55.662435271788006,12.563041546010831,Middle Eastern Restaurant
56,55.6638390706676,12.563190862727652,8,5,4c1d05dceac020a1f87647c2,Restaurant The Harbour,55.663038608435514,12.563976018944196,Scandinavian Restaurant
57,55.6638390706676,12.563190862727652,8,6,554cc781498e035b859b3014,LêLê Street Kitchen // Fisketorvet,55.66269905683353,12.562075228322021,Vietnamese Restaurant
58,55.6638390706676,12.563190862727652,8,7,5166dacce4b07ed52f623407,Meksika,55.662325,12.5633,Mexican Restaurant
59,55.6761,12.559209090909091,11,0,55e19123498ea6ed7b9292b6,Phở Hànôi,55.674781,12.562278,Vietnamese Restaurant
60,55.6761,12.559209090909091,11,1,571a663d38faaa76e45884b2,Spaghetteria,55.674814848500844,12.562437057495117,Italian Restaurant
61,55.6761,12.559209090909091,11,2,4adcdafef964a520195e21e3,Cassiopeia,55.674429691411575,12.557765456834812,Scandinavian Restaurant
62,55.6761,12.559209090909091,11,3,5ce1dc29e4c459002cdfff39,Hagan Dazs CopenHagen,55.676368,12.560108,Austrian Restaurant
63,55.6761,12.559209090909091,11,4,510c06bce4b0f2f19c099d6d,Sushi Vesterbrogade,55.677135,12.558811,Sushi Restaurant
64,55.6761,12.559209090909091,11,5,4d10dd89c3dc3704ed043c74,Jin Cheng,55.6746650340998,12.562239431225926,Asian Restaurant
65,55.6761,12.559209090909091,11,6,532b49a0498e5c7282cd7cab,The Grill,55.674905772358876,12.559713984271331,Scandinavian Restaurant
66,55.6761,12.559209090909091,11,7,51f9647f498e0b4a4621ad4a,Akard thai restaurant,55.67623519897461,12.560874938964844,Thai Restaurant
67,55.6761,12.559209090909091,11,8,4b9fdaf1f964a520f34437e3,Restaurant Fridas,55.67452660710909,12.559223373568571,Scandinavian Restaurant
68,55.6761,12.559209090909091,11,9,5a453aaf911fc41c77d32870,China Palace,55.674725,12.562201,Chinese Restaurant
69,55.6761,12.559209090909091,11,10,500dbbdae4b07352bd7d235c,Ristorante L'Appetito,55.67594114976982,12.561821077950606,Italian Restaurant
70,55.67836092933239,12.555226301304462,3,0,4c754a51d8948cfa093d67da,Casa de Voulfsbach,55.68,12.555332,Scandinavian Restaurant
71,55.67836092933239,12.555226301304462,3,1,4aea0195f964a5206bb821e3,Salon 39,55.6783703989535,12.554696484003683,Cocktail Bar
72,55.67836092933239,12.555226301304462,3,2,59df96691543c7512588b392,Ipanema,55.677612,12.554469,Café
73,55.673839070667604,12.555226301304462,50,0,5800fda338fa1e0e2329fed6,Mangia,55.6732516311798,12.554507905614356,Italian Restaurant
74,55.673839070667604,12.555226301304462,50,1,4cee93d34cd4236a7c76ae63,Spuntino,55.6727099921955,12.552146661049035,Italian Restaurant
75,55.673839070667604,12.555226301304462,50,2,4f5cee31e4b026f4c6ae3a1b,Madklubben Vesterbro,55.672812733594995,12.552937296478632,Scandinavian Restaurant
76,55.673839070667604,12.555226301304462,50,3,4ba51e10f964a5208edf38e3,Le Basilic,55.671827,12.556234,French Restaurant
77,55.673839070667604,12.555226301304462,50,4,582b599842f0d57b1443a4c6,Nagoya,55.675418649614905,12.554197311401367,Sushi Restaurant
78,55.673839070667604,12.555226301304462,50,5,5c0189baf5e9d7002cf10817,Kiin Kiin Tok Tok,55.672245,12.554889,Thai Restaurant
79,55.673839070667604,12.555226301304462,50,6,4d87b8e126a36ea8abd2bead,Brasserie Degas,55.67395457533311,12.551600933074951,French Restaurant
80,55.673839070667604,12.555226301304462,50,7,5612d1fb498ed1e5a8ea5262,Urudag,55.67335119756114,12.557320738124744,Doner Restaurant
81,55.673839070667604,12.555226301304462,50,8,594d3c53d0a1497dd1b08ea4,Virat's Indian Kitchen,55.672662,12.551852,Indian Restaurant
82,55.673839070667604,12.555226301304462,50,9,4adcdafef964a520195e21e3,Cassiopeia,55.674429691411575,12.557765456834812,Scandinavian Restaurant
83,55.673839070667604,12.555226301304462,50,10,5d246f9fd1c26700238ba76c,Beirut Lunch & Café,55.67274,12.557053,Lebanese Restaurant
84,55.673839070667604,12.555226301304462,50,11,5bdf40c74acb19002c66821b,iki sushi,55.673807,12.551545,Sushi Restaurant
85,55.673839070667604,12.555226301304462,50,12,4baf6fcdf964a520adff3be3,Restaurant Saigon,55.67342822118935,12.55539357662201,Vietnamese Restaurant
86,55.673839070667604,12.555226301304462,50,13,52a36eec498e6e32fe0e28fa,Mr Wong,55.672616,12.556154,Chinese Restaurant
87,55.673839070667604,12.555226301304462,50,14,4d59786a3281b1f7248cbb2f,Ristorante RetroGusto,55.672845629176756,12.558281344502069,Italian Restaurant
88,55.673839070667604,12.555226301304462,50,15,5d8ba9e54956e90008c6bb04,Mint,55.672344,12.556949,Indian Restaurant
89,55.673839070667604,12.555226301304462,50,16,4adcdb00f964a520525e21e3,Vagabondo Cantina,55.672694,12.551838,Italian Restaurant
90,55.673839070667604,12.555226301304462,50,17,4d3a0484687ca35daf3785c4,Lundgren V.I.P.,55.672982607136,12.55461337974713,Tapas Restaurant
91,55.673839070667604,12.555226301304462,50,18,552813f1498e45d29645ea18,Trattoria da Salvo,55.674137,12.551906,Italian Restaurant
92,55.673839070667604,12.555226301304462,50,19,4da4470822a5f04d20b43455,Lē Lē,55.67240481319818,12.55580134924877,Asian Restaurant
93,55.673839070667604,12.555226301304462,50,20,5451dd5f498e7a776d48a211,Chez Bruno,55.673545718379884,12.555356596602318,French Restaurant
94,55.673839070667604,12.555226301304462,50,21,52a3610d11d2677d729fdac3,Uludag,55.6725659755087,12.557330613312352,Kebab Restaurant
95,55.673839070667604,12.555226301304462,50,22,4adcdb00f964a5204d5e21e3,Spring Garden,55.672447,12.555893,Chinese Restaurant
96,55.673839070667604,12.555226301304462,50,23,52334a6011d2953fc47dcc1d,Retro Gusto,55.67294,12.558267,Italian Restaurant
97,55.673839070667604,12.555226301304462,50,24,4f650514e4b04b2444313cb8,Tullinsgade 6,55.67333,12.551482,Arepa Restaurant
98,55.673839070667604,12.555226301304462,50,25,4db99671043760912105f564,Bonjour Vietnam,55.672751670333604,12.555533771131419,Vietnamese Restaurant
99,55.673839070667604,12.555226301304462,50,26,4adcdafff964a520445e21e3,Nam Thip,55.67220940758101,12.557825809155887,Thai Restaurant
100,55.673839070667604,12.555226301304462,50,27,5aff15efbf7dde002c707891,Moi,55.672514,12.555538,Korean Restaurant
101,55.673839070667604,12.555226301304462,50,28,4cbb493f7148f04d3f7ce1ab,Koh-I-Noor,55.6727861287979,12.558093575147915,Indian Restaurant
102,55.673839070667604,12.555226301304462,50,29,5481fd63498ef51e69972a4e,Ziang Nan,55.673321090116694,12.554423449257452,Chinese Restaurant
103,55.673839070667604,12.555226301304462,50,30,4b6c6c77f964a520fc382ce3,Restaurant Miga,55.67381564886878,12.553587457709302,Korean Restaurant
104,55.673839070667604,12.555226301304462,50,31,4caf5eeb39458cfa58edf99f,Letz Sushi,55.67207644980205,12.557594582043375,Sushi Restaurant
105,55.673839070667604,12.555226301304462,50,32,5148b74de4b085056acb56e0,Ristorante Vagabondos,55.672792956757505,12.552019357681274,Italian Restaurant
106,55.673839070667604,12.555226301304462,50,33,4b4c5a4bf964a52061b126e3,Sachi Sushi,55.67296879487233,12.558347785891797,Sushi Restaurant
107,55.673839070667604,12.555226301304462,50,34,4c924a83238c6dcb1b36c755,Tulip Ved Q8,55.67235901228185,12.555146068679614,Scandinavian Restaurant
108,55.673839070667604,12.555226301304462,50,35,4ffea128e4b09d12b0d3cbdb,Gavekortet.dk Køkkenet,55.672611,12.555106,African Restaurant
109,55.673839070667604,12.555226301304462,50,36,5a96c39791eaca01d5cc3305,Bach Yen,55.6725,12.555737,Asian Restaurant
110,55.673839070667604,12.555226301304462,50,37,550ecf06498e5f0a6b40898b,Ammessi,55.67269561688748,12.552218980662742,Italian Restaurant
111,55.673839070667604,12.555226301304462,50,38,4bf2cac882002d7f02f8d0bb,Spicey Licious,55.672205,12.55734,Asian Restaurant
112,55.673839070667604,12.555226301304462,50,39,51a134fd498e3a83e2a211f8,Cafe Ici,55.672037104073866,12.555115323679097,Mediterranean Restaurant
113,55.673839070667604,12.555226301304462,50,40,564f57eb498ee9597a7daf13,The South Indian,55.672502980016695,12.556115765857367,South Indian Restaurant
114,55.673839070667604,12.555226301304462,50,41,55453bb2498eac1182f2966e,Plectrum,55.67291904893062,12.55883066999958,Modern European Restaurant
115,55.673839070667604,12.555226301304462,50,42,4adcdb00f964a520655e21e3,Pizza Pasta,55.6729224591411,12.55452760738452,Indian Restaurant
116,55.673839070667604,12.555226301304462,50,43,4cd1a7206200b1f7f01ddb28,Canton,55.673157611212005,12.558975561009444,Chinese Restaurant
117,55.673839070667604,12.555226301304462,50,44,4c30c03766e40f47d8f5c38b,Dalaman,55.675461644702466,12.554212189095338,Turkish Restaurant
118,55.673839070667604,12.555226301304462,50,45,4bf7da40508c0f4749113e31,Restaurant Frokosten,55.67416,12.552022,Scandinavian Restaurant
119,55.673839070667604,12.555226301304462,50,46,4ba92738f964a520ba0f3ae3,Teater Kælderen,55.673038,12.555298366666667,French Restaurant
120,55.673839070667604,12.555226301304462,50,47,59eba2c395a722043b95eb37,Magasasa,55.672425,12.556816,Chinese Restaurant
121,55.673839070667604,12.555226301304462,50,48,4b239f2ff964a5204d5724e3,Restaurant Ankara,55.67276627456482,12.557884819216012,Middle Eastern Restaurant
122,55.673839070667604,12.555226301304462,50,49,4ecf9ee15c5c9528f8444356,Restaurant Springgarden,55.672599,12.55616,Chinese Restaurant
123,55.67836092933239,12.56319188051372,21,0,4b104c0bf964a5203a6d23e3,Il grappolo blu,55.67877934861632,12.562878075195869,Italian Restaurant
124,55.67836092933239,12.56319188051372,21,1,5378e341498e0cd1339aa1eb,uformel,55.676715938175846,12.564709844030654,Modern European Restaurant
125,55.67836092933239,12.56319188051372,21,2,58cd86834988da07c8e6cc76,Papa Ramen,55.67683372228907,12.564881734370323,Noodle House
126,55.67836092933239,12.56319188051372,21,3,5e19d81fa587360008dec5eb,The Midwestern Diner,55.680216,12.563384,Burger Joint
127,55.67836092933239,12.56319188051372,21,4,589cc0006b0cdb23b11d8141,Bastards,55.676319,12.564469,Modern European Restaurant
128,55.67836092933239,12.56319188051372,21,5,5729b056498ea6855432b40e,Väkst,55.67876969973186,12.566885678251525,Scandinavian Restaurant
129,55.67836092933239,12.56319188051372,21,6,5f03619b60ec8e19e594ea0d,Urban Indian,55.677416,12.566538,Indian Restaurant
130,55.67836092933239,12.56319188051372,21,7,5377a81f11d27506c00a0d9d,Cock's & Cows,55.67872058503817,12.566240050400602,American Restaurant
131,55.67836092933239,12.56319188051372,21,8,5c7bedd7febf31002c722ad2,H Table,55.680389,12.562923,Chinese Restaurant
132,55.67836092933239,12.56319188051372,21,9,5df3792bdb204c00075eafce,Mr Ramen,55.676914,12.564905,Noodle House
133,55.67836092933239,12.56319188051372,21,10,5afdb20abfc6d0002c8ee6af,Cocolo Sushi&Poke Bar,55.676773,12.564817,Sushi Restaurant
134,55.67836092933239,12.56319188051372,21,11,573778e9498eb22a2e20e4b4,Bistro Avenue,55.67639,12.564157,Italian Restaurant
135,55.67836092933239,12.56319188051372,21,12,5ceecb7cf5e9d7002cd1f542,Osteria Alfredo,55.678825,12.562709,Italian Restaurant
136,55.67836092933239,12.56319188051372,21,13,4ce90556595cb1f70464cc14,L'Osteria,55.678557063753864,12.562962176948034,Italian Restaurant
137,55.67836092933239,12.56319188051372,21,14,4cc2b39ec844721eb425de01,Thé à la Menthe,55.680161390025035,12.563236355781555,Tea Room
138,55.67836092933239,12.56319188051372,21,15,4cf94ae87945224bdd0079e7,L'Osteria Del Grappolo Blu,55.67883368889798,12.562954326821485,Italian Restaurant
139,55.67836092933239,12.56319188051372,21,16,4ebc2ded4901a730a8daf66d,Sushitreat Hotel Fox,55.6787334908462,12.56631945672962,Sushi Restaurant
140,55.67836092933239,12.56319188051372,21,17,552d8691498e60291529aacf,WIP,55.67872619628906,12.567045211791992,Spanish Restaurant
141,55.67836092933239,12.56319188051372,21,18,4bd083e0b221c9b6d2d2d3d0,Sushi Treat,55.678645,12.565946,Japanese Restaurant
142,55.67836092933239,12.56319188051372,21,19,4adcdafef964a5200d5e21e3,India Palace,55.67723145317813,12.566530845759498,Indian Restaurant
143,55.67836092933239,12.56319188051372,21,20,50140441e4b0ad6ab28e6b96,Asian Street Party,55.677282,12.564827,Asian Restaurant
144,55.673839070667604,12.56319188051372,47,0,5a310e9d6e46503d39d10074,Sticks'n'Sushi,55.674390456310825,12.565661492301897,Sushi Restaurant
145,55.673839070667604,12.56319188051372,47,1,55e19123498ea6ed7b9292b6,Phở Hànôi,55.674781,12.562278,Vietnamese Restaurant
146,55.673839070667604,12.56319188051372,47,2,4b3e532ef964a5204b9b25e3,Magasasa Classic,55.6723885,12.563098,Chinese Restaurant
147,55.673839070667604,12.56319188051372,47,3,5be9b44535811b002c80557e,CPH Smorrebrod,55.672837,12.563363,Dutch Restaurant
148,55.673839070667604,12.56319188051372,47,4,5d1643cb3f9ff70023af90e7,La Baracca,55.674259,12.565486,Italian Restaurant
149,55.673839070667604,12.56319188051372,47,5,4bec45ff976ac928f8c4600b,Nimb Brasserie,55.67356,12.566612,French Restaurant
150,55.673839070667604,12.56319188051372,47,6,4adcdb00f964a520575e21e3,Grøften,55.67429847980043,12.566706621535069,Scandinavian Restaurant
151,55.673839070667604,12.56319188051372,47,7,5b14003c9deb7d002cc4b58b,D'let Hovedbanegården - Det Grønne Køkken & Thai Take Away,55.672653,12.564195,Thai Restaurant
152,55.673839070667604,12.56319188051372,47,8,5991badc6bd36b43bfbf0da7,Mado,55.67409993611435,12.562220453434263,Turkish Restaurant
153,55.673839070667604,12.56319188051372,47,9,5b5c9ddee679bc002c97ce72,Dalle Valle,55.675368,12.565037,Modern European Restaurant
154,55.673839070667604,12.56319188051372,47,10,503ce9eee4b0e1fcde4b8ffe,Issa,55.67376286192419,12.559242728853153,Japanese Restaurant
155,55.673839070667604,12.56319188051372,47,11,4af9b122f964a520611322e3,Sukiyaki,55.673285644964025,12.56075239146595,Japanese Restaurant
156,55.673839070667604,12.56319188051372,47,12,4be7e07bd837c9b62f9da406,Nibon Ya Running Sushi,55.673176,12.560229,Sushi Restaurant
157,55.673839070667604,12.56319188051372,47,13,571a663d38faaa76e45884b2,Spaghetteria,55.674814848500844,12.562437057495117,Italian Restaurant
158,55.673839070667604,12.56319188051372,47,14,4b7446f3f964a520fbd12de3,Restaurant Fu Hao,55.671655684744444,12.562832498321372,Chinese Restaurant
159,55.673839070667604,12.56319188051372,47,15,4beae71fb3352d7f35c355d2,Poonchai Thai Restaurant,55.67235374418368,12.563314372443145,Thai Restaurant
160,55.673839070667604,12.56319188051372,47,16,4aeb457ef964a52068c021e3,Frk. Barners Kælder,55.67216250236405,12.561140570603044,Scandinavian Restaurant
161,55.673839070667604,12.56319188051372,47,17,595bc8da59c42343382cb76b,SSAM,55.672576021703165,12.562069584400527,Korean Restaurant
162,55.673839070667604,12.56319188051372,47,18,5a1d74d106fb604b9c2bd8ef,Zócalo,55.674113,12.565447,Mexican Restaurant
163,55.673839070667604,12.56319188051372,47,19,4c8e66644e95236a8fae7bca,Kokken & Karry,55.67287013447429,12.564983173588214,Indian Restaurant
164,55.673839070667604,12.56319188051372,47,20,5a81dc9825ecca0b3b62838a,Hallernes Smørrebrød,55.67407,12.565618,Scandinavian Restaurant
165,55.673839070667604,12.56319188051372,47,21,4cd52925dfb4a1cd236e575c,Saxo Restaurant,55.67206374964312,12.562305087341292,Chinese Restaurant
166,55.673839070667604,12.56319188051372,47,22,4eac11c06da1cafdae98145d,"YumYum - Noddles, Rice & More",55.67247912576913,12.565204183133774,Asian Restaurant
167,55.673839070667604,12.56319188051372,47,23,5464a211498e7f3ec84b8977,bistro de paris,55.673183639529995,12.55957327289205,French Restaurant
168,55.673839070667604,12.56319188051372,47,24,4d10dd89c3dc3704ed043c74,Jin Cheng,55.6746650340998,12.562239431225926,Asian Restaurant
169,55.673839070667604,12.56319188051372,47,25,5b11344ebf7dde002c0ab1cc,Letz Sushi,55.672363,12.564316,Sushi Restaurant
170,55.673839070667604,12.56319188051372,47,26,5c1936cc5d891b002c64ce2e,Great China,55.672146,12.562832,Chinese Restaurant
171,55.673839070667604,12.56319188051372,47,27,5a218645dee7701b1d8b33f8,Vapiano,55.674365597693686,12.565380677788198,Italian Restaurant
172,55.673839070667604,12.56319188051372,47,28,4ddcbc21b0fba481fc883e0e,Centrum Smørrebrød,55.67440166890296,12.563295547204785,Scandinavian Restaurant
173,55.673839070667604,12.56319188051372,47,29,532b49a0498e5c7282cd7cab,The Grill,55.674905772358876,12.559713984271331,Scandinavian Restaurant
174,55.673839070667604,12.56319188051372,47,30,4ba32ab5f964a5205d2e38e3,Yam Yam,55.67269556997284,12.565059023981048,Asian Restaurant
175,55.673839070667604,12.56319188051372,47,31,4f0edaabe4b0d8e3c1dbbc88,Medisterens Desk,55.67332054107733,12.562253346493806,Turkish Restaurant
176,55.673839070667604,12.56319188051372,47,32,4b24ec63f964a5208d6a24e3,Den Skaldede Kok,55.67405892671314,12.566831322206934,Scandinavian Restaurant
177,55.673839070667604,12.56319188051372,47,33,5510078c498eb06e66f8ee96,Fru Nimb,55.67366158388018,12.567059465693909,Scandinavian Restaurant
178,55.673839070667604,12.56319188051372,47,34,5a4900ca8fb09e126f39a022,Tapa del Toro,55.674125,12.565832,Tapas Restaurant
179,55.673839070667604,12.56319188051372,47,35,5a33b87f3abcaf1afc8f22c5,Letz Sushi,55.67402,12.565463,Sushi Restaurant
180,55.673839070667604,12.56319188051372,47,36,4ba7aa61f964a520bba739e3,Osaka Sushi,55.672214581379755,12.563033869109768,Sushi Restaurant
181,55.673839070667604,12.56319188051372,47,37,4b915e67f964a520d4b633e3,Restaurant Osaka,55.67209605367965,12.563044863917835,Japanese Restaurant
182,55.673839070667604,12.56319188051372,47,38,5a453aaf911fc41c77d32870,China Palace,55.674725,12.562201,Chinese Restaurant
183,55.673839070667604,12.56319188051372,47,39,5d4f164368f1740008c7193b,Nachos,55.67524,12.56619,Mexican Restaurant
184,55.673839070667604,12.56319188051372,47,40,5da1818a03db2f0007af2249,Angelini,55.67381,12.564565,Italian Restaurant
185,55.673839070667604,12.56319188051372,47,41,4b75ac4af964a520f91b2ee3,Restaurang Frascati,55.673674,12.562533,Italian Restaurant
186,55.673839070667604,12.56319188051372,47,42,5b8ad956f5e9d7002cbab7b0,Maggies,55.675238,12.566211,American Restaurant
187,55.673839070667604,12.56319188051372,47,43,4cf6a79071538cfa57beb62e,Axelborg Chinese Restaurant,55.675686,12.564462,Chinese Restaurant
188,55.673839070667604,12.56319188051372,47,44,57251d46498e0709d6823b0e,Boston Grill,55.672637,12.561606,New American Restaurant
189,55.673839070667604,12.56319188051372,47,45,500dbbdae4b07352bd7d235c,Ristorante L'Appetito,55.67594114976982,12.561821077950606,Italian Restaurant
190,55.673839070667604,12.56319188051372,47,46,5fca119d1373ca29e5798283,Holy Krapow Thai Food,55.673826,12.5593,Thai Restaurant
191,55.6761,12.57739090909091,31,0,4b47b47af964a520373b26e3,Riz Raz,55.67707534759608,12.575303898645524,Vegetarian / Vegan Restaurant
192,55.6761,12.57739090909091,31,1,4bb1cc55f964a52089a33ce3,Restaurant Kronborg,55.67758758987612,12.574657422305492,Scandinavian Restaurant
193,55.6761,12.57739090909091,31,2,4f2d1624e4b0c1a81853f0fe,Café Maroc,55.676859,12.574721,Moroccan Restaurant
194,55.6761,12.57739090909091,31,3,4afd65b2f964a520952722e3,Tight,55.67819167424438,12.576488340347044,Australian Restaurant
195,55.6761,12.57739090909091,31,4,4adcdafff964a5203b5e21e3,Galathea Kroen,55.67663268517612,12.574407628817651,Scandinavian Restaurant
196,55.6761,12.57739090909091,31,5,4adcdb00f964a520485e21e3,Restaurant Puk,55.67616,12.573968,Scandinavian Restaurant
197,55.6761,12.57739090909091,31,6,5cbca561f870fd002c78a5cc,Pizzeria Luca,55.677662,12.578285,Italian Restaurant
198,55.6761,12.57739090909091,31,7,539819ec498ed180c0a698fe,Tårnet,55.67629735432837,12.580526252180185,Scandinavian Restaurant
199,55.6761,12.57739090909091,31,8,4adcdafff964a5203d5e21e3,Kanal Caféen,55.67449115942083,12.577030414951452,Scandinavian Restaurant
200,55.6761,12.57739090909091,31,9,51f909f6498e3d83aaf54185,Slice of San Francisco,55.67596201467218,12.57498245373543,Café
201,55.6761,12.57739090909091,31,10,5dd2b8e741ac0900077e9829,Norrlyst,55.67759348525687,12.576255798339844,Scandinavian Restaurant
202,55.6761,12.57739090909091,31,11,4c3ded5015cb1b8d7b997cdc,Marv & Ben,55.67729337419156,12.577083152133822,Scandinavian Restaurant
203,55.6761,12.57739090909091,31,12,4b9a9223f964a52056c235e3,Cafe Sorgenfri,55.67766285559069,12.574736583585375,Scandinavian Restaurant
204,55.6761,12.57739090909091,31,13,578687f9498e24eeec121903,Voraz,55.67724151635824,12.57564803393996,Tapas Restaurant
205,55.6761,12.57739090909091,31,14,4cb43fa039458cfaf0231fa0,Brydesen,55.67680977101631,12.580746404332244,Scandinavian Restaurant
206,55.6761,12.57739090909091,31,15,4bac5bcdf964a520bdf13ae3,Il Dona,55.67636547123881,12.575317800709803,Italian Restaurant
207,55.6761,12.57739090909091,31,16,4adcdafcf964a520755d21e3,Café Delhi,55.676772013887074,12.574232009284502,Café
208,55.6761,12.57739090909091,31,17,4afc3080f964a5206a2022e3,WannaB,55.67773335942961,12.576689733814918,Café
209,55.6761,12.57739090909091,31,18,51c0aec3498e4f278e35d5db,Rub & Stub,55.676409860019255,12.5752247197858,Scandinavian Restaurant
210,55.6761,12.57739090909091,31,19,4d374efb0a0b721e7bf0999b,Restaurant Oasi D' Italia,55.67711828487595,12.575467479678426,Italian Restaurant
211,55.6761,12.57739090909091,31,20,566f2b99498eedfa845f522e,Wok'n'Roll,55.676161,12.574452,Asian Restaurant
212,55.6761,12.57739090909091,31,21,55aa9976498efd2575ff0cbb,Giggles,55.67707824707031,12.575469970703125,Modern European Restaurant
213,55.6761,12.57739090909091,31,22,5ad5dcbff62f2b2864c32b04,Restaurant Smör,55.674606,12.574592,Scandinavian Restaurant
214,55.6761,12.57739090909091,31,23,4dc1257ffa764d03e9f70170,Chipolte Hot,55.677932491061306,12.576842708409005,Burrito Place
215,55.6761,12.57739090909091,31,24,4adcdafef964a520315e21e3,Gorm's Pizza,55.67628364345697,12.57516200551026,Italian Restaurant
216,55.6761,12.57739090909091,31,25,5712768c498ec7bc6496c882,Kælderen 13,55.677352,12.575928,Mediterranean Restaurant
217,55.6761,12.57739090909091,31,26,5c687f0b8ad62e0039ba20b6,Lolly CPH,55.67668,12.574477,Thai Restaurant
218,55.6761,12.57739090909091,31,27,56b4db3238fa514c63728dda,Sushi Boutique,55.67756968048276,12.576189741542347,Sushi Restaurant
219,55.6761,12.57739090909091,31,28,4c17a947c2dfc928a85aa869,Barbossa,55.676442,12.574536,Brazilian Restaurant
220,55.6761,12.57739090909091,31,29,559ffa1f498eafb5f1006ee7,giggle's,55.6771,12.575538,Scandinavian Restaurant
221,55.6761,12.57739090909091,31,30,51cef2ca498ec004c316bd87,Viking Food Bar,55.674697132016796,12.574665794583165,Scandinavian Restaurant
222,55.67836092933239,12.573408119486281,50,0,4b47b47af964a520373b26e3,Riz Raz,55.67707534759608,12.575303898645524,Vegetarian / Vegan Restaurant
223,55.67836092933239,12.573408119486281,50,1,4bb1cc55f964a52089a33ce3,Restaurant Kronborg,55.67758758987612,12.574657422305492,Scandinavian Restaurant
224,55.67836092933239,12.573408119486281,50,2,4adcdafff964a520385e21e3,Det Lille Apotek,55.68027629447842,12.574467956157953,Scandinavian Restaurant
225,55.67836092933239,12.573408119486281,50,3,5c24bf2483e380002caf5bf3,All Season’s Food To Go,55.679693,12.574467,Filipino Restaurant
226,55.67836092933239,12.573408119486281,50,4,4f2d1624e4b0c1a81853f0fe,Café Maroc,55.676859,12.574721,Moroccan Restaurant
227,55.67836092933239,12.573408119486281,50,5,4afd65b2f964a520952722e3,Tight,55.67819167424438,12.576488340347044,Australian Restaurant
228,55.67836092933239,12.573408119486281,50,6,4adcdafff964a5203b5e21e3,Galathea Kroen,55.67663268517612,12.574407628817651,Scandinavian Restaurant
229,55.67836092933239,12.573408119486281,50,7,59d4c0bbd1a4020628b170f0,Chao,55.67707,12.571384,Vietnamese Restaurant
230,55.67836092933239,12.573408119486281,50,8,4adcdb00f964a520485e21e3,Restaurant Puk,55.67616,12.573968,Scandinavian Restaurant
231,55.67836092933239,12.573408119486281,50,9,4bc0afa974a9a593c76ed0f6,Københavner Caféen,55.67808348716734,12.574925422668455,Scandinavian Restaurant
232,55.67836092933239,12.573408119486281,50,10,5d6ad1ed49a1f10008b2d56d,Yaffa,55.679727,12.575385,Mediterranean Restaurant
233,55.67836092933239,12.573408119486281,50,11,5aca12221acf111873ccf4f8,Hidden Dim Sum,55.677041,12.573404,Dim Sum Restaurant
234,55.67836092933239,12.573408119486281,50,12,5dd2b8e741ac0900077e9829,Norrlyst,55.67759348525687,12.576255798339844,Scandinavian Restaurant
235,55.67836092933239,12.573408119486281,50,13,5d2cf08b53331f0023babbf0,Mæxico,55.678726,12.572974,Mexican Restaurant
236,55.67836092933239,12.573408119486281,50,14,4b9a9223f964a52056c235e3,Cafe Sorgenfri,55.67766285559069,12.574736583585375,Scandinavian Restaurant
237,55.67836092933239,12.573408119486281,50,15,578687f9498e24eeec121903,Voraz,55.67724151635824,12.57564803393996,Tapas Restaurant
238,55.67836092933239,12.573408119486281,50,16,550b1479498ed2931e6500b6,MOMO WOK BOX,55.67727768984363,12.571078198829436,Thai Restaurant
239,55.67836092933239,12.573408119486281,50,17,4e69c34b1fc7442858b81304,Kantinen i Øresundshuset,55.67872773959784,12.57112205028534,Eastern European Restaurant
240,55.67836092933239,12.573408119486281,50,18,4c92039e7f3b8cfa503ca11e,Københavneren,55.678346,12.574864,Scandinavian Restaurant
241,55.67836092933239,12.573408119486281,50,19,4bbf0a7ff353d13acaf37d10,Huset med det grønne træ,55.67804281835799,12.571942454565686,Scandinavian Restaurant
242,55.67836092933239,12.573408119486281,50,20,50ccc6c6e4b0e9d6388eebd0,Pan Idræts Julefrokost,55.6803,12.5742,Scandinavian Restaurant
243,55.67836092933239,12.573408119486281,50,21,4adcdb00f964a520605e21e3,Eros,55.67944174339535,12.575303417878741,Greek Restaurant
244,55.67836092933239,12.573408119486281,50,22,4b7ed3ecf964a520780230e3,Bøf & Ost,55.67977794627238,12.575748312193962,Steakhouse
245,55.67836092933239,12.573408119486281,50,23,5a01ef39e179105bdc8d6266,Mercante,55.679138,12.575951,Italian Restaurant
246,55.67836092933239,12.573408119486281,50,24,4fdb1d21e4b05180f3d6bef9,foodstation,55.67998244329624,12.57497899185836,American Restaurant
247,55.67836092933239,12.573408119486281,50,25,4c66a10719f3c9b67548a0ff,Café Gl. Torv,55.678102,12.572075,Scandinavian Restaurant
248,55.67836092933239,12.573408119486281,50,26,4ca86cf897c8a1cdbd8784a5,Minisushi,55.677219,12.571215,Sushi Restaurant
249,55.67836092933239,12.573408119486281,50,27,572cd64f498e0122cf9ee2bc,Co-Ma Madsalen,55.676214,12.573312,Modern European Restaurant
250,55.67836092933239,12.573408119486281,50,28,4c8e419fd2aea0938bc3cc69,Restorante-Uno,55.679866,12.576181,Italian Restaurant
251,55.67836092933239,12.573408119486281,50,29,4adcdafcf964a520755d21e3,Café Delhi,55.676772013887074,12.574232009284502,Café
252,55.67836092933239,12.573408119486281,50,30,4b22c6c7f964a5205f4d24e3,Badstuen,55.678251,12.573809,French Restaurant
253,55.67836092933239,12.573408119486281,50,31,4afc3080f964a5206a2022e3,WannaB,55.67773335942961,12.576689733814918,Café
254,55.67836092933239,12.573408119486281,50,32,51c0aec3498e4f278e35d5db,Rub & Stub,55.676409860019255,12.5752247197858,Scandinavian Restaurant
255,55.67836092933239,12.573408119486281,50,33,546b9c52498e71eca1e844b0,Como Trattoria,55.680008,12.575287,Italian Restaurant
256,55.67836092933239,12.573408119486281,50,34,548c9d5a498e6561893f91e1,Normandie,55.679916,12.574669,French Restaurant
257,55.67836092933239,12.573408119486281,50,35,509ecc0ae4b01b6886c2c40e,Barburrito,55.678763438114686,12.573366568167923,Mexican Restaurant
258,55.67836092933239,12.573408119486281,50,36,5cc96bf9065ef5002c75586a,Bar Rye,55.67839,12.574843,Scandinavian Restaurant
259,55.67836092933239,12.573408119486281,50,37,4bec48dfc43f2d7ff0aadbd9,Restaurant Shanghai,55.678151990254804,12.573058621182424,Chinese Restaurant
260,55.67836092933239,12.573408119486281,50,38,4f65d383e4b09fcf63915a2e,Work,55.6797275288228,12.576212782956528,Italian Restaurant
261,55.67836092933239,12.573408119486281,50,39,4d9de32ac99fb60c6030d18b,Marschall Food Event,55.6773183,12.5725008,Greek Restaurant
262,55.67836092933239,12.573408119486281,50,40,4b90e660f964a5209a9b33e3,Restaurant Amalfi,55.679606486546895,12.575512110374614,Italian Restaurant
263,55.67836092933239,12.573408119486281,50,41,4fb53976e4b033737523251e,Mon Amour,55.679956331331425,12.574885692524072,French Restaurant
264,55.67836092933239,12.573408119486281,50,42,4d374efb0a0b721e7bf0999b,Restaurant Oasi D' Italia,55.67711828487595,12.575467479678426,Italian Restaurant
265,55.67836092933239,12.573408119486281,50,43,4c60138e3986e21eeb5c934f,Le Pave,55.67988871172068,12.575702694910603,French Restaurant
266,55.67836092933239,12.573408119486281,50,44,55aa9976498efd2575ff0cbb,Giggles,55.67707824707031,12.575469970703125,Modern European Restaurant
267,55.67836092933239,12.573408119486281,50,45,4dc1257ffa764d03e9f70170,Chipolte Hot,55.677932491061306,12.576842708409005,Burrito Place
268,55.67836092933239,12.573408119486281,50,46,4adcdb00f964a520585e21e3,House of Souls,55.67802416174242,12.571281401235597,American Restaurant
269,55.67836092933239,12.573408119486281,50,47,4adcdafef964a520235e21e3,Papa's Restaurant,55.6789605,12.5736253,Indian Restaurant
270,55.67836092933239,12.573408119486281,50,48,5dd566bd8bcea70008beeadd,Bombay Bistro,55.679635,12.576024,Bistro
271,55.67836092933239,12.573408119486281,50,49,4c014d63b45676b0f3eae080,Mini Sushi,55.677206,12.571399,Sushi Restaurant
272,55.673839070667604,12.573408119486281,18,0,552965b1498ed32092b812da,Restaurant Karla,55.67377139112723,12.573805115413,Scandinavian Restaurant
273,55.673839070667604,12.573408119486281,18,1,4adcdafff964a5203d5e21e3,Kanal Caféen,55.67449115942083,12.577030414951452,Scandinavian Restaurant
274,55.673839070667604,12.573408119486281,18,2,4c0a4a476071a593843fdf32,Viften i Tivoli,55.67375034155662,12.570808461614227,Scandinavian Restaurant
275,55.673839070667604,12.573408119486281,18,3,4c38964d18e72d7f968c18f5,Tivolihallen,55.6745174,12.5730421,Scandinavian Restaurant
276,55.673839070667604,12.573408119486281,18,4,4f749710e4b0dd96b708eae7,Winemakerdinner Reinwalds,55.675837,12.571638,French Restaurant
277,55.673839070667604,12.573408119486281,18,5,4d38160ae6bdf04de08860b4,Spicy Indian,55.67481722949613,12.57233709018255,Indian Restaurant
278,55.673839070667604,12.573408119486281,18,6,4be1c24587e42d7f4bca870b,Færgekroen Bryghus,55.67402051251637,12.569901409989644,Brewery
279,55.673839070667604,12.573408119486281,18,7,5763d969498e551aa7787d25,great china wok,55.673707,12.572524,Chinese Restaurant
280,55.673839070667604,12.573408119486281,18,8,5ad5dcbff62f2b2864c32b04,Restaurant Smör,55.674606,12.574592,Scandinavian Restaurant
281,55.673839070667604,12.573408119486281,18,9,59512854db1d81557eced9cb,Kiin Kiin Piin To,55.673076,12.569819,Asian Restaurant
282,55.673839070667604,12.573408119486281,18,10,59d261eb4c954c6df0ddaa95,Restaurant Niels,55.672435994121784,12.57335364818573,Scandinavian Restaurant
283,55.673839070667604,12.573408119486281,18,11,4b2fcb83f964a52012f024e3,Running Sushi,55.674028,12.572469,Sushi Restaurant
284,55.673839070667604,12.573408119486281,18,12,4adcdafef964a5202e5e21e3,Mongolian Barbeque,55.673798740936064,12.57245230960822,Chinese Restaurant
285,55.673839070667604,12.573408119486281,18,13,4c24e4f1136d20a1ec96e261,Great China,55.673855409725654,12.572392127048749,Asian Restaurant
286,55.673839070667604,12.573408119486281,18,14,58eb5a97409f56690ab467ef,Kaktus,55.673347,12.570484,Taco Place
287,55.673839070667604,12.573408119486281,18,15,4fe4d0fde4b0e1967e202132,Iboo's Pizza og Pakistansk,55.6743764823259,12.573291551368518,Middle Eastern Restaurant
288,55.673839070667604,12.573408119486281,18,16,51cef2ca498ec004c316bd87,Viking Food Bar,55.674697132016796,12.574665794583165,Scandinavian Restaurant
289,55.673839070667604,12.573408119486281,18,17,58d8e2d6a149266752994f7d,Little Italy,55.67487,12.572342,Italian Restaurant
290,55.67836092933239,12.58137369869554,31,0,533ac717498ea70a9dd24c9d,Restaurant Llama,55.67957,12.583811,South American Restaurant
291,55.67836092933239,12.58137369869554,31,1,4eef6a5fe5faa560f365eb30,Wok On,55.67805258657644,12.580015479527074,Asian Restaurant
292,55.67836092933239,12.58137369869554,31,2,5cbca561f870fd002c78a5cc,Pizzeria Luca,55.677662,12.578285,Italian Restaurant
293,55.67836092933239,12.58137369869554,31,3,539819ec498ed180c0a698fe,Tårnet,55.67629735432837,12.580526252180185,Scandinavian Restaurant
294,55.67836092933239,12.58137369869554,31,4,559bae5d498e651a42716388,TGI Friday's,55.67863922033221,12.579886584805683,American Restaurant
295,55.67836092933239,12.58137369869554,31,5,5a8599a80881586c69e119bf,The Market Italian,55.680263,12.581621,Italian Restaurant
296,55.67836092933239,12.58137369869554,31,6,5687d40d498e809a74bb3c65,Rossopomodoro,55.679346188317,12.57984344689381,Italian Restaurant
297,55.67836092933239,12.58137369869554,31,7,4adcdb00f964a5205b5e21e3,Mama Rosa,55.67912952790198,12.58054180417083,Mexican Restaurant
298,55.67836092933239,12.58137369869554,31,8,4adcdafbf964a520105d21e3,Slotskælderen - Hos Gitte Kik,55.67786650014117,12.580815525217943,Scandinavian Restaurant
299,55.67836092933239,12.58137369869554,31,9,4cb43fa039458cfaf0231fa0,Brydesen,55.67680977101631,12.580746404332244,Scandinavian Restaurant
300,55.67836092933239,12.58137369869554,31,10,5d19e9efa24dd70023724474,Brasserie Jakobsen,55.679206,12.579667,Brasserie
301,55.67836092933239,12.58137369869554,31,11,5006cdffe4b065de56a1b566,Silverspoon Pop-Up Picnic,55.67917779440264,12.579647406905222,Scandinavian Restaurant
302,55.67836092933239,12.58137369869554,31,12,4f905b3de4b0960330b458a3,Le Diamant,55.67911706705078,12.58030356593642,Sushi Restaurant
303,55.67836092933239,12.58137369869554,31,13,52813f1f11d2ec9c7f358be1,Restaurant Sankt Nikolaj,55.678301,12.582685,Scandinavian Restaurant
304,55.67836092933239,12.58137369869554,31,14,5844388f8d8e996767dc4dc2,Rio Temakeria,55.679268,12.580292,Asian Restaurant
305,55.67836092933239,12.58137369869554,31,15,4cb86766dd41a35d4f6bdaa0,Ved Ibrahim på Klubben,55.680428,12.580577,American Restaurant
306,55.67836092933239,12.58137369869554,31,16,5cc8802acb3fd20039901447,Nordic Noodle,55.679474,12.580832,Noodle House
307,55.67836092933239,12.58137369869554,31,17,4adcdafff964a520465e21e3,Kong Hans Kælder,55.678759525964274,12.584101680066615,French Restaurant
308,55.67836092933239,12.58137369869554,31,18,5006cca6e4b0c0c243a6f630,Illums tagterrasse,55.679239681990104,12.579529140492943,Scandinavian Restaurant
309,55.67836092933239,12.58137369869554,31,19,593d2d1d8134885e463500a1,Pane & Vino,55.679392,12.581011,Italian Restaurant
310,55.67836092933239,12.58137369869554,31,20,4adcdafff964a520405e21e3,Los Flamencos,55.67787530302983,12.582823151490526,Spanish Restaurant
311,55.67836092933239,12.58137369869554,31,21,4d9f7f458e8f224bbd9ba556,Ali Baba Ocakbasi,55.677904,12.580448,Asian Restaurant
312,55.67836092933239,12.58137369869554,31,22,4f9997cde4b06e3db56e6de2,Ristorante Santoni,55.67848092402165,12.58215375779111,Italian Restaurant
313,55.67836092933239,12.58137369869554,31,23,5393541d498e6a4f5889538e,America's,55.678977398250055,12.580652225066542,American Restaurant
314,55.67836092933239,12.58137369869554,31,24,4c3b3451def90f474a85fd2d,Restaurant Vingården,55.678449,12.582215,Italian Restaurant
315,55.67836092933239,12.58137369869554,31,25,59e08e89cf72a06225fc81a0,Mosto,55.679571,12.581021,Italian Restaurant
316,55.67836092933239,12.58137369869554,31,26,579bebd6498e132675bdbecd,Admiralgade 26,55.67753409188626,12.582175354395412,Scandinavian Restaurant
317,55.67836092933239,12.58137369869554,31,27,4bca020f0687ef3bfc02dbcc,Skindbuksen,55.67966204235668,12.584626306443406,Scandinavian Restaurant
318,55.67836092933239,12.58137369869554,31,28,52cefcd511d22fb239cb02ff,Condesa,55.6777350250055,12.580577593735669,Mexican Restaurant
319,55.67836092933239,12.58137369869554,31,29,5681628a498ea7d855803770,Maio,55.67947035713406,12.579747794198887,Italian Restaurant
320,55.67836092933239,12.58137369869554,31,30,573772be498ede53d251fc81,The Market,55.68030006394093,12.581290095178838,Asian Restaurant
321,55.673839070667604,12.58137369869554,5,0,53a4403b498e6bfe18616bde,no.2,55.672512099323754,12.584334993254002,Scandinavian Restaurant
322,55.673839070667604,12.58137369869554,5,1,4adcdb00f964a520725e21e3,Søren K,55.673192413496864,12.582750375233038,Scandinavian Restaurant
323,55.673839070667604,12.58137369869554,5,2,4e5cafbee4cd6fcf27f2f5dd,Kantinen @ Skatteministeriet,55.67260364331316,12.584307934073534,Scandinavian Restaurant
324,55.673839070667604,12.58137369869554,5,3,5186556c498e00696fa2e318,Zyrup café,55.67505,12.58137,Scandinavian Restaurant
325,55.673839070667604,12.58137369869554,5,4,4fc9b6e0e4b0e0e7c299b38f,Food Court @ Jaya Jusco Tebrau City,55.67313766479492,12.582633972167969,Asian Restaurant
326,55.6761,12.595572727272728,12,0,593970f125fb7b1e2377e2a9,Restaurant Barr,55.677772164560984,12.596363716497915,Scandinavian Restaurant
327,55.6761,12.595572727272728,12,1,5b33dc2c7247500039d116a2,Undici,55.674923,12.594125,Italian Restaurant
328,55.6761,12.595572727272728,12,2,591c736b2f97ec58c017493b,Nærvær,55.67740562124506,12.5963785735765,Wine Bar
329,55.6761,12.595572727272728,12,3,572236b3498e9ddfa018cd6b,LaLaLa,55.67660375324254,12.595128481096605,French Restaurant
330,55.6761,12.595572727272728,12,4,4bc895258b7c9c746e6838cf,Christianshavns Færgecafé,55.67559842932219,12.592357968984716,Scandinavian Restaurant
331,55.6761,12.595572727272728,12,5,4adcdb00f964a5206d5e21e3,Restaurant Kanalen,55.675614,12.593046,Scandinavian Restaurant
332,55.6761,12.595572727272728,12,6,5af1d5080dd31f0024e3eabd,Mak-Cik,55.677925,12.596991,Malay Restaurant
333,55.6761,12.595572727272728,12,7,5d124ce72e173e002332deab,will at the bridge,55.678015,12.596967,Asian Restaurant
334,55.6761,12.595572727272728,12,8,512b8477e4b0386996929103,Mad Monday,55.67774630572999,12.596434357122673,Scandinavian Restaurant
335,55.6761,12.595572727272728,12,9,5d092f808b9fb100235b0aaa,Barabbino Pasta Station,55.677816,12.597535,Italian Restaurant
336,55.6761,12.595572727272728,12,10,5b05a71b8a6f17002c0dfd70,Grød,55.677967,12.596603,Food Stand
337,55.6761,12.595572727272728,12,11,5b2d0ced464d65002c9c3420,Chop Chop Kitchen,55.677521,12.595397,Chinese Restaurant
338,55.67836092933239,12.591589937668099,44,0,4d597d9f7e223704bbf7b173,Café & Restaurant Ofelia,55.679480683733026,12.594836637232167,French Restaurant
339,55.67836092933239,12.591589937668099,44,1,524b36e7498e3ff738466f83,The Standard,55.677667467537425,12.591752610739523,Scandinavian Restaurant
340,55.67836092933239,12.591589937668099,44,2,5b16c7bc2f97ec002cdea88d,Madenitaly,55.678394,12.5901,Italian Restaurant
341,55.67836092933239,12.591589937668099,44,3,4ba93068f964a520c1123ae3,Sahil Restaurant,55.67697492367346,12.589555817130444,Indian Restaurant
342,55.67836092933239,12.591589937668099,44,4,4b573b7df964a5204d2c28e3,Hyttefadet,55.68019709990234,12.589617652743913,Scandinavian Restaurant
343,55.67836092933239,12.591589937668099,44,5,57936ae6498ea410bcdae751,Restaurant Kompasset,55.67939808907518,12.592342864491075,Scandinavian Restaurant
344,55.67836092933239,12.591589937668099,44,6,4bd2d01b77b29c7459638f82,Venezia Italian Restaurant,55.680161451170235,12.590011037037304,Italian Restaurant
345,55.67836092933239,12.591589937668099,44,7,4dbed5276a23a3c473adc645,Gorm's,55.67989505254606,12.590162933467749,Italian Restaurant
346,55.67836092933239,12.591589937668099,44,8,5253faf9498e5f6e4a916c02,Almanak,55.67777550217731,12.591822465977268,Scandinavian Restaurant
347,55.67836092933239,12.591589937668099,44,9,4f5139fbe4b0d9ab7922315a,Karma Sushi,55.67786808909263,12.589079382517712,Sushi Restaurant
348,55.67836092933239,12.591589937668099,44,10,5b05bcd8c9a517002cdc98be,l’Alba Trattoria,55.678388,12.589615,Italian Restaurant
349,55.67836092933239,12.591589937668099,44,11,4b1bf7c8f964a520d6ff23e3,Tony's,55.67799490801001,12.591835056213808,Italian Restaurant
350,55.67836092933239,12.591589937668099,44,12,4b86ba87f964a520379931e3,Damindra,55.67876721240542,12.590726320008645,Japanese Restaurant
351,55.67836092933239,12.591589937668099,44,13,4b8690c0f964a520d08f31e3,La Sirene,55.679588867213425,12.59164745922887,Italian Restaurant
352,55.67836092933239,12.591589937668099,44,14,570fce0f498e6af5796911de,KOKS,55.67812261480274,12.592340709703846,Scandinavian Restaurant
353,55.67836092933239,12.591589937668099,44,15,5bc2364773fe25002cb9eed1,Mission,55.677996,12.592269,Mediterranean Restaurant
354,55.67836092933239,12.591589937668099,44,16,4c6ebf2d6af58cfa99388d17,Sushi Style,55.68002701666668,12.591841,Japanese Restaurant
355,55.67836092933239,12.591589937668099,44,17,56d72f6c498e59fbb3d73493,Wannisa,55.680066,12.591643,Asian Restaurant
356,55.67836092933239,12.591589937668099,44,18,4b18233af964a52090cd23e3,Tango y Vinos,55.67907827790403,12.58966244897826,Wine Bar
357,55.67836092933239,12.591589937668099,44,19,538f5fea498e701ad78a8c84,"Tony""s",55.67745384802852,12.590187050808956,Italian Restaurant
358,55.67836092933239,12.591589937668099,44,20,51b21bd0498e228948f10788,Tonys,55.678006399250286,12.591709607796297,Italian Restaurant
359,55.67836092933239,12.591589937668099,44,21,51c8a23c498e8a3a7dc93ea3,Dong Yuan,55.678417,12.58984,Asian Restaurant
360,55.67836092933239,12.591589937668099,44,22,4b686feef964a52099782be3,Thai Asien Take Away,55.678434,12.590414,Thai Restaurant
361,55.67836092933239,12.591589937668099,44,23,55410850498e069aa8d497d1,wanissa thai,55.680117,12.591677,Thai Restaurant
362,55.67836092933239,12.591589937668099,44,24,59e8d4dcf96b2c78d4fc0537,Teatro Del Gusto,55.678485,12.59004,Italian Restaurant
363,55.67836092933239,12.591589937668099,44,25,4bf53d1694af2d7ff5713b72,Nyhavn 37,55.67996144124873,12.590440557966234,Scandinavian Restaurant
364,55.67836092933239,12.591589937668099,44,26,501440e4e4b080ff6b5b544c,Øl & Grill,55.679924,12.590836,Scandinavian Restaurant
365,55.67836092933239,12.591589937668099,44,27,4bcdeeb6937ca5939399ad92,Ebisu,55.677935,12.592177,Sushi Restaurant
366,55.67836092933239,12.591589937668099,44,28,4adcdb01f964a5207e5e21e3,Himalaya,55.679106,12.589326,Asian Restaurant
367,55.67836092933239,12.591589937668099,44,29,4c262e48136d20a1b3cfe461,Saga Queen,55.676486,12.589758,Scandinavian Restaurant
368,55.67836092933239,12.591589937668099,44,30,4dc195a3d22da01533531a5b,Ol & Grill,55.679862,12.590633,Italian Restaurant
369,55.67836092933239,12.591589937668099,44,31,4b87ff7ff964a520d1d731e3,Gasten & Galionen,55.68025099314723,12.589475216511415,Scandinavian Restaurant
370,55.67836092933239,12.591589937668099,44,32,4adcdb00f964a5206e5e21e3,1. th.,55.67909069404065,12.589725852012634,Scandinavian Restaurant
371,55.67836092933239,12.591589937668099,44,33,4adcdb00f964a5205d5e21e3,Restaurant Havfruen,55.67999306023292,12.590580342023486,Seafood Restaurant
372,55.67836092933239,12.591589937668099,44,34,5675b06d498e82a73188e49e,Møller Snaps og Smørrebrød,55.679984757914546,12.591409278710854,Scandinavian Restaurant
373,55.67836092933239,12.591589937668099,44,35,5c921922f4b525002c67d81e,Cholon By Lâm Lê,55.678074,12.588548,Asian Restaurant
374,55.67836092933239,12.591589937668099,44,36,4d8c95845091a1cde42c6301,Restaurant & Pizzeria Venezia,55.67979379422074,12.591282595862372,Italian Restaurant
375,55.67836092933239,12.591589937668099,44,37,5bd5a9575bc27d00250c2d9b,themission,55.678002,12.592215,Italian Restaurant
376,55.67836092933239,12.591589937668099,44,38,524f3f24498e13087d9906bf,Studio,55.678001611560134,12.59205100158383,Scandinavian Restaurant
377,55.67836092933239,12.591589937668099,44,39,4f6792fae4b09ff9bf559fab,Nyhavn Kroen,55.679872,12.591342,Scandinavian Restaurant
378,55.67836092933239,12.591589937668099,44,40,4c0e9e922466a593255c7921,Nyhavns Caféen,55.6800919437846,12.590166425091583,Café
379,55.67836092933239,12.591589937668099,44,41,4f91a637e4b0277c98f390c9,LEA @ Ebisu Popup Restaurant,55.67799347573399,12.592681509736227,Japanese Restaurant
380,55.67836092933239,12.591589937668099,44,42,581dd8fa0bf6c6651310f649,Sea by Kiin Kiin,55.67922932327034,12.593392786033236,Asian Restaurant
381,55.67836092933239,12.591589937668099,44,43,4f6894a5e4b0f8b5d4792439,Nyhavnskroen,55.67980701532681,12.591256671445397,Scandinavian Restaurant
382,55.673839070667604,12.591589937668099,25,0,5b33dc2c7247500039d116a2,Undici,55.674923,12.594125,Italian Restaurant
383,55.673839070667604,12.591589937668099,25,1,4bcacdf0b6c49c74ae2b9191,Tinos Pizzeria,55.67373642670748,12.59183357703505,Pizza Place
384,55.673839070667604,12.591589937668099,25,2,4bc895258b7c9c746e6838cf,Christianshavns Færgecafé,55.67559842932219,12.592357968984716,Scandinavian Restaurant
385,55.673839070667604,12.591589937668099,25,3,4adcdb00f964a5206d5e21e3,Restaurant Kanalen,55.675614,12.593046,Scandinavian Restaurant
386,55.673839070667604,12.591589937668099,25,4,4bcc94d40687ef3b0e7fdfcc,Asador,55.67230151734019,12.590555149256199,Steakhouse
387,55.673839070667604,12.591589937668099,25,5,5712af7ecd10230b69e8c5bb,Rufino Osteria,55.673385870548145,12.588894367218018,Italian Restaurant
388,55.673839070667604,12.591589937668099,25,6,5c279568c876c8002cd8c473,Chutneys Street Food,55.672259,12.591427,Food Truck
389,55.673839070667604,12.591589937668099,25,7,53cab768498e7496ae266115,WOK,55.67200222805713,12.592299576602283,Thai Restaurant
390,55.673839070667604,12.591589937668099,25,8,5da758987bc9390007c834f9,dondo,55.673563,12.589588,Mexican Restaurant
391,55.673839070667604,12.591589937668099,25,9,4adcdb00f964a5204e5e21e3,Era Ora,55.67318938807584,12.591615855178706,Italian Restaurant
392,55.673839070667604,12.591589937668099,25,10,4adcdafcf964a5203d5d21e3,Luna's Diner,55.67402348633499,12.591463635703175,American Restaurant
393,55.673839070667604,12.591589937668099,25,11,4d02194258245481eb1a49ac,Chr. IV,55.673572,12.589005,Scandinavian Restaurant
394,55.673839070667604,12.591589937668099,25,12,4b714d18f964a5202a402de3,Christianshavns Smørrebrød,55.672031694672235,12.593940467702376,Scandinavian Restaurant
395,55.673839070667604,12.591589937668099,25,13,4b091d55f964a520481423e3,Hos Nicola,55.67329339658518,12.590316188275557,Italian Restaurant
396,55.673839070667604,12.591589937668099,25,14,4d430af632d5236ab0f7bda5,fabios,55.67431591554185,12.590473683507795,Italian Restaurant
397,55.673839070667604,12.591589937668099,25,15,4adcdafef964a5201a5e21e3,Cafe Wilder,55.67397131101246,12.591461494342724,Scandinavian Restaurant
398,55.673839070667604,12.591589937668099,25,16,5da75828bc2fec0008efd1c7,dondo,55.673644,12.589483,Mexican Restaurant
399,55.673839070667604,12.591589937668099,25,17,506f1177e4b05bc762ec346c,Green Mango,55.673451830331246,12.589470132656729,Thai Restaurant
400,55.673839070667604,12.591589937668099,25,18,4b8fe802f964a520b06833e3,Sushi Saiko,55.67338124041371,12.589585301538321,Sushi Restaurant
401,55.673839070667604,12.591589937668099,25,19,55cf6c01498e503bb2541be8,Long Feng,55.672123,12.592008,Chinese Restaurant
402,55.673839070667604,12.591589937668099,25,20,4ca35ea2554b236a5f112648,Letz Sushi,55.67335331016665,12.592257439065005,Sushi Restaurant
403,55.673839070667604,12.591589937668099,25,21,4caf678175ebb60ceafdbbad,Eraora,55.67269661496121,12.591472111447684,Italian Restaurant
404,55.673839070667604,12.591589937668099,25,22,523b3ad111d2a985a52602f8,Sankt Annæ 8 - Christians Havns nye mødested,55.67388,12.591284,Tapas Restaurant
405,55.673839070667604,12.591589937668099,25,23,50780141e4b069ffd6b4a0a4,Smørrebrød Køkken,55.673545463620734,12.58919199093778,Scandinavian Restaurant
406,55.673839070667604,12.591589937668099,25,24,5c55ce56492814002c32298a,Kato Sushi,55.673386,12.589481,Sushi Restaurant
407,55.67836092933239,12.599555516877357,19,0,593970f125fb7b1e2377e2a9,Restaurant Barr,55.677772164560984,12.596363716497915,Scandinavian Restaurant
408,55.67836092933239,12.599555516877357,19,1,591c736b2f97ec58c017493b,Nærvær,55.67740562124506,12.5963785735765,Wine Bar
409,55.67836092933239,12.599555516877357,19,2,5af1d5080dd31f0024e3eabd,Mak-Cik,55.677925,12.596991,Malay Restaurant
410,55.67836092933239,12.599555516877357,19,3,5d124ce72e173e002332deab,will at the bridge,55.678015,12.596967,Asian Restaurant
411,55.67836092933239,12.599555516877357,19,4,56ed53c9498e06e6370b19cc,Red China,55.679545501185224,12.598210251803668,Chinese Restaurant
412,55.67836092933239,12.599555516877357,19,5,512b8477e4b0386996929103,Mad Monday,55.67774630572999,12.596434357122673,Scandinavian Restaurant
413,55.67836092933239,12.599555516877357,19,6,56e44c3c498e0ee2d02e211a,Banzai Street Food,55.679614,12.59797,Sushi Restaurant
414,55.67836092933239,12.599555516877357,19,7,59e75cab3ba767222d5d14bf,Made In Italy In Copenhagen Street Food,55.679443,12.598704,Italian Restaurant
415,55.67836092933239,12.599555516877357,19,8,59345b08e185f327ff378b57,Ok Thai,55.679379,12.598198,Thai Restaurant
416,55.67836092933239,12.599555516877357,19,9,5a1029c3491be7312029c9b1,INDIA,55.67963,12.598186,Indian Restaurant
417,55.67836092933239,12.599555516877357,19,10,594577b23b83074ee0585e24,Street Sushi,55.67976,12.598031,Sushi Restaurant
418,55.67836092933239,12.599555516877357,19,11,57dace21498e66debb7545c7,Marrakech,55.679721,12.597836,African Restaurant
419,55.67836092933239,12.599555516877357,19,12,58012259d67cdb43b82683db,Anatolia,55.679478,12.598289,Turkish Restaurant
420,55.67836092933239,12.599555516877357,19,13,57f67dcb498e65739fb0f07f,Chick Ko,55.679322,12.598389,Fried Chicken Joint
421,55.67836092933239,12.599555516877357,19,14,591b453ffe374054a69a4cfd,Brass,55.679424,12.598105,Modern European Restaurant
422,55.67836092933239,12.599555516877357,19,15,5900b9e1f870fd50c1d94078,Latienda,55.679605,12.598008,Vegetarian / Vegan Restaurant
423,55.67836092933239,12.599555516877357,19,16,55e1f4ac498e8cb6d39d6082,La Fattoria,55.679486492530295,12.598247694636216,Italian Restaurant
424,55.67836092933239,12.599555516877357,19,17,5d092f808b9fb100235b0aaa,Barabbino Pasta Station,55.677816,12.597535,Italian Restaurant
425,55.67836092933239,12.599555516877357,19,18,5b05a71b8a6f17002c0dfd70,Grød,55.677967,12.596603,Food Stand
426,55.673839070667604,12.599555516877357,3,0,553ce0dc498edbb294aca012,Cafeloppen,55.67360274945196,12.59674755063542,Thai Restaurant
427,55.673839070667604,12.599555516877357,3,1,5220cd67498e890d2d8acb8e,Banna,55.67347,12.596761,Thai Restaurant
428,55.673839070667604,12.599555516877357,3,2,595a133d65211f66de71585f,Mr. Shawarma,55.672923,12.599981,Middle Eastern Restaurant
429,55.686099999999996,12.559209090909091,31,0,56acb0c3498e6a949b1fad2c,Blue Taco,55.68785502109928,12.560017704963684,Taco Place
430,55.686099999999996,12.559209090909091,31,1,4adcdb00f964a520755e21e3,Thai Pan,55.68446744491092,12.55968697746557,Thai Restaurant
431,55.686099999999996,12.559209090909091,31,2,4b02f3b7f964a520584b22e3,Ranees,55.68656962559544,12.557311104986665,Thai Restaurant
432,55.686099999999996,12.559209090909091,31,3,4b99559af964a520ef7335e3,Kates Joint,55.6869874571621,12.558864222266653,Cajun / Creole Restaurant
433,55.686099999999996,12.559209090909091,31,4,4f355d20e4b0b9c4651e0c1d,Mijo,55.68748206170018,12.559636675064239,Scandinavian Restaurant
434,55.686099999999996,12.559209090909091,31,5,5bfae5a66f0aa2002c767b19,Poporoya,55.685345,12.557157,Sushi Restaurant
435,55.686099999999996,12.559209090909091,31,6,53dbcb0c498eb5711b0b9951,Send Flere Krydderier,55.68783379154799,12.559812774975198,Middle Eastern Restaurant
436,55.686099999999996,12.559209090909091,31,7,514e1bd6e4b069b90961bde9,Vin & Tapassalonen,55.686752339704306,12.562746683149111,Spanish Restaurant
437,55.686099999999996,12.559209090909091,31,8,517960f3e4b02bca948569aa,Bada Bing,55.6850253233253,12.556603861151938,Tapas Restaurant
438,55.686099999999996,12.559209090909091,31,9,597335852f97ec47337b9b86,Cafe Julia & Safija,55.687444,12.55941,Middle Eastern Restaurant
439,55.686099999999996,12.559209090909091,31,10,4c13dd1fa5eb76b05fbcc0b7,Sokrates Taverna,55.687123,12.559322,Greek Restaurant
440,55.686099999999996,12.559209090909091,31,11,535a7896498edf32b1107c69,Konya's grønne køkken,55.688085119138094,12.559868515960765,Turkish Restaurant
441,55.686099999999996,12.559209090909091,31,12,4f6e3165e4b0a4e210558a27,Tapasfabriken,55.68622351947073,12.559818322070225,Tapas Restaurant
442,55.686099999999996,12.559209090909091,31,13,5897669402b60e48cee5dbca,AAA Sushi,55.685381,12.557182,Sushi Restaurant
443,55.686099999999996,12.559209090909091,31,14,56b25c76498e6583282281d9,Blå Taco,55.68774383293758,12.559564289951311,Taco Place
444,55.686099999999996,12.559209090909091,31,15,4ba5327df964a52094ea38e3,SUN-SUSHI,55.685491749500535,12.55712628364563,Sushi Restaurant
445,55.686099999999996,12.559209090909091,31,16,4cb5d56b64998cfad2c910a2,Lotus House,55.687126287104554,12.56227644858399,Chinese Restaurant
446,55.686099999999996,12.559209090909091,31,17,4cd0c0983e63721e2726a0cc,Sheiken,55.687844,12.557499,Middle Eastern Restaurant
447,55.686099999999996,12.559209090909091,31,18,5665ccc3498ee423ee4b0142,Ramen & Beer,55.68521861554592,12.558619028931904,Ramen Restaurant
448,55.686099999999996,12.559209090909091,31,19,5af48d2f0868a200398d0385,Ahaaa - authentic Arabic cuisine,55.686623,12.558426,Middle Eastern Restaurant
449,55.686099999999996,12.559209090909091,31,20,4fbe8e92e4b06a0de5f2da36,zafran,55.687436053136544,12.559449893039687,Middle Eastern Restaurant
450,55.686099999999996,12.559209090909091,31,21,4b69c077f964a520e7b12be3,Blågårds Kebab,55.685713,12.557337,Middle Eastern Restaurant
451,55.686099999999996,12.559209090909091,31,22,51e6dd3d498e917609897f11,No.4 Tapas og & Vinbar,55.686844706167584,12.562038400783248,Spanish Restaurant
452,55.686099999999996,12.559209090909091,31,23,4bca0417511f952185caaec7,Ahaaa - Det Arabiske Madhus,55.686625920000004,12.558301,Middle Eastern Restaurant
453,55.686099999999996,12.559209090909091,31,24,5ce985763fcee8002c44a158,sasaa,55.687593,12.559692,African Restaurant
454,55.686099999999996,12.559209090909091,31,25,4fcce642e4b0ff719b8f1440,Sushione,55.6872,12.5615,Sushi Restaurant
455,55.686099999999996,12.559209090909091,31,26,4eeb3bc4722eaa76d96df1bf,Power/Renewables Julefrokost,55.685813903808594,12.555745124816895,Scandinavian Restaurant
456,55.686099999999996,12.559209090909091,31,27,57962352498ece84406e2d97,Curry Nation,55.687586,12.55953,Thai Restaurant
457,55.686099999999996,12.559209090909091,31,28,4d73cfc98e12b1f7ef454e05,Tapas-Fabrikken,55.686104959845665,12.557595744944244,Tapas Restaurant
458,55.686099999999996,12.559209090909091,31,29,5c76cdebbd4009002c8c9e14,Bao & Bar,55.68823,12.560111,Chinese Restaurant
459,55.686099999999996,12.559209090909091,31,30,53b42ea2498eeca9e2cb833b,BollyFood,55.68788624041115,12.559993312648468,Indian Restaurant
460,55.68836092933239,12.555225282876558,32,0,5662c4f0498e91cb498a0a8d,Ramen to Bíiru Nørrebro,55.687816,12.553991,Ramen Restaurant
461,55.68836092933239,12.555225282876558,32,1,58a1c11f0bc55b3d82502c77,Cicchetti,55.68986890567189,12.555854916572569,Italian Restaurant
462,55.68836092933239,12.555225282876558,32,2,51cc6f10498e8dcbb035b90f,Ma'ed Ethiopian Restaurant,55.68887166009474,12.555040031630787,African Restaurant
463,55.68836092933239,12.555225282876558,32,3,4ba3de63f964a5206d6838e3,Tandoori Masala,55.688625880063384,12.55890436735082,Indian Restaurant
464,55.68836092933239,12.555225282876558,32,4,4b02f3b7f964a520584b22e3,Ranees,55.68656962559544,12.557311104986665,Thai Restaurant
465,55.68836092933239,12.555225282876558,32,5,5f32eb9448c64a2e52059bda,Bar Pasta,55.688057,12.554485,Italian Restaurant
466,55.68836092933239,12.555225282876558,32,6,5c8feb88492822003a1ce6cc,Mahalle,55.689308,12.556503,Lebanese Restaurant
467,55.68836092933239,12.555225282876558,32,7,4bfd60768992a5936807acb0,B'india,55.68964122244561,12.55818119552092,Indian Restaurant
468,55.68836092933239,12.555225282876558,32,8,4b7433fcf964a520d5cc2de3,Selfish,55.68949659625369,12.558015295223806,Sushi Restaurant
469,55.68836092933239,12.555225282876558,32,9,4f4d0e9be4b051dc47fb6ba7,Mona Kebab,55.690024,12.555508,Middle Eastern Restaurant
470,55.68836092933239,12.555225282876558,32,10,5981969a002f4c1fde5b8b51,Brødrene Grim,55.689799,12.55589,Scandinavian Restaurant
471,55.68836092933239,12.555225282876558,32,11,54f974fe498e4c034e77fecf,P2 by Malbeck,55.68976930871129,12.558207681976313,Argentinian Restaurant
472,55.68836092933239,12.555225282876558,32,12,5e31c885b2d6f400081b597b,Colpo Grosso,55.68804,12.554416,Italian Restaurant
473,55.68836092933239,12.555225282876558,32,13,516438cfe4b02852ca45062b,Pastamania,55.689736345424585,12.557994778315772,Italian Restaurant
474,55.68836092933239,12.555225282876558,32,14,5f09eb74b650630d615616ea,Curry Box,55.689419,12.556731,Indian Restaurant
475,55.68836092933239,12.555225282876558,32,15,4b463487f964a520fb1926e3,Thai2You,55.68971764500728,12.558268478247516,Thai Restaurant
476,55.68836092933239,12.555225282876558,32,16,528f804b498ea8cd7f0d4283,Sushi Pro,55.68891534025857,12.558152572724525,Japanese Restaurant
477,55.68836092933239,12.555225282876558,32,17,51912f8e498e6e48d1b40fdf,Pasta Mania,55.68973326678353,12.558267609974,Italian Restaurant
478,55.68836092933239,12.555225282876558,32,18,5c041daed69ed0002ca57693,Koshari,55.688648,12.55834,African Restaurant
479,55.68836092933239,12.555225282876558,32,19,4b719933f964a52013502de3,Indian Corner,55.690231,12.554999,Indian Restaurant
480,55.68836092933239,12.555225282876558,32,20,50b7a704e4b0dc165f59db9c,Restaurant Kilimanjaro,55.68881,12.555112,African Restaurant
481,55.68836092933239,12.555225282876558,32,21,4d52bb81c305b60c597e9d1e,Salaania,55.688909,12.555008,African Restaurant
482,55.68836092933239,12.555225282876558,32,22,4c6c270e99b9236adfc5e1c9,Curry House,55.688499,12.554710179999999,Indian Restaurant
483,55.68836092933239,12.555225282876558,32,23,56c0996dcd10f62cdff05f90,zeit & zataar,55.688728,12.554902,Afghan Restaurant
484,55.68836092933239,12.555225282876558,32,24,4c4338e8d691c9b6616e8f0a,Ali Baba,55.688275,12.554302,Indian Restaurant
485,55.68836092933239,12.555225282876558,32,25,4cd0c0983e63721e2726a0cc,Sheiken,55.687844,12.557499,Middle Eastern Restaurant
486,55.68836092933239,12.555225282876558,32,26,5d8136d40e55f300089da010,Boungiorno,55.688292,12.554381,Italian Restaurant
487,55.68836092933239,12.555225282876558,32,27,4c0b0fedffb8c9b603c66c61,Amigo's Pizza & Shawarma,55.690435311183236,12.554832310526274,Pizza Place
488,55.68836092933239,12.555225282876558,32,28,5298cce1498e5448f442800f,Cofoco Le Marche,55.69043892467045,12.554795430702798,French Restaurant
489,55.68836092933239,12.555225282876558,32,29,4b4e0c24f964a52080df26e3,Tex-Mex,55.688894,12.554487,Mexican Restaurant
490,55.68836092933239,12.555225282876558,32,30,5dc6cbb466d0440008fb9ae9,Hidmona Eritrean restaurant,55.688831,12.555091,African Restaurant
491,55.68836092933239,12.555225282876558,32,31,4bfd6751b68d0f47c7bbe857,Go Away,55.688083,12.553996,African Restaurant
492,55.6838390706676,12.555225282876558,27,0,4af1d0b4f964a5206ee321e3,Nyu Sakura,55.68431275076965,12.551541758123607,Sushi Restaurant
493,55.6838390706676,12.555225282876558,27,1,4ce6ab220f196dcb7a0539ae,Akropolis,55.684360731915014,12.551576814494705,Greek Restaurant
494,55.6838390706676,12.555225282876558,27,2,5e28356e4cfd6300087ce288,la pausa,55.682768,12.557927,Corporate Cafeteria
495,55.6838390706676,12.555225282876558,27,3,551c3fdf498e7ada62b9a065,O Tempo,55.68315731167617,12.555858226331857,Brazilian Restaurant
496,55.6838390706676,12.555225282876558,27,4,4e610751ae60e9edf5208be1,Radio,55.681958,12.554138,Scandinavian Restaurant
497,55.6838390706676,12.555225282876558,27,5,4b92a929f964a520d10e34e3,Chun Bo,55.68464338495692,12.55353772134898,Chinese Restaurant
498,55.6838390706676,12.555225282876558,27,6,5bfae5a66f0aa2002c767b19,Poporoya,55.685345,12.557157,Sushi Restaurant
499,55.6838390706676,12.555225282876558,27,7,594ffec1a2a6ce201900c067,Anas,55.684814,12.551781,Indian Restaurant
500,55.6838390706676,12.555225282876558,27,8,517960f3e4b02bca948569aa,Bada Bing,55.6850253233253,12.556603861151938,Tapas Restaurant
501,55.6838390706676,12.555225282876558,27,9,4cdd7b906ad1a0934bbaf756,Madsynergi,55.683263510776165,12.555891916112177,French Restaurant
502,55.6838390706676,12.555225282876558,27,10,5f3fdfb4a31bc16d0117d0ea,Eatalian,55.683070873443924,12.555972933769226,Italian Restaurant
503,55.6838390706676,12.555225282876558,27,11,5124fa81e4b04c1a0e6cc7db,La Giara,55.68332976247247,12.5558532037226,Italian Restaurant
504,55.6838390706676,12.555225282876558,27,12,504ddd9fe4b0c9f22031a0ad,Temporada Tapasbodega,55.684689417256536,12.554496595627269,Tapas Restaurant
505,55.6838390706676,12.555225282876558,27,13,5309fb4d498e76c00076f21f,Liban Cuisine,55.68524314361995,12.55300333911784,Middle Eastern Restaurant
506,55.6838390706676,12.555225282876558,27,14,4c74403f3adda143ee1d04af,Hos Pæren,55.68473,12.554547,Italian Restaurant
507,55.6838390706676,12.555225282876558,27,15,5897669402b60e48cee5dbca,AAA Sushi,55.685381,12.557182,Sushi Restaurant
508,55.6838390706676,12.555225282876558,27,16,4ba5327df964a52094ea38e3,SUN-SUSHI,55.685491749500535,12.55712628364563,Sushi Restaurant
509,55.6838390706676,12.555225282876558,27,17,4e3bf93d18a83d5b282f1817,Govinda Vegetar Take-Away,55.68271702891325,12.556385993957518,Vegetarian / Vegan Restaurant
510,55.6838390706676,12.555225282876558,27,18,5415c938498e6b1091fd1536,Casserole,55.683543,12.555993,Scandinavian Restaurant
511,55.6838390706676,12.555225282876558,27,19,5d9ccb5f69e2f90008bbaecd,Men-O Ramen,55.685118,12.552406,Ramen Restaurant
512,55.6838390706676,12.555225282876558,27,20,4e4d4708c65bba8554da8759,Miao Running Sushi,55.68497671302415,12.552862480994039,Sushi Restaurant
513,55.6838390706676,12.555225282876558,27,21,5e63e205318c1c0008a16c3c,Kami Sushi,55.684673,12.553327,Sushi Restaurant
514,55.6838390706676,12.555225282876558,27,22,4b69c077f964a520e7b12be3,Blågårds Kebab,55.685713,12.557337,Middle Eastern Restaurant
515,55.6838390706676,12.555225282876558,27,23,51e9793f498e642211bc3b1d,CC Restaurant,55.68481976103203,12.552962618786692,Sushi Restaurant
516,55.6838390706676,12.555225282876558,27,24,5e63e11e0dc95000085c96e3,Kami Sushi,55.68472,12.553513,Sushi Restaurant
517,55.6838390706676,12.555225282876558,27,25,4eeb3bc4722eaa76d96df1bf,Power/Renewables Julefrokost,55.685813903808594,12.555745124816895,Scandinavian Restaurant
518,55.6838390706676,12.555225282876558,27,26,4b842666f964a520f02331e3,Græsk,55.684226,12.551512,Greek Restaurant
519,55.68836092933239,12.563192898941624,29,0,54948499498edf459c975030,Alabama Social,55.687839483847426,12.563157695496509,Southern / Soul Food Restaurant
520,55.68836092933239,12.563192898941624,29,1,595364bdc824ae7396b4f3f9,La Neta Nørrebro,55.68845492871642,12.559235148844687,Taco Place
521,55.68836092933239,12.563192898941624,29,2,56acb0c3498e6a949b1fad2c,Blue Taco,55.68785502109928,12.560017704963684,Taco Place
522,55.68836092933239,12.563192898941624,29,3,563f32a8cd10e2a28c0b21bf,Feed Bistro,55.68877410888672,12.559603691101074,Modern European Restaurant
523,55.68836092933239,12.563192898941624,29,4,4dd3fa1fe4cd6154148b7f33,Kung Fu II,55.68884498928701,12.56253030844842,Japanese Restaurant
524,55.68836092933239,12.563192898941624,29,5,4f355d20e4b0b9c4651e0c1d,Mijo,55.68748206170018,12.559636675064239,Scandinavian Restaurant
525,55.68836092933239,12.563192898941624,29,6,5baa59a5625a66002c8b472d,B/rW,55.689046,12.559894,Ramen Restaurant
526,55.68836092933239,12.563192898941624,29,7,53dbcb0c498eb5711b0b9951,Send Flere Krydderier,55.68783379154799,12.559812774975198,Middle Eastern Restaurant
527,55.68836092933239,12.563192898941624,29,8,5d1ba771e324520023495575,Osteria 16 Nørrebro,55.688714,12.562178,Italian Restaurant
528,55.68836092933239,12.563192898941624,29,9,514e1bd6e4b069b90961bde9,Vin & Tapassalonen,55.686752339704306,12.562746683149111,Spanish Restaurant
529,55.68836092933239,12.563192898941624,29,10,55898a5d498ed813e371bec2,Strö,55.689038,12.56074,Modern European Restaurant
530,55.68836092933239,12.563192898941624,29,11,4b2e924bf964a520b9e224e3,Thai 4 You,55.68977850914993,12.56026266323457,Thai Restaurant
531,55.68836092933239,12.563192898941624,29,12,535a7896498edf32b1107c69,Konya's grønne køkken,55.688085119138094,12.559868515960765,Turkish Restaurant
532,55.68836092933239,12.563192898941624,29,13,56b25c76498e6583282281d9,Blå Taco,55.68774383293758,12.559564289951311,Taco Place
533,55.68836092933239,12.563192898941624,29,14,532c495c498e62bb67bb9832,vin whisky røg,55.688674580955045,12.561908013911058,Tapas Restaurant
534,55.68836092933239,12.563192898941624,29,15,4cb5d56b64998cfad2c910a2,Lotus House,55.687126287104554,12.56227644858399,Chinese Restaurant
535,55.68836092933239,12.563192898941624,29,16,57b6faff498e379b1ed7d153,Konyalı,55.68827,12.560265,Turkish Restaurant
536,55.68836092933239,12.563192898941624,29,17,51e6dd3d498e917609897f11,No.4 Tapas og & Vinbar,55.686844706167584,12.562038400783248,Spanish Restaurant
537,55.68836092933239,12.563192898941624,29,18,5ce985763fcee8002c44a158,sasaa,55.687593,12.559692,African Restaurant
538,55.68836092933239,12.563192898941624,29,19,4fcce642e4b0ff719b8f1440,Sushione,55.6872,12.5615,Sushi Restaurant
539,55.68836092933239,12.563192898941624,29,20,4adcdb00f964a520565e21e3,Den Iranske Forening,55.68853527042342,12.559532097712466,Middle Eastern Restaurant
540,55.68836092933239,12.563192898941624,29,21,57962352498ece84406e2d97,Curry Nation,55.687586,12.55953,Thai Restaurant
541,55.68836092933239,12.563192898941624,29,22,544690af498e6255f19cef04,Hanzo,55.687921997176815,12.563265412656076,Asian Restaurant
542,55.68836092933239,12.563192898941624,29,23,5f2992f41007ac701a2c2ec2,Roberta,55.687862,12.563058,Mexican Restaurant
543,55.68836092933239,12.563192898941624,29,24,5d8e3ad6b3712800081f53c3,Phago,55.689358,12.560112,Mediterranean Restaurant
544,55.68836092933239,12.563192898941624,29,25,5c76cdebbd4009002c8c9e14,Bao & Bar,55.68823,12.560111,Chinese Restaurant
545,55.68836092933239,12.563192898941624,29,26,57927884498e5f2812f29cc8,Cock's and Cows,55.688793620366766,12.562445443909457,Burger Joint
546,55.68836092933239,12.563192898941624,29,27,53b42ea2498eeca9e2cb833b,BollyFood,55.68788624041115,12.559993312648468,Indian Restaurant
547,55.68836092933239,12.563192898941624,29,28,4c07fa8f7e3fc9289696ef82,Philoxenia,55.689056,12.562713,Greek Restaurant
548,55.6838390706676,12.563192898941624,12,0,4bb3677f35f0c9b6374dbc83,Pintxos,55.684478765678584,12.566256717079414,Spanish Restaurant
549,55.6838390706676,12.563192898941624,12,1,509bbd8fe4b0eaba8f37f375,Høst,55.683279,12.566076,Scandinavian Restaurant
550,55.6838390706676,12.563192898941624,12,2,4ba7a63cf964a52017a639e3,La Rocca,55.684772618319414,12.566252020629241,Italian Restaurant
551,55.6838390706676,12.563192898941624,12,3,4d78895c0ddba35d56334276,Sticks'n'Sushi,55.684364,12.565891,Sushi Restaurant
552,55.6838390706676,12.563192898941624,12,4,4adcdb00f964a520755e21e3,Thai Pan,55.68446744491092,12.55968697746557,Thai Restaurant
553,55.6838390706676,12.563192898941624,12,5,51a76eac498ea221c004c733,Jacob's Pizza,55.68450864661153,12.56695600403958,Italian Restaurant
554,55.6838390706676,12.563192898941624,12,6,4d1e15785acaa35dd8d2b335,Nicholas & Alexandra,55.68338871002197,12.56612241268158,Swiss Restaurant
555,55.6838390706676,12.563192898941624,12,7,4af489d6f964a520a1f321e3,Thaiaway,55.68300006924165,12.564474577852428,Thai Restaurant
556,55.6838390706676,12.563192898941624,12,8,55df391e498e4df3541bf2a1,Il Tagliere,55.684452056884766,12.563922882080078,Italian Restaurant
557,55.6838390706676,12.563192898941624,12,9,4d08b9dc05216dcbcc8d1cb6,Nice,55.68374586239452,12.565459444505018,Café
558,55.6838390706676,12.563192898941624,12,10,5807aaddd67c88709a852acb,madøre,55.6825175,12.5642185,Comfort Food Restaurant
559,55.6838390706676,12.563192898941624,12,11,5b3d0d3e237dee002c633987,Mahalle,55.68378,12.565599,Lebanese Restaurant
