,lat_centre,long_centre,num_venues,venue_iter,venue_id,venue_name,lat_venue,long_venue,category
0,55.616099999999996,12.486481818181819,1,0,4db335d9fa8c350240c8b818,Ye Sushi,55.615524,12.489674,Sushi Restaurant
1,55.626099999999994,12.504663636363638,1,0,57bdd8b7498e301946e513eb,Susets Køkken,55.625244,12.497041,Scandinavian Restaurant
2,55.626099999999994,12.57739090909091,13,0,58989dd48ae3633850c09651,South Indian,55.630035,12.5779705,Indian Restaurant
3,55.626099999999994,12.57739090909091,13,1,4b631ba5f964a52092632ae3,The American Restaurant & Diner,55.62998395877257,12.57802083776939,American Restaurant
4,55.626099999999994,12.57739090909091,13,2,4ce7cb859f776ea8a7055a22,Chili Shawarma,55.6300297996928,12.57701498133119,Fast Food Restaurant
5,55.626099999999994,12.57739090909091,13,3,5ddbc1118178a700085aa2ad,Cafe Wok,55.630198,12.577622,Asian Restaurant
6,55.626099999999994,12.57739090909091,13,4,4d0b5d37d823b1f7d7eae85c,Café La Vento,55.629994993532044,12.578091447219153,American Restaurant
7,55.626099999999994,12.57739090909091,13,5,4c8f99fddaa937048f1f56b1,Nachos Mexican Restaurant,55.63009484241051,12.578272909136018,Mexican Restaurant
8,55.626099999999994,12.57739090909091,13,6,4bf2c9f320960f47d9a76e2f,STORM Restaurant,55.62685184043494,12.57684792034416,Scandinavian Restaurant
9,55.626099999999994,12.57739090909091,13,7,4c7bd8983badb1f7d0085654,Sushi Bar,55.63016969862762,12.57829171679973,Asian Restaurant
10,55.626099999999994,12.57739090909091,13,8,5a6389113fcee8601a23d676,Mosaik,55.63008,12.577062,Mediterranean Restaurant
11,55.626099999999994,12.57739090909091,13,9,56b628f1498ecb17d343f043,Mediterranean Kitchen,55.629571,12.578478,Mediterranean Restaurant
12,55.626099999999994,12.57739090909091,13,10,5d4dc43961835c00086bdd22,Cyprus,55.630232,12.57757,Greek Restaurant
13,55.626099999999994,12.57739090909091,13,11,58a08e8434935555b0ba78f7,Sushibar,55.629938,12.577985,Sushi Restaurant
14,55.626099999999994,12.57739090909091,13,12,4be2bd19d27a20a1b72f905b,Milano Restaurant,55.63002370141675,12.577994570587915,Italian Restaurant
15,55.626099999999994,12.631936363636363,1,0,4c87ced42a1f6dcb3b0bc5ee,Bella Italia,55.62472362041102,12.624860853571866,Italian Restaurant
16,55.626099999999994,12.650118181818183,16,0,58170aaf38facd634cab1c2a,O'Learys,55.629178746684005,12.644899632029697,American Restaurant
17,55.626099999999994,12.650118181818183,16,1,4ba201f9f964a5201bd637e3,O'Learys,55.62872885797924,12.644893527030947,American Restaurant
18,55.626099999999994,12.650118181818183,16,2,554b3488498e23b054ceea83,Aamans,55.62843206391254,12.647377252578735,Scandinavian Restaurant
19,55.626099999999994,12.650118181818183,16,3,4b74deb5f964a5200ff62de3,Prego,55.62827324497232,12.648633083849967,Italian Restaurant
20,55.626099999999994,12.650118181818183,16,4,50531c0ae4b0e7a976a9c6cb,Nordic Dining,55.628428,12.647164,Scandinavian Restaurant
21,55.626099999999994,12.650118181818183,16,5,51ebfddb498e1f30b5b9542c,YamYam,55.62930982151598,12.644867993751028,Asian Restaurant
22,55.626099999999994,12.650118181818183,16,6,5c4fec400d173f002caef6b9,Smørrebrød,55.62829,12.647759,Scandinavian Restaurant
23,55.626099999999994,12.650118181818183,16,7,54f4a3cb498ef304a8cfcd37,Yo! Sushi,55.628295534948606,12.648885620337177,Sushi Restaurant
24,55.626099999999994,12.650118181818183,16,8,4e9eeb4530f8fb67761fff05,The Sportsbar,55.6286999270566,12.645211004706656,American Restaurant
25,55.626099999999994,12.650118181818183,16,9,5b2f59000d8a0f002c65a609,Wok,55.629012,12.6471,Thai Restaurant
26,55.626099999999994,12.650118181818183,16,10,580b9ad638fa2adcc2a22550,Paté Paté,55.62853469929503,12.649223925202847,Tapas Restaurant
27,55.626099999999994,12.650118181818183,16,11,4b1004c4f964a520896723e3,Yam Yam To Go,55.62831705649023,12.648912551189703,Chinese Restaurant
28,55.626099999999994,12.650118181818183,16,12,5b6177e9029a55002c4a7016,Tapa del Toro,55.628641,12.644333,Tapas Restaurant
29,55.626099999999994,12.650118181818183,16,13,5b61495d535d6f002c1509b2,Lêlê Street Kitchen,55.62872431522983,12.644115686416626,Vietnamese Restaurant
30,55.626099999999994,12.650118181818183,16,14,537f4b3d498eb6fba388633a,Balik Sushi,55.628313,12.649106,Sushi Restaurant
31,55.626099999999994,12.650118181818183,16,15,4e4a839662847afcaf16cd7f,Italian Casual Dining,55.628300868267274,12.648632526397705,Italian Restaurant
32,55.6361,12.486481818181819,7,0,55d8a1cd498ecc02598368b6,Absolut Sushi,55.631887,12.489195,Sushi Restaurant
33,55.6361,12.486481818181819,7,1,4c9c925b03133704582756d5,Pang's Smørrebrød,55.637142,12.479485,Scandinavian Restaurant
34,55.6361,12.486481818181819,7,2,4c7a8c66bd346dcb7cbdf8ef,China Vietnam House,55.63193195257678,12.488776357172206,Chinese Restaurant
35,55.6361,12.486481818181819,7,3,4b93f61cf964a520215d34e3,thai king,55.6369696611075,12.480192269833474,Thai Restaurant
36,55.6361,12.486481818181819,7,4,5aad4b8b0868a22591ffbd2a,yoki sushi,55.637223,12.479904,Sushi Restaurant
37,55.6361,12.486481818181819,7,5,4c83c4ed2f1c236aa68e4543,Soya Sushi,55.63206402436178,12.489297396607407,Japanese Restaurant
38,55.6361,12.486481818181819,7,6,4e81ab52be7b86178ef4c94c,Hot & Cool,55.637384025416985,12.479944800299046,Middle Eastern Restaurant
39,55.6361,12.541027272727273,3,0,570673c4498e043316f28f97,Tutten på Mellemfortet,55.637768,12.542639,Scandinavian Restaurant
40,55.6361,12.541027272727273,3,1,4caf9d79f2dbef3b70c278e5,Havnens Grill og Pizzaria,55.639866,12.540376,Middle Eastern Restaurant
41,55.6361,12.541027272727273,3,2,500842acc84c614d5a86a889,Havnens kebab,55.63843702437898,12.542309761047363,Middle Eastern Restaurant
42,55.6361,12.57739090909091,4,0,4fe385b0e4b0f20130e7310d,Rasoi - Indian Cuisine,55.635164804198965,12.581954532643149,Indian Restaurant
43,55.6361,12.57739090909091,4,1,5a2ae05e86bc490bd23f93b1,El Mirador,55.63529,12.582255,Argentinian Restaurant
44,55.6361,12.57739090909091,4,2,4f453308e4b0e16ae5d23358,Library Restaurant,55.639708658375646,12.577843666076658,Scandinavian Restaurant
45,55.6361,12.57739090909091,4,3,4e456dc7183849317e68034c,Visa Sushi,55.63284274154213,12.579794918287117,Sushi Restaurant
46,55.6361,12.595572727272728,1,0,4b7c0244f964a5204b782fe3,Dino's Pizza,55.638945682931094,12.598958015441895,Fast Food Restaurant
47,55.6361,12.613754545454546,3,0,566db462498e14f3577123a7,WildNWok,55.636462,12.618954,Thai Restaurant
48,55.6361,12.613754545454546,3,1,5279f8e611d222d932741ef9,"Øens Smørrebrød, Kastrup",55.635333,12.620041,Turkish Restaurant
49,55.6361,12.613754545454546,3,2,536fa3fe498e33148e1c70c2,Yan Yan,55.63560887550997,12.613659708942329,Chinese Restaurant
50,55.6361,12.631936363636363,8,0,5ecbe71c9b825400080cc2b4,Yokoso Sushi & Sticks,55.637408,12.635659,Sushi Restaurant
51,55.6361,12.631936363636363,8,1,4ebd58fd8b81967ad1e38f25,Ye Sushi,55.63830824819087,12.635313918015132,Sushi Restaurant
52,55.6361,12.631936363636363,8,2,4d30696b789a8cfacaf52ec6,Skottegårdens Slagter,55.637636,12.633346,Scandinavian Restaurant
53,55.6361,12.631936363636363,8,3,5125079be4b008f7beeab34f,Kineseren,55.635949,12.635088,Chinese Restaurant
54,55.6361,12.631936363636363,8,4,534823d6498e314c6e2bc8cf,Thai take away,55.635202,12.636019,Thai Restaurant
55,55.6361,12.631936363636363,8,5,4cc9b9575c17b60c43ef0a05,Da Massimo Pizza,55.635124347237465,12.635868518336288,Italian Restaurant
56,55.6361,12.631936363636363,8,6,5eb97c7471e55c0008216c06,yokoso sushi,55.63727,12.634919,Sushi Restaurant
57,55.6361,12.631936363636363,8,7,52b7048c498edd84a6fbf7d1,Thai-Takeaway,55.63536920499317,12.635751204819094,Thai Restaurant
58,55.6361,12.650118181818183,2,0,4bba1eef1261d13a3a40ea98,Kystens Perle,55.63659133305836,12.654322689610604,Scandinavian Restaurant
59,55.6361,12.650118181818183,2,1,5e84bb67d5000e0008d96dc4,Kastrup Smørrebrød,55.6356638108127,12.642916738986967,Scandinavian Restaurant
60,55.6461,12.522845454545456,1,0,5db3463bc827c20008d7985f,Hana Sushi,55.648242,12.526912,Sushi Restaurant
61,55.6461,12.541027272727273,1,0,4c97bd6c72dd224bc819b791,Barrafina,55.649384,12.543489,Spanish Restaurant
62,55.6461,12.559209090909091,2,0,5ceeae94471d6e002ceb3601,OISHI Sushi,55.649456,12.554551,Sushi Restaurant
63,55.6461,12.559209090909091,2,1,57403a28498e139048fa247f,Sjøbeck øl & vand,55.644431,12.553064,Scandinavian Restaurant
64,55.6461,12.613754545454546,9,0,55578fe4498e636be9127e66,Jasmin Rice,55.649906813378635,12.612510562417555,Thai Restaurant
65,55.6461,12.613754545454546,9,1,54a3d1ee498ebb025f5f35b3,Vi Viet,55.644759,12.615159,Vietnamese Restaurant
66,55.6461,12.613754545454546,9,2,4fc7965de4b02d1d47d05cdf,Tandoori Kebab & Grill,55.64880862167018,12.613289792951184,Indian Restaurant
67,55.6461,12.613754545454546,9,3,4fa2c744e4b0e8e3877ab5fb,Sundby Grill & Pizza,55.646214,12.613733,Chinese Restaurant
68,55.6461,12.613754545454546,9,4,4b8818f2f964a52093df31e3,Den kinesiske mur,55.64544184709592,12.615031446657293,Chinese Restaurant
69,55.6461,12.613754545454546,9,5,542fed8e498efd2e4b5512db,Sweetbites,55.648825,12.613257,Filipino Restaurant
70,55.6461,12.613754545454546,9,6,4c43240ccc410f470cbdad61,Bombay Spicy,55.644022,12.615388,Indian Restaurant
71,55.6461,12.613754545454546,9,7,4c39950aae2da593c5c902c6,Svigermekanikken,55.645845282525606,12.60935406203193,German Restaurant
72,55.6461,12.613754545454546,9,8,58cd4a0bef46946d744f366e,restaurant filini,55.643628,12.610499,Italian Restaurant
73,55.656099999999995,12.468300000000001,2,0,5b5b3d0db8fd9d002ca027f4,indis,55.653289,12.47426,Indian Restaurant
74,55.656099999999995,12.468300000000001,2,1,4c068d4a0e0a2d7f98feeb0c,Dong-Fang,55.657703672638995,12.473236852094306,Chinese Restaurant
75,55.656099999999995,12.504663636363638,2,0,4c5ed8b07f661b8d37154f1c,"Restaurant Saigon, Valby",55.65205269590799,12.502708818228783,Vietnamese Restaurant
76,55.656099999999995,12.504663636363638,2,1,50c4c1b8e4b0eaecd8efa3f6,Butt's Underground Kitchen,55.65362442060439,12.510427483749007,Indian Restaurant
77,55.656099999999995,12.522845454545456,2,0,4f86a96ee4b02900b7434e61,Sag Kantine,55.656357,12.524269,Scandinavian Restaurant
78,55.656099999999995,12.522845454545456,2,1,583092ae03cf2531661c9eef,Asian Palace,55.652683,12.52057,Asian Restaurant
79,55.656099999999995,12.541027272727273,3,0,4ccadde59b9346885f4c5141,Al Salam Slagter,55.653313,12.538462,Middle Eastern Restaurant
80,55.656099999999995,12.541027272727273,3,1,4bae4e47f964a52057a03be3,Desi Corner,55.652838083972334,12.538846081507993,Indian Restaurant
81,55.656099999999995,12.541027272727273,3,2,59c8bff9ee628b11a11eb5cc,Frøken Basses Smørrebrød,55.65663,12.537854,Scandinavian Restaurant
82,55.656099999999995,12.559209090909091,3,0,5e34627ce703ea000710a28b,wami sushi,55.657258,12.566639,Sushi Restaurant
83,55.656099999999995,12.559209090909091,3,1,4dfa3874a809fe774224193e,Cofoco Le Marché,55.65729127628374,12.566570352390347,Italian Restaurant
84,55.656099999999995,12.559209090909091,3,2,4e01fc56e4cd338f2d49b6cd,Scarpetta,55.65733200393559,12.566680064674035,Italian Restaurant
85,55.656099999999995,12.595572727272728,1,0,50bf160c7ab4cbefb2fd4837,Nyhederne Julefrokost,55.658766110595344,12.589194774627686,Scandinavian Restaurant
86,55.656099999999995,12.613754545454546,39,0,52d4297d498ef6252888963c,Bone's,55.65729601944663,12.608620371500246,American Restaurant
87,55.656099999999995,12.613754545454546,39,1,589b430211742023ebf616e5,Toto Vin & Spisebar,55.65580479929568,12.60965732257966,Wine Bar
88,55.656099999999995,12.613754545454546,39,2,5e233267b840800008489843,B’INDIA,55.656405,12.609115,Indian Restaurant
89,55.656099999999995,12.613754545454546,39,3,588a506765be58175b724edd,Kasai Sushi,55.652874,12.61178,Sushi Restaurant
90,55.656099999999995,12.613754545454546,39,4,4b71a792f964a520f4532de3,Il Gambero Rosso,55.653709402400516,12.610987671722299,Italian Restaurant
91,55.656099999999995,12.613754545454546,39,5,5a317cfd005ac129b777517b,Amager Gyouza,55.65817,12.608387,Japanese Restaurant
92,55.656099999999995,12.613754545454546,39,6,5e9c8fc5bfc6210008e47639,Letz Sushi Amager,55.65667,12.608981,Sushi Restaurant
93,55.656099999999995,12.613754545454546,39,7,4c64cd4f3f69c9b67cc389d9,Sumo Sushi,55.65442,12.610634,Sushi Restaurant
94,55.656099999999995,12.613754545454546,39,8,55982209498ed3fb9c5b1399,Indian Taste,55.655582427978516,12.61700439453125,Indian Restaurant
95,55.656099999999995,12.613754545454546,39,9,521e243511d2a47a39532126,Ganesha,55.65829216903769,12.607888872185894,Indian Restaurant
96,55.656099999999995,12.613754545454546,39,10,4db9a609cda10f31e631326d,Malta Selskabslokaler,55.65537088349205,12.616556815905758,Scandinavian Restaurant
97,55.656099999999995,12.613754545454546,39,11,5602eacb498ebaaa7d178f64,Wanda,55.65280703446553,12.611718994875934,Asian Restaurant
98,55.656099999999995,12.613754545454546,39,12,4c64259cec94a593ff7a2dca,Nan Wao,55.652955,12.6114,Chinese Restaurant
99,55.656099999999995,12.613754545454546,39,13,543aa756498eaf92fe76a429,Cofoco le Marché,55.65799254748216,12.608196424561273,French Restaurant
100,55.656099999999995,12.613754545454546,39,14,4b797fdef964a520f6fc2ee3,Wan Hao,55.65436355737855,12.610527941821353,Chinese Restaurant
101,55.656099999999995,12.613754545454546,39,15,4b645eb7f964a520e2ad2ae3,Zen Sushi,55.6599655481447,12.610853747744697,Sushi Restaurant
102,55.656099999999995,12.613754545454546,39,16,5ccacc7fbbd0e800256a8894,Shawarmahuset,55.658406,12.607683,Doner Restaurant
103,55.656099999999995,12.613754545454546,39,17,57e411b7498effe809630cf6,King of India,55.654577,12.618087,Indian Restaurant
104,55.656099999999995,12.613754545454546,39,18,53873eca498eb25eccdb3266,MD café & restaurant,55.660022,12.614295,Thai Restaurant
105,55.656099999999995,12.613754545454546,39,19,5a1067358173cb239084b04a,Pastor Mexican Tacos,55.657183,12.608814,Taco Place
106,55.656099999999995,12.613754545454546,39,20,57d2f2f0498e0a640ba261bc,Letz sushi,55.656712,12.609245,Sushi Restaurant
107,55.656099999999995,12.613754545454546,39,21,5a47a48b03132048f1fbb2ed,Coconut,55.6518,12.61165,Thai Restaurant
108,55.656099999999995,12.613754545454546,39,22,56290947498ef0022169c57b,Z-sushi,55.6567081359514,12.609073954095626,Sushi Restaurant
109,55.656099999999995,12.613754545454546,39,23,4c1e4817b9f876b050d27e46,Thai House,55.656537,12.609109,Thai Restaurant
110,55.656099999999995,12.613754545454546,39,24,57a4c8f7498e81317128d1d9,Gnam Gnam,55.656433,12.609346,Italian Restaurant
111,55.656099999999995,12.613754545454546,39,25,4b8d5101f964a5200ef432e3,Spicy World,55.659816420391714,12.61072560002599,Indian Restaurant
112,55.656099999999995,12.613754545454546,39,26,4cf91c0101568cfa175e24e7,Taj Mahal,55.654593919020826,12.610660577633674,Indian Restaurant
113,55.656099999999995,12.613754545454546,39,27,4e8d7b1930f82b1224fdf2c0,Blomsterberg Smørrebrød,55.6542836920146,12.610185396130904,Scandinavian Restaurant
114,55.656099999999995,12.613754545454546,39,28,4bd70ded637ba5931d29f970,Gung's Thai,55.659779,12.611014,Thai Restaurant
115,55.656099999999995,12.613754545454546,39,29,580621ff38fafc42fd436ab0,Café Bougatsa Saloniki,55.65665,12.608931,Greek Restaurant
116,55.656099999999995,12.613754545454546,39,30,4c9a269778fc236aa7f13297,Southern Grill,55.65609139927563,12.616018769495849,Chinese Restaurant
117,55.656099999999995,12.613754545454546,39,31,561a522d498ee62a492d0469,Da Danny,55.65542062546954,12.609230191766823,Italian Restaurant
118,55.656099999999995,12.613754545454546,39,32,59b5331f31fd145ab6050853,Molana,55.658387,12.607686,Persian Restaurant
119,55.656099999999995,12.613754545454546,39,33,4c3ca6ea933b0f470f5de421,Pomodoro & Mozarella,55.657259881245025,12.608780884564046,Pizza Place
120,55.656099999999995,12.613754545454546,39,34,4c9f7d9046978cfa4c60ab7f,Mamma Mia,55.66047191619873,12.61381208896637,Mexican Restaurant
121,55.656099999999995,12.613754545454546,39,35,5c0d3fbec0c084002501498f,The Flames,55.655481,12.616784,Pakistani Restaurant
122,55.656099999999995,12.613754545454546,39,36,5bc22bbcb6eedb002cec732c,Nawab,55.659724,12.610885,Indian Restaurant
123,55.656099999999995,12.613754545454546,39,37,50647ed5e4b030dd86f296e2,Butter Tikka,55.66045,12.613921,Indian Restaurant
124,55.656099999999995,12.613754545454546,39,38,54c275ff498edeaa80481961,Bosskok Sushi & Wok,55.658487,12.607369,Sushi Restaurant
125,55.656099999999995,12.631936363636363,3,0,5ccac033826444002c4592f7,lêlê street kitchen,55.659969,12.633346,Vietnamese Restaurant
126,55.656099999999995,12.631936363636363,3,1,57f8102d498e161df9ecc7a3,Restaurant Allie,55.658047,12.632949,Modern European Restaurant
127,55.656099999999995,12.631936363636363,3,2,57f81079498e1558f2ffa480,Restaurant Allie,55.658028,12.632104,Modern European Restaurant
128,55.66609999999999,12.468300000000001,2,0,4cded3313644a09345874e9f,Kina Grill,55.66529617273929,12.473974735650406,Asian Restaurant
129,55.66609999999999,12.468300000000001,2,1,58752edec5f8a73829ebd92b,Curry2Night,55.6683,12.474811,Indian Restaurant
130,55.66609999999999,12.486481818181819,2,0,4c2e39c34e132d7f75cb9ddf,Ristorante Garda,55.668376,12.48780876,Italian Restaurant
131,55.66609999999999,12.486481818181819,2,1,4e5128a18877402b06db322b,Hong Kong Grill,55.662272832295706,12.482808571635442,Chinese Restaurant
132,55.66609999999999,12.504663636363638,16,0,5d35fefb768dca00075675b7,Watami,55.666027,12.510671,Sushi Restaurant
133,55.66609999999999,12.504663636363638,16,1,5eff5849fe54d7000716f5a0,Brasserie Valby,55.66593,12.509145,Brasserie
134,55.66609999999999,12.504663636363638,16,2,59e2347edff815657bae579c,Limdim Thai Street Gourmet,55.666626,12.503764,Thai Restaurant
135,55.66609999999999,12.504663636363638,16,3,55264e2d498eede4fe1340c2,"Sebahat. Katmer, Yufka & Mantı Salonu",55.666639,12.505586,Turkish Restaurant
136,55.66609999999999,12.504663636363638,16,4,4bd30af9b221c9b64cb0d8d0,Phenix Corner,55.66591870786624,12.509564648269224,Burger Joint
137,55.66609999999999,12.504663636363638,16,5,4b66e2d6f964a520d02e2be3,Halal Kebab House,55.666636937922576,12.505033203278341,Middle Eastern Restaurant
138,55.66609999999999,12.504663636363638,16,6,4cdd96e47e2e236a7bd5791b,Casablanca,55.66446304321289,12.5116628408432,Moroccan Restaurant
139,55.66609999999999,12.504663636363638,16,7,4b55edd5f964a52015f727e3,Hlan Yaamo,55.666005,12.511974,Thai Restaurant
140,55.66609999999999,12.504663636363638,16,8,597662ba82a750601f16e072,Lindim Thai Street Gourmet,55.666622,12.503674,Thai Restaurant
141,55.66609999999999,12.504663636363638,16,9,56eadab2498ebf492ff87c59,Wokbaren,55.665941,12.512088,Thai Restaurant
142,55.66609999999999,12.504663636363638,16,10,4b0ec802f964a520f25a23e3,Valby Grønne Køkken,55.665854442074085,12.510520985018436,Middle Eastern Restaurant
143,55.66609999999999,12.504663636363638,16,11,4e6b9488483bf2d9e6ba42d2,"Valby Grill - Shawarma, Grill & Restaurant",55.66638005376559,12.504914622912489,Middle Eastern Restaurant
144,55.66609999999999,12.504663636363638,16,12,5cf3f09851950e002c446307,Dom's Mad,55.66666,12.505617,Thai Restaurant
145,55.66609999999999,12.504663636363638,16,13,4b06cb2ef964a52059f022e3,Café Krejleren,55.66870330551074,12.506902113790648,Tapas Restaurant
146,55.66609999999999,12.504663636363638,16,14,5276a05311d2650ba85b1300,Viet Huong,55.666519,12.505773,Vietnamese Restaurant
147,55.66609999999999,12.504663636363638,16,15,4d78fe20d7edb60ce9c5fd1a,Tasty Mix,55.666443053827514,12.506549299370715,Indian Restaurant
148,55.66609999999999,12.522845454545456,26,0,5f53b7052a8fe116b873616d,domo sushi,55.666043,12.51742,Sushi Restaurant
149,55.66609999999999,12.522845454545456,26,1,4c4f377092b6a593a1053771,Yousef's Spisested,55.664582194848826,12.516334609733306,Fast Food Restaurant
150,55.66609999999999,12.522845454545456,26,2,4b632803f964a52006672ae3,Thai Kok,55.66453679,12.519245,Thai Restaurant
151,55.66609999999999,12.522845454545456,26,3,58f24a8935f983278e51e695,Wokshop Cantina,55.666318,12.514932,Thai Restaurant
152,55.66609999999999,12.522845454545456,26,4,58bc2fd40b5656702e3c5114,Danny's American Diner,55.666122,12.520542,American Restaurant
153,55.66609999999999,12.522845454545456,26,5,4bfffa5237850f476080973f,Venus Pizzaria,55.66913066070887,12.517094777891767,Indian Restaurant
154,55.66609999999999,12.522845454545456,26,6,4b49c720f964a520807326e3,Valby Grill,55.665319581028854,12.51692726272979,Fast Food Restaurant
155,55.66609999999999,12.522845454545456,26,7,5a60c3912b98442fabf23322,Vaca,55.666557,12.517428,Taco Place
156,55.66609999999999,12.522845454545456,26,8,4d309689236aa143304556eb,Minh Oi,55.666045,12.521064,Vietnamese Restaurant
157,55.66609999999999,12.522845454545456,26,9,561a81c4498e5335926cf3ea,The Taco Shop 4,55.66651153564453,12.516145706176758,Mexican Restaurant
158,55.66609999999999,12.522845454545456,26,10,564607a8498ebb7b5120dd09,Khayam,55.666539,12.521548,Persian Restaurant
159,55.66609999999999,12.522845454545456,26,11,5d7e096da406af0008b083a2,Sheik shawarma,55.66601,12.516941,Middle Eastern Restaurant
160,55.66609999999999,12.522845454545456,26,12,58cd74f69398ab6675435ce9,Damsmad,55.661996,12.519756,Thai Restaurant
161,55.66609999999999,12.522845454545456,26,13,4fff17fce4b080fb6a655290,Punjab,55.666360097069905,12.520614347724386,Indian Restaurant
162,55.66609999999999,12.522845454545456,26,14,54c68436498e342726f936f0,Fasanreden,55.667323,12.517396,French Restaurant
163,55.66609999999999,12.522845454545456,26,15,59972be4018cbb23726912ec,shandiz persisk restuarant,55.666071,12.517382,Persian Restaurant
164,55.66609999999999,12.522845454545456,26,16,5ab7e86748b04e52c5648280,Kiin Kiin To Go,55.666415,12.517066,Asian Restaurant
165,55.66609999999999,12.522845454545456,26,17,5941522bda5ede43c82b5489,Pastahuset,55.66633,12.514916,Italian Restaurant
166,55.66609999999999,12.522845454545456,26,18,57335a8f498e30b95690148c,arya,55.666185,12.517466,Afghan Restaurant
167,55.66609999999999,12.522845454545456,26,19,4c0777090e0a2d7fde59ed0c,Sushi 2500,55.664119797960524,12.516067241245917,Sushi Restaurant
168,55.66609999999999,12.522845454545456,26,20,5ae490c73e6741002cae1ff7,letz sushi,55.666373,12.515205,Sushi Restaurant
169,55.66609999999999,12.522845454545456,26,21,4dc8074ae4cd169dc689f50d,Mont D'or Grill,55.666167175,12.517292,Chinese Restaurant
170,55.66609999999999,12.522845454545456,26,22,5489a8a3498e5663447fe7ae,el mes,55.662755,12.518906,Spanish Restaurant
171,55.66609999999999,12.522845454545456,26,23,5f888a1bf1ae3e38958bec86,Eat In Time,55.666603,12.516797,Chinese Restaurant
172,55.66609999999999,12.522845454545456,26,24,4baa4bcef964a520245c3ae3,Avanti,55.666572870591864,12.515058517456055,Italian Restaurant
173,55.66609999999999,12.522845454545456,26,25,5040e559e4b07118801ac89f,Ris og Nudler,55.66654868553846,12.519844879192666,Thai Restaurant
174,55.66609999999999,12.541027272727273,27,0,572c8011498e7e8067b5ebf8,Ramen to Bíiru Vesterbro,55.66567071879717,12.54324065585833,Ramen Restaurant
175,55.66609999999999,12.541027272727273,27,1,4b22256af964a520004424e3,Pasha Kebab,55.66768379977667,12.544398980887996,Kebab Restaurant
176,55.66609999999999,12.541027272727273,27,2,5f0f7d82b364824257b75dce,Frey & Nordberg,55.667824,12.547251,German Restaurant
177,55.66609999999999,12.541027272727273,27,3,4b55a926f964a520d5ea27e3,Dünyam Shawarma House,55.66759929353926,12.547879772475937,Middle Eastern Restaurant
178,55.66609999999999,12.541027272727273,27,4,5ce66ab23fcee8002cc92dbc,Liban Cuisine,55.669382,12.545172,Middle Eastern Restaurant
179,55.66609999999999,12.541027272727273,27,5,5a8c4c67fdb9a751979b948f,Sampi,55.667688,12.547964,Turkish Restaurant
180,55.66609999999999,12.541027272727273,27,6,57c0709b498eb6f443ce3a6f,Boulebar Carlsberg Byen,55.66562,12.535682,Athletics & Sports
181,55.66609999999999,12.541027272727273,27,7,5f25a0e8dc6fa74ea8436df6,Bulko,55.666573,12.539651,Korean Restaurant
182,55.66609999999999,12.541027272727273,27,8,4b40bdbcf964a5208aba25e3,Devran Døner Grill,55.66762821811229,12.547976043767886,Middle Eastern Restaurant
183,55.66609999999999,12.541027272727273,27,9,4b044b43f964a520fb5222e3,Hings Sushi,55.67038764190871,12.54090936375036,Sushi Restaurant
184,55.66609999999999,12.541027272727273,27,10,4b292510f964a520a29924e3,Mae Pen,55.67024966688019,12.539189035900451,Thai Restaurant
185,55.66609999999999,12.541027272727273,27,11,4bcb42fb0687ef3b7b50ddcc,Hing's Cuisine,55.67049248527143,12.540838487329706,Chinese Restaurant
186,55.66609999999999,12.541027272727273,27,12,4bf82645b182c9b697f7765a,Kirk + Maarbjerg,55.666412105831895,12.546277155468516,African Restaurant
187,55.66609999999999,12.541027272727273,27,13,4bc4adc0461576b002448032,Amore,55.66959441428572,12.545489,Mexican Restaurant
188,55.66609999999999,12.541027272727273,27,14,51a9ef25498e2fcb2727af32,Hing.dk,55.670462,12.540858,Sushi Restaurant
189,55.66609999999999,12.541027272727273,27,15,4b8bfb36f964a52043b632e3,Pegasus,55.66783437146552,12.548194260901129,Pub
190,55.66609999999999,12.541027272727273,27,16,4d38adfb4215f04da42acbf8,Asian Zensation by Fahad,55.664122,12.54141,Asian Restaurant
191,55.66609999999999,12.541027272727273,27,17,526bf5f7498e923cbb58ee74,Osteria 16,55.667726,12.545811,Italian Restaurant
192,55.66609999999999,12.541027272727273,27,18,569a913438fafc490e29bb2d,Bodil - Et spisested,55.66423684822732,12.545592478767741,Scandinavian Restaurant
193,55.66609999999999,12.541027272727273,27,19,522a0ec9498e848be68a2401,Rohan's Indian Restaurant,55.669805481208144,12.540072595497167,Indian Restaurant
194,55.66609999999999,12.541027272727273,27,20,4c57eeff6418a593fb65800e,Copenhagens Frokostordning,55.668102,12.544135,Eastern European Restaurant
195,55.66609999999999,12.541027272727273,27,21,4b8abfe6f964a520667e32e3,Kina Grill,55.66556060927715,12.546923295735736,Chinese Restaurant
196,55.66609999999999,12.541027272727273,27,22,5c153aca8c812a003993f56e,Hot Pot Republic,55.670456,12.540772,Chinese Restaurant
197,55.66609999999999,12.541027272727273,27,23,4c0e7a2c2466a593e01c7921,La Coruna Tandoori,55.664801357073536,12.542618278765747,Indian Restaurant
198,55.66609999999999,12.541027272727273,27,24,58fcdfe01f74401efb13e547,Nordic Noodle,55.663995,12.536303,Noodle House
199,55.66609999999999,12.541027272727273,27,25,5fb0425015bb4e4282c931bb,Kōnā,55.667678,12.534701,Japanese Restaurant
200,55.66609999999999,12.541027272727273,27,26,4c8ab88f3dc2a1cd3d92af32,Dunyam S. House,55.667509,12.547992,Middle Eastern Restaurant
201,55.66609999999999,12.559209090909091,50,0,55af8322498ee9a4d8806d54,Magasasa,55.667158907684716,12.558952343698705,Dim Sum Restaurant
202,55.66609999999999,12.559209090909091,50,1,4c6d70afe6b7b1f759bca98e,Mother,55.66839389655701,12.557760446089558,Italian Restaurant
203,55.66609999999999,12.559209090909091,50,2,56fd4071498e29dd7be604dd,Hija de Sánchez (Kødbyen),55.668986,12.55844,Taco Place
204,55.66609999999999,12.559209090909091,50,3,52fe2ccf498edcd638513f48,BollyFood,55.668930174876756,12.558649050068153,Indian Restaurant
205,55.66609999999999,12.559209090909091,50,4,558ec7a4498e1196c137d109,Fleisch,55.668985,12.558736,Scandinavian Restaurant
206,55.66609999999999,12.559209090909091,50,5,4b69cad7f964a5208db42be3,Ban-Gaw,55.66900852965627,12.55744325366627,Thai Restaurant
207,55.66609999999999,12.559209090909091,50,6,56c0d175cd104fc364433650,Papa Ramen,55.66850198830504,12.554285282146362,Ramen Restaurant
208,55.66609999999999,12.559209090909091,50,7,5c3f5b8b1a292500259a70c9,Falang,55.670194,12.556326,Thai Restaurant
209,55.66609999999999,12.559209090909091,50,8,5a0ec503b04056129dc964d7,Sanchez,55.669804856423525,12.555151514153476,Mexican Restaurant
210,55.66609999999999,12.559209090909091,50,9,4b01535ef964a5201b4222e3,Paté Paté,55.668988,12.558863,Tapas Restaurant
211,55.66609999999999,12.559209090909091,50,10,5e5bebf06c502e000729adad,Louis Burger,55.670358,12.557006,Burger Joint
212,55.66609999999999,12.559209090909091,50,11,4c77fd792d3ba143c85d89d0,Pizzaria San Pietro,55.66571132931218,12.556586079467467,Pizza Place
213,55.66609999999999,12.559209090909091,50,12,5ad8b6fe9d6a197db437f37d,Pizzeria 54,55.666648,12.551722,Italian Restaurant
214,55.66609999999999,12.559209090909091,50,13,4c067750517d0f476c00f615,Just Thai,55.662358083323554,12.56286924890737,Thai Restaurant
215,55.66609999999999,12.559209090909091,50,14,4c5ff79090b2c9b6f29e3b22,Indiana Mexican Restaurant,55.66235782482697,12.563300427201655,Mexican Restaurant
216,55.66609999999999,12.559209090909091,50,15,4c92371f029776b097a99c55,Sticks'n'Sushi,55.665778,12.566169,Sushi Restaurant
217,55.66609999999999,12.559209090909091,50,16,4b3f8a31f964a520afa825e3,Sticks'n'Sushi,55.669697,12.554686,Sushi Restaurant
218,55.66609999999999,12.559209090909091,50,17,53c980b0498e9959101f699b,Cyprus,55.66226113799485,12.561024875219449,Greek Restaurant
219,55.66609999999999,12.559209090909091,50,18,4d1c1fff7e10a35d0af9fc82,Café De Fire Årstider,55.66949581582389,12.558473193124682,Modern European Restaurant
220,55.66609999999999,12.559209090909091,50,19,4efb4a7ce5fa4f286ecc2dfc,Kawaii Sushi,55.66732063419734,12.554371069043027,Sushi Restaurant
221,55.66609999999999,12.559209090909091,50,20,4d5e8eb01ee8721e6db99321,Ban Keaw Thai Restaurant,55.66921722791147,12.558768253769179,Asian Restaurant
222,55.66609999999999,12.559209090909091,50,21,4b685790f964a520be722be3,Sivas Kebab,55.66984817013209,12.555253362049248,Fast Food Restaurant
223,55.66609999999999,12.559209090909091,50,22,4d7f7664f635236ae2c47916,Kebabiye,55.67032275081087,12.557359571351055,Middle Eastern Restaurant
224,55.66609999999999,12.559209090909091,50,23,55e19d51498e34b614268ec8,Brasa,55.66840648629884,12.55898817869408,Brazilian Restaurant
225,55.66609999999999,12.559209090909091,50,24,5bae8038cabcff003901acdb,Tapas Revolution,55.670529,12.560361,Tapas Restaurant
226,55.66609999999999,12.559209090909091,50,25,50521314e4b05b8794bb6572,Yuma,55.6696630389491,12.555231082734805,Asian Restaurant
227,55.66609999999999,12.559209090909091,50,26,4ce548cc2b4e721e9ee0332b,Ristorante Panorama,55.66239562328112,12.563258356810458,Italian Restaurant
228,55.66609999999999,12.559209090909091,50,27,5bfd79c512c8f0002c7ac884,Mør restaurant,55.667168,12.557099,Brazilian Restaurant
229,55.66609999999999,12.559209090909091,50,28,5b507d9ddff815002bb042f5,Public - The italian social dining bar,55.669347,12.557998,Italian Restaurant
230,55.66609999999999,12.559209090909091,50,29,595a60982be425119fe6530d,Ristorante Cucinetta,55.670552,12.560363,Italian Restaurant
231,55.66609999999999,12.559209090909091,50,30,515f0936498e3da879eed8dd,Aroii,55.66983460251749,12.555064720407191,Thai Restaurant
232,55.66609999999999,12.559209090909091,50,31,4f85bd2fe4b0a7ed05e42d7c,Iamacombo,55.668454,12.557001,Scandinavian Restaurant
233,55.66609999999999,12.559209090909091,50,32,5ad8b69525ecca22412ea223,pizzaria 54,55.666413,12.55174,Italian Restaurant
234,55.66609999999999,12.559209090909091,50,33,5b507e80fc9e94003933b371,public - the italian social dining bar,55.669306,12.558027,Italian Restaurant
235,55.66609999999999,12.559209090909091,50,34,533da77f498e884755b19302,restaurant brunello abel cathrines gade21a,55.6657533397525,12.55391730194356,Italian Restaurant
236,55.66609999999999,12.559209090909091,50,35,4e3545dbd1649e45e3cf4e54,Shawarma Fisketovet,55.662435271788006,12.563041546010831,Middle Eastern Restaurant
237,55.66609999999999,12.559209090909091,50,36,4f9c1980e4b0a3d1dc1049cd,Social Act,55.6683302230764,12.557186059337118,Scandinavian Restaurant
238,55.66609999999999,12.559209090909091,50,37,4e4d57d2aeb77d4a40e76606,Tandoori Masala,55.6700481,12.5574463,Indian Restaurant
239,55.66609999999999,12.559209090909091,50,38,58123a4938fabe486d9d6ff9,Mangal,55.667419,12.559044,Turkish Restaurant
240,55.66609999999999,12.559209090909091,50,39,4bf97d108d30d13a954e0218,Restaurant Porn-Sak,55.66919293705128,12.558009782586447,Thai Restaurant
241,55.66609999999999,12.559209090909091,50,40,4f2c26f2e4b0fc7ec666f23b,I'm a Combo,55.66825823522041,12.557076057627915,Scandinavian Restaurant
242,55.66609999999999,12.559209090909091,50,41,5550effd498e1d5fa814f685,Lele,55.667957,12.561144,Asian Restaurant
243,55.66609999999999,12.559209090909091,50,42,511d21a8e4b0957876a491b5,SushiBest,55.667168,12.554421,Sushi Restaurant
244,55.66609999999999,12.559209090909091,50,43,5a68d3660a08ab7faf608624,The Caribbean Housewife,55.669125,12.554147,Soup Place
245,55.66609999999999,12.559209090909091,50,44,4fc3b241e4b071420f8401a5,The Noodle Box,55.67036664680116,12.557061764855867,Thai Restaurant
246,55.66609999999999,12.559209090909091,50,45,5390aa00498ec1ba1d8fba73,Skeletske,55.66910171508789,12.560850143432617,Taco Place
247,55.66609999999999,12.559209090909091,50,46,4c1d05dceac020a1f87647c2,Restaurant The Harbour,55.663038608435514,12.563976018944196,Scandinavian Restaurant
248,55.66609999999999,12.559209090909091,50,47,526a7b1311d27d4830d7b620,Frisk Pasta/Is,55.66904,12.554295,Italian Restaurant
249,55.66609999999999,12.559209090909091,50,48,55508888498e4a08fa9d703a,Skank,55.67012495673789,12.55628785174025,Breakfast Spot
250,55.66609999999999,12.559209090909091,50,49,5a2c1f79628c833792bd6901,Karma Sushi - Kødbyen,55.666495,12.558402,Sushi Restaurant
251,55.66609999999999,12.57739090909091,22,0,4b76a302f964a520b8552ee3,Hatoba,55.66853065818707,12.579251676529134,Sushi Restaurant
252,55.66609999999999,12.57739090909091,22,1,4ece9bee93ad987b4afc8c83,Il Buco,55.66626520452843,12.580132154877758,Italian Restaurant
253,55.66609999999999,12.57739090909091,22,2,5d0d0d595459f20023011764,Letz Sushi,55.666172,12.576372,Sushi Restaurant
254,55.66609999999999,12.57739090909091,22,3,4b1e3e09f964a520171824e3,Cafe Alma,55.66559730746091,12.578596448483603,Scandinavian Restaurant
255,55.66609999999999,12.57739090909091,22,4,542ea852498e669166197c47,Pætur's Test Wineshop,55.66623097921373,12.579420804977417,American Restaurant
256,55.66609999999999,12.57739090909091,22,5,4b1aabc4f964a520f6ee23e3,Il Pane de Mauro,55.66684608528833,12.576740033740416,Pizza Place
257,55.66609999999999,12.57739090909091,22,6,5075a81ae4b0092291ad01d3,Hahnemanns Køkken Pop-up,55.666827,12.579442,Scandinavian Restaurant
258,55.66609999999999,12.57739090909091,22,7,5e59602b7aa26f000752269c,Sole Factory,55.662434,12.579023,Scandinavian Restaurant
259,55.66609999999999,12.57739090909091,22,8,4b1fe36df964a5204c2a24e3,Food Palace,55.664834082447555,12.58098622955427,Indian Restaurant
260,55.66609999999999,12.57739090909091,22,9,4c28d2a79fb5d13a3a289a57,Canton Grill,55.664091,12.580022,Asian Restaurant
261,55.66609999999999,12.57739090909091,22,10,4b63049cf964a520ef5d2ae3,Sushiya Wokaway,55.667857226011,12.57953950963887,Sushi Restaurant
262,55.66609999999999,12.57739090909091,22,11,595523c33b8307576882e130,Au bistrot,55.666238,12.576436,French Restaurant
263,55.66609999999999,12.57739090909091,22,12,57d2d536498eddf038024f3e,basal,55.667659,12.579112,Scandinavian Restaurant
264,55.66609999999999,12.57739090909091,22,13,52963dec11d251a71312a992,Bibi,55.664833,12.583828,American Restaurant
265,55.66609999999999,12.57739090909091,22,14,59207202c62b4920e221f298,Rasoi To Go,55.664642,12.580548,Indian Restaurant
266,55.66609999999999,12.57739090909091,22,15,4d7fcca97991dcb348ac289e,Ponte Vecchio,55.66562157615963,12.575397993425995,Italian Restaurant
267,55.66609999999999,12.57739090909091,22,16,4eaaff33f5b90f34efb42588,CHICO's Mexican,55.664976607116984,12.582569913769499,Mexican Restaurant
268,55.66609999999999,12.57739090909091,22,17,4c487e1619fde21edec40b76,Prego,55.665596,12.575229,Italian Restaurant
269,55.66609999999999,12.57739090909091,22,18,4c2665aa905a0f47043b6360,Da Misto,55.66505681996066,12.581350159238852,Italian Restaurant
270,55.66609999999999,12.57739090909091,22,19,55edd5cb498e79407368e3f9,IslandsBrygge Wok,55.66420948165504,12.580131694480807,Thai Restaurant
271,55.66609999999999,12.57739090909091,22,20,57f7b5ec498eedc69225aabd,MyThai Kitchen,55.667995,12.579472,Thai Restaurant
272,55.66609999999999,12.57739090909091,22,21,56d54384498e3b3c9fed431e,Antons Koekken,55.66581,12.578675,Scandinavian Restaurant
273,55.66609999999999,12.595572727272728,34,0,571b9fd4498e85edf2ecfdd7,Barshu,55.66813,12.596599,Chinese Restaurant
274,55.66609999999999,12.595572727272728,34,1,4b531ba2f964a520298f27e3,Pizzeria Cavallino,55.66332590255531,12.597809398469352,Pizza Place
275,55.66609999999999,12.595572727272728,34,2,5148b076e4b085056a8fca9f,Magasasa Street Kitchen,55.663572,12.6009995,Chinese Restaurant
276,55.66609999999999,12.595572727272728,34,3,4cdd79bb930af04dfc649697,Boulevard Bodega,55.66585185964368,12.597672863273257,Scandinavian Restaurant
277,55.66609999999999,12.595572727272728,34,4,4b4780bef964a5202d3426e3,Cheung's Kinesiske Grill,55.66430295287006,12.596789472782742,Chinese Restaurant
278,55.66609999999999,12.595572727272728,34,5,5ce2e970f5e9d7002cbc71ae,Sushi Factory,55.664049,12.601061,Sushi Restaurant
279,55.66609999999999,12.595572727272728,34,6,5ec84e2d0ec9aa000774d037,Yokoso Sushi Amager,55.665136,12.599741,Sushi Restaurant
280,55.66609999999999,12.595572727272728,34,7,4b40e381f964a520d8bc25e3,Smørhullet,55.66416713455917,12.602126265097217,Indian Restaurant
281,55.66609999999999,12.595572727272728,34,8,5de556aa593a3f00085b21ed,Casa Nostra,55.667104,12.59816,Pizza Place
282,55.66609999999999,12.595572727272728,34,9,4bc233b1abf49521a129c293,Kareten,55.66485758754652,12.59939534613293,Scandinavian Restaurant
283,55.66609999999999,12.595572727272728,34,10,4c166e54b7b9c9281672ae37,Topkapi,55.664566,12.59595,Middle Eastern Restaurant
284,55.66609999999999,12.595572727272728,34,11,520e713f11d2e8a7386f34df,Shiimi,55.66683578491211,12.5980806350708,Thai Restaurant
285,55.66609999999999,12.595572727272728,34,12,55904a8c498e84b2d9e92fcc,giin khao,55.666553,12.598843,Thai Restaurant
286,55.66609999999999,12.595572727272728,34,13,4c07eec4bbc676b0d0bb45d5,Organic Corner,55.667193,12.597749,Asian Restaurant
287,55.66609999999999,12.595572727272728,34,14,50649507e4b0aacee6eb72a4,Ninja Japanese Tapas,55.66653204346502,12.598498882407457,Asian Restaurant
288,55.66609999999999,12.595572727272728,34,15,55758415498ec58f856e7232,Deep Indian Restaurant,55.66692383562535,12.597949504852293,Indian Restaurant
289,55.66609999999999,12.595572727272728,34,16,54f0bb11498edbb843af15eb,Maharaja Indian Restaurant,55.666969,12.597513,Indian Restaurant
290,55.66609999999999,12.595572727272728,34,17,4c0e97fe7189c9280ac1d8b6,Thai Hut,55.666782,12.597874,Thai Restaurant
291,55.66609999999999,12.595572727272728,34,18,4b23d7adf964a520055b24e3,Restaurant Rimini,55.668021,12.5972454,Italian Restaurant
292,55.66609999999999,12.595572727272728,34,19,56c09165498ea94e3d6f0a0e,Giin Khao Thai Køkken,55.66644,12.598296,Thai Restaurant
293,55.66609999999999,12.595572727272728,34,20,55b25d86498e43abf0821dc9,Oishi Sushi,55.665254,12.599755,Sushi Restaurant
294,55.66609999999999,12.595572727272728,34,21,57e1736a498ed4a99f66d56f,Poonchai 2,55.665634,12.598019,Thai Restaurant
295,55.66609999999999,12.595572727272728,34,22,4b5f287cf964a520d3a929e3,Maharaja indisk resturant,55.66716252825829,12.597858916844219,Indian Restaurant
296,55.66609999999999,12.595572727272728,34,23,4d94ab9958caa1438ee4b025,A. Sushi,55.66640401734899,12.598556996694914,Sushi Restaurant
297,55.66609999999999,12.595572727272728,34,24,4bf40d1494af2d7f651b3a72,Pasta House,55.66452460641276,12.60052808682007,Italian Restaurant
298,55.66609999999999,12.595572727272728,34,25,52c578cb11d2d9a45b705c0e,Dominos Amager,55.66488,12.59973,American Restaurant
299,55.66609999999999,12.595572727272728,34,26,56e5a765498ec9e0d5c0b2c5,Nawaab,55.66404211032706,12.600820802824309,Indian Restaurant
300,55.66609999999999,12.595572727272728,34,27,5c55ee49c58ed7002c1013a3,Sushidog,55.663905,12.600905,Sushi Restaurant
301,55.66609999999999,12.595572727272728,34,28,4c0e0d0db1b676b0c36fe186,Bennys Pølser,55.663279,12.601581,Scandinavian Restaurant
302,55.66609999999999,12.595572727272728,34,29,4adcdb00f964a520695e21e3,Thai Esan 3,55.666475545016446,12.595751410428505,Thai Restaurant
303,55.66609999999999,12.595572727272728,34,30,4f283548e4b055df283e2502,Kina gril,55.664298,12.596962,Asian Restaurant
304,55.66609999999999,12.595572727272728,34,31,4ca7710b931bb60c95629de2,Go Away,55.66792444681372,12.59701000092266,Asian Restaurant
305,55.66609999999999,12.595572727272728,34,32,5f96cfa407e574152a312988,Café Risico,55.664135,12.6011,Café
306,55.66609999999999,12.595572727272728,34,33,4b76a834f964a520c7562ee3,Restaurant Menuen,55.661849,12.598022,Scandinavian Restaurant
307,55.66609999999999,12.613754545454546,15,0,5d25f93b972c0d0023c7e73b,Tuk Tuk Thai Take Away,55.662792,12.615534,Thai Restaurant
308,55.66609999999999,12.613754545454546,15,1,4db86a8dcda10f31e616f15f,Fresh Sushi,55.663945775740636,12.6178836057913,Sushi Restaurant
309,55.66609999999999,12.613754545454546,15,2,5740aaedcd1039538a6d72d1,Kiin Kiin To Go,55.664955,12.614807,Thai Restaurant
310,55.66609999999999,12.613754545454546,15,3,4e6e3466c65b18875fafddaf,Thai Herb,55.664626340000005,12.615051359999999,Thai Restaurant
311,55.66609999999999,12.613754545454546,15,4,4d8b97918169721e489429fd,Lai Lai,55.66644629693705,12.615374827230617,Thai Restaurant
312,55.66609999999999,12.613754545454546,15,5,51338db0e4b098c2758f3235,Mee Duang,55.665523,12.609227,Thai Restaurant
313,55.66609999999999,12.613754545454546,15,6,4c94f7ec03413704d61277ef,Hot & Spicy,55.66502188,12.60615437,Indian Restaurant
314,55.66609999999999,12.613754545454546,15,7,4f0489bc9adf4efb13fa5c46,Baan Kunya,55.66210343939651,12.616308515673646,Asian Restaurant
315,55.66609999999999,12.613754545454546,15,8,4cf698191801a14337acead4,Belardo's,55.667434,12.617069,Asian Restaurant
316,55.66609999999999,12.613754545454546,15,9,568c0746498ef85aa299cce8,wanthana's,55.664376,12.614236,Thai Restaurant
317,55.66609999999999,12.613754545454546,15,10,4b9d38e5f964a520ce9a36e3,Hua Hin,55.66270649490205,12.615519774838448,Thai Restaurant
318,55.66609999999999,12.613754545454546,15,11,4be19c811a44a593cd2a9287,Oyisi Sushi,55.66622597477456,12.61289106681035,Sushi Restaurant
319,55.66609999999999,12.613754545454546,15,12,4bed8ec9e3562d7fdc31fff8,Khaogaeng,55.664476,12.61510407,Thai Restaurant
320,55.66609999999999,12.613754545454546,15,13,5144e1cde4b092570d7f02ad,Wok Chopsticks,55.6663671310054,12.613334655761719,Thai Restaurant
321,55.66609999999999,12.613754545454546,15,14,5ab65e5f947c05192a9a3243,Øens Spisested,55.66635,12.611063,Scandinavian Restaurant
322,55.66609999999999,12.631936363636363,5,0,5f26c992b3bc6069f6708687,Cibo Italiensk Bistro,55.66227,12.63231,Italian Restaurant
323,55.66609999999999,12.631936363636363,5,1,4ba9fbaef964a5207a413ae3,Restaurant Sundby Sejl,55.66441509118305,12.631880863517978,Scandinavian Restaurant
324,55.66609999999999,12.631936363636363,5,2,51b324eb498e537e12838ab1,Karisma,55.662256,12.632322,Arepa Restaurant
325,55.66609999999999,12.631936363636363,5,3,591f365f62420b2d9a99a54d,Indian Ocean,55.662211,12.632478,Indian Restaurant
326,55.66609999999999,12.631936363636363,5,4,4e58f031d22dfba6f46c2f78,Luna Traperia,55.66427470231747,12.625818185649191,Tapas Restaurant
327,55.6761,12.468300000000001,2,0,4d556d47c6edf04d3a9dc4a2,Dueslaget,55.67279352062114,12.47157003762683,Scandinavian Restaurant
328,55.6761,12.468300000000001,2,1,4c83be34d34ca14376e73780,Niji Sushi,55.67219955,12.46658189,Sushi Restaurant
329,55.6761,12.486481818181819,5,0,596ba00193bd637ca7896432,Chai Shai,55.672081,12.488299,Indian Restaurant
330,55.6761,12.486481818181819,5,1,590cd544fdb9a71862f40c0f,DanAsia,55.6726,12.489375,Thai Restaurant
331,55.6761,12.486481818181819,5,2,4f4cfe18e4b081be1cbac392,Cai Hong,55.67246435984185,12.489354209162084,Sushi Restaurant
332,55.6761,12.486481818181819,5,3,569922b1498e532270b9a041,Mucoo,55.67256289001503,12.489146735149463,Souvlaki Shop
333,55.6761,12.486481818181819,5,4,4d7bb934f260a09371b12cba,Kashmir,55.671971392056314,12.488258303229657,Indian Restaurant
334,55.6761,12.504663636363638,9,0,5830a5029f25833ffddc47f3,Zap Mak Mak,55.678685,12.501911,Thai Restaurant
335,55.6761,12.504663636363638,9,1,4e0e0f4d7d8bb178a8a515aa,Ummenum Sushi,55.6787476806273,12.503431737774536,Sushi Restaurant
336,55.6761,12.504663636363638,9,2,4b8d477df964a520a5f132e3,UmmeNum,55.678769,12.50686,Sushi Restaurant
337,55.6761,12.504663636363638,9,3,4b62fedaf964a520cc5c2ae3,Cavallino Pizza,55.678828307926835,12.508415551277238,Pizza Place
338,55.6761,12.504663636363638,9,4,582775b5abffa17aeb0101b6,thai wok,55.67884,12.5,Thai Restaurant
339,55.6761,12.504663636363638,9,5,4e0f49af62843e04afb3dad8,Kina Grill,55.67846680508256,12.499259229253108,Chinese Restaurant
340,55.6761,12.504663636363638,9,6,4bc2180fabf4952189f0c193,Asia Takeaway,55.678603,12.502046,Thai Restaurant
341,55.6761,12.504663636363638,9,7,596f893806fb60632f0709bb,Xing Sushi,55.678744,12.505613,Sushi Restaurant
342,55.6761,12.504663636363638,9,8,57bc8604498e2db463dd0260,hingsushi.dk,55.672,12.5070715,Sushi Restaurant
343,55.6761,12.522845454545456,13,0,4d0a652d454c6dcbaf913e8e,Casa Mia,55.678969855866,12.528448294744415,Italian Restaurant
344,55.6761,12.522845454545456,13,1,4b6ec84df964a52068ca2ce3,Bistro PanPan,55.67356737297342,12.521624565124512,Bistro
345,55.6761,12.522845454545456,13,2,4c8bc59755fba093141e59ab,Restaurant Frederiks have,55.67917768940353,12.525047101406233,French Restaurant
346,55.6761,12.522845454545456,13,3,4fcd23f2e4b09443508b1301,Frederiks Have,55.679181,12.525186,Scandinavian Restaurant
347,55.6761,12.522845454545456,13,4,5e29e3d13bd73a00083e3318,Original Sushi,55.679408,12.521272,Sushi Restaurant
348,55.6761,12.522845454545456,13,5,5221c2c311d2458ed339bde8,Molles Pølsevogn,55.67485714758953,12.52903412251663,German Restaurant
349,55.6761,12.522845454545456,13,6,559178f8498ebc1f4ae1e5d5,frederiks have,55.67894551266768,12.524961233139038,Scandinavian Restaurant
350,55.6761,12.522845454545456,13,7,50eeea13e4b0ebd273c9084c,Vespro's Delikatesser,55.679446,12.525145,Italian Restaurant
351,55.6761,12.522845454545456,13,8,4de3cdbb8877bcb68664786f,La Familia - Home Made Take Away,55.680054,12.521799,Italian Restaurant
352,55.6761,12.522845454545456,13,9,4c3081e67cc0c9b67b68ed9a,Det Kinesiske te hus,55.675652,12.52741,Chinese Restaurant
353,55.6761,12.522845454545456,13,10,57d2b3f2498e8c8850392635,La Bonne,55.679196,12.526646,French Restaurant
354,55.6761,12.522845454545456,13,11,4bd31f049854d13ab9e9fc4d,Sale e Pepe,55.68025317681718,12.521713920520893,Italian Restaurant
355,55.6761,12.522845454545456,13,12,4bcafa55cc8cd13a9081becf,Café K,55.67191421985626,12.522426,African Restaurant
356,55.6761,12.541027272727273,26,0,4d1a2999401db60cd3ccffa4,Wokshop,55.67645257827282,12.541694611617414,Thai Restaurant
357,55.6761,12.541027272727273,26,1,4bcf4fd9caff9521a4ecccf0,Restaurant Melée,55.67581899362717,12.54248977292874,French Restaurant
358,55.6761,12.541027272727273,26,2,5cb0cb1251950e002cb310ac,Izumi,55.676985,12.538953,Sushi Restaurant
359,55.6761,12.541027272727273,26,3,4b76d2cbf964a520df612ee3,La Fiesta Mexicana,55.67340542036599,12.54514405585666,Mexican Restaurant
360,55.6761,12.541027272727273,26,4,5c5dc6a282a750002c485c86,Sticks'n'Sushi,55.676397,12.541965,Sushi Restaurant
361,55.6761,12.541027272727273,26,5,523c7d758bbd21473fe15148,Deligreco,55.67803542694236,12.534795333237277,Greek Restaurant
362,55.6761,12.541027272727273,26,6,51fe7a4f498ee9a8a2f3cc82,Spaghetteria,55.678166654692625,12.53819696593543,Italian Restaurant
363,55.6761,12.541027272727273,26,7,4f14e162e4b0042057d8fd0c,hot dog 1901,55.677,12.546855,African Restaurant
364,55.6761,12.541027272727273,26,8,59f07c12772fbc137e4325e6,Olioli,55.677853,12.534835,Sushi Restaurant
365,55.6761,12.541027272727273,26,9,4b83d421f964a520681231e3,Bjørnekælderen,55.67416741238152,12.537210536307224,Scandinavian Restaurant
366,55.6761,12.541027272727273,26,10,4bc0d404920eb71319a6192c,SIS Kebab,55.675734,12.544708,Middle Eastern Restaurant
367,55.6761,12.541027272727273,26,11,4b4346f8f964a520d4dd25e3,Gastronomia Italiana,55.67595551516181,12.543502391481175,Italian Restaurant
368,55.6761,12.541027272727273,26,12,4b617711f964a5207b142ae3,Di Minutte,55.675253,12.547013,Sandwich Place
369,55.6761,12.541027272727273,26,13,4ccb082b72106dcbe6499199,Kat's Italian Delli,55.678659,12.535724,Italian Restaurant
370,55.6761,12.541027272727273,26,14,4c06798c5753c92803ef3af1,Kokken & Karry,55.674688878329164,12.534460790435993,Indian Restaurant
371,55.6761,12.541027272727273,26,15,53275245498e04b87f718aa0,Ramberg's,55.675657,12.54741,Italian Restaurant
372,55.6761,12.541027272727273,26,16,4b673476f964a5204c412be3,Bindia,55.67692400812877,12.539535477520632,Indian Restaurant
373,55.6761,12.541027272727273,26,17,4d7bc9f46152b60c787d8526,Istanbul Sis Kebab 102,55.675667,12.54489004611969,Middle Eastern Restaurant
374,55.6761,12.541027272727273,26,18,5082d716e4b094820a3a74b7,Marahaja Gl. Kongevej,55.67414093017578,12.547853469848633,Indian Restaurant
375,55.6761,12.541027272727273,26,19,5ec16b7a9cfa69000878ce1a,heat,55.673844,12.540575,Japanese Restaurant
376,55.6761,12.541027272727273,26,20,4e9dc67c775b37d2ea8b4d1f,Al-diwan,55.672008,12.54349,Indian Restaurant
377,55.6761,12.541027272727273,26,21,5c55d32e1c675b002ce092dc,Hos Otto,55.674015,12.537188,French Restaurant
378,55.6761,12.541027272727273,26,22,4f5126a6e4b020de97b7f783,Alex Sushi,55.673335,12.544038,Sushi Restaurant
379,55.6761,12.541027272727273,26,23,4be299661dd22d7ff05a94bd,La Regina,55.678178371789826,12.534211775670594,Italian Restaurant
380,55.6761,12.541027272727273,26,24,4d4d8cba80cb6dcb98911101,Rawfornia,55.678266,12.534195,Brazilian Restaurant
381,55.6761,12.541027272727273,26,25,4b51b319f964a520f35227e3,Sans Souci,55.676287728278645,12.541624443554781,Scandinavian Restaurant
382,55.6761,12.559209090909091,50,0,4b104c0bf964a5203a6d23e3,Il grappolo blu,55.67877934861632,12.562878075195869,Italian Restaurant
383,55.6761,12.559209090909091,50,1,5800fda338fa1e0e2329fed6,Mangia,55.6732516311798,12.554507905614356,Italian Restaurant
384,55.6761,12.559209090909091,50,2,5378e341498e0cd1339aa1eb,uformel,55.676715938175846,12.564709844030654,Modern European Restaurant
385,55.6761,12.559209090909091,50,3,5a310e9d6e46503d39d10074,Sticks'n'Sushi,55.674390456310825,12.565661492301897,Sushi Restaurant
386,55.6761,12.559209090909091,50,4,55e19123498ea6ed7b9292b6,Phở Hànôi,55.674781,12.562278,Vietnamese Restaurant
387,55.6761,12.559209090909091,50,5,4b3e532ef964a5204b9b25e3,Magasasa Classic,55.6723885,12.563098,Chinese Restaurant
388,55.6761,12.559209090909091,50,6,5be9b44535811b002c80557e,CPH Smorrebrod,55.672837,12.563363,Dutch Restaurant
389,55.6761,12.559209090909091,50,7,58cd86834988da07c8e6cc76,Papa Ramen,55.67683372228907,12.564881734370323,Noodle House
390,55.6761,12.559209090909091,50,8,5d1643cb3f9ff70023af90e7,La Baracca,55.674259,12.565486,Italian Restaurant
391,55.6761,12.559209090909091,50,9,5b14003c9deb7d002cc4b58b,D'let Hovedbanegården - Det Grønne Køkken & Thai Take Away,55.672653,12.564195,Thai Restaurant
392,55.6761,12.559209090909091,50,10,54f4e5ae498eea14e5896a15,Tapashuset,55.67617671436488,12.566070543837633,Tapas Restaurant
393,55.6761,12.559209090909091,50,11,5991badc6bd36b43bfbf0da7,Mado,55.67409993611435,12.562220453434263,Turkish Restaurant
394,55.6761,12.559209090909091,50,12,5b5c9ddee679bc002c97ce72,Dalle Valle,55.675368,12.565037,Modern European Restaurant
395,55.6761,12.559209090909091,50,13,503ce9eee4b0e1fcde4b8ffe,Issa,55.67376286192419,12.559242728853153,Japanese Restaurant
396,55.6761,12.559209090909091,50,14,589cc0006b0cdb23b11d8141,Bastards,55.676319,12.564469,Modern European Restaurant
397,55.6761,12.559209090909091,50,15,4af9b122f964a520611322e3,Sukiyaki,55.673285644964025,12.56075239146595,Japanese Restaurant
398,55.6761,12.559209090909091,50,16,5f03619b60ec8e19e594ea0d,Urban Indian,55.677416,12.566538,Indian Restaurant
399,55.6761,12.559209090909091,50,17,582b599842f0d57b1443a4c6,Nagoya,55.675418649614905,12.554197311401367,Sushi Restaurant
400,55.6761,12.559209090909091,50,18,4be7e07bd837c9b62f9da406,Nibon Ya Running Sushi,55.673176,12.560229,Sushi Restaurant
401,55.6761,12.559209090909091,50,19,4d44609b2e326ea89776e3a6,GURU,55.67610649460444,12.566320116982652,Indian Restaurant
402,55.6761,12.559209090909091,50,20,571a663d38faaa76e45884b2,Spaghetteria,55.674814848500844,12.562437057495117,Italian Restaurant
403,55.6761,12.559209090909091,50,21,4c754a51d8948cfa093d67da,Casa de Voulfsbach,55.68,12.555332,Scandinavian Restaurant
404,55.6761,12.559209090909091,50,22,4beae71fb3352d7f35c355d2,Poonchai Thai Restaurant,55.67235374418368,12.563314372443145,Thai Restaurant
405,55.6761,12.559209090909091,50,23,4aea0195f964a5206bb821e3,Salon 39,55.6783703989535,12.554696484003683,Cocktail Bar
406,55.6761,12.559209090909091,50,24,4aeb457ef964a52068c021e3,Frk. Barners Kælder,55.67216250236405,12.561140570603044,Scandinavian Restaurant
407,55.6761,12.559209090909091,50,25,5df3792bdb204c00075eafce,Mr Ramen,55.676914,12.564905,Noodle House
408,55.6761,12.559209090909091,50,26,5c82c6148194fc002ca76864,casa lola,55.676209,12.565954,Spanish Restaurant
409,55.6761,12.559209090909091,50,27,595bc8da59c42343382cb76b,SSAM,55.672576021703165,12.562069584400527,Korean Restaurant
410,55.6761,12.559209090909091,50,28,4adcdb01f964a5207c5e21e3,CoFoCo,55.671724,12.558512,Scandinavian Restaurant
411,55.6761,12.559209090909091,50,29,5a1d74d106fb604b9c2bd8ef,Zócalo,55.674113,12.565447,Mexican Restaurant
412,55.6761,12.559209090909091,50,30,4c49afb73013a59316ff13e3,Mesón España,55.67189352872677,12.557829612772508,Spanish Restaurant
413,55.6761,12.559209090909091,50,31,5a81dc9825ecca0b3b62838a,Hallernes Smørrebrød,55.67407,12.565618,Scandinavian Restaurant
414,55.6761,12.559209090909091,50,32,5afdb20abfc6d0002c8ee6af,Cocolo Sushi&Poke Bar,55.676773,12.564817,Sushi Restaurant
415,55.6761,12.559209090909091,50,33,5612d1fb498ed1e5a8ea5262,Urudag,55.67335119756114,12.557320738124744,Doner Restaurant
416,55.6761,12.559209090909091,50,34,4adcdafef964a520195e21e3,Cassiopeia,55.674429691411575,12.557765456834812,Scandinavian Restaurant
417,55.6761,12.559209090909091,50,35,59df96691543c7512588b392,Ipanema,55.677612,12.554469,Café
418,55.6761,12.559209090909091,50,36,4c627b3258810f47a73b071e,Guru To GO,55.676082969287414,12.566173150227817,Indian Restaurant
419,55.6761,12.559209090909091,50,37,573778e9498eb22a2e20e4b4,Bistro Avenue,55.67639,12.564157,Italian Restaurant
420,55.6761,12.559209090909091,50,38,5ceecb7cf5e9d7002cd1f542,Osteria Alfredo,55.678825,12.562709,Italian Restaurant
421,55.6761,12.559209090909091,50,39,5d246f9fd1c26700238ba76c,Beirut Lunch & Café,55.67274,12.557053,Lebanese Restaurant
422,55.6761,12.559209090909091,50,40,4cd52925dfb4a1cd236e575c,Saxo Restaurant,55.67206374964312,12.562305087341292,Chinese Restaurant
423,55.6761,12.559209090909091,50,41,4ce90556595cb1f70464cc14,L'Osteria,55.678557063753864,12.562962176948034,Italian Restaurant
424,55.6761,12.559209090909091,50,42,4baf6fcdf964a520adff3be3,Restaurant Saigon,55.67342822118935,12.55539357662201,Vietnamese Restaurant
425,55.6761,12.559209090909091,50,43,5464a211498e7f3ec84b8977,bistro de paris,55.673183639529995,12.55957327289205,French Restaurant
426,55.6761,12.559209090909091,50,44,5ce1dc29e4c459002cdfff39,Hagan Dazs CopenHagen,55.676368,12.560108,Austrian Restaurant
427,55.6761,12.559209090909091,50,45,510c06bce4b0f2f19c099d6d,Sushi Vesterbrogade,55.677135,12.558811,Sushi Restaurant
428,55.6761,12.559209090909091,50,46,52a36eec498e6e32fe0e28fa,Mr Wong,55.672616,12.556154,Chinese Restaurant
429,55.6761,12.559209090909091,50,47,4d59786a3281b1f7248cbb2f,Ristorante RetroGusto,55.672845629176756,12.558281344502069,Italian Restaurant
430,55.6761,12.559209090909091,50,48,5d8ba9e54956e90008c6bb04,Mint,55.672344,12.556949,Indian Restaurant
431,55.6761,12.559209090909091,50,49,4d10dd89c3dc3704ed043c74,Jin Cheng,55.6746650340998,12.562239431225926,Asian Restaurant
432,55.6761,12.57739090909091,50,0,4b47b47af964a520373b26e3,Riz Raz,55.67707534759608,12.575303898645524,Vegetarian / Vegan Restaurant
433,55.6761,12.57739090909091,50,1,4bb1cc55f964a52089a33ce3,Restaurant Kronborg,55.67758758987612,12.574657422305492,Scandinavian Restaurant
434,55.6761,12.57739090909091,50,2,4adcdafff964a520385e21e3,Det Lille Apotek,55.68027629447842,12.574467956157953,Scandinavian Restaurant
435,55.6761,12.57739090909091,50,3,5c24bf2483e380002caf5bf3,All Season’s Food To Go,55.679693,12.574467,Filipino Restaurant
436,55.6761,12.57739090909091,50,4,59a69d2667e5f24c732b6dc1,Aamanns 1921,55.68019550097588,12.57594163279115,Scandinavian Restaurant
437,55.6761,12.57739090909091,50,5,4f2d1624e4b0c1a81853f0fe,Café Maroc,55.676859,12.574721,Moroccan Restaurant
438,55.6761,12.57739090909091,50,6,4afd65b2f964a520952722e3,Tight,55.67819167424438,12.576488340347044,Australian Restaurant
439,55.6761,12.57739090909091,50,7,552965b1498ed32092b812da,Restaurant Karla,55.67377139112723,12.573805115413,Scandinavian Restaurant
440,55.6761,12.57739090909091,50,8,4eef6a5fe5faa560f365eb30,Wok On,55.67805258657644,12.580015479527074,Asian Restaurant
441,55.6761,12.57739090909091,50,9,4bc34e57461576b0fb6c7e32,Sole D'italia,55.67999391975853,12.576261710574448,Italian Restaurant
442,55.6761,12.57739090909091,50,10,4adcdafff964a5203b5e21e3,Galathea Kroen,55.67663268517612,12.574407628817651,Scandinavian Restaurant
443,55.6761,12.57739090909091,50,11,59d4c0bbd1a4020628b170f0,Chao,55.67707,12.571384,Vietnamese Restaurant
444,55.6761,12.57739090909091,50,12,4adcdb00f964a520485e21e3,Restaurant Puk,55.67616,12.573968,Scandinavian Restaurant
445,55.6761,12.57739090909091,50,13,5cbca561f870fd002c78a5cc,Pizzeria Luca,55.677662,12.578285,Italian Restaurant
446,55.6761,12.57739090909091,50,14,539819ec498ed180c0a698fe,Tårnet,55.67629735432837,12.580526252180185,Scandinavian Restaurant
447,55.6761,12.57739090909091,50,15,4adcdafff964a5203d5e21e3,Kanal Caféen,55.67449115942083,12.577030414951452,Scandinavian Restaurant
448,55.6761,12.57739090909091,50,16,51f909f6498e3d83aaf54185,Slice of San Francisco,55.67596201467218,12.57498245373543,Café
449,55.6761,12.57739090909091,50,17,4bc0afa974a9a593c76ed0f6,Københavner Caféen,55.67808348716734,12.574925422668455,Scandinavian Restaurant
450,55.6761,12.57739090909091,50,18,5d6ad1ed49a1f10008b2d56d,Yaffa,55.679727,12.575385,Mediterranean Restaurant
451,55.6761,12.57739090909091,50,19,5aca12221acf111873ccf4f8,Hidden Dim Sum,55.677041,12.573404,Dim Sum Restaurant
452,55.6761,12.57739090909091,50,20,5dd2b8e741ac0900077e9829,Norrlyst,55.67759348525687,12.576255798339844,Scandinavian Restaurant
453,55.6761,12.57739090909091,50,21,4c3ded5015cb1b8d7b997cdc,Marv & Ben,55.67729337419156,12.577083152133822,Scandinavian Restaurant
454,55.6761,12.57739090909091,50,22,5d2cf08b53331f0023babbf0,Mæxico,55.678726,12.572974,Mexican Restaurant
455,55.6761,12.57739090909091,50,23,559bae5d498e651a42716388,TGI Friday's,55.67863922033221,12.579886584805683,American Restaurant
456,55.6761,12.57739090909091,50,24,5ca795bb3fffb40025bfdd88,Mamma’s,55.675851,12.57112,Italian Restaurant
457,55.6761,12.57739090909091,50,25,5687d40d498e809a74bb3c65,Rossopomodoro,55.679346188317,12.57984344689381,Italian Restaurant
458,55.6761,12.57739090909091,50,26,4c0a4a476071a593843fdf32,Viften i Tivoli,55.67375034155662,12.570808461614227,Scandinavian Restaurant
459,55.6761,12.57739090909091,50,27,4b9a9223f964a52056c235e3,Cafe Sorgenfri,55.67766285559069,12.574736583585375,Scandinavian Restaurant
460,55.6761,12.57739090909091,50,28,578687f9498e24eeec121903,Voraz,55.67724151635824,12.57564803393996,Tapas Restaurant
461,55.6761,12.57739090909091,50,29,550b1479498ed2931e6500b6,MOMO WOK BOX,55.67727768984363,12.571078198829436,Thai Restaurant
462,55.6761,12.57739090909091,50,30,4adcdb00f964a5205b5e21e3,Mama Rosa,55.67912952790198,12.58054180417083,Mexican Restaurant
463,55.6761,12.57739090909091,50,31,4cbf17037dc9a0936fc936f5,Shawarma Kebap Palace,55.676893121290526,12.570198195652067,Middle Eastern Restaurant
464,55.6761,12.57739090909091,50,32,4e69c34b1fc7442858b81304,Kantinen i Øresundshuset,55.67872773959784,12.57112205028534,Eastern European Restaurant
465,55.6761,12.57739090909091,50,33,4adcdafbf964a520105d21e3,Slotskælderen - Hos Gitte Kik,55.67786650014117,12.580815525217943,Scandinavian Restaurant
466,55.6761,12.57739090909091,50,34,4cb43fa039458cfaf0231fa0,Brydesen,55.67680977101631,12.580746404332244,Scandinavian Restaurant
467,55.6761,12.57739090909091,50,35,4c92039e7f3b8cfa503ca11e,Københavneren,55.678346,12.574864,Scandinavian Restaurant
468,55.6761,12.57739090909091,50,36,5d19e9efa24dd70023724474,Brasserie Jakobsen,55.679206,12.579667,Brasserie
469,55.6761,12.57739090909091,50,37,4c38964d18e72d7f968c18f5,Tivolihallen,55.6745174,12.5730421,Scandinavian Restaurant
470,55.6761,12.57739090909091,50,38,5006cdffe4b065de56a1b566,Silverspoon Pop-Up Picnic,55.67917779440264,12.579647406905222,Scandinavian Restaurant
471,55.6761,12.57739090909091,50,39,4bbf0a7ff353d13acaf37d10,Huset med det grønne træ,55.67804281835799,12.571942454565686,Scandinavian Restaurant
472,55.6761,12.57739090909091,50,40,4adcdb00f964a520605e21e3,Eros,55.67944174339535,12.575303417878741,Greek Restaurant
473,55.6761,12.57739090909091,50,41,4f905b3de4b0960330b458a3,Le Diamant,55.67911706705078,12.58030356593642,Sushi Restaurant
474,55.6761,12.57739090909091,50,42,4b7ed3ecf964a520780230e3,Bøf & Ost,55.67977794627238,12.575748312193962,Steakhouse
475,55.6761,12.57739090909091,50,43,5a01ef39e179105bdc8d6266,Mercante,55.679138,12.575951,Italian Restaurant
476,55.6761,12.57739090909091,50,44,4fdb1d21e4b05180f3d6bef9,foodstation,55.67998244329624,12.57497899185836,American Restaurant
477,55.6761,12.57739090909091,50,45,4f749710e4b0dd96b708eae7,Winemakerdinner Reinwalds,55.675837,12.571638,French Restaurant
478,55.6761,12.57739090909091,50,46,4bac5bcdf964a520bdf13ae3,Il Dona,55.67636547123881,12.575317800709803,Italian Restaurant
479,55.6761,12.57739090909091,50,47,4c66a10719f3c9b67548a0ff,Café Gl. Torv,55.678102,12.572075,Scandinavian Restaurant
480,55.6761,12.57739090909091,50,48,4ca86cf897c8a1cdbd8784a5,Minisushi,55.677219,12.571215,Sushi Restaurant
481,55.6761,12.57739090909091,50,49,52813f1f11d2ec9c7f358be1,Restaurant Sankt Nikolaj,55.678301,12.582685,Scandinavian Restaurant
482,55.6761,12.595572727272728,50,0,593970f125fb7b1e2377e2a9,Restaurant Barr,55.677772164560984,12.596363716497915,Scandinavian Restaurant
483,55.6761,12.595572727272728,50,1,5b33dc2c7247500039d116a2,Undici,55.674923,12.594125,Italian Restaurant
484,55.6761,12.595572727272728,50,2,591c736b2f97ec58c017493b,Nærvær,55.67740562124506,12.5963785735765,Wine Bar
485,55.6761,12.595572727272728,50,3,4d597d9f7e223704bbf7b173,Café & Restaurant Ofelia,55.679480683733026,12.594836637232167,French Restaurant
486,55.6761,12.595572727272728,50,4,572236b3498e9ddfa018cd6b,LaLaLa,55.67660375324254,12.595128481096605,French Restaurant
487,55.6761,12.595572727272728,50,5,524b36e7498e3ff738466f83,The Standard,55.677667467537425,12.591752610739523,Scandinavian Restaurant
488,55.6761,12.595572727272728,50,6,4bcacdf0b6c49c74ae2b9191,Tinos Pizzeria,55.67373642670748,12.59183357703505,Pizza Place
489,55.6761,12.595572727272728,50,7,5b16c7bc2f97ec002cdea88d,Madenitaly,55.678394,12.5901,Italian Restaurant
490,55.6761,12.595572727272728,50,8,4ba93068f964a520c1123ae3,Sahil Restaurant,55.67697492367346,12.589555817130444,Indian Restaurant
491,55.6761,12.595572727272728,50,9,4bc895258b7c9c746e6838cf,Christianshavns Færgecafé,55.67559842932219,12.592357968984716,Scandinavian Restaurant
492,55.6761,12.595572727272728,50,10,4adcdb00f964a5206d5e21e3,Restaurant Kanalen,55.675614,12.593046,Scandinavian Restaurant
493,55.6761,12.595572727272728,50,11,57936ae6498ea410bcdae751,Restaurant Kompasset,55.67939808907518,12.592342864491075,Scandinavian Restaurant
494,55.6761,12.595572727272728,50,12,5af1d5080dd31f0024e3eabd,Mak-Cik,55.677925,12.596991,Malay Restaurant
495,55.6761,12.595572727272728,50,13,5253faf9498e5f6e4a916c02,Almanak,55.67777550217731,12.591822465977268,Scandinavian Restaurant
496,55.6761,12.595572727272728,50,14,4f5139fbe4b0d9ab7922315a,Karma Sushi,55.67786808909263,12.589079382517712,Sushi Restaurant
497,55.6761,12.595572727272728,50,15,5b05bcd8c9a517002cdc98be,l’Alba Trattoria,55.678388,12.589615,Italian Restaurant
498,55.6761,12.595572727272728,50,16,553ce0dc498edbb294aca012,Cafeloppen,55.67360274945196,12.59674755063542,Thai Restaurant
499,55.6761,12.595572727272728,50,17,4b1bf7c8f964a520d6ff23e3,Tony's,55.67799490801001,12.591835056213808,Italian Restaurant
500,55.6761,12.595572727272728,50,18,4b86ba87f964a520379931e3,Damindra,55.67876721240542,12.590726320008645,Japanese Restaurant
501,55.6761,12.595572727272728,50,19,4b8690c0f964a520d08f31e3,La Sirene,55.679588867213425,12.59164745922887,Italian Restaurant
502,55.6761,12.595572727272728,50,20,5c279568c876c8002cd8c473,Chutneys Street Food,55.672259,12.591427,Food Truck
503,55.6761,12.595572727272728,50,21,53cab768498e7496ae266115,WOK,55.67200222805713,12.592299576602283,Thai Restaurant
504,55.6761,12.595572727272728,50,22,570fce0f498e6af5796911de,KOKS,55.67812261480274,12.592340709703846,Scandinavian Restaurant
505,55.6761,12.595572727272728,50,23,5bc2364773fe25002cb9eed1,Mission,55.677996,12.592269,Mediterranean Restaurant
506,55.6761,12.595572727272728,50,24,5da758987bc9390007c834f9,dondo,55.673563,12.589588,Mexican Restaurant
507,55.6761,12.595572727272728,50,25,4adcdb00f964a5204e5e21e3,Era Ora,55.67318938807584,12.591615855178706,Italian Restaurant
508,55.6761,12.595572727272728,50,26,4adcdafcf964a5203d5d21e3,Luna's Diner,55.67402348633499,12.591463635703175,American Restaurant
509,55.6761,12.595572727272728,50,27,4d02194258245481eb1a49ac,Chr. IV,55.673572,12.589005,Scandinavian Restaurant
510,55.6761,12.595572727272728,50,28,4b714d18f964a5202a402de3,Christianshavns Smørrebrød,55.672031694672235,12.593940467702376,Scandinavian Restaurant
511,55.6761,12.595572727272728,50,29,4b091d55f964a520481423e3,Hos Nicola,55.67329339658518,12.590316188275557,Italian Restaurant
512,55.6761,12.595572727272728,50,30,4d430af632d5236ab0f7bda5,fabios,55.67431591554185,12.590473683507795,Italian Restaurant
513,55.6761,12.595572727272728,50,31,4adcdafef964a5201a5e21e3,Cafe Wilder,55.67397131101246,12.591461494342724,Scandinavian Restaurant
514,55.6761,12.595572727272728,50,32,5da75828bc2fec0008efd1c7,dondo,55.673644,12.589483,Mexican Restaurant
515,55.6761,12.595572727272728,50,33,5d124ce72e173e002332deab,will at the bridge,55.678015,12.596967,Asian Restaurant
516,55.6761,12.595572727272728,50,34,56ed53c9498e06e6370b19cc,Red China,55.679545501185224,12.598210251803668,Chinese Restaurant
517,55.6761,12.595572727272728,50,35,4c6ebf2d6af58cfa99388d17,Sushi Style,55.68002701666668,12.591841,Japanese Restaurant
518,55.6761,12.595572727272728,50,36,4b18233af964a52090cd23e3,Tango y Vinos,55.67907827790403,12.58966244897826,Wine Bar
519,55.6761,12.595572727272728,50,37,506f1177e4b05bc762ec346c,Green Mango,55.673451830331246,12.589470132656729,Thai Restaurant
520,55.6761,12.595572727272728,50,38,538f5fea498e701ad78a8c84,"Tony""s",55.67745384802852,12.590187050808956,Italian Restaurant
521,55.6761,12.595572727272728,50,39,512b8477e4b0386996929103,Mad Monday,55.67774630572999,12.596434357122673,Scandinavian Restaurant
522,55.6761,12.595572727272728,50,40,51b21bd0498e228948f10788,Tonys,55.678006399250286,12.591709607796297,Italian Restaurant
523,55.6761,12.595572727272728,50,41,51c8a23c498e8a3a7dc93ea3,Dong Yuan,55.678417,12.58984,Asian Restaurant
524,55.6761,12.595572727272728,50,42,56e44c3c498e0ee2d02e211a,Banzai Street Food,55.679614,12.59797,Sushi Restaurant
525,55.6761,12.595572727272728,50,43,4b686feef964a52099782be3,Thai Asien Take Away,55.678434,12.590414,Thai Restaurant
526,55.6761,12.595572727272728,50,44,4b8fe802f964a520b06833e3,Sushi Saiko,55.67338124041371,12.589585301538321,Sushi Restaurant
527,55.6761,12.595572727272728,50,45,59e8d4dcf96b2c78d4fc0537,Teatro Del Gusto,55.678485,12.59004,Italian Restaurant
528,55.6761,12.595572727272728,50,46,55cf6c01498e503bb2541be8,Long Feng,55.672123,12.592008,Chinese Restaurant
529,55.6761,12.595572727272728,50,47,4ca35ea2554b236a5f112648,Letz Sushi,55.67335331016665,12.592257439065005,Sushi Restaurant
530,55.6761,12.595572727272728,50,48,4caf678175ebb60ceafdbbad,Eraora,55.67269661496121,12.591472111447684,Italian Restaurant
531,55.6761,12.595572727272728,50,49,523b3ad111d2a985a52602f8,Sankt Annæ 8 - Christians Havns nye mødested,55.67388,12.591284,Tapas Restaurant
532,55.686099999999996,12.468300000000001,1,0,4c2a4029c758e21e545a3a3f,Mama Thai,55.682574820182076,12.46490556962464,Asian Restaurant
533,55.686099999999996,12.486481818181819,13,0,59de3276f79faa6027e9eea6,shawarma house,55.682802,12.491842,Middle Eastern Restaurant
534,55.686099999999996,12.486481818181819,13,1,4c0935f2bbc676b0bfc947d5,Den Gyldne Okse,55.689456812497994,12.489532297989873,Scandinavian Restaurant
535,55.686099999999996,12.486481818181819,13,2,4b9a723df964a52010b635e3,Que Pasa,55.68415300860668,12.485997478267718,Mexican Restaurant
536,55.686099999999996,12.486481818181819,13,3,4cfa4adb34c1a09327403f0e,Mings Dynasti,55.689390373561146,12.488407332304046,Chinese Restaurant
537,55.686099999999996,12.486481818181819,13,4,4b9a06bdf964a520939b35e3,Antoni pizza,55.682613,12.489831,Italian Restaurant
538,55.686099999999996,12.486481818181819,13,5,52388c68498e45497ba07e06,Il Padrino,55.68675343283172,12.4910686501334,Italian Restaurant
539,55.686099999999996,12.486481818181819,13,6,5cffcea998fbfc002cd21b9e,Letz Sushi,55.686348,12.4914,Sushi Restaurant
540,55.686099999999996,12.486481818181819,13,7,5c3a3686f129b50025b9307d,Umi Sushi,55.687755,12.49,Sushi Restaurant
541,55.686099999999996,12.486481818181819,13,8,4d73bd1b3815f04d9d369f67,Hamburger,55.684621,12.489268,American Restaurant
542,55.686099999999996,12.486481818181819,13,9,5ace31ae79f6c72add3222d9,Milano Caffé & Trattoria,55.687424,12.491133,Italian Restaurant
543,55.686099999999996,12.486481818181819,13,10,4fdf89bbe4b09d54189f3700,Italiensk Pizzaria,55.684434,12.485496,Italian Restaurant
544,55.686099999999996,12.486481818181819,13,11,50b10132e4b01d0e2bb991fc,Ny Hongkong Grill,55.686243192929894,12.4827788852109,Chinese Restaurant
545,55.686099999999996,12.486481818181819,13,12,4b9a7032f964a52054b535e3,Kiwis,55.6904791,12.487882,Thai Restaurant
546,55.686099999999996,12.504663636363638,11,0,5ddffc464bcd6400078f2edc,Mudan,55.684392,12.503827,Chinese Restaurant
547,55.686099999999996,12.504663636363638,11,1,4c729b1b4bc4236aa2a5cb7a,Kineseren,55.687111,12.498615,Chinese Restaurant
548,55.686099999999996,12.504663636363638,11,2,54da454e498e922f8ecfd452,Teppan House,55.68486062694955,12.501133463059723,Asian Restaurant
549,55.686099999999996,12.504663636363638,11,3,522b0c1311d27b8431d75179,Zeybek Flintholm st Pizzaria,55.685885,12.498715,Turkish Restaurant
550,55.686099999999996,12.504663636363638,11,4,5afac4649fca56002c48a073,Min Thai Takeaway,55.68532693508523,12.50043511390686,Thai Restaurant
551,55.686099999999996,12.504663636363638,11,5,57ca9e9b498e532c63449ead,La Liberta,55.683675,12.50467,Italian Restaurant
552,55.686099999999996,12.504663636363638,11,6,52dd6fc211d23ce2b0e3e50c,Flintholm Sushi,55.68437,12.503667,Sushi Restaurant
553,55.686099999999996,12.504663636363638,11,7,5c1be3421af852002cb27bbc,Sushi Station,55.685662,12.498906,Sushi Restaurant
554,55.686099999999996,12.504663636363638,11,8,56855bbb498e00c01229fa7f,polakkens hybel,55.682994240275434,12.504970302202308,Polish Restaurant
555,55.686099999999996,12.504663636363638,11,9,54bbf764498e98ead01fc285,TV-dinner 🍴,55.683858,12.503864,Modern European Restaurant
556,55.686099999999996,12.504663636363638,11,10,566dab81498eb7235d114cb4,Mae Pen,55.684593,12.500759,Thai Restaurant
557,55.686099999999996,12.522845454545456,17,0,5da57f3cc4e22b000857157a,Ramen to Bíiru Frederiksberg,55.68525738016943,12.52880483865738,Ramen Restaurant
558,55.686099999999996,12.522845454545456,17,1,556f3257498ec7498b84c164,Sushi Factory,55.68862723542342,12.524449368732588,Sushi Restaurant
559,55.686099999999996,12.522845454545456,17,2,4b5200e3f964a520996027e3,The Taco Shop,55.68435510886657,12.524139687995657,Taco Place
560,55.686099999999996,12.522845454545456,17,3,4b58a503f964a520586328e3,Thaiaway Frederiksberg,55.687468881322005,12.529921517445949,Thai Restaurant
561,55.686099999999996,12.522845454545456,17,4,5ae9d71932b61d002ca7d000,Curry Nation,55.68962,12.519977,Indian Restaurant
562,55.686099999999996,12.522845454545456,17,5,4f19be82e4b0b62f9ba74c03,Goa,55.68927490952211,12.521420954271775,Indian Restaurant
563,55.686099999999996,12.522845454545456,17,6,4c278eaca852c9281b6de86c,Ming Yang,55.68761619269404,12.52882135076348,Chinese Restaurant
564,55.686099999999996,12.522845454545456,17,7,4baf63ddf964a52053fc3be3,100% Sushi,55.68852245807648,12.523977,Japanese Restaurant
565,55.686099999999996,12.522845454545456,17,8,50915bffe4b005e812b7ef67,Gastronomia Siciliana,55.688506,12.525333,Italian Restaurant
566,55.686099999999996,12.522845454545456,17,9,4c7d2ccb8da18cfaf2839ece,Bangkok,55.683413,12.527631,Thai Restaurant
567,55.686099999999996,12.522845454545456,17,10,4c330b3d213c2d7fe741365d,Dagliglivets Oase,55.68423628807068,12.524747,Middle Eastern Restaurant
568,55.686099999999996,12.522845454545456,17,11,4b799b10f964a52002052fe3,Asian Mix,55.68385717715788,12.524414952073686,Asian Restaurant
569,55.686099999999996,12.522845454545456,17,12,4cc99fc5d338236a92b6a37c,Klai Takeaway,55.684546,12.52515,French Restaurant
570,55.686099999999996,12.522845454545456,17,13,58b5bb7bfad9dc2a8cb78f37,Tapas Vin,55.68433,12.525052,Spanish Restaurant
571,55.686099999999996,12.522845454545456,17,14,4c7d2d50b33a224b2a37d781,Bangkok Thailandsk Restaurant,55.683409,12.527484,Thai Restaurant
572,55.686099999999996,12.522845454545456,17,15,5723ae7ccd1010835e1eef55,Spicylicious,55.684265,12.524745,Asian Restaurant
573,55.686099999999996,12.522845454545456,17,16,5130a64de4b0cd2aaafcf2ef,Alfredo Pizzaria,55.68453756176494,12.516287599874952,Italian Restaurant
574,55.686099999999996,12.541027272727273,46,0,4c278c465c5ca593eaf247fe,Satang Thai Bistro,55.6850278,12.5481855,Thai Restaurant
575,55.686099999999996,12.541027272727273,46,1,50031772e4b062a7b3171453,Dim Sum,55.68827783737524,12.542556645718811,Dim Sum Restaurant
576,55.686099999999996,12.541027272727273,46,2,54941a5a498e91fedc2ba37d,The South Indian,55.68585917730217,12.536902427673338,South Indian Restaurant
577,55.686099999999996,12.541027272727273,46,3,4b5ee6edf964a5202c9d29e3,Hong Kong Grill,55.689215572929626,12.542966813964266,Chinese Restaurant
578,55.686099999999996,12.541027272727273,46,4,5df9972f3f596900083b97c0,Mahalle Frederiksberg,55.685007,12.540818,Lebanese Restaurant
579,55.686099999999996,12.541027272727273,46,5,50fa8ed3e4b02b4f4d65897e,Bertels Kager,55.68363511457698,12.536705724151016,Café
580,55.686099999999996,12.541027272727273,46,6,4ca36e16f832a1cdfe889de5,Famosi e Golosi,55.68486915094212,12.540833105085726,Italian Restaurant
581,55.686099999999996,12.541027272727273,46,7,57f15735cd10bfc2c1e00e25,Nihao Yao,55.687391,12.547198,Asian Restaurant
582,55.686099999999996,12.541027272727273,46,8,5c66d2ce4a7aae002c9df902,Spise\Bar no. 15,55.684934,12.540652,Dutch Restaurant
583,55.686099999999996,12.541027272727273,46,9,55bb860a498e11c6acf84dee,Petit Paté,55.68579131228908,12.5370272307851,French Restaurant
584,55.686099999999996,12.541027272727273,46,10,4cdffa20825e721effbe7345,Ågade 120,55.68892,12.54036,Scandinavian Restaurant
585,55.686099999999996,12.541027272727273,46,11,509d4f1ce4b007e3c11cda48,Fu Wa,55.68847919919391,12.542069731994156,Chinese Restaurant
586,55.686099999999996,12.541027272727273,46,12,4fc3b84ee4b07ac9fd78e8aa,Favori Baklavaci,55.685041037717504,12.538028628514299,Turkish Restaurant
587,55.686099999999996,12.541027272727273,46,13,5c48acaf065ef5002ca32702,Fusion Monkey,55.686572,12.540233,Sushi Restaurant
588,55.686099999999996,12.541027272727273,46,14,5a7f204b5d891b6e3fc3f13e,mondän,55.686318,12.53455,Scandinavian Restaurant
589,55.686099999999996,12.541027272727273,46,15,56d9b615498eb40cebfaacd8,Zi Sushi,55.684686,12.541076,Sushi Restaurant
590,55.686099999999996,12.541027272727273,46,16,4bbb6d0053649c74b90f4afb,Sapore Italiano,55.682908,12.53578,Italian Restaurant
591,55.686099999999996,12.541027272727273,46,17,54ee3b16498e114103e3e9ed,Los Hald Gigante,55.688376,12.546888,Austrian Restaurant
592,55.686099999999996,12.541027272727273,46,18,523c332e11d2c2dbd8b6fcd5,Mace Indian Cuisine,55.6857568134529,12.537009617858224,Indian Restaurant
593,55.686099999999996,12.541027272727273,46,19,56574bd2498ed1bb97b3f7f9,Eldorado,55.69036056430645,12.54229480535272,Scandinavian Restaurant
594,55.686099999999996,12.541027272727273,46,20,55de03ef498eb49c6a8a5e40,Alimentum,55.68735885620117,12.541176795959473,Indian Restaurant
595,55.686099999999996,12.541027272727273,46,21,4ddfda28ae60c015c0a0b256,La Vita é Bella,55.68453723623409,12.537672914786963,Italian Restaurant
596,55.686099999999996,12.541027272727273,46,22,4b1ab498f964a520d5ef23e3,Restaurant Fabio,55.6836616,12.5369365,Italian Restaurant
597,55.686099999999996,12.541027272727273,46,23,52a3662f11d2f2843f9100e1,New Tokyo sushi,55.684836448223514,12.54087957461022,Sushi Restaurant
598,55.686099999999996,12.541027272727273,46,24,50c4d7aee4b0794e9ac4a0e0,Rice 'N' Curry,55.68306737139072,12.53608162722145,Indian Restaurant
599,55.686099999999996,12.541027272727273,46,25,5841aff29465dd42627f75bb,Akiba Shushi & Wok,55.68518,12.540423,Sushi Restaurant
600,55.686099999999996,12.541027272727273,46,26,5ac1043e89e49056c2e695f0,Tapas 2 Go,55.68419,12.543046,Tapas Restaurant
601,55.686099999999996,12.541027272727273,46,27,4fce4db3e4b0844bff88751f,FuWa,55.688364789769004,12.54220729360161,Chinese Restaurant
602,55.686099999999996,12.541027272727273,46,28,547cb681498ed14f0d022fb7,Nordic Noodle,55.686373693324796,12.534295054193397,Noodle House
603,55.686099999999996,12.541027272727273,46,29,4dd382d452b1f6bad408cd3a,Mit Plenum,55.68615368133665,12.537715656484012,French Restaurant
604,55.686099999999996,12.541027272727273,46,30,4b53057ff964a520d38c27e3,Green Kitchen,55.68634400268403,12.53455921059155,Middle Eastern Restaurant
605,55.686099999999996,12.541027272727273,46,31,5cae1809d69ed0002c27cb39,Nonsolo Trattoria,55.686159,12.534624,Italian Restaurant
606,55.686099999999996,12.541027272727273,46,32,4c80be1b51ada1cd29290c10,Hostrups Have Smørrebrød,55.68510059517378,12.539858731106705,Scandinavian Restaurant
607,55.686099999999996,12.541027272727273,46,33,5a291991bd897e495c183405,Pasta du Nord,55.684932,12.538318,Italian Restaurant
608,55.686099999999996,12.541027272727273,46,34,4fbbc305e4b01b3b571a84fb,Grill,55.687284,12.547159,Asian Restaurant
609,55.686099999999996,12.541027272727273,46,35,514202aee4b03f64fd336922,Um Hamza's Marokkanske delikatesser,55.68723589113279,12.540987084198568,Moroccan Restaurant
610,55.686099999999996,12.541027272727273,46,36,4ec7ddfd6da1d1092f07e9ef,Raku Raku Sushi,55.68334457817309,12.53644668920585,Sushi Restaurant
611,55.686099999999996,12.541027272727273,46,37,524ae2ac498e815d4e115e7e,Baklavaci,55.685168,12.538285,Turkish Restaurant
612,55.686099999999996,12.541027272727273,46,38,4e21a231b61cdcf1ecbf3ce8,Wok King,55.68586978017668,12.536519930374261,Chinese Restaurant
613,55.686099999999996,12.541027272727273,46,39,4b6b041cf964a520cfec2be3,Sushi day,55.686677789779964,12.540157618932152,Sushi Restaurant
614,55.686099999999996,12.541027272727273,46,40,4c9b953bdb10b60c14b09c6d,Bép Viét,55.68553604756827,12.537723565831216,Asian Restaurant
615,55.686099999999996,12.541027272727273,46,41,5a89c3f31953f33b9a2d33a6,Trattoria 54,55.683611,12.536808,Italian Restaurant
616,55.686099999999996,12.541027272727273,46,42,4d260e9a0167a1cd9027a3bd,Wok Shop Frb,55.688936018947665,12.541878325994649,Asian Restaurant
617,55.686099999999996,12.541027272727273,46,43,5be487e33149b9002c5c5cbb,Wafu Ramen,55.685029,12.538523,Ramen Restaurant
618,55.686099999999996,12.541027272727273,46,44,4f19a778e4b08b384e5d42d6,Cavallino Pizzeria N,55.68720854217692,12.546322017659339,Pizza Place
619,55.686099999999996,12.541027272727273,46,45,4b1561e6f964a520feab23e3,Nha Trang,55.687541943343774,12.546884263412874,Vietnamese Restaurant
620,55.686099999999996,12.559209090909091,50,0,54948499498edf459c975030,Alabama Social,55.687839483847426,12.563157695496509,Southern / Soul Food Restaurant
621,55.686099999999996,12.559209090909091,50,1,4bb3677f35f0c9b6374dbc83,Pintxos,55.684478765678584,12.566256717079414,Spanish Restaurant
622,55.686099999999996,12.559209090909091,50,2,5662c4f0498e91cb498a0a8d,Ramen to Bíiru Nørrebro,55.687816,12.553991,Ramen Restaurant
623,55.686099999999996,12.559209090909091,50,3,4b1181bbf964a5200e7e23e3,Scarpetta,55.685484631821026,12.55225342323493,Italian Restaurant
624,55.686099999999996,12.559209090909091,50,4,595364bdc824ae7396b4f3f9,La Neta Nørrebro,55.68845492871642,12.559235148844687,Taco Place
625,55.686099999999996,12.559209090909091,50,5,58a1c11f0bc55b3d82502c77,Cicchetti,55.68986890567189,12.555854916572569,Italian Restaurant
626,55.686099999999996,12.559209090909091,50,6,4ba7a63cf964a52017a639e3,La Rocca,55.684772618319414,12.566252020629241,Italian Restaurant
627,55.686099999999996,12.559209090909091,50,7,4d78895c0ddba35d56334276,Sticks'n'Sushi,55.684364,12.565891,Sushi Restaurant
628,55.686099999999996,12.559209090909091,50,8,5f44cef8aa74e2041645b623,Grød,55.689886,12.558364,Scandinavian Restaurant
629,55.686099999999996,12.559209090909091,50,9,56acb0c3498e6a949b1fad2c,Blue Taco,55.68785502109928,12.560017704963684,Taco Place
630,55.686099999999996,12.559209090909091,50,10,51cc6f10498e8dcbb035b90f,Ma'ed Ethiopian Restaurant,55.68887166009474,12.555040031630787,African Restaurant
631,55.686099999999996,12.559209090909091,50,11,53623f6a498ee3fc72d02d7a,Banh Mi,55.690033,12.559382,Vietnamese Restaurant
632,55.686099999999996,12.559209090909091,50,12,4adcdb00f964a520755e21e3,Thai Pan,55.68446744491092,12.55968697746557,Thai Restaurant
633,55.686099999999996,12.559209090909091,50,13,4ba3de63f964a5206d6838e3,Tandoori Masala,55.688625880063384,12.55890436735082,Indian Restaurant
634,55.686099999999996,12.559209090909091,50,14,511bad69e4b096e87cdba2b4,Mahalle Birkegade,55.6903152194355,12.55824946208045,Café
635,55.686099999999996,12.559209090909091,50,15,5e28356e4cfd6300087ce288,la pausa,55.682768,12.557927,Corporate Cafeteria
636,55.686099999999996,12.559209090909091,50,16,4b02f3b7f964a520584b22e3,Ranees,55.68656962559544,12.557311104986665,Thai Restaurant
637,55.686099999999996,12.559209090909091,50,17,5f32eb9448c64a2e52059bda,Bar Pasta,55.688057,12.554485,Italian Restaurant
638,55.686099999999996,12.559209090909091,50,18,563f32a8cd10e2a28c0b21bf,Feed Bistro,55.68877410888672,12.559603691101074,Modern European Restaurant
639,55.686099999999996,12.559209090909091,50,19,4b99559af964a520ef7335e3,Kates Joint,55.6869874571621,12.558864222266653,Cajun / Creole Restaurant
640,55.686099999999996,12.559209090909091,50,20,551c3fdf498e7ada62b9a065,O Tempo,55.68315731167617,12.555858226331857,Brazilian Restaurant
641,55.686099999999996,12.559209090909091,50,21,5c8feb88492822003a1ce6cc,Mahalle,55.689308,12.556503,Lebanese Restaurant
642,55.686099999999996,12.559209090909091,50,22,4dd3fa1fe4cd6154148b7f33,Kung Fu II,55.68884498928701,12.56253030844842,Japanese Restaurant
643,55.686099999999996,12.559209090909091,50,23,4b7d4ab1f964a520b5b62fe3,Letz Sushi,55.690400598071406,12.559876774791567,Sushi Restaurant
644,55.686099999999996,12.559209090909091,50,24,4f6e1143e4b09530aef15739,Malbech Vinotek,55.69007228110468,12.558369172592927,Argentinian Restaurant
645,55.686099999999996,12.559209090909091,50,25,4bfd60768992a5936807acb0,B'india,55.68964122244561,12.55818119552092,Indian Restaurant
646,55.686099999999996,12.559209090909091,50,26,59b3e8a873fe25689be18344,Gaza Grill,55.690289,12.560921,Middle Eastern Restaurant
647,55.686099999999996,12.559209090909091,50,27,4b7433fcf964a520d5cc2de3,Selfish,55.68949659625369,12.558015295223806,Sushi Restaurant
648,55.686099999999996,12.559209090909091,50,28,4f355d20e4b0b9c4651e0c1d,Mijo,55.68748206170018,12.559636675064239,Scandinavian Restaurant
649,55.686099999999996,12.559209090909091,50,29,4f4d0e9be4b051dc47fb6ba7,Mona Kebab,55.690024,12.555508,Middle Eastern Restaurant
650,55.686099999999996,12.559209090909091,50,30,4b92a929f964a520d10e34e3,Chun Bo,55.68464338495692,12.55353772134898,Chinese Restaurant
651,55.686099999999996,12.559209090909091,50,31,5bfae5a66f0aa2002c767b19,Poporoya,55.685345,12.557157,Sushi Restaurant
652,55.686099999999996,12.559209090909091,50,32,5981969a002f4c1fde5b8b51,Brødrene Grim,55.689799,12.55589,Scandinavian Restaurant
653,55.686099999999996,12.559209090909091,50,33,54f974fe498e4c034e77fecf,P2 by Malbeck,55.68976930871129,12.558207681976313,Argentinian Restaurant
654,55.686099999999996,12.559209090909091,50,34,5c72c1b7535d6f002c56628f,Xilonen,55.685569,12.566491,Mexican Restaurant
655,55.686099999999996,12.559209090909091,50,35,5e31c885b2d6f400081b597b,Colpo Grosso,55.68804,12.554416,Italian Restaurant
656,55.686099999999996,12.559209090909091,50,36,5baa59a5625a66002c8b472d,B/rW,55.689046,12.559894,Ramen Restaurant
657,55.686099999999996,12.559209090909091,50,37,594ffec1a2a6ce201900c067,Anas,55.684814,12.551781,Indian Restaurant
658,55.686099999999996,12.559209090909091,50,38,516438cfe4b02852ca45062b,Pastamania,55.689736345424585,12.557994778315772,Italian Restaurant
659,55.686099999999996,12.559209090909091,50,39,4afe90b1f964a5209b2f22e3,Picnic,55.690309,12.5606,Middle Eastern Restaurant
660,55.686099999999996,12.559209090909091,50,40,5f09eb74b650630d615616ea,Curry Box,55.689419,12.556731,Indian Restaurant
661,55.686099999999996,12.559209090909091,50,41,53dbcb0c498eb5711b0b9951,Send Flere Krydderier,55.68783379154799,12.559812774975198,Middle Eastern Restaurant
662,55.686099999999996,12.559209090909091,50,42,5d1ba771e324520023495575,Osteria 16 Nørrebro,55.688714,12.562178,Italian Restaurant
663,55.686099999999996,12.559209090909091,50,43,514e1bd6e4b069b90961bde9,Vin & Tapassalonen,55.686752339704306,12.562746683149111,Spanish Restaurant
664,55.686099999999996,12.559209090909091,50,44,517960f3e4b02bca948569aa,Bada Bing,55.6850253233253,12.556603861151938,Tapas Restaurant
665,55.686099999999996,12.559209090909091,50,45,4cdd7b906ad1a0934bbaf756,Madsynergi,55.683263510776165,12.555891916112177,French Restaurant
666,55.686099999999996,12.559209090909091,50,46,5f3fdfb4a31bc16d0117d0ea,Eatalian,55.683070873443924,12.555972933769226,Italian Restaurant
667,55.686099999999996,12.559209090909091,50,47,597335852f97ec47337b9b86,Cafe Julia & Safija,55.687444,12.55941,Middle Eastern Restaurant
668,55.686099999999996,12.559209090909091,50,48,4b463487f964a520fb1926e3,Thai2You,55.68971764500728,12.558268478247516,Thai Restaurant
669,55.686099999999996,12.559209090909091,50,49,528f804b498ea8cd7f0d4283,Sushi Pro,55.68891534025857,12.558152572724525,Japanese Restaurant
670,55.686099999999996,12.57739090909091,43,0,4bd80c9bf645c9b6fa09a7e0,O's American Breakfast & Barbeque,55.69023126053857,12.575078917674148,Diner
671,55.686099999999996,12.57739090909091,43,1,4c7e7304d65437046744c3a2,Under Uret,55.6894454314807,12.575012311377469,Scandinavian Restaurant
672,55.686099999999996,12.57739090909091,43,2,5b81a0d535f983002c4bcdde,Souvlaki Stories,55.689856,12.573299,Souvlaki Shop
673,55.686099999999996,12.57739090909091,43,3,5d5c2664a9dce20008d2585e,Maison,55.684406,12.58364,French Restaurant
674,55.686099999999996,12.57739090909091,43,4,543fe307498e8cacb48bb075,Vinværten,55.68342686557605,12.577913461722567,Tapas Restaurant
675,55.686099999999996,12.57739090909091,43,5,5442a663498ec84e42e4bfc4,L'Anfora,55.68365571912467,12.577158681914128,Italian Restaurant
676,55.686099999999996,12.57739090909091,43,6,4b520eb8f964a520a56427e3,Sticks'n'Sushi,55.690355,12.575443,Sushi Restaurant
677,55.686099999999996,12.57739090909091,43,7,4bd6a9786798ef3b366f658d,Restaurant Schønnemann,55.68275619106309,12.575768548788117,Scandinavian Restaurant
678,55.686099999999996,12.57739090909091,43,8,4ea0433cf5b99725b9e20d6d,Aamanns Etablissement,55.6900706277212,12.57502007241625,Scandinavian Restaurant
679,55.686099999999996,12.57739090909091,43,9,5ee50670dd56ba0007c6c65b,Keyser Social,55.683434,12.572283,Asian Restaurant
680,55.686099999999996,12.57739090909091,43,10,574185d4498eb87fd4a2e165,Hønen og Ægget,55.6904149,12.5754854,Scandinavian Restaurant
681,55.686099999999996,12.57739090909091,43,11,4b684ccff964a52073702be3,Aamanns Deli & Take Away,55.69005906887561,12.575068296577044,Scandinavian Restaurant
682,55.686099999999996,12.57739090909091,43,12,57c9a590cd1043c5b1f8a180,Shawarma Factory,55.683184,12.573017,Middle Eastern Restaurant
683,55.686099999999996,12.57739090909091,43,13,4b11142af964a520f47723e3,The Ricemarket,55.68264216626703,12.574391533445363,Thai Restaurant
684,55.686099999999996,12.57739090909091,43,14,5ee8d631e3745c000776983d,Restaurant Møntergade,55.681885,12.579738,Scandinavian Restaurant
685,55.686099999999996,12.57739090909091,43,15,59aae72c7dc9e105c8ea6aa8,Kopan,55.684429,12.571276,Korean Restaurant
686,55.686099999999996,12.57739090909091,43,16,52bf210c498e433f19e512f8,Spaghetteria La Perla,55.68239657909433,12.577088960808727,Italian Restaurant
687,55.686099999999996,12.57739090909091,43,17,4d57cf6bde8f6dcb72b00391,Traktørstedet Rosenborg Slot,55.68612992763519,12.576658129692078,Scandinavian Restaurant
688,55.686099999999996,12.57739090909091,43,18,4c0d259d2466a593f31e7721,Ristorante San Giorgio,55.683465,12.574088,Italian Restaurant
689,55.686099999999996,12.57739090909091,43,19,4f1869a7e4b0926438c2dcd0,Samosa Food,55.68397792551415,12.572869786348065,Indian Restaurant
690,55.686099999999996,12.57739090909091,43,20,4d2f5c2e5055a35dbaf39aca,Ristorante ITALIANO Pompei,55.682787,12.574207,Italian Restaurant
691,55.686099999999996,12.57739090909091,43,21,4b48e304f964a520cd5b26e3,Nagoya Running Sushi,55.689551699603705,12.574194650813107,Sushi Restaurant
692,55.686099999999996,12.57739090909091,43,22,4d206f698629224b7dfc1287,Restaurant Kultorvet,55.68252062006628,12.574263369842472,Scandinavian Restaurant
693,55.686099999999996,12.57739090909091,43,23,5c5dc4dcf8cbd4002cfc0926,Sushi Tsukiji,55.684169,12.570271,Sushi Restaurant
694,55.686099999999996,12.57739090909091,43,24,4adcdb00f964a520495e21e3,Restaurationen,55.682056675318165,12.579807797380413,French Restaurant
695,55.686099999999996,12.57739090909091,43,25,4dc43db6d4c0ad9c0f69936a,Middag med en smuk Grisling,55.682706,12.574354,Thai Restaurant
696,55.686099999999996,12.57739090909091,43,26,4cf1155bcc61a35df29f129e,Kultorvet 5,55.682433,12.574006,Scandinavian Restaurant
697,55.686099999999996,12.57739090909091,43,27,4d1b0a9f33562c0f1952dc29,Byens Smørrebrød,55.68930573370529,12.573316601302587,Sandwich Place
698,55.686099999999996,12.57739090909091,43,28,4e4a92f7e4cd4fd73005d7c3,Bohemia,55.682453306704566,12.581944439637695,Eastern European Restaurant
699,55.686099999999996,12.57739090909091,43,29,585c227edc332905559aa73a,Bistro les Halles,55.684716,12.569816,French Restaurant
700,55.686099999999996,12.57739090909091,43,30,5ebcba4ec7b80d000becb8c5,Montergade,55.681843,12.579785,Scandinavian Restaurant
701,55.686099999999996,12.57739090909091,43,31,4d3d491d05b8721e978a9337,Asia - Food. Nørreport.,55.683923,12.572557,Asian Restaurant
702,55.686099999999996,12.57739090909091,43,32,52ea95fd498e05d09670a76e,Heart of Fusion,55.682441,12.574131,Japanese Restaurant
703,55.686099999999996,12.57739090909091,43,33,4f303e5fe4b083c42a20a258,ellies kitchen,55.687231,12.583603,American Restaurant
704,55.686099999999996,12.57739090909091,43,34,5b6c715e286fda002c577ebd,steak & thai,55.689668,12.573874,Thai Restaurant
705,55.686099999999996,12.57739090909091,43,35,58654907ea1c0d03327bb9db,Thai Pathong,55.689519,12.57399,Thai Restaurant
706,55.686099999999996,12.57739090909091,43,36,4c7fcca5fb13a1cd0da7a1a4,Bistro Kultorvet,55.682603,12.574225,Scandinavian Restaurant
707,55.686099999999996,12.57739090909091,43,37,59cf88bd0336930aa8c9b35b,Clou,55.689842,12.574791,Scandinavian Restaurant
708,55.686099999999996,12.57739090909091,43,38,575c4ebc498e3c8b2f18616c,Det Franske Spisehus,55.689747,12.574398,French Restaurant
709,55.686099999999996,12.57739090909091,43,39,5365387f498e983353ab1cf1,Rambla Nørreport,55.683806243357104,12.571305489262025,Tapas Restaurant
710,55.686099999999996,12.57739090909091,43,40,4adcdb00f964a5204a5e21e3,Sakura,55.68222985991933,12.58011553541743,Japanese Restaurant
711,55.686099999999996,12.57739090909091,43,41,4e231a3188774a43b77ab0df,Picollo,55.690025,12.575138,Italian Restaurant
712,55.686099999999996,12.57739090909091,43,42,55f3d606498e2feb2b02a41b,Karamba,55.68983152324798,12.57344812926906,Mexican Restaurant
713,55.686099999999996,12.595572727272728,21,0,4adcdafff964a520375e21e3,Cafe Petersborg,55.68742505617501,12.592813216679836,Scandinavian Restaurant
714,55.686099999999996,12.595572727272728,21,1,526fd53f498e81f5185f5295,District Tonkin,55.685077,12.588224,Vietnamese Restaurant
715,55.686099999999996,12.595572727272728,21,2,5b1c2d41d552c7002cd0f002,Salon,55.686249,12.591777,Scandinavian Restaurant
716,55.686099999999996,12.595572727272728,21,3,4afd5fb1f964a520802722e3,Bistro Boheme,55.68747447060995,12.591382550417688,French Restaurant
717,55.686099999999996,12.595572727272728,21,4,58a06c57e6160c5d3b9a1c65,Nyboders Køkken,55.68674837792116,12.587825920848555,Scandinavian Restaurant
718,55.686099999999996,12.595572727272728,21,5,5b191bcb4a7aae002c55763c,Frenchy,55.684906,12.588046,French Restaurant
719,55.686099999999996,12.595572727272728,21,6,4ba749d2f964a520d08939e3,Restaurant Amalie,55.68268978175843,12.592062471490998,Scandinavian Restaurant
720,55.686099999999996,12.595572727272728,21,7,5adce902e65d0c034ce262e5,Khmer Cuisine,55.685852,12.589353,Cambodian Restaurant
721,55.686099999999996,12.595572727272728,21,8,4bce0d6a29d4b713afdca7dc,Nakorn Thai,55.68616554998177,12.589221990915105,Thai Restaurant
722,55.686099999999996,12.595572727272728,21,9,4fd0913be4b0e16f8db6cc71,Cafe Toldboden,55.68701,12.595872,Scandinavian Restaurant
723,55.686099999999996,12.595572727272728,21,10,5a103a833149b9796e296911,Fabro,55.686536,12.587761,Italian Restaurant
724,55.686099999999996,12.595572727272728,21,11,4c6bffbaa437224bb81229b1,Restaurant Mance,55.684916005211115,12.5881836143421,Italian Restaurant
725,55.686099999999996,12.595572727272728,21,12,4d2f4c4b6fc6f04d8ffa8845,Restaurant Cave,55.684651354194436,12.588071100563026,Indian Restaurant
726,55.686099999999996,12.595572727272728,21,13,52ed3bb211d2b55c3e5c6200,Borgerkroens Køkken,55.68676122518798,12.587891302150492,Scandinavian Restaurant
727,55.686099999999996,12.595572727272728,21,14,4aff1991f964a5202f3422e3,Toldbod Bodega,55.68731876638253,12.590626437739738,Scandinavian Restaurant
728,55.686099999999996,12.595572727272728,21,15,4aead645f964a52043bc21e3,Svend Larsens eftf.,55.685972636757924,12.588726317682273,Scandinavian Restaurant
729,55.686099999999996,12.595572727272728,21,16,586502f83e883556798b3167,Esplanaden 48,55.687977,12.596486,Scandinavian Restaurant
730,55.686099999999996,12.595572727272728,21,17,4d2ca11d849f370408ca9c41,Grønfeldts Taverna,55.687843,12.590809,Greek Restaurant
731,55.686099999999996,12.595572727272728,21,18,4c5c35e6857ca593495fc9cb,Mogogo,55.686615,12.587869,African Restaurant
732,55.686099999999996,12.595572727272728,21,19,59b8dcdb805e3f17ecb613b5,The Vietnamese,55.686438,12.5894,Vietnamese Restaurant
733,55.686099999999996,12.595572727272728,21,20,4eaa948cd3e3846cbcb17b42,Cafe Paris,55.687545780885074,12.590133604749987,French Restaurant
734,55.686099999999996,12.613754545454546,3,0,57db9591498e42f03c7f0aec,Noma,55.682467,12.610394,Scandinavian Restaurant
735,55.686099999999996,12.613754545454546,3,1,4c30b7df16adc9281f87bf9c,Restaurent Lynetten,55.689154015527365,12.61859249943908,Scandinavian Restaurant
736,55.686099999999996,12.613754545454546,3,2,4f3b9a63003943e8c96b8c00,56°,55.68418882358147,12.610185191542376,Scandinavian Restaurant
737,55.696099999999994,12.468300000000001,6,0,4dbeefb81e72b351caec7cc7,Roberto's Pizzaria,55.699692055719204,12.46879956548963,Italian Restaurant
738,55.696099999999994,12.468300000000001,6,1,50310b26e4b0a9acffc265d5,China Grill,55.70034,12.465946,Asian Restaurant
739,55.696099999999994,12.468300000000001,6,2,527536ce498e8f46d10aadf9,China Grill Take Away,55.700331,12.466012,Chinese Restaurant
740,55.696099999999994,12.468300000000001,6,3,4cd58e10b2a4370430d97e44,Zi Yang,55.698171,12.475145,Chinese Restaurant
741,55.696099999999994,12.468300000000001,6,4,59172d445315935b27d95610,Ann's Corner,55.70037,12.466739,Thai Restaurant
742,55.696099999999994,12.468300000000001,6,5,51a0e5c6498ef9766542bdb5,Tasty,55.698083,12.474424,Indian Restaurant
743,55.696099999999994,12.486481818181819,13,0,4b86a503f964a520fd9331e3,Armando's,55.6929245929412,12.489601464052193,Pizza Place
744,55.696099999999994,12.486481818181819,13,1,4cf7e0b6dc40a35d63cc4f54,Restaurant Seoul,55.6922787149347,12.483177952202096,Korean Restaurant
745,55.696099999999994,12.486481818181819,13,2,4d2b4ba03c795481c882e79b,Nini Sushi,55.694050620580924,12.480082994586482,Sushi Restaurant
746,55.696099999999994,12.486481818181819,13,3,4c77fe20df08a1cdd3dcd55d,Hana Sushi,55.69240093231039,12.485296726226444,Sushi Restaurant
747,55.696099999999994,12.486481818181819,13,4,4da726518154fe28a8e05113,Running Sushi,55.69175,12.488229,Thai Restaurant
748,55.696099999999994,12.486481818181819,13,5,4ce80eeefe90a35d0d41400e,Kreta,55.6918614,12.48404012,Greek Restaurant
749,55.696099999999994,12.486481818181819,13,6,4d5d6998ddac721ee95d78fe,Sake Sushi,55.69223114326217,12.485838479953692,Sushi Restaurant
750,55.696099999999994,12.486481818181819,13,7,4db12f254b22ba776d7d5c97,Feng Xian,55.693835,12.48321,Chinese Restaurant
751,55.696099999999994,12.486481818181819,13,8,4ce7ff45948f224b5c92ed5d,Indian Flavours,55.6922667627175,12.485786141163418,Indian Restaurant
752,55.696099999999994,12.486481818181819,13,9,5b92adce6e465000397239e4,Yaki Yaki,55.692138,12.485759,Sushi Restaurant
753,55.696099999999994,12.486481818181819,13,10,5140bb34e4b0a32475585b4d,Quinoa,55.69418080353317,12.49355538545598,Italian Restaurant
754,55.696099999999994,12.486481818181819,13,11,4f4d012fe4b081be1cbee699,rimini,55.69467946593989,12.490483857599989,Indian Restaurant
755,55.696099999999994,12.486481818181819,13,12,4ba3db45f964a5201c6738e3,Taverna Rhodos,55.692939608232344,12.48963303436467,Greek Restaurant
756,55.696099999999994,12.504663636363638,9,0,51588182e4b0ac3448b94822,Chaophraya,55.69312787852432,12.506906562850094,Thai Restaurant
757,55.696099999999994,12.504663636363638,9,1,5802644638facac4bc9ef403,Asia House,55.6947,12.509742,Chinese Restaurant
758,55.696099999999994,12.504663636363638,9,2,5c178efc4c9be6002c14d720,Istanbul Kebab House,55.69437,12.51028,Turkish Restaurant
759,55.696099999999994,12.504663636363638,9,3,532f0e6d498e1e200b6b74f5,Indian Chili,55.69538387834026,12.499512434005737,Indian Restaurant
760,55.696099999999994,12.504663636363638,9,4,51d5443d498e003d34f59e5d,Søs Smørrebrød,55.692702883836645,12.501629289006905,Scandinavian Restaurant
761,55.696099999999994,12.504663636363638,9,5,4c73e3c6d944224bc36e1029,La Petit Bankok,55.694014,12.509227,Thai Restaurant
762,55.696099999999994,12.504663636363638,9,6,4df50abad1649c8a28e870d6,Spicy Palace,55.6956347,12.5109966,Indian Restaurant
763,55.696099999999994,12.504663636363638,9,7,4ce2b64794c3b60cb99c7dea,Risgryden,55.693837,12.501488,Thai Restaurant
764,55.696099999999994,12.504663636363638,9,8,4b465fe5f964a520161f26e3,Gin Gin Wok & Sushi,55.694505613078555,12.509717468553454,Sushi Restaurant
765,55.696099999999994,12.522845454545456,4,0,4cd995b653a7f04d4c156916,Duemila / Cafe 2000,55.69897770881653,12.523217,Italian Restaurant
766,55.696099999999994,12.522845454545456,4,1,4cf13723e94254810bdd68c5,Resturant & Café Duemila,55.699026958332276,12.52773096865753,Italian Restaurant
767,55.696099999999994,12.522845454545456,4,2,519fbd7e498e48183d602d2f,Noodles To Go,55.69893177170025,12.522939147678043,Asian Restaurant
768,55.696099999999994,12.522845454545456,4,3,4be48218cf200f47530f123c,Vietnam House,55.697056,12.525543,Vietnamese Restaurant
769,55.696099999999994,12.541027272727273,47,0,5b9147b304d1ae00395f5411,Friheden,55.698122,12.541327,Scandinavian Restaurant
770,55.696099999999994,12.541027272727273,47,1,4ff1f2eae4b03357dd1a6721,Toyama Running Sushi,55.69593568314725,12.537104854876116,Japanese Restaurant
771,55.696099999999994,12.541027272727273,47,2,4b5de2c8f964a520227229e3,Dragon City,55.696697,12.53756,Chinese Restaurant
772,55.696099999999994,12.541027272727273,47,3,5adca2c23ba7676855ba2fa1,Restaurant Rumænsk Dracula,55.698086,12.535377,Romanian Restaurant
773,55.696099999999994,12.541027272727273,47,4,595f93829ec3991d3c52633e,Bar Pasta,55.69621,12.543258,Italian Restaurant
774,55.696099999999994,12.541027272727273,47,5,532f5f6e498e50ff1209cde1,Köşem,55.69736920625368,12.54440209558237,Turkish Restaurant
775,55.696099999999994,12.541027272727273,47,6,4c6c4a2cf2846dcb2d8162e9,Relæ,55.693019,12.543368,Scandinavian Restaurant
776,55.696099999999994,12.541027272727273,47,7,4bd44dd79854d13a1550ff4d,Kebabistan,55.69574728055869,12.546723503315597,Middle Eastern Restaurant
777,55.696099999999994,12.541027272727273,47,8,4c9d272546978cfa00ce947f,Dürum Bar (Döner Kebab),55.69728325116657,12.544428788740177,Kebab Restaurant
778,55.696099999999994,12.541027272727273,47,9,5af2c2a167e5f2002c2a86c1,Ali’s Bageri,55.698981,12.541519,Bakery
779,55.696099999999994,12.541027272727273,47,10,4b431340f964a5200ddc25e3,Casa Mia,55.69834240127554,12.54266865491284,Pizza Place
780,55.696099999999994,12.541027272727273,47,11,4b1413c3f964a520e59c23e3,Mae Pen,55.696983780268155,12.545622283305368,Thai Restaurant
781,55.696099999999994,12.541027272727273,47,12,4b914855f964a520c7af33e3,Manfreds & Vin,55.69322144973712,12.543255107500983,Scandinavian Restaurant
782,55.696099999999994,12.541027272727273,47,13,58f0ef4d588e360d80d41615,Zapata Mexican Grill,55.695045,12.543219,Mexican Restaurant
783,55.696099999999994,12.541027272727273,47,14,4cfa6fbae6f48eecc3c683a4,Osaka Sushi,55.696751,12.537268,Sushi Restaurant
784,55.696099999999994,12.541027272727273,47,15,532f0ccd498e3db0d6f2c052,Balkan Börek house,55.69566236288733,12.546817205089184,Hungarian Restaurant
785,55.696099999999994,12.541027272727273,47,16,552265c2498eb9c15de737f1,Limar Chicken,55.696984366013275,12.536443308159466,Doner Restaurant
786,55.696099999999994,12.541027272727273,47,17,4c8a73329ef0224bc0035b7b,Hos Nugge,55.69535345714286,12.546472942857141,Asian Restaurant
787,55.696099999999994,12.541027272727273,47,18,5235abf9498ef527ae90a11f,Ozurfa Kebap,55.69540240309669,12.546240952625093,Turkish Restaurant
788,55.696099999999994,12.541027272727273,47,19,4ff1f20ce4b0ef320e0c5b0d,toyama,55.69688034057617,12.537842750549316,Japanese Restaurant
789,55.696099999999994,12.541027272727273,47,20,53271c60498e3b49447f6661,sushi 107,55.69783020512567,12.54521935148517,Japanese Restaurant
790,55.696099999999994,12.541027272727273,47,21,4e4aa89cfa76a0c058d2ea78,Køkken,55.693751,12.546008,Korean Restaurant
791,55.696099999999994,12.541027272727273,47,22,538df72f498ec684c6401e6b,Green Buddha,55.696258,12.543283,Thai Restaurant
792,55.696099999999994,12.541027272727273,47,23,4c5efe8b6147be9ac8469609,Elvan Shawarma & Grill,55.69969775891905,12.540857256173368,Fast Food Restaurant
793,55.696099999999994,12.541027272727273,47,24,5b76a061dab4b1002cc5f06c,Send Flere Krydderier,55.699703,12.543345,Middle Eastern Restaurant
794,55.696099999999994,12.541027272727273,47,25,527bd5a311d26f35773da9d9,Danafrika,55.696778,12.535943,African Restaurant
795,55.696099999999994,12.541027272727273,47,26,4ca75403d971b1f7cfcc08e1,Hos Sara,55.69226682186127,12.5408935546875,Mexican Restaurant
796,55.696099999999994,12.541027272727273,47,27,56573bea498e3e9485db4d50,Paolo's,55.695593,12.534809,Italian Restaurant
797,55.696099999999994,12.541027272727273,47,28,4eb18ac4f5b931e2ae4aa453,Onsushi,55.69460138253222,12.546280488663362,Sushi Restaurant
798,55.696099999999994,12.541027272727273,47,29,4e80b5ccd22da9de9e2e5391,Mazaj,55.69903986495504,12.541334387295754,Middle Eastern Restaurant
799,55.696099999999994,12.541027272727273,47,30,5a856b8ddff815381e59d3f9,Qandil,55.699682,12.54427,Kurdish Restaurant
800,55.696099999999994,12.541027272727273,47,31,4ccafb0c7c2ff04d657e8f7e,Ashiq's Place,55.69567859172821,12.546523,Indian Restaurant
801,55.696099999999994,12.541027272727273,47,32,4dd67a5d45ddced8206e3382,Barbar Restaurant,55.699746,12.540937,Middle Eastern Restaurant
802,55.696099999999994,12.541027272727273,47,33,5103eea2e4b0f2b952a98f92,Montovana Ma,55.69473126337601,12.54830330448985,Middle Eastern Restaurant
803,55.696099999999994,12.541027272727273,47,34,58c02f469ab6631a412ac592,Limar Shawarma,55.696934,12.545034,Middle Eastern Restaurant
804,55.696099999999994,12.541027272727273,47,35,51c4b700498e538e5a9ab444,Italiana II,55.696373,12.54429,Italian Restaurant
805,55.696099999999994,12.541027272727273,47,36,587fbe97735a4d582188f30c,Sushi mania,55.695084,12.547933,Sushi Restaurant
806,55.696099999999994,12.541027272727273,47,37,4fda175ee4b00800dd4d0dc7,Street Dining,55.698310803328326,12.540563547555232,Japanese Restaurant
807,55.696099999999994,12.541027272727273,47,38,4d8e20f8d265236a3b970217,Casa Del Pueblo,55.698239,12.545512,Asian Restaurant
808,55.696099999999994,12.541027272727273,47,39,4b98f206f964a520d15735e3,Cafè Ultimatum,55.6995561,12.536313777777778,Italian Restaurant
809,55.696099999999994,12.541027272727273,47,40,507347d7e4b01f5f5bfcf485,Öz Urfa,55.69563333243934,12.546676860554024,Middle Eastern Restaurant
810,55.696099999999994,12.541027272727273,47,41,56d97c03498efc5343f4f1a5,Shawarma No. 1 Grill House,55.698896,12.541472,Turkish Restaurant
811,55.696099999999994,12.541027272727273,47,42,4e414f5bfa7697d3df85476b,Zona Norte,55.700318,12.538259,Mexican Restaurant
812,55.696099999999994,12.541027272727273,47,43,516c2e94e4b0fe7fbc238dd4,The Kitchen 🍴,55.69519095747197,12.538502377098643,Scandinavian Restaurant
813,55.696099999999994,12.541027272727273,47,44,4cb5fef155af224b92ab967e,Tex mex,55.6991493,12.5413424,Mexican Restaurant
814,55.696099999999994,12.541027272727273,47,45,4bf2c1e582002d7f1debd0bb,Flamingo Kebab Og Grill,55.699626553485295,12.541226240897247,Middle Eastern Restaurant
815,55.696099999999994,12.541027272727273,47,46,5f5c64a3fd76be70ad3df141,Ugood,55.692894,12.54359,African Restaurant
816,55.696099999999994,12.559209090909091,13,0,4b6db327f964a520a7872ce3,Ristorante da Nino e Franco,55.69345,12.565505,Italian Restaurant
817,55.696099999999994,12.559209090909091,13,1,4b8ffcb0f964a520496e33e3,Kiin Kiin,55.69184136166516,12.557394366631584,Thai Restaurant
818,55.696099999999994,12.559209090909091,13,2,543fee25498e9082ea5f38ff,Bæst,55.692211,12.55587,Italian Restaurant
819,55.696099999999994,12.559209090909091,13,3,4bf4287be5eba5930a531f90,Aroiidee,55.69196865572986,12.557237059321302,Thai Restaurant
820,55.696099999999994,12.559209090909091,13,4,54fb0f30498e227b8ce6eca2,Smeralda Copenhagen,55.696665,12.551337,Italian Restaurant
821,55.696099999999994,12.559209090909091,13,5,4ecabc10b634b2fd78381347,Thai Bistro,55.69203208285573,12.557300300296196,Thai Restaurant
822,55.696099999999994,12.559209090909091,13,6,4b9bed66f964a520d73636e3,Koi Sushi,55.6923712882033,12.560989365106883,Sushi Restaurant
823,55.696099999999994,12.559209090909091,13,7,5616adc9498ee25244d87473,Jiro Sushi,55.693040373402404,12.564844187489182,Sushi Restaurant
824,55.696099999999994,12.559209090909091,13,8,4c87c14553a6a09354c33eba,The Food,55.692079067230225,12.555631,Italian Restaurant
825,55.696099999999994,12.559209090909091,13,9,51b6056f498ecf6ad7db3e93,Blegdammens Stjerne,55.697254,12.564337,French Restaurant
826,55.696099999999994,12.559209090909091,13,10,4c165171a5eb76b03c9dc4b7,Wang Fu & Soya Running Sushi,55.69705601,12.560014,Japanese Restaurant
827,55.696099999999994,12.559209090909091,13,11,4b8572d1f964a520a55e31e3,The Food Restaurant - by Ingeberg & Madsen,55.692082,12.555685,French Restaurant
828,55.696099999999994,12.559209090909091,13,12,5a05ab59805e3f5ff091ed39,Heaps Good Cafe,55.696357,12.557083,Australian Restaurant
829,55.696099999999994,12.57739090909091,40,0,4b50adc5f964a5200d2d27e3,Restaurant Taormina,55.698352,12.581011,Italian Restaurant
830,55.696099999999994,12.57739090909091,40,1,5fb42432e833905c96b593c2,Le Lac,55.696667,12.581479,French Restaurant
831,55.696099999999994,12.57739090909091,40,2,4e101935d4c07597ff755856,LêLê Street Kitchen // Østerbro,55.697770459632814,12.578900464420098,Vietnamese Restaurant
832,55.696099999999994,12.57739090909091,40,3,534fb5ed11d2de8f94aa1833,Alp's,55.699483887799744,12.578447163105011,Pizza Place
833,55.696099999999994,12.57739090909091,40,4,4c66df117abde21eb5ba6468,Famo Metro,55.69583309023295,12.579626015299606,Italian Restaurant
834,55.696099999999994,12.57739090909091,40,5,5f53d54f88944a58b561c4fb,Bistro Cocorico,55.698387,12.575837,French Restaurant
835,55.696099999999994,12.57739090909091,40,6,55ae727d498e6282bc62b316,Hachi Sushi,55.698793,12.57914,Sushi Restaurant
836,55.696099999999994,12.57739090909091,40,7,5d2217b0d0ae5e00235a8589,Wokshop,55.700254,12.577307,Thai Restaurant
837,55.696099999999994,12.57739090909091,40,8,5708f44a498e04ec2b7adce0,Enigma,55.699562,12.57507,History Museum
838,55.696099999999994,12.57739090909091,40,9,4fa671dfbb3d9b195e66de4b,La Esquina,55.695174750524416,12.571776827936132,Wine Bar
839,55.696099999999994,12.57739090909091,40,10,4bc6e2b892b376b0ffb94e3a,Søpromenaden,55.69764196502508,12.578486063686045,Scandinavian Restaurant
840,55.696099999999994,12.57739090909091,40,11,5b9e7baf1ffe97002c2c3c3f,Vaca,55.699482,12.576778,Mexican Restaurant
841,55.696099999999994,12.57739090909091,40,12,4dbbf89d43a1d8504b7dc5e7,Fiolstræde Italiensk Resteurante Med Mutti,55.692585,12.57396,Italian Restaurant
842,55.696099999999994,12.57739090909091,40,13,55ec7223498e3ae48f3460fc,Aftensmad Fra Meyers,55.69665345455223,12.581268221785571,Scandinavian Restaurant
843,55.696099999999994,12.57739090909091,40,14,4bf190b03fa220a19b721820,Restaurant Hanoi,55.69655366431881,12.58071706116528,Vietnamese Restaurant
844,55.696099999999994,12.57739090909091,40,15,4b0e7110f964a520a05723e3,Pasticcio Italiano,55.69880033307777,12.578256752333022,Italian Restaurant
845,55.696099999999994,12.57739090909091,40,16,4c0293769a7920a1779ace79,Yokoso Sushi,55.69661516670905,12.581096198975937,Sushi Restaurant
846,55.696099999999994,12.57739090909091,40,17,5b92c50b2b274a002cee152c,Karma Sushi Trianglen,55.699434,12.576563,Sushi Restaurant
847,55.696099999999994,12.57739090909091,40,18,4bfe8fb3bf6576b087daaeb8,Doktors Cafe og Restaurant,55.69530527125689,12.569797039031982,Bar
848,55.696099999999994,12.57739090909091,40,19,581a3d67ded8f8626ea78932,lki Sushi,55.69914,12.58224,Sushi Restaurant
849,55.696099999999994,12.57739090909091,40,20,4c471ce90f5aa5938ac87c76,Lack's Sushi,55.6960009,12.5724591,Sushi Restaurant
850,55.696099999999994,12.57739090909091,40,21,4bae6fc5f964a52047b23be3,B'India,55.698742470987014,12.576248351326754,Indian Restaurant
851,55.696099999999994,12.57739090909091,40,22,5739594f498e5700c1d538fb,Grød,55.700289,12.578992,Scandinavian Restaurant
852,55.696099999999994,12.57739090909091,40,23,4bc1f3e6f8219c74c3fab310,Smørhullet,55.69603,12.572699189186096,Indian Restaurant
853,55.696099999999994,12.57739090909091,40,24,59d90beea6fe4d20a21c66d8,Terra,55.69475,12.570803,Italian Restaurant
854,55.696099999999994,12.57739090909091,40,25,4ddbe3d31f6e9b46a12e57a9,Inspektør Bæk,55.695520509999994,12.571039466666667,Scandinavian Restaurant
855,55.696099999999994,12.57739090909091,40,26,4c3f48adda3dc928b8a6c5b9,Cofoco Numéro 64,55.69843604202266,12.578498024358781,Scandinavian Restaurant
856,55.696099999999994,12.57739090909091,40,27,569fd416498e3ed89c77f2f4,Eat Today,55.69881962654959,12.578810125628143,Tapas Restaurant
857,55.696099999999994,12.57739090909091,40,28,57795d19498ed6f103c1f516,Nori Sushi,55.6957,12.572223,Asian Restaurant
858,55.696099999999994,12.57739090909091,40,29,4d4340532dd93704f060277c,Napoleons,55.699436,12.58059,Australian Restaurant
859,55.696099999999994,12.57739090909091,40,30,4ea408880aaf71118143df4d,Den Grønne Gryde,55.700457,12.579281,Italian Restaurant
860,55.696099999999994,12.57739090909091,40,31,4f5a4cdde4b0aaabf505cedb,Mester kokkens værksted,55.69931624354828,12.578147592263663,Scandinavian Restaurant
861,55.696099999999994,12.57739090909091,40,32,505ef892e4b018ec7b6541e0,Shawarma Huset,55.699479601556966,12.578146993919658,Turkish Restaurant
862,55.696099999999994,12.57739090909091,40,33,5b25184332b61d002c259e93,Dosa Corner,55.692594041007496,12.575917031423844,Food Truck
863,55.696099999999994,12.57739090909091,40,34,4bbdfba0078095219a38db91,La Vita Pizza Ristorante,55.69443729000513,12.57056991023059,Pizza Place
864,55.696099999999994,12.57739090909091,40,35,4be86feb88ed2d7f07dfcb1d,Auberge,55.698527,12.578284,French Restaurant
865,55.696099999999994,12.57739090909091,40,36,5022736fe4b0edf15ab4d261,Restaurant Det Bedste For Dig,55.699434077907675,12.581703234290089,Scandinavian Restaurant
866,55.696099999999994,12.57739090909091,40,37,4caae90e8882199cd7f045d4,Restaurant Romarin,55.6961452960968,12.573297,French Restaurant
867,55.696099999999994,12.57739090909091,40,38,5665ccfd498e4dd416efd947,EATTODAY,55.69878730877274,12.578802858240355,Tapas Restaurant
868,55.696099999999994,12.57739090909091,40,39,5fa42f39dde3ae01ce136202,"Bindia Indisk Mad / Restaurant & Take Away - Østerbro, København",55.69862477124273,12.576186060905457,Indian Restaurant
869,55.696099999999994,12.595572727272728,9,0,5aff0334396de0002c748736,Lima by Mercedes,55.69424694520282,12.589289295041393,Food Truck
870,55.696099999999994,12.595572727272728,9,1,5de2582ce682a30008c0ef72,Restaurant Frihavnen,55.700195,12.594022,Scandinavian Restaurant
871,55.696099999999994,12.595572727272728,9,2,5853cd1ecc5b6a3de509f99e,Kiin Kiin To Go,55.696749,12.594233,Thai Restaurant
872,55.696099999999994,12.595572727272728,9,3,55e72fb1498eaee293b3f100,DalVicino,55.69612121582031,12.591019630432129,Italian Restaurant
873,55.696099999999994,12.595572727272728,9,4,4ffb1540e4b0cc077fa07cb9,Memories,55.700202795323456,12.593722343444824,Indian Restaurant
874,55.696099999999994,12.595572727272728,9,5,4ce7d87ef86537045653acc4,Braserie Lola,55.697583,12.590735,French Restaurant
875,55.696099999999994,12.595572727272728,9,6,57093bdb498ee4f32ebf04d1,Papadum,55.698914,12.590152,North Indian Restaurant
876,55.696099999999994,12.595572727272728,9,7,571759c1498ed05e34e4713f,Il Gabbiano,55.695538,12.599991,Italian Restaurant
877,55.696099999999994,12.595572727272728,9,8,4c26395ff1272d7ffa2186c5,Tio Mario's Ristorante,55.69825866695267,12.593703166952467,Italian Restaurant
878,55.696099999999994,12.613754545454546,11,0,5b0ab584d1a402002ce65455,Thai Reffen,55.693613,12.608464,Thai Restaurant
879,55.696099999999994,12.613754545454546,11,1,5b06da8a6e4650002cd2817e,Dhaba Tandori,55.693541,12.608872,Indian Restaurant
880,55.696099999999994,12.613754545454546,11,2,5f3bfd12d641fa6e31fabdcd,pasta lab,55.693709,12.608984,Italian Restaurant
881,55.696099999999994,12.613754545454546,11,3,5ce17299666116002c668a31,Maroc Maroc,55.693664,12.607857,Moroccan Restaurant
882,55.696099999999994,12.613754545454546,11,4,5b250b678fb09e002c0c058a,The Real Greek,55.693227871360406,12.60951727564356,Food Truck
883,55.696099999999994,12.613754545454546,11,5,5d42be1f871ab1000872b6eb,Organic Balance,55.693616,12.608997,Asian Restaurant
884,55.696099999999994,12.613754545454546,11,6,5d333d02ec65e000071a4829,Mahala,55.693745,12.609521,Jewish Restaurant
885,55.696099999999994,12.613754545454546,11,7,5ca8c32446e1b60039931fe6,Blue Taco,55.693665,12.608336,Taco Place
886,55.696099999999994,12.613754545454546,11,8,5b130b6a25ecca002c94010b,Nomames,55.693529,12.608831,Mexican Restaurant
887,55.696099999999994,12.613754545454546,11,9,5b2e91860d8a0f002cd69b53,la baracca,55.693606,12.609218,Italian Restaurant
888,55.696099999999994,12.613754545454546,11,10,5d8c98497498b4000750eb27,Republique,55.6937,12.608066,French Restaurant
889,55.70609999999999,12.468300000000001,3,0,590887d12496232e04249c48,Pizzeria Da Gallo,55.707342,12.471894,Pizza Place
890,55.70609999999999,12.468300000000001,3,1,4e2efc647d8bf59d29120f1d,FuYi Restaurant,55.70998,12.466197,Chinese Restaurant
891,55.70609999999999,12.468300000000001,3,2,5b6b1f06029a55002c0131b2,Hongyu Sushi & buffet,55.710144,12.466094,Sushi Restaurant
892,55.70609999999999,12.486481818181819,6,0,4bd33f52b221c9b6f83fd9d0,Ya Ya Sushi,55.7034912295843,12.490444473983628,Sushi Restaurant
893,55.70609999999999,12.486481818181819,6,1,5169b41b498e19f9ea6d95db,Alanya 2,55.706044,12.489991,Doner Restaurant
894,55.70609999999999,12.486481818181819,6,2,4e2c64b1a809f1b16419d15d,Wong's Grill,55.70737641228196,12.485882272541213,Chinese Restaurant
895,55.70609999999999,12.486481818181819,6,3,4c979e52f244b1f7fd2b3e1d,Casa Italiana,55.707539525,12.485826325,Italian Restaurant
896,55.70609999999999,12.486481818181819,6,4,559ff59b498e94f0003c1bf0,Thai Chili,55.707716,12.485547,Thai Restaurant
897,55.70609999999999,12.486481818181819,6,5,4db5a47ffa8c350240feb238,Butter Tikka,55.7092296494695,12.481328692763276,Indian Restaurant
898,55.70609999999999,12.504663636363638,11,0,5c855210fb8e59002c38a2d6,Restaurant Muma,55.705929,12.510837,Turkish Restaurant
899,55.70609999999999,12.504663636363638,11,1,5ec40486b3fa7f000845efcf,Zeynos,55.704329,12.499473,Shawarma Place
900,55.70609999999999,12.504663636363638,11,2,5a218abc1ffe972a82d2d49d,Mama India,55.7049,12.50338,Indian Restaurant
901,55.70609999999999,12.504663636363638,11,3,5ba7aee1088158002c6d3846,green mango,55.704651,12.500619,Thai Restaurant
902,55.70609999999999,12.504663636363638,11,4,4c01494d94c1c9b6f909bb5f,Oyami nudler og sushi,55.704706,12.501384,Sushi Restaurant
903,55.70609999999999,12.504663636363638,11,5,5b8179e9054e29002c203706,Jasmin Rice,55.704953,12.502897,Asian Restaurant
904,55.70609999999999,12.504663636363638,11,6,555b58be498e63ff9338eb80,Royal Agra Palace,55.70471307750068,12.501559394969233,Indian Restaurant
905,55.70609999999999,12.504663636363638,11,7,5c8cc237aa6c95002c6798fb,carscalla,55.706039,12.511934,Lebanese Restaurant
906,55.70609999999999,12.504663636363638,11,8,4ebd09bd49012e72fe82df1b,Caracalla,55.705955,12.511749,Middle Eastern Restaurant
907,55.70609999999999,12.504663636363638,11,9,4f5503aee4b002a745203d35,Little Italy,55.705966,12.512036,Italian Restaurant
908,55.70609999999999,12.504663636363638,11,10,553e9265498e7b3e4c3160a7,Vores Sushi,55.70477326416617,12.501127123832703,Sushi Restaurant
909,55.70609999999999,12.522845454545456,11,0,54931454498e89679beec87f,Yilmaz Döner,55.704471,12.526832,Middle Eastern Restaurant
910,55.70609999999999,12.522845454545456,11,1,4e9986c7cc218247d95e95c0,Nasgor langganan,55.708473205566406,12.525419235229492,Asian Restaurant
911,55.70609999999999,12.522845454545456,11,2,4e343d4718a8efdb176264a7,Restaurant Fisk Tagine,55.70873888663553,12.525547341841143,Moroccan Restaurant
912,55.70609999999999,12.522845454545456,11,3,4c5292969426c9281aab9b75,OMD Kantine,55.70737354539771,12.530375408575111,Scandinavian Restaurant
913,55.70609999999999,12.522845454545456,11,4,58143a1d38fa893779186fb3,danmark,55.705377,12.527077,African Restaurant
914,55.70609999999999,12.522845454545456,11,5,5e84e0695348d200088bb7d0,Wok & Thai,55.704205,12.527176,Thai Restaurant
915,55.70609999999999,12.522845454545456,11,6,4f6a10e5e4b0512b345bea2b,9 Ni Sushi,55.709328,12.524967,Sushi Restaurant
916,55.70609999999999,12.522845454545456,11,7,4e2da038b61cd010838bdd4b,Hafez Persian Restaurant,55.70579997661276,12.521557363038706,Asian Restaurant
917,55.70609999999999,12.522845454545456,11,8,4c1552601b5cef3b1547eec4,Oki Sushi,55.70477537584016,12.52605902670306,Sushi Restaurant
918,55.70609999999999,12.522845454545456,11,9,5b81827246e1b6002c4610f1,New Delhi,55.708994,12.526141,Indian Restaurant
919,55.70609999999999,12.522845454545456,11,10,51042ba8e4b073eb975ff11f,izmir kebab,55.70596594959064,12.52218604303074,Middle Eastern Restaurant
920,55.70609999999999,12.541027272727273,8,0,4bc5dab90a30d13a508e5a9c,Cajun Kitchen,55.70236796943837,12.53684447740639,Cajun / Creole Restaurant
921,55.70609999999999,12.541027272727273,8,1,4fc3a76fe4b021b6e0a25a35,Anand Food's Bombay Biriyani,55.7041015625,12.541650772094727,Indian Restaurant
922,55.70609999999999,12.541027272727273,8,2,5450c7c6498eb1d31614cfcd,Abu Samra,55.70354469262317,12.546979005268835,Middle Eastern Restaurant
923,55.70609999999999,12.541027272727273,8,3,4cd6727494848cfaba29edb1,guns taco shop,55.707548,12.537807,Taco Place
924,55.70609999999999,12.541027272727273,8,4,4b06eee8f964a5206af322e3,Tribeca NV,55.70626070878925,12.534099935766802,Italian Restaurant
925,55.70609999999999,12.541027272727273,8,5,4fe1f18de4b0b689ab4e403b,Bombay Biriyani,55.70304982078345,12.53755710957437,Indian Restaurant
926,55.70609999999999,12.541027272727273,8,6,4f342ba7e4b0a660dd0493a8,Der Führer Bunker,55.707409,12.536173,German Restaurant
927,55.70609999999999,12.541027272727273,8,7,4b6aeb38f964a520dde62be3,Mama Teresa Pizzaria,55.703863592568204,12.547750601677206,Pizza Place
928,55.70609999999999,12.559209090909091,5,0,4c165d5477cea593cd91d360,Long Xin,55.709642,12.561478,Chinese Restaurant
929,55.70609999999999,12.559209090909091,5,1,5065bad8e4b09f3b333255cc,Kosk Kebab,55.70195858390261,12.559116131774028,Turkish Restaurant
930,55.70609999999999,12.559209090909091,5,2,4c87bb15d8086dcbd7a5a452,Vanak,55.706836,12.562215,Mediterranean Restaurant
931,55.70609999999999,12.559209090909091,5,3,4d24a5e8dcf4224b039da576,BaanThai Kitchen,55.70522387383065,12.555048154241634,Asian Restaurant
932,55.70609999999999,12.559209090909091,5,4,55634b24498e4cb51a7dce0c,Royal Cusine,55.70856611181293,12.55777924806203,Chinese Restaurant
933,55.70609999999999,12.57739090909091,34,0,4b917139f964a520d3bc33e3,Silom Thai Restaurant,55.7076146200939,12.57741614696684,Thai Restaurant
934,55.70609999999999,12.57739090909091,34,1,4c9226d0ae45224b83a2ed97,Geranium,55.7036327604076,12.5720527738892,Scandinavian Restaurant
935,55.70609999999999,12.57739090909091,34,2,5a60e3200c9f317921bd8e73,Wok Our Way,55.706588,12.585276,Thai Restaurant
936,55.70609999999999,12.57739090909091,34,3,5bc4b4ea65cdf8002c51e5c7,BollyFood,55.707829,12.577211,Indian Restaurant
937,55.70609999999999,12.57739090909091,34,4,53ee2d9c498e3866bb2c4c46,Iki Sushi,55.7065449460224,12.58368028443741,Sushi Restaurant
938,55.70609999999999,12.57739090909091,34,5,4bdd8ac2645e0f474da96b19,The Taco Shop #2,55.70759903268222,12.577436827954259,Mexican Restaurant
939,55.70609999999999,12.57739090909091,34,6,4c545925fd2ea5938408f429,Duang Jai,55.709663,12.578071,Thai Restaurant
940,55.70609999999999,12.57739090909091,34,7,4be2a41b1dd22d7fe86c94bd,Stjerne Smørrebrød,55.706390232787435,12.577374812813947,Scandinavian Restaurant
941,55.70609999999999,12.57739090909091,34,8,4beeddce2c082d7fb0023142,Hong Cheng,55.708876,12.575448,Chinese Restaurant
942,55.70609999999999,12.57739090909091,34,9,4c0c0df66071a5938e36e232,Bamboo Grill,55.707759,12.57745108,Chinese Restaurant
943,55.70609999999999,12.57739090909091,34,10,4bdd793ed33f2d7f25008b3c,Le Saint Jacques,55.703206112311904,12.577923138522396,French Restaurant
944,55.70609999999999,12.57739090909091,34,11,5536816c498ec565c7b70fde,Lins Sushi,55.7055107765107,12.576674222946167,Sushi Restaurant
945,55.70609999999999,12.57739090909091,34,12,4fcf0e86e4b071a2c89c0d4a,Uddannelsescentrets Kantine,55.708057,12.580384,Turkish Restaurant
946,55.70609999999999,12.57739090909091,34,13,5233370a11d22f82defc772c,Burger Street,55.708848637924035,12.57347971696137,American Restaurant
947,55.70609999999999,12.57739090909091,34,14,4c8a320f9ef0224b8a77587b,Tran Smørrebrød,55.709037,12.577258,Scandinavian Restaurant
948,55.70609999999999,12.57739090909091,34,15,4ce05af878ddf04d6ce3a598,McT's,55.701932,12.579407,African Restaurant
949,55.70609999999999,12.57739090909091,34,16,4e3ea9ba2271d21e8705dd25,Silum,55.706129,12.577437,Thai Restaurant
950,55.70609999999999,12.57739090909091,34,17,57c1802b498e8347ca0dc33f,Hos Ångeren & Prinsesse Navita,55.704597,12.578497,Indian Restaurant
951,55.70609999999999,12.57739090909091,34,18,4bd07e0dcaff95217ce7cef0,Madgården,55.709126,12.578642964363098,Indian Restaurant
952,55.70609999999999,12.57739090909091,34,19,4c62c5e479d1e21e95dad615,Lucky Grill,55.706484,12.583680152893066,Sushi Restaurant
953,55.70609999999999,12.57739090909091,34,20,4cbdd6febac93704d4ac007d,Sushizone,55.705577,12.576586,Sushi Restaurant
954,55.70609999999999,12.57739090909091,34,21,4ee8e842be7b208528a107a7,Klam Mad,55.708210331681556,12.578302889915577,Eastern European Restaurant
955,55.70609999999999,12.57739090909091,34,22,5266677a498e7c6673360f8c,Frihavn Smørrebrød,55.702392578125,12.580756187438965,Scandinavian Restaurant
956,55.70609999999999,12.57739090909091,34,23,4cbdeea8c7228cfadffe2cce,Karry Sutra,55.70510724877515,12.578290621497828,Indian Restaurant
957,55.70609999999999,12.57739090909091,34,24,4c8bc1a7c37a6dcb3aa9f07a,Pizzeria Scamorza,55.70822986606249,12.577295602740087,Pizza Place
958,55.70609999999999,12.57739090909091,34,25,4bfea1f3daf9c9b61efcf8ef,Z-Sushi,55.70788387990513,12.577393506529075,Sushi Restaurant
959,55.70609999999999,12.57739090909091,34,26,51339c11e4b0835c6ed4cc3d,Thai Chef,55.70775,12.569981,Thai Restaurant
960,55.70609999999999,12.57739090909091,34,27,52b33d55498e1f14aaf83dcd,Restaurant Co-Ma,55.703836630855854,12.5819303095087,French Restaurant
961,55.70609999999999,12.57739090909091,34,28,55e47867498e39f0c18c6060,punjabi,55.709311704368226,12.5785265038561,North Indian Restaurant
962,55.70609999999999,12.57739090909091,34,29,571a580d498e7769619729e4,American Hereford,55.706157,12.577703,American Restaurant
963,55.70609999999999,12.57739090909091,34,30,4c24df98136d20a1f28ae261,Thai Take Away,55.70685445004901,12.580328306555009,Thai Restaurant
964,55.70609999999999,12.57739090909091,34,31,5cbdf52d336273002b56229a,Kuma,55.704667,12.58108,Japanese Restaurant
965,55.70609999999999,12.57739090909091,34,32,5f8b25e49ab4fe0578c39b26,Diner & Steakhouse,55.704841,12.574165,American Restaurant
966,55.70609999999999,12.57739090909091,34,33,53b3a663498e4171a9fb5f22,Essen take-away & catering,55.707112,12.582884,German Restaurant
967,55.70609999999999,12.595572727272728,10,0,5a107689a22db756da4a920d,Restaurant Silo,55.708180247923906,12.597916217251589,Scandinavian Restaurant
968,55.70609999999999,12.595572727272728,10,1,59e0e16491eaca1e443aaee4,LETZ SUSHI,55.706572,12.595694,Sushi Restaurant
969,55.70609999999999,12.595572727272728,10,2,5e2b45c8965a8a00076de272,kini kini,55.706819,12.596578,Indonesian Restaurant
970,55.70609999999999,12.595572727272728,10,3,4c87d41c32f2a143223af127,Vietnam,55.703822,12.590964,Vietnamese Restaurant
971,55.70609999999999,12.595572727272728,10,4,5c6801f07d8497002c8f191d,Buvette,55.70678,12.597769,French Restaurant
972,55.70609999999999,12.595572727272728,10,5,5d96081647cc9a0008ef66d0,Sushi Anaba,55.706781,12.598659,Sushi Restaurant
973,55.70609999999999,12.595572727272728,10,6,4cfcefbb20fe370462975cf8,Restaurant Men'ske Lård,55.709373,12.600408,Dim Sum Restaurant
974,55.70609999999999,12.595572727272728,10,7,4cb5d85852edb1f7864e6afe,Wokbaren,55.707817500000004,12.591751,Asian Restaurant
975,55.70609999999999,12.595572727272728,10,8,4f37bf63e4b09ca12d657487,Toldboden Bodega,55.70411326539968,12.590568396882675,Scandinavian Restaurant
976,55.70609999999999,12.595572727272728,10,9,5f906c84709b5646e9291762,hija de sanchez cantina,55.707612,12.596543,Mexican Restaurant
977,55.7161,12.468300000000001,1,0,4cefd93e821254816bdd6ba1,La Belinda,55.711941635121896,12.471350285429205,Italian Restaurant
978,55.7161,12.541027272727273,1,0,4fe8adb5e4b0899a0b227bcd,SushiTime,55.71343494867956,12.535139323338989,Sushi Restaurant
979,55.7161,12.559209090909091,3,0,500037f5e4b06aae2cec7974,Sushi Style,55.718391452056224,12.555250834256123,Japanese Restaurant
980,55.7161,12.559209090909091,3,1,5da8900e98c98d0008bc81a2,yokoso sushi,55.718962,12.556832,Sushi Restaurant
981,55.7161,12.559209090909091,3,2,4cf3e9991c158cfa5f7fe0b5,Li's Kinagrill,55.71278038660887,12.560885620843258,Chinese Restaurant
982,55.7161,12.57739090909091,11,0,4bb9ef347421a5933c2bc340,Thai Curry,55.71233271843974,12.577575537871613,Thai Restaurant
983,55.7161,12.57739090909091,11,1,569a7a00498e051e2113d97c,IZUMI,55.71682917051487,12.576926760363481,Sushi Restaurant
984,55.7161,12.57739090909091,11,2,5252e3df11d2a4ea980564eb,Spicy Lounge,55.712343088878534,12.577779470443808,Indian Restaurant
985,55.7161,12.57739090909091,11,3,4e568b2c7d8b60849c50cd04,V,55.71342849731445,12.577271461486816,French Restaurant
986,55.7161,12.57739090909091,11,4,579f2f41498e8263bd4d5551,svanenskebab,55.71508,12.577462,Doner Restaurant
987,55.7161,12.57739090909091,11,5,4ca772b1d971b1f7bf4a0ae1,Restaurant EGO,55.712208202209155,12.576019763946533,Scandinavian Restaurant
988,55.7161,12.57739090909091,11,6,4b685e23f964a52041742be3,Kinesiske Restaurant Yuan Hong,55.71329297740414,12.573900272639044,Chinese Restaurant
989,55.7161,12.57739090909091,11,7,4b6c5421f964a52023312ce3,Vincents,55.71365000225326,12.576695373785661,French Restaurant
990,55.7161,12.57739090909091,11,8,4d9607cd9079b1f7e8caef09,9-Ni Sushi,55.71863,12.575488,Sushi Restaurant
991,55.7161,12.57739090909091,11,9,4d888ad16daeb60c8e4f3ce0,Moster Else's Smørrebrød,55.71853324408415,12.576175209941871,Scandinavian Restaurant
992,55.7161,12.57739090909091,11,10,5b1bf40935f983002c9f76e2,Coq en Pâte,55.713601,12.576912,Bistro
993,55.7161,12.595572727272728,1,0,4d3095be789a8cfa59ee30c6,Restaurant Paustian,55.71281222622309,12.59113894729896,Scandinavian Restaurant
994,55.7161,12.613754545454546,1,0,578935af498e2cf4be95d3ba,Pinnacle Grill,55.713161,12.619795,American Restaurant
995,55.726099999999995,12.468300000000001,1,0,4d9a00d597d06ea898ca560b,Wok And Roll,55.72205310245898,12.471343859126133,Thai Restaurant
996,55.726099999999995,12.504663636363638,1,0,597f8a571de765049ac7373a,Resturant Op La,55.730249,12.506347,Vietnamese Restaurant
997,55.726099999999995,12.522845454545456,6,0,5f394ec28547eb67d4c16a89,Zharava,55.727319,12.524785,Bulgarian Restaurant
998,55.726099999999995,12.522845454545456,6,1,5bf18c01446ea6002cb2240d,Dwaraka Indisk Restaurant,55.727364,12.524753,Indian Restaurant
999,55.726099999999995,12.522845454545456,6,2,5ec53eefb14056000823523c,Sushi 2500,55.72883,12.523984,Sushi Restaurant
1000,55.726099999999995,12.522845454545456,6,3,4cdd7990d4ecb1f7d4968548,Teatroria Campo Dè Fiori,55.729066,12.523534,Italian Restaurant
1001,55.726099999999995,12.522845454545456,6,4,5544ec59498eac4e213e0df0,Trattoria Campo De Fiori,55.728958,12.523732,Italian Restaurant
1002,55.726099999999995,12.522845454545456,6,5,4d011eff6923721e596dc83b,He Cheng,55.727394,12.525096,Chinese Restaurant
1003,55.726099999999995,12.57739090909091,13,0,5c1bf3cdad1789002cfdc946,Kinome,55.728203,12.576119,Asian Restaurant
1004,55.726099999999995,12.57739090909091,13,1,55ec7a14498e81ccd3fa5232,Wokshop,55.73023190802374,12.574889011959243,Thai Restaurant
1005,55.726099999999995,12.57739090909091,13,2,5b1a630ccbcdee002c027836,Paleo,55.725544,12.578905,Scandinavian Restaurant
1006,55.726099999999995,12.57739090909091,13,3,5b8e65ba25fb7b002ce80498,The Naked Curry,55.730300016821076,12.576180696487427,Indian Restaurant
1007,55.726099999999995,12.57739090909091,13,4,4bd82414e914a5934c7c52fa,Just Thai & Sushi,55.72547014161723,12.580814549779364,Thai Restaurant
1008,55.726099999999995,12.57739090909091,13,5,5259268b498ea0562f4af9bb,Le Café,55.72554100668061,12.579552482027829,French Restaurant
1009,55.726099999999995,12.57739090909091,13,6,4ced2aecf368b1f77b5679f7,Coq & Ko,55.72243032114071,12.577490444296192,French Restaurant
1010,55.726099999999995,12.57739090909091,13,7,5540db6c498eb079a1d8253a,Zen O Sushi,55.72593573670735,12.578087514830855,Sushi Restaurant
1011,55.726099999999995,12.57739090909091,13,8,54552172498ea04d5b2a0768,Waterfront Bistro,55.725612,12.579316,French Restaurant
1012,55.726099999999995,12.57739090909091,13,9,594cdf01b9ac38236d152466,Eattoday,55.725614,12.57999,Tapas Restaurant
1013,55.726099999999995,12.57739090909091,13,10,4ca60dc9b7106dcb76215aa5,Dondon Sushi,55.728385454485576,12.575722175986158,Sushi Restaurant
1014,55.726099999999995,12.57739090909091,13,11,52cc2eab498e2b51436f5974,Letz Sushi,55.728347,12.575697,Sushi Restaurant
1015,55.726099999999995,12.57739090909091,13,12,529db39b11d2d400b908b279,fromagerie vins fins,55.7235221862793,12.580735206604004,French Restaurant
