,Unnamed: 0,lat_centre,long_centre,num_venues,venue_iter,venue_id,venue_name,lat_venue,long_venue,category
1158,142,55.67836092933239,12.56319188051372,21,19,4adcdafef964a5200d5e21e3,India Palace,55.67723145317813,12.566530845759498,Indian Restaurant
1300,284,55.6738390706676,12.57340811948628,18,12,4adcdafef964a5202e5e21e3,Mongolian Barbeque,55.67379874093606,12.572452309608222,Chinese Restaurant
1231,215,55.6761,12.57739090909091,31,24,4adcdafef964a520315e21e3,Gorm's Pizza,55.67628364345696,12.57516200551026,Italian Restaurant
713,713,55.6861,12.595572727272728,21,0,4adcdafff964a520375e21e3,Cafe Petersborg,55.687425056175,12.592813216679835,Scandinavian Restaurant
1326,310,55.67836092933239,12.581373698695538,31,20,4adcdafff964a520405e21e3,Los Flamencos,55.677875303029836,12.582823151490526,Spanish Restaurant
1323,307,55.67836092933239,12.581373698695538,31,17,4adcdafff964a520465e21e3,Kong Hans Kælder,55.67875952596427,12.584101680066615,French Restaurant
694,694,55.6861,12.57739090909091,43,24,4adcdb00f964a520495e21e3,Restaurationen,55.68205667531817,12.579807797380411,French Restaurant
710,710,55.6861,12.57739090909091,43,40,4adcdb00f964a5204a5e21e3,Sakura,55.68222985991933,12.58011553541743,Japanese Restaurant
1555,539,55.68836092933239,12.563192898941624,29,20,4adcdb00f964a520565e21e3,Den Iranske Forening,55.68853527042342,12.559532097712465,Middle Eastern Restaurant
1166,150,55.6738390706676,12.56319188051372,47,6,4adcdb00f964a520575e21e3,Grøften,55.674298479800434,12.566706621535067,Scandinavian Restaurant
1387,371,55.67836092933239,12.591589937668099,44,33,4adcdb00f964a5205d5e21e3,Restaurant Havfruen,55.679993060232924,12.590580342023484,Seafood Restaurant
302,302,55.66609999999999,12.595572727272728,34,29,4adcdb00f964a520695e21e3,Thai Esan 3,55.66647554501645,12.595751410428505,Thai Restaurant
1386,370,55.67836092933239,12.591589937668099,44,32,4adcdb00f964a5206e5e21e3,1. th.,55.67909069404065,12.589725852012634,Scandinavian Restaurant
1338,322,55.6738390706676,12.581373698695538,5,1,4adcdb00f964a520725e21e3,Søren K,55.67319241349686,12.582750375233038,Scandinavian Restaurant
410,410,55.6761,12.559209090909093,50,28,4adcdb01f964a5207c5e21e3,CoFoCo,55.671724,12.558512,Scandinavian Restaurant
1382,366,55.67836092933239,12.591589937668099,44,28,4adcdb01f964a5207e5e21e3,Himalaya,55.679106000000004,12.589326,Asian Restaurant
728,728,55.6861,12.595572727272728,21,15,4aead645f964a52043bc21e3,Svend Larsens eftf.,55.68597263675792,12.588726317682273,Scandinavian Restaurant
1508,492,55.6838390706676,12.555225282876556,27,0,4af1d0b4f964a5206ee321e3,Nyu Sakura,55.68431275076964,12.551541758123607,Sushi Restaurant
1571,555,55.6838390706676,12.563192898941624,12,7,4af489d6f964a520a1f321e3,Thaiaway,55.68300006924165,12.564474577852428,Thai Restaurant
716,716,55.6861,12.595572727272728,21,3,4afd5fb1f964a520802722e3,Bistro Boheme,55.68747447060995,12.591382550417688,French Restaurant
659,659,55.6861,12.559209090909093,50,39,4afe90b1f964a5209b2f22e3,Picnic,55.690309,12.5606,Middle Eastern Restaurant
727,727,55.6861,12.595572727272728,21,14,4aff1991f964a5202f3422e3,Toldbod Bodega,55.68731876638253,12.59062643773974,Scandinavian Restaurant
183,183,55.66609999999999,12.541027272727273,27,9,4b044b43f964a520fb5222e3,Hings Sushi,55.67038764190871,12.54090936375036,Sushi Restaurant
145,145,55.66609999999999,12.504663636363638,16,13,4b06cb2ef964a52059f022e3,Café Krejleren,55.66870330551074,12.506902113790648,Tapas Restaurant
924,924,55.70609999999999,12.541027272727273,8,4,4b06eee8f964a5206af322e3,Tribeca NV,55.70626070878925,12.534099935766802,Italian Restaurant
844,844,55.6961,12.57739090909091,40,15,4b0e7110f964a520a05723e3,Pasticcio Italiano,55.69880033307778,12.578256752333024,Italian Restaurant
142,142,55.66609999999999,12.504663636363638,16,10,4b0ec802f964a520f25a23e3,Valby Grønne Køkken,55.66585444207409,12.510520985018434,Middle Eastern Restaurant
27,27,55.6261,12.650118181818184,16,11,4b1004c4f964a520896723e3,Yam Yam To Go,55.62831705649023,12.648912551189705,Chinese Restaurant
683,683,55.6861,12.57739090909091,43,13,4b11142af964a520f47723e3,The Ricemarket,55.68264216626703,12.574391533445365,Thai Restaurant
1626,50,55.67836092933239,12.57340811948628,17,11,4b117fcff964a520e57d23e3,Café Sari,55.67765309005231,12.573093229191802,Scandinavian Restaurant
623,623,55.6861,12.559209090909093,50,3,4b1181bbf964a5200e7e23e3,Scarpetta,55.68548463182103,12.55225342323493,Italian Restaurant
780,780,55.6961,12.541027272727273,47,11,4b1413c3f964a520e59c23e3,Mae Pen,55.696983780268155,12.545622283305367,Thai Restaurant
619,619,55.6861,12.541027272727273,46,45,4b1561e6f964a520feab23e3,Nha Trang,55.68754194334378,12.546884263412876,Vietnamese Restaurant
1586,10,55.67270860600141,12.553235021587332,10,3,4b18f844f964a520cdd623e3,Manar Pizzaria,55.672714514462136,12.551759383717773,Pizza Place
256,256,55.66609999999999,12.57739090909091,22,5,4b1aabc4f964a520f6ee23e3,Il Pane de Mauro,55.66684608528833,12.576740033740414,Pizza Place
596,596,55.6861,12.541027272727273,46,22,4b1ab498f964a520d5ef23e3,Restaurant Fabio,55.6836616,12.536936500000001,Italian Restaurant
254,254,55.66609999999999,12.57739090909091,22,3,4b1e3e09f964a520171824e3,Cafe Alma,55.66559730746091,12.578596448483605,Scandinavian Restaurant
259,259,55.66609999999999,12.57739090909091,22,8,4b1fe36df964a5204c2a24e3,Food Palace,55.66483408244757,12.58098622955427,Indian Restaurant
175,175,55.66609999999999,12.541027272727273,27,1,4b22256af964a520004424e3,Pasha Kebab,55.66768379977667,12.544398980887994,Kebab Restaurant
1672,96,55.679491393998596,12.575399629390185,28,20,4b238df1f964a520b65624e3,Samos,55.679388237799756,12.57424062093073,Greek Restaurant
1643,67,55.6772304646662,12.571416609582375,18,9,4b239b36f964a520295724e3,Strøg Shawarma,55.67757422195804,12.571731704322927,Middle Eastern Restaurant
291,291,55.66609999999999,12.595572727272728,34,18,4b23d7adf964a520055b24e3,Restaurant Rimini,55.668020999999996,12.5972454,Italian Restaurant
1192,176,55.6738390706676,12.56319188051372,47,32,4b24ec63f964a5208d6a24e3,Den Skaldede Kok,55.674058926713144,12.566831322206935,Scandinavian Restaurant
184,184,55.66609999999999,12.541027272727273,27,10,4b292510f964a520a29924e3,Mae Pen,55.67024966688019,12.539189035900453,Thai Restaurant
1546,530,55.68836092933239,12.563192898941624,29,11,4b2e924bf964a520b9e224e3,Thai 4 You,55.68977850914993,12.56026266323457,Thai Restaurant
1299,283,55.6738390706676,12.57340811948628,18,11,4b2fcb83f964a52012f024e3,Running Sushi,55.674028,12.572469,Sushi Restaurant
182,182,55.66609999999999,12.541027272727273,27,8,4b40bdbcf964a5208aba25e3,Devran Døner Grill,55.667628218112284,12.547976043767884,Middle Eastern Restaurant
280,280,55.66609999999999,12.595572727272728,34,7,4b40e381f964a520d8bc25e3,Smørhullet,55.66416713455917,12.602126265097215,Indian Restaurant
779,779,55.6961,12.541027272727273,47,10,4b431340f964a5200ddc25e3,Casa Mia,55.69834240127554,12.54266865491284,Pizza Place
367,367,55.6761,12.541027272727273,26,11,4b4346f8f964a520d4dd25e3,Gastronomia Italiana,55.67595551516181,12.543502391481175,Italian Restaurant
764,764,55.6961,12.504663636363638,9,8,4b465fe5f964a520161f26e3,Gin Gin Wok & Sushi,55.69450561307857,12.509717468553454,Sushi Restaurant
277,277,55.66609999999999,12.595572727272728,34,4,4b4780bef964a5202d3426e3,Cheung's Kinesiske Grill,55.66430295287007,12.596789472782744,Chinese Restaurant
691,691,55.6861,12.57739090909091,43,21,4b48e304f964a520cd5b26e3,Nagoya Running Sushi,55.6895516996037,12.574194650813107,Sushi Restaurant
154,154,55.66609999999999,12.522845454545456,26,6,4b49c720f964a520807326e3,Valby Grill,55.665319581028854,12.51692726272979,Fast Food Restaurant
1505,489,55.68836092933239,12.555225282876556,32,29,4b4e0c24f964a52080df26e3,Tex-Mex,55.688894,12.554487,Mexican Restaurant
1629,53,55.67836092933239,12.57340811948628,17,14,4b50a05cf964a520122a27e3,Citykroen,55.67811550447149,12.572423013603515,Scandinavian Restaurant
829,829,55.6961,12.57739090909091,40,0,4b50adc5f964a5200d2d27e3,Restaurant Taormina,55.698352,12.581011,Italian Restaurant
381,381,55.6761,12.541027272727273,26,25,4b51b319f964a520f35227e3,Sans Souci,55.676287728278645,12.541624443554781,Scandinavian Restaurant
559,559,55.6861,12.522845454545456,17,2,4b5200e3f964a520996027e3,The Taco Shop,55.68435510886657,12.524139687995653,Taco Place
676,676,55.6861,12.57739090909091,43,6,4b520eb8f964a520a56427e3,Sticks'n'Sushi,55.690355000000004,12.575443,Sushi Restaurant
604,604,55.6861,12.541027272727273,46,30,4b53057ff964a520d38c27e3,Green Kitchen,55.68634400268403,12.53455921059155,Middle Eastern Restaurant
274,274,55.66609999999999,12.595572727272728,34,1,4b531ba2f964a520298f27e3,Pizzeria Cavallino,55.663325902555314,12.597809398469353,Pizza Place
177,177,55.66609999999999,12.541027272727273,27,3,4b55a926f964a520d5ea27e3,Dünyam Shawarma House,55.667599293539254,12.547879772475936,Middle Eastern Restaurant
139,139,55.66609999999999,12.504663636363638,16,7,4b55edd5f964a52015f727e3,Hlan Yaamo,55.666005000000006,12.511974,Thai Restaurant
1633,57,55.679491393998596,12.571416609582375,2,1,4b5700c0f964a5207d2228e3,Gusto Italiano,55.678724,12.570651,Italian Restaurant
1358,342,55.67836092933239,12.591589937668099,44,4,4b573b7df964a5204d2c28e3,Hyttefadet,55.680197099902344,12.589617652743911,Scandinavian Restaurant
560,560,55.6861,12.522845454545456,17,3,4b58a503f964a520586328e3,Thaiaway Frederiksberg,55.68746888132201,12.529921517445947,Thai Restaurant
771,771,55.6961,12.541027272727273,47,2,4b5de2c8f964a520227229e3,Dragon City,55.696697,12.537560000000001,Chinese Restaurant
577,577,55.6861,12.541027272727273,46,3,4b5ee6edf964a5202c9d29e3,Hong Kong Grill,55.68921557292962,12.542966813964266,Chinese Restaurant
295,295,55.66609999999999,12.595572727272728,34,22,4b5f287cf964a520d3a929e3,Maharaja indisk resturant,55.66716252825829,12.59785891684422,Indian Restaurant
1066,50,55.66836092933239,12.563190862727652,4,3,4b6070f6f964a5201ae629e3,Spisehuset,55.669312957169076,12.563867029837294,Scandinavian Restaurant
368,368,55.6761,12.541027272727273,26,12,4b617711f964a5207b142ae3,Di Minutte,55.675253000000005,12.547013,Sandwich Place
337,337,55.6761,12.504663636363638,9,3,4b62fedaf964a520cc5c2ae3,Cavallino Pizza,55.67882830792684,12.50841555127724,Pizza Place
261,261,55.66609999999999,12.57739090909091,22,10,4b63049cf964a520ef5d2ae3,Sushiya Wokaway,55.667857226011,12.57953950963887,Sushi Restaurant
3,3,55.6261,12.57739090909091,13,1,4b631ba5f964a52092632ae3,The American Restaurant & Diner,55.62998395877257,12.578020837769392,American Restaurant
150,150,55.66609999999999,12.522845454545456,26,2,4b632803f964a52006672ae3,Thai Kok,55.66453679,12.519245,Thai Restaurant
101,101,55.6561,12.613754545454546,39,15,4b645eb7f964a520e2ad2ae3,Zen Sushi,55.659965548144704,12.610853747744697,Sushi Restaurant
137,137,55.66609999999999,12.504663636363638,16,5,4b66e2d6f964a520d02e2be3,Halal Kebab House,55.66663693792258,12.50503320327834,Middle Eastern Restaurant
372,372,55.6761,12.541027272727273,26,16,4b673476f964a5204c412be3,Bindia,55.67692400812878,12.539535477520634,Indian Restaurant
681,681,55.6861,12.57739090909091,43,11,4b684ccff964a52073702be3,Aamanns Deli & Take Away,55.690059068875605,12.575068296577046,Scandinavian Restaurant
988,988,55.7161,12.57739090909091,11,6,4b685e23f964a52041742be3,Kinesiske Restaurant Yuan Hong,55.71329297740414,12.573900272639046,Chinese Restaurant
927,927,55.70609999999999,12.541027272727273,8,7,4b6aeb38f964a520dde62be3,Mama Teresa Pizzaria,55.703863592568204,12.547750601677205,Pizza Place
613,613,55.6861,12.541027272727273,46,39,4b6b041cf964a520cfec2be3,Sushi day,55.68667778977997,12.540157618932152,Sushi Restaurant
989,989,55.7161,12.57739090909091,11,7,4b6c5421f964a52023312ce3,Vincents,55.71365000225325,12.576695373785661,French Restaurant
1119,103,55.6738390706676,12.555226301304462,50,30,4b6c6c77f964a520fc382ce3,Restaurant Miga,55.67381564886878,12.553587457709304,Korean Restaurant
816,816,55.6961,12.559209090909093,13,0,4b6db327f964a520a7872ce3,Ristorante da Nino e Franco,55.69345,12.565505,Italian Restaurant
344,344,55.6761,12.522845454545456,13,1,4b6ec84df964a52068ca2ce3,Bistro PanPan,55.67356737297342,12.521624565124512,Bistro
1495,479,55.68836092933239,12.555225282876556,32,19,4b719933f964a52013502de3,Indian Corner,55.690231000000004,12.554999,Indian Restaurant
90,90,55.6561,12.613754545454546,39,4,4b71a792f964a520f4532de3,Il Gambero Rosso,55.65370940240052,12.6109876717223,Italian Restaurant
1174,158,55.6738390706676,12.56319188051372,47,14,4b7446f3f964a520fbd12de3,Restaurant Fu Hao,55.67165568474445,12.562832498321374,Chinese Restaurant
19,19,55.6261,12.650118181818184,16,3,4b74deb5f964a5200ff62de3,Prego,55.62827324497233,12.648633083849967,Italian Restaurant
1201,185,55.6738390706676,12.56319188051372,47,41,4b75ac4af964a520f91b2ee3,Restaurang Frascati,55.673674,12.562533,Italian Restaurant
251,251,55.66609999999999,12.57739090909091,22,0,4b76a302f964a520b8552ee3,Hatoba,55.66853065818707,12.579251676529136,Sushi Restaurant
306,306,55.66609999999999,12.595572727272728,34,33,4b76a834f964a520c7562ee3,Restaurant Menuen,55.661849,12.598022,Scandinavian Restaurant
359,359,55.6761,12.541027272727273,26,3,4b76d2cbf964a520df612ee3,La Fiesta Mexicana,55.67340542036599,12.54514405585666,Mexican Restaurant
100,100,55.6561,12.613754545454546,39,14,4b797fdef964a520f6fc2ee3,Wan Hao,55.65436355737855,12.610527941821351,Chinese Restaurant
568,568,55.6861,12.522845454545456,17,11,4b799b10f964a52002052fe3,Asian Mix,55.683857177157876,12.524414952073686,Asian Restaurant
46,46,55.6361,12.595572727272728,1,0,4b7c0244f964a5204b782fe3,Dino's Pizza,55.63894568293109,12.598958015441895,Fast Food Restaurant
643,643,55.6861,12.559209090909093,50,23,4b7d4ab1f964a520b5b62fe3,Letz Sushi,55.690400598071406,12.559876774791567,Sushi Restaurant
1627,51,55.67836092933239,12.57340811948628,17,12,4b7eb2a4f964a520d4f92fe3,Thai Kok City,55.678746999999994,12.57329,Thai Restaurant
365,365,55.6761,12.541027272727273,26,9,4b83d421f964a520681231e3,Bjørnekælderen,55.67416741238152,12.537210536307224,Scandinavian Restaurant
1534,518,55.6838390706676,12.555225282876556,27,26,4b842666f964a520f02331e3,Græsk,55.684226,12.551511999999999,Greek Restaurant
827,827,55.6961,12.559209090909093,13,11,4b8572d1f964a520a55e31e3,The Food Restaurant - by Ingeberg & Madsen,55.69208199999999,12.555685,French Restaurant
743,743,55.6961,12.48648181818182,13,0,4b86a503f964a520fd9331e3,Armando's,55.69292459294121,12.489601464052193,Pizza Place
1385,369,55.67836092933239,12.591589937668099,44,31,4b87ff7ff964a520d1d731e3,Gasten & Galionen,55.68025099314723,12.589475216511413,Scandinavian Restaurant
68,68,55.6461,12.613754545454546,9,4,4b8818f2f964a52093df31e3,Den kinesiske mur,55.64544184709592,12.615031446657293,Chinese Restaurant
195,195,55.66609999999999,12.541027272727273,27,21,4b8abfe6f964a520667e32e3,Kina Grill,55.66556060927715,12.546923295735734,Chinese Restaurant
189,189,55.66609999999999,12.541027272727273,27,15,4b8bfb36f964a52043b632e3,Pegasus,55.667834371465524,12.548194260901127,Pub
336,336,55.6761,12.504663636363638,9,2,4b8d477df964a520a5f132e3,UmmeNum,55.678768999999996,12.506860000000001,Sushi Restaurant
111,111,55.6561,12.613754545454546,39,25,4b8d5101f964a5200ef432e3,Spicy World,55.659816420391714,12.61072560002599,Indian Restaurant
817,817,55.6961,12.559209090909093,13,1,4b8ffcb0f964a520496e33e3,Kiin Kiin,55.691841361665155,12.557394366631586,Thai Restaurant
781,781,55.6961,12.541027272727273,47,12,4b914855f964a520c7af33e3,Manfreds & Vin,55.693221449737116,12.543255107500984,Scandinavian Restaurant
1197,181,55.6738390706676,12.56319188051372,47,37,4b915e67f964a520d4b633e3,Restaurant Osaka,55.672096053679645,12.563044863917835,Japanese Restaurant
933,933,55.70609999999999,12.57739090909091,34,0,4b917139f964a520d3bc33e3,Silom Thai Restaurant,55.7076146200939,12.577416146966838,Thai Restaurant
1628,52,55.67836092933239,12.57340811948628,17,13,4b93e812f964a520e65834e3,Shahi Restaurant,55.67857499970275,12.572699660249011,Indian Restaurant
35,35,55.6361,12.48648181818182,7,3,4b93f61cf964a520215d34e3,thai king,55.6369696611075,12.480192269833474,Thai Restaurant
808,808,55.6961,12.541027272727273,47,39,4b98f206f964a520d15735e3,Cafè Ultimatum,55.699556099999995,12.536313777777776,Italian Restaurant
537,537,55.6861,12.48648181818182,13,4,4b9a06bdf964a520939b35e3,Antoni pizza,55.682613,12.489831,Italian Restaurant
545,545,55.6861,12.48648181818182,13,12,4b9a7032f964a52054b535e3,Kiwis,55.6904791,12.487882,Thai Restaurant
535,535,55.6861,12.48648181818182,13,2,4b9a723df964a52010b635e3,Que Pasa,55.684153008606685,12.485997478267718,Mexican Restaurant
822,822,55.6961,12.559209090909093,13,6,4b9bed66f964a520d73636e3,Koi Sushi,55.6923712882033,12.560989365106886,Sushi Restaurant
317,317,55.66609999999999,12.613754545454546,15,10,4b9d38e5f964a520ce9a36e3,Hua Hin,55.66270649490205,12.615519774838448,Thai Restaurant
1083,67,55.6761,12.559209090909093,11,8,4b9fdaf1f964a520f34437e3,Restaurant Fridas,55.6745266071091,12.559223373568573,Scandinavian Restaurant
17,17,55.6261,12.650118181818184,16,1,4ba201f9f964a5201bd637e3,O'Learys,55.62872885797924,12.644893527030947,American Restaurant
1190,174,55.6738390706676,12.56319188051372,47,30,4ba32ab5f964a5205d2e38e3,Yam Yam,55.67269556997284,12.565059023981046,Asian Restaurant
755,755,55.6961,12.48648181818182,13,12,4ba3db45f964a5201c6738e3,Taverna Rhodos,55.692939608232344,12.489633034364669,Greek Restaurant
1092,76,55.6738390706676,12.555226301304462,50,3,4ba51e10f964a5208edf38e3,Le Basilic,55.671827,12.556234,French Restaurant
719,719,55.6861,12.595572727272728,21,6,4ba749d2f964a520d08939e3,Restaurant Amalie,55.682689781758434,12.592062471490998,Scandinavian Restaurant
1648,72,55.6772304646662,12.571416609582375,18,14,4ba7aa25f964a52097a739e3,Restorante Il Ponte,55.676574050812434,12.5718454433418,Italian Restaurant
1196,180,55.6738390706676,12.56319188051372,47,36,4ba7aa61f964a520bba739e3,Osaka Sushi,55.672214581379755,12.563033869109766,Sushi Restaurant
323,323,55.66609999999999,12.631936363636365,5,1,4ba9fbaef964a5207a413ae3,Restaurant Sundby Sejl,55.664415091183045,12.631880863517976,Scandinavian Restaurant
172,172,55.66609999999999,12.522845454545456,26,24,4baa4bcef964a520245c3ae3,Avanti,55.66657287059186,12.515058517456055,Italian Restaurant
80,80,55.6561,12.541027272727273,3,1,4bae4e47f964a52057a03be3,Desi Corner,55.65283808397234,12.538846081507993,Indian Restaurant
850,850,55.6961,12.57739090909091,40,21,4bae6fc5f964a52047b23be3,B'India,55.69874247098701,12.576248351326756,Indian Restaurant
564,564,55.6861,12.522845454545456,17,7,4baf63ddf964a52053fc3be3,100% Sushi,55.68852245807648,12.523977,Japanese Restaurant
1674,98,55.679491393998596,12.575399629390185,28,22,4bb3807314cfd13afc1d16ab,Sultan Palace,55.67910769446971,12.576434823948972,Turkish Restaurant
982,982,55.7161,12.57739090909091,11,0,4bb9ef347421a5933c2bc340,Thai Curry,55.71233271843974,12.577575537871613,Thai Restaurant
58,58,55.6361,12.650118181818184,2,0,4bba1eef1261d13a3a40ea98,Kystens Perle,55.636591333058355,12.654322689610606,Scandinavian Restaurant
590,590,55.6861,12.541027272727273,46,16,4bbb6d0053649c74b90f4afb,Sapore Italiano,55.682908,12.53578,Italian Restaurant
863,863,55.6961,12.57739090909091,40,34,4bbdfba0078095219a38db91,La Vita Pizza Ristorante,55.69443729000513,12.570569910230589,Pizza Place
366,366,55.6761,12.541027272727273,26,10,4bc0d404920eb71319a6192c,SIS Kebab,55.675734,12.544708,Middle Eastern Restaurant
852,852,55.6961,12.57739090909091,40,23,4bc1f3e6f8219c74c3fab310,Smørhullet,55.69603000000001,12.572699189186096,Indian Restaurant
340,340,55.6761,12.504663636363638,9,6,4bc2180fabf4952189f0c193,Asia Takeaway,55.678603,12.502046,Thai Restaurant
282,282,55.66609999999999,12.595572727272728,34,9,4bc233b1abf49521a129c293,Kareten,55.66485758754652,12.59939534613293,Scandinavian Restaurant
187,187,55.66609999999999,12.541027272727273,27,13,4bc4adc0461576b002448032,Amore,55.66959441428572,12.545489,Mexican Restaurant
920,920,55.70609999999999,12.541027272727273,8,0,4bc5dab90a30d13a508e5a9c,Cajun Kitchen,55.70236796943837,12.53684447740639,Cajun / Creole Restaurant
839,839,55.6961,12.57739090909091,40,10,4bc6e2b892b376b0ffb94e3a,Søpromenaden,55.697641965025085,12.578486063686045,Scandinavian Restaurant
1333,317,55.67836092933239,12.581373698695538,31,27,4bca020f0687ef3bfc02dbcc,Skindbuksen,55.67966204235668,12.584626306443406,Scandinavian Restaurant
1468,452,55.6861,12.559209090909093,31,23,4bca0417511f952185caaec7,Ahaaa - Det Arabiske Madhus,55.68662592,12.558301,Middle Eastern Restaurant
355,355,55.6761,12.522845454545456,13,12,4bcafa55cc8cd13a9081becf,Café K,55.67191421985626,12.522426,African Restaurant
185,185,55.66609999999999,12.541027272727273,27,11,4bcb42fb0687ef3b7b50ddcc,Hing's Cuisine,55.670492485271424,12.540838487329705,Chinese Restaurant
1402,386,55.6738390706676,12.591589937668099,25,4,4bcc94d40687ef3b0e7fdfcc,Asador,55.67230151734018,12.590555149256199,Steakhouse
1381,365,55.67836092933239,12.591589937668099,44,27,4bcdeeb6937ca5939399ad92,Ebisu,55.677935,12.592177000000001,Sushi Restaurant
721,721,55.6861,12.595572727272728,21,8,4bce0d6a29d4b713afdca7dc,Nakorn Thai,55.68616554998177,12.589221990915105,Thai Restaurant
357,357,55.6761,12.541027272727273,26,1,4bcf4fd9caff9521a4ecccf0,Restaurant Melée,55.675818993627175,12.542489772928741,French Restaurant
951,951,55.70609999999999,12.57739090909091,34,18,4bd07e0dcaff95217ce7cef0,Madgården,55.709126,12.578642964363098,Indian Restaurant
1157,141,55.67836092933239,12.56319188051372,21,18,4bd083e0b221c9b6d2d2d3d0,Sushi Treat,55.678644999999996,12.565946,Japanese Restaurant
1360,344,55.67836092933239,12.591589937668099,44,6,4bd2d01b77b29c7459638f82,Venezia Italian Restaurant,55.68016145117024,12.590011037037305,Italian Restaurant
136,136,55.66609999999999,12.504663636363638,16,4,4bd30af9b221c9b64cb0d8d0,Phenix Corner,55.66591870786624,12.509564648269224,Burger Joint
354,354,55.6761,12.522845454545456,13,11,4bd31f049854d13ab9e9fc4d,Sale e Pepe,55.68025317681718,12.521713920520892,Italian Restaurant
892,892,55.70609999999999,12.48648181818182,6,0,4bd33f52b221c9b6f83fd9d0,Ya Ya Sushi,55.703491229584294,12.490444473983626,Sushi Restaurant
776,776,55.6961,12.541027272727273,47,7,4bd44dd79854d13a1550ff4d,Kebabistan,55.69574728055869,12.546723503315597,Middle Eastern Restaurant
677,677,55.6861,12.57739090909091,43,7,4bd6a9786798ef3b366f658d,Restaurant Schønnemann,55.68275619106309,12.575768548788115,Scandinavian Restaurant
114,114,55.6561,12.613754545454546,39,28,4bd70ded637ba5931d29f970,Gung's Thai,55.659779,12.611013999999999,Thai Restaurant
670,670,55.6861,12.57739090909091,43,0,4bd80c9bf645c9b6fa09a7e0,O's American Breakfast & Barbeque,55.69023126053857,12.575078917674148,Diner
1007,1007,55.7261,12.57739090909091,13,4,4bd82414e914a5934c7c52fa,Just Thai & Sushi,55.72547014161722,12.580814549779365,Thai Restaurant
943,943,55.70609999999999,12.57739090909091,34,10,4bdd793ed33f2d7f25008b3c,Le Saint Jacques,55.7032061123119,12.577923138522394,French Restaurant
938,938,55.70609999999999,12.57739090909091,34,5,4bdd8ac2645e0f474da96b19,The Taco Shop #2,55.70759903268222,12.577436827954259,Mexican Restaurant
318,318,55.66609999999999,12.613754545454546,15,11,4be19c811a44a593cd2a9287,Oyisi Sushi,55.66622597477456,12.61289106681035,Sushi Restaurant
1294,278,55.6738390706676,12.57340811948628,18,6,4be1c24587e42d7f4bca870b,Færgekroen Bryghus,55.674020512516364,12.569901409989646,Brewery
379,379,55.6761,12.541027272727273,26,23,4be299661dd22d7ff05a94bd,La Regina,55.678178371789826,12.534211775670595,Italian Restaurant
940,940,55.70609999999999,12.57739090909091,34,7,4be2a41b1dd22d7fe86c94bd,Stjerne Smørrebrød,55.706390232787435,12.577374812813947,Scandinavian Restaurant
14,14,55.6261,12.57739090909091,13,12,4be2bd19d27a20a1b72f905b,Milano Restaurant,55.63002370141675,12.577994570587913,Italian Restaurant
768,768,55.6961,12.522845454545456,4,3,4be48218cf200f47530f123c,Vietnam House,55.697056,12.525542999999999,Vietnamese Restaurant
864,864,55.6961,12.57739090909091,40,35,4be86feb88ed2d7f07dfcb1d,Auberge,55.698527,12.578284,French Restaurant
1165,149,55.6738390706676,12.56319188051372,47,5,4bec45ff976ac928f8c4600b,Nimb Brasserie,55.673559999999995,12.566612,French Restaurant
319,319,55.66609999999999,12.613754545454546,15,12,4bed8ec9e3562d7fdc31fff8,Khaogaeng,55.664476,12.61510407,Thai Restaurant
941,941,55.70609999999999,12.57739090909091,34,8,4beeddce2c082d7fb0023142,Hong Cheng,55.708876000000004,12.575448,Chinese Restaurant
843,843,55.6961,12.57739090909091,40,14,4bf190b03fa220a19b721820,Restaurant Hanoi,55.69655366431881,12.58071706116528,Vietnamese Restaurant
814,814,55.6961,12.541027272727273,47,45,4bf2c1e582002d7f1debd0bb,Flamingo Kebab Og Grill,55.699626553485295,12.541226240897247,Middle Eastern Restaurant
8,8,55.6261,12.57739090909091,13,6,4bf2c9f320960f47d9a76e2f,STORM Restaurant,55.626851840434945,12.576847920344159,Scandinavian Restaurant
297,297,55.66609999999999,12.595572727272728,34,24,4bf40d1494af2d7f651b3a72,Pasta House,55.664524606412755,12.60052808682007,Italian Restaurant
819,819,55.6961,12.559209090909093,13,3,4bf4287be5eba5930a531f90,Aroiidee,55.69196865572986,12.557237059321304,Thai Restaurant
1379,363,55.67836092933239,12.591589937668099,44,25,4bf53d1694af2d7ff5713b72,Nyhavn 37,55.67996144124872,12.590440557966234,Scandinavian Restaurant
1134,118,55.6738390706676,12.555226301304462,50,45,4bf7da40508c0f4749113e31,Restaurant Frokosten,55.67416,12.552022000000001,Scandinavian Restaurant
186,186,55.66609999999999,12.541027272727273,27,12,4bf82645b182c9b697f7765a,Kirk + Maarbjerg,55.6664121058319,12.546277155468516,African Restaurant
1507,491,55.68836092933239,12.555225282876556,32,31,4bfd6751b68d0f47c7bbe857,Go Away,55.688083,12.553996000000001,African Restaurant
1059,43,55.66836092933239,12.555227319090529,37,36,4bfd67dc4cf820a17a6cecf4,Señorita,55.669682671862184,12.554806233752576,Mexican Restaurant
847,847,55.6961,12.57739090909091,40,18,4bfe8fb3bf6576b087daaeb8,Doktors Cafe og Restaurant,55.69530527125689,12.569797039031982,Bar
958,958,55.70609999999999,12.57739090909091,34,25,4bfea1f3daf9c9b61efcf8ef,Z-Sushi,55.707883879905125,12.577393506529074,Sushi Restaurant
153,153,55.66609999999999,12.522845454545456,26,5,4bfffa5237850f476080973f,Venus Pizzaria,55.669130660708866,12.517094777891767,Indian Restaurant
902,902,55.70609999999999,12.504663636363638,11,4,4c01494d94c1c9b6f909bb5f,Oyami nudler og sushi,55.70470600000001,12.501384,Sushi Restaurant
845,845,55.6961,12.57739090909091,40,16,4c0293769a7920a1779ace79,Yokoso Sushi,55.69661516670905,12.581096198975935,Sushi Restaurant
370,370,55.6761,12.541027272727273,26,14,4c06798c5753c92803ef3af1,Kokken & Karry,55.67468887832917,12.534460790435991,Indian Restaurant
74,74,55.6561,12.4683,2,1,4c068d4a0e0a2d7f98feeb0c,Dong-Fang,55.657703672638995,12.473236852094304,Chinese Restaurant
167,167,55.66609999999999,12.522845454545456,26,19,4c0777090e0a2d7fde59ed0c,Sushi 2500,55.66411979796053,12.516067241245914,Sushi Restaurant
286,286,55.66609999999999,12.595572727272728,34,13,4c07eec4bbc676b0d0bb45d5,Organic Corner,55.667193000000005,12.597749,Asian Restaurant
1563,547,55.68836092933239,12.563192898941624,29,28,4c07fa8f7e3fc9289696ef82,Philoxenia,55.68905600000001,12.562713,Greek Restaurant
534,534,55.6861,12.48648181818182,13,1,4c0935f2bbc676b0bfc947d5,Den Gyldne Okse,55.689456812497994,12.489532297989873,Scandinavian Restaurant
1048,32,55.66836092933239,12.555227319090529,37,25,4c0947cfffb8c9b69ba36961,1001 Shawarma,55.66926328198566,12.551949490531266,Middle Eastern Restaurant
1503,487,55.68836092933239,12.555225282876556,32,27,4c0b0fedffb8c9b603c66c61,Amigo's Pizza & Shawarma,55.69043531118324,12.554832310526276,Pizza Place
942,942,55.70609999999999,12.57739090909091,34,9,4c0c0df66071a5938e36e232,Bamboo Grill,55.707758999999996,12.57745108,Chinese Restaurant
688,688,55.6861,12.57739090909091,43,18,4c0d259d2466a593f31e7721,Ristorante San Giorgio,55.683465000000005,12.574088,Italian Restaurant
301,301,55.66609999999999,12.595572727272728,34,28,4c0e0d0db1b676b0c36fe186,Bennys Pølser,55.663279,12.601581,Scandinavian Restaurant
197,197,55.66609999999999,12.541027272727273,27,23,4c0e7a2c2466a593e01c7921,La Coruna Tandoori,55.664801357073536,12.542618278765747,Indian Restaurant
290,290,55.66609999999999,12.595572727272728,34,17,4c0e97fe7189c9280ac1d8b6,Thai Hut,55.666782,12.597874000000001,Thai Restaurant
1394,378,55.67836092933239,12.591589937668099,44,40,4c0e9e922466a593255c7921,Nyhavns Caféen,55.680091943784596,12.590166425091587,Café
1455,439,55.6861,12.559209090909093,31,10,4c13dd1fa5eb76b05fbcc0b7,Sokrates Taverna,55.687123,12.559322,Greek Restaurant
917,917,55.70609999999999,12.522845454545456,11,8,4c1552601b5cef3b1547eec4,Oki Sushi,55.70477537584016,12.52605902670306,Sushi Restaurant
826,826,55.6961,12.559209090909093,13,10,4c165171a5eb76b03c9dc4b7,Wang Fu & Soya Running Sushi,55.69705601,12.560014,Japanese Restaurant
928,928,55.70609999999999,12.559209090909093,5,0,4c165d5477cea593cd91d360,Long Xin,55.709642,12.561478,Chinese Restaurant
283,283,55.66609999999999,12.595572727272728,34,10,4c166e54b7b9c9281672ae37,Topkapi,55.664566,12.59595,Middle Eastern Restaurant
1235,219,55.6761,12.57739090909091,31,28,4c17a947c2dfc928a85aa869,Barbossa,55.676442,12.574536,Brazilian Restaurant
109,109,55.6561,12.613754545454546,39,23,4c1e4817b9f876b050d27e46,Thai House,55.656537,12.609109,Thai Restaurant
963,963,55.70609999999999,12.57739090909091,34,30,4c24df98136d20a1f28ae261,Thai Take Away,55.70685445004901,12.580328306555009,Thai Restaurant
1301,285,55.6738390706676,12.57340811948628,18,13,4c24e4f1136d20a1ec96e261,Great China,55.67385540972565,12.572392127048747,Asian Restaurant
1383,367,55.67836092933239,12.591589937668099,44,29,4c262e48136d20a1b3cfe461,Saga Queen,55.676486,12.589758,Scandinavian Restaurant
877,877,55.6961,12.595572727272728,9,8,4c26395ff1272d7ffa2186c5,Tio Mario's Ristorante,55.69825866695267,12.593703166952467,Italian Restaurant
269,269,55.66609999999999,12.57739090909091,22,18,4c2665aa905a0f47043b6360,Da Misto,55.66505681996066,12.581350159238852,Italian Restaurant
574,574,55.6861,12.541027272727273,46,0,4c278c465c5ca593eaf247fe,Satang Thai Bistro,55.68502779999999,12.548185499999999,Thai Restaurant
563,563,55.6861,12.522845454545456,17,6,4c278eaca852c9281b6de86c,Ming Yang,55.68761619269404,12.528821350763481,Chinese Restaurant
260,260,55.66609999999999,12.57739090909091,22,9,4c28d2a79fb5d13a3a289a57,Canton Grill,55.664091000000006,12.580022,Asian Restaurant
532,532,55.6861,12.4683,1,0,4c2a4029c758e21e545a3a3f,Mama Thai,55.682574820182076,12.46490556962464,Asian Restaurant
1675,99,55.679491393998596,12.575399629390185,28,23,4c2b657c77cfe21e6863b4f1,Nena's,55.679889,12.574846,Spanish Restaurant
130,130,55.66609999999999,12.48648181818182,2,0,4c2e39c34e132d7f75cb9ddf,Ristorante Garda,55.668376,12.48780876,Italian Restaurant
352,352,55.6761,12.522845454545456,13,9,4c3081e67cc0c9b67b68ed9a,Det Kinesiske te hus,55.675652,12.52741,Chinese Restaurant
735,735,55.6861,12.613754545454546,3,1,4c30b7df16adc9281f87bf9c,Restaurent Lynetten,55.689154015527365,12.61859249943908,Scandinavian Restaurant
567,567,55.6861,12.522845454545456,17,10,4c330b3d213c2d7fe741365d,Dagliglivets Oase,55.68423628807068,12.524747,Middle Eastern Restaurant
71,71,55.6461,12.613754545454546,9,7,4c39950aae2da593c5c902c6,Svigermekanikken,55.645845282525606,12.60935406203193,German Restaurant
1330,314,55.67836092933239,12.581373698695538,31,24,4c3b3451def90f474a85fd2d,Restaurant Vingården,55.678449,12.582215,Italian Restaurant
119,119,55.6561,12.613754545454546,39,33,4c3ca6ea933b0f470f5de421,Pomodoro & Mozarella,55.65725988124503,12.608780884564045,Pizza Place
855,855,55.6961,12.57739090909091,40,26,4c3f48adda3dc928b8a6c5b9,Cofoco Numéro 64,55.69843604202266,12.57849802435878,Scandinavian Restaurant
70,70,55.6461,12.613754545454546,9,6,4c43240ccc410f470cbdad61,Bombay Spicy,55.644022,12.615388000000001,Indian Restaurant
1500,484,55.68836092933239,12.555225282876556,32,24,4c4338e8d691c9b6616e8f0a,Ali Baba,55.688275,12.554302,Indian Restaurant
849,849,55.6961,12.57739090909091,40,20,4c471ce90f5aa5938ac87c76,Lack's Sushi,55.696000899999994,12.5724591,Sushi Restaurant
268,268,55.66609999999999,12.57739090909091,22,17,4c487e1619fde21edec40b76,Prego,55.665595999999994,12.575229,Italian Restaurant
149,149,55.66609999999999,12.522845454545456,26,1,4c4f377092b6a593a1053771,Yousef's Spisested,55.664582194848826,12.516334609733304,Fast Food Restaurant
1679,103,55.679491393998596,12.575399629390185,28,27,4c51ccb5b6dabe9a05665512,Peder Oxe,55.67978441207754,12.57582050739101,Scandinavian Restaurant
912,912,55.70609999999999,12.522845454545456,11,3,4c5292969426c9281aab9b75,OMD Kantine,55.70737354539771,12.530375408575113,Scandinavian Restaurant
939,939,55.70609999999999,12.57739090909091,34,6,4c545925fd2ea5938408f429,Duang Jai,55.709663,12.578071000000001,Thai Restaurant
194,194,55.66609999999999,12.541027272727273,27,20,4c57eeff6418a593fb65800e,Copenhagens Frokostordning,55.668102000000005,12.544135,Eastern European Restaurant
731,731,55.6861,12.595572727272728,21,18,4c5c35e6857ca593495fc9cb,Mogogo,55.686615,12.587869,African Restaurant
75,75,55.6561,12.504663636363638,2,0,4c5ed8b07f661b8d37154f1c,"Restaurant Saigon, Valby",55.65205269590799,12.502708818228786,Vietnamese Restaurant
792,792,55.6961,12.541027272727273,47,23,4c5efe8b6147be9ac8469609,Elvan Shawarma & Grill,55.69969775891905,12.540857256173368,Fast Food Restaurant
418,418,55.6761,12.559209090909093,50,36,4c627b3258810f47a73b071e,Guru To GO,55.67608296928741,12.566173150227813,Indian Restaurant
952,952,55.70609999999999,12.57739090909091,34,19,4c62c5e479d1e21e95dad615,Lucky Grill,55.706483999999996,12.583680152893065,Sushi Restaurant
98,98,55.6561,12.613754545454546,39,12,4c64259cec94a593ff7a2dca,Nan Wao,55.652955000000006,12.6114,Chinese Restaurant
93,93,55.6561,12.613754545454546,39,7,4c64cd4f3f69c9b67cc389d9,Sumo Sushi,55.654419999999995,12.610634,Sushi Restaurant
833,833,55.6961,12.57739090909091,40,4,4c66df117abde21eb5ba6468,Famo Metro,55.69583309023295,12.579626015299606,Italian Restaurant
724,724,55.6861,12.595572727272728,21,11,4c6bffbaa437224bb81229b1,Restaurant Mance,55.684916005211115,12.5881836143421,Italian Restaurant
1498,482,55.68836092933239,12.555225282876556,32,22,4c6c270e99b9236adfc5e1c9,Curry House,55.688499,12.55471018,Indian Restaurant
775,775,55.6961,12.541027272727273,47,6,4c6c4a2cf2846dcb2d8162e9,Relæ,55.69301899999999,12.543368,Scandinavian Restaurant
547,547,55.6861,12.504663636363638,11,1,4c729b1b4bc4236aa2a5cb7a,Kineseren,55.687111,12.498615,Chinese Restaurant
761,761,55.6961,12.504663636363638,9,5,4c73e3c6d944224bc36e1029,La Petit Bankok,55.694014,12.509227000000001,Thai Restaurant
1522,506,55.6838390706676,12.555225282876556,27,14,4c74403f3adda143ee1d04af,Hos Pæren,55.68473,12.554547,Italian Restaurant
746,746,55.6961,12.48648181818182,13,3,4c77fe20df08a1cdd3dcd55d,Hana Sushi,55.69240093231039,12.485296726226444,Sushi Restaurant
34,34,55.6361,12.48648181818182,7,2,4c7a8c66bd346dcb7cbdf8ef,China Vietnam House,55.63193195257678,12.488776357172206,Chinese Restaurant
9,9,55.6261,12.57739090909091,13,7,4c7bd8983badb1f7d0085654,Sushi Bar,55.63016969862762,12.57829171679973,Asian Restaurant
566,566,55.6861,12.522845454545456,17,9,4c7d2ccb8da18cfaf2839ece,Bangkok,55.683413,12.527631,Thai Restaurant
571,571,55.6861,12.522845454545456,17,14,4c7d2d50b33a224b2a37d781,Bangkok Thailandsk Restaurant,55.683409,12.527484,Thai Restaurant
671,671,55.6861,12.57739090909091,43,1,4c7e7304d65437046744c3a2,Under Uret,55.689445431480706,12.575012311377465,Scandinavian Restaurant
706,706,55.6861,12.57739090909091,43,36,4c7fcca5fb13a1cd0da7a1a4,Bistro Kultorvet,55.682603,12.574225,Scandinavian Restaurant
606,606,55.6861,12.541027272727273,46,32,4c80be1b51ada1cd29290c10,Hostrups Have Smørrebrød,55.68510059517378,12.539858731106706,Scandinavian Restaurant
328,328,55.6761,12.4683,2,1,4c83be34d34ca14376e73780,Niji Sushi,55.67219955,12.46658189,Sushi Restaurant
37,37,55.6361,12.48648181818182,7,5,4c83c4ed2f1c236aa68e4543,Soya Sushi,55.63206402436178,12.489297396607409,Japanese Restaurant
930,930,55.70609999999999,12.559209090909093,5,2,4c87bb15d8086dcbd7a5a452,Vanak,55.706835999999996,12.562215,Mediterranean Restaurant
824,824,55.6961,12.559209090909093,13,8,4c87c14553a6a09354c33eba,The Food,55.692079067230225,12.555631,Italian Restaurant
15,15,55.6261,12.631936363636365,1,0,4c87ced42a1f6dcb3b0bc5ee,Bella Italia,55.624723620411025,12.624860853571866,Italian Restaurant
970,970,55.70609999999999,12.595572727272728,10,3,4c87d41c32f2a143223af127,Vietnam,55.703821999999995,12.590964,Vietnamese Restaurant
1062,46,55.6638390706676,12.555227319090529,3,2,4c89108810523704a7a4c5f1,Naan House,55.66587606408999,12.554570115286934,Indian Restaurant
947,947,55.70609999999999,12.57739090909091,34,14,4c8a320f9ef0224b8a77587b,Tran Smørrebrød,55.709037,12.577258,Scandinavian Restaurant
786,786,55.6961,12.541027272727273,47,17,4c8a73329ef0224bc0035b7b,Hos Nugge,55.69535345714286,12.546472942857141,Asian Restaurant
200,200,55.66609999999999,12.541027272727273,27,26,4c8ab88f3dc2a1cd3d92af32,Dunyam S. House,55.667508999999995,12.547992,Middle Eastern Restaurant
957,957,55.70609999999999,12.57739090909091,34,24,4c8bc1a7c37a6dcb3aa9f07a,Pizzeria Scamorza,55.70822986606249,12.577295602740087,Pizza Place
345,345,55.6761,12.522845454545456,13,2,4c8bc59755fba093141e59ab,Restaurant Frederiks have,55.67917768940353,12.525047101406233,French Restaurant
1179,163,55.6738390706676,12.56319188051372,47,19,4c8e66644e95236a8fae7bca,Kokken & Karry,55.67287013447429,12.564983173588214,Indian Restaurant
7,7,55.6261,12.57739090909091,13,5,4c8f99fddaa937048f1f56b1,Nachos Mexican Restaurant,55.63009484241051,12.578272909136018,Mexican Restaurant
934,934,55.70609999999999,12.57739090909091,34,1,4c9226d0ae45224b83a2ed97,Geranium,55.7036327604076,12.5720527738892,Scandinavian Restaurant
216,216,55.66609999999999,12.559209090909093,50,15,4c92371f029776b097a99c55,Sticks'n'Sushi,55.665778,12.566169,Sushi Restaurant
1123,107,55.6738390706676,12.555226301304462,50,34,4c924a83238c6dcb1b36c755,Tulip Ved Q8,55.672359012281845,12.555146068679614,Scandinavian Restaurant
313,313,55.66609999999999,12.613754545454546,15,6,4c94f7ec03413704d61277ef,Hot & Spicy,55.66502188,12.60615437,Indian Restaurant
895,895,55.70609999999999,12.48648181818182,6,3,4c979e52f244b1f7fd2b3e1d,Casa Italiana,55.707539525,12.485826325,Italian Restaurant
61,61,55.6461,12.541027272727273,1,0,4c97bd6c72dd224bc819b791,Barrafina,55.649384,12.543489,Spanish Restaurant
116,116,55.6561,12.613754545454546,39,30,4c9a269778fc236aa7f13297,Southern Grill,55.65609139927564,12.616018769495847,Chinese Restaurant
614,614,55.6861,12.541027272727273,46,40,4c9b953bdb10b60c14b09c6d,Bép Viét,55.68553604756827,12.537723565831215,Asian Restaurant
33,33,55.6361,12.48648181818182,7,1,4c9c925b03133704582756d5,Pang's Smørrebrød,55.637142000000004,12.479485,Scandinavian Restaurant
777,777,55.6961,12.541027272727273,47,8,4c9d272546978cfa00ce947f,Dürum Bar (Döner Kebab),55.697283251166574,12.544428788740175,Kebab Restaurant
120,120,55.6561,12.613754545454546,39,34,4c9f7d9046978cfa4c60ab7f,Mamma Mia,55.66047191619873,12.61381208896637,Mexican Restaurant
580,580,55.6861,12.541027272727273,46,6,4ca36e16f832a1cdfe889de5,Famosi e Golosi,55.68486915094211,12.540833105085726,Italian Restaurant
1013,1013,55.7261,12.57739090909091,13,10,4ca60dc9b7106dcb76215aa5,Dondon Sushi,55.728385454485576,12.57572217598616,Sushi Restaurant
795,795,55.6961,12.541027272727273,47,26,4ca75403d971b1f7cfcc08e1,Hos Sara,55.692266821861274,12.5408935546875,Mexican Restaurant
304,304,55.66609999999999,12.595572727272728,34,31,4ca7710b931bb60c95629de2,Go Away,55.667924446813714,12.59701000092266,Asian Restaurant
987,987,55.7161,12.57739090909091,11,5,4ca772b1d971b1f7bf4a0ae1,Restaurant EGO,55.712208202209155,12.576019763946533,Scandinavian Restaurant
866,866,55.6961,12.57739090909091,40,37,4caae90e8882199cd7f045d4,Restaurant Romarin,55.696145296096795,12.573297,French Restaurant
40,40,55.6361,12.541027272727273,3,1,4caf9d79f2dbef3b70c278e5,Havnens Grill og Pizzaria,55.639866000000005,12.540376,Middle Eastern Restaurant
974,974,55.70609999999999,12.595572727272728,10,7,4cb5d85852edb1f7864e6afe,Wokbaren,55.7078175,12.591751,Asian Restaurant
813,813,55.6961,12.541027272727273,47,44,4cb5fef155af224b92ab967e,Tex mex,55.6991493,12.5413424,Mexican Restaurant
1321,305,55.67836092933239,12.581373698695538,31,15,4cb86766dd41a35d4f6bdaa0,Ved Ibrahim på Klubben,55.680428000000006,12.580577,American Restaurant
953,953,55.70609999999999,12.57739090909091,34,20,4cbdd6febac93704d4ac007d,Sushizone,55.705577000000005,12.576586,Sushi Restaurant
956,956,55.70609999999999,12.57739090909091,34,23,4cbdeea8c7228cfadffe2cce,Karry Sutra,55.70510724877515,12.578290621497828,Indian Restaurant
1153,137,55.67836092933239,12.56319188051372,21,14,4cc2b39ec844721eb425de01,Thé à la Menthe,55.68016139002504,12.563236355781555,Tea Room
569,569,55.6861,12.522845454545456,17,12,4cc99fc5d338236a92b6a37c,Klai Takeaway,55.684546,12.52515,French Restaurant
55,55,55.6361,12.631936363636365,8,5,4cc9b9575c17b60c43ef0a05,Da Massimo Pizza,55.635124347237465,12.635868518336286,Italian Restaurant
79,79,55.6561,12.541027272727273,3,0,4ccadde59b9346885f4c5141,Al Salam Slagter,55.653313,12.538461999999999,Middle Eastern Restaurant
800,800,55.6961,12.541027272727273,47,31,4ccafb0c7c2ff04d657e8f7e,Ashiq's Place,55.69567859172821,12.546522999999999,Indian Restaurant
369,369,55.6761,12.541027272727273,26,13,4ccb082b72106dcbe6499199,Kat's Italian Delli,55.678658999999996,12.535724,Italian Restaurant
1132,116,55.6738390706676,12.555226301304462,50,43,4cd1a7206200b1f7f01ddb28,Canton,55.673157611212005,12.558975561009445,Chinese Restaurant
740,740,55.6961,12.4683,6,3,4cd58e10b2a4370430d97e44,Zi Yang,55.698170999999995,12.475145,Chinese Restaurant
923,923,55.70609999999999,12.541027272727273,8,3,4cd6727494848cfaba29edb1,guns taco shop,55.707547999999996,12.537807,Taco Place
765,765,55.6961,12.522845454545456,4,0,4cd995b653a7f04d4c156916,Duemila / Cafe 2000,55.69897770881653,12.523217,Italian Restaurant
1000,1000,55.7261,12.522845454545456,6,3,4cdd7990d4ecb1f7d4968548,Teatroria Campo Dè Fiori,55.729066,12.523534,Italian Restaurant
276,276,55.66609999999999,12.595572727272728,34,3,4cdd79bb930af04dfc649697,Boulevard Bodega,55.66585185964368,12.597672863273257,Scandinavian Restaurant
138,138,55.66609999999999,12.504663636363638,16,6,4cdd96e47e2e236a7bd5791b,Casablanca,55.66446304321289,12.511662840843199,Moroccan Restaurant
128,128,55.66609999999999,12.4683,2,0,4cded3313644a09345874e9f,Kina Grill,55.66529617273929,12.473974735650403,Asian Restaurant
584,584,55.6861,12.541027272727273,46,10,4cdffa20825e721effbe7345,Ågade 120,55.688919999999996,12.54036,Scandinavian Restaurant
948,948,55.70609999999999,12.57739090909091,34,15,4ce05af878ddf04d6ce3a598,McT's,55.70193199999999,12.579407000000002,African Restaurant
1673,97,55.679491393998596,12.575399629390185,28,21,4ce17fd2f8a4a143affeeabc,K-F-U-K,55.67995500000001,12.574296,Asian Restaurant
763,763,55.6961,12.504663636363638,9,7,4ce2b64794c3b60cb99c7dea,Risgryden,55.693837,12.501488,Thai Restaurant
1509,493,55.6838390706676,12.555225282876556,27,1,4ce6ab220f196dcb7a0539ae,Akropolis,55.68436073191501,12.551576814494705,Greek Restaurant
4,4,55.6261,12.57739090909091,13,2,4ce7cb859f776ea8a7055a22,Chili Shawarma,55.63002979969279,12.577014981331189,Fast Food Restaurant
874,874,55.6961,12.595572727272728,9,5,4ce7d87ef86537045653acc4,Braserie Lola,55.697582999999995,12.590735,French Restaurant
751,751,55.6961,12.48648181818182,13,8,4ce7ff45948f224b5c92ed5d,Indian Flavours,55.6922667627175,12.485786141163418,Indian Restaurant
748,748,55.6961,12.48648181818182,13,5,4ce80eeefe90a35d0d41400e,Kreta,55.69186139999999,12.48404012,Greek Restaurant
1009,1009,55.7261,12.57739090909091,13,6,4ced2aecf368b1f77b5679f7,Coq & Ko,55.722430321140706,12.577490444296194,French Restaurant
977,977,55.7161,12.4683,1,0,4cefd93e821254816bdd6ba1,La Belinda,55.711941635121896,12.471350285429207,Italian Restaurant
696,696,55.6861,12.57739090909091,43,26,4cf1155bcc61a35df29f129e,Kultorvet 5,55.682432999999996,12.574005999999999,Scandinavian Restaurant
766,766,55.6961,12.522845454545456,4,1,4cf13723e94254810bdd68c5,Resturant & Café Duemila,55.69902695833228,12.52773096865753,Italian Restaurant
981,981,55.7161,12.559209090909093,3,2,4cf3e9991c158cfa5f7fe0b5,Li's Kinagrill,55.71278038660887,12.560885620843258,Chinese Restaurant
315,315,55.66609999999999,12.613754545454546,15,8,4cf698191801a14337acead4,Belardo's,55.667434,12.617069,Asian Restaurant
1203,187,55.6738390706676,12.56319188051372,47,43,4cf6a79071538cfa57beb62e,Axelborg Chinese Restaurant,55.675686,12.564461999999999,Chinese Restaurant
744,744,55.6961,12.48648181818182,13,1,4cf7e0b6dc40a35d63cc4f54,Restaurant Seoul,55.6922787149347,12.483177952202096,Korean Restaurant
112,112,55.6561,12.613754545454546,39,26,4cf91c0101568cfa175e24e7,Taj Mahal,55.654593919020826,12.610660577633677,Indian Restaurant
1154,138,55.67836092933239,12.56319188051372,21,15,4cf94ae87945224bdd0079e7,L'Osteria Del Grappolo Blu,55.678833688897974,12.562954326821485,Italian Restaurant
536,536,55.6861,12.48648181818182,13,3,4cfa4adb34c1a09327403f0e,Mings Dynasti,55.689390373561146,12.488407332304044,Chinese Restaurant
783,783,55.6961,12.541027272727273,47,14,4cfa6fbae6f48eecc3c683a4,Osaka Sushi,55.696751,12.537268,Sushi Restaurant
973,973,55.70609999999999,12.595572727272728,10,6,4cfcefbb20fe370462975cf8,Restaurant Men'ske Lård,55.709373,12.600408,Dim Sum Restaurant
1002,1002,55.7261,12.522845454545456,6,5,4d011eff6923721e596dc83b,He Cheng,55.727394,12.525096000000001,Chinese Restaurant
1573,557,55.6838390706676,12.563192898941624,12,9,4d08b9dc05216dcbcc8d1cb6,Nice,55.683745862394524,12.565459444505017,Café
343,343,55.6761,12.522845454545456,13,0,4d0a652d454c6dcbaf913e8e,Casa Mia,55.678969855866,12.528448294744413,Italian Restaurant
6,6,55.6261,12.57739090909091,13,4,4d0b5d37d823b1f7d7eae85c,Café La Vento,55.629994993532044,12.578091447219153,American Restaurant
356,356,55.6761,12.541027272727273,26,0,4d1a2999401db60cd3ccffa4,Wokshop,55.67645257827282,12.541694611617414,Thai Restaurant
697,697,55.6861,12.57739090909091,43,27,4d1b0a9f33562c0f1952dc29,Byens Smørrebrød,55.68930573370529,12.573316601302588,Sandwich Place
1570,554,55.6838390706676,12.563192898941624,12,6,4d1e15785acaa35dd8d2b335,Nicholas & Alexandra,55.68338871002197,12.56612241268158,Swiss Restaurant
692,692,55.6861,12.57739090909091,43,22,4d206f698629224b7dfc1287,Restaurant Kultorvet,55.68252062006628,12.574263369842472,Scandinavian Restaurant
931,931,55.70609999999999,12.559209090909093,5,3,4d24a5e8dcf4224b039da576,BaanThai Kitchen,55.705223873830654,12.555048154241636,Asian Restaurant
616,616,55.6861,12.541027272727273,46,42,4d260e9a0167a1cd9027a3bd,Wok Shop Frb,55.688936018947665,12.541878325994649,Asian Restaurant
745,745,55.6961,12.48648181818182,13,2,4d2b4ba03c795481c882e79b,Nini Sushi,55.69405062058093,12.480082994586482,Sushi Restaurant
730,730,55.6861,12.595572727272728,21,17,4d2ca11d849f370408ca9c41,Grønfeldts Taverna,55.68784300000001,12.590809,Greek Restaurant
725,725,55.6861,12.595572727272728,21,12,4d2f4c4b6fc6f04d8ffa8845,Restaurant Cave,55.68465135419444,12.588071100563026,Indian Restaurant
690,690,55.6861,12.57739090909091,43,20,4d2f5c2e5055a35dbaf39aca,Ristorante ITALIANO Pompei,55.682787,12.574207000000001,Italian Restaurant
52,52,55.6361,12.631936363636365,8,2,4d30696b789a8cfacaf52ec6,Skottegårdens Slagter,55.637636,12.633346000000001,Scandinavian Restaurant
993,993,55.7161,12.595572727272728,1,0,4d3095be789a8cfa59ee30c6,Restaurant Paustian,55.7128122262231,12.59113894729896,Scandinavian Restaurant
156,156,55.66609999999999,12.522845454545456,26,8,4d309689236aa143304556eb,Minh Oi,55.666045,12.521063999999999,Vietnamese Restaurant
1293,277,55.6738390706676,12.57340811948628,18,5,4d38160ae6bdf04de08860b4,Spicy Indian,55.674817229496135,12.57233709018255,Indian Restaurant
190,190,55.66609999999999,12.541027272727273,27,16,4d38adfb4215f04da42acbf8,Asian Zensation by Fahad,55.664122,12.54141,Asian Restaurant
1647,71,55.6772304646662,12.571416609582375,18,13,4d39df4a687ca35d03e383c4,Beijing,55.67693534,12.57044113,Chinese Restaurant
701,701,55.6861,12.57739090909091,43,31,4d3d491d05b8721e978a9337,Asia - Food. Nørreport.,55.683923,12.572557000000002,Asian Restaurant
858,858,55.6961,12.57739090909091,40,29,4d4340532dd93704f060277c,Napoleons,55.699436,12.580589999999999,Australian Restaurant
401,401,55.6761,12.559209090909093,50,19,4d44609b2e326ea89776e3a6,GURU,55.67610649460443,12.566320116982654,Indian Restaurant
380,380,55.6761,12.541027272727273,26,24,4d4d8cba80cb6dcb98911101,Rawfornia,55.678266,12.534195,Brazilian Restaurant
1497,481,55.68836092933239,12.555225282876556,32,21,4d52bb81c305b60c597e9d1e,Salaania,55.688908999999995,12.555008,African Restaurant
327,327,55.6761,12.4683,2,0,4d556d47c6edf04d3a9dc4a2,Dueslaget,55.672793520621134,12.47157003762683,Scandinavian Restaurant
687,687,55.6861,12.57739090909091,43,17,4d57cf6bde8f6dcb72b00391,Traktørstedet Rosenborg Slot,55.686129927635186,12.576658129692078,Scandinavian Restaurant
749,749,55.6961,12.48648181818182,13,6,4d5d6998ddac721ee95d78fe,Sake Sushi,55.69223114326218,12.485838479953694,Sushi Restaurant
541,541,55.6861,12.48648181818182,13,8,4d73bd1b3815f04d9d369f67,Hamburger,55.68462099999999,12.489268,American Restaurant
1473,457,55.6861,12.559209090909093,31,28,4d73cfc98e12b1f7ef454e05,Tapas-Fabrikken,55.68610495984568,12.557595744944244,Tapas Restaurant
147,147,55.66609999999999,12.504663636363638,16,15,4d78fe20d7edb60ce9c5fd1a,Tasty Mix,55.66644305382752,12.506549299370716,Indian Restaurant
333,333,55.6761,12.48648181818182,5,4,4d7bb934f260a09371b12cba,Kashmir,55.67197139205632,12.488258303229653,Indian Restaurant
373,373,55.6761,12.541027272727273,26,17,4d7bc9f46152b60c787d8526,Istanbul Sis Kebab 102,55.675667000000004,12.54489004611969,Middle Eastern Restaurant
223,223,55.66609999999999,12.559209090909093,50,22,4d7f7664f635236ae2c47916,Kebabiye,55.67032275081087,12.557359571351054,Middle Eastern Restaurant
266,266,55.66609999999999,12.57739090909091,22,15,4d7fcca97991dcb348ac289e,Ponte Vecchio,55.66562157615963,12.575397993425995,Italian Restaurant
1095,79,55.6738390706676,12.555226301304462,50,6,4d87b8e126a36ea8abd2bead,Brasserie Degas,55.673954575333106,12.551600933074953,French Restaurant
991,991,55.7161,12.57739090909091,11,9,4d888ad16daeb60c8e4f3ce0,Moster Else's Smørrebrød,55.71853324408415,12.576175209941873,Scandinavian Restaurant
311,311,55.66609999999999,12.613754545454546,15,4,4d8b97918169721e489429fd,Lai Lai,55.666446296937046,12.615374827230616,Thai Restaurant
1390,374,55.67836092933239,12.591589937668099,44,36,4d8c95845091a1cde42c6301,Restaurant & Pizzeria Venezia,55.67979379422074,12.591282595862372,Italian Restaurant
807,807,55.6961,12.541027272727273,47,38,4d8e20f8d265236a3b970217,Casa Del Pueblo,55.698239,12.545511999999999,Asian Restaurant
296,296,55.66609999999999,12.595572727272728,34,23,4d94ab9958caa1438ee4b025,A. Sushi,55.666404017348995,12.598556996694914,Sushi Restaurant
990,990,55.7161,12.57739090909091,11,8,4d9607cd9079b1f7e8caef09,9-Ni Sushi,55.718630000000005,12.575488,Sushi Restaurant
1678,102,55.679491393998596,12.575399629390185,28,26,4d98ea33577cba7a46839779,Restaurant Wining & Dining,55.679910064155166,12.575531407232427,French Restaurant
995,995,55.7261,12.4683,1,0,4d9a00d597d06ea898ca560b,Wok And Roll,55.72205310245897,12.471343859126135,Thai Restaurant
1327,311,55.67836092933239,12.581373698695538,31,21,4d9f7f458e8f224bbd9ba556,Ali Baba Ocakbasi,55.677904000000005,12.580447999999999,Asian Restaurant
747,747,55.6961,12.48648181818182,13,4,4da726518154fe28a8e05113,Running Sushi,55.69175,12.488228999999999,Thai Restaurant
750,750,55.6961,12.48648181818182,13,7,4db12f254b22ba776d7d5c97,Feng Xian,55.693835,12.48321,Chinese Restaurant
0,0,55.6161,12.48648181818182,1,0,4db335d9fa8c350240c8b818,Ye Sushi,55.615524,12.489674,Sushi Restaurant
897,897,55.70609999999999,12.48648181818182,6,5,4db5a47ffa8c350240feb238,Butter Tikka,55.7092296494695,12.481328692763276,Indian Restaurant
308,308,55.66609999999999,12.613754545454546,15,1,4db86a8dcda10f31e616f15f,Fresh Sushi,55.66394577574064,12.617883605791302,Sushi Restaurant
1114,98,55.6738390706676,12.555226301304462,50,25,4db99671043760912105f564,Bonjour Vietnam,55.672751670333604,12.55553377113142,Vietnamese Restaurant
96,96,55.6561,12.613754545454546,39,10,4db9a609cda10f31e631326d,Malta Selskabslokaler,55.65537088349205,12.616556815905756,Scandinavian Restaurant
841,841,55.6961,12.57739090909091,40,12,4dbbf89d43a1d8504b7dc5e7,Fiolstræde Italiensk Resteurante Med Mutti,55.692585,12.573960000000001,Italian Restaurant
1361,345,55.67836092933239,12.591589937668099,44,7,4dbed5276a23a3c473adc645,Gorm's,55.679895052546065,12.590162933467749,Italian Restaurant
737,737,55.6961,12.4683,6,0,4dbeefb81e72b351caec7cc7,Roberto's Pizzaria,55.699692055719204,12.46879956548963,Italian Restaurant
1384,368,55.67836092933239,12.591589937668099,44,30,4dc195a3d22da01533531a5b,Ol & Grill,55.679862,12.590633,Italian Restaurant
695,695,55.6861,12.57739090909091,43,25,4dc43db6d4c0ad9c0f69936a,Middag med en smuk Grisling,55.682706,12.574354,Thai Restaurant
169,169,55.66609999999999,12.522845454545456,26,21,4dc8074ae4cd169dc689f50d,Mont D'or Grill,55.666167175,12.517292,Chinese Restaurant
603,603,55.6861,12.541027272727273,46,29,4dd382d452b1f6bad408cd3a,Mit Plenum,55.68615368133665,12.537715656484012,French Restaurant
801,801,55.6961,12.541027272727273,47,32,4dd67a5d45ddced8206e3382,Barbar Restaurant,55.699746,12.540937,Middle Eastern Restaurant
854,854,55.6961,12.57739090909091,40,25,4ddbe3d31f6e9b46a12e57a9,Inspektør Bæk,55.69552051,12.571039466666667,Scandinavian Restaurant
1188,172,55.6738390706676,12.56319188051372,47,28,4ddcbc21b0fba481fc883e0e,Centrum Smørrebrød,55.67440166890296,12.563295547204785,Scandinavian Restaurant
595,595,55.6861,12.541027272727273,46,21,4ddfda28ae60c015c0a0b256,La Vita é Bella,55.68453723623409,12.537672914786965,Italian Restaurant
351,351,55.6761,12.522845454545456,13,8,4de3cdbb8877bcb68664786f,La Familia - Home Made Take Away,55.680054000000005,12.521799,Italian Restaurant
762,762,55.6961,12.504663636363638,9,6,4df50abad1649c8a28e870d6,Spicy Palace,55.69563470000001,12.5109966,Indian Restaurant
83,83,55.6561,12.559209090909093,3,1,4dfa3874a809fe774224193e,Cofoco Le Marché,55.65729127628374,12.566570352390347,Italian Restaurant
84,84,55.6561,12.559209090909093,3,2,4e01fc56e4cd338f2d49b6cd,Scarpetta,55.65733200393559,12.566680064674035,Italian Restaurant
335,335,55.6761,12.504663636363638,9,1,4e0e0f4d7d8bb178a8a515aa,Ummenum Sushi,55.678747680627296,12.503431737774534,Sushi Restaurant
339,339,55.6761,12.504663636363638,9,5,4e0f49af62843e04afb3dad8,Kina Grill,55.67846680508256,12.49925922925311,Chinese Restaurant
831,831,55.6961,12.57739090909091,40,2,4e101935d4c07597ff755856,LêLê Street Kitchen // Østerbro,55.697770459632814,12.578900464420096,Vietnamese Restaurant
612,612,55.6861,12.541027272727273,46,38,4e21a231b61cdcf1ecbf3ce8,Wok King,55.68586978017668,12.53651993037426,Chinese Restaurant
711,711,55.6861,12.57739090909091,43,41,4e231a3188774a43b77ab0df,Picollo,55.690025,12.575138,Italian Restaurant
894,894,55.70609999999999,12.48648181818182,6,2,4e2c64b1a809f1b16419d15d,Wong's Grill,55.70737641228196,12.485882272541213,Chinese Restaurant
916,916,55.70609999999999,12.522845454545456,11,7,4e2da038b61cd010838bdd4b,Hafez Persian Restaurant,55.70579997661276,12.521557363038704,Asian Restaurant
890,890,55.70609999999999,12.4683,3,1,4e2efc647d8bf59d29120f1d,FuYi Restaurant,55.70998,12.466197,Chinese Restaurant
911,911,55.70609999999999,12.522845454545456,11,2,4e343d4718a8efdb176264a7,Restaurant Fisk Tagine,55.70873888663553,12.525547341841145,Moroccan Restaurant
1525,509,55.6838390706676,12.555225282876556,27,17,4e3bf93d18a83d5b282f1817,Govinda Vegetar Take-Away,55.68271702891325,12.556385993957518,Vegetarian / Vegan Restaurant
949,949,55.70609999999999,12.57739090909091,34,16,4e3ea9ba2271d21e8705dd25,Silum,55.706129000000004,12.577437,Thai Restaurant
811,811,55.6961,12.541027272727273,47,42,4e414f5bfa7697d3df85476b,Zona Norte,55.700318,12.538259,Mexican Restaurant
45,45,55.6361,12.57739090909091,4,3,4e456dc7183849317e68034c,Visa Sushi,55.63284274154213,12.579794918287115,Sushi Restaurant
31,31,55.6261,12.650118181818184,16,15,4e4a839662847afcaf16cd7f,Italian Casual Dining,55.62830086826728,12.648632526397705,Italian Restaurant
698,698,55.6861,12.57739090909091,43,28,4e4a92f7e4cd4fd73005d7c3,Bohemia,55.682453306704566,12.581944439637695,Eastern European Restaurant
790,790,55.6961,12.541027272727273,47,21,4e4aa89cfa76a0c058d2ea78,Køkken,55.693751,12.546008,Korean Restaurant
1528,512,55.6838390706676,12.555225282876556,27,20,4e4d4708c65bba8554da8759,Miao Running Sushi,55.68497671302415,12.552862480994039,Sushi Restaurant
131,131,55.66609999999999,12.48648181818182,2,1,4e5128a18877402b06db322b,Hong Kong Grill,55.662272832295706,12.482808571635443,Chinese Restaurant
985,985,55.7161,12.57739090909091,11,3,4e568b2c7d8b60849c50cd04,V,55.71342849731445,12.577271461486815,French Restaurant
326,326,55.66609999999999,12.631936363636365,5,4,4e58f031d22dfba6f46c2f78,Luna Traperia,55.66427470231746,12.625818185649193,Tapas Restaurant
1339,323,55.6738390706676,12.581373698695538,5,2,4e5cafbee4cd6fcf27f2f5dd,Kantinen @ Skatteministeriet,55.67260364331316,12.584307934073534,Scandinavian Restaurant
1512,496,55.6838390706676,12.555225282876556,27,4,4e610751ae60e9edf5208be1,Radio,55.681957999999995,12.554138,Scandinavian Restaurant
143,143,55.66609999999999,12.504663636363638,16,11,4e6b9488483bf2d9e6ba42d2,"Valby Grill - Shawarma, Grill & Restaurant",55.66638005376559,12.504914622912487,Middle Eastern Restaurant
310,310,55.66609999999999,12.613754545454546,15,3,4e6e3466c65b18875fafddaf,Thai Herb,55.66462634000001,12.61505136,Thai Restaurant
1644,68,55.6772304646662,12.571416609582375,18,10,4e71f177b0fb9f3b34fdb4c5,Shawarma Walking Street,55.67755,12.571744,Asian Restaurant
798,798,55.6961,12.541027272727273,47,29,4e80b5ccd22da9de9e2e5391,Mazaj,55.69903986495505,12.541334387295757,Middle Eastern Restaurant
38,38,55.6361,12.48648181818182,7,6,4e81ab52be7b86178ef4c94c,Hot & Cool,55.63738402541698,12.479944800299046,Middle Eastern Restaurant
113,113,55.6561,12.613754545454546,39,27,4e8d7b1930f82b1224fdf2c0,Blomsterberg Smørrebrød,55.6542836920146,12.610185396130905,Scandinavian Restaurant
910,910,55.70609999999999,12.522845454545456,11,1,4e9986c7cc218247d95e95c0,Nasgor langganan,55.708473205566406,12.525419235229492,Asian Restaurant
376,376,55.6761,12.541027272727273,26,20,4e9dc67c775b37d2ea8b4d1f,Al-diwan,55.672008,12.54349,Indian Restaurant
24,24,55.6261,12.650118181818184,16,8,4e9eeb4530f8fb67761fff05,The Sportsbar,55.6286999270566,12.645211004706654,American Restaurant
678,678,55.6861,12.57739090909091,43,8,4ea0433cf5b99725b9e20d6d,Aamanns Etablissement,55.690070627721205,12.575020072416251,Scandinavian Restaurant
859,859,55.6961,12.57739090909091,40,30,4ea408880aaf71118143df4d,Den Grønne Gryde,55.70045699999999,12.579281,Italian Restaurant
733,733,55.6861,12.595572727272728,21,20,4eaa948cd3e3846cbcb17b42,Cafe Paris,55.68754578088507,12.590133604749987,French Restaurant
267,267,55.66609999999999,12.57739090909091,22,16,4eaaff33f5b90f34efb42588,CHICO's Mexican,55.66497660711698,12.5825699137695,Mexican Restaurant
1182,166,55.6738390706676,12.56319188051372,47,22,4eac11c06da1cafdae98145d,"YumYum - Noddles, Rice & More",55.67247912576913,12.565204183133776,Asian Restaurant
797,797,55.6961,12.541027272727273,47,28,4eb18ac4f5b931e2ae4aa453,Onsushi,55.69460138253221,12.546280488663363,Sushi Restaurant
1155,139,55.67836092933239,12.56319188051372,21,16,4ebc2ded4901a730a8daf66d,Sushitreat Hotel Fox,55.678733490846206,12.56631945672962,Sushi Restaurant
906,906,55.70609999999999,12.504663636363638,11,8,4ebd09bd49012e72fe82df1b,Caracalla,55.705955,12.511749,Middle Eastern Restaurant
51,51,55.6361,12.631936363636365,8,1,4ebd58fd8b81967ad1e38f25,Ye Sushi,55.63830824819087,12.635313918015132,Sushi Restaurant
610,610,55.6861,12.541027272727273,46,36,4ec7ddfd6da1d1092f07e9ef,Raku Raku Sushi,55.68334457817309,12.53644668920585,Sushi Restaurant
821,821,55.6961,12.559209090909093,13,5,4ecabc10b634b2fd78381347,Thai Bistro,55.69203208285573,12.557300300296195,Thai Restaurant
252,252,55.66609999999999,12.57739090909091,22,1,4ece9bee93ad987b4afc8c83,Il Buco,55.66626520452843,12.580132154877758,Italian Restaurant
954,954,55.70609999999999,12.57739090909091,34,21,4ee8e842be7b208528a107a7,Klam Mad,55.70821033168156,12.578302889915573,Eastern European Restaurant
1670,94,55.679491393998596,12.575399629390185,28,18,4efa1b2dc512f2277ae93250,Tapas G.,55.6800105868517,12.575505004536373,Tapas Restaurant
314,314,55.66609999999999,12.613754545454546,15,7,4f0489bc9adf4efb13fa5c46,Baan Kunya,55.6621034393965,12.616308515673644,Asian Restaurant
1191,175,55.6738390706676,12.56319188051372,47,31,4f0edaabe4b0d8e3c1dbbc88,Medisterens Desk,55.67332054107733,12.562253346493804,Turkish Restaurant
363,363,55.6761,12.541027272727273,26,7,4f14e162e4b0042057d8fd0c,hot dog 1901,55.677,12.546855,African Restaurant
689,689,55.6861,12.57739090909091,43,19,4f1869a7e4b0926438c2dcd0,Samosa Food,55.68397792551414,12.572869786348065,Indian Restaurant
618,618,55.6861,12.541027272727273,46,44,4f19a778e4b08b384e5d42d6,Cavallino Pizzeria N,55.687208542176926,12.54632201765934,Pizza Place
562,562,55.6861,12.522845454545456,17,5,4f19be82e4b0b62f9ba74c03,Goa,55.68927490952211,12.521420954271774,Indian Restaurant
303,303,55.66609999999999,12.595572727272728,34,30,4f283548e4b055df283e2502,Kina gril,55.664297999999995,12.596962,Asian Restaurant
703,703,55.6861,12.57739090909091,43,33,4f303e5fe4b083c42a20a258,ellies kitchen,55.687231000000004,12.583603,American Restaurant
926,926,55.70609999999999,12.541027272727273,8,6,4f342ba7e4b0a660dd0493a8,Der Führer Bunker,55.707409,12.536173,German Restaurant
975,975,55.70609999999999,12.595572727272728,10,8,4f37bf63e4b09ca12d657487,Toldboden Bodega,55.70411326539968,12.590568396882675,Scandinavian Restaurant
736,736,55.6861,12.613754545454546,3,2,4f3b9a63003943e8c96b8c00,56°,55.684188823581465,12.610185191542374,Scandinavian Restaurant
44,44,55.6361,12.57739090909091,4,2,4f453308e4b0e16ae5d23358,Library Restaurant,55.639708658375646,12.577843666076658,Scandinavian Restaurant
331,331,55.6761,12.48648181818182,5,2,4f4cfe18e4b081be1cbac392,Cai Hong,55.672464359841854,12.489354209162085,Sushi Restaurant
754,754,55.6961,12.48648181818182,13,11,4f4d012fe4b081be1cbee699,rimini,55.69467946593989,12.490483857599989,Indian Restaurant
378,378,55.6761,12.541027272727273,26,22,4f5126a6e4b020de97b7f783,Alex Sushi,55.673334999999994,12.544038,Sushi Restaurant
907,907,55.70609999999999,12.504663636363638,11,9,4f5503aee4b002a745203d35,Little Italy,55.705966000000004,12.512036,Italian Restaurant
860,860,55.6961,12.57739090909091,40,31,4f5a4cdde4b0aaabf505cedb,Mester kokkens værksted,55.69931624354828,12.578147592263665,Scandinavian Restaurant
1113,97,55.6738390706676,12.555226301304462,50,24,4f650514e4b04b2444313cb8,Tullinsgade 6,55.67333000000001,12.551482,Arepa Restaurant
1393,377,55.67836092933239,12.591589937668099,44,39,4f6792fae4b09ff9bf559fab,Nyhavn Kroen,55.679871999999996,12.591342,Scandinavian Restaurant
1397,381,55.67836092933239,12.591589937668099,44,43,4f6894a5e4b0f8b5d4792439,Nyhavnskroen,55.679807015326816,12.591256671445393,Scandinavian Restaurant
915,915,55.70609999999999,12.522845454545456,11,6,4f6a10e5e4b0512b345bea2b,9 Ni Sushi,55.709328,12.524967,Sushi Restaurant
644,644,55.6861,12.559209090909093,50,24,4f6e1143e4b09530aef15739,Malbech Vinotek,55.690072281104676,12.55836917259293,Argentinian Restaurant
1457,441,55.6861,12.559209090909093,31,12,4f6e3165e4b0a4e210558a27,Tapasfabriken,55.68622351947073,12.559818322070225,Tapas Restaurant
77,77,55.6561,12.522845454545456,2,0,4f86a96ee4b02900b7434e61,Sag Kantine,55.65635699999999,12.524269,Scandinavian Restaurant
1395,379,55.67836092933239,12.591589937668099,44,41,4f91a637e4b0277c98f390c9,LEA @ Ebisu Popup Restaurant,55.677993475734,12.592681509736225,Japanese Restaurant
1328,312,55.67836092933239,12.581373698695538,31,22,4f9997cde4b06e3db56e6de2,Ristorante Santoni,55.67848092402164,12.58215375779111,Italian Restaurant
67,67,55.6461,12.613754545454546,9,3,4fa2c744e4b0e8e3877ab5fb,Sundby Grill & Pizza,55.646214,12.613733,Chinese Restaurant
838,838,55.6961,12.57739090909091,40,9,4fa671dfbb3d9b195e66de4b,La Esquina,55.69517475052442,12.571776827936132,Wine Bar
608,608,55.6861,12.541027272727273,46,34,4fbbc305e4b01b3b571a84fb,Grill,55.687284,12.547158999999999,Asian Restaurant
1465,449,55.6861,12.559209090909093,31,20,4fbe8e92e4b06a0de5f2da36,zafran,55.68743605313654,12.559449893039687,Middle Eastern Restaurant
921,921,55.70609999999999,12.541027272727273,8,1,4fc3a76fe4b021b6e0a25a35,Anand Food's Bombay Biriyani,55.7041015625,12.541650772094727,Indian Restaurant
245,245,55.66609999999999,12.559209090909093,50,44,4fc3b241e4b071420f8401a5,The Noodle Box,55.670366646801156,12.557061764855867,Thai Restaurant
586,586,55.6861,12.541027272727273,46,12,4fc3b84ee4b07ac9fd78e8aa,Favori Baklavaci,55.685041037717504,12.538028628514303,Turkish Restaurant
66,66,55.6461,12.613754545454546,9,2,4fc7965de4b02d1d47d05cdf,Tandoori Kebab & Grill,55.64880862167018,12.613289792951186,Indian Restaurant
1341,325,55.6738390706676,12.581373698695538,5,4,4fc9b6e0e4b0e0e7c299b38f,Food Court @ Jaya Jusco Tebrau City,55.67313766479492,12.582633972167967,Asian Restaurant
1614,38,55.67270860600141,12.557217581021593,21,20,4fca1f9ce4b0980cf1166572,WAH WAH,55.67255020141602,12.557249069213867,Indian Restaurant
346,346,55.6761,12.522845454545456,13,3,4fcd23f2e4b09443508b1301,Frederiks Have,55.67918100000001,12.525186,Scandinavian Restaurant
601,601,55.6861,12.541027272727273,46,27,4fce4db3e4b0844bff88751f,FuWa,55.68836478976901,12.542207293601608,Chinese Restaurant
945,945,55.70609999999999,12.57739090909091,34,12,4fcf0e86e4b071a2c89c0d4a,Uddannelsescentrets Kantine,55.708057,12.580384,Turkish Restaurant
722,722,55.6861,12.595572727272728,21,9,4fd0913be4b0e16f8db6cc71,Cafe Toldboden,55.68701,12.595872,Scandinavian Restaurant
806,806,55.6961,12.541027272727273,47,37,4fda175ee4b00800dd4d0dc7,Street Dining,55.698310803328326,12.540563547555232,Japanese Restaurant
543,543,55.6861,12.48648181818182,13,10,4fdf89bbe4b09d54189f3700,Italiensk Pizzaria,55.684433999999996,12.485496000000001,Italian Restaurant
925,925,55.70609999999999,12.541027272727273,8,5,4fe1f18de4b0b689ab4e403b,Bombay Biriyani,55.703049820783455,12.537557109574369,Indian Restaurant
42,42,55.6361,12.57739090909091,4,0,4fe385b0e4b0f20130e7310d,Rasoi - Indian Cuisine,55.63516480419897,12.581954532643149,Indian Restaurant
1303,287,55.6738390706676,12.57340811948628,18,15,4fe4d0fde4b0e1967e202132,Iboo's Pizza og Pakistansk,55.6743764823259,12.573291551368518,Middle Eastern Restaurant
978,978,55.7161,12.541027272727273,1,0,4fe8adb5e4b0899a0b227bcd,SushiTime,55.71343494867956,12.535139323338989,Sushi Restaurant
788,788,55.6961,12.541027272727273,47,19,4ff1f20ce4b0ef320e0c5b0d,toyama,55.69688034057617,12.537842750549315,Japanese Restaurant
770,770,55.6961,12.541027272727273,47,1,4ff1f2eae4b03357dd1a6721,Toyama Running Sushi,55.69593568314725,12.537104854876116,Japanese Restaurant
873,873,55.6961,12.595572727272728,9,4,4ffb1540e4b0cc077fa07cb9,Memories,55.700202795323456,12.593722343444824,Indian Restaurant
1124,108,55.6738390706676,12.555226301304462,50,35,4ffea128e4b09d12b0d3cbdb,Gavekortet.dk Køkkenet,55.672610999999996,12.555106,African Restaurant
161,161,55.66609999999999,12.522845454545456,26,13,4fff17fce4b080fb6a655290,Punjab,55.666360097069905,12.520614347724385,Indian Restaurant
979,979,55.7161,12.559209090909093,3,0,500037f5e4b06aae2cec7974,Sushi Style,55.71839145205622,12.555250834256125,Japanese Restaurant
575,575,55.6861,12.541027272727273,46,1,50031772e4b062a7b3171453,Dim Sum,55.68827783737524,12.542556645718813,Dim Sum Restaurant
1324,308,55.67836092933239,12.581373698695538,31,18,5006cca6e4b0c0c243a6f630,Illums tagterrasse,55.6792396819901,12.579529140492944,Scandinavian Restaurant
41,41,55.6361,12.541027272727273,3,2,500842acc84c614d5a86a889,Havnens kebab,55.63843702437898,12.542309761047365,Middle Eastern Restaurant
1159,143,55.67836092933239,12.56319188051372,21,20,50140441e4b0ad6ab28e6b96,Asian Street Party,55.677282,12.564827000000001,Asian Restaurant
1380,364,55.67836092933239,12.591589937668099,44,26,501440e4e4b080ff6b5b544c,Øl & Grill,55.679924,12.590836,Scandinavian Restaurant
1650,74,55.6772304646662,12.571416609582375,18,16,50212d85e4b0643d854a4367,China Box,55.67697995498042,12.5704870287261,Chinese Restaurant
865,865,55.6961,12.57739090909091,40,36,5022736fe4b0edf15ab4d261,Restaurant Det Bedste For Dig,55.699434077907675,12.581703234290087,Scandinavian Restaurant
738,738,55.6961,12.4683,6,1,50310b26e4b0a9acffc265d5,China Grill,55.700340000000004,12.465946,Asian Restaurant
1056,40,55.66836092933239,12.555227319090529,37,33,50391fe1e4b06348eb4ab482,Sushi Best,55.66718219357037,12.554324552977727,Sushi Restaurant
173,173,55.66609999999999,12.522845454545456,26,25,5040e559e4b07118801ac89f,Ris og Nudler,55.666548685538466,12.519844879192664,Thai Restaurant
1520,504,55.6838390706676,12.555225282876556,27,12,504ddd9fe4b0c9f22031a0ad,Temporada Tapasbodega,55.684689417256536,12.554496595627267,Tapas Restaurant
20,20,55.6261,12.650118181818184,16,4,50531c0ae4b0e7a976a9c6cb,Nordic Dining,55.628428,12.647164,Scandinavian Restaurant
861,861,55.6961,12.57739090909091,40,32,505ef892e4b018ec7b6541e0,Shawarma Huset,55.699479601556966,12.578146993919658,Turkish Restaurant
123,123,55.6561,12.613754545454546,39,37,50647ed5e4b030dd86f296e2,Butter Tikka,55.66045,12.613921000000001,Indian Restaurant
287,287,55.66609999999999,12.595572727272728,34,14,50649507e4b0aacee6eb72a4,Ninja Japanese Tapas,55.666532043465025,12.598498882407455,Asian Restaurant
929,929,55.70609999999999,12.559209090909093,5,1,5065bad8e4b09f3b333255cc,Kosk Kebab,55.70195858390261,12.559116131774028,Turkish Restaurant
809,809,55.6961,12.541027272727273,47,40,507347d7e4b01f5f5bfcf485,Öz Urfa,55.69563333243935,12.546676860554026,Middle Eastern Restaurant
257,257,55.66609999999999,12.57739090909091,22,6,5075a81ae4b0092291ad01d3,Hahnemanns Køkken Pop-up,55.666827000000005,12.579442,Scandinavian Restaurant
1421,405,55.6738390706676,12.591589937668099,25,23,50780141e4b069ffd6b4a0a4,Smørrebrød Køkken,55.67354546362074,12.58919199093778,Scandinavian Restaurant
374,374,55.6761,12.541027272727273,26,18,5082d716e4b094820a3a74b7,Marahaja Gl. Kongevej,55.67414093017578,12.547853469848633,Indian Restaurant
565,565,55.6861,12.522845454545456,17,8,50915bffe4b005e812b7ef67,Gastronomia Siciliana,55.688506000000004,12.525333,Italian Restaurant
1565,549,55.6838390706676,12.563192898941624,12,1,509bbd8fe4b0eaba8f37f375,Høst,55.683279000000006,12.566075999999999,Scandinavian Restaurant
585,585,55.6861,12.541027272727273,46,11,509d4f1ce4b007e3c11cda48,Fu Wa,55.68847919919391,12.542069731994154,Chinese Restaurant
544,544,55.6861,12.48648181818182,13,11,50b10132e4b01d0e2bb991fc,Ny Hongkong Grill,55.68624319292989,12.4827788852109,Chinese Restaurant
1496,480,55.68836092933239,12.555225282876556,32,20,50b7a704e4b0dc165f59db9c,Restaurant Kilimanjaro,55.68881,12.555112,African Restaurant
85,85,55.6561,12.595572727272728,1,0,50bf160c7ab4cbefb2fd4837,Nyhederne Julefrokost,55.65876611059534,12.589194774627686,Scandinavian Restaurant
76,76,55.6561,12.504663636363638,2,1,50c4c1b8e4b0eaecd8efa3f6,Butt's Underground Kitchen,55.653624420604395,12.510427483749009,Indian Restaurant
598,598,55.6861,12.541027272727273,46,24,50c4d7aee4b0794e9ac4a0e0,Rice 'N' Curry,55.68306737139071,12.53608162722145,Indian Restaurant
1258,242,55.67836092933239,12.57340811948628,50,20,50ccc6c6e4b0e9d6388eebd0,Pan Idræts Julefrokost,55.6803,12.5742,Scandinavian Restaurant
1646,70,55.6772304646662,12.571416609582375,18,12,50e22e46e4b0b781b6450de1,Taco-tortilla,55.67728741591386,12.571108056050212,Taco Place
350,350,55.6761,12.522845454545456,13,7,50eeea13e4b0ebd273c9084c,Vespro's Delikatesser,55.679446,12.525145,Italian Restaurant
579,579,55.6861,12.541027272727273,46,5,50fa8ed3e4b02b4f4d65897e,Bertels Kager,55.68363511457698,12.536705724151016,Café
802,802,55.6961,12.541027272727273,47,33,5103eea2e4b0f2b952a98f92,Montovana Ma,55.694731263376006,12.548303304489849,Middle Eastern Restaurant
919,919,55.70609999999999,12.522845454545456,11,10,51042ba8e4b073eb975ff11f,izmir kebab,55.70596594959064,12.522186043030741,Middle Eastern Restaurant
634,634,55.6861,12.559209090909093,50,14,511bad69e4b096e87cdba2b4,Mahalle Birkegade,55.690315219435504,12.55824946208045,Café
1519,503,55.6838390706676,12.555225282876556,27,11,5124fa81e4b04c1a0e6cc7db,La Giara,55.68332976247247,12.555853203722599,Italian Restaurant
53,53,55.6361,12.631936363636365,8,3,5125079be4b008f7beeab34f,Kineseren,55.635949,12.635088,Chinese Restaurant
573,573,55.6861,12.522845454545456,17,16,5130a64de4b0cd2aaafcf2ef,Alfredo Pizzaria,55.684537561764934,12.516287599874953,Italian Restaurant
312,312,55.66609999999999,12.613754545454546,15,5,51338db0e4b098c2758f3235,Mee Duang,55.665523,12.609227,Thai Restaurant
959,959,55.70609999999999,12.57739090909091,34,26,51339c11e4b0835c6ed4cc3d,Thai Chef,55.70775,12.569981,Thai Restaurant
753,753,55.6961,12.48648181818182,13,10,5140bb34e4b0a32475585b4d,Quinoa,55.69418080353317,12.49355538545598,Italian Restaurant
609,609,55.6861,12.541027272727273,46,35,514202aee4b03f64fd336922,Um Hamza's Marokkanske delikatesser,55.687235891132794,12.540987084198568,Moroccan Restaurant
320,320,55.66609999999999,12.613754545454546,15,13,5144e1cde4b092570d7f02ad,Wok Chopsticks,55.6663671310054,12.61333465576172,Thai Restaurant
275,275,55.66609999999999,12.595572727272728,34,2,5148b076e4b085056a8fca9f,Magasasa Street Kitchen,55.663571999999995,12.6009995,Chinese Restaurant
756,756,55.6961,12.504663636363638,9,0,51588182e4b0ac3448b94822,Chaophraya,55.69312787852432,12.506906562850096,Thai Restaurant
1074,58,55.6638390706676,12.563190862727652,8,7,5166dacce4b07ed52f623407,Meksika,55.662325,12.5633,Mexican Restaurant
893,893,55.70609999999999,12.48648181818182,6,1,5169b41b498e19f9ea6d95db,Alanya 2,55.70604399999999,12.489991,Doner Restaurant
812,812,55.6961,12.541027272727273,47,43,516c2e94e4b0fe7fbc238dd4,The Kitchen 🍴,55.69519095747197,12.538502377098643,Scandinavian Restaurant
1340,324,55.6738390706676,12.581373698695538,5,3,5186556c498e00696fa2e318,Zyrup café,55.67505,12.58137,Scandinavian Restaurant
1493,477,55.68836092933239,12.555225282876556,32,17,51912f8e498e6e48d1b40fdf,Pasta Mania,55.689733266783534,12.558267609974001,Italian Restaurant
767,767,55.6961,12.522845454545456,4,2,519fbd7e498e48183d602d2f,Noodles To Go,55.69893177170025,12.522939147678043,Asian Restaurant
742,742,55.6961,12.4683,6,5,51a0e5c6498ef9766542bdb5,Tasty,55.698083,12.474424,Indian Restaurant
1128,112,55.6738390706676,12.555226301304462,50,39,51a134fd498e3a83e2a211f8,Cafe Ici,55.67203710407386,12.555115323679097,Mediterranean Restaurant
1649,73,55.6772304646662,12.571416609582375,18,15,51a1fb4f498e9aef2d6ad916,北京楼,55.677007999999994,12.570348,Chinese Restaurant
1569,553,55.6838390706676,12.563192898941624,12,5,51a76eac498ea221c004c733,Jacob's Pizza,55.684508646611526,12.56695600403958,Italian Restaurant
188,188,55.66609999999999,12.541027272727273,27,14,51a9ef25498e2fcb2727af32,Hing.dk,55.670462,12.540858,Sushi Restaurant
324,324,55.66609999999999,12.631936363636365,5,2,51b324eb498e537e12838ab1,Karisma,55.662256000000006,12.632322,Arepa Restaurant
825,825,55.6961,12.559209090909093,13,9,51b6056f498ecf6ad7db3e93,Blegdammens Stjerne,55.697254,12.564337,French Restaurant
1669,93,55.679491393998596,12.575399629390185,28,17,51bb70be498e6e8087bc61e8,Rendez-Vous,55.680086337306655,12.575440034596172,French Restaurant
804,804,55.6961,12.541027272727273,47,35,51c4b700498e538e5a9ab444,Italiana II,55.696373,12.54429,Italian Restaurant
760,760,55.6961,12.504663636363638,9,4,51d5443d498e003d34f59e5d,Søs Smørrebrød,55.69270288383665,12.501629289006903,Scandinavian Restaurant
1531,515,55.6838390706676,12.555225282876556,27,23,51e9793f498e642211bc3b1d,CC Restaurant,55.68481976103203,12.552962618786692,Sushi Restaurant
21,21,55.6261,12.650118181818184,16,5,51ebfddb498e1f30b5b9542c,YamYam,55.62930982151598,12.644867993751028,Asian Restaurant
1082,66,55.6761,12.559209090909093,11,7,51f9647f498e0b4a4621ad4a,Akard thai restaurant,55.67623519897461,12.560874938964846,Thai Restaurant
362,362,55.6761,12.541027272727273,26,6,51fe7a4f498ee9a8a2f3cc82,Spaghetteria,55.67816665469263,12.53819696593543,Italian Restaurant
284,284,55.66609999999999,12.595572727272728,34,11,520e713f11d2e8a7386f34df,Shiimi,55.66683578491211,12.5980806350708,Thai Restaurant
95,95,55.6561,12.613754545454546,39,9,521e243511d2a47a39532126,Ganesha,55.658292169037686,12.607888872185896,Indian Restaurant
1443,427,55.6738390706676,12.599555516877356,3,1,5220cd67498e890d2d8acb8e,Banna,55.673469999999995,12.596761,Thai Restaurant
348,348,55.6761,12.522845454545456,13,5,5221c2c311d2458ed339bde8,Molles Pølsevogn,55.67485714758953,12.529034122516629,German Restaurant
193,193,55.66609999999999,12.541027272727273,27,19,522a0ec9498e848be68a2401,Rohan's Indian Restaurant,55.669805481208144,12.540072595497167,Indian Restaurant
549,549,55.6861,12.504663636363638,11,3,522b0c1311d27b8431d75179,Zeybek Flintholm st Pizzaria,55.685885,12.498714999999999,Turkish Restaurant
946,946,55.70609999999999,12.57739090909091,34,13,5233370a11d22f82defc772c,Burger Street,55.70884863792404,12.57347971696137,American Restaurant
787,787,55.6961,12.541027272727273,47,18,5235abf9498ef527ae90a11f,Ozurfa Kebap,55.695402403096686,12.54624095262509,Turkish Restaurant
538,538,55.6861,12.48648181818182,13,5,52388c68498e45497ba07e06,Il Padrino,55.686753432831715,12.4910686501334,Italian Restaurant
592,592,55.6861,12.541027272727273,46,18,523c332e11d2c2dbd8b6fcd5,Mace Indian Cuisine,55.685756813452905,12.537009617858224,Indian Restaurant
361,361,55.6761,12.541027272727273,26,5,523c7d758bbd21473fe15148,Deligreco,55.67803542694236,12.534795333237277,Greek Restaurant
611,611,55.6861,12.541027272727273,46,37,524ae2ac498e815d4e115e7e,Baklavaci,55.685168000000004,12.538285,Turkish Restaurant
1392,376,55.67836092933239,12.591589937668099,44,38,524f3f24498e13087d9906bf,Studio,55.678001611560134,12.59205100158383,Scandinavian Restaurant
984,984,55.7161,12.57739090909091,11,2,5252e3df11d2a4ea980564eb,Spicy Lounge,55.71234308887853,12.577779470443806,Indian Restaurant
1008,1008,55.7261,12.57739090909091,13,5,5259268b498ea0562f4af9bb,Le Café,55.725541006680615,12.579552482027829,French Restaurant
955,955,55.70609999999999,12.57739090909091,34,22,5266677a498e7c6673360f8c,Frihavn Smørrebrød,55.702392578125,12.580756187438965,Scandinavian Restaurant
191,191,55.66609999999999,12.541027272727273,27,17,526bf5f7498e923cbb58ee74,Osteria 16,55.667726,12.545811,Italian Restaurant
714,714,55.6861,12.595572727272728,21,1,526fd53f498e81f5185f5295,District Tonkin,55.685077,12.588224,Vietnamese Restaurant
739,739,55.6961,12.4683,6,2,527536ce498e8f46d10aadf9,China Grill Take Away,55.700331000000006,12.466012,Chinese Restaurant
146,146,55.66609999999999,12.504663636363638,16,14,5276a05311d2650ba85b1300,Viet Huong,55.666518999999994,12.505773,Vietnamese Restaurant
48,48,55.6361,12.613754545454546,3,1,5279f8e611d222d932741ef9,"Øens Smørrebrød, Kastrup",55.635332999999996,12.620041,Turkish Restaurant
794,794,55.6961,12.541027272727273,47,25,527bd5a311d26f35773da9d9,Danafrika,55.696778,12.535943,African Restaurant
264,264,55.66609999999999,12.57739090909091,22,13,52963dec11d251a71312a992,Bibi,55.664832999999994,12.583828,American Restaurant
1504,488,55.68836092933239,12.555225282876556,32,28,5298cce1498e5448f442800f,Cofoco Le Marche,55.69043892467046,12.554795430702796,French Restaurant
1015,1015,55.7261,12.57739090909091,13,12,529db39b11d2d400b908b279,fromagerie vins fins,55.7235221862793,12.580735206604006,French Restaurant
597,597,55.6861,12.541027272727273,46,23,52a3662f11d2f2843f9100e1,New Tokyo sushi,55.68483644822352,12.540879574610221,Sushi Restaurant
960,960,55.70609999999999,12.57739090909091,34,27,52b33d55498e1f14aaf83dcd,Restaurant Co-Ma,55.703836630855854,12.581930309508701,French Restaurant
57,57,55.6361,12.631936363636365,8,7,52b7048c498edd84a6fbf7d1,Thai-Takeaway,55.635369204993175,12.635751204819096,Thai Restaurant
686,686,55.6861,12.57739090909091,43,16,52bf210c498e433f19e512f8,Spaghetteria La Perla,55.68239657909432,12.577088960808728,Italian Restaurant
298,298,55.66609999999999,12.595572727272728,34,25,52c578cb11d2d9a45b705c0e,Dominos Amager,55.664880000000004,12.599730000000001,American Restaurant
1014,1014,55.7261,12.57739090909091,13,11,52cc2eab498e2b51436f5974,Letz Sushi,55.728347,12.575697,Sushi Restaurant
1334,318,55.67836092933239,12.581373698695538,31,28,52cefcd511d22fb239cb02ff,Condesa,55.677735025005504,12.580577593735669,Mexican Restaurant
86,86,55.6561,12.613754545454546,39,0,52d4297d498ef6252888963c,Bone's,55.65729601944663,12.608620371500244,American Restaurant
552,552,55.6861,12.504663636363638,11,6,52dd6fc211d23ce2b0e3e50c,Flintholm Sushi,55.684369999999994,12.503667,Sushi Restaurant
1630,54,55.67836092933239,12.57340811948628,17,15,52de9634498efd9ad31a2675,New Ankara Restaurant,55.678571776538035,12.574436460728572,Turkish Home Cooking Restaurant
702,702,55.6861,12.57739090909091,43,32,52ea95fd498e05d09670a76e,Heart of Fusion,55.682441000000004,12.574131,Japanese Restaurant
726,726,55.6861,12.595572727272728,21,13,52ed3bb211d2b55c3e5c6200,Borgerkroens Køkken,55.68676122518798,12.587891302150492,Scandinavian Restaurant
1521,505,55.6838390706676,12.555225282876556,27,13,5309fb4d498e76c00076f21f,Liban Cuisine,55.68524314361996,12.55300333911784,Middle Eastern Restaurant
789,789,55.6961,12.541027272727273,47,20,53271c60498e3b49447f6661,sushi 107,55.697830205125676,12.54521935148517,Japanese Restaurant
371,371,55.6761,12.541027272727273,26,15,53275245498e04b87f718aa0,Ramberg's,55.675656999999994,12.547410000000001,Italian Restaurant
1549,533,55.68836092933239,12.563192898941624,29,14,532c495c498e62bb67bb9832,vin whisky røg,55.688674580955045,12.561908013911056,Tapas Restaurant
784,784,55.6961,12.541027272727273,47,15,532f0ccd498e3db0d6f2c052,Balkan Börek house,55.695662362887326,12.546817205089186,Hungarian Restaurant
759,759,55.6961,12.504663636363638,9,3,532f0e6d498e1e200b6b74f5,Indian Chili,55.69538387834025,12.499512434005736,Indian Restaurant
774,774,55.6961,12.541027272727273,47,5,532f5f6e498e50ff1209cde1,Köşem,55.69736920625368,12.544402095582369,Turkish Restaurant
1306,290,55.67836092933239,12.581373698695538,31,0,533ac717498ea70a9dd24c9d,Restaurant Llama,55.67957,12.583811,South American Restaurant
54,54,55.6361,12.631936363636365,8,4,534823d6498e314c6e2bc8cf,Thai take away,55.635202,12.636019000000001,Thai Restaurant
832,832,55.6961,12.57739090909091,40,3,534fb5ed11d2de8f94aa1833,Alp's,55.69948388779974,12.578447163105011,Pizza Place
631,631,55.6861,12.559209090909093,50,11,53623f6a498ee3fc72d02d7a,Banh Mi,55.69003299999999,12.559382000000001,Vietnamese Restaurant
709,709,55.6861,12.57739090909091,43,39,5365387f498e983353ab1cf1,Rambla Nørreport,55.683806243357104,12.571305489262025,Tapas Restaurant
49,49,55.6361,12.613754545454546,3,2,536fa3fe498e33148e1c70c2,Yan Yan,55.635608875509966,12.613659708942327,Chinese Restaurant
1146,130,55.67836092933239,12.56319188051372,21,7,5377a81f11d27506c00a0d9d,Cock's & Cows,55.67872058503818,12.5662400504006,American Restaurant
30,30,55.6261,12.650118181818184,16,14,537f4b3d498eb6fba388633a,Balik Sushi,55.628313,12.649106,Sushi Restaurant
104,104,55.6561,12.613754545454546,39,18,53873eca498eb25eccdb3266,MD café & restaurant,55.660022,12.614295,Thai Restaurant
791,791,55.6961,12.541027272727273,47,22,538df72f498ec684c6401e6b,Green Buddha,55.69625799999999,12.543283,Thai Restaurant
1329,313,55.67836092933239,12.581373698695538,31,23,5393541d498e6a4f5889538e,America's,55.67897739825006,12.580652225066542,American Restaurant
1671,95,55.679491393998596,12.575399629390185,28,19,539c835b498e2365d2a6e37b,Dandan restaurant,55.67865616916674,12.575757043463641,Chinese Restaurant
1337,321,55.6738390706676,12.581373698695538,5,0,53a4403b498e6bfe18616bde,no.2,55.67251209932376,12.584334993254002,Scandinavian Restaurant
966,966,55.70609999999999,12.57739090909091,34,33,53b3a663498e4171a9fb5f22,Essen take-away & catering,55.707112,12.582884,German Restaurant
1642,66,55.6772304646662,12.571416609582375,18,8,53be6632498e495052b2744f,Wok & walk,55.6773,12.571114999999999,Thai Restaurant
937,937,55.70609999999999,12.57739090909091,34,4,53ee2d9c498e3866bb2c4c46,Iki Sushi,55.7065449460224,12.583680284437412,Sushi Restaurant
1526,510,55.6838390706676,12.555225282876556,27,18,5415c938498e6b1091fd1536,Casserole,55.68354300000001,12.555992999999999,Scandinavian Restaurant
255,255,55.66609999999999,12.57739090909091,22,4,542ea852498e669166197c47,Pætur's Test Wineshop,55.66623097921372,12.579420804977415,American Restaurant
69,69,55.6461,12.613754545454546,9,5,542fed8e498efd2e4b5512db,Sweetbites,55.648825,12.613257,Filipino Restaurant
99,99,55.6561,12.613754545454546,39,13,543aa756498eaf92fe76a429,Cofoco le Marché,55.65799254748216,12.608196424561275,French Restaurant
674,674,55.6861,12.57739090909091,43,4,543fe307498e8cacb48bb075,Vinværten,55.683426865576045,12.57791346172257,Tapas Restaurant
818,818,55.6961,12.559209090909093,13,2,543fee25498e9082ea5f38ff,Bæst,55.692211,12.55587,Italian Restaurant
675,675,55.6861,12.57739090909091,43,5,5442a663498ec84e42e4bfc4,L'Anfora,55.68365571912467,12.577158681914128,Italian Restaurant
1557,541,55.68836092933239,12.563192898941624,29,22,544690af498e6255f19cef04,Hanzo,55.68792199717682,12.563265412656074,Asian Restaurant
922,922,55.70609999999999,12.541027272727273,8,2,5450c7c6498eb1d31614cfcd,Abu Samra,55.703544692623176,12.546979005268836,Middle Eastern Restaurant
1011,1011,55.7261,12.57739090909091,13,8,54552172498ea04d5b2a0768,Waterfront Bistro,55.725612,12.579316,French Restaurant
602,602,55.6861,12.541027272727273,46,28,547cb681498ed14f0d022fb7,Nordic Noodle,55.686373693324796,12.534295054193395,Noodle House
170,170,55.66609999999999,12.522845454545456,26,22,5489a8a3498e5663447fe7ae,el mes,55.662755000000004,12.518906,Spanish Restaurant
909,909,55.70609999999999,12.522845454545456,11,0,54931454498e89679beec87f,Yilmaz Döner,55.704471,12.526832,Middle Eastern Restaurant
576,576,55.6861,12.541027272727273,46,2,54941a5a498e91fedc2ba37d,The South Indian,55.68585917730217,12.536902427673338,South Indian Restaurant
65,65,55.6461,12.613754545454546,9,1,54a3d1ee498ebb025f5f35b3,Vi Viet,55.64475899999999,12.615159,Vietnamese Restaurant
555,555,55.6861,12.504663636363638,11,9,54bbf764498e98ead01fc285,TV-dinner 🍴,55.683857999999994,12.503864,Modern European Restaurant
124,124,55.6561,12.613754545454546,39,38,54c275ff498edeaa80481961,Bosskok Sushi & Wok,55.658487,12.607369,Sushi Restaurant
162,162,55.66609999999999,12.522845454545456,26,14,54c68436498e342726f936f0,Fasanreden,55.667322999999996,12.517396000000002,French Restaurant
548,548,55.6861,12.504663636363638,11,2,54da454e498e922f8ecfd452,Teppan House,55.68486062694955,12.501133463059725,Asian Restaurant
591,591,55.6861,12.541027272727273,46,17,54ee3b16498e114103e3e9ed,Los Hald Gigante,55.688376,12.546888000000001,Austrian Restaurant
289,289,55.66609999999999,12.595572727272728,34,16,54f0bb11498edbb843af15eb,Maharaja Indian Restaurant,55.666968999999995,12.597513000000001,Indian Restaurant
23,23,55.6261,12.650118181818184,16,7,54f4a3cb498ef304a8cfcd37,Yo! Sushi,55.628295534948606,12.648885620337177,Sushi Restaurant
392,392,55.6761,12.559209090909093,50,10,54f4e5ae498eea14e5896a15,Tapashuset,55.67617671436488,12.566070543837633,Tapas Restaurant
820,820,55.6961,12.559209090909093,13,4,54fb0f30498e227b8ce6eca2,Smeralda Copenhagen,55.696665,12.551337,Italian Restaurant
1193,177,55.6738390706676,12.56319188051372,47,33,5510078c498eb06e66f8ee96,Fru Nimb,55.673661583880175,12.567059465693907,Scandinavian Restaurant
785,785,55.6961,12.541027272727273,47,16,552265c2498eb9c15de737f1,Limar Chicken,55.69698436601328,12.536443308159466,Doner Restaurant
135,135,55.66609999999999,12.504663636363638,16,3,55264e2d498eede4fe1340c2,"Sebahat. Katmer, Yufka & Mantı Salonu",55.666639,12.505586,Turkish Restaurant
1107,91,55.6738390706676,12.555226301304462,50,18,552813f1498e45d29645ea18,Trattoria da Salvo,55.674137,12.551905999999999,Italian Restaurant
1156,140,55.67836092933239,12.56319188051372,21,17,552d8691498e60291529aacf,WIP,55.67872619628906,12.567045211791992,Spanish Restaurant
944,944,55.70609999999999,12.57739090909091,34,11,5536816c498ec565c7b70fde,Lins Sushi,55.70551077651071,12.576674222946167,Sushi Restaurant
908,908,55.70609999999999,12.504663636363638,11,10,553e9265498e7b3e4c3160a7,Vores Sushi,55.70477326416617,12.501127123832704,Sushi Restaurant
1010,1010,55.7261,12.57739090909091,13,7,5540db6c498eb079a1d8253a,Zen O Sushi,55.725935736707356,12.578087514830857,Sushi Restaurant
1377,361,55.67836092933239,12.591589937668099,44,23,55410850498e069aa8d497d1,wanissa thai,55.680117,12.591677,Thai Restaurant
1001,1001,55.7261,12.522845454545456,6,4,5544ec59498eac4e213e0df0,Trattoria Campo De Fiori,55.728958,12.523732,Italian Restaurant
1130,114,55.6738390706676,12.555226301304462,50,41,55453bb2498eac1182f2966e,Plectrum,55.672919048930616,12.55883066999958,Modern European Restaurant
18,18,55.6261,12.650118181818184,16,2,554b3488498e23b054ceea83,Aamans,55.628432063912534,12.647377252578735,Scandinavian Restaurant
1073,57,55.6638390706676,12.563190862727652,8,6,554cc781498e035b859b3014,LêLê Street Kitchen // Fisketorvet,55.66269905683353,12.56207522832202,Vietnamese Restaurant
64,64,55.6461,12.613754545454546,9,0,55578fe4498e636be9127e66,Jasmin Rice,55.64990681337864,12.612510562417555,Thai Restaurant
904,904,55.70609999999999,12.504663636363638,11,6,555b58be498e63ff9338eb80,Royal Agra Palace,55.70471307750068,12.501559394969233,Indian Restaurant
932,932,55.70609999999999,12.559209090909093,5,4,55634b24498e4cb51a7dce0c,Royal Cusine,55.70856611181293,12.55777924806203,Chinese Restaurant
558,558,55.6861,12.522845454545456,17,1,556f3257498ec7498b84c164,Sushi Factory,55.688627235423425,12.524449368732588,Sushi Restaurant
288,288,55.66609999999999,12.595572727272728,34,15,55758415498ec58f856e7232,Deep Indian Restaurant,55.666923835625354,12.597949504852293,Indian Restaurant
1545,529,55.68836092933239,12.563192898941624,29,10,55898a5d498ed813e371bec2,Strö,55.689038000000004,12.56074,Modern European Restaurant
285,285,55.66609999999999,12.595572727272728,34,12,55904a8c498e84b2d9e92fcc,giin khao,55.666553,12.598842999999999,Thai Restaurant
349,349,55.6761,12.522845454545456,13,6,559178f8498ebc1f4ae1e5d5,frederiks have,55.678945512667674,12.524961233139038,Scandinavian Restaurant
94,94,55.6561,12.613754545454546,39,8,55982209498ed3fb9c5b1399,Indian Taste,55.65558242797852,12.61700439453125,Indian Restaurant
896,896,55.70609999999999,12.48648181818182,6,4,559ff59b498e94f0003c1bf0,Thai Chili,55.707716000000005,12.485547,Thai Restaurant
835,835,55.6961,12.57739090909091,40,6,55ae727d498e6282bc62b316,Hachi Sushi,55.698793,12.579139999999999,Sushi Restaurant
293,293,55.66609999999999,12.595572727272728,34,20,55b25d86498e43abf0821dc9,Oishi Sushi,55.665254000000004,12.599755,Sushi Restaurant
583,583,55.6861,12.541027272727273,46,9,55bb860a498e11c6acf84dee,Petit Paté,55.685791312289076,12.5370272307851,French Restaurant
32,32,55.6361,12.48648181818182,7,0,55d8a1cd498ecc02598368b6,Absolut Sushi,55.631887,12.489195,Sushi Restaurant
594,594,55.6861,12.541027272727273,46,20,55de03ef498eb49c6a8a5e40,Alimentum,55.68735885620117,12.541176795959473,Indian Restaurant
1572,556,55.6838390706676,12.563192898941624,12,8,55df391e498e4df3541bf2a1,Il Tagliere,55.68445205688477,12.563922882080078,Italian Restaurant
1439,423,55.67836092933239,12.599555516877356,19,16,55e1f4ac498e8cb6d39d6082,La Fattoria,55.6794864925303,12.598247694636214,Italian Restaurant
961,961,55.70609999999999,12.57739090909091,34,28,55e47867498e39f0c18c6060,punjabi,55.709311704368226,12.578526503856098,North Indian Restaurant
872,872,55.6961,12.595572727272728,9,3,55e72fb1498eaee293b3f100,DalVicino,55.69612121582031,12.591019630432127,Italian Restaurant
842,842,55.6961,12.57739090909091,40,13,55ec7223498e3ae48f3460fc,Aftensmad Fra Meyers,55.696653454552234,12.581268221785571,Scandinavian Restaurant
1004,1004,55.7261,12.57739090909091,13,1,55ec7a14498e81ccd3fa5232,Wokshop,55.73023190802374,12.574889011959245,Thai Restaurant
270,270,55.66609999999999,12.57739090909091,22,19,55edd5cb498e79407368e3f9,IslandsBrygge Wok,55.664209481655035,12.580131694480809,Thai Restaurant
712,712,55.6861,12.57739090909091,43,42,55f3d606498e2feb2b02a41b,Karamba,55.689831523247975,12.57344812926906,Mexican Restaurant
97,97,55.6561,12.613754545454546,39,11,5602eacb498ebaaa7d178f64,Wanda,55.65280703446553,12.611718994875936,Asian Restaurant
823,823,55.6961,12.559209090909093,13,7,5616adc9498ee25244d87473,Jiro Sushi,55.6930403734024,12.56484418748918,Sushi Restaurant
117,117,55.6561,12.613754545454546,39,31,561a522d498ee62a492d0469,Da Danny,55.65542062546954,12.609230191766825,Italian Restaurant
157,157,55.66609999999999,12.522845454545456,26,9,561a81c4498e5335926cf3ea,The Taco Shop 4,55.66651153564453,12.516145706176758,Mexican Restaurant
108,108,55.6561,12.613754545454546,39,22,56290947498ef0022169c57b,Z-sushi,55.6567081359514,12.609073954095626,Sushi Restaurant
158,158,55.66609999999999,12.522845454545456,26,10,564607a8498ebb7b5120dd09,Khayam,55.666539,12.521548,Persian Restaurant
796,796,55.6961,12.541027272727273,47,27,56573bea498e3e9485db4d50,Paolo's,55.695593,12.534809,Italian Restaurant
593,593,55.6861,12.541027272727273,46,19,56574bd2498ed1bb97b3f7f9,Eldorado,55.69036056430645,12.542294805352721,Scandinavian Restaurant
1463,447,55.6861,12.559209090909093,31,18,5665ccc3498ee423ee4b0142,Ramen & Beer,55.68521861554592,12.558619028931904,Ramen Restaurant
867,867,55.6961,12.57739090909091,40,38,5665ccfd498e4dd416efd947,EATTODAY,55.698787308772744,12.578802858240357,Tapas Restaurant
556,556,55.6861,12.504663636363638,11,10,566dab81498eb7235d114cb4,Mae Pen,55.68459300000001,12.500759,Thai Restaurant
47,47,55.6361,12.613754545454546,3,0,566db462498e14f3577123a7,WildNWok,55.636462,12.618953999999999,Thai Restaurant
1227,211,55.6761,12.57739090909091,31,20,566f2b99498eedfa845f522e,Wok'n'Roll,55.676161,12.574452,Asian Restaurant
1388,372,55.67836092933239,12.591589937668099,44,34,5675b06d498e82a73188e49e,Møller Snaps og Smørrebrød,55.679984757914546,12.591409278710856,Scandinavian Restaurant
1335,319,55.67836092933239,12.581373698695538,31,29,5681628a498ea7d855803770,Maio,55.679470357134065,12.579747794198887,Italian Restaurant
554,554,55.6861,12.504663636363638,11,8,56855bbb498e00c01229fa7f,polakkens hybel,55.68299424027544,12.504970302202306,Polish Restaurant
316,316,55.66609999999999,12.613754545454546,15,9,568c0746498ef85aa299cce8,wanthana's,55.664376000000004,12.614236,Thai Restaurant
332,332,55.6761,12.48648181818182,5,3,569922b1498e532270b9a041,Mucoo,55.67256289001503,12.489146735149465,Souvlaki Shop
983,983,55.7161,12.57739090909091,11,1,569a7a00498e051e2113d97c,IZUMI,55.71682917051487,12.576926760363481,Sushi Restaurant
192,192,55.66609999999999,12.541027272727273,27,18,569a913438fafc490e29bb2d,Bodil - Et spisested,55.66423684822732,12.545592478767741,Scandinavian Restaurant
856,856,55.6961,12.57739090909091,40,27,569fd416498e3ed89c77f2f4,Eat Today,55.6988196265496,12.578810125628145,Tapas Restaurant
11,11,55.6261,12.57739090909091,13,9,56b628f1498ecb17d343f043,Mediterranean Kitchen,55.629571,12.578478,Mediterranean Restaurant
292,292,55.66609999999999,12.595572727272728,34,19,56c09165498ea94e3d6f0a0e,Giin Khao Thai Køkken,55.66644,12.598296000000001,Thai Restaurant
1499,483,55.68836092933239,12.555225282876556,32,23,56c0996dcd10f62cdff05f90,zeit & zataar,55.688728000000005,12.554902,Afghan Restaurant
272,272,55.66609999999999,12.57739090909091,22,21,56d54384498e3b3c9fed431e,Antons Koekken,55.66581,12.578675,Scandinavian Restaurant
1371,355,55.67836092933239,12.591589937668099,44,17,56d72f6c498e59fbb3d73493,Wannisa,55.680066000000004,12.591643,Asian Restaurant
810,810,55.6961,12.541027272727273,47,41,56d97c03498efc5343f4f1a5,Shawarma No. 1 Grill House,55.698896,12.541472,Turkish Restaurant
589,589,55.6861,12.541027272727273,46,15,56d9b615498eb40cebfaacd8,Zi Sushi,55.684686,12.541076,Sushi Restaurant
299,299,55.66609999999999,12.595572727272728,34,26,56e5a765498ec9e0d5c0b2c5,Nawaab,55.66404211032706,12.600820802824307,Indian Restaurant
141,141,55.66609999999999,12.504663636363638,16,9,56eadab2498ebf492ff87c59,Wokbaren,55.665941000000004,12.512088,Thai Restaurant
39,39,55.6361,12.541027272727273,3,0,570673c4498e043316f28f97,Tutten på Mellemfortet,55.63776800000001,12.542639,Scandinavian Restaurant
837,837,55.6961,12.57739090909091,40,8,5708f44a498e04ec2b7adce0,Enigma,55.699562,12.57507,History Museum
875,875,55.6961,12.595572727272728,9,6,57093bdb498ee4f32ebf04d1,Papadum,55.698914,12.590152,North Indian Restaurant
1676,100,55.679491393998596,12.575399629390185,28,24,57111d10498e183b9fcde5d9,Constellation burger,55.678667000000004,12.575856,Asian Restaurant
1403,387,55.6738390706676,12.591589937668099,25,5,5712af7ecd10230b69e8c5bb,Rufino Osteria,55.67338587054815,12.588894367218018,Italian Restaurant
876,876,55.6961,12.595572727272728,9,7,571759c1498ed05e34e4713f,Il Gabbiano,55.695538,12.599991000000001,Italian Restaurant
962,962,55.70609999999999,12.57739090909091,34,29,571a580d498e7769619729e4,American Hereford,55.706157,12.577703,American Restaurant
273,273,55.66609999999999,12.595572727272728,34,0,571b9fd4498e85edf2ecfdd7,Barshu,55.668130000000005,12.596599000000001,Chinese Restaurant
572,572,55.6861,12.522845454545456,17,15,5723ae7ccd1010835e1eef55,Spicylicious,55.684265,12.524745,Asian Restaurant
1204,188,55.6738390706676,12.56319188051372,47,44,57251d46498e0709d6823b0e,Boston Grill,55.672637,12.561606,New American Restaurant
1144,128,55.67836092933239,12.56319188051372,21,5,5729b056498ea6855432b40e,Väkst,55.67876969973185,12.566885678251527,Scandinavian Restaurant
174,174,55.66609999999999,12.541027272727273,27,0,572c8011498e7e8067b5ebf8,Ramen to Bíiru Vesterbro,55.665670718797166,12.54324065585833,Ramen Restaurant
1265,249,55.67836092933239,12.57340811948628,50,27,572cd64f498e0122cf9ee2bc,Co-Ma Madsalen,55.676214,12.573312,Modern European Restaurant
166,166,55.66609999999999,12.522845454545456,26,18,57335a8f498e30b95690148c,arya,55.666185,12.517466,Afghan Restaurant
1336,320,55.67836092933239,12.581373698695538,31,30,573772be498ede53d251fc81,The Market,55.680300063940926,12.581290095178838,Asian Restaurant
851,851,55.6961,12.57739090909091,40,22,5739594f498e5700c1d538fb,Grød,55.700289,12.578992,Scandinavian Restaurant
63,63,55.6461,12.559209090909093,2,1,57403a28498e139048fa247f,Sjøbeck øl & vand,55.644431000000004,12.553064,Scandinavian Restaurant
309,309,55.66609999999999,12.613754545454546,15,2,5740aaedcd1039538a6d72d1,Kiin Kiin To Go,55.664955000000006,12.614807,Thai Restaurant
680,680,55.6861,12.57739090909091,43,10,574185d4498eb87fd4a2e165,Hønen og Ægget,55.6904149,12.5754854,Scandinavian Restaurant
708,708,55.6861,12.57739090909091,43,38,575c4ebc498e3c8b2f18616c,Det Franske Spisehus,55.689747,12.574398,French Restaurant
1295,279,55.6738390706676,12.57340811948628,18,7,5763d969498e551aa7787d25,great china wok,55.67370699999999,12.572524000000001,Chinese Restaurant
857,857,55.6961,12.57739090909091,40,28,57795d19498ed6f103c1f516,Nori Sushi,55.6957,12.572223,Asian Restaurant
994,994,55.7161,12.613754545454546,1,0,578935af498e2cf4be95d3ba,Pinnacle Grill,55.713161,12.619795,American Restaurant
1561,545,55.68836092933239,12.563192898941624,29,26,57927884498e5f2812f29cc8,Cock's and Cows,55.68879362036677,12.562445443909454,Burger Joint
1332,316,55.67836092933239,12.581373698695538,31,26,579bebd6498e132675bdbecd,Admiralgade 26,55.67753409188625,12.58217535439541,Scandinavian Restaurant
986,986,55.7161,12.57739090909091,11,4,579f2f41498e8263bd4d5551,svanenskebab,55.71508000000001,12.577461999999999,Doner Restaurant
110,110,55.6561,12.613754545454546,39,24,57a4c8f7498e81317128d1d9,Gnam Gnam,55.65643299999999,12.609346,Italian Restaurant
1551,535,55.68836092933239,12.563192898941624,29,16,57b6faff498e379b1ed7d153,Konyalı,55.688269999999996,12.560265,Turkish Restaurant
1645,69,55.6772304646662,12.571416609582375,18,11,57bc74f1498eab57ae3da69b,District Tonkin,55.67672415514492,12.570798384576626,Vietnamese Restaurant
342,342,55.6761,12.504663636363638,9,8,57bc8604498e2db463dd0260,hingsushi.dk,55.672,12.5070715,Sushi Restaurant
1,1,55.6261,12.504663636363638,1,0,57bdd8b7498e301946e513eb,Susets Køkken,55.625243999999995,12.497041000000001,Scandinavian Restaurant
180,180,55.66609999999999,12.541027272727273,27,6,57c0709b498eb6f443ce3a6f,Boulebar Carlsberg Byen,55.66562,12.535682000000001,Athletics & Sports
950,950,55.70609999999999,12.57739090909091,34,17,57c1802b498e8347ca0dc33f,Hos Ångeren & Prinsesse Navita,55.704597,12.578497,Indian Restaurant
682,682,55.6861,12.57739090909091,43,12,57c9a590cd1043c5b1f8a180,Shawarma Factory,55.683184,12.573017,Middle Eastern Restaurant
551,551,55.6861,12.504663636363638,11,5,57ca9e9b498e532c63449ead,La Liberta,55.683675,12.504669999999999,Italian Restaurant
353,353,55.6761,12.522845454545456,13,10,57d2b3f2498e8c8850392635,La Bonne,55.679196,12.526646000000001,French Restaurant
263,263,55.66609999999999,12.57739090909091,22,12,57d2d536498eddf038024f3e,basal,55.66765899999999,12.579112,Scandinavian Restaurant
106,106,55.6561,12.613754545454546,39,20,57d2f2f0498e0a640ba261bc,Letz sushi,55.656712,12.609245,Sushi Restaurant
1434,418,55.67836092933239,12.599555516877356,19,11,57dace21498e66debb7545c7,Marrakech,55.679720999999994,12.597836000000001,African Restaurant
734,734,55.6861,12.613754545454546,3,0,57db9591498e42f03c7f0aec,Noma,55.682467,12.610394,Scandinavian Restaurant
294,294,55.66609999999999,12.595572727272728,34,21,57e1736a498ed4a99f66d56f,Poonchai 2,55.665634,12.598019,Thai Restaurant
103,103,55.6561,12.613754545454546,39,17,57e411b7498effe809630cf6,King of India,55.654577,12.618087,Indian Restaurant
581,581,55.6861,12.541027272727273,46,7,57f15735cd10bfc2c1e00e25,Nihao Yao,55.687391000000005,12.547198,Asian Restaurant
1436,420,55.67836092933239,12.599555516877356,19,13,57f67dcb498e65739fb0f07f,Chick Ko,55.679322,12.598389,Fried Chicken Joint
271,271,55.66609999999999,12.57739090909091,22,20,57f7b5ec498eedc69225aabd,MyThai Kitchen,55.667995,12.579472,Thai Restaurant
126,126,55.6561,12.631936363636365,3,1,57f8102d498e161df9ecc7a3,Restaurant Allie,55.658046999999996,12.632949,Modern European Restaurant
127,127,55.6561,12.631936363636365,3,2,57f81079498e1558f2ffa480,Restaurant Allie,55.658028,12.632104,Modern European Restaurant
1435,419,55.67836092933239,12.599555516877356,19,12,58012259d67cdb43b82683db,Anatolia,55.679478,12.598289,Turkish Restaurant
757,757,55.6961,12.504663636363638,9,1,5802644638facac4bc9ef403,Asia House,55.6947,12.509742,Chinese Restaurant
115,115,55.6561,12.613754545454546,39,29,580621ff38fafc42fd436ab0,Café Bougatsa Saloniki,55.65665,12.608931,Greek Restaurant
1574,558,55.6838390706676,12.563192898941624,12,10,5807aaddd67c88709a852acb,madøre,55.6825175,12.564218499999999,Comfort Food Restaurant
26,26,55.6261,12.650118181818184,16,10,580b9ad638fa2adcc2a22550,Paté Paté,55.62853469929503,12.649223925202847,Tapas Restaurant
913,913,55.70609999999999,12.522845454545456,11,4,58143a1d38fa893779186fb3,danmark,55.705377,12.527077,African Restaurant
16,16,55.6261,12.650118181818184,16,0,58170aaf38facd634cab1c2a,O'Learys,55.629178746684005,12.644899632029695,American Restaurant
848,848,55.6961,12.57739090909091,40,19,581a3d67ded8f8626ea78932,lki Sushi,55.69914,12.582239999999999,Sushi Restaurant
1396,380,55.67836092933239,12.591589937668099,44,42,581dd8fa0bf6c6651310f649,Sea by Kiin Kiin,55.67922932327034,12.593392786033235,Asian Restaurant
338,338,55.6761,12.504663636363638,9,4,582775b5abffa17aeb0101b6,thai wok,55.67884,12.5,Thai Restaurant
78,78,55.6561,12.522845454545456,2,1,583092ae03cf2531661c9eef,Asian Palace,55.652682999999996,12.52057,Asian Restaurant
334,334,55.6761,12.504663636363638,9,0,5830a5029f25833ffddc47f3,Zap Mak Mak,55.678684999999994,12.501911,Thai Restaurant
599,599,55.6861,12.541027272727273,46,25,5841aff29465dd42627f75bb,Akiba Shushi & Wok,55.68518,12.540422999999999,Sushi Restaurant
1320,304,55.67836092933239,12.581373698695538,31,14,5844388f8d8e996767dc4dc2,Rio Temakeria,55.67926800000001,12.580292,Asian Restaurant
871,871,55.6961,12.595572727272728,9,2,5853cd1ecc5b6a3de509f99e,Kiin Kiin To Go,55.696749,12.594233000000001,Thai Restaurant
699,699,55.6861,12.57739090909091,43,29,585c227edc332905559aa73a,Bistro les Halles,55.684716,12.569816000000001,French Restaurant
729,729,55.6861,12.595572727272728,21,16,586502f83e883556798b3167,Esplanaden 48,55.687977000000004,12.596486,Scandinavian Restaurant
705,705,55.6861,12.57739090909091,43,35,58654907ea1c0d03327bb9db,Thai Pathong,55.689519,12.57399,Thai Restaurant
129,129,55.66609999999999,12.4683,2,1,58752edec5f8a73829ebd92b,Curry2Night,55.6683,12.474811,Indian Restaurant
805,805,55.6961,12.541027272727273,47,36,587fbe97735a4d582188f30c,Sushi mania,55.695083999999994,12.547933,Sushi Restaurant
89,89,55.6561,12.613754545454546,39,3,588a506765be58175b724edd,Kasai Sushi,55.652874,12.61178,Sushi Restaurant
2,2,55.6261,12.57739090909091,13,0,58989dd48ae3633850c09651,South Indian,55.630035,12.577970500000001,Indian Restaurant
87,87,55.6561,12.613754545454546,39,1,589b430211742023ebf616e5,Toto Vin & Spisebar,55.65580479929568,12.609657322579661,Wine Bar
717,717,55.6861,12.595572727272728,21,4,58a06c57e6160c5d3b9a1c65,Nyboders Køkken,55.686748377921155,12.587825920848555,Scandinavian Restaurant
13,13,55.6261,12.57739090909091,13,11,58a08e8434935555b0ba78f7,Sushibar,55.629938,12.577985,Sushi Restaurant
570,570,55.6861,12.522845454545456,17,13,58b5bb7bfad9dc2a8cb78f37,Tapas Vin,55.68433,12.525052,Spanish Restaurant
152,152,55.66609999999999,12.522845454545456,26,4,58bc2fd40b5656702e3c5114,Danny's American Diner,55.666121999999994,12.520541999999999,American Restaurant
803,803,55.6961,12.541027272727273,47,34,58c02f469ab6631a412ac592,Limar Shawarma,55.696934,12.545034,Middle Eastern Restaurant
72,72,55.6461,12.613754545454546,9,8,58cd4a0bef46946d744f366e,restaurant filini,55.643628,12.610499,Italian Restaurant
160,160,55.66609999999999,12.522845454545456,26,12,58cd74f69398ab6675435ce9,Damsmad,55.661995999999995,12.519756,Thai Restaurant
1305,289,55.6738390706676,12.57340811948628,18,17,58d8e2d6a149266752994f7d,Little Italy,55.67487,12.572341999999999,Italian Restaurant
1302,286,55.6738390706676,12.57340811948628,18,14,58eb5a97409f56690ab467ef,Kaktus,55.673347,12.570484,Taco Place
782,782,55.6961,12.541027272727273,47,13,58f0ef4d588e360d80d41615,Zapata Mexican Grill,55.69504499999999,12.543219,Mexican Restaurant
151,151,55.66609999999999,12.522845454545456,26,3,58f24a8935f983278e51e695,Wokshop Cantina,55.666318000000004,12.514932,Thai Restaurant
198,198,55.66609999999999,12.541027272727273,27,24,58fcdfe01f74401efb13e547,Nordic Noodle,55.66399499999999,12.536303,Noodle House
1438,422,55.67836092933239,12.599555516877356,19,15,5900b9e1f870fd50c1d94078,Latienda,55.679605,12.598008,Vegetarian / Vegan Restaurant
889,889,55.70609999999999,12.4683,3,0,590887d12496232e04249c48,Pizzeria Da Gallo,55.707342000000004,12.471894,Pizza Place
330,330,55.6761,12.48648181818182,5,1,590cd544fdb9a71862f40c0f,DanAsia,55.6726,12.489375,Thai Restaurant
741,741,55.6961,12.4683,6,4,59172d445315935b27d95610,Ann's Corner,55.70036999999999,12.466739,Thai Restaurant
1437,421,55.67836092933239,12.599555516877356,19,14,591b453ffe374054a69a4cfd,Brass,55.679424,12.598105,Modern European Restaurant
325,325,55.66609999999999,12.631936363636365,5,3,591f365f62420b2d9a99a54d,Indian Ocean,55.662211,12.632478,Indian Restaurant
265,265,55.66609999999999,12.57739090909091,22,14,59207202c62b4920e221f298,Rasoi To Go,55.66464200000001,12.580548,Indian Restaurant
1431,415,55.67836092933239,12.599555516877356,19,8,59345b08e185f327ff378b57,Ok Thai,55.679379000000004,12.598198,Thai Restaurant
1325,309,55.67836092933239,12.581373698695538,31,19,593d2d1d8134885e463500a1,Pane & Vino,55.67939200000001,12.581011,Italian Restaurant
165,165,55.66609999999999,12.522845454545456,26,17,5941522bda5ede43c82b5489,Pastahuset,55.66633,12.514916,Italian Restaurant
1433,417,55.67836092933239,12.599555516877356,19,10,594577b23b83074ee0585e24,Street Sushi,55.679759999999995,12.598031,Sushi Restaurant
1012,1012,55.7261,12.57739090909091,13,9,594cdf01b9ac38236d152466,Eattoday,55.725614,12.579989999999999,Tapas Restaurant
1297,281,55.6738390706676,12.57340811948628,18,9,59512854db1d81557eced9cb,Kiin Kiin Piin To,55.673076,12.569819,Asian Restaurant
262,262,55.66609999999999,12.57739090909091,22,11,595523c33b8307576882e130,Au bistrot,55.666238,12.576436,French Restaurant
1444,428,55.6738390706676,12.599555516877356,3,2,595a133d65211f66de71585f,Mr. Shawarma,55.672923,12.599981,Middle Eastern Restaurant
230,230,55.66609999999999,12.559209090909093,50,29,595a60982be425119fe6530d,Ristorante Cucinetta,55.670552,12.560363,Italian Restaurant
773,773,55.6961,12.541027272727273,47,4,595f93829ec3991d3c52633e,Bar Pasta,55.69621,12.543258,Italian Restaurant
1625,49,55.67836092933239,12.57340811948628,17,10,596371e05c683843699960a2,Doner Kebab,55.678254,12.57236,Doner Restaurant
329,329,55.6761,12.48648181818182,5,0,596ba00193bd637ca7896432,Chai Shai,55.672081000000006,12.488299000000001,Indian Restaurant
341,341,55.6761,12.504663636363638,9,7,596f893806fb60632f0709bb,Xing Sushi,55.678743999999995,12.505613,Sushi Restaurant
140,140,55.66609999999999,12.504663636363638,16,8,597662ba82a750601f16e072,Lindim Thai Street Gourmet,55.666622,12.503674,Thai Restaurant
996,996,55.7261,12.504663636363638,1,0,597f8a571de765049ac7373a,Resturant Op La,55.730249,12.506347,Vietnamese Restaurant
163,163,55.66609999999999,12.522845454545456,26,15,59972be4018cbb23726912ec,shandiz persisk restuarant,55.666070999999995,12.517382000000001,Persian Restaurant
685,685,55.6861,12.57739090909091,43,15,59aae72c7dc9e105c8ea6aa8,Kopan,55.684429,12.571276,Korean Restaurant
646,646,55.6861,12.559209090909093,50,26,59b3e8a873fe25689be18344,Gaza Grill,55.690289,12.560921,Middle Eastern Restaurant
118,118,55.6561,12.613754545454546,39,32,59b5331f31fd145ab6050853,Molana,55.658387,12.607686,Persian Restaurant
732,732,55.6861,12.595572727272728,21,19,59b8dcdb805e3f17ecb613b5,The Vietnamese,55.686438,12.5894,Vietnamese Restaurant
81,81,55.6561,12.541027272727273,3,2,59c8bff9ee628b11a11eb5cc,Frøken Basses Smørrebrød,55.65663000000001,12.537854,Scandinavian Restaurant
707,707,55.6861,12.57739090909091,43,37,59cf88bd0336930aa8c9b35b,Clou,55.689842000000006,12.574791000000001,Scandinavian Restaurant
1298,282,55.6738390706676,12.57340811948628,18,10,59d261eb4c954c6df0ddaa95,Restaurant Niels,55.67243599412178,12.57335364818573,Scandinavian Restaurant
853,853,55.6961,12.57739090909091,40,24,59d90beea6fe4d20a21c66d8,Terra,55.69475,12.570803,Italian Restaurant
533,533,55.6861,12.48648181818182,13,0,59de3276f79faa6027e9eea6,shawarma house,55.682802,12.491842,Middle Eastern Restaurant
1331,315,55.67836092933239,12.581373698695538,31,25,59e08e89cf72a06225fc81a0,Mosto,55.679570999999996,12.581021,Italian Restaurant
968,968,55.70609999999999,12.595572727272728,10,1,59e0e16491eaca1e443aaee4,LETZ SUSHI,55.706571999999994,12.595694,Sushi Restaurant
134,134,55.66609999999999,12.504663636363638,16,2,59e2347edff815657bae579c,Limdim Thai Street Gourmet,55.666626,12.503764,Thai Restaurant
1430,414,55.67836092933239,12.599555516877356,19,7,59e75cab3ba767222d5d14bf,Made In Italy In Copenhagen Street Food,55.679443000000006,12.598704,Italian Restaurant
364,364,55.6761,12.541027272727273,26,8,59f07c12772fbc137e4325e6,Olioli,55.677853000000006,12.534835000000001,Sushi Restaurant
828,828,55.6961,12.559209090909093,13,12,5a05ab59805e3f5ff091ed39,Heaps Good Cafe,55.69635699999999,12.557083,Australian Restaurant
1432,416,55.67836092933239,12.599555516877356,19,9,5a1029c3491be7312029c9b1,INDIA,55.67963,12.598186,Indian Restaurant
723,723,55.6861,12.595572727272728,21,10,5a103a833149b9796e296911,Fabro,55.686536,12.587761,Italian Restaurant
105,105,55.6561,12.613754545454546,39,19,5a1067358173cb239084b04a,Pastor Mexican Tacos,55.657182999999996,12.608814,Taco Place
967,967,55.70609999999999,12.595572727272728,10,0,5a107689a22db756da4a920d,Restaurant Silo,55.708180247923906,12.597916217251587,Scandinavian Restaurant
1187,171,55.6738390706676,12.56319188051372,47,27,5a218645dee7701b1d8b33f8,Vapiano,55.67436559769369,12.565380677788198,Italian Restaurant
900,900,55.70609999999999,12.504663636363638,11,2,5a218abc1ffe972a82d2d49d,Mama India,55.7049,12.50338,Indian Restaurant
607,607,55.6861,12.541027272727273,46,33,5a291991bd897e495c183405,Pasta du Nord,55.684931999999996,12.538317999999999,Italian Restaurant
43,43,55.6361,12.57739090909091,4,1,5a2ae05e86bc490bd23f93b1,El Mirador,55.635290000000005,12.582255,Argentinian Restaurant
91,91,55.6561,12.613754545454546,39,5,5a317cfd005ac129b777517b,Amager Gyouza,55.65817,12.608386999999999,Japanese Restaurant
1195,179,55.6738390706676,12.56319188051372,47,35,5a33b87f3abcaf1afc8f22c5,Letz Sushi,55.67402,12.565463000000001,Sushi Restaurant
107,107,55.6561,12.613754545454546,39,21,5a47a48b03132048f1fbb2ed,Coconut,55.6518,12.61165,Thai Restaurant
1194,178,55.6738390706676,12.56319188051372,47,34,5a4900ca8fb09e126f39a022,Tapa del Toro,55.674125,12.565832,Tapas Restaurant
155,155,55.66609999999999,12.522845454545456,26,7,5a60c3912b98442fabf23322,Vaca,55.666557,12.517428,Taco Place
935,935,55.70609999999999,12.57739090909091,34,2,5a60e3200c9f317921bd8e73,Wok Our Way,55.706588,12.585276,Thai Restaurant
10,10,55.6261,12.57739090909091,13,8,5a6389113fcee8601a23d676,Mosaik,55.63008000000001,12.577062,Mediterranean Restaurant
588,588,55.6861,12.541027272727273,46,14,5a7f204b5d891b6e3fc3f13e,mondän,55.68631800000001,12.53455,Scandinavian Restaurant
799,799,55.6961,12.541027272727273,47,30,5a856b8ddff815381e59d3f9,Qandil,55.699681999999996,12.54427,Kurdish Restaurant
1311,295,55.67836092933239,12.581373698695538,31,5,5a8599a80881586c69e119bf,The Market Italian,55.680263000000004,12.581621,Italian Restaurant
615,615,55.6861,12.541027272727273,46,41,5a89c3f31953f33b9a2d33a6,Trattoria 54,55.683611,12.536808,Italian Restaurant
179,179,55.66609999999999,12.541027272727273,27,5,5a8c4c67fdb9a751979b948f,Sampi,55.667688,12.547964,Turkish Restaurant
1065,49,55.66836092933239,12.563190862727652,4,2,5a96c52b29551359c09d1dab,Kewei’s Kitchen,55.669081999999996,12.560792,Chinese Restaurant
36,36,55.6361,12.48648181818182,7,4,5aad4b8b0868a22591ffbd2a,yoki sushi,55.637223,12.479904,Sushi Restaurant
321,321,55.66609999999999,12.613754545454546,15,14,5ab65e5f947c05192a9a3243,Øens Spisested,55.66635,12.611063,Scandinavian Restaurant
164,164,55.66609999999999,12.522845454545456,26,16,5ab7e86748b04e52c5648280,Kiin Kiin To Go,55.666415,12.517066,Asian Restaurant
600,600,55.6861,12.541027272727273,46,26,5ac1043e89e49056c2e695f0,Tapas 2 Go,55.68419,12.543046,Tapas Restaurant
542,542,55.6861,12.48648181818182,13,9,5ace31ae79f6c72add3222d9,Milano Caffé & Trattoria,55.687424,12.491133,Italian Restaurant
233,233,55.66609999999999,12.559209090909093,50,32,5ad8b69525ecca22412ea223,pizzaria 54,55.666413,12.551739999999999,Italian Restaurant
213,213,55.66609999999999,12.559209090909093,50,12,5ad8b6fe9d6a197db437f37d,Pizzeria 54,55.666647999999995,12.551722,Italian Restaurant
772,772,55.6961,12.541027272727273,47,3,5adca2c23ba7676855ba2fa1,Restaurant Rumænsk Dracula,55.698085999999996,12.535377,Romanian Restaurant
720,720,55.6861,12.595572727272728,21,7,5adce902e65d0c034ce262e5,Khmer Cuisine,55.685852000000004,12.589353,Cambodian Restaurant
168,168,55.66609999999999,12.522845454545456,26,20,5ae490c73e6741002cae1ff7,letz sushi,55.666373,12.515205,Sushi Restaurant
561,561,55.6861,12.522845454545456,17,4,5ae9d71932b61d002ca7d000,Curry Nation,55.68962,12.519977,Indian Restaurant
778,778,55.6961,12.541027272727273,47,9,5af2c2a167e5f2002c2a86c1,Ali’s Bageri,55.698981,12.541519000000001,Bakery
1464,448,55.6861,12.559209090909093,31,19,5af48d2f0868a200398d0385,Ahaaa - authentic Arabic cuisine,55.686623,12.558425999999999,Middle Eastern Restaurant
550,550,55.6861,12.504663636363638,11,4,5afac4649fca56002c48a073,Min Thai Takeaway,55.68532693508523,12.50043511390686,Thai Restaurant
869,869,55.6961,12.595572727272728,9,0,5aff0334396de0002c748736,Lima by Mercedes,55.69424694520282,12.589289295041391,Food Truck
1116,100,55.6738390706676,12.555226301304462,50,27,5aff15efbf7dde002c707891,Moi,55.672514,12.555538,Korean Restaurant
879,879,55.6961,12.613754545454546,11,1,5b06da8a6e4650002cd2817e,Dhaba Tandori,55.693541,12.608872,Indian Restaurant
1677,101,55.679491393998596,12.575399629390185,28,25,5b0839626bdee6002c299b17,Dorfs,55.679334999999995,12.576406,Tapas Restaurant
878,878,55.6961,12.613754545454546,11,0,5b0ab584d1a402002ce65455,Thai Reffen,55.693613,12.608464,Thai Restaurant
1185,169,55.6738390706676,12.56319188051372,47,25,5b11344ebf7dde002c0ab1cc,Letz Sushi,55.672363,12.564316,Sushi Restaurant
886,886,55.6961,12.613754545454546,11,8,5b130b6a25ecca002c94010b,Nomames,55.693529000000005,12.608831,Mexican Restaurant
718,718,55.6861,12.595572727272728,21,5,5b191bcb4a7aae002c55763c,Frenchy,55.684906000000005,12.588046,French Restaurant
1005,1005,55.7261,12.57739090909091,13,2,5b1a630ccbcdee002c027836,Paleo,55.72554399999999,12.578905,Scandinavian Restaurant
992,992,55.7161,12.57739090909091,11,10,5b1bf40935f983002c9f76e2,Coq en Pâte,55.713601000000004,12.576912,Bistro
715,715,55.6861,12.595572727272728,21,2,5b1c2d41d552c7002cd0f002,Salon,55.686249,12.591777,Scandinavian Restaurant
882,882,55.6961,12.613754545454546,11,4,5b250b678fb09e002c0c058a,The Real Greek,55.693227871360406,12.609517275643562,Food Truck
862,862,55.6961,12.57739090909091,40,33,5b25184332b61d002c259e93,Dosa Corner,55.6925940410075,12.575917031423845,Food Truck
1353,337,55.6761,12.595572727272728,12,11,5b2d0ced464d65002c9c3420,Chop Chop Kitchen,55.677521,12.595397,Chinese Restaurant
887,887,55.6961,12.613754545454546,11,9,5b2e91860d8a0f002cd69b53,la baracca,55.693606,12.609217999999998,Italian Restaurant
25,25,55.6261,12.650118181818184,16,9,5b2f59000d8a0f002c65a609,Wok,55.629012,12.6471,Thai Restaurant
1575,559,55.6838390706676,12.563192898941624,12,11,5b3d0d3e237dee002c633987,Mahalle,55.683780000000006,12.565599,Lebanese Restaurant
73,73,55.6561,12.4683,2,0,5b5b3d0db8fd9d002ca027f4,indis,55.653289,12.474260000000001,Indian Restaurant
29,29,55.6261,12.650118181818184,16,13,5b61495d535d6f002c1509b2,Lêlê Street Kitchen,55.628724315229825,12.644115686416626,Vietnamese Restaurant
28,28,55.6261,12.650118181818184,16,12,5b6177e9029a55002c4a7016,Tapa del Toro,55.628641,12.644333,Tapas Restaurant
891,891,55.70609999999999,12.4683,3,2,5b6b1f06029a55002c0131b2,Hongyu Sushi & buffet,55.71014399999999,12.466094,Sushi Restaurant
704,704,55.6861,12.57739090909091,43,34,5b6c715e286fda002c577ebd,steak & thai,55.689668000000005,12.573874,Thai Restaurant
793,793,55.6961,12.541027272727273,47,24,5b76a061dab4b1002cc5f06c,Send Flere Krydderier,55.699703,12.543345,Middle Eastern Restaurant
903,903,55.70609999999999,12.504663636363638,11,5,5b8179e9054e29002c203706,Jasmin Rice,55.704953,12.502897,Asian Restaurant
918,918,55.70609999999999,12.522845454545456,11,9,5b81827246e1b6002c4610f1,New Delhi,55.708994,12.526141,Indian Restaurant
672,672,55.6861,12.57739090909091,43,2,5b81a0d535f983002c4bcdde,Souvlaki Stories,55.689856000000006,12.573299,Souvlaki Shop
1202,186,55.6738390706676,12.56319188051372,47,42,5b8ad956f5e9d7002cbab7b0,Maggies,55.675238,12.566211000000001,American Restaurant
1006,1006,55.7261,12.57739090909091,13,3,5b8e65ba25fb7b002ce80498,The Naked Curry,55.730300016821076,12.576180696487427,Indian Restaurant
769,769,55.6961,12.541027272727273,47,0,5b9147b304d1ae00395f5411,Friheden,55.698122,12.541327,Scandinavian Restaurant
752,752,55.6961,12.48648181818182,13,9,5b92adce6e465000397239e4,Yaki Yaki,55.692138,12.485759,Sushi Restaurant
846,846,55.6961,12.57739090909091,40,17,5b92c50b2b274a002cee152c,Karma Sushi Trianglen,55.699434,12.576563,Sushi Restaurant
840,840,55.6961,12.57739090909091,40,11,5b9e7baf1ffe97002c2c3c3f,Vaca,55.699481999999996,12.576778,Mexican Restaurant
901,901,55.70609999999999,12.504663636363638,11,3,5ba7aee1088158002c6d3846,green mango,55.704651,12.500619,Thai Restaurant
225,225,55.66609999999999,12.559209090909093,50,24,5bae8038cabcff003901acdb,Tapas Revolution,55.670529,12.560361,Tapas Restaurant
122,122,55.6561,12.613754545454546,39,36,5bc22bbcb6eedb002cec732c,Nawab,55.659724,12.610885000000001,Indian Restaurant
936,936,55.70609999999999,12.57739090909091,34,3,5bc4b4ea65cdf8002c51e5c7,BollyFood,55.707829000000004,12.577211,Indian Restaurant
1023,7,55.66836092933239,12.555227319090529,37,0,5bcec5ceeaf49a002c07ea79,La Neta Vesterbro,55.66923407509467,12.55310833454132,Taco Place
1391,375,55.67836092933239,12.591589937668099,44,37,5bd5a9575bc27d00250c2d9b,themission,55.678002,12.592215,Italian Restaurant
1100,84,55.6738390706676,12.555226301304462,50,11,5bdf40c74acb19002c66821b,iki sushi,55.673807,12.551544999999999,Sushi Restaurant
617,617,55.6861,12.541027272727273,46,43,5be487e33149b9002c5c5cbb,Wafu Ramen,55.68502900000001,12.538523,Ramen Restaurant
998,998,55.7261,12.522845454545456,6,1,5bf18c01446ea6002cb2240d,Dwaraka Indisk Restaurant,55.727364,12.524753,Indian Restaurant
1094,78,55.6738390706676,12.555226301304462,50,5,5c0189baf5e9d7002cf10817,Kiin Kiin Tok Tok,55.672245,12.554889,Thai Restaurant
1494,478,55.68836092933239,12.555225282876556,32,18,5c041daed69ed0002ca57693,Koshari,55.688648,12.55834,African Restaurant
121,121,55.6561,12.613754545454546,39,35,5c0d3fbec0c084002501498f,The Flames,55.65548100000001,12.616783999999999,Pakistani Restaurant
196,196,55.66609999999999,12.541027272727273,27,22,5c153aca8c812a003993f56e,Hot Pot Republic,55.67045600000001,12.540772,Chinese Restaurant
758,758,55.6961,12.504663636363638,9,2,5c178efc4c9be6002c14d720,Istanbul Kebab House,55.69436999999999,12.51028,Turkish Restaurant
1186,170,55.6738390706676,12.56319188051372,47,26,5c1936cc5d891b002c64ce2e,Great China,55.672146,12.562832,Chinese Restaurant
553,553,55.6861,12.504663636363638,11,7,5c1be3421af852002cb27bbc,Sushi Station,55.685662,12.498906,Sushi Restaurant
1003,1003,55.7261,12.57739090909091,13,0,5c1bf3cdad1789002cfdc946,Kinome,55.728203,12.576119,Asian Restaurant
540,540,55.6861,12.48648181818182,13,7,5c3a3686f129b50025b9307d,Umi Sushi,55.687755,12.49,Sushi Restaurant
587,587,55.6861,12.541027272727273,46,13,5c48acaf065ef5002ca32702,Fusion Monkey,55.686572,12.540233,Sushi Restaurant
22,22,55.6261,12.650118181818184,16,6,5c4fec400d173f002caef6b9,Smørrebrød,55.62829,12.647758999999999,Scandinavian Restaurant
1422,406,55.6738390706676,12.591589937668099,25,24,5c55ce56492814002c32298a,Kato Sushi,55.673386,12.589481,Sushi Restaurant
377,377,55.6761,12.541027272727273,26,21,5c55d32e1c675b002ce092dc,Hos Otto,55.674015000000004,12.537188,French Restaurant
300,300,55.66609999999999,12.595572727272728,34,27,5c55ee49c58ed7002c1013a3,Sushidog,55.66390500000001,12.600905000000001,Sushi Restaurant
693,693,55.6861,12.57739090909091,43,23,5c5dc4dcf8cbd4002cfc0926,Sushi Tsukiji,55.684169,12.570271,Sushi Restaurant
360,360,55.6761,12.541027272727273,26,4,5c5dc6a282a750002c485c86,Sticks'n'Sushi,55.676396999999994,12.541965,Sushi Restaurant
582,582,55.6861,12.541027272727273,46,8,5c66d2ce4a7aae002c9df902,Spise\Bar no. 15,55.684934,12.540652,Dutch Restaurant
971,971,55.70609999999999,12.595572727272728,10,4,5c6801f07d8497002c8f191d,Buvette,55.70678,12.597769,French Restaurant
654,654,55.6861,12.559209090909093,50,34,5c72c1b7535d6f002c56628f,Xilonen,55.685568999999994,12.566491000000001,Mexican Restaurant
1147,131,55.67836092933239,12.56319188051372,21,8,5c7bedd7febf31002c722ad2,H Table,55.680389,12.562923,Chinese Restaurant
408,408,55.6761,12.559209090909093,50,26,5c82c6148194fc002ca76864,casa lola,55.676209,12.565954,Spanish Restaurant
898,898,55.70609999999999,12.504663636363638,11,0,5c855210fb8e59002c38a2d6,Restaurant Muma,55.705929000000005,12.510836999999999,Turkish Restaurant
1030,14,55.66836092933239,12.555227319090529,37,7,5c892fc11c0b3400395ba184,Gao Istedgade,55.669033,12.552261999999999,Dim Sum Restaurant
905,905,55.70609999999999,12.504663636363638,11,7,5c8cc237aa6c95002c6798fb,carscalla,55.706039000000004,12.511934,Lebanese Restaurant
1389,373,55.67836092933239,12.591589937668099,44,35,5c921922f4b525002c67d81e,Cholon By Lâm Lê,55.678074,12.588548,Asian Restaurant
1668,92,55.679491393998596,12.575399629390185,28,16,5ca604b965211f002c733961,Gråbrødre Kro,55.679598,12.57575,Scandinavian Restaurant
456,456,55.6761,12.57739090909091,50,24,5ca795bb3fffb40025bfdd88,Mamma’s,55.675851,12.57112,Italian Restaurant
885,885,55.6961,12.613754545454546,11,7,5ca8c32446e1b60039931fe6,Blue Taco,55.693665,12.608336,Taco Place
605,605,55.6861,12.541027272727273,46,31,5cae1809d69ed0002c27cb39,Nonsolo Trattoria,55.686158999999996,12.534624,Italian Restaurant
358,358,55.6761,12.541027272727273,26,2,5cb0cb1251950e002cb310ac,Izumi,55.676984999999995,12.538953,Sushi Restaurant
964,964,55.70609999999999,12.57739090909091,34,31,5cbdf52d336273002b56229a,Kuma,55.70466700000001,12.58108,Japanese Restaurant
1322,306,55.67836092933239,12.581373698695538,31,16,5cc8802acb3fd20039901447,Nordic Noodle,55.679474,12.580832000000001,Noodle House
1631,55,55.67836092933239,12.57340811948628,17,16,5cc96a3f59c423002ccbd4f3,Danish Smørrebrød,55.678380000000004,12.574781,Scandinavian Restaurant
125,125,55.6561,12.631936363636365,3,0,5ccac033826444002c4592f7,lêlê street kitchen,55.659969,12.633346000000001,Vietnamese Restaurant
102,102,55.6561,12.613754545454546,39,16,5ccacc7fbbd0e800256a8894,Shawarmahuset,55.65840600000001,12.607683,Doner Restaurant
881,881,55.6961,12.613754545454546,11,3,5ce17299666116002c668a31,Maroc Maroc,55.693664,12.607857000000001,Moroccan Restaurant
278,278,55.66609999999999,12.595572727272728,34,5,5ce2e970f5e9d7002cbc71ae,Sushi Factory,55.664049,12.601061,Sushi Restaurant
178,178,55.66609999999999,12.541027272727273,27,4,5ce66ab23fcee8002cc92dbc,Liban Cuisine,55.66938199999999,12.545172,Middle Eastern Restaurant
62,62,55.6461,12.559209090909093,2,0,5ceeae94471d6e002ceb3601,OISHI Sushi,55.64945600000001,12.554551,Sushi Restaurant
144,144,55.66609999999999,12.504663636363638,16,12,5cf3f09851950e002c446307,Dom's Mad,55.66666,12.505616999999999,Thai Restaurant
539,539,55.6861,12.48648181818182,13,6,5cffcea998fbfc002cd21b9e,Letz Sushi,55.686347999999995,12.4914,Sushi Restaurant
253,253,55.66609999999999,12.57739090909091,22,2,5d0d0d595459f20023011764,Letz Sushi,55.666171999999996,12.576372000000001,Sushi Restaurant
836,836,55.6961,12.57739090909091,40,7,5d2217b0d0ae5e00235a8589,Wokshop,55.700254,12.577307000000001,Thai Restaurant
307,307,55.66609999999999,12.613754545454546,15,0,5d25f93b972c0d0023c7e73b,Tuk Tuk Thai Take Away,55.662792,12.615534,Thai Restaurant
884,884,55.6961,12.613754545454546,11,6,5d333d02ec65e000071a4829,Mahala,55.69374499999999,12.609521,Jewish Restaurant
132,132,55.66609999999999,12.504663636363638,16,0,5d35fefb768dca00075675b7,Watami,55.666027,12.510671,Sushi Restaurant
883,883,55.6961,12.613754545454546,11,5,5d42be1f871ab1000872b6eb,Organic Balance,55.693616000000006,12.608997,Asian Restaurant
12,12,55.6261,12.57739090909091,13,10,5d4dc43961835c00086bdd22,Cyprus,55.63023199999999,12.57757,Greek Restaurant
1199,183,55.6738390706676,12.56319188051372,47,39,5d4f164368f1740008c7193b,Nachos,55.67524,12.566189999999999,Mexican Restaurant
673,673,55.6861,12.57739090909091,43,3,5d5c2664a9dce20008d2585e,Maison,55.684406,12.583639999999999,French Restaurant
159,159,55.66609999999999,12.522845454545456,26,11,5d7e096da406af0008b083a2,Sheik shawarma,55.66601,12.516941000000001,Middle Eastern Restaurant
1502,486,55.68836092933239,12.555225282876556,32,26,5d8136d40e55f300089da010,Boungiorno,55.688292000000004,12.554381,Italian Restaurant
888,888,55.6961,12.613754545454546,11,10,5d8c98497498b4000750eb27,Republique,55.6937,12.608066,French Restaurant
1559,543,55.68836092933239,12.563192898941624,29,24,5d8e3ad6b3712800081f53c3,Phago,55.689358,12.560112,Mediterranean Restaurant
972,972,55.70609999999999,12.595572727272728,10,5,5d96081647cc9a0008ef66d0,Sushi Anaba,55.70678100000001,12.598659,Sushi Restaurant
1527,511,55.6838390706676,12.555225282876556,27,19,5d9ccb5f69e2f90008bbaecd,Men-O Ramen,55.685118,12.552406,Ramen Restaurant
1200,184,55.6738390706676,12.56319188051372,47,40,5da1818a03db2f0007af2249,Angelini,55.673809999999996,12.564565,Italian Restaurant
557,557,55.6861,12.522845454545456,17,0,5da57f3cc4e22b000857157a,Ramen to Bíiru Frederiksberg,55.68525738016943,12.528804838657381,Ramen Restaurant
980,980,55.7161,12.559209090909093,3,1,5da8900e98c98d0008bc81a2,yokoso sushi,55.718962,12.556832,Sushi Restaurant
60,60,55.6461,12.522845454545456,1,0,5db3463bc827c20008d7985f,Hana Sushi,55.648242,12.526912,Sushi Restaurant
1506,490,55.68836092933239,12.555225282876556,32,30,5dc6cbb466d0440008fb9ae9,Hidmona Eritrean restaurant,55.68883100000001,12.555091000000001,African Restaurant
5,5,55.6261,12.57739090909091,13,3,5ddbc1118178a700085aa2ad,Cafe Wok,55.630198,12.577622,Asian Restaurant
546,546,55.6861,12.504663636363638,11,0,5ddffc464bcd6400078f2edc,Mudan,55.684392,12.503827000000001,Chinese Restaurant
870,870,55.6961,12.595572727272728,9,1,5de2582ce682a30008c0ef72,Restaurant Frihavnen,55.700194999999994,12.594022,Scandinavian Restaurant
281,281,55.66609999999999,12.595572727272728,34,8,5de556aa593a3f00085b21ed,Casa Nostra,55.667104,12.59816,Pizza Place
578,578,55.6861,12.541027272727273,46,4,5df9972f3f596900083b97c0,Mahalle Frederiksberg,55.68500699999999,12.540818,Lebanese Restaurant
1651,75,55.6772304646662,12.571416609582375,18,17,5e0b6368fe759b0007aa6059,Men O Ramen 2,55.678065000000004,12.571117,Ramen Restaurant
1142,126,55.67836092933239,12.56319188051372,21,3,5e19d81fa587360008dec5eb,The Midwestern Diner,55.680216,12.563384,Burger Joint
88,88,55.6561,12.613754545454546,39,2,5e233267b840800008489843,B’INDIA,55.65640500000001,12.609115,Indian Restaurant
347,347,55.6761,12.522845454545456,13,4,5e29e3d13bd73a00083e3318,Original Sushi,55.679407999999995,12.521272,Sushi Restaurant
969,969,55.70609999999999,12.595572727272728,10,2,5e2b45c8965a8a00076de272,kini kini,55.706818999999996,12.596578,Indonesian Restaurant
82,82,55.6561,12.559209090909093,3,0,5e34627ce703ea000710a28b,wami sushi,55.657258,12.566639,Sushi Restaurant
258,258,55.66609999999999,12.57739090909091,22,7,5e59602b7aa26f000752269c,Sole Factory,55.662434,12.579023,Scandinavian Restaurant
1532,516,55.6838390706676,12.555225282876556,27,24,5e63e11e0dc95000085c96e3,Kami Sushi,55.68472,12.553513,Sushi Restaurant
1529,513,55.6838390706676,12.555225282876556,27,21,5e63e205318c1c0008a16c3c,Kami Sushi,55.684673,12.553327000000001,Sushi Restaurant
59,59,55.6361,12.650118181818184,2,1,5e84bb67d5000e0008d96dc4,Kastrup Smørrebrød,55.6356638108127,12.642916738986967,Scandinavian Restaurant
914,914,55.70609999999999,12.522845454545456,11,5,5e84e0695348d200088bb7d0,Wok & Thai,55.704205,12.527175999999999,Thai Restaurant
92,92,55.6561,12.613754545454546,39,6,5e9c8fc5bfc6210008e47639,Letz Sushi Amager,55.65667,12.608981,Sushi Restaurant
56,56,55.6361,12.631936363636365,8,6,5eb97c7471e55c0008216c06,yokoso sushi,55.637269999999994,12.634919,Sushi Restaurant
700,700,55.6861,12.57739090909091,43,30,5ebcba4ec7b80d000becb8c5,Montergade,55.68184300000001,12.579785000000001,Scandinavian Restaurant
375,375,55.6761,12.541027272727273,26,19,5ec16b7a9cfa69000878ce1a,heat,55.673843999999995,12.540575,Japanese Restaurant
899,899,55.70609999999999,12.504663636363638,11,1,5ec40486b3fa7f000845efcf,Zeynos,55.704329,12.499473,Shawarma Place
999,999,55.7261,12.522845454545456,6,2,5ec53eefb14056000823523c,Sushi 2500,55.72883,12.523984,Sushi Restaurant
279,279,55.66609999999999,12.595572727272728,34,6,5ec84e2d0ec9aa000774d037,Yokoso Sushi Amager,55.665136,12.599741,Sushi Restaurant
50,50,55.6361,12.631936363636365,8,0,5ecbe71c9b825400080cc2b4,Yokoso Sushi & Sticks,55.63740799999999,12.635659,Sushi Restaurant
679,679,55.6861,12.57739090909091,43,9,5ee50670dd56ba0007c6c65b,Keyser Social,55.683434,12.572283,Asian Restaurant
684,684,55.6861,12.57739090909091,43,14,5ee8d631e3745c000776983d,Restaurant Møntergade,55.681885,12.579738,Scandinavian Restaurant
133,133,55.66609999999999,12.504663636363638,16,1,5eff5849fe54d7000716f5a0,Brasserie Valby,55.66593,12.509145,Brasserie
176,176,55.66609999999999,12.541027272727273,27,2,5f0f7d82b364824257b75dce,Frey & Nordberg,55.667823999999996,12.547251,German Restaurant
181,181,55.66609999999999,12.541027272727273,27,7,5f25a0e8dc6fa74ea8436df6,Bulko,55.666573,12.539651,Korean Restaurant
322,322,55.66609999999999,12.631936363636365,5,0,5f26c992b3bc6069f6708687,Cibo Italiensk Bistro,55.66226999999999,12.63231,Italian Restaurant
1558,542,55.68836092933239,12.563192898941624,29,23,5f2992f41007ac701a2c2ec2,Roberta,55.687862,12.563058,Mexican Restaurant
997,997,55.7261,12.522845454545456,6,0,5f394ec28547eb67d4c16a89,Zharava,55.727318999999994,12.524785000000001,Bulgarian Restaurant
880,880,55.6961,12.613754545454546,11,2,5f3bfd12d641fa6e31fabdcd,pasta lab,55.693709,12.608984,Italian Restaurant
628,628,55.6861,12.559209090909093,50,8,5f44cef8aa74e2041645b623,Grød,55.689886,12.558364,Scandinavian Restaurant
148,148,55.66609999999999,12.522845454545456,26,0,5f53b7052a8fe116b873616d,domo sushi,55.666043,12.51742,Sushi Restaurant
834,834,55.6961,12.57739090909091,40,5,5f53d54f88944a58b561c4fb,Bistro Cocorico,55.698387,12.575837,French Restaurant
815,815,55.6961,12.541027272727273,47,46,5f5c64a3fd76be70ad3df141,Ugood,55.692893999999995,12.54359,African Restaurant
1058,42,55.66836092933239,12.555227319090529,37,35,5f624f7924ae6f671d82e1a1,PakoMex,55.667106000000004,12.553358,Food Truck
171,171,55.66609999999999,12.522845454545456,26,23,5f888a1bf1ae3e38958bec86,Eat In Time,55.666603,12.516797,Chinese Restaurant
965,965,55.70609999999999,12.57739090909091,34,32,5f8b25e49ab4fe0578c39b26,Diner & Steakhouse,55.704841,12.574164999999999,American Restaurant
976,976,55.70609999999999,12.595572727272728,10,9,5f906c84709b5646e9291762,hija de sanchez cantina,55.707612,12.596542999999999,Mexican Restaurant
305,305,55.66609999999999,12.595572727272728,34,32,5f96cfa407e574152a312988,Café Risico,55.664134999999995,12.6011,Café
1592,16,55.67270860600141,12.553235021587332,10,9,5fa03bc10cae181fdb818e9f,District Tonkin,55.672631,12.553621000000001,Vietnamese Restaurant
868,868,55.6961,12.57739090909091,40,39,5fa42f39dde3ae01ce136202,"Bindia Indisk Mad / Restaurant & Take Away - Østerbro, København",55.69862477124272,12.576186060905455,Indian Restaurant
199,199,55.66609999999999,12.541027272727273,27,25,5fb0425015bb4e4282c931bb,Kōnā,55.667678,12.534701,Japanese Restaurant
830,830,55.6961,12.57739090909091,40,1,5fb42432e833905c96b593c2,Le Lac,55.696667000000005,12.581479,French Restaurant
1206,190,55.6738390706676,12.56319188051372,47,46,5fca119d1373ca29e5798283,Holy Krapow Thai Food,55.673826,12.5593,Thai Restaurant
