,lat_centre,long_centre,num_venues,venue_iter,venue_id,venue_name,lat_venue,long_venue,category
0,45.694,4.763477777777778,2,0,589f5c43a19e9063d2cf2783,La Foret Noire,45.698428,4.763042,French Restaurant
1,45.694,4.763477777777778,2,1,4fdc718de4b0ab51ec09adf7,Lafargue Traiteur,45.69694263177083,4.7628266397556445,French Restaurant
2,45.694,4.791255555555556,1,0,5a0d6e71d3cce87e1a4143ff,LE MANDIE'S,45.69547318366909,4.793429374694824,French Restaurant
3,45.694,4.8190333333333335,3,0,4fc5f505e4b0d1962f0128f8,Les Deux Platanes,45.69653473628246,4.821817788493687,French Restaurant
4,45.694,4.8190333333333335,3,1,5245fd57498ec19841af8fd4,Capri,45.69619430298283,4.817199073156698,Italian Restaurant
5,45.694,4.8190333333333335,3,2,4bff9a6fc30a2d7f7226111d,Palais Du Dragon,45.69375876276889,4.823940798655665,Chinese Restaurant
6,45.694,4.846811111111111,1,0,4ec6477677c8be492126c73a,Le Chineur,45.694131642544384,4.844251800402608,French Restaurant
7,45.694,4.87458888888889,1,0,560d1248498e541b914e2e6d,Négoce des mers,45.690617,4.871977199999947,French Restaurant
8,45.694,4.930144444444445,3,0,4f1e9ba0e4b0d35bd6d20a16,La Cantine,45.6958122253418,4.934791564941406,French Restaurant
9,45.694,4.930144444444445,3,1,50b75c47e4b08451ad600505,La Gare Routière,45.69148520663191,4.934772661306765,French Restaurant
10,45.694,4.930144444444445,3,2,51b0e2cd498eddfcae279174,Tandoori,45.69603486875525,4.926809391654157,Indian Restaurant
11,45.694,4.9440333333333335,1,0,55c9bdca498e15d3a7f76256,Red Sushis,45.69539260864258,4.942190170288086,Sushi Restaurant
12,45.694,4.9857000000000005,1,0,4d4dc2054aa3a093f2ab46ae,Cocoo,45.690147828983015,4.983524197723001,Chinese Restaurant
13,45.704,4.8190333333333335,2,0,4f6391d9e4b0dc771f2f7e09,Léo Sushi,45.70755066298866,4.820612312847528,Sushi Restaurant
14,45.704,4.8190333333333335,2,1,54aa7970498ea948a46e517c,Restaurant De L'Europe,45.706635815627976,4.821030309812056,Italian Restaurant
15,45.704,4.832922222222223,2,0,4cf38b9d6c29236a3c5471a2,Courtepaille,45.70538696318173,4.8316119611263275,French Restaurant
16,45.704,4.832922222222223,2,1,5346826e498ef5d622b677be,Osteria Italiana,45.704161,4.832133,Italian Restaurant
17,45.704,4.888477777777778,1,0,4e143dfdb61c18a826ff9bf7,La Perdrix Blanche,45.70134373737052,4.889347743175046,French Restaurant
18,45.704,4.902366666666667,2,0,4d7df4a3dd4a6ea895456025,Chez San,45.70538020596689,4.900675536433356,Chinese Restaurant
19,45.704,4.902366666666667,2,1,4fe8389ce4b0972a1dda6d4b,Deuxième Avenue,45.704853122777514,4.900192022323608,French Restaurant
20,45.714000000000006,4.805144444444445,7,0,527ca37611d2223e19d89b96,Maxi Tacos,45.71521564156075,4.80830256591035,Turkish Restaurant
21,45.714000000000006,4.805144444444445,7,1,5037c38ae4b02b479d4755c8,Là Perle d'Asie,45.716243743896484,4.804856777191162,Asian Restaurant
22,45.714000000000006,4.805144444444445,7,2,57f36178498eaf52fa507610,La Flèche d'Or,45.716490811399034,4.809061288833618,Taco Place
23,45.714000000000006,4.805144444444445,7,3,51f25f68498e3ad2ac411c26,Le P'tit Diabl' Au Thym,45.7154420037905,4.808429539510936,French Restaurant
24,45.714000000000006,4.805144444444445,7,4,5c40628c65cdf8002cf08008,Six Pieds Sur Terre,45.711561,4.802183,French Restaurant
25,45.714000000000006,4.805144444444445,7,5,51c2dbb1498e066fea1b0d76,Palais Du Rajasthan,45.715930274286066,4.8104828176426295,Indian Restaurant
26,45.714000000000006,4.805144444444445,7,6,4e8b5431dab4414a6b59a46d,Speed Tacos,45.71275219190527,4.801184553301564,Taco Place
27,45.714000000000006,4.8190333333333335,3,0,52cbf4fc498eeb58e2103fe9,Bar-Restaurant Brasãi,45.71111,4.820318,Portuguese Restaurant
28,45.714000000000006,4.8190333333333335,3,1,4f195c60e4b02a5a23e34003,boite a sardines,45.7151785541558,4.820850797712636,French Restaurant
29,45.714000000000006,4.8190333333333335,3,2,52cbf59311d24d7708cf9db9,Bar-Restaurant Brasão,45.71115,4.820856,Portuguese Restaurant
30,45.714000000000006,4.8607000000000005,2,0,55620768498e8dcd9ee202e1,O Planète,45.716682,4.860182,Chinese Restaurant
31,45.714000000000006,4.8607000000000005,2,1,579107e5498e4506bbd70c84,Memphis Coffee Lyon Vénissieux,45.71675,4.860111,American Restaurant
32,45.714000000000006,4.888477777777778,1,0,5166905ce4b0e5591e447467,J'aime Chaud,45.71534,4.887478,Taco Place
33,45.714000000000006,4.930144444444445,2,0,4ec628f429c22cc60ac3d999,Restaurant Le Cocon,45.71567592656093,4.9290585765417285,French Restaurant
34,45.714000000000006,4.930144444444445,2,1,4fb29ccce4b0216f68cb8d46,L'Effervescence,45.714333564678626,4.931197986097926,French Restaurant
35,45.714000000000006,4.971811111111111,4,0,5d5d71fe4feb4e0008d9e3ac,V and B St Priest,45.712516,4.970779,Bar
36,45.714000000000006,4.971811111111111,4,1,4dc67c4dfa76d685cdfad5ed,Duthion Champagne Au Mont D'or,45.71151085704431,4.975495438605856,French Restaurant
37,45.714000000000006,4.971811111111111,4,2,5e6d42eb15335d0008e21a68,Courtepaille,45.7162937,4.969475,French Restaurant
38,45.714000000000006,4.971811111111111,4,3,5a359986d7627e0968bc22be,Courtepaille,45.716349,4.969924,Steakhouse
39,45.724000000000004,4.832922222222223,2,0,4ce065b9825e721e86357645,Argenson,45.72301017169187,4.828839111862561,French Restaurant
40,45.724000000000004,4.832922222222223,2,1,4f798539e4b0ca8cfed5b4be,SaladOpastA,45.7282422987103,4.831895281300412,Salad Place
41,45.724000000000004,4.8607000000000005,4,0,4f8d476be4b0af04c407ca7e,La Lozère,45.721919784080335,4.857103518866573,Diner
42,45.724000000000004,4.8607000000000005,4,1,4dd3a9fc7d8b6704c7a9db0a,La terrasse de Marie,45.720052,4.859009,French Restaurant
43,45.724000000000004,4.8607000000000005,4,2,4f7ad296e4b06b95529838bd,La lozere,45.72610690560703,4.856126666806591,French Restaurant
44,45.724000000000004,4.8607000000000005,4,3,505dbfa1e4b0236a278ffb58,Lyon Frans Royal Restaurant,45.726998,4.862579,Turkish Restaurant
45,45.724000000000004,4.87458888888889,3,0,4f8eaee9e4b018d8f67958d5,Le jardin de l'Orient,45.72298841236855,4.871674445468455,Asian Restaurant
46,45.724000000000004,4.87458888888889,3,1,4e8c61527ee63153eb92e15b,Le Dragon Du Bonheur,45.724501943022695,4.871863573948437,Asian Restaurant
47,45.724000000000004,4.87458888888889,3,2,4ca0dde40e9bb1f74e19fc5f,Macao,45.72285524933886,4.872185718628403,Asian Restaurant
48,45.724000000000004,4.888477777777778,2,0,5a8305fb42d8c251bea02e82,O’tacos,45.72643,4.886671,Taco Place
49,45.724000000000004,4.888477777777778,2,1,52b84820498ede6aa2094cca,greenson,45.7234001159668,4.893111228942871,Turkish Restaurant
50,45.724000000000004,4.916255555555556,3,0,4c6139b33986e21eb0fd954f,China Exupéry,45.72563074008647,4.914467932696089,Chinese Restaurant
51,45.724000000000004,4.916255555555556,3,1,55d8d3e6498ed48379f4e2cc,Indian Palace,45.72617763504253,4.915982029844088,Indian Restaurant
52,45.724000000000004,4.916255555555556,3,2,5049fff4e4b08c4805457680,Best Breizh,45.72025025876316,4.915921455892914,Snack Place
53,45.724000000000004,4.930144444444445,7,0,5c125027c8b2fb002c044d64,Gourmet Bron,45.7252216071319,4.928910434246063,French Restaurant
54,45.724000000000004,4.930144444444445,7,1,4c5daca16147be9a26b99209,Courtepaille,45.7254454,4.9320791,French Restaurant
55,45.724000000000004,4.930144444444445,7,2,4e425c5c7d8bec1e4d15eddd,Hippopotamus,45.72130513221955,4.9271122273277825,BBQ Joint
56,45.724000000000004,4.930144444444445,7,3,4bc2fe224cdfc9b6e2b39621,Baton Rouge,45.72263336979242,4.926025280994129,American Restaurant
57,45.724000000000004,4.930144444444445,7,4,5229c32511d2bfb2b8fd06a7,IKEA Restaurant & Café,45.721351623535156,4.930754661560059,Scandinavian Restaurant
58,45.724000000000004,4.930144444444445,7,5,4ff5d75de4b0734a7a12e3c2,Le Grand Buffet,45.72596740722656,4.925137996673584,French Restaurant
59,45.724000000000004,4.930144444444445,7,6,4bc45596b492d13a3bd7a960,Le Comptoir De Maitre Kanter,45.722104,4.930108,French Restaurant
60,45.724000000000004,4.957922222222223,1,0,50b764f9e4b064fd4799dadd,Self only Lyon,45.725181579589844,4.952888488769531,French Restaurant
61,45.734,4.763477777777778,1,0,5320bbf611d231fb5c8e061b,l'allegria due,45.737046,4.765288,Italian Restaurant
62,45.734,4.791255555555556,1,0,501273c9e4b0e259d25f1996,Robino,45.73504,4.786254,Italian Restaurant
63,45.734,4.805144444444445,2,0,504786c590e7d01a5ad53c88,Epicerie et Compagnie,45.73605081139188,4.8043084144592285,French Restaurant
64,45.734,4.805144444444445,2,1,4d7f4d6bebc154815ea2f0a6,Le Lafayette,45.73112311662544,4.805634550635375,French Restaurant
65,45.734,4.8190333333333335,6,0,59cd67a4a2c00b54a266ee6c,Mob Hotel Restaurant,45.73431301360434,4.815975334692005,Pizza Place
66,45.734,4.8190333333333335,6,1,51f36b14498eab595897510a,Restaurant Du Novotel,45.732983939788085,4.8229193458291775,French Restaurant
67,45.734,4.8190333333333335,6,2,5370ab54498e6aa50830ae45,Lupika,45.736753,4.81459,French Restaurant
68,45.734,4.8190333333333335,6,3,4e3da5291838cb1b82f3b117,Le Saint Cochon,45.73641193727992,4.820410516650972,French Restaurant
69,45.734,4.8190333333333335,6,4,564ba3af498e9c1d43de6bca,La Maison,45.73112748358277,4.823328546046783,French Restaurant
70,45.734,4.8190333333333335,6,5,53764ee4498eb186dabffe52,Bateau Bellona,45.73509230678183,4.819819917599302,French Restaurant
71,45.734,4.832922222222223,17,0,4ce50eae302d54817d09cc5f,Le Venezia,45.73076408975174,4.829962480658633,Italian Restaurant
72,45.734,4.832922222222223,17,1,4c1e38bceac020a1da5149c2,Brasserie Debourg,45.731375479764324,4.829662774655415,French Restaurant
73,45.734,4.832922222222223,17,2,51af1f49498edff278cda15c,L'échalote,45.734222412109375,4.8327813148498535,French Restaurant
74,45.734,4.832922222222223,17,3,57ffdb3738fab63bb2e0ae19,Carnégie Club,45.730034,4.830374,French Restaurant
75,45.734,4.832922222222223,17,4,4bdb46082a3a0f47b63aaeb6,Barcelona Tapas,45.73381149992811,4.838624366625307,Tapas Restaurant
76,45.734,4.832922222222223,17,5,56545d04498ecc8d95e0ea97,La Table de JP,45.7307176172996,4.829822263480489,French Restaurant
77,45.734,4.832922222222223,17,6,577a8546498e3d88541f1033,l'Entracte Bar Restaurant,45.7350473634454,4.837245941162109,African Restaurant
78,45.734,4.832922222222223,17,7,4c6bb4757c052d7f5c112acf,Midi à 2,45.7362834816647,4.836409841547752,French Restaurant
79,45.734,4.832922222222223,17,8,53fc9ad4498ea719e0abc2c6,Ali Baba 3,45.73100076586067,4.829537368680203,Doner Restaurant
80,45.734,4.832922222222223,17,9,57ddbb42498e958c9a41d2ef,Le Bouche B,45.73502,4.837305,French Restaurant
81,45.734,4.832922222222223,17,10,579745f5498e4f6d75f8b381,Le Jardin de Sandra,45.732574,4.838909,French Restaurant
82,45.734,4.832922222222223,17,11,4dd4f9c4b0fb7a332e74c8d7,Le 24,45.73138220282304,4.829723179464925,French Restaurant
83,45.734,4.832922222222223,17,12,50ad2779e4b0f32f45c73a10,Apsara,45.73024485918869,4.829892660511561,Asian Restaurant
84,45.734,4.832922222222223,17,13,4cc802c7fa03224b0ca041ef,Le Château D'if,45.73386532259427,4.83932446535847,French Restaurant
85,45.734,4.832922222222223,17,14,5167fd3ee4b071ff71bb54d0,Tandoor&wok,45.73696680312701,4.833845298749035,Indian Restaurant
86,45.734,4.832922222222223,17,15,4cb837e84352a1cdc89d83f5,Gamboni,45.73017072686924,4.829922687227251,French Restaurant
87,45.734,4.832922222222223,17,16,4da2017322a5f04d460b0855,Watami,45.73162374994046,4.830390320432795,Asian Restaurant
88,45.734,4.846811111111111,1,0,4d92239b033ba35d57907f0d,Au Grandt,45.733973382582434,4.8527369092196,Taco Place
89,45.734,4.8607000000000005,1,0,4e73680bcc3f93bd77154f50,O’Naan,45.733025435949735,4.864411354064941,Indian Restaurant
90,45.734,4.87458888888889,4,0,4e3a73b962e10c0843d62e70,L'Orchidée Blanche,45.734192,4.875656,Asian Restaurant
91,45.734,4.87458888888889,4,1,4b9be8edf964a520a33436e3,Perles De Pluie,45.73433724671183,4.876560747748181,Asian Restaurant
92,45.734,4.87458888888889,4,2,579e0d2a498e7fbd54d1fe74,Restaurant K-Akdeniz,45.73291,4.8800116,Turkish Restaurant
93,45.734,4.87458888888889,4,3,5412d98c498e1cf9aff51616,à La Belle Epoque,45.735315,4.87699,French Restaurant
94,45.734,4.888477777777778,1,0,4eea4c8eb8f7eaddf7c46bc9,Delice Kebab,45.737908,4.886041,Mediterranean Restaurant
95,45.734,4.902366666666667,1,0,5e3715ab094cbd0007a09fac,Lezzet Istanbul Kebab,45.73455,4.904844,Doner Restaurant
96,45.734,4.916255555555556,3,0,4fca4569e4b00af050585bb6,Le Scénario,45.73013595872273,4.914162374123486,French Restaurant
97,45.734,4.916255555555556,3,1,4d825e1959d16dcb7da90c1c,Kebab Pizza Délices,45.73628784528438,4.9175173862011805,Middle Eastern Restaurant
98,45.734,4.916255555555556,3,2,509a45ffe4b094d3756fc6f9,Istanbul 2,45.7329330716087,4.910564489223205,Turkish Restaurant
99,45.734,4.971811111111111,1,0,4ea7df32d3e33e1d4f1b7410,Anatolia,45.733502649305244,4.968288099985005,Mediterranean Restaurant
100,45.734,4.9857000000000005,1,0,5e1da0f0a701520007fe5666,L’Escale,45.734946,4.982676,French Restaurant
101,45.744,4.7357000000000005,2,0,4e7e23c561afbcd1d401333b,New Saigon,45.74749955027865,4.732523535323763,Chinese Restaurant
102,45.744,4.7357000000000005,2,1,5169a775498e2abcc90a566a,Mister Dinner,45.746871,4.738141,American Restaurant
103,45.744,4.777366666666667,1,0,4e747572483b0cf5ec4a1aba,B Bleu,45.740107815755216,4.780297492089732,French Restaurant
104,45.744,4.791255555555556,1,0,4e84a9c2f790320b38332c49,Planet' Tacos,45.74745602414377,4.790440818772438,Taco Place
105,45.744,4.805144444444445,1,0,52e018ff498e7d93c48bddf9,Indochine,45.743446350097656,4.811387062072754,Asian Restaurant
106,45.744,4.8190333333333335,20,0,5a76565c8e886a73e95e3522,Hanoï Cà Phê Confluence,45.742353,4.815125,Vietnamese Restaurant
107,45.744,4.8190333333333335,20,1,4f7d8046e4b02e131425e303,Vapiano,45.74084002882818,4.818887448988582,Italian Restaurant
108,45.744,4.8190333333333335,20,2,4f9ed056e4b0e445b9120f13,Amélie Crêpes,45.7412361233175,4.817625653799256,French Restaurant
109,45.744,4.8190333333333335,20,3,51605254e4b07bc29b03fe87,So Luso,45.741849271129574,4.816476306266024,Portuguese Restaurant
110,45.744,4.8190333333333335,20,4,5682d5f1498ea7c374fc2577,Namaskar,45.741579,4.816772,Indian Restaurant
111,45.744,4.8190333333333335,20,5,58f0a97a1ffe97452752c45c,Brasserie Bayard,45.742807,4.823593,Brasserie
112,45.744,4.8190333333333335,20,6,50fa9628e4b0d048672a2fd5,Intermezzo,45.74321483088056,4.815804362297058,Italian Restaurant
113,45.744,4.8190333333333335,20,7,5d41b47c334b5700082ac98b,Hippopotamus Steakhouse,45.74061298000613,4.818377351337858,BBQ Joint
114,45.744,4.8190333333333335,20,8,4f7cb96de4b01995bf55c95e,Fuxia,45.74140576076953,4.817481136764251,Italian Restaurant
115,45.744,4.8190333333333335,20,9,518b95ad498e40449505a3f4,Saveurs d'orient,45.745647670676775,4.823167775806325,Turkish Restaurant
116,45.744,4.8190333333333335,20,10,4f7caf24e4b0a6ed16747ae7,Viapiano,45.74073134631133,4.819379275651208,Italian Restaurant
117,45.744,4.8190333333333335,20,11,4d51a0c171548cfad77a1d9a,Avarello,45.747116,4.8235,Italian Restaurant
118,45.744,4.8190333333333335,20,12,4f89b7a7e4b05ae8891bd497,Sushi Shop,45.74148488241868,4.817117598330828,Sushi Restaurant
119,45.744,4.8190333333333335,20,13,4f7c99aee4b043bd2b81f0ac,Woko,45.741276350570104,4.817477371349563,Asian Restaurant
120,45.744,4.8190333333333335,20,14,5cf040b7a2c00b002ce31a21,King Tacos,45.747004,4.823491,Fast Food Restaurant
121,45.744,4.8190333333333335,20,15,56ed40a5498eefb990014102,L'atelier Du Pizzaiolo,45.74276,4.816586,Italian Restaurant
122,45.744,4.8190333333333335,20,16,512cf272e4b049302e19f397,Confluence Sushi,45.74405225485133,4.8178443715686115,Sushi Restaurant
123,45.744,4.8190333333333335,20,17,4f7eef84e4b0340b44596a9d,Zinc Zinc,45.741496389387855,4.817077885544509,French Restaurant
124,45.744,4.8190333333333335,20,18,589f1ee772714f7d35adc0a7,Coté Baptiste,45.74141,4.816879,Lyonese Bouchon
125,45.744,4.8190333333333335,20,19,4f8427ffe4b044329909b7f1,Go Mex,45.74161857861767,4.8162612017986115,Mexican Restaurant
126,45.744,4.832922222222223,22,0,5717c7fc498e1efed38a417e,Kenbo,45.747452174504694,4.835012220503289,Vietnamese Restaurant
127,45.744,4.832922222222223,22,1,5dc710531a71960007941512,Toké,45.747831,4.834107,Empanada Restaurant
128,45.744,4.832922222222223,22,2,511b754be4b0284831685656,Pres Food,45.74776650447492,4.833719638478935,Asian Restaurant
129,45.744,4.832922222222223,22,3,4fbe0e23e4b00c059c544a39,Meza,45.746984,4.837597,Mediterranean Restaurant
130,45.744,4.832922222222223,22,4,5259b52311d2ea8f306ad6d8,Le Jardin des Délices,45.74480868268751,4.832496694242205,Wine Bar
131,45.744,4.832922222222223,22,5,551d6445498eced0164aa1f9,Stamtich,45.747208072406195,4.83563070949966,French Restaurant
132,45.744,4.832922222222223,22,6,4cfe1d28c51fa1cd3689f42b,Parterre & Balcon,45.74716412382878,4.836450650141166,French Restaurant
133,45.744,4.832922222222223,22,7,4df50a55ae609e69dd9f1107,Restaurant Le Tournesol,45.744654,4.832216,French Restaurant
134,45.744,4.832922222222223,22,8,4fe0b3f5e4b06e104f92f915,L embarcadere,45.748182328211904,4.832548960615985,French Restaurant
135,45.744,4.832922222222223,22,9,4e778ecb1838f9188ac2dac5,Le Lac Des Brumes,45.74763357177396,4.83434122800181,Chinese Restaurant
136,45.744,4.832922222222223,22,10,531c1d00498e0de8e1a8d46d,Le Gold Lounge,45.74746710184712,4.832644522672721,Mediterranean Restaurant
137,45.744,4.832922222222223,22,11,55f9af5f498eca43b79988ea,Les Ventres Jaune,45.748188,4.834866,French Restaurant
138,45.744,4.832922222222223,22,12,59287a84c21cb17f34e6cff4,Du Monde Ailleurs,45.745323,4.827399,Lebanese Restaurant
139,45.744,4.832922222222223,22,13,5f2536d986c65e79bd465ee4,Odília Restaurant,45.747803,4.834414,Brazilian Restaurant
140,45.744,4.832922222222223,22,14,4cb83401a33bb1f7fefc7efd,L'Escale du Farge,45.743722,4.83504,French Restaurant
141,45.744,4.832922222222223,22,15,4eb43b39469073bbc59f6f7e,Pizzdelice,45.74832139414561,4.8318917600640425,Italian Restaurant
142,45.744,4.832922222222223,22,16,5265718111d2f51f73bdb391,le bouchon lyonnais,45.74621345787034,4.8290849155555,Lyonese Bouchon
143,45.744,4.832922222222223,22,17,5c4afcf167a9fe002cc60098,Fresh Burritos,45.746832,4.837078,Burrito Place
144,45.744,4.832922222222223,22,18,4cb2eb0539458cfaa96016a0,Café 7e Art,45.7470964318489,4.835644123914979,French Restaurant
145,45.744,4.832922222222223,22,19,5b25806cf5e9d7002c49dd11,Trattino,45.74222,4.833929,Italian Restaurant
146,45.744,4.832922222222223,22,20,59523cd06fd6260cbff16425,Môt Hai Ba Viêt Nam,45.747066,4.8375435,Vietnamese Restaurant
147,45.744,4.832922222222223,22,21,5763d1f8498e7856b227d47d,Nekoba,45.746647,4.8368435,Japanese Restaurant
148,45.744,4.846811111111111,17,0,5e78da8b9df02200086e4cfd,Sushi Shop,45.74731163695692,4.842822681102148,Sushi Restaurant
149,45.744,4.846811111111111,17,1,5b8bff71dd70c5002c0cb5ad,Oba! Especialidades Do Brasil,45.745613,4.841627,Brazilian Restaurant
150,45.744,4.846811111111111,17,2,5ee27b06538c415c62ab7f17,Hubster Urban Beer,45.74447,4.842477,Labour Canteen
151,45.744,4.846811111111111,17,3,4f6b0bb6e4b0c122efd28e4f,Zagros,45.74539566040039,4.841769695281982,Middle Eastern Restaurant
152,45.744,4.846811111111111,17,4,4c91f737b641236a5e998579,Victoria Hall,45.74626242171318,4.850514157994526,Modern European Restaurant
153,45.744,4.846811111111111,17,5,52e64743498e6c57a8d4db75,Restaurant Chez Adolf,45.746832425425865,4.8454390460601795,German Restaurant
154,45.744,4.846811111111111,17,6,592dc7a29deb7d7d29cfcd80,Quick China,45.74535,4.849283,Chinese Restaurant
155,45.744,4.846811111111111,17,7,4bf56be5ff90c9b616595628,Casa Flavio,45.745455990815394,4.8485156759858645,Italian Restaurant
156,45.744,4.846811111111111,17,8,51e81c27498ee3e0aa6bed54,Verso,45.747176,4.843573,French Restaurant
157,45.744,4.846811111111111,17,9,4ce26e44ffcf37045d732b82,Le Jaboulay,45.745723,4.845601,French Restaurant
158,45.744,4.846811111111111,17,10,4f69b6d7e4b0b5805836f809,Bocadillo'z,45.745830077541974,4.841647070090153,Taco Place
159,45.744,4.846811111111111,17,11,4f50bb66e4b0771bcce62dee,la colline d or,45.74543748519908,4.849628130646882,Chinese Restaurant
160,45.744,4.846811111111111,17,12,4bc844892f94d13a5140137f,Les Vieilles Canailles,45.745425438859606,4.849605560302734,French Restaurant
161,45.744,4.846811111111111,17,13,4c349ec7452620a1e860250f,Café De La Mairie,45.74582862096052,4.8419434819653375,French Restaurant
162,45.744,4.846811111111111,17,14,4ceba9eff3bda143b4f5cce4,Indian Prince 2,45.745126,4.841967,Indian Restaurant
163,45.744,4.846811111111111,17,15,58cbe09c084be5199d1b2592,Minute Asia,45.745716,4.8413963,Chinese Restaurant
164,45.744,4.846811111111111,17,16,4e67b15e227151797049b0e7,Le Condé,45.74539130716779,4.847436164886247,French Restaurant
165,45.744,4.8607000000000005,9,0,4d3d67e08edf3704864db9a5,Le Zagros II,45.74562010293846,4.864668846130371,Mediterranean Restaurant
166,45.744,4.8607000000000005,9,1,55689fe7498e6e608ef21121,Senkichi,45.74581387144554,4.86391780126828,Japanese Restaurant
167,45.744,4.8607000000000005,9,2,4bf3c963cad2c928f51c9b99,Ferme Montplaisir,45.74559,4.865573,French Restaurant
168,45.744,4.8607000000000005,9,3,4cc31d5342d1b60cdf131513,Auberge savoyarde,45.744989,4.865981,French Restaurant
169,45.744,4.8607000000000005,9,4,51432a55e4b02fe84b6930ee,King Tacos,45.74086893304982,4.861784990165322,Burrito Place
170,45.744,4.8607000000000005,9,5,516e8454e4b0d46e67644290,le lyon atlas,45.745704650878906,4.8642096519470215,French Restaurant
171,45.744,4.8607000000000005,9,6,55ce36fe498e9cfb37f4f56a,Ahika,45.74510440828084,4.866419417943338,Japanese Restaurant
172,45.744,4.8607000000000005,9,7,525d2075498ef8e0667a5d9a,King Delice,45.747938,4.86023,Taco Place
173,45.744,4.8607000000000005,9,8,4e85975a2c5b1f256f0705c4,La Capitale,45.745198653047474,4.866493108482292,Chinese Restaurant
174,45.744,4.87458888888889,14,0,5af9fa0b4c954c002c62e3da,Bintje & Zoet,45.74374537013071,4.873074527225947,Belgian Restaurant
175,45.744,4.87458888888889,14,1,4c7f749401df37043a31e6ac,Pizzeria Don Vito,45.74374749713058,4.873181234912002,Italian Restaurant
176,45.744,4.87458888888889,14,2,4c4c1512c668e21e6ff5fcfa,Le Bistrot Autrement,45.74371503886243,4.873068123016842,French Restaurant
177,45.744,4.87458888888889,14,3,4f76ae0ee4b0f52db85ea294,Café de l'Industrie,45.743709075109855,4.873070407541364,Brasserie
178,45.744,4.87458888888889,14,4,526bb87511d20543ad595688,Marguerite Restaurant,45.74380145109593,4.873010062290365,French Restaurant
179,45.744,4.87458888888889,14,5,5447f98b498e25a5f1197875,Cha-ya - Bar à riz,45.74322372303994,4.870620877385647,Japanese Restaurant
180,45.744,4.87458888888889,14,6,4d8b29c94757721e4d4cc569,La Table De Guy,45.743604,4.877929,French Restaurant
181,45.744,4.87458888888889,14,7,53b178cc498e1ac3c135af37,TOUTANCANON,45.7468972,4.8776936,French Restaurant
182,45.744,4.87458888888889,14,8,58cd91a32ec364667433be30,Momotaro,45.742775,4.869646,Japanese Restaurant
183,45.744,4.87458888888889,14,9,4cd52c2b89eb6dcb22ea261e,Marche De Montchat Pl Du Chateau,45.7460598793472,4.87813805191149,French Restaurant
184,45.744,4.87458888888889,14,10,4ec8fb41b634b2fd7632e073,Le Maryse Bastié,45.740819216578274,4.874400998308499,French Restaurant
185,45.744,4.87458888888889,14,11,4c80c57247cc224bb9b5759f,Le Genova,45.743082,4.878269,Italian Restaurant
186,45.744,4.87458888888889,14,12,4e00df237d8beaa1649de696,Le Temps D'1 Pause,45.742401606192104,4.8696592514506545,French Restaurant
187,45.744,4.87458888888889,14,13,5e2197aeec265b0008283284,Chez Vianney Apero (Chez Vianney Apero Villeurbanne),45.7465273,4.8778112,Food & Drink Shop
188,45.744,4.888477777777778,1,0,5d19fe6be7e5fc0023e0fa8c,Le Rockefeller,45.740316,4.888693,French Restaurant
189,45.744,4.930144444444445,1,0,52b96adf498e457db013c914,wok et grill,45.742801666259766,4.931137561798096,Asian Restaurant
190,45.754000000000005,4.7357000000000005,1,0,4b65658cf964a52070ef2ae3,La Cascade,45.75553414153899,4.7391626861834,French Restaurant
191,45.754000000000005,4.763477777777778,1,0,520b6ff911d241b063070c1e,sixt on me,45.75083,4.760216,American Restaurant
192,45.754000000000005,4.777366666666667,1,0,52f614a4498e1b5057c003a5,Léa passion,45.755418,4.772542,French Restaurant
193,45.754000000000005,4.805144444444445,1,0,4bbb845de436ef3b7e6f5564,Villa Florentine,45.75588590447958,4.802943431629898,French Restaurant
194,45.754000000000005,4.8190333333333335,10,0,4bbdaf888a4fb71303383d9d,Reflets d'Asie,45.7533492154958,4.821216493962208,Chinese Restaurant
195,45.754000000000005,4.8190333333333335,10,1,55ab9de0498e7472d5c1889a,La Petite Auberge,45.755347823294315,4.8161607320422375,Savoyard Restaurant
196,45.754000000000005,4.8190333333333335,10,2,548414b2498ee5d2bdd0699e,La Movida,45.750247,4.821509,Tapas Restaurant
197,45.754000000000005,4.8190333333333335,10,3,4d2e11ffd9d8a1436929f6d7,Carré Saône,45.753318756849424,4.8239183910997765,French Restaurant
198,45.754000000000005,4.8190333333333335,10,4,4f30fc68e4b0e6be3a9a57b3,Self du lycée St Just,45.757021956315754,4.821118900739551,Arepa Restaurant
199,45.754000000000005,4.8190333333333335,10,5,5149e33be4b00d7f777dc481,Woko,45.752185,4.817006,Asian Restaurant
200,45.754000000000005,4.8190333333333335,10,6,4c9b287e78ffa093ee597275,Chez Gustave,45.752861104264156,4.822233659593679,French Restaurant
201,45.754000000000005,4.8190333333333335,10,7,4feca584e4b0186db01cdd9e,Le Jardin De Chine,45.753014601560665,4.822112960904624,Chinese Restaurant
202,45.754000000000005,4.8190333333333335,10,8,4eda078fbe7be283373ebd4c,Le Temps D'une Pause,45.756974368936035,4.816184785048628,French Restaurant
203,45.754000000000005,4.8190333333333335,10,9,51db058b498ed397c26bf936,Classico,45.755647,4.815926,Taco Place
204,45.754000000000005,4.832922222222223,50,0,4bc0e710f8219c74a073b210,Le Sud,45.75625708386564,4.835592282071567,French Restaurant
205,45.754000000000005,4.832922222222223,50,1,536bd017498ea4a63f6e54f5,Institut Paul Bocuse,45.75634616738288,4.833203852176666,French Restaurant
206,45.754000000000005,4.832922222222223,50,2,5616c139498e8cef15b2c038,Two Amigos,45.752985,4.828409,Mexican Restaurant
207,45.754000000000005,4.832922222222223,50,3,4c87d4a413e3b1f74b6fd446,Shalimar,45.751000325400675,4.832253208590458,Indian Restaurant
208,45.754000000000005,4.832922222222223,50,4,59217f136a59500d5bb61402,Tony's,45.75655240126166,4.834430614782916,Italian Restaurant
209,45.754000000000005,4.832922222222223,50,5,4b6b12a1f964a520e9f02be3,Pizza Pino,45.758087203240116,4.833727510765925,Pizza Place
210,45.754000000000005,4.832922222222223,50,6,5bbf2cdce4c459002c2f4c82,Pitaya,45.756753,4.8345,Thai Restaurant
211,45.754000000000005,4.832922222222223,50,7,4be31023f07b0f4782fcf643,Sushi Shop,45.75778783663039,4.836025439269438,Sushi Restaurant
212,45.754000000000005,4.832922222222223,50,8,4c7825e4df08a1cd236bd65d,La pêche aux moules,45.7575175015429,4.834837923516218,Seafood Restaurant
213,45.754000000000005,4.832922222222223,50,9,5172db71498e182062642e9a,l endroit,45.75595474243164,4.836810111999512,French Restaurant
214,45.754000000000005,4.832922222222223,50,10,5d73d91440cb880007f54319,Nativo,45.752795,4.832701,Latin American Restaurant
215,45.754000000000005,4.832922222222223,50,11,4bbce081f57ba593575eadb9,Au Petit Snack,45.754807,4.837749,French Restaurant
216,45.754000000000005,4.832922222222223,50,12,4dde3759d4c01aeee8f75017,Patabar,45.756777,4.82866,Italian Restaurant
217,45.754000000000005,4.832922222222223,50,13,5beec125d807ee002c54fae0,Fromagerie Mons Charité,45.75163863155889,4.831036627292633,Cheese Shop
218,45.754000000000005,4.832922222222223,50,14,542fcade498e9bcafb2525f1,Minh Huy,45.75605223023568,4.836834528528727,Asian Restaurant
219,45.754000000000005,4.832922222222223,50,15,4de76f661f6ed9a35eef6d2e,La Cantine Des Mamans,45.757552890644675,4.833044721691236,French Restaurant
220,45.754000000000005,4.832922222222223,50,16,54675afe498e6755a131386b,Le Comptoir d'Ainay,45.752784729003906,4.830143928527832,French Restaurant
221,45.754000000000005,4.832922222222223,50,17,598da46e9de23b5c0facedcf,Takumi,45.751821,4.831174,Japanese Restaurant
222,45.754000000000005,4.832922222222223,50,18,5614f412498e98f7d5fc5ddf,Smør & brød,45.753705,4.828973,Scandinavian Restaurant
223,45.754000000000005,4.832922222222223,50,19,4c0a37f56071a5939327df32,Chez Fyfy,45.757059380238296,4.83471891129269,Japanese Restaurant
224,45.754000000000005,4.832922222222223,50,20,508d979b498edfd685dcf285,Restaurant Japonais,45.75480500781184,4.8338630886111025,Sushi Restaurant
225,45.754000000000005,4.832922222222223,50,21,4d7b6f1273ca54812b094b7c,La Loggia,45.75442276791992,4.830971400874366,Italian Restaurant
226,45.754000000000005,4.832922222222223,50,22,5b111ba1724750002caef228,Vatel Gourmet,45.75017954046873,4.829574823379517,French Restaurant
227,45.754000000000005,4.832922222222223,50,23,516e7c67498ebc58f2e3d0c5,Bouchon Chabert et Fils,45.756745,4.834553,Lyonese Bouchon
228,45.754000000000005,4.832922222222223,50,24,4f1ef04ae4b0d72e6bb54437,Les Mascareignes,45.75737750712256,4.834614954500181,Chinese Restaurant
229,45.754000000000005,4.832922222222223,50,25,4bb73ace46d4a593b932c7c0,Le Bouchon des Carnivores,45.756855294979076,4.834628638072104,Lyonese Bouchon
230,45.754000000000005,4.832922222222223,50,26,5d1b4b217226a50023a28445,Restaurant Ju Yi,45.751322,4.829735,Chinese Restaurant
231,45.754000000000005,4.832922222222223,50,27,4bc07891461576b06f277a32,Le Comptoir des Marronniers,45.756943,4.834609,French Restaurant
232,45.754000000000005,4.832922222222223,50,28,4c54111a1b46c9b6d045f8cd,La Mère Jean,45.75733335315966,4.834873407493695,French Restaurant
233,45.754000000000005,4.832922222222223,50,29,56a60e86498e2d6b37a0c42e,Gustave,45.756927,4.834713,French Restaurant
234,45.754000000000005,4.832922222222223,50,30,4cd3168d536654819b4e25ed,L'impératoire,45.752634,4.832776,French Restaurant
235,45.754000000000005,4.832922222222223,50,31,560fc26d498ec3694284a732,Macanudo,45.753689,4.838476,Latin American Restaurant
236,45.754000000000005,4.832922222222223,50,32,4d8a49111508a1435b7c211e,Aux 3 Cochons,45.75701979309383,4.834700499227967,French Restaurant
237,45.754000000000005,4.832922222222223,50,33,4c659ac47abde21e572e6168,L'atelier d'Yvonne,45.75721533586412,4.834775896415186,French Restaurant
238,45.754000000000005,4.832922222222223,50,34,5d053053c0af570039ae5d89,La Table D’ambre,45.75194,4.830667,French Restaurant
239,45.754000000000005,4.832922222222223,50,35,4b8af35ff964a520db8a32e3,L'Espace Brasserie,45.75708375547618,4.831098538453105,French Restaurant
240,45.754000000000005,4.832922222222223,50,36,4b9abb19f964a520b2d035e3,Yokohama,45.751397440273955,4.830008270214028,Japanese Restaurant
241,45.754000000000005,4.832922222222223,50,37,4f3e756ae4b0abb6d6a09cb0,Durden Café,45.75572304475441,4.827428238026045,Café
242,45.754000000000005,4.832922222222223,50,38,5a9fba9c61f070399d61abc4,Gabriella – Le Clan des Mamma,45.75316094168665,4.832121312601884,Italian Restaurant
243,45.754000000000005,4.832922222222223,50,39,4cf3ff0f94feb1f72aad25ba,Escale à Belle-Île,45.757213909704376,4.834774058314121,French Restaurant
244,45.754000000000005,4.832922222222223,50,40,4be1562fa7380f47edb619b0,Troquet des Sens,45.75257086211157,4.831631263417191,French Restaurant
245,45.754000000000005,4.832922222222223,50,41,4b4b3e7df964a5205e9526e3,Instant Fromage,45.75407342036798,4.831794863713198,Wine Bar
246,45.754000000000005,4.832922222222223,50,42,4e255d02d22df6f888786528,Gepetto,45.75669087893019,4.834564548093853,Italian Restaurant
247,45.754000000000005,4.832922222222223,50,43,55ec227e498e9e55d01d7109,Bistrot La Varenne,45.75328633297471,4.833088517189026,French Restaurant
248,45.754000000000005,4.832922222222223,50,44,4c4f38c2eaa1be9a551b9645,Restaurant Jofé,45.753889,4.82881,French Restaurant
249,45.754000000000005,4.832922222222223,50,45,4ee12b17722e9d45c4cc83eb,Le Vivarais,45.75362320369677,4.833061695098877,French Restaurant
250,45.754000000000005,4.832922222222223,50,46,58a2117675e1376c7f06d26e,Pizzeria Napoli Chez Nicolo & Franco Morreale,45.75204490719394,4.830511581619738,Italian Restaurant
251,45.754000000000005,4.832922222222223,50,47,4ca3172fd7c337048e919d62,Le Petit Grain,45.7533014267685,4.831912852593311,Asian Restaurant
252,45.754000000000005,4.832922222222223,50,48,4bf7cd2ab182c9b60e41765a,Au Vilain Petit Canard,45.75220833299955,4.830164909362793,French Restaurant
253,45.754000000000005,4.832922222222223,50,49,4b9388e5f964a520654734e3,Chez Mounier,45.757466185735446,4.834852715853726,French Restaurant
254,45.754000000000005,4.846811111111111,50,0,4d7bbdf086cfa143c8f2baa0,Restaurant Semazen,45.756864691225616,4.848561818839721,Turkish Restaurant
255,45.754000000000005,4.846811111111111,50,1,4bc86f8c14d79521430469e9,Bistrot des Maquignons,45.750963368339605,4.848279163374855,French Restaurant
256,45.754000000000005,4.846811111111111,50,2,5a46653517556227e4e3946d,Restaurant Tanit,45.754612,4.843478,Mediterranean Restaurant
257,45.754000000000005,4.846811111111111,50,3,4ba4bc65f964a5205cb038e3,4 Pates,45.753666,4.849091,Italian Restaurant
258,45.754000000000005,4.846811111111111,50,4,5249b707498e98101f04fb98,Tai Thu,45.75496985788363,4.840628435362335,Asian Restaurant
259,45.754000000000005,4.846811111111111,50,5,4cf55c181801a143f305e3d4,Le Petit Carron,45.75287973293992,4.852723198038106,Lyonese Bouchon
260,45.754000000000005,4.846811111111111,50,6,5096cfa0e4b09283709ae3db,Restaurant Istanbul 3,45.751836,4.845776,Turkish Restaurant
261,45.754000000000005,4.846811111111111,50,7,4c8d215555fba0934aa065ab,Imouto,45.75426151986009,4.840708593399828,Japanese Restaurant
262,45.754000000000005,4.846811111111111,50,8,5d276d43bbf1bd002348ed4c,La Raffinerie,45.758339,4.846181,Tapas Restaurant
263,45.754000000000005,4.846811111111111,50,9,4b5825eaf964a520394c28e3,Doshilack,45.75283135336592,4.84102521503997,Korean Restaurant
264,45.754000000000005,4.846811111111111,50,10,56a11ef8498efce151a74995,Il Padre,45.75229,4.846245,Italian Restaurant
265,45.754000000000005,4.846811111111111,50,11,4bd56f116f64952168026fec,Umai,45.75155019278926,4.851582687692138,Sushi Restaurant
266,45.754000000000005,4.846811111111111,50,12,4bc36b02461576b01c9c7e32,Au Wasabi,45.753306,4.846272,Japanese Restaurant
267,45.754000000000005,4.846811111111111,50,13,4d93053b14228cfaf1a3587b,Couleur Figue,45.751739,4.84578,French Restaurant
268,45.754000000000005,4.846811111111111,50,14,4f930a07e4b0e8f4655b09bf,Restaurant Mimosa,45.75099015473421,4.845523791755796,Turkish Restaurant
269,45.754000000000005,4.846811111111111,50,15,5cf8c7303731ee002bc45ad1,Garbadrome,45.75037,4.8502984,African Restaurant
270,45.754000000000005,4.846811111111111,50,16,5a7991d45f68b9539a0fab79,Chez Hafsi,45.756523,4.843866,Persian Restaurant
271,45.754000000000005,4.846811111111111,50,17,4ded282152b13dda25dad4d1,La Jonque d'Or,45.75449991211964,4.840918133785901,Vietnamese Restaurant
272,45.754000000000005,4.846811111111111,50,18,5bb398fa2aff31003983bf7b,3L Café,45.753044,4.845255,Tapas Restaurant
273,45.754000000000005,4.846811111111111,50,19,576d9f9fcd10b950ef1d2c25,Le Palais des Tajines,45.751161,4.850538,Moroccan Restaurant
274,45.754000000000005,4.846811111111111,50,20,58591b0e1ac00444a801c136,Tandoori Hot,45.75524764063349,4.842122197151183,Indian Restaurant
275,45.754000000000005,4.846811111111111,50,21,50c33a7ae4b0c7bb3fc891cf,Viêtnam City,45.75497,4.840823,Vietnamese Restaurant
276,45.754000000000005,4.846811111111111,50,22,4bc057b574a9a593fdebcff6,San Parteo,45.752923,4.852935,Italian Restaurant
277,45.754000000000005,4.846811111111111,50,23,5b1131ae31ac6c00395f410a,Indian Cantine,45.756966,4.849147,Indian Restaurant
278,45.754000000000005,4.846811111111111,50,24,4ba7d5eaf964a520a1b739e3,Amilcar II,45.753412,4.841421,Doner Restaurant
279,45.754000000000005,4.846811111111111,50,25,4bc9fa340687ef3ba1ecdacc,Restaurant Zeitouna,45.754823,4.842371,Kebab Restaurant
280,45.754000000000005,4.846811111111111,50,26,4e7b83c37d8b3763347c74b0,Saveurs Orientales,45.753517,4.841118,Middle Eastern Restaurant
281,45.754000000000005,4.846811111111111,50,27,547a18f8498ecc35f9992430,Thanh-Binh,45.753752,4.848773,Vietnamese Restaurant
282,45.754000000000005,4.846811111111111,50,28,4bc972533740b713cecc5e65,Brasserie Jean Jaures,45.751118,4.845303,French Restaurant
283,45.754000000000005,4.846811111111111,50,29,51859bec498e08949d0da80c,Perle Caspienne,45.756871,4.849176,Eastern European Restaurant
284,45.754000000000005,4.846811111111111,50,30,4e46e06518a8f9804ccf20e1,Jonathilde's,45.751342,4.850654,Argentinian Restaurant
285,45.754000000000005,4.846811111111111,50,31,551d63a8498ebe1e5d513ed5,Pimment & Citronnelle Thaï Café,45.75190888486669,4.846837520599365,Thai Restaurant
286,45.754000000000005,4.846811111111111,50,32,4b6d78e9f964a520b6762ce3,Indo Café,45.75077131925276,4.844088618264232,Vietnamese Restaurant
287,45.754000000000005,4.846811111111111,50,33,4d03ebd7347da1cd638f288f,Piment et Citronnelle,45.75181112921925,4.847179195857364,Thai Restaurant
288,45.754000000000005,4.846811111111111,50,34,5f58cb41a7ab455193a16e9a,Air Du Pays,45.75363,4.8413754,Middle Eastern Restaurant
289,45.754000000000005,4.846811111111111,50,35,4e4ef2c781dcf21a878e1e7a,Thê' Vân,45.75494068677049,4.841084257290988,Asian Restaurant
290,45.754000000000005,4.846811111111111,50,36,4ee1fc5b722e9d45c5806a48,Traiteur-charcuterie Patisserie Bruno Morel,45.7564850281231,4.848082273600262,French Restaurant
291,45.754000000000005,4.846811111111111,50,37,4d7f55bf2ff9b60cc59cbb47,Uskudar,45.75338859108527,4.840839282268476,Doner Restaurant
292,45.754000000000005,4.846811111111111,50,38,4e909bca02d5ee38b6db8095,A La Guill'on Dine,45.752837967626434,4.845383664927317,French Restaurant
293,45.754000000000005,4.846811111111111,50,39,4c8fc634160ea093fc24d1fc,Saigon Gourmet,45.754977343312625,4.840644035872717,Vietnamese Restaurant
294,45.754000000000005,4.846811111111111,50,40,4bbcd2b68a4fb7130c363c9d,Loco Latino,45.753826,4.840421,Dive Bar
295,45.754000000000005,4.846811111111111,50,41,5b0e8a356eda0200395bed28,Namasté,45.756709,4.850911,Indian Restaurant
296,45.754000000000005,4.846811111111111,50,42,56af47cb498eba0099b8e759,Pho 69,45.754112,4.84116,Vietnamese Restaurant
297,45.754000000000005,4.846811111111111,50,43,589e0f0b076be12e03cbb8eb,O Thai,45.752054,4.851978,Thai Restaurant
298,45.754000000000005,4.846811111111111,50,44,5cc03cd4ecb3ed0025c4af13,O Ma Café,45.753971,4.841551,Vietnamese Restaurant
299,45.754000000000005,4.846811111111111,50,45,4d0d2d1d8010548165171d96,Les Marmottes,45.754852,4.847604,French Restaurant
300,45.754000000000005,4.846811111111111,50,46,52697cdd11d260bd4c2ccd12,Table Exotique,45.749981,4.846205,African Restaurant
301,45.754000000000005,4.846811111111111,50,47,4ffc7e6ce4b079b51e7ae13f,Le Palais de Chine,45.752919114622216,4.849962589613709,Chinese Restaurant
302,45.754000000000005,4.846811111111111,50,48,4e84504482310f57323100a0,Hervé Et Sophea,45.754467481797015,4.850402083950297,French Restaurant
303,45.754000000000005,4.846811111111111,50,49,4d28d084b818a35dcbeb988a,Oto Oto,45.75415257313632,4.841021473628344,Japanese Restaurant
304,45.754000000000005,4.8607000000000005,29,0,516541d1e4b060e54c39bfb5,Lello,45.75691827655761,4.864312246724414,Italian Restaurant
305,45.754000000000005,4.8607000000000005,29,1,4c9c834c0e9bb1f72513d45f,Restaurant Le Danton,45.755982,4.857486,French Restaurant
306,45.754000000000005,4.8607000000000005,29,2,5596a5d9498ea6213a0d29bf,Puerto Argentino Restaurant & épicerie,45.7565306,4.85570400000006,Argentinian Restaurant
307,45.754000000000005,4.8607000000000005,29,3,56e164e4498e6ba95c70939d,Piquin,45.756212,4.856583,Mexican Restaurant
308,45.754000000000005,4.8607000000000005,29,4,4f214042e4b0c3e5eee65b39,Puerto Argentino,45.756541891298625,4.855721399090551,Argentinian Restaurant
309,45.754000000000005,4.8607000000000005,29,5,5c8c006f1f7440002c1678bd,Gang CHEN,45.757702920998256,4.858352243900299,Japanese Restaurant
310,45.754000000000005,4.8607000000000005,29,6,5c2332c547f876002cc3d1ff,Roi Alexandre,45.754184,4.86426,Russian Restaurant
311,45.754000000000005,4.8607000000000005,29,7,4d777f4478d5a093615b8072,Brasserie de La Villette,45.757255187178835,4.8625111289571095,French Restaurant
312,45.754000000000005,4.8607000000000005,29,8,57ecf29d498e1648f1f0736a,Miss Saïgon,45.75674,4.85886,Vietnamese Restaurant
313,45.754000000000005,4.8607000000000005,29,9,5683cd47498e88060abb8852,Coeur de Blé,45.75633,4.85868,French Restaurant
314,45.754000000000005,4.8607000000000005,29,10,5e6a26c8bd23420008c311c0,Ato Sushi,45.75674,4.8585935,Sushi Restaurant
315,45.754000000000005,4.8607000000000005,29,11,4d5a62c08492a143e0703227,Vertige,45.755871,4.85737,French Restaurant
316,45.754000000000005,4.8607000000000005,29,12,5416a0b9498ec48c3de01c77,vert tige,45.75567058534929,4.857265949249268,French Restaurant
317,45.754000000000005,4.8607000000000005,29,13,5a7b6b01dd844241c13f4053,Siam Bistrot,45.756252,4.857526,Thai Restaurant
318,45.754000000000005,4.8607000000000005,29,14,4e2e9157483b93c2f2d6192e,Concert De Wok,45.7563885659302,4.863462070604473,Asian Restaurant
319,45.754000000000005,4.8607000000000005,29,15,4cb6dde4589f236ace5c3a3d,Grand Café De L'abondance,45.753936767578125,4.85470712184906,French Restaurant
320,45.754000000000005,4.8607000000000005,29,16,4cac55dc76d3a0939a7e306b,Le Familial,45.75712988547217,4.858507073224256,Greek Restaurant
321,45.754000000000005,4.8607000000000005,29,17,5c7fae531822230025f0b368,Le Cour 10,45.75598,4.857312,French Restaurant
322,45.754000000000005,4.8607000000000005,29,18,531639f7498e0377e0db7b52,Petit Ogre,45.756067327036135,4.855940937995911,Modern European Restaurant
323,45.754000000000005,4.8607000000000005,29,19,531f637c498e864011b3ae84,miko sushi,45.75436118022239,4.864673514058261,Japanese Restaurant
324,45.754000000000005,4.8607000000000005,29,20,5d66706fe1edd60008c5756c,Teppanyaki,45.756714,4.855626,Asian Restaurant
325,45.754000000000005,4.8607000000000005,29,21,5a8730e6b9a5a8062d0e3d9e,Double 7,45.755821,4.859144,French Restaurant
326,45.754000000000005,4.8607000000000005,29,22,4d8dce9c1716a143ec7221f7,Courtepaille,45.7573901070315,4.85778208847485,BBQ Joint
327,45.754000000000005,4.8607000000000005,29,23,4c233f9399282d7f794d68b0,Restaurant Ô Sidney,45.75248532109202,4.8598408699035645,French Restaurant
328,45.754000000000005,4.8607000000000005,29,24,4c4433ad74ffc928892b75cc,Le Scuzi,45.75758206570666,4.858492299756207,Italian Restaurant
329,45.754000000000005,4.8607000000000005,29,25,52fcb66d498e6603cd7efcd4,puerto del argentina,45.756177,4.856023,Argentinian Restaurant
330,45.754000000000005,4.8607000000000005,29,26,50d2f803e4b08f48950ef5d8,Tuyet Nhi,45.75714078508715,4.858854861325136,Chinese Restaurant
331,45.754000000000005,4.8607000000000005,29,27,5afc5408a22db7002c018ff6,Le Vivier Merle,45.756797,4.858703,Brasserie
332,45.754000000000005,4.8607000000000005,29,28,51c493de498e8400f2033743,Brasserie de l'Abondance,45.753875732421875,4.854599952697754,Bar
333,45.754000000000005,4.87458888888889,4,0,50a14f17e4b0872dbeddadee,Goût De Bollywood,45.755837,4.87663,Indian Restaurant
334,45.754000000000005,4.87458888888889,4,1,50cec934e4b0aceb63801581,Indian food center,45.75633195443295,4.870350407973939,Indian Restaurant
335,45.754000000000005,4.87458888888889,4,2,5b071fc40d173f0039f4bb2c,Chez Ado Life 2,45.752897,4.869651,Doner Restaurant
336,45.754000000000005,4.87458888888889,4,3,4b744e5bf964a52005d42de3,La Baie d'Halong,45.755352441392766,4.875912666320801,Vietnamese Restaurant
337,45.754000000000005,4.888477777777778,5,0,4e917e1877c89cb9221ff230,Le Chateau,45.75003854169481,4.887734422204883,Italian Restaurant
338,45.754000000000005,4.888477777777778,5,1,546f26b9498eb0b497208efe,L'italiano Vero,45.754356732445,4.886691656549091,Italian Restaurant
339,45.754000000000005,4.888477777777778,5,2,54a85685498eae35a2eb0601,Sushi Love,45.75070171828782,4.888419806957245,Sushi Restaurant
340,45.754000000000005,4.888477777777778,5,3,4ecf7f72e5faa5ec01ad1339,Evidences,45.75057737188826,4.889341882503477,French Restaurant
341,45.754000000000005,4.888477777777778,5,4,53667a95498ecbb366934bac,Cappadoce,45.75713704373028,4.887139804484351,Taco Place
342,45.764,4.777366666666667,9,0,4f462187e4b00ed049e9ad16,Sushi Shop,45.764203809414255,4.781980531200101,Sushi Restaurant
343,45.764,4.777366666666667,9,1,4ef3aa3eb8f77e0f972dbafd,Locolez,45.76455174062667,4.775492322601891,Tapas Restaurant
344,45.764,4.777366666666667,9,2,5b37d1ecda7080002c24429d,Tasty,45.764425,4.781919,Taco Place
345,45.764,4.777366666666667,9,3,50c1d8c4e4b0de95d2652511,L'horloge Gourmande,45.764608398421935,4.780661007935522,French Restaurant
346,45.764,4.777366666666667,9,4,51c44186498e932cae680d7b,La cambuse à Arlette,45.763687242059746,4.782311151139053,French Restaurant
347,45.764,4.777366666666667,9,5,4ff4305ce4b0956dd3d1b434,Brasserie Halles,45.76235375358876,4.778834256018906,French Restaurant
348,45.764,4.777366666666667,9,6,523db5eb11d2beb0a307dac2,Restaurant Tarabya (vdc),45.764173,4.782963,Turkish Restaurant
349,45.764,4.777366666666667,9,7,554dd8fa498eadf2d066da2a,Le Patio,45.764228,4.778979,Italian Restaurant
350,45.764,4.777366666666667,9,8,5fb3e45a5858a34bc2acdd2c,Sushiman,45.762138,4.778756,Japanese Restaurant
351,45.764,4.805144444444445,2,0,4ff4632ad86ca0c9389872e6,LES TOURNESOLS,45.76810672113713,4.803643226623535,French Restaurant
352,45.764,4.805144444444445,2,1,4d6d429cedc26dcb420bc7a4,Nouveau Saigon,45.766744,4.800975,Chinese Restaurant
353,45.764,4.8190333333333335,5,0,4c7bda92bd346dcb5561fcef,Petit Zinc,45.76750719696851,4.821372381687147,French Restaurant
354,45.764,4.8190333333333335,5,1,4deb65cd88774880e335187d,Le Coquemar,45.76168765130163,4.82234098678291,French Restaurant
355,45.764,4.8190333333333335,5,2,528297f5498e86c6cdfd7e2c,Le Tire Bouchon,45.766149,4.823955,Lyonese Bouchon
356,45.764,4.8190333333333335,5,3,518fe212498ecb09155561d7,Restaurant du Boeuf,45.76615,4.823955,Chinese Restaurant
357,45.764,4.8190333333333335,5,4,4b9a27d4f964a520baa135e3,Le Contretête,45.76667350706988,4.820691347122192,French Restaurant
358,45.764,4.832922222222223,50,0,4d1e7f555c4ca1cd763f913d,Boston Tavern,45.767546528459846,4.833037916981663,Pub
359,45.764,4.832922222222223,50,1,5740d305498e91e770532496,Hard Rock Café Lyon,45.7630007,4.8379483,American Restaurant
360,45.764,4.832922222222223,50,2,4dce810a52b1f8915b975791,Les Muses de l'Opéra,45.767671024242055,4.8360319691069975,French Restaurant
361,45.764,4.832922222222223,50,3,501d491be4b01ea6a2237166,L'Institution,45.76334789516171,4.83580729229014,French Restaurant
362,45.764,4.832922222222223,50,4,5cc354b5ed293a002b485d1d,La Grenade,45.767025,4.836862,Mediterranean Restaurant
363,45.764,4.832922222222223,50,5,511689fde4b0f0411f3ddd02,Yaafa,45.76747141526251,4.831746690120228,Falafel Restaurant
364,45.764,4.832922222222223,50,6,4c13d053a5eb76b0ab9dc0b7,Le Mont Liban,45.76360474571316,4.832467982784331,Lebanese Restaurant
365,45.764,4.832922222222223,50,7,5867ebff45c3ed5c6abec655,Chez Marie,45.76364,4.828145,Lyonese Bouchon
366,45.764,4.832922222222223,50,8,4c6ee3aa9375a093c33e0237,Le Laurencin,45.76319628133412,4.827998828951128,French Restaurant
367,45.764,4.832922222222223,50,9,4c4cb895e7049c743d5d7b65,Les Enfants Terribles,45.762489745019245,4.832846296185814,French Restaurant
368,45.764,4.832922222222223,50,10,4bdaf355c79cc928c85c80e9,Grand Café des Négociants,45.763361607386784,4.834397728320508,Lounge
369,45.764,4.832922222222223,50,11,4b8038fdf964a520185e30e3,Léon de Lyon,45.76589177088347,4.833454394100101,French Restaurant
370,45.764,4.832922222222223,50,12,5144bbe6e4b0380b548edbf8,Le Panier du Chef,45.762540171582316,4.8275749830367065,French Restaurant
371,45.764,4.832922222222223,50,13,4d7fbe65564b8cfafdaa0b65,Le Musée,45.76470420119588,4.834464066051043,Lyonese Bouchon
372,45.764,4.832922222222223,50,14,5e0b4172dfbd920008f12fa3,Les Flaconneurs Bistro,45.766779,4.837133,French Restaurant
373,45.764,4.832922222222223,50,15,5bd1a40ad1a402002c5a714f,Bouchon Tupin,45.762842,4.834863,Lyonese Bouchon
374,45.764,4.832922222222223,50,16,559f9c06498e84d2099b4120,La Maison Marie,45.762923749296405,4.833058457793413,French Restaurant
375,45.764,4.832922222222223,50,17,5198c2e1498e01d904ddaaa1,Le Bistrot De Cuisiniers,45.76265157418205,4.832794414562661,French Restaurant
376,45.764,4.832922222222223,50,18,55d4e388498ee25b69e9f1c0,Carnet Gourmand,45.76501443242975,4.835066835009671,Chinese Restaurant
377,45.764,4.832922222222223,50,19,4c7eb811fb13a1cd70889ea4,Le Tire Bouchon,45.762715279796616,4.82720982773085,Lyonese Bouchon
378,45.764,4.832922222222223,50,20,568fa25a498ea01b8760218f,Ramen Djizan,45.767154,4.829782,Ramen Restaurant
379,45.764,4.832922222222223,50,21,4b4cddf6f964a52050c226e3,Chez Paul,45.76667624333183,4.8327767380706,French Restaurant
380,45.764,4.832922222222223,50,22,5f400e1d24b6ac29b3691bf0,Bouchon Bât-d’Argent,45.766161,4.837061,French Restaurant
381,45.764,4.832922222222223,50,23,5f33d09bb97cd61290fff35d,Woko,45.764159,4.835721,Asian Restaurant
382,45.764,4.832922222222223,50,24,4c797d1097028cfac354dbfe,Chez Carlo,45.76228009426328,4.835348767709174,Italian Restaurant
383,45.764,4.832922222222223,50,25,4c07fac9340720a16a688293,Le Layon Restaurant,45.76275567669135,4.832809990026085,French Restaurant
384,45.764,4.832922222222223,50,26,5db147c03a03fc00086d77cd,"Focaccia, I Sapori Italiani",45.766705,4.8359423,Italian Restaurant
385,45.764,4.832922222222223,50,27,56027a97498ec7fbc491e838,Le Bouchon des Cordeliers,45.764309614627905,4.837581425139053,Lyonese Bouchon
386,45.764,4.832922222222223,50,28,51576adae4b0715458de8b7e,La Chimère,45.76296910093715,4.827221407087786,French Restaurant
387,45.764,4.832922222222223,50,29,514ca46be4b0c959327a0ca2,Lem sushi,45.7635612487793,4.837630748748779,Japanese Restaurant
388,45.764,4.832922222222223,50,30,55f47205498e7cc71af97a2f,La Bijouterie,45.768036117393045,4.830747253632454,French Restaurant
389,45.764,4.832922222222223,50,31,5e5ab46030aaeb0008ae9063,Caramelo,45.765309,4.834987,Italian Restaurant
390,45.764,4.832922222222223,50,32,4b77f13bf964a52094af2ee3,Le Mercière,45.7627,4.832545,French Restaurant
391,45.764,4.832922222222223,50,33,4be7f742947820a18f46b4db,Riviere Kwaï,45.765023534332464,4.832312528908809,Thai Restaurant
392,45.764,4.832922222222223,50,34,4de4c4d552b1d38d29a4341e,Aux Trois Maries,45.76323885341654,4.828363892408686,French Restaurant
393,45.764,4.832922222222223,50,35,5584779a498e1ed8955587e6,les pâtes vivantes,45.764147,4.832352,Chinese Restaurant
394,45.764,4.832922222222223,50,36,5aa130a816fa045db5246610,Crazy Dog,45.767677,4.833228,American Restaurant
395,45.764,4.832922222222223,50,37,56f90f41498e515598b6da67,Etcheberry Table Basque,45.7623455758416,4.835261106491089,Spanish Restaurant
396,45.764,4.832922222222223,50,38,514a15fae4b061d1ac90054b,Restaurant Les Loges,45.763327,4.827133,French Restaurant
397,45.764,4.832922222222223,50,39,4c571d8a6418a59378a27e0e,Pizzeria Carlino,45.76659949751269,4.835879751956537,Italian Restaurant
398,45.764,4.832922222222223,50,40,5b635296ee7120002ca3289c,Café Lisboa,45.762424,4.834592,Portuguese Restaurant
399,45.764,4.832922222222223,50,41,4bf6d2964a67c928b17922cf,La Meunière,45.76522562396956,4.835338352456442,French Restaurant
400,45.764,4.832922222222223,50,42,5c92a669088158002b5fd3c0,Hape,45.767866,4.830721,French Restaurant
401,45.764,4.832922222222223,50,43,4df3500e6284fefe8fc1c706,Le Ré-Confort,45.759930497359825,4.834536650161063,French Restaurant
402,45.764,4.832922222222223,50,44,4e0c4ac945dd7a490b056413,Les Pavés de Saint-Jean,45.7628867067004,4.827846593395778,French Restaurant
403,45.764,4.832922222222223,50,45,53c1794f498ed00b79a6bc63,meiji era,45.761815,4.834422,Japanese Restaurant
404,45.764,4.832922222222223,50,46,5220796411d2fec26300b305,Gangnam,45.761599,4.833772,Sushi Restaurant
405,45.764,4.832922222222223,50,47,4c7559f12db5236a7ac1bc79,Les Petits Siamois,45.762477,4.835333,Thai Restaurant
406,45.764,4.832922222222223,50,48,4f6de391e4b0725b618a7fe3,Fuxia,45.76168422163643,4.832497798079527,Deli / Bodega
407,45.764,4.832922222222223,50,49,4bcdfe01f1819521123a5404,Le Bistrot de Lyon,45.76210063447085,4.8327988386154175,French Restaurant
408,45.764,4.846811111111111,50,0,4c2fbc4416adc928ed1dbe9c,La Barge,45.76460531135291,4.840717007603091,Cocktail Bar
409,45.764,4.846811111111111,50,1,5f31299836142511bd23abb9,Yuzuya,45.759843,4.848989,Japanese Restaurant
410,45.764,4.846811111111111,50,2,4c7d4f215af8b60c01348f10,Daniel & Denise Créqui,45.76227315198743,4.84717278456722,Lyonese Bouchon
411,45.764,4.846811111111111,50,3,4e1c1c1d18386ff9be66d99a,Resto Halle,45.76254890513587,4.850582064550979,French Restaurant
412,45.764,4.846811111111111,50,4,4e1c369581dc8ea8b58cd873,Jour de Marché,45.766778286369444,4.842309951782227,French Restaurant
413,45.764,4.846811111111111,50,5,50576747e4b0ed8a09a0cf0e,La Table 101,45.76168129381367,4.850174188613892,French Restaurant
414,45.764,4.846811111111111,50,6,5e04b56b5ac6890008d96fd2,Toké,45.76242,4.850773,Empanada Restaurant
415,45.764,4.846811111111111,50,7,4c06b730cf8c76b0caf03a65,Yoki,45.76384212425187,4.853214529215793,Japanese Restaurant
416,45.764,4.846811111111111,50,8,5745f165498e1362731e50c4,Les Apothicaires,45.768124,4.845571,French Restaurant
417,45.764,4.846811111111111,50,9,593319085ba04607d2ffac42,Quirinale,45.767263,4.844935,Italian Restaurant
418,45.764,4.846811111111111,50,10,4cd53a887da9a35df63ae8b9,La Cuisine du Sud,45.76190797705268,4.8504752084990415,Spanish Restaurant
419,45.764,4.846811111111111,50,11,4c9b926bd4b1b1f75528da35,Grand Café de Genève,45.76782270482519,4.84411466014112,Café
420,45.764,4.846811111111111,50,12,4c4d70b392b6a59316b03f6e,L'âme soeur,45.76087548722164,4.848460548423444,French Restaurant
421,45.764,4.846811111111111,50,13,4cb73bf79c7ba35daca49706,Farfalla Caffé,45.763768318802896,4.84515255519119,Italian Restaurant
422,45.764,4.846811111111111,50,14,4da22cb57ccc816e5809637b,Le Saas,45.76709167411341,4.849882504446928,French Restaurant
423,45.764,4.846811111111111,50,15,4e269c9e18500b1821ae047e,Tomo,45.767418184249095,4.843243360519409,Japanese Restaurant
424,45.764,4.846811111111111,50,16,51892b1b498e495f215ed487,Péniche Le 15,45.76403281698498,4.840867199413941,French Restaurant
425,45.764,4.846811111111111,50,17,59d39dbd23a2e66abb440a49,Brasserie Folliet,45.760713,4.848988,Brasserie
426,45.764,4.846811111111111,50,18,4c73c11457b6a143f9dbc8cc,Val D'Isere,45.76187731776391,4.849696029216205,French Restaurant
427,45.764,4.846811111111111,50,19,4c21ec7413c00f474d9886de,Chez Les Garçons,45.76639698327172,4.842316633887897,French Restaurant
428,45.764,4.846811111111111,50,20,4f5f2dc7e4b0949d416fe292,Mitsuri,45.76613,4.850905,Japanese Restaurant
429,45.764,4.846811111111111,50,21,4bcb4656cc8cd13a4903bfcf,Matsuri Lyon Part-Dieu,45.7637695453134,4.851037859916687,Japanese Restaurant
430,45.764,4.846811111111111,50,22,4bbc66c8afe1b713dc50304b,La Cavale,45.759736,4.847655,French Restaurant
431,45.764,4.846811111111111,50,23,4e8e023c61afe70d47832d61,Home Sushi,45.76797678572556,4.845412221526868,Sushi Restaurant
432,45.764,4.846811111111111,50,24,56fd5e1f498e67bc6f439f1d,Le Book-Lard,45.765613969354945,4.848080295724159,French Restaurant
433,45.764,4.846811111111111,50,25,5311d456498e215173e3d664,DELICES D'ASIE,45.763468,4.851949,Nail Salon
434,45.764,4.846811111111111,50,26,5d52fca630bd490008ff4947,Konnichiwa Sushi,45.767777,4.84517,Sushi Restaurant
435,45.764,4.846811111111111,50,27,541dc952498ebd85faa0b04c,OK sushi,45.766159,4.851364,Sushi Restaurant
436,45.764,4.846811111111111,50,28,4bebc6fc6295c9b6d5128808,Oly Cafe,45.763683915138245,4.84171450138092,French Restaurant
437,45.764,4.846811111111111,50,29,4e69eb31b0fb8b8a83f424c1,L'alexandrin,45.760930926291735,4.849254190921783,French Restaurant
438,45.764,4.846811111111111,50,30,4d3191b18c42a1cdaec0df5d,Le Bistrot du Palais,45.76047233072329,4.848793164179049,French Restaurant
439,45.764,4.846811111111111,50,31,57f4dfe8498e32f67bc4d36e,Kalamis Restaurant,45.76362,4.8488765,Turkish Restaurant
440,45.764,4.846811111111111,50,32,4d08f5b8cda254811fd42f65,Moulinette,45.760226,4.846644,French Restaurant
441,45.764,4.846811111111111,50,33,4d00d25921ea6ea8f5da439f,Restaurant Chinois Mirama,45.766582,4.850525,Asian Restaurant
442,45.764,4.846811111111111,50,34,4c0e9bd97189c92848c7d8b6,Bo Sushi,45.76739802171279,4.84760982430577,Japanese Restaurant
443,45.764,4.846811111111111,50,35,553c299b498e2ed1f1af23f7,The Hot Dog Father,45.76354874822298,4.842664003372192,American Restaurant
444,45.764,4.846811111111111,50,36,4fa50e5fe4b0fd4c3eae8c32,La Petite Maison Thai,45.768106050491006,4.845172958271357,Thai Restaurant
445,45.764,4.846811111111111,50,37,4b6d7a06f964a5200a772ce3,Giraudet - Les Halles de Lyon,45.76237908481758,4.850614588738617,French Restaurant
446,45.764,4.846811111111111,50,38,4c29e4ddfe6e2d7f8971553c,Delice d'asie,45.7626,4.851845,Chinese Restaurant
447,45.764,4.846811111111111,50,39,4e062dd3ae60a90eabc121a8,Le Sass,45.76644378485858,4.850600670355811,Italian Restaurant
448,45.764,4.846811111111111,50,40,56b33b18498ebefebbf0df1c,Bistrot Bonnet,45.76197157237854,4.850506968368665,French Restaurant
449,45.764,4.846811111111111,50,41,4ba0cb6bf964a5200a7e37e3,Le Bistro D'en Face,45.759917,4.848512,French Restaurant
450,45.764,4.846811111111111,50,42,51063fb7e4b022bf09aebb6a,Régal Exotic,45.76687167353219,4.84193655811273,African Restaurant
451,45.764,4.846811111111111,50,43,5034f18de4b0c1befd9d1723,Le Cameleon,45.76490476199996,4.843520775697315,African Restaurant
452,45.764,4.846811111111111,50,44,51e449af498ea66549bdf12a,Baronn,45.76282494609847,4.8464917209632565,French Restaurant
453,45.764,4.846811111111111,50,45,4ffd6574e4b0184d35c3bc18,Restaurant Dersim,45.76360321044922,4.852021217346191,Middle Eastern Restaurant
454,45.764,4.846811111111111,50,46,4c52aacdb6dabe9aa670b813,Neogusti,45.761425495147705,4.850136637687683,Italian Restaurant
455,45.764,4.846811111111111,50,47,4eaa9b1c77c850207ed5867c,Chez eux - Restaurant,45.760042472510065,4.847718970369801,French Restaurant
456,45.764,4.846811111111111,50,48,4c0d392d2466a593e1407721,River Boat,45.76266301963978,4.840710781284183,French Restaurant
457,45.764,4.846811111111111,50,49,4ed2295a6c2510ace30a4aa4,Le Comptoir des Halles,45.763173481649176,4.850508311233751,Tapas Restaurant
458,45.764,4.8607000000000005,50,0,59afe8714a1cc04ca9ab29aa,Big Fernand,45.7636,4.85695,Burger Joint
459,45.764,4.8607000000000005,50,1,4ba26e6bf964a52069f837e3,L'Est,45.76753235437938,4.85927130377885,French Restaurant
460,45.764,4.8607000000000005,50,2,5b9c091d5455b20039b1849e,Kaffee Berlin,45.767123,4.857099,Burger Joint
461,45.764,4.8607000000000005,50,3,5041ee0ce4b0b174483e5092,Waffle Factory,45.76150192932797,4.856110288318295,Belgian Restaurant
462,45.764,4.8607000000000005,50,4,50014a4ee4b0ebdd728f1675,Bagelstein,45.7619033,4.85694078,Bagel Shop
463,45.764,4.8607000000000005,50,5,4c7b8e2876ce9c7450e4b70c,Planet Sushi,45.767096371945485,4.856759523394262,Sushi Restaurant
464,45.764,4.8607000000000005,50,6,4c08d3307e3fc928c2dff082,Le Boudoir,45.766756788047026,4.859416040809096,French Restaurant
465,45.764,4.8607000000000005,50,7,560a673c498e4e43bb4b7860,l'Argot,45.76712865881095,4.8562669935733505,French Restaurant
466,45.764,4.8607000000000005,50,8,4dba55234b22153e34b0e2b9,Novotel Café,45.75990337234817,4.8585970841157975,French Restaurant
467,45.764,4.8607000000000005,50,9,4f2bc21ce4b0de3552d917c7,Madoka,45.76614879465978,4.856010971736368,Sushi Restaurant
468,45.764,4.8607000000000005,50,10,52cfe26e498ec0999f88ece9,namdo,45.76364517211914,4.855172157287598,Vietnamese Restaurant
469,45.764,4.8607000000000005,50,11,57306d25498eb9b09844a556,Caffe di Pasta,45.762482,4.857664,Italian Restaurant
470,45.764,4.8607000000000005,50,12,5a390fc3a423620be3311f22,La Casa Vito,45.767188,4.856247,Italian Restaurant
471,45.764,4.8607000000000005,50,13,4bd6b6525631c9b6d73aa630,Chez Paolino,45.7637162564102,4.864553817222388,Pizza Place
472,45.764,4.8607000000000005,50,14,4bc99a2b68f976b0408c5d83,Café des Vosges,45.76119477238126,4.859154224395752,Café
473,45.764,4.8607000000000005,50,15,53b5149d498e3b8ad1e15d80,Green is Better,45.76077814148434,4.860697352984296,French Restaurant
474,45.764,4.8607000000000005,50,16,4ea70d1ab8f7ff211a4f8790,Le Bistrot de Lyon,45.76015873135116,4.86206486238157,French Restaurant
475,45.764,4.8607000000000005,50,17,4ca22ffff832a1cdd7f792e5,6eme Sens,45.76540851833233,4.857076495591879,French Restaurant
476,45.764,4.8607000000000005,50,18,4b7bd301f964a5208b6f2fe3,Au Rendez-Vous des Amis,45.76386409200249,4.863700089969443,Diner
477,45.764,4.8607000000000005,50,19,5807cab338fa7c1a4a09b2d9,Restaurant Yummy Yummy,45.76357868686272,4.855002164840698,Chinese Restaurant
478,45.764,4.8607000000000005,50,20,5c824f642f97ec002c49e293,Rose De Damas,45.766304,4.86457,Syrian Restaurant
479,45.764,4.8607000000000005,50,21,4d888e52bc848cfad0adae2b,Pasta Bella,45.763913659615206,4.862574488594614,Italian Restaurant
480,45.764,4.8607000000000005,50,22,4b6b04f5f964a520feec2be3,La Louve Romaine,45.768039,4.859175,Italian Restaurant
481,45.764,4.8607000000000005,50,23,4cf389b3899c6ea87bf5fbc1,Sushi King,45.761505398093135,4.856021404266357,Japanese Restaurant
482,45.764,4.8607000000000005,50,24,4cd9342e5e1b721e82d13dd9,O! Pate Thai,45.763788256891054,4.856257438659668,Thai Restaurant
483,45.764,4.8607000000000005,50,25,5cdd4d0db6eedb002cf71b59,La Tablature,45.76419,4.856277,French Restaurant
484,45.764,4.8607000000000005,50,26,4d3ac243beb7b1f7b98aec71,Le Pompei,45.76376946714971,4.866819495395373,Italian Restaurant
485,45.764,4.8607000000000005,50,27,506a8cb3f2e73a33df867b9e,Délices de Shandong,45.76386310313896,4.858371019363403,Asian Restaurant
486,45.764,4.8607000000000005,50,28,5911ae1a8134886a0fe4c164,Brasserie Jullien,45.766198,4.856898,Brasserie
487,45.764,4.8607000000000005,50,29,4d761c2f48b7f04daa44f0f5,Sette Bis,45.763580770000516,4.857652285171843,French Restaurant
488,45.764,4.8607000000000005,50,30,521dd68c11d2ea69341cac04,Milonga,45.76648292322471,4.855729674145776,Argentinian Restaurant
489,45.764,4.8607000000000005,50,31,4c755dc4b474a1cd1a0fb9bf,Dionysos,45.76740856,4.85734073,Greek Restaurant
490,45.764,4.8607000000000005,50,32,5832d87e102f4749ce7b0e5d,Comptoir de Beyrouth,45.763588,4.866868,Middle Eastern Restaurant
491,45.764,4.8607000000000005,50,33,5e46866fe193bd00080d6702,Big Tacos,45.76334,4.8569584,Taco Place
492,45.764,4.8607000000000005,50,34,4ea7e6a1e5fa472d645c3414,Japon Tori,45.76615713988966,4.857526995427975,Japanese Restaurant
493,45.764,4.8607000000000005,50,35,4de4c633d164df8575311512,Neroliva,45.764293162303424,4.854391852537898,Italian Restaurant
494,45.764,4.8607000000000005,50,36,4d499dca11a36ea8a2c2291c,Neosushi,45.76153995106266,4.856395643515547,Japanese Restaurant
495,45.764,4.8607000000000005,50,37,592566f966f3cd5217002a9a,Panzerotti Amo,45.764015,4.8555894,Italian Restaurant
496,45.764,4.8607000000000005,50,38,4d5e783a5c39b1f764e2eb49,Veng Hour,45.761581,4.856245,Vietnamese Restaurant
497,45.764,4.8607000000000005,50,39,545a3f81498e9503433f91bf,Le Central,45.76417651670121,4.862051445799874,French Restaurant
498,45.764,4.8607000000000005,50,40,523833fd11d2883153a90418,Taksim Café,45.76315,4.855248,Moroccan Restaurant
499,45.764,4.8607000000000005,50,41,4b6c16abf964a5203d232ce3,Le Splendid,45.767200752888975,4.858938413078629,French Restaurant
500,45.764,4.8607000000000005,50,42,4dde2f1ffa769803ef8b209c,Thaï in box,45.766512255958624,4.865379788181197,Thai Restaurant
501,45.764,4.8607000000000005,50,43,4c6413f5de1b2d7f7642e670,Brasserie Orgelion,45.763711,4.857373,French Restaurant
502,45.764,4.8607000000000005,50,44,57e58c8e498e88140a8398e7,kuma isakaya,45.765678,4.854948,Udon Restaurant
503,45.764,4.8607000000000005,50,45,4b697650f964a5204ba32be3,Les Intimes,45.76660316961736,4.857049628858695,French Restaurant
504,45.764,4.8607000000000005,50,46,52c60b25498e76307b04277f,Fringale et Pépie,45.7657178,4.8549292,French Restaurant
505,45.764,4.8607000000000005,50,47,56a2231f498ef61d4a057f88,Le Napolitain,45.76675957579468,4.8557209968566895,Italian Restaurant
506,45.764,4.8607000000000005,50,48,4cc017499ca854814323ba16,Bistro Lafayette,45.7636816365014,4.8554695062686495,French Restaurant
507,45.764,4.8607000000000005,50,49,5cf7a16160255e002c5b6097,O'Hasard,45.765076,4.8569527,Brasserie
508,45.764,4.87458888888889,14,0,56d9a0ad498e07b12161b828,CAFE KASHMIR,45.76335328,4.87503249,Restaurant
509,45.764,4.87458888888889,14,1,4e0c5796c65bd1c17b6cd36a,L'Arc En Ciel,45.765448808670044,4.871509175,French Restaurant
510,45.764,4.87458888888889,14,2,4f75a28ae4b07eec2058b851,Magenta,45.76460030997495,4.871823108366407,French Restaurant
511,45.764,4.87458888888889,14,3,55e5d34d498e427758677f9f,Comme un Goût de Paradis,45.763458361965554,4.870636647844173,Comfort Food Restaurant
512,45.764,4.87458888888889,14,4,50ba0241e4b09e5761fad100,Villa Urbana,45.765316009521484,4.880352020263672,Italian Restaurant
513,45.764,4.87458888888889,14,5,5405e556498ed90785a08cd6,kebab le palmier d'or,45.76383590698242,4.872012615203857,Doner Restaurant
514,45.764,4.87458888888889,14,6,4f1b179be4b0838231c0202f,Mika sushi,45.767672131090364,4.878143525415782,Sushi Restaurant
515,45.764,4.87458888888889,14,7,4d721f9a5f0037042a90daa0,La Caveja,45.764243,4.874298,Italian Restaurant
516,45.764,4.87458888888889,14,8,4ce3b9aac36ba35dbf4071f6,Le Morgon,45.765140846558644,4.868733174754715,French Restaurant
517,45.764,4.87458888888889,14,9,50fed4e7e4b0870dc13ed970,Wissem Snack,45.763790460200866,4.869792385173731,Taco Place
518,45.764,4.87458888888889,14,10,4ec5117bd3e3098aeb15963c,Aspendos,45.76615376548221,4.870640751595006,Middle Eastern Restaurant
519,45.764,4.87458888888889,14,11,598452e6db1d816c648ad009,Le Venise,45.76387,4.8724113,French Restaurant
520,45.764,4.87458888888889,14,12,56ae6a04498eba0098a3ea98,royal kahn's tandoori,45.762617,4.878895,Indian Restaurant
521,45.764,4.87458888888889,14,13,5079a5c3e4b05b62b32c8651,Le Dragon D'or,45.76482830749856,4.8715893231345655,Chinese Restaurant
522,45.764,4.888477777777778,9,0,4c61275513791b8d192f51af,Restaurant Indian Prince,45.76430513430363,4.890607329942385,Indian Restaurant
523,45.764,4.888477777777778,9,1,56ad1e9a498e73225c10a51e,la marmite,45.764238,4.889274,French Restaurant
524,45.764,4.888477777777778,9,2,5d31a7afe43d930008ac0a01,Philanthrope,45.763477,4.8846483,French Restaurant
525,45.764,4.888477777777778,9,3,58b801554f106962738395e2,Le Bistrot D'Alexis,45.76558,4.884288,French Restaurant
526,45.764,4.888477777777778,9,4,4eb43c09be7bfc2849c73fec,El Chiringuito,45.759945202062504,4.891081515277525,Spanish Restaurant
527,45.764,4.888477777777778,9,5,4d9f598da428a1cd475bc604,Le Village Indien,45.76384387413117,4.892258138910927,Indian Restaurant
528,45.764,4.888477777777778,9,6,4e7f0169722efeb8458d27c3,Eclair Kebab 99,45.76184093154759,4.887241741081704,Greek Restaurant
529,45.764,4.888477777777778,9,7,508bb06be4b0988211899c84,Vietnam Delices,45.763863,4.892293,Vietnamese Restaurant
530,45.764,4.888477777777778,9,8,4f650f477bebfc2254cc7769,Tonnerre de Brest,45.76789716733179,4.888486862182617,French Restaurant
531,45.764,4.902366666666667,2,0,50d0bad1e4b00bede4fc903c,Krusty Burger,45.764599315334806,4.899968466860637,Taco Place
532,45.764,4.902366666666667,2,1,51212d8ee4b0d6061b36bbf0,KINGSTONE Indian Tandoori,45.76703572174679,4.901270644161548,Indian Restaurant
533,45.764,4.916255555555556,9,0,4c6ecdc3e6b7b1f708b1ad8e,Del Arte,45.76481586837274,4.9205793562992035,Italian Restaurant
534,45.764,4.916255555555556,9,1,53c25fa7498ec863e5cd439d,La Tagliatella,45.76449724438391,4.919310317943488,Italian Restaurant
535,45.764,4.916255555555556,9,2,4b7d9529f964a5201ec82fe3,New Saigon,45.764723827772535,4.918903112411499,Vietnamese Restaurant
536,45.764,4.916255555555556,9,3,4d9d91f98efaa143dce667b7,O Sushi,45.764639479094896,4.921729,Sushi Restaurant
537,45.764,4.916255555555556,9,4,52ceaf6e11d24e44c59313c8,La Bastide,45.764495849609375,4.918445587158203,French Restaurant
538,45.764,4.916255555555556,9,5,5d44ed53735c2d0007a790ff,La Pataterie,45.76473,4.9213,French Restaurant
539,45.764,4.916255555555556,9,6,4bd81271e914a593835d52fa,Hippopotamus,45.76487,4.92166,BBQ Joint
540,45.764,4.916255555555556,9,7,5c3e0060a0215b003a9393b4,Au Bureau Vaulx-en-Velin,45.76524603331596,4.921819895089129,French Restaurant
541,45.764,4.916255555555556,9,8,5950f95c59fe5c1c5d3b8fc7,Tacos Avenue,45.764356,4.919983,Taco Place
542,45.764,4.9440333333333335,1,0,4f4b6c03e4b096208a8e7ccf,Le Wilson,45.76795953555808,4.943273273818829,French Restaurant
543,45.764,4.971811111111111,1,0,510aaa16e4b0987e69bd2d40,le verso,45.76362049466314,4.972402641860608,French Restaurant
544,45.774,4.763477777777778,4,0,536ce362498eefea43e679cc,Institut Paul Bocuse,45.777716140550524,4.765791001607926,French Restaurant
545,45.774,4.763477777777778,4,1,52fe53c1498e78f43a1dab6c,EatGallery,45.77683,4.766716,French Restaurant
546,45.774,4.763477777777778,4,2,5331ca51498e097b068dcfc1,Delicatesse,45.777085,4.766733,French Restaurant
547,45.774,4.763477777777778,4,3,52c54a0c498e003863bd1b04,piazzapapa,45.778194427490234,4.764003753662109,Italian Restaurant
548,45.774,4.777366666666667,1,0,4db94b131e7206c23d1956c4,Le Village,45.77409443514708,4.779474138738044,French Restaurant
549,45.774,4.791255555555556,2,0,51fd4cfa498e91fb5cb51d1f,La Coll'inn,45.772064,4.791413,French Restaurant
550,45.774,4.791255555555556,2,1,4b9e2f5bf964a52023d036e3,Les Destinations Gourmandes,45.77330278026404,4.787720839819314,French Restaurant
551,45.774,4.805144444444445,38,0,4e4cfe7f1f6e4ff50fdbaac1,Mezzo Di Pasta,45.774950874186025,4.805484967299472,Italian Restaurant
552,45.774,4.805144444444445,38,1,4f6ba8c1e4b08a0bb8820e3a,Le Pas Sage,45.77254461881608,4.810703228694726,Caribbean Restaurant
553,45.774,4.805144444444445,38,2,4eab193b7ee5cd8bcdbef40d,L'quinoxe,45.77439623214061,4.803625939804944,Swiss Restaurant
554,45.774,4.805144444444445,38,3,4dc59a65e4cd169dc65162e4,Grain De Riz,45.77148556000856,4.805471326768782,Chinese Restaurant
555,45.774,4.805144444444445,38,4,4d553042611aa35dc3c73139,Pot d'Anne,45.77488685869771,4.807119369506836,French Restaurant
556,45.774,4.805144444444445,38,5,57feaff7498e08ef6ffca071,Home Sushi,45.7758,4.800604,Japanese Restaurant
557,45.774,4.805144444444445,38,6,52ec0291498eb0aaba054dc0,Naruto Sushi,45.775396464655444,4.804289009883082,Japanese Restaurant
558,45.774,4.805144444444445,38,7,4d4c3ce57d2ccbff43090800,Cane e Gatti,45.77183105399165,4.804096135400079,Italian Restaurant
559,45.774,4.805144444444445,38,8,4e5202186365e1419d04120d,Francesca Ristorante,45.77105535906226,4.8030853271484375,Italian Restaurant
560,45.774,4.805144444444445,38,9,4cd5e20bab19a093ae1042eb,Le Monde D'Angkor,45.777628723672514,4.806299888086949,Asian Restaurant
561,45.774,4.805144444444445,38,10,53677396498e3b3ee0f8adba,my kebab,45.77294589984078,4.809803931976263,Mediterranean Restaurant
562,45.774,4.805144444444445,38,11,526581bb11d2f8e62a99aa0a,Taco's House,45.77380286585523,4.808313972960708,Burrito Place
563,45.774,4.805144444444445,38,12,516af0b9498e075ac3cff1d1,Vaise Impériale,45.77783351963971,4.8031360779945285,Asian Restaurant
564,45.774,4.805144444444445,38,13,5220800a11d26c5ffaf1a162,Yamato,45.77139902712715,4.8056691460906,Japanese Restaurant
565,45.774,4.805144444444445,38,14,4d2388ed0e998cfab0dd1b3f,Le Jardin D'à Côté,45.774095024809505,4.805166792674405,French Restaurant
566,45.774,4.805144444444445,38,15,50f53aede4b057c419cd87af,La Mia Cucina,45.77106520564888,4.802778611881655,Italian Restaurant
567,45.774,4.805144444444445,38,16,4c10c2ed81e976b0a8950feb,La Gré Des Jours,45.76952865952604,4.805605459058953,French Restaurant
568,45.774,4.805144444444445,38,17,5ac21ca748b04e466dde6103,L'absolu,45.774605,4.805537,French Restaurant
569,45.774,4.805144444444445,38,18,4b2b7f76f964a520ddb624e3,L'Assiette du Marché,45.774496141825246,4.807015424774194,French Restaurant
570,45.774,4.805144444444445,38,19,5936ef4eb9a5a87f308cf71e,Le Tiroir,45.774466,4.807036,French Restaurant
571,45.774,4.805144444444445,38,20,4e3285a86284e26999477976,D'Ailleurs et d'Autre part,45.77376754047797,4.810095927133269,French Restaurant
572,45.774,4.805144444444445,38,21,50f4f15ce4b042a2fb6d42a1,Évasion sucrée salée,45.7779557,4.8073064,French Restaurant
573,45.774,4.805144444444445,38,22,5dcbde6bd71632000826230a,Big Fernand,45.771312,4.805188,Burger Joint
574,45.774,4.805144444444445,38,23,560ae437498e8c933e426a15,Rose Indien,45.776023,4.800447,Indian Restaurant
575,45.774,4.805144444444445,38,24,4d11f09cffa1224b4b8d95ad,Domeva Caffé,45.77733767264587,4.804237829197015,Italian Restaurant
576,45.774,4.805144444444445,38,25,4f88813ee4b0a95f930bec28,L'Esprit Bistrot,45.771684107189444,4.803934699379395,French Restaurant
577,45.774,4.805144444444445,38,26,56460853498eefbc51edfe97,Goodie Goodies,45.774612769986824,4.80668513923309,Wine Bar
578,45.774,4.805144444444445,38,27,50b144a2e4b042e7818a8118,Pasta & Baci,45.77469,4.80809,Italian Restaurant
579,45.774,4.805144444444445,38,28,5005aedee4b0d989bafa951c,Orange à la Canelle,45.776540145232445,4.804212357082266,Moroccan Restaurant
580,45.774,4.805144444444445,38,29,5082f266e4b094820a51c6eb,Restaurant Mevlana,45.77328353947548,4.809939342499091,Turkish Restaurant
581,45.774,4.805144444444445,38,30,5d9320a172cad9000784b12a,Tacos Story,45.77586,4.805011,Taco Place
582,45.774,4.805144444444445,38,31,5882157903cf2556a1fbc336,INDIAN HAVELI,45.775859658499286,4.80526328086853,Indian Restaurant
583,45.774,4.805144444444445,38,32,5a4f6c923d479178c370b0b5,Grand Café De La Place,45.772666,4.80502,Café
584,45.774,4.805144444444445,38,33,51ba0440498ea9e17d774474,Le Saint Didier,45.77285513363536,4.806996986134809,Seafood Restaurant
585,45.774,4.805144444444445,38,34,514305fce4b0e8b142b8e7a4,Le Palais de l'Inde,45.7742380467714,4.805125278485211,Indian Restaurant
586,45.774,4.805144444444445,38,35,4ef341490e617e29c7fe79b4,Au Gre Des Jours,45.773524874786766,4.806847792981329,French Restaurant
587,45.774,4.805144444444445,38,36,4f9e66c4e4b02aa9c186ae75,Comptoirs du 9ème,45.770076923447945,4.803775004900543,French Restaurant
588,45.774,4.805144444444445,38,37,5d93394eea47fc00076667d9,Le Bistrot Neuf,45.769886,4.803888,French Restaurant
589,45.774,4.8190333333333335,7,0,4ba3e02ff964a5202e6938e3,Baha,45.77311714143192,4.822164388067874,Vietnamese Restaurant
590,45.774,4.8190333333333335,7,1,4ed6850f9a529c405bdbc770,Intuition,45.7740087,4.813024,French Restaurant
591,45.774,4.8190333333333335,7,2,4c46d15d972c0f4773c22121,Bistrot du Boulevard,45.77319457844009,4.821893926169834,French Restaurant
592,45.774,4.8190333333333335,7,3,4de7e1f57d8b1f2dd2a332e5,Sakura,45.77345937109693,4.8226369659246275,Sushi Restaurant
593,45.774,4.8190333333333335,7,4,4e8f4b91e5fa2c09eae0c122,Café Papon,45.773896,4.821668,Swiss Restaurant
594,45.774,4.8190333333333335,7,5,4fa182f8e4b000b3050eeceb,Cucina Don,45.77261653023212,4.816281059923076,American Restaurant
595,45.774,4.8190333333333335,7,6,4f72da20e4b05b6a687913cb,Urinoir,45.773096,4.822268,Arepa Restaurant
596,45.774,4.832922222222223,50,0,4da736ab04377705c309c6ca,Café de la Soie,45.77788918105673,4.834665987843311,French Restaurant
597,45.774,4.832922222222223,50,1,52f12a2b498e9faae234a922,Bistrot Jutard,45.77458004908644,4.830905199050903,Bistro
598,45.774,4.832922222222223,50,2,511e993ae4b0b14e1c7f9f77,Sushi Shop,45.77550281546919,4.832115686549101,Sushi Restaurant
599,45.774,4.832922222222223,50,3,59458e04f870fd7781324d63,Chez Lucien,45.775687,4.834925,French Restaurant
600,45.774,4.832922222222223,50,4,5b586cd0a42362002b95bc04,Mubyotan,45.77475833558586,4.82806500785955,Japanese Restaurant
601,45.774,4.832922222222223,50,5,5ddd32bbbb5dd00007551744,Dr Yeast,45.77503309999999,4.831083300000046,Beer Bar
602,45.774,4.832922222222223,50,6,5973abad364d972852b06be6,L'aromatic,45.777585,4.834215,French Restaurant
603,45.774,4.832922222222223,50,7,50477fbee4b0ee5699f44459,Epicerie Comptoir,45.777709,4.834537,Tapas Restaurant
604,45.774,4.832922222222223,50,8,5bb310e6fe3740002ce7947e,Monsieur P,45.771112,4.837123,French Restaurant
605,45.774,4.832922222222223,50,9,4f7d7a6de4b0f6ec00fbb4ff,Toki sushi,45.77747612524171,4.833154380373767,Japanese Restaurant
606,45.774,4.832922222222223,50,10,5af34bd30d173f002cc7e2fe,Bistrot Orcia,45.775508,4.834965,French Restaurant
607,45.774,4.832922222222223,50,11,55dc4908498e92ab7857c9d6,Bobun boulevard,45.774109,4.828863,Vietnamese Restaurant
608,45.774,4.832922222222223,50,12,4bb5b56e2ea1952157b5aa2f,Cafe la creche,45.77536422445668,4.834627562713445,French Restaurant
609,45.774,4.832922222222223,50,13,4f7741afe4b0ca8cfccc71bd,Saveurs Exotiques,45.774756,4.828647,Indian Restaurant
610,45.774,4.832922222222223,50,14,4f214bbde4b03e0109616902,Le Côte-Rôtie,45.776626332387444,4.8349777785458805,French Restaurant
611,45.774,4.832922222222223,50,15,4bb511f6f562ef3bed702e97,Aux 3 Gaules,45.770105,4.83022,French Restaurant
612,45.774,4.832922222222223,50,16,51f01340498e58df96d2a4aa,Le Plato,45.774838891083405,4.828728082577161,French Restaurant
613,45.774,4.832922222222223,50,17,4dba9b8381548ee14d7d791c,Yo Shi,45.776792,4.833882,Japanese Restaurant
614,45.774,4.832922222222223,50,18,50433bc3e4b037986816660a,Le Jardin Des Dombes,45.77793446,4.83392129,Restaurant
615,45.774,4.832922222222223,50,19,4b8ece02f964a5203d3833e3,La Gargotte,45.77137451501115,4.837270063513551,French Restaurant
616,45.774,4.832922222222223,50,20,510973a5e4b09f3985e5e2ec,Moody's Dinner club,45.769967157456485,4.834737112606268,Tapas Restaurant
617,45.774,4.832922222222223,50,21,4c4593ff2d3ec9b6886230ae,Brasserie le commerce,45.776895,4.834894,French Restaurant
618,45.774,4.832922222222223,50,22,52af264211d22ac732b47224,yoyo,45.776677,4.835122,Asian Restaurant
619,45.774,4.832922222222223,50,23,52ececf9498eb88ebc02c69b,iberyco,45.776829,4.83228,Tapas Restaurant
620,45.774,4.832922222222223,50,24,4be5c7a22468c928238a0043,Plato Restorant,45.7748724322299,4.82891192695424,French Restaurant
621,45.774,4.832922222222223,50,25,4bae3740f964a52068933be3,Montana,45.7727740586602,4.831862037392491,Café
622,45.774,4.832922222222223,50,26,4e3ee7501838cb1b8304ac98,Bollyfood,45.771369,4.828309,Indian Restaurant
623,45.774,4.832922222222223,50,27,4ce81758b99754815f61fa44,Un Gone Au Soleil,45.775683,4.834556,French Restaurant
624,45.774,4.832922222222223,50,28,4c0168e358dbc9285d4dee6b,Le Grain De Folie,45.77670555737452,4.835820304368631,French Restaurant
625,45.774,4.832922222222223,50,29,4bdc97af2a3a0f47ea8db3b6,La Cannoise,45.77507680167656,4.830360462342377,Italian Restaurant
626,45.774,4.832922222222223,50,30,4c9b977880958cfabe134dd4,Balthaz'art,45.77329678986852,4.832121642073008,French Restaurant
627,45.774,4.832922222222223,50,31,4da9e6976e81162ae7c9b6fd,La Bodeguita Cubana,45.777788,4.829912,Cuban Restaurant
628,45.774,4.832922222222223,50,32,4d288aac3c7954810626cf9b,Iber Y Co,45.77672578600118,4.832020183755813,Spanish Restaurant
629,45.774,4.832922222222223,50,33,5187f6ce498e495f17861afb,Au Comptoir Du Vin,45.775973,4.834868,French Restaurant
630,45.774,4.832922222222223,50,34,5c76dbd2f2554e002c840047,Mojgan,45.770796,4.837173,Mediterranean Restaurant
631,45.774,4.832922222222223,50,35,5c96908e6e4650002cd891d6,Cooper Roots,45.776846,4.836161,Tapas Restaurant
632,45.774,4.832922222222223,50,36,4d573830611aa35d58814b39,Buddy Bird,45.769691,4.832157,Mexican Restaurant
633,45.774,4.832922222222223,50,37,4ea9ae48d3e3846cbc56d2d4,Tuesquina,45.77027733191313,4.831578471157081,Tapas Restaurant
634,45.774,4.832922222222223,50,38,59987c1dee628b267d418002,Au Resto',45.77366,4.834785,French Restaurant
635,45.774,4.832922222222223,50,39,50812f0fe4b0361f657c2d61,Plezo Plada,45.77661155589919,4.8331619070766605,Turkish Restaurant
636,45.774,4.832922222222223,50,40,5d64183ac40c5b0008993055,Palais de la croix rousse,45.774794,4.827834,Cambodian Restaurant
637,45.774,4.832922222222223,50,41,4e1f432e483b6e56e8384c3e,La mangue amère,45.7699,4.830343,African Restaurant
638,45.774,4.832922222222223,50,42,53bef7ee498e956106611cb4,Tokisoshi,45.775163,4.832938,Japanese Restaurant
639,45.774,4.832922222222223,50,43,4be3074521d5a593ccfd1711,Restaurant les 7 pêchés,45.77499776014079,4.8300012260249146,French Restaurant
640,45.774,4.832922222222223,50,44,5e1906df3c9c600008f3b982,La Mère Brazier,45.771441,4.837213,Gastropub
641,45.774,4.832922222222223,50,45,599451f214994602819d074a,Maison Léna,45.769915,4.834223,Ice Cream Shop
642,45.774,4.832922222222223,50,46,58ef2aca780eee54764d0d5d,Traboule Kitchen,45.76983745574432,4.83316860791092,Breakfast Spot
643,45.774,4.832922222222223,50,47,4e0f6c2445ddc2c6d181c8c8,Mon Pere Etait Limonadier,45.775928569875425,4.837019995945551,French Restaurant
644,45.774,4.832922222222223,50,48,4bc615e46c26b713a146ecf3,Au Temps Perdu,45.773608852626964,4.83721280253829,French Restaurant
645,45.774,4.832922222222223,50,49,51ba0091498eb59c5ded6856,la Cagette,45.77320817889945,4.83219830406032,Cajun / Creole Restaurant
646,45.774,4.846811111111111,19,0,506ed80fe4b0d410cdf62dc3,Le President,45.775119,4.842654,French Restaurant
647,45.774,4.846811111111111,19,1,4bd9db7b2a3a0f47c58fa8b6,Restaurant M,45.77058852220231,4.84352911190993,French Restaurant
648,45.774,4.846811111111111,19,2,4df5ee7a62e1288ed30bd6bd,Le Cadet,45.769612698509405,4.847212625792185,French Restaurant
649,45.774,4.846811111111111,19,3,57ed9f11498ee073f00e99d3,Mont Fuji,45.770654,4.843015,Ramen Restaurant
650,45.774,4.846811111111111,19,4,540e0417498e7fb90244d91b,Le Passe Temps,45.7699477671566,4.849484860897064,French Restaurant
651,45.774,4.846811111111111,19,5,520c7af311d22fa41fb59b20,La Toscane,45.7726403,4.8459516,Italian Restaurant
652,45.774,4.846811111111111,19,6,581b911e52addb15ff165ac4,El Cafetero,45.770077,4.849321,Colombian Restaurant
653,45.774,4.846811111111111,19,7,543c4e23498e0160fa4430b9,Chez Moi,45.77404321419821,4.84755024670779,French Restaurant
654,45.774,4.846811111111111,19,8,5828d3f1089b7547ddda2165,43 comptoir,45.771866,4.8487663,Jewish Restaurant
655,45.774,4.846811111111111,19,9,51387668e4b0ca7b3d7f7488,bougaci,45.776061380277525,4.841319291040692,African Restaurant
656,45.774,4.846811111111111,19,10,5d764487b4fc9c000824e012,Le Comptoir du Sixième,45.772838,4.84415,French Restaurant
657,45.774,4.846811111111111,19,11,50c87b9ae4b092bb2ffe179f,Le Lounge,45.77433,4.84656,French Restaurant
658,45.774,4.846811111111111,19,12,4d7e80d72ff9b60c4f76ad47,Le Lounge,45.775014,4.8523,French Restaurant
659,45.774,4.846811111111111,19,13,507815f7582fbec1c8cbabe8,Bistrot B,45.76951370487052,4.847073554992676,French Restaurant
660,45.774,4.846811111111111,19,14,510fb59fe4b01a7ad3536580,Le Florentin,45.771992,4.843283,Italian Restaurant
661,45.774,4.846811111111111,19,15,54874513498eb04ab9d3d427,Le Bouchon Sully,45.7707036487559,4.843912089665378,Lyonese Bouchon
662,45.774,4.846811111111111,19,16,4e6f3bc6b9933190ed64a756,L'Assiete Du Parc,45.773206,4.848382844383884,French Restaurant
663,45.774,4.846811111111111,19,17,4bbccbe907809521cdc4d991,Chez Terra,45.77007625497592,4.847029824656782,Japanese Restaurant
664,45.774,4.846811111111111,19,18,4c1bb2028b3aa593c59f975f,Casareccio,45.769586,4.84727662,Italian Restaurant
665,45.774,4.8607000000000005,25,0,4bd969722e6f0f47e2730a08,L'Alchimiste,45.776169947797804,4.86241416357761,Italian Restaurant
666,45.774,4.8607000000000005,25,1,4d39767a0333a09358f34a34,Le Béranger,45.77008,4.860842,French Restaurant
667,45.774,4.8607000000000005,25,2,4bcc331a0687ef3bf9d1decc,Le Croco,45.770347,4.861449,French Restaurant
668,45.774,4.8607000000000005,25,3,503e3434e4b03242d0a7daba,Bo Sushi,45.77240113102919,4.859565825903697,Sushi Restaurant
669,45.774,4.8607000000000005,25,4,50a79209e4b0d062c5372b76,Okawali,45.76994418418636,4.86295526173474,Japanese Restaurant
670,45.774,4.8607000000000005,25,5,4f38fa6ce4b0156e890eb421,Le Pré-Vert,45.77568535663684,4.862598093934091,French Restaurant
671,45.774,4.8607000000000005,25,6,5d2cdcae2f61e8002316f31c,Nelsao,45.771214,4.864231,Brazilian Restaurant
672,45.774,4.8607000000000005,25,7,4e5be2f662e1de72f7116c46,Mutfak,45.77193882174108,4.8655095988929595,Middle Eastern Restaurant
673,45.774,4.8607000000000005,25,8,514c49bce4b0082102652ce7,Wakai,45.77317971481201,4.8594780356969505,Japanese Restaurant
674,45.774,4.8607000000000005,25,9,4c0e246498102d7fac1ee306,Via Veneto,45.77005224984375,4.858101717178556,Italian Restaurant
675,45.774,4.8607000000000005,25,10,4f8e9cd3e4b030bfd5d7f132,la rôtisserie des petits bônes,45.770061,4.861709,French Restaurant
676,45.774,4.8607000000000005,25,11,4f46aa57e4b0f85d06113911,Shimla,45.77343635771402,4.866988562683946,Indian Restaurant
677,45.774,4.8607000000000005,25,12,4bbc67c52d9ea5937587a0ce,Mix City,45.776173944039016,4.862565994262695,French Restaurant
678,45.774,4.8607000000000005,25,13,554532f3498e3c063a10d404,Elephant,45.7747241524432,4.861240509590991,Chinese Restaurant
679,45.774,4.8607000000000005,25,14,54246931498e7ef0757080a6,sushi ramen,45.770981,4.862922,Japanese Restaurant
680,45.774,4.8607000000000005,25,15,525d164c498e8d08d4d1e792,Tout Va Bien,45.77736804269061,4.860126555951475,French Restaurant
681,45.774,4.8607000000000005,25,16,4f04a88329c2b9a3ee3f389a,Restaurant Merveille,45.772101604367215,4.865518936309556,Middle Eastern Restaurant
682,45.774,4.8607000000000005,25,17,4b73eba5f964a52028c02de3,Italiana Fabbrica,45.770377,4.861981,Italian Restaurant
683,45.774,4.8607000000000005,25,18,53ec94fd498ea213a6fee597,Box Thaï,45.77081298828125,4.861606121063232,Thai Restaurant
684,45.774,4.8607000000000005,25,19,4e67b98a8877dfcf304b894f,Spicy Tandoori,45.77273502557714,4.866360107041437,Indian Restaurant
685,45.774,4.8607000000000005,25,20,5176c5aee4b038a140241629,Restaurant Indien,45.772531332430304,4.865560658986267,Italian Restaurant
686,45.774,4.8607000000000005,25,21,557ac9b5498edbe4d7479738,La CRIGNOT-THIERS,45.770084381103516,4.861934185028076,French Restaurant
687,45.774,4.8607000000000005,25,22,4e4b9a9e1f6e2a789a891b43,Restaurant New China,45.77267979407438,4.866215248159539,Asian Restaurant
688,45.774,4.8607000000000005,25,23,4c5007092a73c928f0b2ccd1,A'petisco,45.7704,4.863235,Mediterranean Restaurant
689,45.774,4.8607000000000005,25,24,4d811c22e6d7721e1ced24c7,AyaSofya Kebab,45.77188722749964,4.863140046834207,Fast Food Restaurant
690,45.774,4.87458888888889,10,0,52f2191c498e988a43dd293f,sassoun,45.770912793075816,4.871646232460554,Mediterranean Restaurant
691,45.774,4.87458888888889,10,1,54d13146498e7fbb06c82d39,Master tacos,45.77179612148133,4.869977016674871,Taco Place
692,45.774,4.87458888888889,10,2,4fc120e5e4b08acaf4876c13,L'aligot vietnamien,45.772636600194346,4.873875598710462,Vietnamese Restaurant
693,45.774,4.87458888888889,10,3,4f4614e2e4b03c926b605280,Biogone,45.77393043937897,4.869677562352618,Filipino Restaurant
694,45.774,4.87458888888889,10,4,4f905f04e4b07a23fea39b49,Pachenguera,45.77752092379244,4.870648724916704,Latin American Restaurant
695,45.774,4.87458888888889,10,5,4c2490ec905a0f4708e75f60,Ristretto,45.776413848915176,4.871835524899596,Italian Restaurant
696,45.774,4.87458888888889,10,6,4ff5d2aee4b0d48ad22cc20b,Rimon,45.773143,4.869363,Italian Restaurant
697,45.774,4.87458888888889,10,7,54d13115498e863378d67ed9,master tacos,45.771802,4.869963,Taco Place
698,45.774,4.87458888888889,10,8,566b5f0238fa37fd4616e1bd,brasserie l'ouest,45.773339,4.878422,French Restaurant
699,45.774,4.87458888888889,10,9,4c68349173851b8d3ef0b939,Lacha Gore,45.777608,4.878052,Italian Restaurant
700,45.774,4.888477777777778,3,0,591b1340aa6c956a64b2d0c4,Jardin du Pré Fleuri,45.76974914225744,4.889753713505343,Asian Restaurant
701,45.774,4.888477777777778,3,1,5238346111d204aaba4dbb32,Piazza Italia,45.771455,4.884276,Italian Restaurant
702,45.774,4.888477777777778,3,2,5291053f11d2c6e3a341302e,Le Relais Du Fin Gourmet,45.776941,4.892524,French Restaurant
703,45.774,4.930144444444445,4,0,582e73ee8ee5605dc502f7bc,22 Avenue Eugène Henaff Vaulx En Vélin 69120,45.77443,4.927365,Steakhouse
704,45.774,4.930144444444445,4,1,54db4809498e06a504f964d0,Ocakbasilyon,45.77464333553468,4.9275272980222615,Turkish Restaurant
705,45.774,4.930144444444445,4,2,4e71de3caeb79ea0951f11ee,Les Tilleuls,45.774445185247394,4.931979666051773,French Restaurant
706,45.774,4.930144444444445,4,3,5540e6d7498e22f511f38d0a,on numara çikofte,45.774486,4.92754,Turkish Restaurant
707,45.774,4.957922222222223,3,0,55080b0e498ee7519ad1215e,La Passerelle Indienne,45.774474567995924,4.954373075134103,Indian Restaurant
708,45.774,4.957922222222223,3,1,5936fefa25fb7b781a856594,Mykonos,45.770397,4.959146,Greek Restaurant
709,45.774,4.957922222222223,3,2,51f43e20498e8ac8bc2a0767,Cabalestra,45.770552,4.959206,Italian Restaurant
710,45.784000000000006,4.7357000000000005,2,0,4f7207b7e4b0f11afa3e8d8d,Pizzeria l'allegria,45.782401051432274,4.736153887866539,Italian Restaurant
711,45.784000000000006,4.7357000000000005,2,1,4dc59438c65b89d3ca727c3c,Pavillon De La Rotonde Philppe Gauvreau,45.787539554023155,4.732480460711791,French Restaurant
712,45.784000000000006,4.777366666666667,3,0,52dd141e498e1876f03c9310,o sushi wok,45.786442764099725,4.781734886174309,Sushi Restaurant
713,45.784000000000006,4.777366666666667,3,1,52d6f40c11d289bad883416b,Osushiwok,45.7865468513545,4.781612962205083,Asian Restaurant
714,45.784000000000006,4.777366666666667,3,2,4be546272468c928d8d5ff42,O'sushi,45.78811847413764,4.775929181691396,Japanese Restaurant
715,45.784000000000006,4.791255555555556,2,0,581e328b855189757ac49b5a,9ème avenue,45.785157,4.794847,Taco Place
716,45.784000000000006,4.791255555555556,2,1,4c502b75f080a5934fc40de2,Courtepaille,45.78442460503304,4.785701353020786,French Restaurant
717,45.784000000000006,4.805144444444445,11,0,558d3503498e78f169a6144a,emma,45.785966,4.810891,French Restaurant
718,45.784000000000006,4.805144444444445,11,1,4bea8291415e20a1e60fe5bb,Tout le Monde à Table,45.78155180769802,4.8068739840996155,French Restaurant
719,45.784000000000006,4.805144444444445,11,2,4d34a29f72a8b1f7f742b2d0,"Suite et faim!.,,",45.78144,4.806446,French Restaurant
720,45.784000000000006,4.805144444444445,11,3,57442995498e0173cd748199,Ema,45.785779,4.810878,French Restaurant
721,45.784000000000006,4.805144444444445,11,4,4d603c1d865a224bd4b4a885,Tour d'Asie,45.78424546364165,4.810339013968916,Asian Restaurant
722,45.784000000000006,4.805144444444445,11,5,4cebac45f1c6236aea1b71f0,Le Ponton,45.7855405,4.8085857,French Restaurant
723,45.784000000000006,4.805144444444445,11,6,5c6fd8dfb23dfa002cb72259,Le Fouge,45.787469,4.808692,French Restaurant
724,45.784000000000006,4.805144444444445,11,7,4d84b1db40a7a35dd01610be,Le Solaret,45.7855405,4.8085857,French Restaurant
725,45.784000000000006,4.805144444444445,11,8,4bbe2778eeca952118164df1,Matsuri,45.78336051329166,4.807910964028791,Japanese Restaurant
726,45.784000000000006,4.805144444444445,11,9,586e30426431e5637b340e53,Il Pomodorino,45.784176,4.807061,Italian Restaurant
727,45.784000000000006,4.805144444444445,11,10,5222300911d260aeba724e45,Le Temps d'un Repas,45.78730392456055,4.808539867401123,French Restaurant
728,45.784000000000006,4.832922222222223,7,0,54609b87498e8f77da60fbd8,restaurant de l'angle,45.782410955303185,4.83502371617993,Turkish Restaurant
729,45.784000000000006,4.832922222222223,7,1,4baeab3cf964a520f6cc3be3,Open Meals,45.782063,4.836987,American Restaurant
730,45.784000000000006,4.832922222222223,7,2,51ddbf4f498e97e6b1210e35,L'Epicerie Comptoir,45.784537,4.830498,French Restaurant
731,45.784000000000006,4.832922222222223,7,3,4beda47f9868a59360b55d46,La Jonque,45.77958858364732,4.833728379015643,Chinese Restaurant
732,45.784000000000006,4.832922222222223,7,4,4d9af94273df8cfa4cbceaec,Des Galets Bleus La Nuit,45.779722,4.834612,French Restaurant
733,45.784000000000006,4.832922222222223,7,5,4d5a7a74c88da1cdea3e4568,Pinch Burger,45.779545355445194,4.832347792343355,American Restaurant
734,45.784000000000006,4.832922222222223,7,6,4e2fea497d8bf59d291b0455,L Oiseau Sur Sa Branche,45.77956187041248,4.8320745364716915,French Restaurant
735,45.784000000000006,4.846811111111111,2,0,5655b5de498eef2237963dc0,Zucca,45.78424835205078,4.852994441986084,Italian Restaurant
736,45.784000000000006,4.846811111111111,2,1,51790900e4b0cca38a93670a,L'Air du Temps,45.78527360828372,4.850379685742631,French Restaurant
737,45.784000000000006,4.8607000000000005,11,0,4bcca745b6c49c7419229491,Suelta Verde,45.78534148127019,4.855601637732857,Mexican Restaurant
738,45.784000000000006,4.8607000000000005,11,1,4c7e343a9221236a6452813d,Bistrot Rive Gauche,45.785420254992204,4.857024550437927,French Restaurant
739,45.784000000000006,4.8607000000000005,11,2,4bcedbf9fb84c9b68b5f243e,Cantine Lyon1,45.784008,4.860637,French Restaurant
740,45.784000000000006,4.8607000000000005,11,3,5a64883baa6c955140b57bf1,Fady,45.785195,4.856004,Lebanese Restaurant
741,45.784000000000006,4.8607000000000005,11,4,4eafdf17722e4efd61a90d25,Terra Azurra,45.785333179177506,4.856463150804429,Italian Restaurant
742,45.784000000000006,4.8607000000000005,11,5,4c77dbdca690236a77939eb5,Côte rôtie,45.785254,4.855662,French Restaurant
743,45.784000000000006,4.8607000000000005,11,6,55951703498e4e91134d5d7a,le comptoir joa,45.7853020567561,4.855631724396456,French Restaurant
744,45.784000000000006,4.8607000000000005,11,7,5c0a674b250cab002c60f4ca,Suelta,45.78497783,4.85558796,Mexican Restaurant
745,45.784000000000006,4.8607000000000005,11,8,5125fd95e4b094d648ebc3ae,Terrazzura,45.785463,4.856127,Restaurant
746,45.784000000000006,4.8607000000000005,11,9,4bba33ac3db7b7130a07239a,Brasserie de la Cité,45.78477500826973,4.85436964792643,French Restaurant
747,45.784000000000006,4.8607000000000005,11,10,4ba13a47f964a520fba337e3,33 Cité,45.78522531850657,4.856575724227205,French Restaurant
748,45.784000000000006,4.87458888888889,5,0,4de382f0d22d2a4ecddea614,Le Roccasecca,45.781759,4.878766,Italian Restaurant
749,45.784000000000006,4.87458888888889,5,1,532740f8498e093dbd058cd3,Le Bruxelles,45.782279974781915,4.869600327824592,French Restaurant
750,45.784000000000006,4.87458888888889,5,2,4cd7e2355e1b721e4d2c37d9,Restaurant Cnrs,45.780656,4.875614,French Restaurant
751,45.784000000000006,4.87458888888889,5,3,4d415eb5c5eaa1cdbdfda950,L'Olivier,45.78399180766216,4.875109643314148,Italian Restaurant
752,45.784000000000006,4.87458888888889,5,4,4f621bf0e4b034b45f4e541a,chopstix,45.7797916,4.873609099999999,Chinese Restaurant
753,45.784000000000006,4.888477777777778,1,0,4fa6ffd7e4b00f71964c517f,BRAH BRAH BRRRRRAH,45.7868575,4.8871185,Chinese Restaurant
754,45.794000000000004,4.7357000000000005,1,0,4fd0e83ae4b0c3edb5ff7fbf,Chateau de la Tour de Salvagny,45.79142214742487,4.731159210205078,French Restaurant
755,45.794000000000004,4.777366666666667,1,0,519b5658498e1dd2ace2ea6d,Rictoria,45.79553763492849,4.782560589354327,French Restaurant
756,45.794000000000004,4.791255555555556,1,0,4f255a87e4b06176453bde94,Hoa Anh Dao,45.79435304402735,4.790558725474733,Asian Restaurant
757,45.794000000000004,4.8190333333333335,1,0,577ba04b498e81e8f1cf04e4,Les Trois Sakura,45.792804,4.82041,Sushi Restaurant
758,45.794000000000004,4.832922222222223,4,0,4c710abd9375a09373ba0837,Le Capot Caluire,45.792115330696106,4.835389852523804,French Restaurant
759,45.794000000000004,4.832922222222223,4,1,4e63623dae60e9edf6262501,Fond Rose,45.79130810532575,4.8278556843509595,French Restaurant
760,45.794000000000004,4.832922222222223,4,2,523c279811d20b83886e6944,Auberge de l'île Barbe,45.79772961000561,4.833317992743105,French Restaurant
761,45.794000000000004,4.832922222222223,4,3,4c34cb723896e21e3e2aec90,Buldo,45.79798656166091,4.831102297100895,French Restaurant
762,45.794000000000004,4.846811111111111,1,0,510faa00e4b01d3afe88d637,Le Dompi,45.79744844420513,4.850715308764975,Italian Restaurant
763,45.794000000000004,4.8607000000000005,4,0,4e8f46f46c25abdcf439b71a,Le Bleu De France,45.79140841782258,4.863405258482073,French Restaurant
764,45.794000000000004,4.8607000000000005,4,1,4f357acce4b07c0117325806,Le Coeur En Bouche,45.79428984422704,4.855541362640251,French Restaurant
765,45.794000000000004,4.8607000000000005,4,2,4f402234e4b0f4e3fab5e69a,Restaurant chez Luigi,45.79170893514012,4.864315175157884,Italian Restaurant
766,45.794000000000004,4.8607000000000005,4,3,52f389a2498ef771928f45e4,Pizzeria dompi,45.794784,4.86198,Italian Restaurant
767,45.794000000000004,4.9857000000000005,1,0,532ecba6498e7554adc2783c,La petite auberge du pont d'herbens,45.792371,4.991602,French Restaurant
768,45.804,4.74958888888889,4,0,4d022c846b0c236ab8faaca2,Bol d'Air,45.807037,4.753317,French Restaurant
769,45.804,4.74958888888889,4,1,51dff0f1498e1c3a5a3b3f7f,Auberge du Village,45.804461889709465,4.750205896125278,French Restaurant
770,45.804,4.74958888888889,4,2,52421fb22fc6ed6f6b519fa9,JOLY GOURMET,45.806572694225046,4.749575257301331,Butcher
771,45.804,4.74958888888889,4,3,4daea44a0c532e69bf0ea325,Les Terrasses de Dardilly,45.805342,4.753779,French Restaurant
772,45.804,4.763477777777778,3,0,520ce79411d253578c3d3d1f,jo walker,45.80784782998321,4.760261178016663,American Restaurant
773,45.804,4.763477777777778,3,1,4e92d5bbdab4ec3b1eaeb1b6,Les Marches,45.8019961262966,4.766032065574053,French Restaurant
774,45.804,4.763477777777778,3,2,4da32fea7ccc816ebf90777b,L'instant,45.80403286679787,4.766432265495205,French Restaurant
775,45.804,4.777366666666667,6,0,4d7dfd9995c1a143aa26c8f2,Le Montagnard,45.807983003079,4.78001200641503,French Restaurant
776,45.804,4.777366666666667,6,1,4daec9911e7207bbeb16fc7d,Homard 1er,45.8021007,4.7792410499999995,French Restaurant
777,45.804,4.777366666666667,6,2,4c08e425009a0f47eabde6bf,C Gastronomie,45.80649016412946,4.773836881093627,French Restaurant
778,45.804,4.777366666666667,6,3,4e92cdb2b8f7cece22ec42ad,L'épicerie,45.80110549926758,4.778514862060547,French Restaurant
779,45.804,4.777366666666667,6,4,4e295a58e4cd6c6cb34fa75b,C Restaurant,45.80608917152478,4.773030580934557,German Restaurant
780,45.804,4.777366666666667,6,5,508a7844e4b0c56e746b03d1,le W,45.80436736657445,4.775125955666862,French Restaurant
781,45.804,4.805144444444445,2,0,5b3a77d38ad62e002c771db8,Les Gaufres De Nanette,45.80281025,4.80883292,Belgian Restaurant
782,45.804,4.805144444444445,2,1,4c1fad9da34cd13ae2107d74,Restauration Collective Casino,45.79999462414241,4.806432723999023,French Restaurant
783,45.804,4.8190333333333335,1,0,4e748863e4cd325436e12a46,Le Comptoir de Saint-Cyr,45.80139255769463,4.8199043971336994,French Restaurant
784,45.804,4.832922222222223,1,0,4f3c051be4b09bd6279749cf,L'effervescence,45.803686617684995,4.837550220209626,French Restaurant
785,45.804,4.846811111111111,1,0,5946b8cfa0215b689bc2c5a8,La Perle Sushi,45.800589,4.849189,Japanese Restaurant
786,45.804,4.930144444444445,1,0,4e1343a5ae602afe96cd1264,Le Mekong,45.80524754389404,4.930853262736614,Asian Restaurant
787,45.814,4.763477777777778,2,0,4f589d50e4b0fbb1bb88f819,Lycee Francois Rabelais,45.81766672020984,4.761711842270759,French Restaurant
788,45.814,4.763477777777778,2,1,4c2b554157a9c9b6a2b1f567,Porte de Chine,45.813899006905125,4.759522737492432,Asian Restaurant
789,45.814,4.777366666666667,1,0,4f6b12b4e4b0357123ea5dea,Eat'aliano,45.8162,4.7727,Italian Restaurant
790,45.814,4.8190333333333335,2,0,56a1146c498e8525b6eb54b3,Chez Cotte,45.813312,4.816281,French Restaurant
791,45.814,4.8190333333333335,2,1,5c77c4f7356b49002c6b5cd3,Le BonBar,45.813229,4.816656,French Restaurant
792,45.814,4.846811111111111,3,0,4c988bb807916dcbd5b8ec1b,Auberge du Pont de Collonges - Paul Bocuse,45.81560695323803,4.847474162822739,French Restaurant
793,45.814,4.846811111111111,3,1,4cc864957be65481afb42d23,L'Abbaye de Collonges,45.81121300901129,4.84231463868616,French Restaurant
794,45.814,4.846811111111111,3,2,4c3457b9ed37a593a0af6e03,Comme en Provence,45.816533885588605,4.849293257277138,French Restaurant
795,45.814,4.888477777777778,3,0,5d82095128540000080d75db,Chez Mahmut Kebab,45.813744,4.894679,Doner Restaurant
796,45.814,4.888477777777778,3,1,4c46bd280f5aa593019f7b76,Playground sport center,45.81727964096938,4.887239953084459,French Restaurant
797,45.814,4.888477777777778,3,2,51dc1f5a498e7cc85970d350,Ex Cristiano Gronaldo,45.813573,4.894792,Taco Place
798,45.814,4.902366666666667,1,0,4c534607728920a10d4ace80,Place De Marché,45.815717,4.899249,French Restaurant
799,45.814,4.930144444444445,1,0,4ef1dd2129c2e7e6d1c467b0,La Villa,45.81679029592081,4.93487646260515,French Restaurant
800,45.824000000000005,4.763477777777778,4,0,4be44f90910020a17d86d114,Buffalo Grill,45.82325602349728,4.767030500715173,Steakhouse
801,45.824000000000005,4.763477777777778,4,1,4fdb8361e4b0c183ab76e8d2,Terres Du Sud,45.821625100564276,4.759662401404023,French Restaurant
802,45.824000000000005,4.763477777777778,4,2,5bf40c82345cbe00394588ea,Ristorante Del Arte Lyon - Dardilly,45.821990141241,4.7633319388702,Italian Restaurant
803,45.824000000000005,4.763477777777778,4,3,5592ddc5498e35ee68f8726b,les 3 rythmes,45.821234,4.761751,French Restaurant
804,45.824000000000005,4.8190333333333335,1,0,4dc5a5922271f2705132f894,La Haut Sur La Colline,45.822501112291654,4.819717204047258,French Restaurant
805,45.824000000000005,4.87458888888889,1,0,5308864b498e6792484a002d,L'Eden,45.82540508846987,4.872930049896239,Kebab Restaurant
806,45.824000000000005,4.957922222222223,1,0,514cbfc5e4b03150f9a3d75a,Le Palmyre,45.82393266888279,4.952481456425486,Turkish Restaurant
807,45.834,4.777366666666667,1,0,526a701611d20a4e4ebe6ae6,La Pièce du Boucher,45.83490858,4.77159572,Modern European Restaurant
808,45.834,4.791255555555556,1,0,50ce5513e4b07c15493f6916,Aux montagnards,45.83272524650276,4.793485174949099,French Restaurant
809,45.834,4.832922222222223,1,0,4bf937905317a59340e2007f,Aux Pieds Dans l'eau,45.8358220669382,4.836645783189032,French Restaurant
810,45.834,4.846811111111111,3,0,5bfff3eee17910002cf6b852,Bistro' Fontaines,45.832787,4.848356,French Restaurant
811,45.834,4.846811111111111,3,1,5589bc07498e1324bb25f7b1,F & K,45.83602260606067,4.846978722841168,Doner Restaurant
812,45.834,4.846811111111111,3,2,4ea00a2930f854cd9c233c32,Le Pamukkale,45.83079981714016,4.847826088001611,Middle Eastern Restaurant
