,Unnamed: 0,lat_centre,long_centre,num_venues,venue_iter,venue_id,venue_name,lat_venue,long_venue,category
1301,569,45.773999999999994,4.805144444444445,38,18,4b2b7f76f964a520ddb624e3,L'Assiette du Marché,45.774496141825246,4.807015424774193,French Restaurant
922,190,45.75400000000001,4.7357000000000005,1,0,4b65658cf964a52070ef2ae3,La Cascade,45.755534141538995,4.7391626861834,French Restaurant
1414,682,45.773999999999994,4.8607000000000005,25,17,4b73eba5f964a52028c02de3,Italiana Fabbrica,45.770377,4.861981,Italian Restaurant
1068,336,45.75400000000001,4.87458888888889,4,3,4b744e5bf964a52005d42de3,La Baie d'Halong,45.75535244139277,4.875912666320801,Vietnamese Restaurant
1267,535,45.763999999999996,4.916255555555557,9,2,4b7d9529f964a5201ec82fe3,New Saigon,45.76472382777254,4.918903112411499,Vietnamese Restaurant
240,240,45.763999999999996,4.832922222222223,50,25,4b7fd8c2f964a5208d4030e3,Le Saint Joseph,45.762930360404575,4.8327957908586985,French Restaurant
1089,357,45.763999999999996,4.8190333333333335,5,4,4b9a27d4f964a520baa135e3,Le Contretête,45.76667350706988,4.8206913471221915,French Restaurant
823,91,45.733999999999995,4.87458888888889,4,1,4b9be8edf964a520a33436e3,Perles De Pluie,45.734337246711824,4.876560747748182,Asian Restaurant
1588,43,45.76286953533381,4.828093456491969,43,42,4b9c0a80f964a520df4336e3,La Tour Rose,45.762703424728976,4.826939996925166,French Restaurant
1282,550,45.773999999999994,4.791255555555557,2,1,4b9e2f5bf964a52023d036e3,Les Destinations Gourmandes,45.773302780264046,4.787720839819313,French Restaurant
1479,747,45.784000000000006,4.8607000000000005,11,10,4ba13a47f964a520fba337e3,33 Cité,45.785225318506576,4.856575724227205,French Restaurant
1321,589,45.773999999999994,4.8190333333333335,7,0,4ba3e02ff964a5202e6938e3,Baha,45.773117141431925,4.822164388067875,Vietnamese Restaurant
1010,278,45.75400000000001,4.846811111111111,50,24,4ba7d5eaf964a520a1b739e3,Amilcar II,45.753412,4.8414209999999995,Doner Restaurant
182,182,45.7562609293324,4.850029754855789,22,12,4bacafedf964a520d4033be3,Pizzeria Trianon,45.757731852071906,4.84826247918259,Italian Restaurant
49,49,45.75173907066761,4.829703578477546,36,18,4badd472f964a520fb6b3be3,Brasserie 1900,45.75311292456079,4.828853648397769,French Restaurant
138,138,45.7562609293324,4.843592467366435,17,14,4bae0a2bf964a520a67d3be3,Phnom Pich,45.75468246171747,4.8417413234710684,Asian Restaurant
1461,729,45.784000000000006,4.832922222222223,7,1,4baeab3cf964a520f6cc3be3,Open Meals,45.782063,4.836987000000001,American Restaurant
562,562,45.763999999999996,4.8607000000000005,9,5,4baf3fd2f964a52091f33be3,Bo Sushi,45.765820842276725,4.860707556127995,Sushi Restaurant
729,729,45.77173907066761,4.836142020061859,14,11,4bb632ba6edc76b0f08c301c,Maison Villemanzy,45.771715235024736,4.835814243442491,French Restaurant
101,101,45.7562609293324,4.8361408659668985,35,34,4bba263b53649c74cfb048fb,Brasserie Paulaner,45.757837433797796,4.834728172136021,French Restaurant
1478,746,45.784000000000006,4.8607000000000005,11,9,4bba33ac3db7b7130a07239a,Brasserie de la Cité,45.78477500826973,4.854369647926429,French Restaurant
98,98,45.7562609293324,4.8361408659668985,35,31,4bba433ccf2fc9b68058a102,Chabert & Fils,45.75684386221908,4.834635648159293,French Restaurant
925,193,45.75400000000001,4.805144444444445,1,0,4bbb845de436ef3b7e6f5564,Villa Florentine,45.75588590447958,4.802943431629899,French Restaurant
1162,430,45.763999999999996,4.846811111111111,50,22,4bbc66c8afe1b713dc50304b,La Cavale,45.759736,4.8476550000000005,French Restaurant
1409,677,45.773999999999994,4.8607000000000005,25,12,4bbc67c52d9ea5937587a0ce,Mix City,45.77617394403902,4.862565994262695,French Restaurant
1395,663,45.773999999999994,4.846811111111111,19,17,4bbccbe907809521cdc4d991,Chez Terra,45.77007625497592,4.847029824656782,Japanese Restaurant
926,194,45.75400000000001,4.8190333333333335,10,0,4bbdaf888a4fb71303383d9d,Reflets d'Asie,45.753349215495795,4.821216493962208,Chinese Restaurant
1457,725,45.784000000000006,4.805144444444445,11,8,4bbe2778eeca952118164df1,Matsuri,45.783360513291655,4.807910964028792,Japanese Restaurant
1008,276,45.75400000000001,4.846811111111111,50,22,4bc057b574a9a593fdebcff6,San Parteo,45.752922999999996,4.8529349999999996,Italian Restaurant
788,56,45.724,4.930144444444445,7,3,4bc2fe224cdfc9b6e2b39621,Baton Rouge,45.722633369792426,4.926025280994129,American Restaurant
791,59,45.724,4.930144444444445,7,6,4bc45596b492d13a3bd7a960,Le Comptoir De Maitre Kanter,45.722103999999995,4.930108000000001,French Restaurant
727,727,45.77173907066761,4.836142020061859,14,9,4bc63de9b387d13a7a8dc1e8,La Belle Equipe,45.77107958787899,4.835132353408789,French Restaurant
892,160,45.744,4.846811111111111,17,12,4bc844892f94d13a5140137f,Les Vieilles Canailles,45.745425438859606,4.8496055603027335,French Restaurant
1399,667,45.773999999999994,4.8607000000000005,25,2,4bcc331a0687ef3bf9d1decc,Le Croco,45.770346999999994,4.8614489999999995,French Restaurant
719,719,45.77173907066761,4.836142020061859,14,1,4bcc4eee68f976b01c556283,L'Ourson qui boit,45.77050503745093,4.837279589472821,Japanese Restaurant
1469,737,45.784000000000006,4.8607000000000005,11,0,4bcca745b6c49c7419229491,Suelta Verde,45.78534148127019,4.855601637732856,Mexican Restaurant
1809,264,45.767391393998594,4.834531767304995,12,8,4bccb674511f95213081b3c7,Le Marmaris,45.76777952147457,4.834843152031117,Middle Eastern Restaurant
1471,739,45.784000000000006,4.8607000000000005,11,2,4bcedbf9fb84c9b68b5f243e,Cantine Lyon1,45.784008,4.8606370000000005,French Restaurant
1397,665,45.773999999999994,4.8607000000000005,25,0,4bd969722e6f0f47e2730a08,L'Alchimiste,45.77616994779781,4.86241416357761,Italian Restaurant
213,213,45.75173907066761,4.850029754855789,23,21,4bd9cb8ce914a59316f257fa,Bambou d'Asie,45.750119,4.850955,Chinese Restaurant
1379,647,45.773999999999994,4.846811111111111,19,1,4bd9db7b2a3a0f47c58fa8b6,Restaurant M,45.77058852220231,4.8435291119099295,French Restaurant
348,348,45.76173907066761,4.829703001582534,50,33,4bdb2edfc79cc928468781e9,Les Adrets,45.76256226339817,4.826787053267538,French Restaurant
807,75,45.733999999999995,4.832922222222223,17,4,4bdb46082a3a0f47b63aaeb6,Barcelona Tapas,45.73381149992811,4.838624366625306,Tapas Restaurant
211,211,45.75173907066761,4.850029754855789,23,19,4bdc838ec79cc928dce786e9,Pizzeria San Marco,45.751395265286064,4.847681282267026,Italian Restaurant
545,545,45.76173907066761,4.8500303317508004,40,28,4bdd7c5f645e0f47e9926b19,Les Garcons Bouchers,45.76295772772589,4.850649167512813,French Restaurant
1612,67,45.76173907066761,4.836141442861911,10,9,4be4734d2457a593d43faa15,Sushi King,45.761705,4.836171,Sushi Restaurant
1446,714,45.784000000000006,4.7773666666666665,3,2,4be546272468c928d8d5ff42,O'sushi,45.78811847413764,4.775929181691396,Japanese Restaurant
1450,718,45.784000000000006,4.805144444444445,11,1,4bea8291415e20a1e60fe5bb,Tout le Monde à Table,45.78155180769802,4.806873984099616,French Restaurant
1168,436,45.763999999999996,4.846811111111111,50,28,4bebc6fc6295c9b6d5128808,Oly Cafe,45.76368391513825,4.8417145013809195,French Restaurant
1463,731,45.784000000000006,4.832922222222223,7,3,4beda47f9868a59360b55d46,La Jonque,45.77958858364732,4.833728379015644,Chinese Restaurant
445,445,45.76173907066761,4.836141442861911,50,30,4bf129d117880f47bbf82937,O'Sushi,45.76164088133796,4.8330279022652025,Sushi Restaurant
899,167,45.744,4.8607000000000005,9,2,4bf3c963cad2c928f51c9b99,Ferme Montplaisir,45.74559,4.865573,French Restaurant
1850,305,45.76513046466621,4.837751118418828,5,4,4bf4255598ac0f4738a563a8,Le Bouche à Oreille,45.764545,4.837594999999999,French Restaurant
887,155,45.744,4.846811111111111,17,7,4bf56be5ff90c9b616595628,Casa Flavio,45.745455990815394,4.8485156759858645,Italian Restaurant
542,542,45.76173907066761,4.8500303317508004,40,25,4bf82eda5efe2d7fd64f6a34,Toya,45.760264463629,4.847752646267777,Japanese Restaurant
1541,809,45.833999999999996,4.832922222222223,1,0,4bf937905317a59340e2007f,Aux Pieds Dans l'eau,45.8358220669382,4.836645783189032,French Restaurant
1581,36,45.76286953533381,4.828093456491969,43,35,4bf978155ec320a12b4b8ad3,Le Gourmand de Saint Jean,45.762676202051104,4.827240324029392,French Restaurant
737,5,45.693999999999996,4.8190333333333335,3,2,4bff9a6fc30a2d7f7226111d,Palais Du Dragon,45.69375876276889,4.823940798655665,Chinese Restaurant
210,210,45.75173907066761,4.850029754855789,23,18,4c00321792a6c9285dd143e2,L'art et la manière,45.751282,4.847747,French Restaurant
1147,415,45.763999999999996,4.846811111111111,50,7,4c06b730cf8c76b0caf03a65,Yoki,45.76384212425187,4.853214529215793,Japanese Restaurant
1509,777,45.803999999999995,4.7773666666666665,6,2,4c08e425009a0f47eabde6bf,C Gastronomie,45.80649016412946,4.773836881093628,French Restaurant
622,622,45.76173907066761,4.857480779360311,25,6,4c0cc1c07189c928b5e7d5b6,Woko,45.761133181338295,4.85454292184482,Asian Restaurant
1406,674,45.773999999999994,4.8607000000000005,25,9,4c0e246498102d7fac1ee306,Via Veneto,45.77005224984375,4.858101717178557,Italian Restaurant
1299,567,45.773999999999994,4.805144444444445,38,16,4c10c2ed81e976b0a8950feb,La Gré Des Jours,45.769528659526046,4.8056054590589525,French Restaurant
1396,664,45.773999999999994,4.846811111111111,19,18,4c1bb2028b3aa593c59f975f,Casareccio,45.769586,4.84727662,Italian Restaurant
804,72,45.733999999999995,4.832922222222223,17,1,4c1e38bceac020a1da5149c2,Brasserie Debourg,45.73137547976432,4.829662774655414,French Restaurant
1514,782,45.803999999999995,4.805144444444445,2,1,4c1fad9da34cd13ae2107d74,Restauration Collective Casino,45.79999462414241,4.806432723999023,French Restaurant
1586,41,45.76286953533381,4.828093456491969,43,40,4c225422fbe5c9b6a9b69921,Namdo,45.76281571690663,4.828696478946666,Asian Restaurant
1059,327,45.75400000000001,4.8607000000000005,29,23,4c233f9399282d7f794d68b0,Restaurant Ô Sidney,45.752485321092024,4.8598408699035645,French Restaurant
1427,695,45.773999999999994,4.87458888888889,10,5,4c2490ec905a0f4708e75f60,Ristretto,45.776413848915176,4.871835524899597,Italian Restaurant
1879,334,45.767391393998594,4.855871103803397,26,24,4c24efbdf7ced13a91ac236d,Le Comptoir du Ney,45.767104477657796,4.8557030568336845,French Restaurant
207,207,45.75173907066761,4.850029754855789,23,15,4c29d69e97d00f477df241ea,La Gratinée,45.752917528152466,4.852164387702941,French Restaurant
1520,788,45.81399999999999,4.763477777777778,2,1,4c2b554157a9c9b6a2b1f567,Porte de Chine,45.81389900690514,4.759522737492431,Asian Restaurant
180,180,45.7562609293324,4.850029754855789,22,10,4c2cfdc34e132d7faba99bdf,Les Jardins De Paul,45.756871000000004,4.849601,French Restaurant
1654,109,45.763999999999996,4.832922222222223,11,5,4c2f32eced37a59395cb6603,La Menthe,45.763821535809534,4.832577883159769,Mediterranean Restaurant
1526,794,45.81399999999999,4.846811111111111,3,2,4c3457b9ed37a593a0af6e03,Comme en Provence,45.816533885588605,4.849293257277138,French Restaurant
893,161,45.744,4.846811111111111,17,13,4c349ec7452620a1e860250f,Café De La Mairie,45.74582862096052,4.8419434819653375,French Restaurant
1493,761,45.794,4.832922222222223,4,3,4c34cb723896e21e3e2aec90,Buldo,45.79798656166091,4.831102297100895,French Restaurant
95,95,45.7562609293324,4.8361408659668985,35,28,4c38c3f593db0f4717322292,Piccadilly,45.75656335693722,4.834459411342665,French Restaurant
357,357,45.76173907066761,4.829703001582534,50,42,4c3cefc0b36ac9288bcd0486,Gouter Aux Delices,45.76201437142477,4.832686185836792,Thai Restaurant
61,61,45.75173907066761,4.829703578477546,36,30,4c3e043aca012d7ff1e52ebe,Okawa,45.751587,4.827670454978944,Asian Restaurant
643,643,45.7662609293324,4.863919220639688,5,2,4c442d3fdd1f2d7fa56e7ff9,La Maison de Lucy,45.76520393815943,4.864080008999349,French Restaurant
1060,328,45.75400000000001,4.8607000000000005,29,24,4c4433ad74ffc928892b75cc,Le Scuzi,45.75758206570665,4.858492299756207,Italian Restaurant
1528,796,45.81399999999999,4.888477777777778,3,1,4c46bd280f5aa593019f7b76,Playground sport center,45.81727964096938,4.887239953084459,French Restaurant
1323,591,45.773999999999994,4.8190333333333335,7,2,4c46d15d972c0f4773c22121,Bistrot du Boulevard,45.77319457844009,4.821893926169834,French Restaurant
491,491,45.7662609293324,4.843591890471423,20,16,4c4ae322959220a131ddc10e,Casa Del Gusto,45.766484634667165,4.845981125898917,Italian Restaurant
22,22,45.75400000000001,4.832922222222223,24,22,4c4b40f2c668e21e8ec8d0f9,Ponts Et Passerelles,45.753493969394896,4.833378403827848,French Restaurant
908,176,45.744,4.87458888888889,14,2,4c4c1512c668e21e6ff5fcfa,Le Bistrot Autrement,45.743715038862426,4.873068123016842,French Restaurant
1420,688,45.773999999999994,4.8607000000000005,25,23,4c5007092a73c928f0b2ccd1,A'petisco,45.7704,4.8632349999999995,Mediterranean Restaurant
1448,716,45.784000000000006,4.791255555555557,2,1,4c502b75f080a5934fc40de2,Courtepaille,45.78442460503304,4.785701353020786,French Restaurant
1530,798,45.81399999999999,4.9023666666666665,1,0,4c534607728920a10d4ace80,Place De Marché,45.815717,4.899249,French Restaurant
731,731,45.77173907066761,4.836142020061859,14,13,4c5413bef5f3d13a3ff58bf9,Le Jardin Gourmand,45.771373,4.833255,French Restaurant
524,524,45.76173907066761,4.8500303317508004,40,7,4c5bf70c857ca5938eabc8cb,Actu L,45.76096951961517,4.8517459630966195,French Restaurant
786,54,45.724,4.930144444444445,7,1,4c5daca16147be9a26b99209,Courtepaille,45.7254454,4.9320791,French Restaurant
1254,522,45.763999999999996,4.888477777777778,9,0,4c61275513791b8d192f51af,Restaurant Indian Prince,45.76430513430363,4.890607329942385,Indian Restaurant
782,50,45.724,4.916255555555557,3,0,4c6139b33986e21eb0fd954f,China Exupéry,45.72563074008647,4.914467932696089,Chinese Restaurant
1431,699,45.773999999999994,4.87458888888889,10,9,4c68349173851b8d3ef0b939,Lacha Gore,45.777608,4.878051999999999,Italian Restaurant
810,78,45.733999999999995,4.832922222222223,17,7,4c6bb4757c052d7f5c112acf,Midi à 2,45.73628348166471,4.836409841547752,French Restaurant
1265,533,45.763999999999996,4.916255555555557,9,0,4c6ecdc3e6b7b1f708b1ad8e,Del Arte,45.76481586837274,4.920579356299204,Italian Restaurant
1490,758,45.794,4.832922222222223,4,0,4c710abd9375a09373ba0837,Le Capot Caluire,45.792115330696106,4.835389852523804,French Restaurant
1474,742,45.784000000000006,4.8607000000000005,11,5,4c77dbdca690236a77939eb5,Côte rôtie,45.785253999999995,4.855662000000001,French Restaurant
19,19,45.75400000000001,4.832922222222223,24,19,4c77fc2fdf08a1cd31d5d55d,Momento,45.75346,4.832045,Italian Restaurant
604,604,45.7662609293324,4.857480779360311,50,38,4c781c5d3badb1f7d8ac4a54,Le Pain de Sucre,45.7666955125555,4.854627087329975,Brazilian Restaurant
96,96,45.7562609293324,4.8361408659668985,35,29,4c7ac30a2d3ba1430f5b92d0,Le Marronnier,45.757344,4.834830999999999,French Restaurant
1085,353,45.763999999999996,4.8190333333333335,5,0,4c7bda92bd346dcb5561fcef,Petit Zinc,45.76750719696851,4.821372381687146,French Restaurant
1470,738,45.784000000000006,4.8607000000000005,11,1,4c7e343a9221236a6452813d,Bistrot Rive Gauche,45.78542025499221,4.857024550437926,French Restaurant
907,175,45.744,4.87458888888889,14,1,4c7f749401df37043a31e6ac,Pizzeria Don Vito,45.74374749713058,4.8731812349120025,Italian Restaurant
917,185,45.744,4.87458888888889,14,11,4c80c57247cc224bb9b5759f,Le Genova,45.743082,4.878269,Italian Restaurant
1791,246,45.7662609293324,4.836141442861911,31,21,4c84c125d4e237048b967c88,Nooï,45.76667406346484,4.8367437932912365,Asian Restaurant
546,546,45.76173907066761,4.8500303317508004,40,29,4c84c4d451ada1cd17a43110,Si Près,45.760408047979105,4.848719274967812,French Restaurant
1582,37,45.76286953533381,4.828093456491969,43,36,4c8bd9aa5e048cfa2a4bc7cd,Le Comptoir du Boeuf,45.762680467812615,4.827244711471532,French Restaurant
993,261,45.75400000000001,4.846811111111111,50,7,4c8d215555fba0934aa065ab,Imouto,45.754261519860094,4.840708593399828,Japanese Restaurant
1025,293,45.75400000000001,4.846811111111111,50,39,4c8fc634160ea093fc24d1fc,Saigon Gourmet,45.75497734331263,4.8406440358727165,Vietnamese Restaurant
884,152,45.744,4.846811111111111,17,4,4c91f737b641236a5e998579,Victoria Hall,45.74626242171318,4.850514157994526,Modern European Restaurant
1524,792,45.81399999999999,4.846811111111111,3,0,4c988bb807916dcbd5b8ec1b,Auberge du Pont de Collonges - Paul Bocuse,45.81560695323803,4.8474741628227385,French Restaurant
534,534,45.76173907066761,4.8500303317508004,40,17,4c99e55780958cfa14d63dd4,Chez Françis,45.7598932360185,4.8516057047225365,French Restaurant
932,200,45.75400000000001,4.8190333333333335,10,6,4c9b287e78ffa093ee597275,Chez Gustave,45.752861104264156,4.822233659593679,French Restaurant
644,644,45.7662609293324,4.863919220639688,5,3,4c9c7baa03133704ec6655d5,Nakata Japonais,45.76623904717247,4.864869948806964,Sushi Restaurant
1037,305,45.75400000000001,4.8607000000000005,29,1,4c9c834c0e9bb1f72513d45f,Restaurant Le Danton,45.755982,4.857486,French Restaurant
285,285,45.7662609293324,4.829703001582534,50,20,4c9e4d9d7c096dcb19dbd3d1,L'ebullition,45.76648939232378,4.831746741046182,French Restaurant
779,47,45.724,4.87458888888889,3,2,4ca0dde40e9bb1f74e19fc5f,Macao,45.722855249338856,4.872185718628404,Asian Restaurant
1052,320,45.75400000000001,4.8607000000000005,29,16,4cac55dc76d3a0939a7e306b,Le Familial,45.757129885472175,4.858507073224256,Greek Restaurant
876,144,45.744,4.832922222222223,22,18,4cb2eb0539458cfaa96016a0,Café 7e Art,45.747096431848895,4.835644123914978,French Restaurant
1051,319,45.75400000000001,4.8607000000000005,29,15,4cb6dde4589f236ace5c3a3d,Grand Café De L'abondance,45.75393676757813,4.854707121849059,French Restaurant
872,140,45.744,4.832922222222223,22,14,4cb83401a33bb1f7fefc7efd,L'Escale du Farge,45.743722,4.83504,French Restaurant
818,86,45.733999999999995,4.832922222222223,17,15,4cb837e84352a1cdc89d83f5,Gamboni,45.73017072686924,4.829922687227251,French Restaurant
1238,506,45.763999999999996,4.8607000000000005,50,48,4cc017499ca854814323ba16,Bistro Lafayette,45.763681636501396,4.8554695062686495,French Restaurant
900,168,45.744,4.8607000000000005,9,3,4cc31d5342d1b60cdf131513,Auberge savoyarde,45.744989000000004,4.865981,French Restaurant
816,84,45.733999999999995,4.832922222222223,17,13,4cc802c7fa03224b0ca041ef,Le Château D'if,45.73386532259427,4.8393244653584695,French Restaurant
1525,793,45.81399999999999,4.846811111111111,3,1,4cc864957be65481afb42d23,L'Abbaye de Collonges,45.81121300901129,4.842314638686161,French Restaurant
915,183,45.744,4.87458888888889,14,9,4cd52c2b89eb6dcb22ea261e,Marche De Montchat Pl Du Chateau,45.7460598793472,4.87813805191149,French Restaurant
1292,560,45.773999999999994,4.805144444444445,38,9,4cd5e20bab19a093ae1042eb,Le Monde D'Angkor,45.77762872367251,4.806299888086949,Asian Restaurant
1482,750,45.784000000000006,4.87458888888889,5,2,4cd7e2355e1b721e4d2c37d9,Restaurant Cnrs,45.780656,4.875614,French Restaurant
771,39,45.724,4.832922222222223,2,0,4ce065b9825e721e86357645,Argenson,45.72301017169187,4.828839111862561,French Restaurant
889,157,45.744,4.846811111111111,17,9,4ce26e44ffcf37045d732b82,Le Jaboulay,45.745723,4.845601,French Restaurant
1248,516,45.763999999999996,4.87458888888889,14,8,4ce3b9aac36ba35dbf4071f6,Le Morgon,45.76514084655864,4.868733174754715,French Restaurant
803,71,45.733999999999995,4.832922222222223,17,0,4ce50eae302d54817d09cc5f,Le Venezia,45.73076408975174,4.829962480658632,Italian Restaurant
894,162,45.744,4.846811111111111,17,14,4ceba9eff3bda143b4f5cce4,Indian Prince 2,45.745126,4.8419669999999995,Indian Restaurant
1454,722,45.784000000000006,4.805144444444445,11,5,4cebac45f1c6236aea1b71f0,Le Ponton,45.7855405,4.8085857,French Restaurant
10,10,45.75400000000001,4.832922222222223,24,10,4ced1730d7268cfa9708c14e,Momento Sapori E Vini,45.753331,4.831996,Italian Restaurant
747,15,45.70399999999999,4.832922222222223,2,0,4cf38b9d6c29236a3c5471a2,Courtepaille,45.705386963181724,4.831611961126328,French Restaurant
1797,252,45.7662609293324,4.836141442861911,31,27,4cf3fef51c158cfa7000e1b5,La Mamounia,45.766137,4.836764,Moroccan Restaurant
864,132,45.744,4.832922222222223,22,6,4cfe1d28c51fa1cd3689f42b,Parterre & Balcon,45.74716412382878,4.836450650141166,French Restaurant
63,63,45.75173907066761,4.829703578477546,36,32,4d02203e582454810b3349ac,Cuisine et Dependances,45.750634354944744,4.830147838252146,French Restaurant
1500,768,45.803999999999995,4.74958888888889,4,0,4d022c846b0c236ab8faaca2,Bol d'Air,45.807037,4.753317,French Restaurant
488,488,45.7662609293324,4.843591890471423,20,13,4d0291be9d33a143b451ae78,Konnichiwa Suchi,45.76756843149554,4.845438253069834,Sushi Restaurant
512,512,45.7662609293324,4.8500303317508004,13,8,4d03cee3347da1cdc8d1278f,La Maison De Lucy,45.76736999388674,4.848108300939202,French Restaurant
1584,39,45.76286953533381,4.828093456491969,43,38,4d06a1679d33a1435a4fc778,RESTAURANT A LA TRABOULE,45.76373720708462,4.8282082680775025,French Restaurant
1172,440,45.763999999999996,4.846811111111111,50,32,4d08f5b8cda254811fd42f65,Moulinette,45.760226,4.846644,French Restaurant
538,538,45.76173907066761,4.8500303317508004,40,21,4d0c97bf5c46a0938a5009b4,"La Maison de L""Entrecote",45.760606134519215,4.8520041213085365,French Restaurant
1307,575,45.773999999999994,4.805144444444445,38,24,4d11f09cffa1224b4b8d95ad,Domeva Caffé,45.777337672645864,4.804237829197015,Italian Restaurant
1845,300,45.767391393998594,4.837751118418828,15,14,4d1348e037f1236aab14801b,Les Jardins De Veronne,45.767932,4.838524,French Restaurant
1297,565,45.773999999999994,4.805144444444445,38,14,4d2388ed0e998cfab0dd1b3f,Le Jardin D'à Côté,45.774095024809505,4.805166792674405,French Restaurant
1035,303,45.75400000000001,4.846811111111111,50,49,4d28d084b818a35dcbeb988a,Oto Oto,45.75415257313632,4.841021473628344,Japanese Restaurant
929,197,45.75400000000001,4.8190333333333335,10,3,4d2e11ffd9d8a1436929f6d7,Carré Saône,45.753318756849424,4.8239183910997765,French Restaurant
1451,719,45.784000000000006,4.805144444444445,11,2,4d34a29f72a8b1f7f742b2d0,"Suite et faim!.,,",45.78144,4.806446,French Restaurant
1398,666,45.773999999999994,4.8607000000000005,25,1,4d39767a0333a09358f34a34,Le Béranger,45.77008,4.860842,French Restaurant
1216,484,45.763999999999996,4.8607000000000005,50,26,4d3ac243beb7b1f7b98aec71,Le Pompei,45.763769467149714,4.866819495395373,Italian Restaurant
897,165,45.744,4.8607000000000005,9,0,4d3d67e08edf3704864db9a5,Le Zagros II,45.74562010293846,4.864668846130371,Mediterranean Restaurant
552,552,45.76173907066761,4.8500303317508004,40,35,4d41548b00e8a35d230603fb,Chez Les Gones,45.7632362826237,4.850327946340222,French Restaurant
1483,751,45.784000000000006,4.87458888888889,5,3,4d415eb5c5eaa1cdbdfda950,L'Olivier,45.783991807662154,4.875109643314148,Italian Restaurant
634,634,45.76173907066761,4.857480779360311,25,18,4d42b1a7f81e8cfa4e69f656,21 sur Vin,45.76288699837022,4.85494266149514,French Restaurant
1290,558,45.773999999999994,4.805144444444445,38,7,4d4c3ce57d2ccbff43090800,Cane e Gatti,45.771831053991654,4.804096135400079,Italian Restaurant
744,12,45.693999999999996,4.9857000000000005,1,0,4d4dc2054aa3a093f2ab46ae,Cocoo,45.69014782898302,4.983524197723002,Chinese Restaurant
849,117,45.744,4.8190333333333335,20,11,4d51a0c171548cfad77a1d9a,Avarello,45.747116,4.8235,Italian Restaurant
1287,555,45.773999999999994,4.805144444444445,38,4,4d553042611aa35dc3c73139,Pot d'Anne,45.77488685869771,4.807119369506836,French Restaurant
1364,632,45.773999999999994,4.832922222222223,50,36,4d573830611aa35d58814b39,Buddy Bird,45.769690999999995,4.832157,Mexican Restaurant
1047,315,45.75400000000001,4.8607000000000005,29,11,4d5a62c08492a143e0703227,Vertige,45.755871,4.8573699999999995,French Restaurant
1465,733,45.784000000000006,4.832922222222223,7,5,4d5a7a74c88da1cdea3e4568,Pinch Burger,45.7795453554452,4.832347792343356,American Restaurant
1453,721,45.784000000000006,4.805144444444445,11,4,4d603c1d865a224bd4b4a885,Tour d'Asie,45.78424546364165,4.810339013968916,Asian Restaurant
1084,352,45.763999999999996,4.805144444444445,2,1,4d6d429cedc26dcb420bc7a4,Nouveau Saigon,45.766744,4.800975,Chinese Restaurant
620,620,45.76173907066761,4.857480779360311,25,4,4d6e95066458721ebdcb2f20,Suelta Verde,45.75975071433621,4.856315258597536,Mexican Restaurant
1247,515,45.763999999999996,4.87458888888889,14,7,4d721f9a5f0037042a90daa0,La Caveja,45.764243,4.8742980000000005,Italian Restaurant
1043,311,45.75400000000001,4.8607000000000005,29,7,4d777f4478d5a093615b8072,Brasserie de La Villette,45.75725518717884,4.8625111289571095,French Restaurant
623,623,45.76173907066761,4.857480779360311,25,7,4d78bacba56e37045f756f67,Koje,45.76104400465932,4.854639000489583,Sushi Restaurant
750,18,45.70399999999999,4.9023666666666665,2,0,4d7df4a3dd4a6ea895456025,Chez San,45.70538020596689,4.900675536433356,Chinese Restaurant
1507,775,45.803999999999995,4.7773666666666665,6,0,4d7dfd9995c1a143aa26c8f2,Le Montagnard,45.807983003079,4.78001200641503,French Restaurant
1390,658,45.773999999999994,4.846811111111111,19,12,4d7e80d72ff9b60c4f76ad47,Le Lounge,45.775014,4.8523,French Restaurant
796,64,45.733999999999995,4.805144444444445,2,1,4d7f4d6bebc154815ea2f0a6,Le Lafayette,45.73112311662543,4.805634550635375,French Restaurant
1023,291,45.75400000000001,4.846811111111111,50,37,4d7f55bf2ff9b60cc59cbb47,Uskudar,45.75338859108527,4.840839282268477,Doner Restaurant
1421,689,45.773999999999994,4.8607000000000005,25,24,4d811c22e6d7721e1ced24c7,AyaSofya Kebab,45.77188722749964,4.863140046834207,Fast Food Restaurant
829,97,45.733999999999995,4.916255555555557,3,1,4d825e1959d16dcb7da90c1c,Kebab Pizza Délices,45.73628784528439,4.9175173862011805,Middle Eastern Restaurant
359,359,45.76173907066761,4.829703001582534,50,44,4d836d268de9721e0e8a1b51,Jasmingarden,45.761274,4.827068,Asian Restaurant
406,406,45.7662609293324,4.836141442861911,50,41,4d83ccd95e70224b677fff08,L'aile ou la cuisse,45.76411053489056,4.836915297916182,French Restaurant
1456,724,45.784000000000006,4.805144444444445,11,7,4d84b1db40a7a35dd01610be,Le Solaret,45.7855405,4.8085857,French Restaurant
1715,170,45.7662609293324,4.829703001582534,8,4,4d85e5dde83fa143dd1184a1,Bondit,45.765846999999994,4.829109,French Restaurant
553,553,45.76173907066761,4.8500303317508004,40,36,4d89156b4757721eb4a99a69,Maison Rousseau,45.7629580596669,4.8503842125915995,French Restaurant
912,180,45.744,4.87458888888889,14,6,4d8b29c94757721e4d4cc569,La Table De Guy,45.743604,4.877929,French Restaurant
1793,248,45.7662609293324,4.836141442861911,31,23,4d8cf20c1716a143ef720cf7,L'oiseau de paradis,45.7667262,4.8365589444444455,Chinese Restaurant
139,139,45.7562609293324,4.843592467366435,17,15,4d8e55f4c479a35d30ed4397,L'atelier,45.75821042424792,4.842451429609952,French Restaurant
21,21,45.75400000000001,4.832922222222223,24,21,4d97077dc19fb60c1cb78b65,La Tassée,45.75460710584915,4.832619746725074,French Restaurant
279,279,45.7662609293324,4.829703001582534,50,14,4d974f9ca2c65481f062d553,Les Demoiselles De Rochefory,45.76818,4.829263,French Restaurant
726,726,45.77173907066761,4.836142020061859,14,8,4d97861a0caaa143f24795b3,La Bonâme de Bruno,45.77022683653018,4.836868506932399,French Restaurant
1658,113,45.763999999999996,4.832922222222223,11,9,4d986ef70caaa143c713acb3,Planet Sushi,45.76338839355147,4.832565364754584,Sushi Restaurant
1464,732,45.784000000000006,4.832922222222223,7,4,4d9af94273df8cfa4cbceaec,Des Galets Bleus La Nuit,45.779722,4.834612,French Restaurant
1268,536,45.763999999999996,4.916255555555557,9,3,4d9d91f98efaa143dce667b7,O Sushi,45.764639479094896,4.921729,Sushi Restaurant
1259,527,45.763999999999996,4.888477777777778,9,5,4d9f598da428a1cd475bc604,Le Village Indien,45.763843874131176,4.892258138910926,Indian Restaurant
819,87,45.733999999999995,4.832922222222223,17,16,4da2017322a5f04d460b0855,Watami,45.73162374994046,4.8303903204327945,Asian Restaurant
1506,774,45.803999999999995,4.763477777777778,3,2,4da32fea7ccc816ebf90777b,L'instant,45.80403286679787,4.7664322654952045,French Restaurant
1503,771,45.803999999999995,4.74958888888889,4,3,4daea44a0c532e69bf0ea325,Les Terrasses de Dardilly,45.805341999999996,4.753779,French Restaurant
1508,776,45.803999999999995,4.7773666666666665,6,1,4daec9911e7207bbeb16fc7d,Homard 1er,45.802100700000004,4.77924105,French Restaurant
1280,548,45.773999999999994,4.7773666666666665,1,0,4db94b131e7206c23d1956c4,Le Village,45.77409443514708,4.779474138738044,French Restaurant
272,272,45.7662609293324,4.829703001582534,50,7,4dc13ad9b0fb1c18ee5dca34,L'Interlude Café,45.76603463701965,4.831418063181116,French Restaurant
30,30,45.7562609293324,4.829703578477546,7,6,4dc44e33d4c0ad9c0f6b455c,Little Italy,45.75570987305245,4.827468951731573,Italian Restaurant
1443,711,45.784000000000006,4.7357000000000005,2,1,4dc59438c65b89d3ca727c3c,Pavillon De La Rotonde Philppe Gauvreau,45.78753955402316,4.732480460711791,French Restaurant
1286,554,45.773999999999994,4.805144444444445,38,3,4dc59a65e4cd169dc65162e4,Grain De Riz,45.771485560008564,4.8054713267687825,Chinese Restaurant
273,273,45.7662609293324,4.829703001582534,50,8,4dc59cbbb0fb5556ccf5be3a,Le Balmoral,45.76642402649351,4.831899740352947,Italian Restaurant
1536,804,45.82400000000001,4.8190333333333335,1,0,4dc5a5922271f2705132f894,La Haut Sur La Colline,45.822501112291654,4.819717204047258,French Restaurant
768,36,45.71400000000001,4.971811111111111,4,1,4dc67c4dfa76d685cdfad5ed,Duthion Champagne Au Mont D'or,45.71151085704432,4.975495438605856,French Restaurant
650,650,45.76173907066761,4.863919220639688,9,4,4dcd0b117d8b975f18aae8e4,Le Temps Libre,45.76074941442769,4.866482019424439,French Restaurant
53,53,45.75173907066761,4.829703578477546,36,22,4dcee5d822718eed7a44b124,Le Dolmen,45.752077,4.830682,French Restaurant
774,42,45.724,4.8607000000000005,4,1,4dd3a9fc7d8b6704c7a9db0a,La terrasse de Marie,45.720052,4.8590089999999995,French Restaurant
814,82,45.733999999999995,4.832922222222223,17,11,4dd4f9c4b0fb7a332e74c8d7,Le 24,45.731382202823035,4.829723179464925,French Restaurant
497,497,45.76173907066761,4.843591890471423,9,2,4ddaab43fa76ad96d1712fab,Tokyo,45.76009374031754,4.84335761090739,Sushi Restaurant
492,492,45.7662609293324,4.843591890471423,20,17,4ddd59fa227106a58b7384ef,Bienvenidos a Mexico,45.76767566594052,4.8448609307809205,Mexican Restaurant
1480,748,45.784000000000006,4.87458888888889,5,0,4de382f0d22d2a4ecddea614,Le Roccasecca,45.781759,4.878766000000001,Italian Restaurant
1225,493,45.763999999999996,4.8607000000000005,50,35,4de4c633d164df8575311512,Neroliva,45.76429316230342,4.854391852537899,Italian Restaurant
951,219,45.75400000000001,4.832922222222223,50,15,4de76f661f6ed9a35eef6d2e,La Cantine Des Mamans,45.75755289064468,4.833044721691237,French Restaurant
183,183,45.7562609293324,4.850029754855789,22,13,4de778c57d8b1f2dd298115b,Thaï Suois,45.757013626044156,4.848622192060689,Asian Restaurant
1324,592,45.773999999999994,4.8190333333333335,7,3,4de7e1f57d8b1f2dd2a332e5,Sakura,45.773459371096926,4.822636965924628,Sushi Restaurant
1086,354,45.763999999999996,4.8190333333333335,5,1,4deb65cd88774880e335187d,Le Coquemar,45.761687651301635,4.82234098678291,French Restaurant
1003,271,45.75400000000001,4.846811111111111,50,17,4ded282152b13dda25dad4d1,La Jonque d'Or,45.754499912119634,4.840918133785901,Vietnamese Restaurant
251,251,45.763999999999996,4.832922222222223,50,36,4df3578f62e1288ed3037cd7,Noboru,45.76389170108897,4.834587414012217,Japanese Restaurant
865,133,45.744,4.832922222222223,22,7,4df50a55ae609e69dd9f1107,Restaurant Le Tournesol,45.744654,4.832216000000001,French Restaurant
1380,648,45.773999999999994,4.846811111111111,19,2,4df5ee7a62e1288ed30bd6bd,Le Cadet,45.769612698509405,4.847212625792184,French Restaurant
728,728,45.77173907066761,4.836142020061859,14,10,4df891dc2271607ac91836c5,Itadaki,45.77204401940686,4.8357011465483275,Japanese Restaurant
918,186,45.744,4.87458888888889,14,12,4e00df237d8beaa1649de696,Le Temps D'1 Pause,45.742401606192104,4.869659251450655,French Restaurant
91,91,45.7562609293324,4.8361408659668985,35,24,4e09c05fd4c03ae0b9d898f0,Chez M'man,45.757455426191385,4.834833641741284,French Restaurant
1241,509,45.763999999999996,4.87458888888889,14,1,4e0c5796c65bd1c17b6cd36a,L'Arc En Ciel,45.765448808670044,4.871509175,French Restaurant
1518,786,45.803999999999995,4.930144444444445,1,0,4e1343a5ae602afe96cd1264,Le Mekong,45.80524754389404,4.930853262736613,Asian Restaurant
749,17,45.70399999999999,4.888477777777778,1,0,4e143dfdb61c18a826ff9bf7,La Perdrix Blanche,45.70134373737052,4.889347743175046,French Restaurant
1511,779,45.803999999999995,4.7773666666666665,6,4,4e295a58e4cd6c6cb34fa75b,C Restaurant,45.80608917152478,4.773030580934557,German Restaurant
321,321,45.76173907066761,4.829703001582534,50,6,4e2abdd66284b96d7b7fce6c,Sol Café,45.76253839489562,4.826818077491853,Mexican Restaurant
1050,318,45.75400000000001,4.8607000000000005,29,14,4e2e9157483b93c2f2d6192e,Concert De Wok,45.7563885659302,4.863462070604473,Asian Restaurant
1466,734,45.784000000000006,4.832922222222223,7,6,4e2fea497d8bf59d291b0455,L Oiseau Sur Sa Branche,45.77956187041247,4.832074536471692,French Restaurant
1303,571,45.773999999999994,4.805144444444445,38,20,4e3285a86284e26999477976,D'Ailleurs et d'Autre part,45.77376754047797,4.810095927133268,French Restaurant
188,188,45.7562609293324,4.850029754855789,22,18,4e331e7945dd6987a175c636,La Colombe,45.75682073797042,4.849254097616496,Greek Restaurant
822,90,45.733999999999995,4.87458888888889,4,0,4e3a73b962e10c0843d62e70,L'Orchidée Blanche,45.734192,4.875655999999999,Asian Restaurant
133,133,45.7562609293324,4.843592467366435,17,9,4e3c4238aeb73139a16902b1,Indochine,45.754698514938354,4.841446280479432,Asian Restaurant
800,68,45.733999999999995,4.8190333333333335,6,3,4e3da5291838cb1b82f3b117,Le Saint Cochon,45.73641193727992,4.820410516650972,French Restaurant
1419,687,45.773999999999994,4.8607000000000005,25,22,4e4b9a9e1f6e2a789a891b43,Restaurant New China,45.772679794074385,4.8662152481595395,Asian Restaurant
1283,551,45.773999999999994,4.805144444444445,38,0,4e4cfe7f1f6e4ff50fdbaac1,Mezzo Di Pasta,45.77495087418602,4.8054849672994715,Italian Restaurant
1291,559,45.773999999999994,4.805144444444445,38,8,4e5202186365e1419d04120d,Francesca Ristorante,45.77105535906226,4.8030853271484375,Italian Restaurant
1404,672,45.773999999999994,4.8607000000000005,25,7,4e5be2f662e1de72f7116c46,Mutfak,45.771938821741074,4.86550959889296,Middle Eastern Restaurant
554,554,45.76173907066761,4.8500303317508004,40,37,4e62051f52b1260c12ee2ef4,Julie & Caroline - Les Filles Allard,45.763252661384,4.850488636744736,French Restaurant
1491,759,45.794,4.832922222222223,4,1,4e63623dae60e9edf6262501,Fond Rose,45.79130810532575,4.82785568435096,French Restaurant
896,164,45.744,4.846811111111111,17,16,4e67b15e227151797049b0e7,Le Condé,45.745391307167786,4.847436164886247,French Restaurant
1416,684,45.773999999999994,4.8607000000000005,25,19,4e67b98a8877dfcf304b894f,Spicy Tandoori,45.77273502557714,4.866360107041436,Indian Restaurant
1394,662,45.773999999999994,4.846811111111111,19,16,4e6f3bc6b9933190ed64a756,L'Assiete Du Parc,45.773206,4.848382844383884,French Restaurant
501,501,45.76173907066761,4.843591890471423,9,6,4e7086bf14950bb0d717d3d0,La Scala Siciliana,45.759716992523174,4.8430463675018105,Italian Restaurant
1860,315,45.767391393998594,4.855871103803397,26,5,4e70ec8d2271c7e78c02cc5c,Le Palais D'or,45.768058,4.855419,Chinese Restaurant
1437,705,45.773999999999994,4.930144444444445,4,2,4e71de3caeb79ea0951f11ee,Les Tilleuls,45.774445185247394,4.931979666051774,French Restaurant
821,89,45.733999999999995,4.8607000000000005,1,0,4e73680bcc3f93bd77154f50,O’Naan,45.73302543594974,4.864411354064941,Indian Restaurant
835,103,45.744,4.7773666666666665,1,0,4e747572483b0cf5ec4a1aba,B Bleu,45.740107815755216,4.780297492089732,French Restaurant
1515,783,45.803999999999995,4.8190333333333335,1,0,4e748863e4cd325436e12a46,Le Comptoir de Saint-Cyr,45.80139255769463,4.8199043971336994,French Restaurant
867,135,45.744,4.832922222222223,22,9,4e778ecb1838f9188ac2dac5,Le Lac Des Brumes,45.74763357177396,4.83434122800181,Chinese Restaurant
515,515,45.7662609293324,4.8500303317508004,13,11,4e7883ecb0fb305db5df6971,Café de la mairie,45.768068864254964,4.849085343579092,German Restaurant
1012,280,45.75400000000001,4.846811111111111,50,26,4e7b83c37d8b3763347c74b0,Saveurs Orientales,45.753516999999995,4.841118,Middle Eastern Restaurant
833,101,45.744,4.7357000000000005,2,0,4e7e23c561afbcd1d401333b,New Saigon,45.74749955027865,4.732523535323763,Chinese Restaurant
1260,528,45.763999999999996,4.888477777777778,9,6,4e7f0169722efeb8458d27c3,Eclair Kebab 99,45.761840931547596,4.887241741081704,Greek Restaurant
1760,215,45.767391393998594,4.831312677139451,18,15,4e7f8f8bb8f76e28c2d86add,Le Ksar,45.767488,4.830233,Moroccan Restaurant
905,173,45.744,4.8607000000000005,9,8,4e85975a2c5b1f256f0705c4,La Capitale,45.74519865304747,4.866493108482292,Chinese Restaurant
1742,197,45.76513046466621,4.828093326025618,19,16,4e861652b8f76b83a7fc2d66,Le Boucan Canot,45.76452633818305,4.827843598471052,Cajun / Creole Restaurant
778,46,45.724,4.87458888888889,3,1,4e8c61527ee63153eb92e15b,Le Dragon Du Bonheur,45.7245019430227,4.871863573948437,Asian Restaurant
1495,763,45.794,4.8607000000000005,4,0,4e8f46f46c25abdcf439b71a,Le Bleu De France,45.79140841782258,4.863405258482073,French Restaurant
1325,593,45.773999999999994,4.8190333333333335,7,4,4e8f4b91e5fa2c09eae0c122,Café Papon,45.773896,4.821668,Swiss Restaurant
1069,337,45.75400000000001,4.888477777777778,5,0,4e917e1877c89cb9221ff230,Le Chateau,45.75003854169481,4.8877344222048835,Italian Restaurant
1510,778,45.803999999999995,4.7773666666666665,6,3,4e92cdb2b8f7cece22ec42ad,L'épicerie,45.80110549926758,4.778514862060547,French Restaurant
1505,773,45.803999999999995,4.763477777777778,3,1,4e92d5bbdab4ec3b1eaeb1b6,Les Marches,45.80199612629661,4.766032065574053,French Restaurant
1544,812,45.833999999999996,4.846811111111111,3,2,4ea00a2930f854cd9c233c32,Le Pamukkale,45.83079981714016,4.847826088001611,Middle Eastern Restaurant
831,99,45.733999999999995,4.971811111111111,1,0,4ea7df32d3e33e1d4f1b7410,Anatolia,45.73350264930525,4.9682880999850045,Mediterranean Restaurant
150,150,45.75173907066761,4.843592467366435,29,9,4ea99fa39a522efffbaee315,Kaya,45.75084460557582,4.8460199238004105,Korean Restaurant
1187,455,45.763999999999996,4.846811111111111,50,47,4eaa9b1c77c850207ed5867c,Chez eux - Restaurant,45.76004247251007,4.847718970369801,French Restaurant
1285,553,45.773999999999994,4.805144444444445,38,2,4eab193b7ee5cd8bcdbef40d,L'quinoxe,45.77439623214061,4.8036259398049435,Swiss Restaurant
1473,741,45.784000000000006,4.8607000000000005,11,4,4eafdf17722e4efd61a90d25,Terra Azurra,45.785333179177506,4.856463150804428,Italian Restaurant
873,141,45.744,4.832922222222223,22,15,4eb43b39469073bbc59f6f7e,Pizzdelice,45.74832139414561,4.8318917600640425,Italian Restaurant
1258,526,45.763999999999996,4.888477777777778,9,4,4eb43c09be7bfc2849c73fec,El Chiringuito,45.759945202062504,4.891081515277525,Spanish Restaurant
162,162,45.75173907066761,4.843592467366435,29,21,4eb5a7fe6c2590eb8828f639,Caviar Pour Les Autres,45.75024273595474,4.845886406029357,French Restaurant
1250,518,45.763999999999996,4.87458888888889,14,10,4ec5117bd3e3098aeb15963c,Aspendos,45.76615376548221,4.870640751595006,Middle Eastern Restaurant
549,549,45.76173907066761,4.8500303317508004,40,32,4ec51471775b7dea8798ffde,Côté Part Dieu,45.75990995160774,4.8515281707575335,French Restaurant
765,33,45.71400000000001,4.930144444444445,2,0,4ec628f429c22cc60ac3d999,Restaurant Le Cocon,45.71567592656093,4.9290585765417285,French Restaurant
738,6,45.693999999999996,4.846811111111111,1,0,4ec6477677c8be492126c73a,Le Chineur,45.694131642544384,4.844251800402609,French Restaurant
916,184,45.744,4.87458888888889,14,10,4ec8fb41b634b2fd7632e073,Le Maryse Bastié,45.740819216578274,4.874400998308499,French Restaurant
1072,340,45.75400000000001,4.888477777777778,5,3,4ecf7f72e5faa5ec01ad1339,Evidences,45.750577371888255,4.8893418825034765,French Restaurant
1322,590,45.773999999999994,4.8190333333333335,7,1,4ed6850f9a529c405bdbc770,Intuition,45.7740087,4.8130239999999995,French Restaurant
934,202,45.75400000000001,4.8190333333333335,10,8,4eda078fbe7be283373ebd4c,Le Temps D'une Pause,45.75697436893604,4.816184785048628,French Restaurant
826,94,45.733999999999995,4.888477777777778,1,0,4eea4c8eb8f7eaddf7c46bc9,Delice Kebab,45.737908000000004,4.8860410000000005,Mediterranean Restaurant
1531,799,45.81399999999999,4.930144444444445,1,0,4ef1dd2129c2e7e6d1c467b0,La Villa,45.81679029592081,4.934876462605151,French Restaurant
1318,586,45.773999999999994,4.805144444444445,38,35,4ef341490e617e29c7fe79b4,Au Gre Des Jours,45.77352487478678,4.806847792981329,French Restaurant
1075,343,45.763999999999996,4.7773666666666665,9,1,4ef3aa3eb8f77e0f972dbafd,Locolez,45.76455174062667,4.775492322601892,Tapas Restaurant
1413,681,45.773999999999994,4.8607000000000005,25,16,4f04a88329c2b9a3ee3f389a,Restaurant Merveille,45.772101604367215,4.865518936309557,Middle Eastern Restaurant
1792,247,45.7662609293324,4.836141442861911,31,22,4f0b3ad7e4b0945c6dc2cbf7,Chez Bibi- Meilleur Table De Lyon,45.76652984979411,4.835213274608903,French Restaurant
297,297,45.7662609293324,4.829703001582534,50,32,4f186b3fe4b07e1b493c32db,Archange,45.76839456013664,4.830536397740755,French Restaurant
760,28,45.71400000000001,4.8190333333333335,3,1,4f195c60e4b02a5a23e34003,boite a sardines,45.7151785541558,4.8208507977126365,French Restaurant
1246,514,45.763999999999996,4.87458888888889,14,6,4f1b179be4b0838231c0202f,Mika sushi,45.767672131090364,4.8781435254157826,Sushi Restaurant
1843,298,45.767391393998594,4.837751118418828,15,12,4f1daed3e4b01d7c60e94ba3,Les Fils à Maman,45.766748922274864,4.837260690092196,French Restaurant
1638,93,45.760608606001405,4.8345318977713445,4,3,4f1dd1dae4b0e2eeedcce402,Coréen barbecue,45.75987926234148,4.834560858800601,Korean Restaurant
740,8,45.693999999999996,4.930144444444445,3,0,4f1e9ba0e4b0d35bd6d20a16,La Cantine,45.6958122253418,4.934791564941406,French Restaurant
1040,308,45.75400000000001,4.8607000000000005,29,4,4f214042e4b0c3e5eee65b39,Puerto Argentino,45.75654189129864,4.855721399090551,Argentinian Restaurant
1803,258,45.767391393998594,4.834531767304995,12,2,4f23f789e4b0617643c8a284,Restaurant l'Étage,45.767717549157794,4.833512306213379,French Restaurant
1488,756,45.794,4.791255555555557,1,0,4f255a87e4b06176453bde94,Hoa Anh Dao,45.794353044027346,4.7905587254747335,Asian Restaurant
930,198,45.75400000000001,4.8190333333333335,10,4,4f30fc68e4b0e6be3a9a57b3,Self du lycée St Just,45.757021956315754,4.821118900739551,Arepa Restaurant
1496,764,45.794,4.8607000000000005,4,1,4f357acce4b07c0117325806,Le Coeur En Bouche,45.79428984422704,4.855541362640251,French Restaurant
1402,670,45.773999999999994,4.8607000000000005,25,5,4f38fa6ce4b0156e890eb421,Le Pré-Vert,45.77568535663685,4.862598093934091,French Restaurant
1516,784,45.803999999999995,4.832922222222223,1,0,4f3c051be4b09bd6279749cf,L'effervescence,45.803686617685,4.837550220209626,French Restaurant
1497,765,45.794,4.8607000000000005,4,2,4f402234e4b0f4e3fab5e69a,Restaurant chez Luigi,45.791708935140115,4.864315175157884,Italian Restaurant
1425,693,45.773999999999994,4.87458888888889,10,3,4f4614e2e4b03c926b605280,Biogone,45.773930439378965,4.869677562352618,Filipino Restaurant
1074,342,45.763999999999996,4.7773666666666665,9,0,4f462187e4b00ed049e9ad16,Sushi Shop,45.764203809414255,4.781980531200102,Sushi Restaurant
1408,676,45.773999999999994,4.8607000000000005,25,11,4f46aa57e4b0f85d06113911,Shimla,45.773436357714026,4.866988562683947,Indian Restaurant
1274,542,45.763999999999996,4.9440333333333335,1,0,4f4b6c03e4b096208a8e7ccf,Le Wilson,45.76795953555808,4.943273273818829,French Restaurant
891,159,45.744,4.846811111111111,17,11,4f50bb66e4b0771bcce62dee,la colline d or,45.745437485199076,4.849628130646882,Chinese Restaurant
355,355,45.76173907066761,4.829703001582534,50,40,4f511b47e4b062d9daa94495,Tout Une Histoire,45.76180960707703,4.832383635281002,French Restaurant
1519,787,45.81399999999999,4.763477777777778,2,0,4f589d50e4b0fbb1bb88f819,Lycee Francois Rabelais,45.81766672020985,4.761711842270759,French Restaurant
154,154,45.75173907066761,4.843592467366435,29,13,4f5ca5c8e4b0d8f7b71a9f7a,Fat Moroccan's,45.7503333593644,4.844673990410287,Moroccan Restaurant
1484,752,45.784000000000006,4.87458888888889,5,4,4f621bf0e4b034b45f4e541a,chopstix,45.7797916,4.873609099999999,Chinese Restaurant
745,13,45.70399999999999,4.8190333333333335,2,0,4f6391d9e4b0dc771f2f7e09,Léo Sushi,45.70755066298865,4.820612312847529,Sushi Restaurant
1262,530,45.763999999999996,4.888477777777778,9,8,4f650f477bebfc2254cc7769,Tonnerre de Brest,45.76789716733179,4.888486862182617,French Restaurant
173,173,45.7562609293324,4.850029754855789,22,3,4f67213be4b06cb9fd9b9a24,Vivarais'Café,45.75708105373166,4.851636444907856,French Restaurant
883,151,45.744,4.846811111111111,17,3,4f6b0bb6e4b0c122efd28e4f,Zagros,45.74539566040039,4.8417696952819815,Middle Eastern Restaurant
1521,789,45.81399999999999,4.7773666666666665,1,0,4f6b12b4e4b0357123ea5dea,Eat'aliano,45.8162,4.7727,Italian Restaurant
1284,552,45.773999999999994,4.805144444444445,38,1,4f6ba8c1e4b08a0bb8820e3a,Le Pas Sage,45.77254461881608,4.810703228694726,Caribbean Restaurant
1442,710,45.784000000000006,4.7357000000000005,2,0,4f7207b7e4b0f11afa3e8d8d,Pizzeria l'allegria,45.782401051432274,4.736153887866539,Italian Restaurant
1327,595,45.773999999999994,4.8190333333333335,7,6,4f72da20e4b05b6a687913cb,Urinoir,45.773096,4.822268,Arepa Restaurant
1242,510,45.763999999999996,4.87458888888889,14,2,4f75a28ae4b07eec2058b851,Magenta,45.76460030997496,4.871823108366407,French Restaurant
1743,198,45.76513046466621,4.828093326025618,19,17,4f785c00e4b04210839bec22,Rawal Tandoori,45.76468556285565,4.828210491056437,Indian Restaurant
775,43,45.724,4.8607000000000005,4,2,4f7ad296e4b06b95529838bd,La lozere,45.72610690560703,4.856126666806591,French Restaurant
851,119,45.744,4.8190333333333335,20,13,4f7c99aee4b043bd2b81f0ac,Woko,45.7412763505701,4.817477371349564,Asian Restaurant
848,116,45.744,4.8190333333333335,20,10,4f7caf24e4b0a6ed16747ae7,Viapiano,45.74073134631133,4.819379275651208,Italian Restaurant
846,114,45.744,4.8190333333333335,20,8,4f7cb96de4b01995bf55c95e,Fuxia,45.74140576076953,4.817481136764251,Italian Restaurant
1337,605,45.773999999999994,4.832922222222223,50,9,4f7d7a6de4b0f6ec00fbb4ff,Toki sushi,45.77747612524171,4.833154380373767,Japanese Restaurant
839,107,45.744,4.8190333333333335,20,1,4f7d8046e4b02e131425e303,Vapiano,45.74084002882818,4.818887448988582,Italian Restaurant
855,123,45.744,4.8190333333333335,20,17,4f7eef84e4b0340b44596a9d,Zinc Zinc,45.741496389387855,4.817077885544509,French Restaurant
857,125,45.744,4.8190333333333335,20,19,4f8427ffe4b044329909b7f1,Go Mex,45.74161857861767,4.816261201798612,Mexican Restaurant
51,51,45.75173907066761,4.829703578477546,36,20,4f8723a6e4b0af04be6eaeb9,Franco e Nicolo,45.74967768303112,4.8299742139408135,Italian Restaurant
1308,576,45.773999999999994,4.805144444444445,38,25,4f88813ee4b0a95f930bec28,L'Esprit Bistrot,45.77168410718944,4.803934699379394,French Restaurant
850,118,45.744,4.8190333333333335,20,12,4f89b7a7e4b05ae8891bd497,Sushi Shop,45.74148488241868,4.817117598330828,Sushi Restaurant
1407,675,45.773999999999994,4.8607000000000005,25,10,4f8e9cd3e4b030bfd5d7f132,la rôtisserie des petits bônes,45.770061,4.861708999999999,French Restaurant
777,45,45.724,4.87458888888889,3,0,4f8eaee9e4b018d8f67958d5,Le jardin de l'Orient,45.722988412368544,4.871674445468455,Asian Restaurant
45,45,45.75173907066761,4.829703578477546,36,14,4f8f20c4e4b007e6129a018f,Ristorante Il Palio,45.750440588105924,4.828820280481407,Italian Restaurant
1426,694,45.773999999999994,4.87458888888889,10,4,4f905f04e4b07a23fea39b49,Pachenguera,45.77752092379244,4.8706487249167045,Latin American Restaurant
1319,587,45.773999999999994,4.805144444444445,38,36,4f9e66c4e4b02aa9c186ae75,Comptoirs du 9ème,45.77007692344793,4.803775004900543,French Restaurant
840,108,45.744,4.8190333333333335,20,2,4f9ed056e4b0e445b9120f13,Amélie Crêpes,45.7412361233175,4.817625653799256,French Restaurant
1326,594,45.773999999999994,4.8190333333333335,7,5,4fa182f8e4b000b3050eeceb,Cucina Don,45.77261653023211,4.816281059923076,American Restaurant
54,54,45.75173907066761,4.829703578477546,36,23,4fa2ce49e4b0793be5d836d9,Franco Et Nicolo,45.75208198719799,4.830548055808385,Italian Restaurant
1485,753,45.784000000000006,4.888477777777778,1,0,4fa6ffd7e4b00f71964c517f,BRAH BRAH BRRRRRAH,45.7868575,4.8871185,Chinese Restaurant
766,34,45.71400000000001,4.930144444444445,2,1,4fb29ccce4b0216f68cb8d46,L'Effervescence,45.71433356467863,4.931197986097926,French Restaurant
861,129,45.744,4.832922222222223,22,3,4fbe0e23e4b00c059c544a39,Meza,45.746984000000005,4.837597,Mediterranean Restaurant
1424,692,45.773999999999994,4.87458888888889,10,2,4fc120e5e4b08acaf4876c13,L'aligot vietnamien,45.77263660019434,4.873875598710462,Vietnamese Restaurant
212,212,45.75173907066761,4.850029754855789,23,20,4fc5f34e7b0c7e019ef9e1d9,Restaurant Mosaique,45.752672474430334,4.851933717727661,Mediterranean Restaurant
735,3,45.693999999999996,4.8190333333333335,3,0,4fc5f505e4b0d1962f0128f8,Les Deux Platanes,45.696534736282466,4.821817788493687,French Restaurant
1761,216,45.767391393998594,4.831312677139451,18,16,4fc8e6726b747e2e10f476cc,Coté Sud,45.768069300872476,4.83073353767395,French Restaurant
828,96,45.733999999999995,4.916255555555557,3,0,4fca4569e4b00af050585bb6,Le Scénario,45.73013595872273,4.914162374123486,French Restaurant
1486,754,45.794,4.7357000000000005,1,0,4fd0e83ae4b0c3edb5ff7fbf,Chateau de la Tour de Salvagny,45.79142214742487,4.731159210205078,French Restaurant
1533,801,45.82400000000001,4.763477777777778,4,1,4fdb8361e4b0c183ab76e8d2,Terres Du Sud,45.821625100564276,4.759662401404023,French Restaurant
733,1,45.693999999999996,4.763477777777778,2,1,4fdc718de4b0ab51ec09adf7,Lafargue Traiteur,45.69694263177083,4.7628266397556445,French Restaurant
866,134,45.744,4.832922222222223,22,8,4fe0b3f5e4b06e104f92f915,L embarcadere,45.7481823282119,4.832548960615985,French Restaurant
751,19,45.70399999999999,4.9023666666666665,2,1,4fe8389ce4b0972a1dda6d4b,Deuxième Avenue,45.70485312277752,4.900192022323608,French Restaurant
933,201,45.75400000000001,4.8190333333333335,10,7,4feca584e4b0186db01cdd9e,Le Jardin De Chine,45.75301460156066,4.822112960904624,Chinese Restaurant
1741,196,45.76513046466621,4.828093326025618,19,15,4fef71f2e4b072533feca3f5,Madras Tandoori,45.765366,4.8280199999999995,Indian Restaurant
1079,347,45.763999999999996,4.7773666666666665,9,5,4ff4305ce4b0956dd3d1b434,Brasserie Halles,45.76235375358876,4.778834256018906,French Restaurant
1083,351,45.763999999999996,4.805144444444445,2,0,4ff4632ad86ca0c9389872e6,LES TOURNESOLS,45.76810672113713,4.803643226623535,French Restaurant
168,168,45.75173907066761,4.843592467366435,29,27,4ff572c3e4b0fb4a8288d1c5,La Corée,45.750947125022456,4.845461098894552,Asian Restaurant
1428,696,45.773999999999994,4.87458888888889,10,6,4ff5d2aee4b0d48ad22cc20b,Rimon,45.773143,4.869363,Italian Restaurant
790,58,45.724,4.930144444444445,7,5,4ff5d75de4b0734a7a12e3c2,Le Grand Buffet,45.72596740722656,4.925137996673584,French Restaurant
1185,453,45.763999999999996,4.846811111111111,50,45,4ffd6574e4b0184d35c3bc18,Restaurant Dersim,45.76360321044922,4.852021217346191,Middle Eastern Restaurant
1311,579,45.773999999999994,4.805144444444445,38,28,5005aedee4b0d989bafa951c,Orange à la Canelle,45.776540145232445,4.804212357082267,Moroccan Restaurant
794,62,45.733999999999995,4.791255555555557,1,0,501273c9e4b0e259d25f1996,Robino,45.735040000000005,4.7862540000000005,Italian Restaurant
140,140,45.7562609293324,4.843592467366435,17,16,5027834ee4b06553e278af90,Restaurant Du Soleil,45.75669076503025,4.844978815088592,Middle Eastern Restaurant
691,691,45.77173907066761,4.829702424382587,9,2,5033d320e4b03e64bc76f893,Gafieira,45.76963376577237,4.829717973325962,Brazilian Restaurant
753,21,45.71400000000001,4.805144444444445,7,1,5037c38ae4b02b479d4755c8,Là Perle d'Asie,45.71624374389648,4.804856777191162,Asian Restaurant
1400,668,45.773999999999994,4.8607000000000005,25,3,503e3434e4b03242d0a7daba,Bo Sushi,45.772401131029184,4.859565825903697,Sushi Restaurant
1346,614,45.773999999999994,4.832922222222223,50,18,50433bc3e4b037986816660a,Le Jardin Des Dombes,45.77793446,4.83392129,Restaurant
795,63,45.733999999999995,4.805144444444445,2,0,504786c590e7d01a5ad53c88,Epicerie et Compagnie,45.73605081139188,4.8043084144592285,French Restaurant
289,289,45.7662609293324,4.829703001582534,50,24,505a212fe4b09176b45843f9,L'entracte,45.76604044179518,4.831316187853107,French Restaurant
502,502,45.76173907066761,4.843591890471423,9,7,505c45e2e4b0b4345ee2de8e,Mit Sushi Cordeliers,45.762063861506384,4.840555927432196,Japanese Restaurant
776,44,45.724,4.8607000000000005,4,3,505dbfa1e4b0236a278ffb58,Lyon Frans Royal Restaurant,45.726997999999995,4.862579,Turkish Restaurant
1556,11,45.76286953533381,4.828093456491969,43,10,50682a1de4b0e0776175f501,Tex Mex,45.76350784301758,4.827570915222168,Mexican Restaurant
1378,646,45.773999999999994,4.846811111111111,19,0,506ed80fe4b0d410cdf62dc3,Le President,45.775119000000004,4.8426540000000005,French Restaurant
1643,98,45.76286953533381,4.837750987952477,6,4,507704fbe4b0bc04b9a9c219,Entr'acte,45.76224966262546,4.8374804398235405,French Restaurant
1391,659,45.773999999999994,4.846811111111111,19,13,507815f7582fbec1c8cbabe8,Bistrot B,45.76951370487052,4.847073554992676,French Restaurant
1253,521,45.763999999999996,4.87458888888889,14,13,5079a5c3e4b05b62b32c8651,Le Dragon D'or,45.76482830749856,4.8715893231345655,Chinese Restaurant
1312,580,45.773999999999994,4.805144444444445,38,29,5082f266e4b094820a51c6eb,Restaurant Mevlana,45.77328353947548,4.809939342499091,Turkish Restaurant
1512,780,45.803999999999995,4.7773666666666665,6,5,508a7844e4b0c56e746b03d1,le W,45.804367366574446,4.775125955666862,French Restaurant
1261,529,45.763999999999996,4.888477777777778,9,7,508bb06be4b0988211899c84,Vietnam Delices,45.763863,4.8922930000000004,Vietnamese Restaurant
486,486,45.7662609293324,4.843591890471423,20,11,508bd1b4e4b0c9eb71b09c5a,Poivre D'âne,45.765775,4.842713,French Restaurant
345,345,45.76173907066761,4.829703001582534,50,30,509029e8e4b0c3ef09ca2749,Rabelais,45.76128005981445,4.826822757720947,French Restaurant
830,98,45.733999999999995,4.916255555555557,3,2,509a45ffe4b094d3756fc6f9,Istanbul 2,45.732933071608706,4.910564489223205,Turkish Restaurant
1065,333,45.75400000000001,4.87458888888889,4,0,50a14f17e4b0872dbeddadee,Goût De Bollywood,45.755837,4.8766300000000005,Indian Restaurant
241,241,45.763999999999996,4.832922222222223,50,26,50a23daee4b0d35b058a37c0,Persan,45.76506818384277,4.83274479204944,Middle Eastern Restaurant
493,493,45.7662609293324,4.843591890471423,20,18,50a3896fe4b0984b71a68b6e,S-Sushi,45.76749901767489,4.845633996581066,Asian Restaurant
1401,669,45.773999999999994,4.8607000000000005,25,4,50a79209e4b0d062c5372b76,Okawali,45.769944184186365,4.86295526173474,Japanese Restaurant
815,83,45.733999999999995,4.832922222222223,17,12,50ad2779e4b0f32f45c73a10,Apsara,45.73024485918869,4.829892660511562,Asian Restaurant
1310,578,45.773999999999994,4.805144444444445,38,27,50b144a2e4b042e7818a8118,Pasta & Baci,45.77469,4.80809,Italian Restaurant
56,56,45.75173907066761,4.829703578477546,36,25,50b2161de4b0c965a0fd0974,Le Méditerranée,45.751294,4.8296269999999994,Mediterranean Restaurant
741,9,45.693999999999996,4.930144444444445,3,1,50b75c47e4b08451ad600505,La Gare Routière,45.69148520663191,4.934772661306765,French Restaurant
792,60,45.724,4.957922222222223,1,0,50b764f9e4b064fd4799dadd,Self only Lyon,45.725181579589844,4.952888488769531,French Restaurant
1244,512,45.763999999999996,4.87458888888889,14,4,50ba0241e4b09e5761fad100,Villa Urbana,45.76531600952149,4.880352020263672,Italian Restaurant
238,238,45.763999999999996,4.832922222222223,50,23,50c097c2e4b0862c2eabce23,Yaketama,45.762864,4.832992,Sushi Restaurant
189,189,45.7562609293324,4.850029754855789,22,19,50c0dfdae4b099045dc6bd8e,Anatolya,45.75636291503906,4.8478732109069815,Turkish Restaurant
1077,345,45.763999999999996,4.7773666666666665,9,3,50c1d8c4e4b0de95d2652511,L'horloge Gourmande,45.764608398421935,4.780661007935522,French Restaurant
653,653,45.76173907066761,4.863919220639688,9,7,50c33a27e4b0794e99889a66,Curry Wurst,45.760189000000004,4.866214,German Restaurant
651,651,45.76173907066761,4.863919220639688,9,5,50c33a47e4b092542c138910,Bretzel Fan,45.760189000000004,4.866214,German Restaurant
646,646,45.76173907066761,4.863919220639688,9,0,50c33a68e4b087eb7d6bb252,Schnitzel Corner,45.760189000000004,4.866214,German Restaurant
1007,275,45.75400000000001,4.846811111111111,50,21,50c33a7ae4b0c7bb3fc891cf,Viêtnam City,45.75497,4.840823,Vietnamese Restaurant
1389,657,45.773999999999994,4.846811111111111,19,11,50c87b9ae4b092bb2ffe179f,Le Lounge,45.77433,4.84656,French Restaurant
104,104,45.75173907066761,4.8361408659668985,6,2,50ccd96de4b0ed7c3b43edbe,prado,45.750784440744546,4.837802014706275,African Restaurant
1540,808,45.833999999999996,4.791255555555557,1,0,50ce5513e4b07c15493f6916,Aux montagnards,45.83272524650276,4.793485174949099,French Restaurant
1066,334,45.75400000000001,4.87458888888889,4,1,50cec934e4b0aceb63801581,Indian food center,45.75633195443295,4.870350407973938,Indian Restaurant
1062,330,45.75400000000001,4.8607000000000005,29,26,50d2f803e4b08f48950ef5d8,Tuyet Nhi,45.757140785087145,4.8588548613251366,Chinese Restaurant
715,715,45.7762609293324,4.836142020061859,20,17,50e6db5ae4b06de012a18617,Le Comptoir des Canuts,45.777480744981105,4.834248774925848,French Restaurant
456,456,45.76173907066761,4.836141442861911,50,41,50ec004ee4b04732a8e7f4ca,Baobab,45.75998794835672,4.836447888871913,Asian Restaurant
1304,572,45.773999999999994,4.805144444444445,38,21,50f4f15ce4b042a2fb6d42a1,Évasion sucrée salée,45.7779557,4.807306400000001,French Restaurant
1298,566,45.773999999999994,4.805144444444445,38,15,50f53aede4b057c419cd87af,La Mia Cucina,45.77106520564888,4.802778611881656,Italian Restaurant
844,112,45.744,4.8190333333333335,20,6,50fa9628e4b0d048672a2fd5,Intermezzo,45.74321483088057,4.815804362297059,Italian Restaurant
645,645,45.7662609293324,4.863919220639688,5,4,51011260e4b0dd32ed3e4150,restaurant le Bellecombe (cantine EDF),45.7679213058488,4.861881741594587,Afghan Restaurant
1275,543,45.763999999999996,4.971811111111111,1,0,510aaa16e4b0987e69bd2d40,le verso,45.763620494663144,4.972402641860609,French Restaurant
1494,762,45.794,4.846811111111111,1,0,510faa00e4b01d3afe88d637,Le Dompi,45.79744844420513,4.850715308764975,Italian Restaurant
1392,660,45.773999999999994,4.846811111111111,19,14,510fb59fe4b01a7ad3536580,Le Florentin,45.771992,4.8432830000000004,Italian Restaurant
654,654,45.76173907066761,4.863919220639688,9,8,5114e642e4b0b468ba0acc51,Bistrot du Cours,45.763628661631614,4.8647891164798915,French Restaurant
99,99,45.7562609293324,4.8361408659668985,35,32,511a8db1e4b0acbffba32210,Alapecheauxmoules,45.757452,4.834825,French Restaurant
860,128,45.744,4.832922222222223,22,2,511b754be4b0284831685656,Pres Food,45.747766504474924,4.833719638478935,Asian Restaurant
1264,532,45.763999999999996,4.9023666666666665,2,1,51212d8ee4b0d6061b36bbf0,KINGSTONE Indian Tandoori,45.76703572174679,4.901270644161548,Indian Restaurant
1477,745,45.784000000000006,4.8607000000000005,11,8,5125fd95e4b094d648ebc3ae,Terrazzura,45.785463,4.856127,Restaurant
854,122,45.744,4.8190333333333335,20,16,512cf272e4b049302e19f397,Confluence Sushi,45.74405225485133,4.817844371568612,Sushi Restaurant
1387,655,45.773999999999994,4.846811111111111,19,9,51387668e4b0ca7b3d7f7488,bougaci,45.776061380277525,4.8413192910406915,African Restaurant
635,635,45.76173907066761,4.857480779360311,25,19,5138d63fe4b01d46585b6219,Back to the fifties,45.76111026218375,4.854411721907471,American Restaurant
1317,585,45.773999999999994,4.805144444444445,38,34,514305fce4b0e8b142b8e7a4,Le Palais de l'Inde,45.7742380467714,4.805125278485211,Indian Restaurant
66,66,45.75173907066761,4.829703578477546,36,35,51448776e4b0da66d868277b,Kebab Victor Hugo,45.75161417234464,4.828405466507271,Turkish Restaurant
931,199,45.75400000000001,4.8190333333333335,10,5,5149e33be4b00d7f777dc481,Woko,45.752185,4.817006,Asian Restaurant
1405,673,45.773999999999994,4.8607000000000005,25,8,514c49bce4b0082102652ce7,Wakai,45.77317971481201,4.859478035696951,Japanese Restaurant
1538,806,45.82400000000001,4.957922222222223,1,0,514cbfc5e4b03150f9a3d75a,Le Palmyre,45.82393266888279,4.952481456425486,Turkish Restaurant
1725,180,45.767391393998594,4.828093326025618,7,6,515c2464e4b0b02937794d88,Bistrot Jul,45.76725781378383,4.828184240270468,French Restaurant
841,109,45.744,4.8190333333333335,20,3,51605254e4b07bc29b03fe87,So Luso,45.74184927112957,4.816476306266024,Portuguese Restaurant
1036,304,45.75400000000001,4.8607000000000005,29,0,516541d1e4b060e54c39bfb5,Lello,45.756918276557606,4.864312246724414,Italian Restaurant
817,85,45.733999999999995,4.832922222222223,17,14,5167fd3ee4b071ff71bb54d0,Tandoor&wok,45.73696680312701,4.833845298749035,Indian Restaurant
834,102,45.744,4.7357000000000005,2,1,5169a775498e2abcc90a566a,Mister Dinner,45.746871,4.738141000000001,American Restaurant
1295,563,45.773999999999994,4.805144444444445,38,12,516af0b9498e075ac3cff1d1,Vaise Impériale,45.777833519639714,4.8031360779945285,Asian Restaurant
902,170,45.744,4.8607000000000005,9,5,516e8454e4b0d46e67644290,le lyon atlas,45.7457046508789,4.8642096519470215,French Restaurant
551,551,45.76173907066761,4.8500303317508004,40,34,516e89e7e4b0edbfd426ae79,Coreen Barbecue,45.76078593245248,4.852073837244552,Korean Restaurant
1417,685,45.773999999999994,4.8607000000000005,25,20,5176c5aee4b038a140241629,Restaurant Indien,45.7725313324303,4.865560658986267,Italian Restaurant
1468,736,45.784000000000006,4.846811111111111,2,1,51790900e4b0cca38a93670a,L'Air du Temps,45.78527360828372,4.850379685742631,French Restaurant
1156,424,45.763999999999996,4.846811111111111,50,16,51892b1b498e495f215ed487,Péniche Le 15,45.76403281698498,4.840867199413942,French Restaurant
847,115,45.744,4.8190333333333335,20,9,518b95ad498e40449505a3f4,Saveurs d'orient,45.74564767067678,4.823167775806325,Turkish Restaurant
97,97,45.7562609293324,4.8361408659668985,35,30,518e341a498e8da789aa3f40,Le Tunis,45.756965,4.834625,Mediterranean Restaurant
1088,356,45.763999999999996,4.8190333333333335,5,3,518fe212498ecb09155561d7,Restaurant du Boeuf,45.76615,4.823955000000001,Chinese Restaurant
1487,755,45.794,4.7773666666666665,1,0,519b5658498e1dd2ace2ea6d,Rictoria,45.79553763492849,4.782560589354327,French Restaurant
1812,267,45.767391393998594,4.834531767304995,12,11,519e5f64498ec4c04f16ad28,Chicken House,45.76787142739581,4.834866283772291,Fast Food Restaurant
156,156,45.75173907066761,4.843592467366435,29,15,51a8eccc498e3ea18eeddf83,Fahima Tandoori,45.752128000000006,4.840509,Indian Restaurant
805,73,45.733999999999995,4.832922222222223,17,2,51af1f49498edff278cda15c,L'échalote,45.73422241210938,4.8327813148498535,French Restaurant
742,10,45.693999999999996,4.930144444444445,3,2,51b0e2cd498eddfcae279174,Tandoori,45.696034868755255,4.926809391654157,Indian Restaurant
185,185,45.7562609293324,4.850029754855789,22,15,51b2295e498eff28b3d0b20f,Ras-le-Bol,45.75688165237533,4.8488392923744055,Korean Restaurant
163,163,45.75173907066761,4.843592467366435,29,22,51b305ca498e8a96120ae567,Bollywood Tandoor,45.752261262016106,4.840712896485475,Indian Restaurant
490,490,45.7662609293324,4.843591890471423,20,15,51b38252498e8a961756ff5d,Le Bossuet,45.767327,4.844925,Middle Eastern Restaurant
1316,584,45.773999999999994,4.805144444444445,38,33,51ba0440498ea9e17d774474,Le Saint Didier,45.77285513363536,4.806996986134808,Seafood Restaurant
757,25,45.71400000000001,4.805144444444445,7,5,51c2dbb1498e066fea1b0d76,Palais Du Rajasthan,45.71593027428607,4.8104828176426295,Indian Restaurant
1078,346,45.763999999999996,4.7773666666666665,9,4,51c44186498e932cae680d7b,La cambuse à Arlette,45.763687242059746,4.782311151139052,French Restaurant
179,179,45.7562609293324,4.850029754855789,22,9,51dd72efccda86a6ffde730c,Pekin Express,45.7570142556995,4.85271692276001,Asian Restaurant
1462,730,45.784000000000006,4.832922222222223,7,2,51ddbf4f498e97e6b1210e35,L'Epicerie Comptoir,45.784537,4.830498,French Restaurant
1501,769,45.803999999999995,4.74958888888889,4,1,51dff0f1498e1c3a5a3b3f7f,Auberge du Village,45.804461889709465,4.750205896125278,French Restaurant
888,156,45.744,4.846811111111111,17,8,51e81c27498ee3e0aa6bed54,Verso,45.747176,4.843573,French Restaurant
134,134,45.7562609293324,4.843592467366435,17,10,51e82183498e5091f0858178,Le Djerba,45.754795,4.843475,Middle Eastern Restaurant
28,28,45.7562609293324,4.829703578477546,7,4,51e94c7a498eaa88c1114ddb,C'est tout bon,45.75663088952357,4.827200881887925,French Restaurant
107,107,45.75173907066761,4.8361408659668985,6,5,51ec0872501989f275b4bf20,A Point Café,45.749887567945784,4.835443496704102,French Restaurant
755,23,45.71400000000001,4.805144444444445,7,3,51f25f68498e3ad2ac411c26,Le P'tit Diabl' Au Thym,45.7154420037905,4.808429539510937,French Restaurant
798,66,45.733999999999995,4.8190333333333335,6,1,51f36b14498eab595897510a,Restaurant Du Novotel,45.73298393978809,4.8229193458291775,French Restaurant
1441,709,45.773999999999994,4.957922222222223,3,2,51f43e20498e8ac8bc2a0767,Cabalestra,45.770552,4.959206,Italian Restaurant
1281,549,45.773999999999994,4.791255555555557,2,0,51fd4cfa498e91fb5cb51d1f,La Coll'inn,45.772064,4.7914129999999995,French Restaurant
923,191,45.75400000000001,4.763477777777778,1,0,520b6ff911d241b063070c1e,sixt on me,45.75083,4.760216000000001,American Restaurant
1383,651,45.773999999999994,4.846811111111111,19,5,520c7af311d22fa41fb59b20,La Toscane,45.7726403,4.845951599999999,Italian Restaurant
1504,772,45.803999999999995,4.763477777777778,3,0,520ce79411d253578c3d3d1f,jo walker,45.80784782998322,4.7602611780166635,American Restaurant
1296,564,45.773999999999994,4.805144444444445,38,13,5220800a11d26c5ffaf1a162,Yamato,45.77139902712715,4.8056691460906,Japanese Restaurant
1459,727,45.784000000000006,4.805144444444445,11,10,5222300911d260aeba724e45,Le Temps d'un Repas,45.78730392456055,4.808539867401123,French Restaurant
789,57,45.724,4.930144444444445,7,4,5229c32511d2bfb2b8fd06a7,IKEA Restaurant & Café,45.721351623535156,4.930754661560059,Scandinavian Restaurant
1433,701,45.773999999999994,4.888477777777778,3,1,5238346111d204aaba4dbb32,Piazza Italia,45.771454999999996,4.884276,Italian Restaurant
1492,760,45.794,4.832922222222223,4,2,523c279811d20b83886e6944,Auberge de l'île Barbe,45.79772961000561,4.833317992743106,French Restaurant
1080,348,45.763999999999996,4.7773666666666665,9,6,523db5eb11d2beb0a307dac2,Restaurant Tarabya (vdc),45.764173,4.782963,Turkish Restaurant
736,4,45.693999999999996,4.8190333333333335,3,1,5245fd57498ec19841af8fd4,Capri,45.696194302982825,4.817199073156698,Italian Restaurant
990,258,45.75400000000001,4.846811111111111,50,4,5249b707498e98101f04fb98,Tai Thu,45.75496985788364,4.840628435362335,Asian Restaurant
187,187,45.7562609293324,4.850029754855789,22,17,525c2675498e4058af2f8a9e,jardin du bambou,45.757459601812116,4.848069507506429,Asian Restaurant
1412,680,45.773999999999994,4.8607000000000005,25,15,525d164c498e8d08d4d1e792,Tout Va Bien,45.77736804269061,4.860126555951475,French Restaurant
455,455,45.76173907066761,4.836141442861911,50,40,526038cd11d2d0efdb9f407f,Mozzato - Comptoir à Mozzarella,45.76169696353516,4.832962663796357,Italian Restaurant
601,601,45.7662609293324,4.857480779360311,50,35,526810d6498e0ebc3cee087d,Restaurant Miraflores,45.768383,4.858480999999999,Peruvian Restaurant
1032,300,45.75400000000001,4.846811111111111,50,46,52697cdd11d260bd4c2ccd12,Table Exotique,45.749981,4.846205,African Restaurant
1539,807,45.833999999999996,4.7773666666666665,1,0,526a701611d20a4e4ebe6ae6,La Pièce du Boucher,45.83490858,4.77159572,Modern European Restaurant
910,178,45.744,4.87458888888889,14,4,526bb87511d20543ad595688,Marguerite Restaurant,45.74380145109593,4.873010062290365,French Restaurant
752,20,45.71400000000001,4.805144444444445,7,0,527ca37611d2223e19d89b96,Maxi Tacos,45.71521564156075,4.808302565910349,Turkish Restaurant
575,575,45.7662609293324,4.857480779360311,50,9,5290a34911d22867b93febdd,Messob Éthiopie,45.766601591553936,4.85486534983668,African Restaurant
1434,702,45.773999999999994,4.888477777777778,3,2,5291053f11d2c6e3a341302e,Le Relais Du Fin Gourmet,45.776941,4.892524,French Restaurant
208,208,45.75173907066761,4.850029754855789,23,16,529882cb11d2c01ecfe2f87b,Les Bonnes Manières,45.75122548037877,4.8479646899828674,French Restaurant
495,495,45.76173907066761,4.843591890471423,9,0,52b4c428498ee451425110c9,engimono,45.75985868785574,4.841880798339844,Chinese Restaurant
781,49,45.724,4.888477777777778,2,1,52b84820498ede6aa2094cca,greenson,45.7234001159668,4.893111228942871,Turkish Restaurant
921,189,45.744,4.930144444444445,1,0,52b96adf498e457db013c914,wok et grill,45.74280166625977,4.931137561798097,Asian Restaurant
1279,547,45.773999999999994,4.763477777777778,4,3,52c54a0c498e003863bd1b04,piazzapapa,45.77819442749024,4.7640037536621085,Italian Restaurant
759,27,45.71400000000001,4.8190333333333335,3,0,52cbf4fc498eeb58e2103fe9,Bar-Restaurant Brasãi,45.71111,4.820318,Portuguese Restaurant
761,29,45.71400000000001,4.8190333333333335,3,2,52cbf59311d24d7708cf9db9,Bar-Restaurant Brasão,45.71115,4.820856,Portuguese Restaurant
1269,537,45.763999999999996,4.916255555555557,9,4,52ceaf6e11d24e44c59313c8,La Bastide,45.76449584960938,4.918445587158203,French Restaurant
1200,468,45.763999999999996,4.8607000000000005,50,10,52cfe26e498ec0999f88ece9,namdo,45.76364517211914,4.855172157287598,Vietnamese Restaurant
291,291,45.7662609293324,4.829703001582534,50,26,52d035c7498e621b01109d76,Sushy'dee,45.76626205444336,4.827408313751222,Japanese Restaurant
513,513,45.7662609293324,4.8500303317508004,13,9,52d14d4e11d20fe84c7f2e3b,Comptoir Petrossian,45.76443735740377,4.8509937635333475,Russian Restaurant
1445,713,45.784000000000006,4.7773666666666665,3,1,52d6f40c11d289bad883416b,Osushiwok,45.7865468513545,4.781612962205083,Asian Restaurant
100,100,45.7562609293324,4.8361408659668985,35,33,52d7c92e498ec7118db1b534,Le Grand Cafe Lyonnais,45.757759328433096,4.83482539889631,French Restaurant
1444,712,45.784000000000006,4.7773666666666665,3,0,52dd141e498e1876f03c9310,o sushi wok,45.786442764099725,4.781734886174308,Sushi Restaurant
837,105,45.744,4.805144444444445,1,0,52e018ff498e7d93c48bddf9,Indochine,45.743446350097656,4.811387062072754,Asian Restaurant
885,153,45.744,4.846811111111111,17,5,52e64743498e6c57a8d4db75,Restaurant Chez Adolf,45.746832425425865,4.84543904606018,German Restaurant
1289,557,45.773999999999994,4.805144444444445,38,6,52ec0291498eb0aaba054dc0,Naruto Sushi,45.77539646465544,4.804289009883082,Japanese Restaurant
1422,690,45.773999999999994,4.87458888888889,10,0,52f2191c498e988a43dd293f,sassoun,45.770912793075816,4.871646232460554,Mediterranean Restaurant
153,153,45.75173907066761,4.843592467366435,29,12,52f28970498e24e9595242d3,Dochilack,45.752615000000006,4.840819000000001,Korean Restaurant
1498,766,45.794,4.8607000000000005,4,3,52f389a2498ef771928f45e4,Pizzeria dompi,45.794784,4.86198,Italian Restaurant
924,192,45.75400000000001,4.7773666666666665,1,0,52f614a4498e1b5057c003a5,Léa passion,45.755418,4.772542,French Restaurant
1061,329,45.75400000000001,4.8607000000000005,29,25,52fcb66d498e6603cd7efcd4,puerto del argentina,45.756177,4.856023,Argentinian Restaurant
1277,545,45.773999999999994,4.763477777777778,4,1,52fe53c1498e78f43a1dab6c,EatGallery,45.77683,4.766716000000001,French Restaurant
1537,805,45.82400000000001,4.87458888888889,1,0,5308864b498e6792484a002d,L'Eden,45.825405088469864,4.8729300498962385,Kebab Restaurant
1054,322,45.75400000000001,4.8607000000000005,29,18,531639f7498e0377e0db7b52,Petit Ogre,45.75606732703614,4.8559409379959115,Modern European Restaurant
868,136,45.744,4.832922222222223,22,10,531c1d00498e0de8e1a8d46d,Le Gold Lounge,45.747467101847114,4.832644522672722,Mediterranean Restaurant
1055,323,45.75400000000001,4.8607000000000005,29,19,531f637c498e864011b3ae84,miko sushi,45.75436118022239,4.8646735140582615,Japanese Restaurant
793,61,45.733999999999995,4.763477777777778,1,0,5320bbf611d231fb5c8e061b,l'allegria due,45.737046,4.765288,Italian Restaurant
1481,749,45.784000000000006,4.87458888888889,5,1,532740f8498e093dbd058cd3,Le Bruxelles,45.78227997478192,4.869600327824592,French Restaurant
1499,767,45.794,4.9857000000000005,1,0,532ecba6498e7554adc2783c,La petite auberge du pont d'herbens,45.792371,4.991601999999999,French Restaurant
1278,546,45.773999999999994,4.763477777777778,4,2,5331ca51498e097b068dcfc1,Delicatesse,45.777085,4.766733,French Restaurant
102,102,45.75173907066761,4.8361408659668985,6,0,53348185498ebd7a99ff9fae,pizzaria,45.74998474121094,4.837348461151123,Italian Restaurant
748,16,45.70399999999999,4.832922222222223,2,1,5346826e498ef5d622b677be,Osteria Italiana,45.704161,4.832133,Italian Restaurant
1723,178,45.767391393998594,4.828093326025618,7,4,53482c43498e6b8d79bd9841,L'Émir,45.768084,4.82734,Moroccan Restaurant
1293,561,45.773999999999994,4.805144444444445,38,10,53677396498e3b3ee0f8adba,my kebab,45.772945899840785,4.809803931976263,Mediterranean Restaurant
696,696,45.77173907066761,4.829702424382587,9,7,536a9e42498e0df23a1b9553,Num Pang,45.769733,4.829875,Cambodian Restaurant
1276,544,45.773999999999994,4.763477777777778,4,0,536ce362498eefea43e679cc,Institut Paul Bocuse,45.77771614055053,4.7657910016079255,French Restaurant
799,67,45.733999999999995,4.8190333333333335,6,2,5370ab54498e6aa50830ae45,Lupika,45.736753,4.81459,French Restaurant
802,70,45.733999999999995,4.8190333333333335,6,5,53764ee4498eb186dabffe52,Bateau Bellona,45.73509230678182,4.819819917599302,French Restaurant
190,190,45.7562609293324,4.850029754855789,22,20,537dda57498e9239c5262857,LE VOL TERRE,45.75688939411846,4.848171850935208,French Restaurant
717,717,45.7762609293324,4.836142020061859,20,19,5380826e498ec7f833038c73,Cafe de le Soir,45.77794,4.834644,French Restaurant
1880,335,45.767391393998594,4.855871103803397,26,25,53936141498e57e1568067b5,Le Neuvième Art,45.767899,4.856371,French Restaurant
913,181,45.744,4.87458888888889,14,7,53b178cc498e1ac3c135af37,TOUTANCANON,45.7468972,4.8776936,French Restaurant
1205,473,45.763999999999996,4.8607000000000005,50,15,53b5149d498e3b8ad1e15d80,Green is Better,45.760778141484344,4.860697352984296,French Restaurant
155,155,45.75173907066761,4.843592467366435,29,14,53b84ae1498e06cf1e6861e8,Royal Kahn's Tandoori,45.753496000000005,4.841605,Indian Restaurant
1266,534,45.763999999999996,4.916255555555557,9,1,53c25fa7498ec863e5cd439d,La Tagliatella,45.76449724438391,4.919310317943489,Italian Restaurant
1415,683,45.773999999999994,4.8607000000000005,25,18,53ec94fd498ea213a6fee597,Box Thaï,45.77081298828125,4.8616061210632315,Thai Restaurant
811,79,45.733999999999995,4.832922222222223,17,8,53fc9ad4498ea719e0abc2c6,Ali Baba 3,45.73100076586067,4.829537368680203,Doner Restaurant
1245,513,45.763999999999996,4.87458888888889,14,5,5405e556498ed90785a08cd6,kebab le palmier d'or,45.76383590698242,4.8720126152038565,Doner Restaurant
1382,650,45.773999999999994,4.846811111111111,19,4,540e0417498e7fb90244d91b,Le Passe Temps,45.7699477671566,4.849484860897063,French Restaurant
825,93,45.733999999999995,4.87458888888889,4,3,5412d98c498e1cf9aff51616,à La Belle Epoque,45.735315,4.87699,French Restaurant
1807,262,45.767391393998594,4.834531767304995,12,6,5414b15f498eadffcb79f983,Casa Lola,45.76697029702631,4.835219701115717,Spanish Restaurant
1048,316,45.75400000000001,4.8607000000000005,29,12,5416a0b9498ec48c3de01c77,vert tige,45.75567058534929,4.8572659492492685,French Restaurant
434,434,45.76173907066761,4.836141442861911,50,19,54195f66498eaa82cbd6f5ab,encore !,45.76021829402796,4.83574702182882,French Restaurant
1411,679,45.773999999999994,4.8607000000000005,25,14,54246931498e7ef0757080a6,sushi ramen,45.770981,4.862922,Japanese Restaurant
58,58,45.75173907066761,4.829703578477546,36,27,542fed5d498ecb8ef956c94b,Parichart Restaurant Taïlandais,45.750431,4.828991,Thai Restaurant
1385,653,45.773999999999994,4.846811111111111,19,7,543c4e23498e0160fa4430b9,Chez Moi,45.77404321419821,4.84755024670779,French Restaurant
504,504,45.7662609293324,4.8500303317508004,13,0,543d8865498ea4de49ba5dc4,Maison Germains,45.76814917321339,4.850654337456682,French Restaurant
126,126,45.7562609293324,4.843592467366435,17,2,543f960d498ebe94575c1299,Enjoy Bar,45.75682051523602,4.840710119502815,Tapas Restaurant
1601,56,45.760608606001405,4.831312546673099,7,5,544351e5498e8beae02ac260,gabrielle & bryan,45.76102423084959,4.832343315520318,African Restaurant
911,179,45.744,4.87458888888889,14,5,5447f98b498e25a5f1197875,Cha-ya - Bar à riz,45.74322372303994,4.8706208773856465,Japanese Restaurant
1460,728,45.784000000000006,4.832922222222223,7,0,54609b87498e8f77da60fbd8,restaurant de l'angle,45.78241095530319,4.83502371617993,Turkish Restaurant
1070,338,45.75400000000001,4.888477777777778,5,1,546f26b9498eb0b497208efe,L'italiano Vero,45.754356732445004,4.8866916565490905,Italian Restaurant
408,408,45.7662609293324,4.836141442861911,50,43,5478ede5498ec5945ab09e32,Resto Indien,45.768304,4.835024,Indian Restaurant
928,196,45.75400000000001,4.8190333333333335,10,2,548414b2498ee5d2bdd0699e,La Movida,45.750246999999995,4.821509,Tapas Restaurant
195,195,45.75173907066761,4.850029754855789,23,3,5489fe6c498e1252503fe5d8,Hot Wok,45.750160217285156,4.851224422454834,Asian Restaurant
209,209,45.75173907066761,4.850029754855789,23,17,5489fea3498e001dde2c26e7,Hot Wok,45.750221252441406,4.851353168487549,Asian Restaurant
93,93,45.7562609293324,4.8361408659668985,35,26,54975523498e361ed5f620e5,Le Bistro Régent,45.757243701316966,4.83478639328546,French Restaurant
106,106,45.75173907066761,4.8361408659668985,6,4,54a6e63e498ef4dcbc295db4,Ganharê à Vera,45.752342224121094,4.837076663970947,French Restaurant
1071,339,45.75400000000001,4.888477777777778,5,2,54a85685498eae35a2eb0601,Sushi Love,45.75070171828782,4.888419806957245,Sushi Restaurant
746,14,45.70399999999999,4.8190333333333335,2,1,54aa7970498ea948a46e517c,Restaurant De L'Europe,45.706635815627976,4.821030309812056,Italian Restaurant
543,543,45.76173907066761,4.8500303317508004,40,26,54ae688f498e554ac6693b9b,Aux Mille Saveurs,45.75987243652344,4.850267887115479,Moroccan Restaurant
489,489,45.7662609293324,4.843591890471423,20,14,54d12e00498e605ecbae46fd,Chez Riz,45.76583350082168,4.841426034300344,Szechuan Restaurant
1436,704,45.773999999999994,4.930144444444445,4,1,54db4809498e06a504f964d0,Ocakbasilyon,45.77464333553468,4.9275272980222615,Turkish Restaurant
1439,707,45.773999999999994,4.957922222222223,3,0,55080b0e498ee7519ad1215e,La Passerelle Indienne,45.77447456799592,4.954373075134103,Indian Restaurant
730,730,45.77173907066761,4.836142020061859,14,12,550df8f7498efe6c67e4cfba,Saveurs Partagées,45.77163314819336,4.83546257019043,French Restaurant
487,487,45.7662609293324,4.843591890471423,20,12,551ac1f6498efd0e68719ad6,Le Gourmet de Sèze,45.764634,4.842164,French Restaurant
863,131,45.744,4.832922222222223,22,5,551d6445498eced0164aa1f9,Stamtich,45.74720807240621,4.83563070949966,French Restaurant
1794,249,45.7662609293324,4.836141442861911,31,24,552f98ad498ebf4d1d5488b6,Vidici,45.765760243421404,4.83601345542117,Italian Restaurant
1438,706,45.773999999999994,4.930144444444445,4,3,5540e6d7498e22f511f38d0a,on numara çikofte,45.774485999999996,4.9275400000000005,Turkish Restaurant
1410,678,45.773999999999994,4.8607000000000005,25,13,554532f3498e3c063a10d404,Elephant,45.7747241524432,4.861240509590991,Chinese Restaurant
1081,349,45.763999999999996,4.7773666666666665,9,7,554dd8fa498eadf2d066da2a,Le Patio,45.764228,4.778979,Italian Restaurant
90,90,45.7562609293324,4.8361408659668985,35,23,55577d5b498eb195c1941003,La Familie Chabert,45.756923107279846,4.834634176383445,French Restaurant
762,30,45.71400000000001,4.8607000000000005,2,0,55620768498e8dcd9ee202e1,O Planète,45.716682,4.860182,Chinese Restaurant
898,166,45.744,4.8607000000000005,9,1,55689fe7498e6e608ef21121,Senkichi,45.74581387144554,4.86391780126828,Japanese Restaurant
1859,314,45.767391393998594,4.855871103803397,26,4,55781432498e73508ac15590,Il Fico,45.76805652699404,4.855501290801433,Italian Restaurant
1418,686,45.773999999999994,4.8607000000000005,25,21,557ac9b5498edbe4d7479738,La CRIGNOT-THIERS,45.77008438110352,4.861934185028076,French Restaurant
161,161,45.75173907066761,4.843592467366435,29,20,557f0e25498e7fdd462af462,La Tablature,45.753192999999996,4.842509,French Restaurant
1543,811,45.833999999999996,4.846811111111111,3,1,5589bc07498e1324bb25f7b1,F & K,45.83602260606067,4.846978722841168,Doner Restaurant
1449,717,45.784000000000006,4.805144444444445,11,0,558d3503498e78f169a6144a,emma,45.785965999999995,4.810891000000001,French Restaurant
1535,803,45.82400000000001,4.763477777777778,4,3,5592ddc5498e35ee68f8726b,les 3 rythmes,45.821234000000004,4.761751,French Restaurant
1475,743,45.784000000000006,4.8607000000000005,11,6,55951703498e4e91134d5d7a,le comptoir joa,45.78530205675611,4.8556317243964555,French Restaurant
1038,306,45.75400000000001,4.8607000000000005,29,2,5596a5d9498ea6213a0d29bf,Puerto Argentino Restaurant & épicerie,45.756530600000005,4.85570400000006,Argentinian Restaurant
681,681,45.7762609293324,4.829702424382587,17,9,5597bef2498e6d42e559e9c9,Galiane,45.77808294839261,4.829935847610809,French Restaurant
927,195,45.75400000000001,4.8190333333333335,10,1,55ab9de0498e7472d5c1889a,La Petite Auberge,45.75534782329432,4.8161607320422375,Savoyard Restaurant
743,11,45.693999999999996,4.9440333333333335,1,0,55c9bdca498e15d3a7f76256,Red Sushis,45.69539260864258,4.942190170288086,Sushi Restaurant
903,171,45.744,4.8607000000000005,9,6,55ce36fe498e9cfb37f4f56a,Ahika,45.74510440828084,4.866419417943338,Japanese Restaurant
783,51,45.724,4.916255555555557,3,1,55d8d3e6498ed48379f4e2cc,Indian Palace,45.72617763504253,4.915982029844088,Indian Restaurant
1798,253,45.7662609293324,4.836141442861911,31,28,55e1fba5498ebe4563220510,Hua Yuan Xuan,45.7658580426246,4.836619072201137,Cantonese Restaurant
1842,297,45.767391393998594,4.837751118418828,15,11,55e207fd498eea3f062a2896,Bon Voyage,45.767478942871094,4.837911605834961,Chinese Restaurant
1243,511,45.763999999999996,4.87458888888889,14,3,55e5d34d498e427758677f9f,Comme un Goût de Paradis,45.763458361965554,4.870636647844172,Comfort Food Restaurant
869,137,45.744,4.832922222222223,22,11,55f9af5f498eca43b79988ea,Les Ventres Jaune,45.748188,4.834866000000001,French Restaurant
1306,574,45.773999999999994,4.805144444444445,38,23,560ae437498e8c933e426a15,Rose Indien,45.776022999999995,4.800447,Indian Restaurant
739,7,45.693999999999996,4.87458888888889,1,0,560d1248498e541b914e2e6d,Négoce des mers,45.690616999999996,4.8719771999999475,French Restaurant
17,17,45.75400000000001,4.832922222222223,24,17,560d12c9498edf78d1517913,Assaggi,45.754407,4.832285,Italian Restaurant
967,235,45.75400000000001,4.832922222222223,50,31,560fc26d498ec3694284a732,Macanudo,45.753689,4.838476,Latin American Restaurant
167,167,45.75173907066761,4.843592467366435,29,26,563a124dcd104fbea2381172,Sept Épices,45.75026563463904,4.844616651535034,Middle Eastern Restaurant
801,69,45.733999999999995,4.8190333333333335,6,4,564ba3af498e9c1d43de6bca,La Maison,45.731127483582775,4.823328546046783,French Restaurant
808,76,45.733999999999995,4.832922222222223,17,5,56545d04498ecc8d95e0ea97,La Table de JP,45.730717617299604,4.829822263480488,French Restaurant
1467,735,45.784000000000006,4.846811111111111,2,0,5655b5de498eef2237963dc0,Zucca,45.78424835205078,4.852994441986084,Italian Restaurant
1430,698,45.773999999999994,4.87458888888889,10,8,566b5f0238fa37fd4616e1bd,brasserie l'ouest,45.773339,4.8784220000000005,French Restaurant
1568,23,45.76286953533381,4.828093456491969,43,22,5679d5b3498ea3d07b00f600,Chez Colette,45.763349,4.827224,French Restaurant
842,110,45.744,4.8190333333333335,20,4,5682d5f1498ea7c374fc2577,Namaskar,45.741578999999994,4.816772,Indian Restaurant
1045,313,45.75400000000001,4.8607000000000005,29,9,5683cd47498e88060abb8852,Coeur de Blé,45.75633,4.8586800000000006,French Restaurant
1522,790,45.81399999999999,4.8190333333333335,2,0,56a1146c498e8525b6eb54b3,Chez Cotte,45.813311999999996,4.816281,French Restaurant
1255,523,45.763999999999996,4.888477777777778,9,1,56ad1e9a498e73225c10a51e,la marmite,45.764238,4.8892739999999995,French Restaurant
1252,520,45.763999999999996,4.87458888888889,14,12,56ae6a04498eba0098a3ea98,royal kahn's tandoori,45.762617,4.878895,Indian Restaurant
1028,296,45.75400000000001,4.846811111111111,50,42,56af47cb498eba0099b8e759,Pho 69,45.754112,4.8411599999999995,Vietnamese Restaurant
540,540,45.76173907066761,4.8500303317508004,40,23,56cee976cd10668378563a01,Un Sushi,45.760690000000004,4.851594,Japanese Restaurant
1240,508,45.763999999999996,4.87458888888889,14,0,56d9a0ad498e07b12161b828,CAFE KASHMIR,45.76335328,4.87503249,Restaurant
1039,307,45.75400000000001,4.8607000000000005,29,3,56e164e4498e6ba95c70939d,Piquin,45.756212,4.8565830000000005,Mexican Restaurant
853,121,45.744,4.8190333333333335,20,15,56ed40a5498eefb990014102,L'atelier Du Pizzaiolo,45.74276,4.816586,Italian Restaurant
1717,172,45.7662609293324,4.829703001582534,8,6,57064a41498ebe0d561b54f5,Nambo,45.76621627017634,4.8294598556372605,Asian Restaurant
136,136,45.7562609293324,4.843592467366435,17,12,5712756b498eb520f6c0a193,China Town,45.756791,4.841833,Chinese Restaurant
858,126,45.744,4.832922222222223,22,0,5717c7fc498e1efed38a417e,Kenbo,45.74745217450469,4.835012220503289,Vietnamese Restaurant
499,499,45.76173907066761,4.843591890471423,9,4,5718abfb498e3ef5ea978d01,cafe Laure,45.761507,4.844167,French Restaurant
1452,720,45.784000000000006,4.805144444444445,11,3,57442995498e0173cd748199,Ema,45.785779,4.810878,French Restaurant
1148,416,45.763999999999996,4.846811111111111,50,8,5745f165498e1362731e50c4,Les Apothicaires,45.768124,4.845571,French Restaurant
547,547,45.76173907066761,4.8500303317508004,40,30,576277ee498e610d0f6b76b7,Tacca via Rolle,45.763481,4.850348,Italian Restaurant
186,186,45.7562609293324,4.850029754855789,22,16,5763208a498ebe1c94d4e9eb,L'Assiette Sur La Place,45.757133,4.848527,French Restaurant
879,147,45.744,4.832922222222223,22,21,5763d1f8498e7856b227d47d,Nekoba,45.746646999999996,4.8368435,Japanese Restaurant
809,77,45.733999999999995,4.832922222222223,17,6,577a8546498e3d88541f1033,l'Entracte Bar Restaurant,45.735047363445396,4.8372459411621085,African Restaurant
1489,757,45.794,4.8190333333333335,1,0,577ba04b498e81e8f1cf04e4,Les Trois Sakura,45.792804,4.82041,Sushi Restaurant
452,452,45.76173907066761,4.836141442861911,50,37,577d4a72498ee027e5b2619e,Les Halles Merciere,45.762269,4.8330589999999995,French Restaurant
763,31,45.71400000000001,4.8607000000000005,2,1,579107e5498e4506bbd70c84,Memphis Coffee Lyon Vénissieux,45.71675,4.860111,American Restaurant
813,81,45.733999999999995,4.832922222222223,17,10,579745f5498e4f6d75f8b381,Le Jardin de Sandra,45.732574,4.838908999999999,French Restaurant
824,92,45.733999999999995,4.87458888888889,4,2,579e0d2a498e7fbd54d1fe74,Restaurant K-Akdeniz,45.73291,4.8800116,Turkish Restaurant
812,80,45.733999999999995,4.832922222222223,17,9,57ddbb42498e958c9a41d2ef,Le Bouche B,45.73502,4.837305000000001,French Restaurant
1044,312,45.75400000000001,4.8607000000000005,29,8,57ecf29d498e1648f1f0736a,Miss Saïgon,45.75674,4.85886,Vietnamese Restaurant
1381,649,45.773999999999994,4.846811111111111,19,3,57ed9f11498ee073f00e99d3,Mont Fuji,45.770654,4.843015,Ramen Restaurant
1288,556,45.773999999999994,4.805144444444445,38,5,57feaff7498e08ef6ffca071,Home Sushi,45.7758,4.800604,Japanese Restaurant
714,714,45.7762609293324,4.836142020061859,20,16,57feb058498ed956d23ba740,la Voguette,45.7765458,4.835071600000001,Tapas Restaurant
806,74,45.733999999999995,4.832922222222223,17,3,57ffdb3738fab63bb2e0ae19,Carnégie Club,45.730034,4.830374,French Restaurant
1209,477,45.763999999999996,4.8607000000000005,50,19,5807cab338fa7c1a4a09b2d9,Restaurant Yummy Yummy,45.763578686862715,4.855002164840698,Chinese Restaurant
1384,652,45.773999999999994,4.846811111111111,19,6,581b911e52addb15ff165ac4,El Cafetero,45.770077,4.849321,Colombian Restaurant
1386,654,45.773999999999994,4.846811111111111,19,8,5828d3f1089b7547ddda2165,43 comptoir,45.771865999999996,4.8487663,Jewish Restaurant
1222,490,45.763999999999996,4.8607000000000005,50,32,5832d87e102f4749ce7b0e5d,Comptoir de Beyrouth,45.763588,4.866868,Middle Eastern Restaurant
652,652,45.76173907066761,4.863919220639688,9,6,584fe98fcf44511a6bbbec6c,Arepado,45.763718,4.864073,South American Restaurant
1458,726,45.784000000000006,4.805144444444445,11,9,586e30426431e5637b340e53,Il Pomodorino,45.784176,4.807061,Italian Restaurant
1314,582,45.773999999999994,4.805144444444445,38,31,5882157903cf2556a1fbc336,INDIAN HAVELI,45.775859658499286,4.80526328086853,Indian Restaurant
732,0,45.693999999999996,4.763477777777778,2,0,589f5c43a19e9063d2cf2783,La Foret Noire,45.698428,4.7630419999999996,French Restaurant
1257,525,45.763999999999996,4.888477777777778,9,3,58b801554f106962738395e2,Le Bistrot D'Alexis,45.76558,4.884288,French Restaurant
1644,99,45.76286953533381,4.837750987952477,6,5,58bb1bbd03cf257b095f6fe4,Mamasan,45.762015999999996,4.837425,Vietnamese Restaurant
689,689,45.77173907066761,4.829702424382587,9,0,58c15f9efb9d8950dc834cb9,La Perle Noire,45.77082336528142,4.8276007175445566,Peruvian Restaurant
1844,299,45.767391393998594,4.837751118418828,15,13,58ca9af15da8f41cc93abfad,Café Arsène,45.767039000000004,4.836880000000001,French Restaurant
895,163,45.744,4.846811111111111,17,15,58cbe09c084be5199d1b2592,Minute Asia,45.745715999999994,4.8413962999999995,Chinese Restaurant
914,182,45.744,4.87458888888889,14,8,58cd91a32ec364667433be30,Momotaro,45.742775,4.8696459999999995,Japanese Restaurant
1602,57,45.760608606001405,4.831312546673099,7,6,58daa9b09dc8d03834dd9d98,Penjabi-Grill,45.76065,4.832542,Indian Restaurant
1432,700,45.773999999999994,4.888477777777778,3,0,591b1340aa6c956a64b2d0c4,Jardin du Pré Fleuri,45.76974914225743,4.889753713505343,Asian Restaurant
105,105,45.75173907066761,4.8361408659668985,6,3,591c2b1a0457b7769aa4fb70,A La Piscine,45.753631,4.837716,French Restaurant
1227,495,45.763999999999996,4.8607000000000005,50,37,592566f966f3cd5217002a9a,Panzerotti Amo,45.764015,4.8555894,Italian Restaurant
870,138,45.744,4.832922222222223,22,12,59287a84c21cb17f34e6cff4,Du Monde Ailleurs,45.745323,4.827399,Lebanese Restaurant
886,154,45.744,4.846811111111111,17,6,592dc7a29deb7d7d29cfcd80,Quick China,45.74535,4.849283,Chinese Restaurant
1302,570,45.773999999999994,4.805144444444445,38,19,5936ef4eb9a5a87f308cf71e,Le Tiroir,45.774466,4.807036,French Restaurant
1440,708,45.773999999999994,4.957922222222223,3,1,5936fefa25fb7b781a856594,Mykonos,45.770396999999996,4.959146,Greek Restaurant
1517,785,45.803999999999995,4.846811111111111,1,0,5946b8cfa0215b689bc2c5a8,La Perle Sushi,45.800589,4.849189,Japanese Restaurant
878,146,45.744,4.832922222222223,22,20,59523cd06fd6260cbff16425,Môt Hai Ba Viêt Nam,45.747066,4.8375435,Vietnamese Restaurant
1583,38,45.76286953533381,4.828093456491969,43,37,59563ef1f79faa6187c61453,Ô Vietnam,45.7627216869477,4.828314185142516,Vietnamese Restaurant
671,671,45.773999999999994,4.832922222222223,17,16,596b2959a6031c5daad5a8db,Le Desjeuner,45.773596999999995,4.83215,French Restaurant
1251,519,45.763999999999996,4.87458888888889,14,11,598452e6db1d816c648ad009,Le Venise,45.763870000000004,4.8724113,French Restaurant
214,214,45.75173907066761,4.850029754855789,23,22,5984bedae97dfb6a1564519d,Saku,45.751527,4.851739,Japanese Restaurant
1655,110,45.763999999999996,4.832922222222223,11,6,59c16cc8ad910e2a3e67161d,Le Cuisine Des Moules,45.76385,4.832912,Southwestern French Restaurant
597,597,45.7662609293324,4.857480779360311,50,31,59d76bf32aff317c4010194c,Cuma,45.766251000000004,4.854754,Japanese Restaurant
50,50,45.75173907066761,4.829703578477546,36,19,59ebb483cf72a013dc12b8a1,Les 9 Lotus,45.751644,4.830719,Thai Restaurant
239,239,45.763999999999996,4.832922222222223,50,24,59f9b33128374e504c6f43ad,My Little Warung,45.762938,4.832625,Indonesian Restaurant
1862,317,45.767391393998594,4.855871103803397,26,7,5a09f2979411f223d80c5570,Mika Sushi,45.767818,4.855043,Sushi Restaurant
734,2,45.693999999999996,4.791255555555557,1,0,5a0d6e71d3cce87e1a4143ff,LE MANDIE'S,45.69547318366909,4.793429374694824,French Restaurant
159,159,45.75173907066761,4.843592467366435,29,18,5a0d7dfb67af3a45047ae4d0,Le Bistroquet,45.751354,4.845718,French Restaurant
610,610,45.7662609293324,4.857480779360311,50,44,5a25a9c02105c32bd8f31764,L'inédit,45.768326,4.858605000000001,French Restaurant
446,446,45.76173907066761,4.836141442861911,50,31,5a2ad03ca795bd382a1f9c2d,Mr Gabriel,45.759803000000005,4.835804,French Restaurant
1472,740,45.784000000000006,4.8607000000000005,11,3,5a64883baa6c955140b57bf1,Fady,45.785195,4.856004,Lebanese Restaurant
838,106,45.744,4.8190333333333335,20,0,5a76565c8e886a73e95e3522,Hanoï Cà Phê Confluence,45.742353,4.815125,Vietnamese Restaurant
1739,194,45.76513046466621,4.828093326025618,19,13,5a76fc156c08d1341191b9ae,Le Petit Sorcier,45.76433,4.828025299999999,French Restaurant
1049,317,45.75400000000001,4.8607000000000005,29,13,5a7b6b01dd844241c13f4053,Siam Bistrot,45.756252,4.857526,Thai Restaurant
1057,325,45.75400000000001,4.8607000000000005,29,21,5a8730e6b9a5a8062d0e3d9e,Double 7,45.755821000000005,4.859144000000001,French Restaurant
1126,394,45.763999999999996,4.832922222222223,50,36,5aa130a816fa045db5246610,Crazy Dog,45.767677,4.833228,American Restaurant
1300,568,45.773999999999994,4.805144444444445,38,17,5ac21ca748b04e466dde6103,L'absolu,45.774605,4.805537,French Restaurant
906,174,45.744,4.87458888888889,14,0,5af9fa0b4c954c002c62e3da,Bintje & Zoet,45.74374537013071,4.873074527225947,Belgian Restaurant
1067,335,45.75400000000001,4.87458888888889,4,2,5b071fc40d173f0039f4bb2c,Chez Ado Life 2,45.752897,4.869651,Doner Restaurant
68,68,45.7562609293324,4.8361408659668985,35,1,5b22ae55cbcdee002c6ab594,Adonys,45.758194,4.835485,Lebanese Restaurant
877,145,45.744,4.832922222222223,22,19,5b25806cf5e9d7002c49dd11,Trattino,45.74222,4.833929,Italian Restaurant
1513,781,45.803999999999995,4.805144444444445,2,0,5b3a77d38ad62e002c771db8,Les Gaufres De Nanette,45.80281025,4.80883292,Belgian Restaurant
556,556,45.76173907066761,4.8500303317508004,40,39,5b3e81feacb00b00395bd7a2,Chez Bànôi,45.763129,4.851792,Vietnamese Restaurant
881,149,45.744,4.846811111111111,17,1,5b8bff71dd70c5002c0cb5ad,Oba! Especialidades Do Brasil,45.745613,4.841627,Brazilian Restaurant
516,516,45.7662609293324,4.8500303317508004,13,12,5bd3502501bc5a002ca2a91b,Excellent!,45.766290000000005,4.848,French Restaurant
609,609,45.7662609293324,4.857480779360311,50,43,5bdb68575b97110025f2557c,La Mutinerie,45.766959,4.85449,French Restaurant
1534,802,45.82400000000001,4.763477777777778,4,2,5bf40c82345cbe00394588ea,Ristorante Del Arte Lyon - Dardilly,45.821990141240995,4.7633319388702,Italian Restaurant
181,181,45.7562609293324,4.850029754855789,22,11,5bf99bb0a6031c002c752f5b,Bentomania,45.757003000000005,4.850912,Japanese Restaurant
1542,810,45.833999999999996,4.846811111111111,3,0,5bfff3eee17910002cf6b852,Bistro' Fontaines,45.832786999999996,4.848356,French Restaurant
1796,251,45.7662609293324,4.836141442861911,31,26,5c0285ebe4c459002cef5e8d,Bon Retour,45.765663,4.83648,Asian Restaurant
1476,744,45.784000000000006,4.8607000000000005,11,7,5c0a674b250cab002c60f4ca,Suelta,45.78497783,4.85558796,Mexican Restaurant
785,53,45.724,4.930144444444445,7,0,5c125027c8b2fb002c044d64,Gourmet Bron,45.7252216071319,4.928910434246063,French Restaurant
1042,310,45.75400000000001,4.8607000000000005,29,6,5c2332c547f876002cc3d1ff,Roi Alexandre,45.754184,4.86426,Russian Restaurant
697,697,45.77173907066761,4.829702424382587,9,8,5c37cd1cb04056002c63326b,Más Amor Por Favor,45.769923999999996,4.830102,Mexican Restaurant
1272,540,45.763999999999996,4.916255555555557,9,7,5c3e0060a0215b003a9393b4,Au Bureau Vaulx-en-Velin,45.76524603331596,4.921819895089128,French Restaurant
206,206,45.75173907066761,4.850029754855789,23,14,5c3f89a4515d6a002c5c3050,Ramen Masa,45.75099,4.848128,Ramen Restaurant
756,24,45.71400000000001,4.805144444444445,7,4,5c40628c65cdf8002cf08008,Six Pieds Sur Terre,45.711560999999996,4.802183,French Restaurant
236,236,45.763999999999996,4.832922222222223,50,21,5c535096e55d8b002c1c23a4,Le Ti'punch De La Réunion,45.7652,4.832847,Cajun / Creole Restaurant
1455,723,45.784000000000006,4.805144444444445,11,6,5c6fd8dfb23dfa002cb72259,Le Fouge,45.787469,4.808692,French Restaurant
1523,791,45.81399999999999,4.8190333333333335,2,1,5c77c4f7356b49002c6b5cd3,Le BonBar,45.813229,4.816656,French Restaurant
305,305,45.7662609293324,4.829703001582534,50,40,5c7ad8895ba046002c93773c,Sapna,45.768213,4.828774,Asian Restaurant
1053,321,45.75400000000001,4.8607000000000005,29,17,5c7fae531822230025f0b368,Le Cour 10,45.75598,4.857312,French Restaurant
1041,309,45.75400000000001,4.8607000000000005,29,5,5c8c006f1f7440002c1678bd,Gang CHEN,45.757702920998256,4.858352243900299,Japanese Restaurant
137,137,45.7562609293324,4.843592467366435,17,13,5c8c039ddeb4950025806b26,Atelier des raviolis,45.754761063101476,4.841542840003966,Chinese Restaurant
550,550,45.76173907066761,4.8500303317508004,40,33,5ca0921abed483002cd1dc7f,Armelys,45.763424,4.8504505,Middle Eastern Restaurant
1030,298,45.75400000000001,4.846811111111111,50,44,5cc03cd4ecb3ed0025c4af13,O Ma Café,45.753971,4.841551,Vietnamese Restaurant
160,160,45.75173907066761,4.843592467366435,29,19,5ccacb77bbd0e8002569955d,C-Sushi,45.753192999999996,4.8412976,Japanese Restaurant
528,528,45.76173907066761,4.8500303317508004,40,11,5cee788506fb60002c249501,New China Cuisine Fusion,45.760933,4.851657,Chinese Restaurant
852,120,45.744,4.8190333333333335,20,14,5cf040b7a2c00b002ce31a21,King Tacos,45.747004,4.823491000000001,Fast Food Restaurant
92,92,45.7562609293324,4.8361408659668985,35,25,5d19e57111549d0023e57fbe,Chez Louloutte,45.757388,4.834846,French Restaurant
920,188,45.744,4.888477777777778,1,0,5d19fe6be7e5fc0023e0fa8c,Le Rockefeller,45.740316,4.888693,French Restaurant
994,262,45.75400000000001,4.846811111111111,50,8,5d276d43bbf1bd002348ed4c,La Raffinerie,45.758339,4.846181,Tapas Restaurant
1403,671,45.773999999999994,4.8607000000000005,25,6,5d2cdcae2f61e8002316f31c,Nelsao,45.771214,4.864231,Brazilian Restaurant
1256,524,45.763999999999996,4.888477777777778,9,2,5d31a7afe43d930008ac0a01,Philanthrope,45.763477,4.8846483,French Restaurant
1270,538,45.763999999999996,4.916255555555557,9,5,5d44ed53735c2d0007a790ff,La Pataterie,45.76473,4.9213,French Restaurant
430,430,45.76173907066761,4.836141442861911,50,15,5d47105cbb12590008f2cc89,Fafa,45.761425,4.833080000000001,Sushi Restaurant
1056,324,45.75400000000001,4.8607000000000005,29,20,5d66706fe1edd60008c5756c,Teppanyaki,45.756714,4.855626,Asian Restaurant
1388,656,45.773999999999994,4.846811111111111,19,10,5d764487b4fc9c000824e012,Le Comptoir du Sixième,45.772838,4.84415,French Restaurant
1527,795,45.81399999999999,4.888477777777778,3,0,5d82095128540000080d75db,Chez Mahmut Kebab,45.813744,4.894679,Doner Restaurant
1320,588,45.773999999999994,4.805144444444445,38,37,5d93394eea47fc00076667d9,Le Bistrot Neuf,45.769886,4.803888,French Restaurant
859,127,45.744,4.832922222222223,22,1,5dc710531a71960007941512,Toké,45.747831,4.834107,Empanada Restaurant
178,178,45.7562609293324,4.850029754855789,22,8,5df7cb352d615a0008d7fa6e,Taybé,45.756935,4.850569,Lebanese Restaurant
470,470,45.763999999999996,4.846811111111111,10,5,5e11b3738f89f40008c732d3,Le Coq,45.763937,4.8457550000000005,French Restaurant
832,100,45.733999999999995,4.9857000000000005,1,0,5e1da0f0a701520007fe5666,L’Escale,45.734946,4.9826760000000005,French Restaurant
103,103,45.75173907066761,4.8361408659668985,6,1,5e26ebd6a929a40008f16068,Boleh Lah,45.752502,4.839116000000001,Malay Restaurant
827,95,45.733999999999995,4.9023666666666665,1,0,5e3715ab094cbd0007a09fac,Lezzet Istanbul Kebab,45.73455,4.904844000000001,Doner Restaurant
151,151,45.75173907066761,4.843592467366435,29,10,5e3f11fc21aee000079e065d,Fujiyama 55,45.750875,4.845091,Japanese Restaurant
1799,254,45.7662609293324,4.836141442861911,31,29,5e5814998605750008e83aeb,Italian Trattoria,45.765809999999995,4.8361645,Italian Restaurant
494,494,45.7662609293324,4.843591890471423,20,19,5e614d26ce4f4b0008b84ea9,Sauf Imprévu,45.765228,4.8436,French Restaurant
1046,314,45.75400000000001,4.8607000000000005,29,10,5e6a26c8bd23420008c311c0,Ato Sushi,45.75674,4.8585935,Sushi Restaurant
769,37,45.71400000000001,4.971811111111111,4,2,5e6d42eb15335d0008e21a68,Courtepaille,45.7162937,4.969475,French Restaurant
880,148,45.744,4.846811111111111,17,0,5e78da8b9df02200086e4cfd,Sushi Shop,45.74731163695692,4.842822681102148,Sushi Restaurant
184,184,45.7562609293324,4.850029754855789,22,14,5eed0b5638abbd0008d7d59d,Jasmin Tandoori,45.756714,4.849418599999999,Indian Restaurant
20,20,45.75400000000001,4.832922222222223,24,20,5f01b0b60e6a0c156233d475,Chamas,45.753434000000006,4.83368,Mexican Restaurant
1656,111,45.763999999999996,4.832922222222223,11,7,5f0235d76a5ce50b3a4c3f9d,Curry To Carry,45.763137,4.832602,Indian Restaurant
871,139,45.744,4.832922222222223,22,13,5f2536d986c65e79bd465ee4,Odília Restaurant,45.747803000000005,4.834414,Brazilian Restaurant
1020,288,45.75400000000001,4.846811111111111,50,34,5f58cb41a7ab455193a16e9a,Air Du Pays,45.75363,4.8413754,Middle Eastern Restaurant
169,169,45.75173907066761,4.843592467366435,29,28,5f9ab87af69f547341e53427,Krioya,45.750316999999995,4.8454614000000005,Peruvian Restaurant
1082,350,45.763999999999996,4.7773666666666665,9,8,5fb3e45a5858a34bc2acdd2c,Sushiman,45.762138,4.778756,Japanese Restaurant
