,lat_centre,long_centre,num_venues,venue_iter,venue_id,venue_name,lat_venue,long_venue,category
0,45.754000000000005,4.832922222222223,24,0,5d73d91440cb880007f54319,Nativo,45.752795,4.832701,Latin American Restaurant
1,45.754000000000005,4.832922222222223,24,1,508d979b498edfd685dcf285,Restaurant Japonais,45.75480500781184,4.8338630886111025,Sushi Restaurant
2,45.754000000000005,4.832922222222223,24,2,4d7b6f1273ca54812b094b7c,La Loggia,45.75442276791992,4.830971400874366,Italian Restaurant
3,45.754000000000005,4.832922222222223,24,3,4cd3168d536654819b4e25ed,L'impératoire,45.752634,4.832776,French Restaurant
4,45.754000000000005,4.832922222222223,24,4,5a9fba9c61f070399d61abc4,Gabriella – Le Clan des Mamma,45.75316094168665,4.832121312601884,Italian Restaurant
5,45.754000000000005,4.832922222222223,24,5,4be1562fa7380f47edb619b0,Troquet des Sens,45.75257086211157,4.831631263417191,French Restaurant
6,45.754000000000005,4.832922222222223,24,6,4b4b3e7df964a5205e9526e3,Instant Fromage,45.75407342036798,4.831794863713198,Wine Bar
7,45.754000000000005,4.832922222222223,24,7,55ec227e498e9e55d01d7109,Bistrot La Varenne,45.75328633297471,4.833088517189026,French Restaurant
8,45.754000000000005,4.832922222222223,24,8,4ee12b17722e9d45c4cc83eb,Le Vivarais,45.75362320369677,4.833061695098877,French Restaurant
9,45.754000000000005,4.832922222222223,24,9,4ca3172fd7c337048e919d62,Le Petit Grain,45.7533014267685,4.831912852593311,Asian Restaurant
10,45.754000000000005,4.832922222222223,24,10,4ced1730d7268cfa9708c14e,Momento Sapori E Vini,45.753331,4.831996,Italian Restaurant
11,45.754000000000005,4.832922222222223,24,11,4ed929f5722e1da300b9e050,Le Poelon D'Or,45.75276536795884,4.831035921452869,French Restaurant
12,45.754000000000005,4.832922222222223,24,12,4daa007d4b22f071eaae2360,L'Étoile d'Orient,45.752773,4.831323,Moroccan Restaurant
13,45.754000000000005,4.832922222222223,24,13,5a7c532c15173e2930bfa8f4,L'Établi,45.752977,4.830297,French Restaurant
14,45.754000000000005,4.832922222222223,24,14,4c7f83eb2042b1f770fec2ad,Un moment à part,45.752783169158995,4.831317271988769,French Restaurant
15,45.754000000000005,4.832922222222223,24,15,4ba3c54ef964a520635d38e3,Café Thomas,45.7530412347616,4.831933785418256,Tapas Restaurant
16,45.754000000000005,4.832922222222223,24,16,4d8e40336174a093f9f9c3e3,Les Culottes Longues,45.75504489010743,4.831754152459281,French Restaurant
17,45.754000000000005,4.832922222222223,24,17,560d12c9498edf78d1517913,Assaggi,45.754407,4.832285,Italian Restaurant
18,45.754000000000005,4.832922222222223,24,18,561bfea3498eb3f7f60b1123,Bouchon Thomas,45.753056,4.832014,Lyonese Bouchon
19,45.754000000000005,4.832922222222223,24,19,4c77fc2fdf08a1cd31d5d55d,Momento,45.75346,4.832045,Italian Restaurant
20,45.754000000000005,4.832922222222223,24,20,5f01b0b60e6a0c156233d475,Chamas,45.753434,4.83368,Mexican Restaurant
21,45.754000000000005,4.832922222222223,24,21,4d97077dc19fb60c1cb78b65,La Tassée,45.75460710584915,4.832619746725074,French Restaurant
22,45.754000000000005,4.832922222222223,24,22,4c4b40f2c668e21e8ec8d0f9,Ponts Et Passerelles,45.75349396939489,4.833378403827848,French Restaurant
23,45.754000000000005,4.832922222222223,24,23,4e3a8f5bc65b8a6b56ae72ab,Restaurant/Réserve Thomas,45.753012718672025,4.832054375247273,French Restaurant
24,45.7562609293324,4.829703578477546,7,0,4dde3759d4c01aeee8f75017,Patabar,45.756777,4.82866,Italian Restaurant
25,45.7562609293324,4.829703578477546,7,1,4d7b6f1273ca54812b094b7c,La Loggia,45.75442276791992,4.830971400874366,Italian Restaurant
26,45.7562609293324,4.829703578477546,7,2,4b8af35ff964a520db8a32e3,L'Espace Brasserie,45.75708375547618,4.831098538453105,French Restaurant
27,45.7562609293324,4.829703578477546,7,3,4f3e756ae4b0abb6d6a09cb0,Durden Café,45.75572304475441,4.827428238026045,Café
28,45.7562609293324,4.829703578477546,7,4,51e94c7a498eaa88c1114ddb,C'est tout bon,45.756630889523564,4.827200881887925,French Restaurant
29,45.7562609293324,4.829703578477546,7,5,4d8e40336174a093f9f9c3e3,Les Culottes Longues,45.75504489010743,4.831754152459281,French Restaurant
30,45.7562609293324,4.829703578477546,7,6,4dc44e33d4c0ad9c0f6b455c,Little Italy,45.75570987305245,4.827468951731573,Italian Restaurant
31,45.75173907066761,4.829703578477546,36,0,5616c139498e8cef15b2c038,Two Amigos,45.752985,4.828409,Mexican Restaurant
32,45.75173907066761,4.829703578477546,36,1,4c87d4a413e3b1f74b6fd446,Shalimar,45.751000325400675,4.832253208590458,Indian Restaurant
33,45.75173907066761,4.829703578477546,36,2,4f624f16e4b01b3ebe99c950,Café Vatel,45.75003868755367,4.8282539898670604,Sandwich Place
34,45.75173907066761,4.829703578477546,36,3,5beec125d807ee002c54fae0,Fromagerie Mons Charité,45.75163863155889,4.831036627292633,Cheese Shop
35,45.75173907066761,4.829703578477546,36,4,54675afe498e6755a131386b,Le Comptoir d'Ainay,45.752784729003906,4.830143928527832,French Restaurant
36,45.75173907066761,4.829703578477546,36,5,598da46e9de23b5c0facedcf,Takumi,45.751821,4.831174,Japanese Restaurant
37,45.75173907066761,4.829703578477546,36,6,5614f412498e98f7d5fc5ddf,Smør & brød,45.753705,4.828973,Scandinavian Restaurant
38,45.75173907066761,4.829703578477546,36,7,5b111ba1724750002caef228,Vatel Gourmet,45.75017954046873,4.829574823379517,French Restaurant
39,45.75173907066761,4.829703578477546,36,8,5d1b4b217226a50023a28445,Restaurant Ju Yi,45.751322,4.829735,Chinese Restaurant
40,45.75173907066761,4.829703578477546,36,9,5d053053c0af570039ae5d89,La Table D’ambre,45.75194,4.830667,French Restaurant
41,45.75173907066761,4.829703578477546,36,10,4b9abb19f964a520b2d035e3,Yokohama,45.751397440273955,4.830008270214028,Japanese Restaurant
42,45.75173907066761,4.829703578477546,36,11,5a9fba9c61f070399d61abc4,Gabriella – Le Clan des Mamma,45.75316094168665,4.832121312601884,Italian Restaurant
43,45.75173907066761,4.829703578477546,36,12,4be1562fa7380f47edb619b0,Troquet des Sens,45.75257086211157,4.831631263417191,French Restaurant
44,45.75173907066761,4.829703578477546,36,13,4c4f38c2eaa1be9a551b9645,Restaurant Jofé,45.753889,4.82881,French Restaurant
45,45.75173907066761,4.829703578477546,36,14,4f8f20c4e4b007e6129a018f,Ristorante Il Palio,45.75044058810593,4.828820280481407,Italian Restaurant
46,45.75173907066761,4.829703578477546,36,15,58a2117675e1376c7f06d26e,Pizzeria Napoli Chez Nicolo & Franco Morreale,45.75204490719394,4.830511581619738,Italian Restaurant
47,45.75173907066761,4.829703578477546,36,16,4ca3172fd7c337048e919d62,Le Petit Grain,45.7533014267685,4.831912852593311,Asian Restaurant
48,45.75173907066761,4.829703578477546,36,17,4bf7cd2ab182c9b60e41765a,Au Vilain Petit Canard,45.75220833299955,4.830164909362793,French Restaurant
49,45.75173907066761,4.829703578477546,36,18,4badd472f964a520fb6b3be3,Brasserie 1900,45.75311292456078,4.828853648397769,French Restaurant
50,45.75173907066761,4.829703578477546,36,19,59ebb483cf72a013dc12b8a1,Les 9 Lotus,45.751644,4.830719,Thai Restaurant
51,45.75173907066761,4.829703578477546,36,20,4f8723a6e4b0af04be6eaeb9,Franco e Nicolo,45.74967768303112,4.829974213940814,Italian Restaurant
52,45.75173907066761,4.829703578477546,36,21,4ed929f5722e1da300b9e050,Le Poelon D'Or,45.75276536795884,4.831035921452869,French Restaurant
53,45.75173907066761,4.829703578477546,36,22,4dcee5d822718eed7a44b124,Le Dolmen,45.752077,4.830682,French Restaurant
54,45.75173907066761,4.829703578477546,36,23,4fa2ce49e4b0793be5d836d9,Franco Et Nicolo,45.75208198719799,4.830548055808385,Italian Restaurant
55,45.75173907066761,4.829703578477546,36,24,4daa007d4b22f071eaae2360,L'Étoile d'Orient,45.752773,4.831323,Moroccan Restaurant
56,45.75173907066761,4.829703578477546,36,25,50b2161de4b0c965a0fd0974,Le Méditerranée,45.751294,4.829627,Mediterranean Restaurant
57,45.75173907066761,4.829703578477546,36,26,5a7c532c15173e2930bfa8f4,L'Établi,45.752977,4.830297,French Restaurant
58,45.75173907066761,4.829703578477546,36,27,542fed5d498ecb8ef956c94b,Parichart Restaurant Taïlandais,45.750431,4.828991,Thai Restaurant
59,45.75173907066761,4.829703578477546,36,28,4c7f83eb2042b1f770fec2ad,Un moment à part,45.752783169158995,4.831317271988769,French Restaurant
60,45.75173907066761,4.829703578477546,36,29,4ba3c54ef964a520635d38e3,Café Thomas,45.7530412347616,4.831933785418256,Tapas Restaurant
61,45.75173907066761,4.829703578477546,36,30,4c3e043aca012d7ff1e52ebe,Okawa,45.751587,4.827670454978943,Asian Restaurant
62,45.75173907066761,4.829703578477546,36,31,51370f9cfe70871dce5b642e,Franklin's Steakhouse,45.75220833299955,4.830207824707031,Steakhouse
63,45.75173907066761,4.829703578477546,36,32,4d02203e582454810b3349ac,Cuisine et Dependances,45.750634354944744,4.830147838252146,French Restaurant
64,45.75173907066761,4.829703578477546,36,33,561bfea3498eb3f7f60b1123,Bouchon Thomas,45.753056,4.832014,Lyonese Bouchon
65,45.75173907066761,4.829703578477546,36,34,4e3a8f5bc65b8a6b56ae72ab,Restaurant/Réserve Thomas,45.753012718672025,4.832054375247273,French Restaurant
66,45.75173907066761,4.829703578477546,36,35,51448776e4b0da66d868277b,Kebab Victor Hugo,45.75161417234464,4.828405466507272,Turkish Restaurant
67,45.7562609293324,4.836140865966899,35,0,4bc0e710f8219c74a073b210,Le Sud,45.75625708386564,4.835592282071567,French Restaurant
68,45.7562609293324,4.836140865966899,35,1,5b22ae55cbcdee002c6ab594,Adonys,45.758194,4.835485,Lebanese Restaurant
69,45.7562609293324,4.836140865966899,35,2,536bd017498ea4a63f6e54f5,Institut Paul Bocuse,45.75634616738288,4.833203852176666,French Restaurant
70,45.7562609293324,4.836140865966899,35,3,59217f136a59500d5bb61402,Tony's,45.75655240126166,4.834430614782916,Italian Restaurant
71,45.7562609293324,4.836140865966899,35,4,5bbf2cdce4c459002c2f4c82,Pitaya,45.756753,4.8345,Thai Restaurant
72,45.7562609293324,4.836140865966899,35,5,4be31023f07b0f4782fcf643,Sushi Shop,45.75778783663039,4.836025439269438,Sushi Restaurant
73,45.7562609293324,4.836140865966899,35,6,4c7825e4df08a1cd236bd65d,La pêche aux moules,45.7575175015429,4.834837923516218,Seafood Restaurant
74,45.7562609293324,4.836140865966899,35,7,5172db71498e182062642e9a,l endroit,45.75595474243164,4.836810111999512,French Restaurant
75,45.7562609293324,4.836140865966899,35,8,4bbce081f57ba593575eadb9,Au Petit Snack,45.754807,4.837749,French Restaurant
76,45.7562609293324,4.836140865966899,35,9,542fcade498e9bcafb2525f1,Minh Huy,45.75605223023568,4.836834528528727,Asian Restaurant
77,45.7562609293324,4.836140865966899,35,10,4c0a37f56071a5939327df32,Chez Fyfy,45.757059380238296,4.83471891129269,Japanese Restaurant
78,45.7562609293324,4.836140865966899,35,11,508d979b498edfd685dcf285,Restaurant Japonais,45.75480500781184,4.8338630886111025,Sushi Restaurant
79,45.7562609293324,4.836140865966899,35,12,516e7c67498ebc58f2e3d0c5,Bouchon Chabert et Fils,45.756745,4.834553,Lyonese Bouchon
80,45.7562609293324,4.836140865966899,35,13,4f1ef04ae4b0d72e6bb54437,Les Mascareignes,45.75737750712256,4.834614954500181,Chinese Restaurant
81,45.7562609293324,4.836140865966899,35,14,4bb73ace46d4a593b932c7c0,Le Bouchon des Carnivores,45.756855294979076,4.834628638072104,Lyonese Bouchon
82,45.7562609293324,4.836140865966899,35,15,4bc07891461576b06f277a32,Le Comptoir des Marronniers,45.756943,4.834609,French Restaurant
83,45.7562609293324,4.836140865966899,35,16,4c54111a1b46c9b6d045f8cd,La Mère Jean,45.75733335315966,4.834873407493695,French Restaurant
84,45.7562609293324,4.836140865966899,35,17,56a60e86498e2d6b37a0c42e,Gustave,45.756927,4.834713,French Restaurant
85,45.7562609293324,4.836140865966899,35,18,4d8a49111508a1435b7c211e,Aux 3 Cochons,45.75701979309383,4.834700499227967,French Restaurant
86,45.7562609293324,4.836140865966899,35,19,4c659ac47abde21e572e6168,L'atelier d'Yvonne,45.75721533586412,4.834775896415186,French Restaurant
87,45.7562609293324,4.836140865966899,35,20,4cf3ff0f94feb1f72aad25ba,Escale à Belle-Île,45.757213909704376,4.834774058314121,French Restaurant
88,45.7562609293324,4.836140865966899,35,21,4e255d02d22df6f888786528,Gepetto,45.75669087893019,4.834564548093853,Italian Restaurant
89,45.7562609293324,4.836140865966899,35,22,4b9388e5f964a520654734e3,Chez Mounier,45.757466185735446,4.834852715853726,French Restaurant
90,45.7562609293324,4.836140865966899,35,23,55577d5b498eb195c1941003,La Familie Chabert,45.75692310727984,4.834634176383445,French Restaurant
91,45.7562609293324,4.836140865966899,35,24,4e09c05fd4c03ae0b9d898f0,Chez M'man,45.75745542619138,4.834833641741284,French Restaurant
92,45.7562609293324,4.836140865966899,35,25,5d19e57111549d0023e57fbe,Chez Louloutte,45.757388,4.834846,French Restaurant
93,45.7562609293324,4.836140865966899,35,26,54975523498e361ed5f620e5,Le Bistro Régent,45.75724370131697,4.83478639328546,French Restaurant
94,45.7562609293324,4.836140865966899,35,27,5c72883be679bc002c8d68cd,Le Thèodore • Bistrot des Halles,45.758347,4.83687,Brasserie
95,45.7562609293324,4.836140865966899,35,28,4c38c3f593db0f4717322292,Piccadilly,45.75656335693722,4.834459411342665,French Restaurant
96,45.7562609293324,4.836140865966899,35,29,4c7ac30a2d3ba1430f5b92d0,Le Marronnier,45.757344,4.834831,French Restaurant
97,45.7562609293324,4.836140865966899,35,30,518e341a498e8da789aa3f40,Le Tunis,45.756965,4.834625,Mediterranean Restaurant
98,45.7562609293324,4.836140865966899,35,31,4bba433ccf2fc9b68058a102,Chabert & Fils,45.75684386221908,4.834635648159293,French Restaurant
99,45.7562609293324,4.836140865966899,35,32,511a8db1e4b0acbffba32210,Alapecheauxmoules,45.757452,4.834825,French Restaurant
100,45.7562609293324,4.836140865966899,35,33,52d7c92e498ec7118db1b534,Le Grand Cafe Lyonnais,45.75775932843309,4.83482539889631,French Restaurant
101,45.7562609293324,4.836140865966899,35,34,4bba263b53649c74cfb048fb,Brasserie Paulaner,45.7578374337978,4.834728172136022,French Restaurant
102,45.75173907066761,4.836140865966899,6,0,53348185498ebd7a99ff9fae,pizzaria,45.74998474121094,4.837348461151123,Italian Restaurant
103,45.75173907066761,4.836140865966899,6,1,5e26ebd6a929a40008f16068,Boleh Lah,45.752502,4.839116,Malay Restaurant
104,45.75173907066761,4.836140865966899,6,2,50ccd96de4b0ed7c3b43edbe,prado,45.75078444074455,4.837802014706275,African Restaurant
105,45.75173907066761,4.836140865966899,6,3,591c2b1a0457b7769aa4fb70,A La Piscine,45.753631,4.837716,French Restaurant
106,45.75173907066761,4.836140865966899,6,4,54a6e63e498ef4dcbc295db4,Ganharê à Vera,45.752342224121094,4.837076663970947,French Restaurant
107,45.75173907066761,4.836140865966899,6,5,51ec0872501989f275b4bf20,A Point Café,45.749887567945784,4.835443496704101,French Restaurant
108,45.754000000000005,4.846811111111111,16,0,4ba4bc65f964a5205cb038e3,4 Pates,45.753666,4.849091,Italian Restaurant
109,45.754000000000005,4.846811111111111,16,1,56a11ef8498efce151a74995,Il Padre,45.75229,4.846245,Italian Restaurant
110,45.754000000000005,4.846811111111111,16,2,4bc36b02461576b01c9c7e32,Au Wasabi,45.753306,4.846272,Japanese Restaurant
111,45.754000000000005,4.846811111111111,16,3,5bb398fa2aff31003983bf7b,3L Café,45.753044,4.845255,Tapas Restaurant
112,45.754000000000005,4.846811111111111,16,4,547a18f8498ecc35f9992430,Thanh-Binh,45.753752,4.848773,Vietnamese Restaurant
113,45.754000000000005,4.846811111111111,16,5,551d63a8498ebe1e5d513ed5,Pimment & Citronnelle Thaï Café,45.75190888486669,4.846837520599365,Thai Restaurant
114,45.754000000000005,4.846811111111111,16,6,4d03ebd7347da1cd638f288f,Piment et Citronnelle,45.75181112921925,4.847179195857364,Thai Restaurant
115,45.754000000000005,4.846811111111111,16,7,4e909bca02d5ee38b6db8095,A La Guill'on Dine,45.752837967626434,4.845383664927317,French Restaurant
116,45.754000000000005,4.846811111111111,16,8,4d0d2d1d8010548165171d96,Les Marmottes,45.754852,4.847604,French Restaurant
117,45.754000000000005,4.846811111111111,16,9,4c76a5bdc219224bb0d8a528,Medina,45.753068,4.845094,Moroccan Restaurant
118,45.754000000000005,4.846811111111111,16,10,4c5fee0d12e5c928b4f11d4c,Ganathain,45.753067,4.848967,French Restaurant
119,45.754000000000005,4.846811111111111,16,11,5e469d87a179e30008d5ddc6,South Indian Foodie,45.75295,4.845441,Indian Restaurant
120,45.754000000000005,4.846811111111111,16,12,51d52f84498ea5b101506fd6,Plum Teaching Kitchen Lyon,45.75385562808858,4.847526081816933,School
121,45.754000000000005,4.846811111111111,16,13,4fbe8f8ce4b06a0de5f31e19,snack cool,45.75208282470703,4.845229625701904,American Restaurant
122,45.754000000000005,4.846811111111111,16,14,4bc9edd6511f95215d8caec7,Maharaja Tandoori,45.752698,4.845762,Indian Restaurant
123,45.754000000000005,4.846811111111111,16,15,5cd16021fd9d73002c1146fc,Restaurant Africana,45.752655,4.8452797,African Restaurant
124,45.7562609293324,4.843592467366435,17,0,5a46653517556227e4e3946d,Restaurant Tanit,45.754612,4.843478,Mediterranean Restaurant
125,45.7562609293324,4.843592467366435,17,1,5213ab2c11d228fa298f5d53,L'Atelier Coté Rhône,45.75785761931967,4.841789732516357,Wine Bar
126,45.7562609293324,4.843592467366435,17,2,543f960d498ebe94575c1299,Enjoy Bar,45.756820515236015,4.840710119502815,Tapas Restaurant
127,45.7562609293324,4.843592467366435,17,3,5a7991d45f68b9539a0fab79,Chez Hafsi,45.756523,4.843866,Persian Restaurant
128,45.7562609293324,4.843592467366435,17,4,58591b0e1ac00444a801c136,Tandoori Hot,45.75524764063349,4.842122197151183,Indian Restaurant
129,45.7562609293324,4.843592467366435,17,5,5b40faf26adbf5002c0d9e27,A Ma Vigne,45.757362,4.8413224,Lyonese Bouchon
130,45.7562609293324,4.843592467366435,17,6,4bc9fa340687ef3ba1ecdacc,Restaurant Zeitouna,45.754823,4.842371,Kebab Restaurant
131,45.7562609293324,4.843592467366435,17,7,4f8f527ce4b03376fc8f91d2,Manhattan,45.75624051843926,4.841164034761752,Food Court
132,45.7562609293324,4.843592467366435,17,8,4e4ef2c781dcf21a878e1e7a,Thê' Vân,45.75494068677049,4.841084257290988,Asian Restaurant
133,45.7562609293324,4.843592467366435,17,9,4e3c4238aeb73139a16902b1,Indochine,45.754698514938354,4.841446280479431,Asian Restaurant
134,45.7562609293324,4.843592467366435,17,10,51e82183498e5091f0858178,Le Djerba,45.754795,4.843475,Middle Eastern Restaurant
135,45.7562609293324,4.843592467366435,17,11,5ad0a8ee06fb6060fa9bede5,El Kahina,45.757317,4.8413258,Taco Place
136,45.7562609293324,4.843592467366435,17,12,5712756b498eb520f6c0a193,China Town,45.756791,4.841833,Chinese Restaurant
137,45.7562609293324,4.843592467366435,17,13,5c8c039ddeb4950025806b26,Atelier des raviolis,45.75476106310147,4.841542840003967,Chinese Restaurant
138,45.7562609293324,4.843592467366435,17,14,4bae0a2bf964a520a67d3be3,Phnom Pich,45.75468246171748,4.841741323471069,Asian Restaurant
139,45.7562609293324,4.843592467366435,17,15,4d8e55f4c479a35d30ed4397,L'atelier,45.75821042424792,4.842451429609952,French Restaurant
140,45.7562609293324,4.843592467366435,17,16,5027834ee4b06553e278af90,Restaurant Du Soleil,45.75669076503025,4.8449788150885915,Middle Eastern Restaurant
141,45.75173907066761,4.843592467366435,29,0,5096cfa0e4b09283709ae3db,Restaurant Istanbul 3,45.751836,4.845776,Turkish Restaurant
142,45.75173907066761,4.843592467366435,29,1,4b5825eaf964a520394c28e3,Doshilack,45.75283135336592,4.84102521503997,Korean Restaurant
143,45.75173907066761,4.843592467366435,29,2,56a11ef8498efce151a74995,Il Padre,45.75229,4.846245,Italian Restaurant
144,45.75173907066761,4.843592467366435,29,3,4d93053b14228cfaf1a3587b,Couleur Figue,45.751739,4.84578,French Restaurant
145,45.75173907066761,4.843592467366435,29,4,4f930a07e4b0e8f4655b09bf,Restaurant Mimosa,45.75099015473421,4.845523791755796,Turkish Restaurant
146,45.75173907066761,4.843592467366435,29,5,5bb398fa2aff31003983bf7b,3L Café,45.753044,4.845255,Tapas Restaurant
147,45.75173907066761,4.843592467366435,29,6,4bc972533740b713cecc5e65,Brasserie Jean Jaures,45.751118,4.845303,French Restaurant
148,45.75173907066761,4.843592467366435,29,7,4b6d78e9f964a520b6762ce3,Indo Café,45.75077131925276,4.844088618264232,Vietnamese Restaurant
149,45.75173907066761,4.843592467366435,29,8,4e909bca02d5ee38b6db8095,A La Guill'on Dine,45.752837967626434,4.845383664927317,French Restaurant
150,45.75173907066761,4.843592467366435,29,9,4ea99fa39a522efffbaee315,Kaya,45.75084460557582,4.84601992380041,Korean Restaurant
151,45.75173907066761,4.843592467366435,29,10,5e3f11fc21aee000079e065d,Fujiyama 55,45.750875,4.845091,Japanese Restaurant
152,45.75173907066761,4.843592467366435,29,11,4c76a5bdc219224bb0d8a528,Medina,45.753068,4.845094,Moroccan Restaurant
153,45.75173907066761,4.843592467366435,29,12,52f28970498e24e9595242d3,Dochilack,45.752615,4.840819,Korean Restaurant
154,45.75173907066761,4.843592467366435,29,13,4f5ca5c8e4b0d8f7b71a9f7a,Fat Moroccan's,45.75033335936439,4.844673990410287,Moroccan Restaurant
155,45.75173907066761,4.843592467366435,29,14,53b84ae1498e06cf1e6861e8,Royal Kahn's Tandoori,45.753496,4.841605,Indian Restaurant
156,45.75173907066761,4.843592467366435,29,15,51a8eccc498e3ea18eeddf83,Fahima Tandoori,45.752128,4.840509,Indian Restaurant
157,45.75173907066761,4.843592467366435,29,16,50ae4edde4b08234563219ce,Croqu' Sandwich,45.751148,4.841942,Taco Place
158,45.75173907066761,4.843592467366435,29,17,5e469d87a179e30008d5ddc6,South Indian Foodie,45.75295,4.845441,Indian Restaurant
159,45.75173907066761,4.843592467366435,29,18,5a0d7dfb67af3a45047ae4d0,Le Bistroquet,45.751354,4.845718,French Restaurant
160,45.75173907066761,4.843592467366435,29,19,5ccacb77bbd0e8002569955d,C-Sushi,45.753193,4.8412976,Japanese Restaurant
161,45.75173907066761,4.843592467366435,29,20,557f0e25498e7fdd462af462,La Tablature,45.753193,4.842509,French Restaurant
162,45.75173907066761,4.843592467366435,29,21,4eb5a7fe6c2590eb8828f639,Caviar Pour Les Autres,45.75024273595474,4.845886406029356,French Restaurant
163,45.75173907066761,4.843592467366435,29,22,51b305ca498e8a96120ae567,Bollywood Tandoor,45.752261262016106,4.840712896485475,Indian Restaurant
164,45.75173907066761,4.843592467366435,29,23,4fbe8f8ce4b06a0de5f31e19,snack cool,45.75208282470703,4.845229625701904,American Restaurant
165,45.75173907066761,4.843592467366435,29,24,4bc9edd6511f95215d8caec7,Maharaja Tandoori,45.752698,4.845762,Indian Restaurant
166,45.75173907066761,4.843592467366435,29,25,5cd16021fd9d73002c1146fc,Restaurant Africana,45.752655,4.8452797,African Restaurant
167,45.75173907066761,4.843592467366435,29,26,563a124dcd104fbea2381172,Sept Épices,45.750265634639035,4.844616651535034,Middle Eastern Restaurant
168,45.75173907066761,4.843592467366435,29,27,4ff572c3e4b0fb4a8288d1c5,La Corée,45.75094712502246,4.845461098894553,Asian Restaurant
169,45.75173907066761,4.843592467366435,29,28,5f9ab87af69f547341e53427,Krioya,45.750317,4.8454614,Peruvian Restaurant
170,45.7562609293324,4.850029754855788,22,0,4d7bbdf086cfa143c8f2baa0,Restaurant Semazen,45.756864691225616,4.848561818839721,Turkish Restaurant
171,45.7562609293324,4.850029754855788,22,1,5b1131ae31ac6c00395f410a,Indian Cantine,45.756966,4.849147,Indian Restaurant
172,45.7562609293324,4.850029754855788,22,2,51859bec498e08949d0da80c,Perle Caspienne,45.756871,4.849176,Eastern European Restaurant
173,45.7562609293324,4.850029754855788,22,3,4f67213be4b06cb9fd9b9a24,Vivarais'Café,45.75708105373166,4.851636444907857,French Restaurant
174,45.7562609293324,4.850029754855788,22,4,4ee1fc5b722e9d45c5806a48,Traiteur-charcuterie Patisserie Bruno Morel,45.7564850281231,4.848082273600262,French Restaurant
175,45.7562609293324,4.850029754855788,22,5,5b0e8a356eda0200395bed28,Namasté,45.756709,4.850911,Indian Restaurant
176,45.7562609293324,4.850029754855788,22,6,4d0d2d1d8010548165171d96,Les Marmottes,45.754852,4.847604,French Restaurant
177,45.7562609293324,4.850029754855788,22,7,4e84504482310f57323100a0,Hervé Et Sophea,45.754467481797015,4.850402083950297,French Restaurant
178,45.7562609293324,4.850029754855788,22,8,5df7cb352d615a0008d7fa6e,Taybé,45.756935,4.850569,Lebanese Restaurant
179,45.7562609293324,4.850029754855788,22,9,51dd72efccda86a6ffde730c,Pekin Express,45.7570142556995,4.85271692276001,Asian Restaurant
180,45.7562609293324,4.850029754855788,22,10,4c2cfdc34e132d7faba99bdf,Les Jardins De Paul,45.756871,4.849601,French Restaurant
181,45.7562609293324,4.850029754855788,22,11,5bf99bb0a6031c002c752f5b,Bentomania,45.757003,4.850912,Japanese Restaurant
182,45.7562609293324,4.850029754855788,22,12,4bacafedf964a520d4033be3,Pizzeria Trianon,45.75773185207191,4.84826247918259,Italian Restaurant
183,45.7562609293324,4.850029754855788,22,13,4de778c57d8b1f2dd298115b,Thaï Suois,45.757013626044156,4.848622192060688,Asian Restaurant
184,45.7562609293324,4.850029754855788,22,14,5eed0b5638abbd0008d7d59d,Jasmin Tandoori,45.756714,4.8494186,Indian Restaurant
185,45.7562609293324,4.850029754855788,22,15,51b2295e498eff28b3d0b20f,Ras-le-Bol,45.756881652375334,4.848839292374405,Korean Restaurant
186,45.7562609293324,4.850029754855788,22,16,5763208a498ebe1c94d4e9eb,L'Assiette Sur La Place,45.757133,4.848527,French Restaurant
187,45.7562609293324,4.850029754855788,22,17,525c2675498e4058af2f8a9e,jardin du bambou,45.757459601812116,4.848069507506429,Asian Restaurant
188,45.7562609293324,4.850029754855788,22,18,4e331e7945dd6987a175c636,La Colombe,45.756820737970415,4.849254097616496,Greek Restaurant
189,45.7562609293324,4.850029754855788,22,19,50c0dfdae4b099045dc6bd8e,Anatolya,45.75636291503906,4.847873210906982,Turkish Restaurant
190,45.7562609293324,4.850029754855788,22,20,537dda57498e9239c5262857,LE VOL TERRE,45.75688939411846,4.848171850935208,French Restaurant
191,45.7562609293324,4.850029754855788,22,21,4eb91642b8030fb58461c4b6,Le Petit Bouchon,45.757814668365036,4.848009247187999,Lyonese Bouchon
192,45.75173907066761,4.850029754855788,23,0,4bc86f8c14d79521430469e9,Bistrot des Maquignons,45.750963368339605,4.848279163374855,French Restaurant
193,45.75173907066761,4.850029754855788,23,1,4ba4bc65f964a5205cb038e3,4 Pates,45.753666,4.849091,Italian Restaurant
194,45.75173907066761,4.850029754855788,23,2,4cf55c181801a143f305e3d4,Le Petit Carron,45.75287973293992,4.852723198038106,Lyonese Bouchon
195,45.75173907066761,4.850029754855788,23,3,5489fe6c498e1252503fe5d8,Hot Wok,45.750160217285156,4.851224422454834,Asian Restaurant
196,45.75173907066761,4.850029754855788,23,4,4bd56f116f64952168026fec,Umai,45.75155019278926,4.851582687692138,Sushi Restaurant
197,45.75173907066761,4.850029754855788,23,5,5cf8c7303731ee002bc45ad1,Garbadrome,45.75037,4.8502984,African Restaurant
198,45.75173907066761,4.850029754855788,23,6,576d9f9fcd10b950ef1d2c25,Le Palais des Tajines,45.751161,4.850538,Moroccan Restaurant
199,45.75173907066761,4.850029754855788,23,7,547a18f8498ecc35f9992430,Thanh-Binh,45.753752,4.848773,Vietnamese Restaurant
200,45.75173907066761,4.850029754855788,23,8,4e46e06518a8f9804ccf20e1,Jonathilde's,45.751342,4.850654,Argentinian Restaurant
201,45.75173907066761,4.850029754855788,23,9,551d63a8498ebe1e5d513ed5,Pimment & Citronnelle Thaï Café,45.75190888486669,4.846837520599365,Thai Restaurant
202,45.75173907066761,4.850029754855788,23,10,4d03ebd7347da1cd638f288f,Piment et Citronnelle,45.75181112921925,4.847179195857364,Thai Restaurant
203,45.75173907066761,4.850029754855788,23,11,589e0f0b076be12e03cbb8eb,O Thai,45.752054,4.851978,Thai Restaurant
204,45.75173907066761,4.850029754855788,23,12,4ffc7e6ce4b079b51e7ae13f,Le Palais de Chine,45.752919114622216,4.849962589613709,Chinese Restaurant
205,45.75173907066761,4.850029754855788,23,13,4c5fee0d12e5c928b4f11d4c,Ganathain,45.753067,4.848967,French Restaurant
206,45.75173907066761,4.850029754855788,23,14,5c3f89a4515d6a002c5c3050,Ramen Masa,45.75099,4.848128,Ramen Restaurant
207,45.75173907066761,4.850029754855788,23,15,4c29d69e97d00f477df241ea,La Gratinée,45.752917528152466,4.852164387702942,French Restaurant
208,45.75173907066761,4.850029754855788,23,16,529882cb11d2c01ecfe2f87b,Les Bonnes Manières,45.751225480378764,4.8479646899828674,French Restaurant
209,45.75173907066761,4.850029754855788,23,17,5489fea3498e001dde2c26e7,Hot Wok,45.750221252441406,4.851353168487549,Asian Restaurant
210,45.75173907066761,4.850029754855788,23,18,4c00321792a6c9285dd143e2,L'art et la manière,45.751282,4.847747,French Restaurant
211,45.75173907066761,4.850029754855788,23,19,4bdc838ec79cc928dce786e9,Pizzeria San Marco,45.75139526528606,4.847681282267026,Italian Restaurant
212,45.75173907066761,4.850029754855788,23,20,4fc5f34e7b0c7e019ef9e1d9,Restaurant Mosaique,45.75267247443033,4.851933717727661,Mediterranean Restaurant
213,45.75173907066761,4.850029754855788,23,21,4bd9cb8ce914a59316f257fa,Bambou d'Asie,45.750119,4.850955,Chinese Restaurant
214,45.75173907066761,4.850029754855788,23,22,5984bedae97dfb6a1564519d,Saku,45.751527,4.851739,Japanese Restaurant
215,45.764,4.832922222222223,50,0,501d491be4b01ea6a2237166,L'Institution,45.76334789516171,4.83580729229014,French Restaurant
216,45.764,4.832922222222223,50,1,4c13d053a5eb76b0ab9dc0b7,Le Mont Liban,45.76360474571316,4.832467982784331,Lebanese Restaurant
217,45.764,4.832922222222223,50,2,4c4cb895e7049c743d5d7b65,Les Enfants Terribles,45.762489745019245,4.832846296185814,French Restaurant
218,45.764,4.832922222222223,50,3,4bdaf355c79cc928c85c80e9,Grand Café des Négociants,45.763361607386784,4.834397728320508,Lounge
219,45.764,4.832922222222223,50,4,4b8038fdf964a520185e30e3,Léon de Lyon,45.76589177088347,4.833454394100101,French Restaurant
220,45.764,4.832922222222223,50,5,4d7fbe65564b8cfafdaa0b65,Le Musée,45.76470420119588,4.834464066051043,Lyonese Bouchon
221,45.764,4.832922222222223,50,6,5bd1a40ad1a402002c5a714f,Bouchon Tupin,45.762842,4.834863,Lyonese Bouchon
222,45.764,4.832922222222223,50,7,559f9c06498e84d2099b4120,La Maison Marie,45.762923749296405,4.833058457793413,French Restaurant
223,45.764,4.832922222222223,50,8,5198c2e1498e01d904ddaaa1,Le Bistrot De Cuisiniers,45.76265157418205,4.832794414562661,French Restaurant
224,45.764,4.832922222222223,50,9,55d4e388498ee25b69e9f1c0,Carnet Gourmand,45.76501443242975,4.835066835009671,Chinese Restaurant
225,45.764,4.832922222222223,50,10,5f33d09bb97cd61290fff35d,Woko,45.764159,4.835721,Asian Restaurant
226,45.764,4.832922222222223,50,11,4c07fac9340720a16a688293,Le Layon Restaurant,45.76275567669135,4.832809990026085,French Restaurant
227,45.764,4.832922222222223,50,12,5e5ab46030aaeb0008ae9063,Caramelo,45.765309,4.834987,Italian Restaurant
228,45.764,4.832922222222223,50,13,4b77f13bf964a52094af2ee3,Le Mercière,45.7627,4.832545,French Restaurant
229,45.764,4.832922222222223,50,14,4be7f742947820a18f46b4db,Riviere Kwaï,45.765023534332464,4.832312528908809,Thai Restaurant
230,45.764,4.832922222222223,50,15,5584779a498e1ed8955587e6,les pâtes vivantes,45.764147,4.832352,Chinese Restaurant
231,45.764,4.832922222222223,50,16,5b635296ee7120002ca3289c,Café Lisboa,45.762424,4.834592,Portuguese Restaurant
232,45.764,4.832922222222223,50,17,4bf6d2964a67c928b17922cf,La Meunière,45.76522562396956,4.835338352456442,French Restaurant
233,45.764,4.832922222222223,50,18,4bcdfe01f1819521123a5404,Le Bistrot de Lyon,45.76210063447085,4.8327988386154175,French Restaurant
234,45.764,4.832922222222223,50,19,4fe1acbde4b040e806101a0b,Tapeo BCN,45.76295366664158,4.834215144579689,Tapas Restaurant
235,45.764,4.832922222222223,50,20,4bb38b4835f0c9b68a87bc83,Le Passage,45.76602999817516,4.833929092297866,French Restaurant
236,45.764,4.832922222222223,50,21,5c535096e55d8b002c1c23a4,Le Ti'punch De La Réunion,45.7652,4.832847,Cajun / Creole Restaurant
237,45.764,4.832922222222223,50,22,4f70a685e4b04cb296a9300e,Bistrot Verdi,45.76588089073416,4.832347521018998,French Restaurant
238,45.764,4.832922222222223,50,23,50c097c2e4b0862c2eabce23,Yaketama,45.762864,4.832992,Sushi Restaurant
239,45.764,4.832922222222223,50,24,59f9b33128374e504c6f43ad,My Little Warung,45.762938,4.832625,Indonesian Restaurant
240,45.764,4.832922222222223,50,25,4b7fd8c2f964a5208d4030e3,Le Saint Joseph,45.762930360404575,4.8327957908586985,French Restaurant
241,45.764,4.832922222222223,50,26,50a23daee4b0d35b058a37c0,Persan,45.765068183842764,4.83274479204944,Middle Eastern Restaurant
242,45.764,4.832922222222223,50,27,4c1caee68b3aa593a838995f,La Traboulerie,45.76255698202655,4.832794277426161,Lyonese Bouchon
243,45.764,4.832922222222223,50,28,4bc0dbfa920eb71387b6192c,Pique-Nique En Ville,45.763793640562184,4.83257074382933,French Restaurant
244,45.764,4.832922222222223,50,29,503530afe4b0ec35e732d56b,Makoto,45.765006,4.832367,Japanese Restaurant
245,45.764,4.832922222222223,50,30,50dc8bfbe4b0658279323044,La Hugonnière,45.765204,4.835359,Lyonese Bouchon
246,45.764,4.832922222222223,50,31,578e8651498e355587e7f923,Chez Colette,45.761836,4.832951,French Restaurant
247,45.764,4.832922222222223,50,32,508043cce4b06f332ea5999c,Goramen,45.76521877391016,4.8351152114919005,Japanese Restaurant
248,45.764,4.832922222222223,50,33,5555c5e3498eba1d9280ee09,Prairial,45.76485526365827,4.832279911952429,French Restaurant
249,45.764,4.832922222222223,50,34,4d3d69e38edf37045d62b9a5,Le 9 Rue Merciere,45.764068,4.832375,French Restaurant
250,45.764,4.832922222222223,50,35,57ecf9a7498ead72dacbbd54,Mrs. Winn,45.762614,4.83519,Asian Restaurant
251,45.764,4.832922222222223,50,36,4df3578f62e1288ed3037cd7,Noboru,45.76389170108897,4.834587414012218,Japanese Restaurant
252,45.764,4.832922222222223,50,37,576c2138498e8fac2bdd5f5f,Hippopotamus Steakhouse,45.763011071773185,4.832801278180455,BBQ Joint
253,45.764,4.832922222222223,50,38,4bc84a13af07a5936c8c802d,Café Chenavard,45.76558705791576,4.832973209690995,Coffee Shop
254,45.764,4.832922222222223,50,39,532217bd498ec5ca31dcf33e,Autour d'Un Verre,45.7654464358083,4.833770645901549,Wine Bar
255,45.764,4.832922222222223,50,40,4ba13c0df964a52095a437e3,Matsuri Lyon Presqu'ile,45.76497455810287,4.833834171295166,Japanese Restaurant
256,45.764,4.832922222222223,50,41,5050dffce4b056062155dc8a,Du cote de chez Xane,45.7625538320315,4.831931490258712,Thai Restaurant
257,45.764,4.832922222222223,50,42,4d78be87109eb1f796ea5306,Hippopotamus,45.76294538963438,4.832806477687906,Steakhouse
258,45.764,4.832922222222223,50,43,51b37d23498e77488e3d9df3,Carnet de Voyage,45.765671218551205,4.8343449118198905,Chinese Restaurant
259,45.764,4.832922222222223,50,44,5bd311da446ea6003af423d8,Restaurant Du Musée,45.764589,4.834569,Lyonese Bouchon
260,45.764,4.832922222222223,50,45,4bedb49ae24d20a14fdd7114,Le Bouchon Aux Vins,45.762331463896984,4.832869921594452,Lyonese Bouchon
261,45.764,4.832922222222223,50,46,5016dc86e4b035d9f5b934ec,Pizzas Artisanales,45.762977600097656,4.834304332733154,Italian Restaurant
262,45.764,4.832922222222223,50,47,4c6e365d10faa1431732f068,Chez Sylvie,45.76300600448092,4.834952224613896,Lyonese Bouchon
263,45.764,4.832922222222223,50,48,571a760b498e465e2f16781d,L'Episens,45.76318559359292,4.8353126814898815,French Restaurant
264,45.764,4.832922222222223,50,49,52b09cc211d2fb448ef6825a,Chez Fyfy,45.763119631458856,4.8327029866972735,Japanese Restaurant
265,45.7662609293324,4.829703001582534,50,0,511689fde4b0f0411f3ddd02,Yaafa,45.76747141526251,4.831746690120228,Falafel Restaurant
266,45.7662609293324,4.829703001582534,50,1,568fa25a498ea01b8760218f,Ramen Djizan,45.767154,4.829782,Ramen Restaurant
267,45.7662609293324,4.829703001582534,50,2,4b4cddf6f964a52050c226e3,Chez Paul,45.76667624333183,4.8327767380706,French Restaurant
268,45.7662609293324,4.829703001582534,50,3,55f47205498e7cc71af97a2f,La Bijouterie,45.768036117393045,4.830747253632454,French Restaurant
269,45.7662609293324,4.829703001582534,50,4,4be7f742947820a18f46b4db,Riviere Kwaï,45.765023534332464,4.832312528908809,Thai Restaurant
270,45.7662609293324,4.829703001582534,50,5,5c92a669088158002b5fd3c0,Hape,45.767866,4.830721,French Restaurant
271,45.7662609293324,4.829703001582534,50,6,4b881b42f964a52046e031e3,Le Potager des Halles,45.76821698959789,4.828433630526526,French Restaurant
272,45.7662609293324,4.829703001582534,50,7,4dc13ad9b0fb1c18ee5dca34,L'Interlude Café,45.76603463701966,4.831418063181116,French Restaurant
273,45.7662609293324,4.829703001582534,50,8,4dc59cbbb0fb5556ccf5be3a,Le Balmoral,45.76642402649351,4.831899740352947,Italian Restaurant
274,45.7662609293324,4.829703001582534,50,9,5d546e68923bf40008b5257d,Le Cambodia,45.764564,4.827906,Cambodian Restaurant
275,45.7662609293324,4.829703001582534,50,10,4f70a685e4b04cb296a9300e,Bistrot Verdi,45.76588089073416,4.832347521018998,French Restaurant
276,45.7662609293324,4.829703001582534,50,11,4c167ac35e88c9287f332466,Chouette! Un tonneau!,45.767507993890405,4.8317742347717285,French Restaurant
277,45.7662609293324,4.829703001582534,50,12,5080ac0ce4b0fedebcaa7d75,The Place To Be,45.764896,4.827498,French Restaurant
278,45.7662609293324,4.829703001582534,50,13,537f369b498e10c894807fbe,Komé,45.76718521118164,4.831728458404541,Japanese Restaurant
279,45.7662609293324,4.829703001582534,50,14,4d974f9ca2c65481f062d553,Les Demoiselles De Rochefory,45.76818,4.829263,French Restaurant
280,45.7662609293324,4.829703001582534,50,15,5a4e978508815849b1a1c233,Retaurant İstanbul,45.766747,4.8310137,Doner Restaurant
281,45.7662609293324,4.829703001582534,50,16,4e345194b0fb59390e92ae45,Les Fines Gueules,45.76496478160196,4.828088696593981,Lyonese Bouchon
282,45.7662609293324,4.829703001582534,50,17,5f04c86f7058bb4056f7e983,Le Comptoir Texan,45.764548,4.82796,Mexican Restaurant
283,45.7662609293324,4.829703001582534,50,18,503530afe4b0ec35e732d56b,Makoto,45.765006,4.832367,Japanese Restaurant
284,45.7662609293324,4.829703001582534,50,19,4fb6b9f3e4b03f8836927484,Le Beguin,45.767765,4.830887,Tapas Restaurant
285,45.7662609293324,4.829703001582534,50,20,4c9e4d9d7c096dcb19dbd3d1,L'ebullition,45.766489392323784,4.831746741046182,French Restaurant
286,45.7662609293324,4.829703001582534,50,21,54df9983498e80dff144e891,Djizan 慈山,45.766773161046636,4.829894534458594,Japanese Restaurant
287,45.7662609293324,4.829703001582534,50,22,51116958e4b06ac886430e78,Digor,45.764820022396734,4.828198814972361,Turkish Restaurant
288,45.7662609293324,4.829703001582534,50,23,4de26798ae60e7f3abee0c32,La Grange de Saint Jean,45.76453627155949,4.828432402439013,French Restaurant
289,45.7662609293324,4.829703001582534,50,24,505a212fe4b09176b45843f9,L'entracte,45.76604044179518,4.831316187853107,French Restaurant
290,45.7662609293324,4.829703001582534,50,25,58b95a00ce66aa16e710e238,Cousbox,45.767568,4.832002,Middle Eastern Restaurant
291,45.7662609293324,4.829703001582534,50,26,52d035c7498e621b01109d76,Sushy'dee,45.76626205444336,4.827408313751221,Japanese Restaurant
292,45.7662609293324,4.829703001582534,50,27,4d97117db188721eb0a60537,Chez Louise,45.76449354626768,4.828254861109336,French Restaurant
293,45.7662609293324,4.829703001582534,50,28,4ea945eccc217c087e174a6d,Doma,45.76673855869109,4.831805798673847,Japanese Restaurant
294,45.7662609293324,4.829703001582534,50,29,4cdf061641ed224b62cadc3c,Setha,45.76462301372678,4.828747022078035,Chinese Restaurant
295,45.7662609293324,4.829703001582534,50,30,52fbbd66498e5fb38bf8b936,Taco Taco,45.7658,4.82734,Mexican Restaurant
296,45.7662609293324,4.829703001582534,50,31,4c36095f0a71c9b6926d3cc9,Le Bistrot du Potager,45.76818357293449,4.828389534651595,Tapas Restaurant
297,45.7662609293324,4.829703001582534,50,32,4f186b3fe4b07e1b493c32db,Archange,45.76839456013664,4.830536397740756,French Restaurant
298,45.7662609293324,4.829703001582534,50,33,4bf0166a24f19c745b2df983,Notre Maison,45.764563058969486,4.827801267376407,French Restaurant
299,45.7662609293324,4.829703001582534,50,34,558133d6498ea927268e79e1,L'Attrape-Coeurs,45.767634470544245,4.8309203512886,French Restaurant
300,45.7662609293324,4.829703001582534,50,35,56bf8f29cd10d8d45cfd83dd,Le Casse Museau,45.765507,4.8324633,French Restaurant
301,45.7662609293324,4.829703001582534,50,36,52acaf9911d225e83886b4e6,Asian Like,45.766018,4.829234,Asian Restaurant
302,45.7662609293324,4.829703001582534,50,37,5b71d8cc345cbe0039994b33,Le Caveau Des Gourmands,45.766444,4.83237,Lyonese Bouchon
303,45.7662609293324,4.829703001582534,50,38,5b2ad414947c0500398bf08d,L'éclat,45.768126,4.82833,French Restaurant
304,45.7662609293324,4.829703001582534,50,39,4bec5941976ac92858e1600b,Letrezet3,45.767944,4.83072,French Restaurant
305,45.7662609293324,4.829703001582534,50,40,5c7ad8895ba046002c93773c,Sapna,45.768213,4.828774,Asian Restaurant
306,45.7662609293324,4.829703001582534,50,41,4fe604d2e4b05d1edbfb5c67,Le Royal Indien,45.765161745436906,4.828176234263226,Indian Restaurant
307,45.7662609293324,4.829703001582534,50,42,4fbd2ba2e4b0ef3c2e692dc9,Sainte Russie,45.76503654313609,4.827352102192844,Eastern European Restaurant
308,45.7662609293324,4.829703001582534,50,43,5e37236402255c000875ce23,Restaurant Le Goût De Kyun,45.766837,4.830642,Korean Restaurant
309,45.7662609293324,4.829703001582534,50,44,4cd05ad17b685481600bc1f8,Le Cabaretier,45.767013,4.830927,French Restaurant
310,45.7662609293324,4.829703001582534,50,45,5603d66d498ed38532c81a21,Rainbow d'Asie,45.76806349231213,4.831307263896195,Asian Restaurant
311,45.7662609293324,4.829703001582534,50,46,4b649ab8f964a52071c12ae3,Lal Quila,45.765585,4.827985,Indian Restaurant
312,45.7662609293324,4.829703001582534,50,47,50eeacd0e4b0e2ef7cbeebc7,Les Delices De Kim,45.766641,4.831161,Asian Restaurant
313,45.7662609293324,4.829703001582534,50,48,52d2965c11d2c8bfdc0ffb36,Atelier d'Ainay,45.76724426193655,4.828529131037323,French Restaurant
314,45.7662609293324,4.829703001582534,50,49,55cfab39498ed792648022dc,Pivoine,45.76444714310495,4.8314763472167295,Asian Restaurant
315,45.76173907066761,4.829703001582534,50,0,5867ebff45c3ed5c6abec655,Chez Marie,45.76364,4.828145,Lyonese Bouchon
316,45.76173907066761,4.829703001582534,50,1,4c6ee3aa9375a093c33e0237,Le Laurencin,45.76319628133412,4.827998828951128,French Restaurant
317,45.76173907066761,4.829703001582534,50,2,5144bbe6e4b0380b548edbf8,Le Panier du Chef,45.762540171582316,4.8275749830367065,French Restaurant
318,45.76173907066761,4.829703001582534,50,3,4c7eb811fb13a1cd70889ea4,Le Tire Bouchon,45.762715279796616,4.82720982773085,Lyonese Bouchon
319,45.76173907066761,4.829703001582534,50,4,51576adae4b0715458de8b7e,La Chimère,45.76296910093715,4.827221407087786,French Restaurant
320,45.76173907066761,4.829703001582534,50,5,4b77f13bf964a52094af2ee3,Le Mercière,45.7627,4.832545,French Restaurant
321,45.76173907066761,4.829703001582534,50,6,4e2abdd66284b96d7b7fce6c,Sol Café,45.762538394895614,4.826818077491853,Mexican Restaurant
322,45.76173907066761,4.829703001582534,50,7,4de4c4d552b1d38d29a4341e,Aux Trois Maries,45.76323885341654,4.828363892408686,French Restaurant
323,45.76173907066761,4.829703001582534,50,8,4e0c4ac945dd7a490b056413,Les Pavés de Saint-Jean,45.7628867067004,4.827846593395778,French Restaurant
324,45.76173907066761,4.829703001582534,50,9,4f6de391e4b0725b618a7fe3,Fuxia,45.76168422163643,4.832497798079527,Deli / Bodega
325,45.76173907066761,4.829703001582534,50,10,4bcdfe01f1819521123a5404,Le Bistrot de Lyon,45.76210063447085,4.8327988386154175,French Restaurant
326,45.76173907066761,4.829703001582534,50,11,4f5280d7e4b002a74259d38e,"Aux 24 Colonnes, le Bistrot du Palais",45.76248702917993,4.8283309105885595,French Restaurant
327,45.76173907066761,4.829703001582534,50,12,5cca255833e118002c7b6f8e,Bouchon Rouge,45.763043,4.828934,Lyonese Bouchon
328,45.76173907066761,4.829703001582534,50,13,4db7e6ac815445bd47c7775f,Hong Ha,45.76298245118316,4.8280341630251105,Vietnamese Restaurant
329,45.76173907066761,4.829703001582534,50,14,4bf18e5352bda5931fb0b1b7,Les Ventres Jaunes,45.762714497683355,4.827335448754068,French Restaurant
330,45.76173907066761,4.829703001582534,50,15,4dea897f18386283a3e8032c,Le Pique,45.76330132952094,4.828401391070576,French Restaurant
331,45.76173907066761,4.829703001582534,50,16,4db0a23143a1bea42bba617f,Le Francois Villon,45.762687946685645,4.827151182703056,French Restaurant
332,45.76173907066761,4.829703001582534,50,17,5783c72b498ee3d0ffc4fb19,Au P'ti bouchon,45.763638564094,4.828062057495117,Lyonese Bouchon
333,45.76173907066761,4.829703001582534,50,18,4c83d6addc018cfa3df0db6c,Les Pampres Rouges,45.76265757215099,4.827300531916704,French Restaurant
334,45.76173907066761,4.829703001582534,50,19,507093bbe4b07e253c4bd949,Chez Grand-Mère,45.76283509106944,4.827158786838521,French Restaurant
335,45.76173907066761,4.829703001582534,50,20,51d1ce10498e0a9f28d7ce1d,La Tour D'Asie,45.761176,4.832309,Dim Sum Restaurant
336,45.76173907066761,4.829703001582534,50,21,4c712b27df6b8cfaf13dba4d,Le Palais St.Jean,45.76253784988894,4.827500316756511,French Restaurant
337,45.76173907066761,4.829703001582534,50,22,563e0440cd10d06ce09ecd32,Au Comptoir les Gones,45.7628732222529,4.827883788250255,French Restaurant
338,45.76173907066761,4.829703001582534,50,23,4b900c0af964a520527233e3,Café Leone,45.76161640551814,4.832514832953937,Bar
339,45.76173907066761,4.829703001582534,50,24,4e14a64d483bfda2e0a7dad2,Le Penjab,45.761204118085466,4.828615226863304,Indian Restaurant
340,45.76173907066761,4.829703001582534,50,25,523d7fe311d20d248a8ea4fd,Le bistrot Des 4 Chapeaux,45.761979600217195,4.82805138821302,French Restaurant
341,45.76173907066761,4.829703001582534,50,26,4f9d83aee4b0f1efa8e03f79,Gabriel Aligne,45.761117,4.828899,Indian Restaurant
342,45.76173907066761,4.829703001582534,50,27,4df63196aeb7170aa2f9c0f5,Chez Chabert,45.76370381401672,4.828192346422199,Lyonese Bouchon
343,45.76173907066761,4.829703001582534,50,28,5050dffce4b056062155dc8a,Du cote de chez Xane,45.7625538320315,4.831931490258712,Thai Restaurant
344,45.76173907066761,4.829703001582534,50,29,5b7fe42ddab4b1002c7afcbd,Trattoria Celestins,45.760402,4.83099,Italian Restaurant
345,45.76173907066761,4.829703001582534,50,30,509029e8e4b0c3ef09ca2749,Rabelais,45.76128005981445,4.826822757720947,French Restaurant
346,45.76173907066761,4.829703001582534,50,31,5222405e11d259e6d72e744b,L'ange Divin,45.761279,4.832075,Tapas Restaurant
347,45.76173907066761,4.829703001582534,50,32,4ed6885693ad293dfc8a3393,L'acteur,45.76037404018894,4.831264264007608,French Restaurant
348,45.76173907066761,4.829703001582534,50,33,4bdb2edfc79cc928468781e9,Les Adrets,45.76256226339817,4.826787053267538,French Restaurant
349,45.76173907066761,4.829703001582534,50,34,4f744ab5e4b03eeeef43848f,Pasta Luna,45.76099561004818,4.827199860426063,Italian Restaurant
350,45.76173907066761,4.829703001582534,50,35,4eb44b347ee5024d7e85a3b7,Le Pékin,45.760388,4.831114,Chinese Restaurant
351,45.76173907066761,4.829703001582534,50,36,4fd1e5a7e4b0d6a2d4e18e23,Restaurant Le Vieux Lyon,45.76236395806898,4.827728015818322,French Restaurant
352,45.76173907066761,4.829703001582534,50,37,4da0b4109935a093c67f8f6f,Giovany's Ristorante,45.7632992058468,4.828269269474357,Italian Restaurant
353,45.76173907066761,4.829703001582534,50,38,51bf6d40498ed389bc4cc6f6,Pique Assiette,45.76329628440268,4.828460940109662,French Restaurant
354,45.76173907066761,4.829703001582534,50,39,4d45738e7e2e5481a2a66a8f,L'Amphitryon,45.76255459269243,4.827544521170666,French Restaurant
355,45.76173907066761,4.829703001582534,50,40,4f511b47e4b062d9daa94495,Tout Une Histoire,45.76180960707703,4.832383635281002,French Restaurant
356,45.76173907066761,4.829703001582534,50,41,4d57cd26380ab1f77a7f00f5,L'Eau Salée,45.76279279224497,4.828319549560547,French Restaurant
357,45.76173907066761,4.829703001582534,50,42,4c3cefc0b36ac9288bcd0486,Gouter Aux Delices,45.76201437142477,4.832686185836792,Thai Restaurant
358,45.76173907066761,4.829703001582534,50,43,4d8cef4bfa9437046a74dcc5,Maitre Boeuf,45.76329490468211,4.828261001676771,French Restaurant
359,45.76173907066761,4.829703001582534,50,44,4d836d268de9721e0e8a1b51,Jasmingarden,45.761274,4.827068,Asian Restaurant
360,45.76173907066761,4.829703001582534,50,45,4bae6311f964a52098ab3be3,Les Chandelles,45.763712982623986,4.828237234368233,French Restaurant
361,45.76173907066761,4.829703001582534,50,46,5ba8d84adb1d81002cc98ce0,Pho Bo,45.762859,4.827595,Vietnamese Restaurant
362,45.76173907066761,4.829703001582534,50,47,5d5411def698410008ade0bc,La Feria,45.7635,4.8288717,Tapas Restaurant
363,45.76173907066761,4.829703001582534,50,48,4c4df2e6fb742d7fae258e2d,La Nef des Fous,45.76314098533146,4.82735493998337,French Restaurant
364,45.76173907066761,4.829703001582534,50,49,5522b4f7498ee9d4555ded2e,Bintje & Zoet,45.763505199493885,4.82808441443615,Belgian Restaurant
365,45.7662609293324,4.836141442861911,50,0,4dce810a52b1f8915b975791,Les Muses de l'Opéra,45.767671024242055,4.8360319691069975,French Restaurant
366,45.7662609293324,4.836141442861911,50,1,5cc354b5ed293a002b485d1d,La Grenade,45.767025,4.836862,Mediterranean Restaurant
367,45.7662609293324,4.836141442861911,50,2,4b8038fdf964a520185e30e3,Léon de Lyon,45.76589177088347,4.833454394100101,French Restaurant
368,45.7662609293324,4.836141442861911,50,3,4d7fbe65564b8cfafdaa0b65,Le Musée,45.76470420119588,4.834464066051043,Lyonese Bouchon
369,45.7662609293324,4.836141442861911,50,4,5e0b4172dfbd920008f12fa3,Les Flaconneurs Bistro,45.766779,4.837133,French Restaurant
370,45.7662609293324,4.836141442861911,50,5,55d4e388498ee25b69e9f1c0,Carnet Gourmand,45.76501443242975,4.835066835009671,Chinese Restaurant
371,45.7662609293324,4.836141442861911,50,6,5f400e1d24b6ac29b3691bf0,Bouchon Bât-d’Argent,45.766161,4.837061,French Restaurant
372,45.7662609293324,4.836141442861911,50,7,5f33d09bb97cd61290fff35d,Woko,45.764159,4.835721,Asian Restaurant
373,45.7662609293324,4.836141442861911,50,8,5db147c03a03fc00086d77cd,"Focaccia, I Sapori Italiani",45.766705,4.8359423,Italian Restaurant
374,45.7662609293324,4.836141442861911,50,9,56027a97498ec7fbc491e838,Le Bouchon des Cordeliers,45.764309614627905,4.837581425139053,Lyonese Bouchon
375,45.7662609293324,4.836141442861911,50,10,5e5ab46030aaeb0008ae9063,Caramelo,45.765309,4.834987,Italian Restaurant
376,45.7662609293324,4.836141442861911,50,11,4c571d8a6418a59378a27e0e,Pizzeria Carlino,45.76659949751269,4.835879751956537,Italian Restaurant
377,45.7662609293324,4.836141442861911,50,12,4bf6d2964a67c928b17922cf,La Meunière,45.76522562396956,4.835338352456442,French Restaurant
378,45.7662609293324,4.836141442861911,50,13,5ca48a650802d4002cfc6e2b,Carlita,45.768024,4.837522,Italian Restaurant
379,45.7662609293324,4.836141442861911,50,14,528a72cd11d2bcbf86318b76,Le Caro De Lyon,45.76498308519234,4.836685773413574,French Restaurant
380,45.7662609293324,4.836141442861911,50,15,4bb38b4835f0c9b68a87bc83,Le Passage,45.76602999817516,4.833929092297866,French Restaurant
381,45.7662609293324,4.836141442861911,50,16,58c9323afa7ed00b0804bc13,Le Taj Indien,45.766827,4.837399,Indian Restaurant
382,45.7662609293324,4.836141442861911,50,17,5102d701e4b0275f68a6b3e5,Le Platinium,45.76571966889297,4.8356657374966545,Nightclub
383,45.7662609293324,4.836141442861911,50,18,5ae78444fd16bb002c957ac0,Xiao Chi,45.767056,4.836457,Chinese Restaurant
384,45.7662609293324,4.836141442861911,50,19,4c237fd011de20a1997e86ce,Croissanterie,45.7666136442011,4.835995135638493,French Restaurant
385,45.7662609293324,4.836141442861911,50,20,513cffeae4b0b7f3e61e1586,Les Pampres Rouges,45.767585,4.83572,French Restaurant
386,45.7662609293324,4.836141442861911,50,21,50dc8bfbe4b0658279323044,La Hugonnière,45.765204,4.835359,Lyonese Bouchon
387,45.7662609293324,4.836141442861911,50,22,4bcded7cfb84c9b668db223e,Le Garet,45.766902755486576,4.836779721964944,French Restaurant
388,45.7662609293324,4.836141442861911,50,23,508043cce4b06f332ea5999c,Goramen,45.76521877391016,4.8351152114919005,Japanese Restaurant
389,45.7662609293324,4.836141442861911,50,24,4c795ccf97028cfadfd2dafe,El Porron,45.766941,4.836326,Tapas Restaurant
390,45.7662609293324,4.836141442861911,50,25,4dc991617d8b48df4c952d37,Chez Georges,45.766947,4.836824,French Restaurant
391,45.7662609293324,4.836141442861911,50,26,53d784a7498eb348d500ba01,Au Petit Bouchon « Chez Georges »,45.766918994524524,4.83676200742611,Lyonese Bouchon
392,45.7662609293324,4.836141442861911,50,27,5901cbee0f013c762597f991,Sans-Titre,45.766994,4.835403,French Restaurant
393,45.7662609293324,4.836141442861911,50,28,50db59e2e4b0795456618020,L'Opéra Bouffe,45.76712417602539,4.836472988128662,Italian Restaurant
394,45.7662609293324,4.836141442861911,50,29,4bb7aac3314e9521cc7f479d,Le Nord,45.765251585012514,4.835607299260351,French Restaurant
395,45.7662609293324,4.836141442861911,50,30,5a232580c0f1633417e55369,Delicatessen,45.766642,4.837319,American Restaurant
396,45.7662609293324,4.836141442861911,50,31,5ce94024f0b490002c84d723,A Cantina,45.766895,4.836727,Corsican Restaurant
397,45.7662609293324,4.836141442861911,50,32,58d8eb86da54ae0f56931bd3,L'allegria,45.76617,4.836912,Italian Restaurant
398,45.7662609293324,4.836141442861911,50,33,4cf913e03875b1f7275e973c,Le Jean Moulin,45.76531150120035,4.838233716075376,French Restaurant
399,45.7662609293324,4.836141442861911,50,34,54a85296498e16f50fbfafb0,Chee is Thaï,45.766139835798846,4.837346130182572,Thai Restaurant
400,45.7662609293324,4.836141442861911,50,35,532217bd498ec5ca31dcf33e,Autour d'Un Verre,45.7654464358083,4.833770645901549,Wine Bar
401,45.7662609293324,4.836141442861911,50,36,4ba13c0df964a52095a437e3,Matsuri Lyon Presqu'ile,45.76497455810287,4.833834171295166,Japanese Restaurant
402,45.7662609293324,4.836141442861911,50,37,4f53afe7e4b0c41605c482c0,Le Squale,45.76792860433266,4.835486689792761,Sandwich Place
403,45.7662609293324,4.836141442861911,50,38,5a739f2cda5ede14bb172042,Le Clerclr Rouge,45.766741,4.837389,French Restaurant
404,45.7662609293324,4.836141442861911,50,39,51f19a6a498ea41e70d57c5c,Restaurant Campagne,45.767437,4.833832,French Restaurant
405,45.7662609293324,4.836141442861911,50,40,510ac701e4b042e036b98e93,Alyssaar Restaurant Syrien,45.7661389253065,4.837326840402341,Middle Eastern Restaurant
406,45.7662609293324,4.836141442861911,50,41,4d83ccd95e70224b677fff08,L'aile ou la cuisse,45.76411053489056,4.836915297916182,French Restaurant
407,45.7662609293324,4.836141442861911,50,42,4cc5ecbf82388cfa9ba67835,Caro De Lyon,45.76616514765762,4.837205428774678,French Restaurant
408,45.7662609293324,4.836141442861911,50,43,5478ede5498ec5945ab09e32,Resto Indien,45.768304,4.835024,Indian Restaurant
409,45.7662609293324,4.836141442861911,50,44,4b7f0aa5f964a520451230e3,Le Karma,45.76476284855247,4.836821836529675,Lounge
410,45.7662609293324,4.836141442861911,50,45,4cf178dd899c6ea887d1f0c1,Les P'tits Pères,45.76689959730558,4.836642370256682,French Restaurant
411,45.7662609293324,4.836141442861911,50,46,5a181193bb8d36403815608e,Diwan,45.767963,4.835409,Middle Eastern Restaurant
412,45.7662609293324,4.836141442861911,50,47,4bd35318462cb713e329de07,Le Summertime,45.76700985431671,4.836559295654297,French Restaurant
413,45.7662609293324,4.836141442861911,50,48,50c252b1e4b0e8ae07f369cf,Hakata Ramen,45.766976,4.836777,Noodle House
414,45.7662609293324,4.836141442861911,50,49,51b37d23498e77488e3d9df3,Carnet de Voyage,45.765671218551205,4.8343449118198905,Chinese Restaurant
415,45.76173907066761,4.836141442861911,50,0,5740d305498e91e770532496,Hard Rock Café Lyon,45.7630007,4.8379483,American Restaurant
416,45.76173907066761,4.836141442861911,50,1,501d491be4b01ea6a2237166,L'Institution,45.76334789516171,4.83580729229014,French Restaurant
417,45.76173907066761,4.836141442861911,50,2,4bdaf355c79cc928c85c80e9,Grand Café des Négociants,45.763361607386784,4.834397728320508,Lounge
418,45.76173907066761,4.836141442861911,50,3,5bd1a40ad1a402002c5a714f,Bouchon Tupin,45.762842,4.834863,Lyonese Bouchon
419,45.76173907066761,4.836141442861911,50,4,4c797d1097028cfac354dbfe,Chez Carlo,45.76228009426328,4.835348767709174,Italian Restaurant
420,45.76173907066761,4.836141442861911,50,5,514ca46be4b0c959327a0ca2,Lem sushi,45.7635612487793,4.837630748748779,Japanese Restaurant
421,45.76173907066761,4.836141442861911,50,6,56f90f41498e515598b6da67,Etcheberry Table Basque,45.7623455758416,4.835261106491089,Spanish Restaurant
422,45.76173907066761,4.836141442861911,50,7,5b635296ee7120002ca3289c,Café Lisboa,45.762424,4.834592,Portuguese Restaurant
423,45.76173907066761,4.836141442861911,50,8,4df3500e6284fefe8fc1c706,Le Ré-Confort,45.759930497359825,4.834536650161063,French Restaurant
424,45.76173907066761,4.836141442861911,50,9,53c1794f498ed00b79a6bc63,meiji era,45.761815,4.834422,Japanese Restaurant
425,45.76173907066761,4.836141442861911,50,10,5220796411d2fec26300b305,Gangnam,45.761599,4.833772,Sushi Restaurant
426,45.76173907066761,4.836141442861911,50,11,4c7559f12db5236a7ac1bc79,Les Petits Siamois,45.762477,4.835333,Thai Restaurant
427,45.76173907066761,4.836141442861911,50,12,4fe1acbde4b040e806101a0b,Tapeo BCN,45.76295366664158,4.834215144579689,Tapas Restaurant
428,45.76173907066761,4.836141442861911,50,13,5c4cb9f81953f3002c26f389,Angelo,45.76080311956873,4.837564641420613,Italian Restaurant
429,45.76173907066761,4.836141442861911,50,14,4ca38943f832a1cd677c9ee5,Nicolas le Bec,45.76102503833847,4.8369648111058625,French Restaurant
430,45.76173907066761,4.836141442861911,50,15,5d47105cbb12590008f2cc89,Fafa,45.761425,4.83308,Sushi Restaurant
431,45.76173907066761,4.836141442861911,50,16,4f968f04e4b0aa1ae5769e1a,Rue Le Bec,45.760703,4.836946,French Restaurant
432,45.76173907066761,4.836141442861911,50,17,5da46fe279368b0008a6cc53,Cantine Nosch Comptoir,45.762136,4.835467,French Restaurant
433,45.76173907066761,4.836141442861911,50,18,578e8651498e355587e7f923,Chez Colette,45.761836,4.832951,French Restaurant
434,45.76173907066761,4.836141442861911,50,19,54195f66498eaa82cbd6f5ab,encore !,45.76021829402796,4.83574702182882,French Restaurant
435,45.76173907066761,4.836141442861911,50,20,5d30643d49188800098fba53,La Taquera De Masa,45.762395,4.8352,Mexican Restaurant
436,45.76173907066761,4.836141442861911,50,21,57ecf9a7498ead72dacbbd54,Mrs. Winn,45.762614,4.83519,Asian Restaurant
437,45.76173907066761,4.836141442861911,50,22,4c8a0ed76418a1436130dcce,Reynaud,45.7610313,4.8334714,French Restaurant
438,45.76173907066761,4.836141442861911,50,23,5568ae76498e6aadff6137a9,L'un des Sens,45.76222229003906,4.835289478302002,French Restaurant
439,45.76173907066761,4.836141442861911,50,24,50e4951be4b0c73e8dc8d07d,Ban Thaï,45.762264251708984,4.836238861083984,Thai Restaurant
440,45.76173907066761,4.836141442861911,50,25,51376fb2e4b01ca5f28bf3a4,Bouchon Lyonnais Les Franc Machons,45.763871,4.836811,Lyonese Bouchon
441,45.76173907066761,4.836141442861911,50,26,4e8d8121d22d2a85bdacd615,Cuisine & Dependances,45.76220843111821,4.837383400727842,French Restaurant
442,45.76173907066761,4.836141442861911,50,27,509c36ebe4b01b68855bf21a,Le Centre - By Georges Blanc,45.760914041674624,4.836957664720601,French Restaurant
443,45.76173907066761,4.836141442861911,50,28,4e8c2dd68b81e6788fe6106d,Kebab Istanbul Beyoglu,45.762136191738485,4.836171398802696,Middle Eastern Restaurant
444,45.76173907066761,4.836141442861911,50,29,5016dc86e4b035d9f5b934ec,Pizzas Artisanales,45.762977600097656,4.834304332733154,Italian Restaurant
445,45.76173907066761,4.836141442861911,50,30,4bf129d117880f47bbf82937,O'Sushi,45.761640881337954,4.8330279022652025,Sushi Restaurant
446,45.76173907066761,4.836141442861911,50,31,5a2ad03ca795bd382a1f9c2d,Mr Gabriel,45.759803,4.835804,French Restaurant
447,45.76173907066761,4.836141442861911,50,32,4c6e365d10faa1431732f068,Chez Sylvie,45.76300600448092,4.834952224613896,Lyonese Bouchon
448,45.76173907066761,4.836141442861911,50,33,571a760b498e465e2f16781d,L'Episens,45.76318559359292,4.8353126814898815,French Restaurant
449,45.76173907066761,4.836141442861911,50,34,50c20909e4b077d5c4bac360,Le Bouchon de la Bourse,45.76386161069937,4.836978258567171,Lyonese Bouchon
450,45.76173907066761,4.836141442861911,50,35,4d88ac4026a36ea8584ad0ad,Table d'hôte,45.762157,4.834493,French Restaurant
451,45.76173907066761,4.836141442861911,50,36,5dfd1c7a1815f20008453291,Croustiller,45.762062,4.835135,Fast Food Restaurant
452,45.76173907066761,4.836141442861911,50,37,577d4a72498ee027e5b2619e,Les Halles Merciere,45.762269,4.833059,French Restaurant
453,45.76173907066761,4.836141442861911,50,38,4bdaae3d63c5c9b6c29a2468,Saint-tropez,45.762488,4.835228,French Restaurant
454,45.76173907066761,4.836141442861911,50,39,4e063e2862e100e581685dc9,Le Palais Des Saveurs,45.76340804526129,4.834878807349099,French Restaurant
455,45.76173907066761,4.836141442861911,50,40,526038cd11d2d0efdb9f407f,Mozzato - Comptoir à Mozzarella,45.76169696353516,4.832962663796356,Italian Restaurant
456,45.76173907066761,4.836141442861911,50,41,50ec004ee4b04732a8e7f4ca,Baobab,45.75998794835671,4.836447888871913,Asian Restaurant
457,45.76173907066761,4.836141442861911,50,42,51f53136498e7d96d5b75b64,Le Lafayette,45.76203754882322,4.837669810082151,French Restaurant
458,45.76173907066761,4.836141442861911,50,43,521fac1a11d2af02816cf271,Au Grand Mechant Loup,45.762896,4.835296,French Restaurant
459,45.76173907066761,4.836141442861911,50,44,5ba23ce0c53093002c17d010,Lion et Poisson,45.762637,4.835025,Chinese Restaurant
460,45.76173907066761,4.836141442861911,50,45,4e1c942562e147e54f53dcd7,Flam's,45.76290489763291,4.833541992440206,German Restaurant
461,45.76173907066761,4.836141442861911,50,46,4b58ae09f964a520536528e3,(Mo) Sushi,45.75991468969106,4.834670071329159,Sushi Restaurant
462,45.76173907066761,4.836141442861911,50,47,5d1b3659d0ae5e0023dd7772,Smør & Brød,45.761875,4.8352766,Scandinavian Restaurant
463,45.76173907066761,4.836141442861911,50,48,51669581e4b0e75367db877c,Le Bouchon Lustre,45.76198882643284,4.833073424119277,Lyonese Bouchon
464,45.76173907066761,4.836141442861911,50,49,4e779f1aae60c32852145a8a,La Luciole,45.76099,4.836556,French Restaurant
465,45.764,4.846811111111111,10,0,4c7d4f215af8b60c01348f10,Daniel & Denise Créqui,45.76227315198743,4.84717278456722,Lyonese Bouchon
466,45.764,4.846811111111111,10,1,4cb73bf79c7ba35daca49706,Farfalla Caffé,45.763768318802896,4.84515255519119,Italian Restaurant
467,45.764,4.846811111111111,10,2,56fd5e1f498e67bc6f439f1d,Le Book-Lard,45.765613969354945,4.848080295724159,French Restaurant
468,45.764,4.846811111111111,10,3,57f4dfe8498e32f67bc4d36e,Kalamis Restaurant,45.76362,4.8488765,Turkish Restaurant
469,45.764,4.846811111111111,10,4,51e449af498ea66549bdf12a,Baronn,45.76282494609847,4.8464917209632565,French Restaurant
470,45.764,4.846811111111111,10,5,5e11b3738f89f40008c732d3,Le Coq,45.763937,4.845755,French Restaurant
471,45.764,4.846811111111111,10,6,563bde95237cf4dc70e16ad0,Le Buron de Lyon,45.76419354,4.84430814,Restaurant
472,45.764,4.846811111111111,10,7,4e6de896fa768e6cee420ab4,L'Olivale,45.76482542529216,4.849062800260994,French Restaurant
473,45.764,4.846811111111111,10,8,50efaac1e4b0170c4c1f6cb7,Asian Hall,45.762995136862415,4.848904134563575,Asian Restaurant
474,45.764,4.846811111111111,10,9,4efccc3e29c225f38360b47e,Le Scorsese,45.76385257297622,4.843667661040375,Italian Restaurant
475,45.7662609293324,4.843591890471423,20,0,4e1c369581dc8ea8b58cd873,Jour de Marché,45.766778286369444,4.842309951782227,French Restaurant
476,45.7662609293324,4.843591890471423,20,1,593319085ba04607d2ffac42,Quirinale,45.767263,4.844935,Italian Restaurant
477,45.7662609293324,4.843591890471423,20,2,4c9b926bd4b1b1f75528da35,Grand Café de Genève,45.76782270482519,4.84411466014112,Café
478,45.7662609293324,4.843591890471423,20,3,4e269c9e18500b1821ae047e,Tomo,45.767418184249095,4.843243360519409,Japanese Restaurant
479,45.7662609293324,4.843591890471423,20,4,4c21ec7413c00f474d9886de,Chez Les Garçons,45.76639698327172,4.842316633887897,French Restaurant
480,45.7662609293324,4.843591890471423,20,5,4e8e023c61afe70d47832d61,Home Sushi,45.76797678572556,4.845412221526868,Sushi Restaurant
481,45.7662609293324,4.843591890471423,20,6,5d52fca630bd490008ff4947,Konnichiwa Sushi,45.767777,4.84517,Sushi Restaurant
482,45.7662609293324,4.843591890471423,20,7,4fa50e5fe4b0fd4c3eae8c32,La Petite Maison Thai,45.768106050491006,4.845172958271357,Thai Restaurant
483,45.7662609293324,4.843591890471423,20,8,51063fb7e4b022bf09aebb6a,Régal Exotic,45.76687167353219,4.84193655811273,African Restaurant
484,45.7662609293324,4.843591890471423,20,9,5034f18de4b0c1befd9d1723,Le Cameleon,45.76490476199996,4.843520775697315,African Restaurant
485,45.7662609293324,4.843591890471423,20,10,563bde95237cf4dc70e16ad0,Le Buron de Lyon,45.76419354,4.84430814,Restaurant
486,45.7662609293324,4.843591890471423,20,11,508bd1b4e4b0c9eb71b09c5a,Poivre D'âne,45.765775,4.842713,French Restaurant
487,45.7662609293324,4.843591890471423,20,12,551ac1f6498efd0e68719ad6,Le Gourmet de Sèze,45.764634,4.842164,French Restaurant
488,45.7662609293324,4.843591890471423,20,13,4d0291be9d33a143b451ae78,Konnichiwa Suchi,45.76756843149555,4.845438253069834,Sushi Restaurant
489,45.7662609293324,4.843591890471423,20,14,54d12e00498e605ecbae46fd,Chez Riz,45.76583350082167,4.841426034300344,Szechuan Restaurant
490,45.7662609293324,4.843591890471423,20,15,51b38252498e8a961756ff5d,Le Bossuet,45.767327,4.844925,Middle Eastern Restaurant
491,45.7662609293324,4.843591890471423,20,16,4c4ae322959220a131ddc10e,Casa Del Gusto,45.766484634667165,4.845981125898917,Italian Restaurant
492,45.7662609293324,4.843591890471423,20,17,4ddd59fa227106a58b7384ef,Bienvenidos a Mexico,45.76767566594052,4.8448609307809205,Mexican Restaurant
493,45.7662609293324,4.843591890471423,20,18,50a3896fe4b0984b71a68b6e,S-Sushi,45.767499017674886,4.845633996581066,Asian Restaurant
494,45.7662609293324,4.843591890471423,20,19,5e614d26ce4f4b0008b84ea9,Sauf Imprévu,45.765228,4.8436,French Restaurant
495,45.76173907066761,4.843591890471423,9,0,52b4c428498ee451425110c9,engimono,45.75985868785574,4.841880798339844,Chinese Restaurant
496,45.76173907066761,4.843591890471423,9,1,553c299b498e2ed1f1af23f7,The Hot Dog Father,45.76354874822298,4.842664003372192,American Restaurant
497,45.76173907066761,4.843591890471423,9,2,4ddaab43fa76ad96d1712fab,Tokyo,45.76009374031754,4.84335761090739,Sushi Restaurant
498,45.76173907066761,4.843591890471423,9,3,4c0d392d2466a593e1407721,River Boat,45.76266301963978,4.840710781284183,French Restaurant
499,45.76173907066761,4.843591890471423,9,4,5718abfb498e3ef5ea978d01,cafe Laure,45.761507,4.844167,French Restaurant
500,45.76173907066761,4.843591890471423,9,5,51928f10498e355d92b3c269,Le Laurencin Bouchon Lyonnais,45.76245409398351,4.843553706809602,Lyonese Bouchon
501,45.76173907066761,4.843591890471423,9,6,4e7086bf14950bb0d717d3d0,La Scala Siciliana,45.75971699252317,4.8430463675018105,Italian Restaurant
502,45.76173907066761,4.843591890471423,9,7,505c45e2e4b0b4345ee2de8e,Mit Sushi Cordeliers,45.762063861506384,4.840555927432196,Japanese Restaurant
503,45.76173907066761,4.843591890471423,9,8,4efccc3e29c225f38360b47e,Le Scorsese,45.76385257297622,4.843667661040375,Italian Restaurant
504,45.7662609293324,4.8500303317508,13,0,543d8865498ea4de49ba5dc4,Maison Germains,45.76814917321339,4.850654337456682,French Restaurant
505,45.7662609293324,4.8500303317508,13,1,4da22cb57ccc816e5809637b,Le Saas,45.76709167411341,4.849882504446928,French Restaurant
506,45.7662609293324,4.8500303317508,13,2,4f5f2dc7e4b0949d416fe292,Mitsuri,45.76613,4.850905,Japanese Restaurant
507,45.7662609293324,4.8500303317508,13,3,56fd5e1f498e67bc6f439f1d,Le Book-Lard,45.765613969354945,4.848080295724159,French Restaurant
508,45.7662609293324,4.8500303317508,13,4,541dc952498ebd85faa0b04c,OK sushi,45.766159,4.851364,Sushi Restaurant
509,45.7662609293324,4.8500303317508,13,5,4d00d25921ea6ea8f5da439f,Restaurant Chinois Mirama,45.766582,4.850525,Asian Restaurant
510,45.7662609293324,4.8500303317508,13,6,4c0e9bd97189c92848c7d8b6,Bo Sushi,45.76739802171279,4.84760982430577,Japanese Restaurant
511,45.7662609293324,4.8500303317508,13,7,4e062dd3ae60a90eabc121a8,Le Sass,45.76644378485858,4.850600670355811,Italian Restaurant
512,45.7662609293324,4.8500303317508,13,8,4d03cee3347da1cdc8d1278f,La Maison De Lucy,45.767369993886746,4.848108300939202,French Restaurant
513,45.7662609293324,4.8500303317508,13,9,52d14d4e11d20fe84c7f2e3b,Comptoir Petrossian,45.76443735740377,4.850993763533348,Russian Restaurant
514,45.7662609293324,4.8500303317508,13,10,4e6de896fa768e6cee420ab4,L'Olivale,45.76482542529216,4.849062800260994,French Restaurant
515,45.7662609293324,4.8500303317508,13,11,4e7883ecb0fb305db5df6971,Café de la mairie,45.76806886425496,4.849085343579092,German Restaurant
516,45.7662609293324,4.8500303317508,13,12,5bd3502501bc5a002ca2a91b,Excellent!,45.76629,4.848,French Restaurant
517,45.76173907066761,4.8500303317508,40,0,5f31299836142511bd23abb9,Yuzuya,45.759843,4.848989,Japanese Restaurant
518,45.76173907066761,4.8500303317508,40,1,4c7d4f215af8b60c01348f10,Daniel & Denise Créqui,45.76227315198743,4.84717278456722,Lyonese Bouchon
519,45.76173907066761,4.8500303317508,40,2,4e1c1c1d18386ff9be66d99a,Resto Halle,45.76254890513587,4.850582064550979,French Restaurant
520,45.76173907066761,4.8500303317508,40,3,50576747e4b0ed8a09a0cf0e,La Table 101,45.76168129381367,4.850174188613892,French Restaurant
521,45.76173907066761,4.8500303317508,40,4,5e04b56b5ac6890008d96fd2,Toké,45.76242,4.850773,Empanada Restaurant
522,45.76173907066761,4.8500303317508,40,5,4cd53a887da9a35df63ae8b9,La Cuisine du Sud,45.76190797705268,4.8504752084990415,Spanish Restaurant
523,45.76173907066761,4.8500303317508,40,6,4c4d70b392b6a59316b03f6e,L'âme soeur,45.76087548722164,4.848460548423444,French Restaurant
524,45.76173907066761,4.8500303317508,40,7,4c5bf70c857ca5938eabc8cb,Actu L,45.76096951961517,4.851745963096619,French Restaurant
525,45.76173907066761,4.8500303317508,40,8,59d39dbd23a2e66abb440a49,Brasserie Folliet,45.760713,4.848988,Brasserie
526,45.76173907066761,4.8500303317508,40,9,4c73c11457b6a143f9dbc8cc,Val D'Isere,45.76187731776391,4.849696029216205,French Restaurant
527,45.76173907066761,4.8500303317508,40,10,4bcb4656cc8cd13a4903bfcf,Matsuri Lyon Part-Dieu,45.7637695453134,4.851037859916687,Japanese Restaurant
528,45.76173907066761,4.8500303317508,40,11,5cee788506fb60002c249501,New China Cuisine Fusion,45.760933,4.851657,Chinese Restaurant
529,45.76173907066761,4.8500303317508,40,12,5311d456498e215173e3d664,DELICES D'ASIE,45.763468,4.851949,Nail Salon
530,45.76173907066761,4.8500303317508,40,13,4e69eb31b0fb8b8a83f424c1,L'alexandrin,45.760930926291735,4.849254190921783,French Restaurant
531,45.76173907066761,4.8500303317508,40,14,4d3191b18c42a1cdaec0df5d,Le Bistrot du Palais,45.76047233072329,4.848793164179049,French Restaurant
532,45.76173907066761,4.8500303317508,40,15,57f4dfe8498e32f67bc4d36e,Kalamis Restaurant,45.76362,4.8488765,Turkish Restaurant
533,45.76173907066761,4.8500303317508,40,16,4b6d7a06f964a5200a772ce3,Giraudet - Les Halles de Lyon,45.76237908481758,4.850614588738617,French Restaurant
534,45.76173907066761,4.8500303317508,40,17,4c99e55780958cfa14d63dd4,Chez Françis,45.759893236018506,4.8516057047225365,French Restaurant
535,45.76173907066761,4.8500303317508,40,18,4c29e4ddfe6e2d7f8971553c,Delice d'asie,45.7626,4.851845,Chinese Restaurant
536,45.76173907066761,4.8500303317508,40,19,56b33b18498ebefebbf0df1c,Bistrot Bonnet,45.76197157237854,4.850506968368665,French Restaurant
537,45.76173907066761,4.8500303317508,40,20,4ba0cb6bf964a5200a7e37e3,Le Bistro D'en Face,45.759917,4.848512,French Restaurant
538,45.76173907066761,4.8500303317508,40,21,4d0c97bf5c46a0938a5009b4,"La Maison de L""Entrecote",45.76060613451922,4.8520041213085365,French Restaurant
539,45.76173907066761,4.8500303317508,40,22,4c52aacdb6dabe9aa670b813,Neogusti,45.761425495147705,4.850136637687683,Italian Restaurant
540,45.76173907066761,4.8500303317508,40,23,56cee976cd10668378563a01,Un Sushi,45.76069,4.851594,Japanese Restaurant
541,45.76173907066761,4.8500303317508,40,24,4ed2295a6c2510ace30a4aa4,Le Comptoir des Halles,45.763173481649176,4.850508311233751,Tapas Restaurant
542,45.76173907066761,4.8500303317508,40,25,4bf82eda5efe2d7fd64f6a34,Toya,45.760264463629,4.847752646267777,Japanese Restaurant
543,45.76173907066761,4.8500303317508,40,26,54ae688f498e554ac6693b9b,Aux Mille Saveurs,45.75987243652344,4.8502678871154785,Moroccan Restaurant
544,45.76173907066761,4.8500303317508,40,27,4d652642375aa090adb61a74,Epicerie Comptoir - Dunoir,45.761161,4.848915,Wine Bar
545,45.76173907066761,4.8500303317508,40,28,4bdd7c5f645e0f47e9926b19,Les Garcons Bouchers,45.762957727725876,4.850649167512813,French Restaurant
546,45.76173907066761,4.8500303317508,40,29,4c84c4d451ada1cd17a43110,Si Près,45.76040804797911,4.848719274967812,French Restaurant
547,45.76173907066761,4.8500303317508,40,30,576277ee498e610d0f6b76b7,Tacca via Rolle,45.763481,4.850348,Italian Restaurant
548,45.76173907066761,4.8500303317508,40,31,50efaac1e4b0170c4c1f6cb7,Asian Hall,45.762995136862415,4.848904134563575,Asian Restaurant
549,45.76173907066761,4.8500303317508,40,32,4ec51471775b7dea8798ffde,Côté Part Dieu,45.75990995160774,4.851528170757534,French Restaurant
550,45.76173907066761,4.8500303317508,40,33,5ca0921abed483002cd1dc7f,Armelys,45.763424,4.8504505,Middle Eastern Restaurant
551,45.76173907066761,4.8500303317508,40,34,516e89e7e4b0edbfd426ae79,Coreen Barbecue,45.76078593245248,4.852073837244552,Korean Restaurant
552,45.76173907066761,4.8500303317508,40,35,4d41548b00e8a35d230603fb,Chez Les Gones,45.763236282623694,4.850327946340223,French Restaurant
553,45.76173907066761,4.8500303317508,40,36,4d89156b4757721eb4a99a69,Maison Rousseau,45.7629580596669,4.8503842125916,French Restaurant
554,45.76173907066761,4.8500303317508,40,37,4e62051f52b1260c12ee2ef4,Julie & Caroline - Les Filles Allard,45.763252661384,4.8504886367447355,French Restaurant
555,45.76173907066761,4.8500303317508,40,38,5f662cb229ef4365edec4775,Brasserie De La Mairie,45.759766,4.848765,Brasserie
556,45.76173907066761,4.8500303317508,40,39,5b3e81feacb00b00395bd7a2,Chez Bànôi,45.763129,4.851792,Vietnamese Restaurant
557,45.764,4.8607000000000005,9,0,4b7bd301f964a5208b6f2fe3,Au Rendez-Vous des Amis,45.76386409200249,4.863700089969443,Diner
558,45.764,4.8607000000000005,9,1,4d888e52bc848cfad0adae2b,Pasta Bella,45.763913659615206,4.862574488594614,Italian Restaurant
559,45.764,4.8607000000000005,9,2,506a8cb3f2e73a33df867b9e,Délices de Shandong,45.76386310313896,4.858371019363403,Asian Restaurant
560,45.764,4.8607000000000005,9,3,4d761c2f48b7f04daa44f0f5,Sette Bis,45.763580770000516,4.857652285171843,French Restaurant
561,45.764,4.8607000000000005,9,4,545a3f81498e9503433f91bf,Le Central,45.76417651670121,4.862051445799874,French Restaurant
562,45.764,4.8607000000000005,9,5,4baf3fd2f964a52091f33be3,Bo Sushi,45.765820842276725,4.860707556127995,Sushi Restaurant
563,45.764,4.8607000000000005,9,6,4d4be5011ae4370456f5ed60,Le 7,45.76375083372945,4.857544898986816,Italian Restaurant
564,45.764,4.8607000000000005,9,7,4c4038a5cc410f47d641a961,Bistro De La Tour,45.763595484520515,4.858158901761727,French Restaurant
565,45.764,4.8607000000000005,9,8,5d7a2e1ca369d40008a3eb10,My Little Warung,45.76379,4.8580027,Asian Restaurant
566,45.7662609293324,4.857480779360312,50,0,4ba26e6bf964a52069f837e3,L'Est,45.76753235437938,4.85927130377885,French Restaurant
567,45.7662609293324,4.857480779360312,50,1,5b9c091d5455b20039b1849e,Kaffee Berlin,45.767123,4.857099,Burger Joint
568,45.7662609293324,4.857480779360312,50,2,5dcfe0310f68190007da92bd,Ogam Restaurant Coréen,45.768022,4.855589,Korean Restaurant
569,45.7662609293324,4.857480779360312,50,3,4c7b8e2876ce9c7450e4b70c,Planet Sushi,45.767096371945485,4.856759523394262,Sushi Restaurant
570,45.7662609293324,4.857480779360312,50,4,4c08d3307e3fc928c2dff082,Le Boudoir,45.766756788047026,4.859416040809096,French Restaurant
571,45.7662609293324,4.857480779360312,50,5,560a673c498e4e43bb4b7860,l'Argot,45.76712865881095,4.8562669935733505,French Restaurant
572,45.7662609293324,4.857480779360312,50,6,4f2bc21ce4b0de3552d917c7,Madoka,45.76614879465978,4.856010971736368,Sushi Restaurant
573,45.7662609293324,4.857480779360312,50,7,5a390fc3a423620be3311f22,La Casa Vito,45.767188,4.856247,Italian Restaurant
574,45.7662609293324,4.857480779360312,50,8,4ca22ffff832a1cdd7f792e5,6eme Sens,45.76540851833233,4.857076495591879,French Restaurant
575,45.7662609293324,4.857480779360312,50,9,5290a34911d22867b93febdd,Messob Éthiopie,45.766601591553936,4.85486534983668,African Restaurant
576,45.7662609293324,4.857480779360312,50,10,4b6b04f5f964a520feec2be3,La Louve Romaine,45.768039,4.859175,Italian Restaurant
577,45.7662609293324,4.857480779360312,50,11,5cdd4d0db6eedb002cf71b59,La Tablature,45.76419,4.856277,French Restaurant
578,45.7662609293324,4.857480779360312,50,12,57ffdadbd67c1565b8f8b912,LA GAZETTA,45.7676564,4.856660499999999,Italian Restaurant
579,45.7662609293324,4.857480779360312,50,13,5911ae1a8134886a0fe4c164,Brasserie Jullien,45.766198,4.856898,Brasserie
580,45.7662609293324,4.857480779360312,50,14,5d5dbd330ecbb100086b8727,Toda,45.7676,4.855,Israeli Restaurant
581,45.7662609293324,4.857480779360312,50,15,521dd68c11d2ea69341cac04,Milonga,45.76648292322471,4.855729674145776,Argentinian Restaurant
582,45.7662609293324,4.857480779360312,50,16,4c755dc4b474a1cd1a0fb9bf,Dionysos,45.76740856,4.85734073,Greek Restaurant
583,45.7662609293324,4.857480779360312,50,17,4ea7e6a1e5fa472d645c3414,Japon Tori,45.76615713988966,4.857526995427975,Japanese Restaurant
584,45.7662609293324,4.857480779360312,50,18,4d6535594fa4cbff9a7dd5d9,Epicerie Comptoir - Cuvier,45.76841633840344,4.857308310967912,Wine Bar
585,45.7662609293324,4.857480779360312,50,19,4b6c16abf964a5203d232ce3,Le Splendid,45.767200752888975,4.858938413078629,French Restaurant
586,45.7662609293324,4.857480779360312,50,20,57e58c8e498e88140a8398e7,kuma isakaya,45.765678,4.854948,Udon Restaurant
587,45.7662609293324,4.857480779360312,50,21,4c9922d878ffa093594b6175,Maison Clovis,45.76782067937151,4.856862356903641,French Restaurant
588,45.7662609293324,4.857480779360312,50,22,5b86df65b77c77002c3a19d7,La Mère Titi,45.767765,4.8554826,French Restaurant
589,45.7662609293324,4.857480779360312,50,23,4b697650f964a5204ba32be3,Les Intimes,45.76660316961736,4.857049628858695,French Restaurant
590,45.7662609293324,4.857480779360312,50,24,5b86ec92666116002c3304c9,La Mère Titi,45.767944,4.855421,French Restaurant
591,45.7662609293324,4.857480779360312,50,25,52c60b25498e76307b04277f,Fringale et Pépie,45.7657178,4.8549292,French Restaurant
592,45.7662609293324,4.857480779360312,50,26,56a2231f498ef61d4a057f88,Le Napolitain,45.76675957579468,4.8557209968566895,Italian Restaurant
593,45.7662609293324,4.857480779360312,50,27,589e0e8637318129d1142f2e,Casa Jaguar,45.767788,4.85619,Latin American Restaurant
594,45.7662609293324,4.857480779360312,50,28,5cf7a16160255e002c5b6097,O'Hasard,45.765076,4.8569527,Brasserie
595,45.7662609293324,4.857480779360312,50,29,4dfb2250ae60c9cdd388ab11,Studio 6,45.76748,4.857941,French Restaurant
596,45.7662609293324,4.857480779360312,50,30,54b42b72498e2617e243202c,kuma,45.765588404504506,4.854926646956848,Japanese Restaurant
597,45.7662609293324,4.857480779360312,50,31,59d76bf32aff317c4010194c,Cuma,45.766251,4.854754,Japanese Restaurant
598,45.7662609293324,4.857480779360312,50,32,4bf2d8bde5eba59318e01d90,Yzumi,45.7667469849438,4.855768424375899,Japanese Restaurant
599,45.7662609293324,4.857480779360312,50,33,560bfa5b498e2e2181441f54,Le Blind Pig,45.767388761101266,4.855692734645002,Speakeasy
600,45.7662609293324,4.857480779360312,50,34,4c9dd7292fb1a143e537e440,Sushido,45.767872915164936,4.856009117490585,Sushi Restaurant
601,45.7662609293324,4.857480779360312,50,35,526810d6498e0ebc3cee087d,Restaurant Miraflores,45.768383,4.858481,Peruvian Restaurant
602,45.7662609293324,4.857480779360312,50,36,553fd223498edf5cec1134d0,Pavot Rouge,45.765945505525764,4.855574222315919,Asian Restaurant
603,45.7662609293324,4.857480779360312,50,37,4fdce946e4b0ec5a8f0b80a6,japontori,45.76456081508147,4.856136808266713,Japanese Restaurant
604,45.7662609293324,4.857480779360312,50,38,4c781c5d3badb1f7d8ac4a54,Le Pain de Sucre,45.76669551255551,4.854627087329975,Brazilian Restaurant
605,45.7662609293324,4.857480779360312,50,39,4d40834589616dcbc15305b5,L'Épicerie Comptoir - Les Brotteaux,45.76805562923285,4.857687857486498,Gourmet Shop
606,45.7662609293324,4.857480779360312,50,40,5b9968d8bed483002c9f74b8,Tanuki Café Comptoire,45.76689,4.855853,Japanese Restaurant
607,45.7662609293324,4.857480779360312,50,41,4bcf4bd5bc13ef3b02fb7c0a,L'horloge,45.7673264844461,4.856903515349809,French Restaurant
608,45.7662609293324,4.857480779360312,50,42,4e0a1e0c1838eb15af14c40b,Le Bouchon Des Antiquaires,45.767829,4.859334,Lyonese Bouchon
609,45.7662609293324,4.857480779360312,50,43,5bdb68575b97110025f2557c,La Mutinerie,45.766959,4.85449,French Restaurant
610,45.7662609293324,4.857480779360312,50,44,5a25a9c02105c32bd8f31764,L'inédit,45.768326,4.858605,French Restaurant
611,45.7662609293324,4.857480779360312,50,45,57693955cd105c894e66ed9d,Thai Harmonie,45.76785600488467,4.855254292488098,Asian Restaurant
612,45.7662609293324,4.857480779360312,50,46,53b5b489498efbd69a865a4f,Millonga,45.76735,4.855623,Argentinian Restaurant
613,45.7662609293324,4.857480779360312,50,47,4b852125f964a520324d31e3,Le Dragon Celeste,45.76721249464425,4.856826609255129,Vietnamese Restaurant
614,45.7662609293324,4.857480779360312,50,48,4bb0f045f964a520116c3ce3,Brasserie des Brotteaux,45.768038166710824,4.859010146398809,French Restaurant
615,45.7662609293324,4.857480779360312,50,49,4e8227b82c5b3f1bb678dd5e,Taj Mahal,45.768135134128855,4.8559044460196805,Indian Restaurant
616,45.76173907066761,4.857480779360312,25,0,59afe8714a1cc04ca9ab29aa,Big Fernand,45.7636,4.85695,Burger Joint
617,45.76173907066761,4.857480779360312,25,1,5041ee0ce4b0b174483e5092,Waffle Factory,45.76150192932797,4.856110288318295,Belgian Restaurant
618,45.76173907066761,4.857480779360312,25,2,50014a4ee4b0ebdd728f1675,Bagelstein,45.7619033,4.85694078,Bagel Shop
619,45.76173907066761,4.857480779360312,25,3,4dba55234b22153e34b0e2b9,Novotel Café,45.75990337234817,4.8585970841157975,French Restaurant
620,45.76173907066761,4.857480779360312,25,4,4d6e95066458721ebdcb2f20,Suelta Verde,45.7597507143362,4.856315258597536,Mexican Restaurant
621,45.76173907066761,4.857480779360312,25,5,57306d25498eb9b09844a556,Caffe di Pasta,45.762482,4.857664,Italian Restaurant
622,45.76173907066761,4.857480779360312,25,6,4c0cc1c07189c928b5e7d5b6,Woko,45.76113318133829,4.8545429218448195,Asian Restaurant
623,45.76173907066761,4.857480779360312,25,7,4d78bacba56e37045f756f67,Koje,45.76104400465932,4.854639000489583,Sushi Restaurant
624,45.76173907066761,4.857480779360312,25,8,4bc99a2b68f976b0408c5d83,Café des Vosges,45.76119477238126,4.859154224395752,Café
625,45.76173907066761,4.857480779360312,25,9,4cf389b3899c6ea87bf5fbc1,Sushi King,45.761505398093135,4.856021404266357,Japanese Restaurant
626,45.76173907066761,4.857480779360312,25,10,4cd9342e5e1b721e82d13dd9,O! Pate Thai,45.763788256891054,4.856257438659668,Thai Restaurant
627,45.76173907066761,4.857480779360312,25,11,506a8cb3f2e73a33df867b9e,Délices de Shandong,45.76386310313896,4.858371019363403,Asian Restaurant
628,45.76173907066761,4.857480779360312,25,12,4d761c2f48b7f04daa44f0f5,Sette Bis,45.763580770000516,4.857652285171843,French Restaurant
629,45.76173907066761,4.857480779360312,25,13,5e46866fe193bd00080d6702,Big Tacos,45.76334,4.8569584,Taco Place
630,45.76173907066761,4.857480779360312,25,14,4d499dca11a36ea8a2c2291c,Neosushi,45.76153995106266,4.856395643515547,Japanese Restaurant
631,45.76173907066761,4.857480779360312,25,15,4d5e783a5c39b1f764e2eb49,Veng Hour,45.761581,4.856245,Vietnamese Restaurant
632,45.76173907066761,4.857480779360312,25,16,523833fd11d2883153a90418,Taksim Café,45.76315,4.855248,Moroccan Restaurant
633,45.76173907066761,4.857480779360312,25,17,4c6413f5de1b2d7f7642e670,Brasserie Orgelion,45.763711,4.857373,French Restaurant
634,45.76173907066761,4.857480779360312,25,18,4d42b1a7f81e8cfa4e69f656,21 sur Vin,45.76288699837022,4.85494266149514,French Restaurant
635,45.76173907066761,4.857480779360312,25,19,5138d63fe4b01d46585b6219,Back to the fifties,45.76111026218375,4.8544117219074705,American Restaurant
636,45.76173907066761,4.857480779360312,25,20,4d4be5011ae4370456f5ed60,Le 7,45.76375083372945,4.857544898986816,Italian Restaurant
637,45.76173907066761,4.857480779360312,25,21,4c4038a5cc410f47d641a961,Bistro De La Tour,45.763595484520515,4.858158901761727,French Restaurant
638,45.76173907066761,4.857480779360312,25,22,4ea144f1dab472526f6acd83,Kumpir Land,45.76297772759672,4.8572460191288265,Snack Place
639,45.76173907066761,4.857480779360312,25,23,5d7a2e1ca369d40008a3eb10,My Little Warung,45.76379,4.8580027,Asian Restaurant
640,45.76173907066761,4.857480779360312,25,24,5d41b4a2d8f30c0007d6a441,Hippopotamus Steakhouse,45.76008783744391,4.855723877925633,BBQ Joint
641,45.7662609293324,4.863919220639689,5,0,5c824f642f97ec002c49e293,Rose De Damas,45.766304,4.86457,Syrian Restaurant
642,45.7662609293324,4.863919220639689,5,1,4dde2f1ffa769803ef8b209c,Thaï in box,45.766512255958624,4.865379788181197,Thai Restaurant
643,45.7662609293324,4.863919220639689,5,2,4c442d3fdd1f2d7fa56e7ff9,La Maison de Lucy,45.76520393815943,4.864080008999349,French Restaurant
644,45.7662609293324,4.863919220639689,5,3,4c9c7baa03133704ec6655d5,Nakata Japonais,45.76623904717247,4.864869948806964,Sushi Restaurant
645,45.7662609293324,4.863919220639689,5,4,51011260e4b0dd32ed3e4150,restaurant le Bellecombe (cantine EDF),45.767921305848795,4.861881741594587,Afghan Restaurant
646,45.76173907066761,4.863919220639689,9,0,50c33a68e4b087eb7d6bb252,Schnitzel Corner,45.760189,4.866214,German Restaurant
647,45.76173907066761,4.863919220639689,9,1,4bd6b6525631c9b6d73aa630,Chez Paolino,45.7637162564102,4.864553817222388,Pizza Place
648,45.76173907066761,4.863919220639689,9,2,4ea70d1ab8f7ff211a4f8790,Le Bistrot de Lyon,45.76015873135116,4.86206486238157,French Restaurant
649,45.76173907066761,4.863919220639689,9,3,4b7bd301f964a5208b6f2fe3,Au Rendez-Vous des Amis,45.76386409200249,4.863700089969443,Diner
650,45.76173907066761,4.863919220639689,9,4,4dcd0b117d8b975f18aae8e4,Le Temps Libre,45.760749414427686,4.8664820194244385,French Restaurant
651,45.76173907066761,4.863919220639689,9,5,50c33a47e4b092542c138910,Bretzel Fan,45.760189,4.866214,German Restaurant
652,45.76173907066761,4.863919220639689,9,6,584fe98fcf44511a6bbbec6c,Arepado,45.763718,4.864073,South American Restaurant
653,45.76173907066761,4.863919220639689,9,7,50c33a27e4b0794e99889a66,Curry Wurst,45.760189,4.866214,German Restaurant
654,45.76173907066761,4.863919220639689,9,8,5114e642e4b0b468ba0acc51,Bistrot du Cours,45.763628661631614,4.864789116479891,French Restaurant
655,45.774,4.832922222222223,17,0,52f12a2b498e9faae234a922,Bistrot Jutard,45.77458004908644,4.830905199050903,Bistro
656,45.774,4.832922222222223,17,1,511e993ae4b0b14e1c7f9f77,Sushi Shop,45.77550281546919,4.832115686549101,Sushi Restaurant
657,45.774,4.832922222222223,17,2,59458e04f870fd7781324d63,Chez Lucien,45.775687,4.834925,French Restaurant
658,45.774,4.832922222222223,17,3,5ddd32bbbb5dd00007551744,Dr Yeast,45.77503309999999,4.831083300000046,Beer Bar
659,45.774,4.832922222222223,17,4,5af34bd30d173f002cc7e2fe,Bistrot Orcia,45.775508,4.834965,French Restaurant
660,45.774,4.832922222222223,17,5,4bb5b56e2ea1952157b5aa2f,Cafe la creche,45.77536422445668,4.834627562713445,French Restaurant
661,45.774,4.832922222222223,17,6,4bae3740f964a52068933be3,Montana,45.7727740586602,4.831862037392491,Café
662,45.774,4.832922222222223,17,7,4ce81758b99754815f61fa44,Un Gone Au Soleil,45.775683,4.834556,French Restaurant
663,45.774,4.832922222222223,17,8,4bdc97af2a3a0f47ea8db3b6,La Cannoise,45.77507680167656,4.830360462342377,Italian Restaurant
664,45.774,4.832922222222223,17,9,4c9b977880958cfabe134dd4,Balthaz'art,45.77329678986852,4.832121642073008,French Restaurant
665,45.774,4.832922222222223,17,10,59987c1dee628b267d418002,Au Resto',45.77366,4.834785,French Restaurant
666,45.774,4.832922222222223,17,11,53bef7ee498e956106611cb4,Tokisoshi,45.775163,4.832938,Japanese Restaurant
667,45.774,4.832922222222223,17,12,51ba0091498eb59c5ded6856,la Cagette,45.77320817889945,4.83219830406032,Cajun / Creole Restaurant
668,45.774,4.832922222222223,17,13,4f85dc85e4b04b40a9cfc6bd,Bistrot des Voraces,45.77554702758789,4.834506988525391,French Restaurant
669,45.774,4.832922222222223,17,14,4c83f0c2e602b1f7626baa7a,La Bressane,45.77498,4.830547,French Restaurant
670,45.774,4.832922222222223,17,15,581a30d1b613dc47892e7e3e,Daniel & Denise Croix Rousse,45.7753,4.8308926,French Restaurant
671,45.774,4.832922222222223,17,16,596b2959a6031c5daad5a8db,Le Desjeuner,45.773597,4.83215,French Restaurant
672,45.776260929332395,4.829702424382587,17,0,52f12a2b498e9faae234a922,Bistrot Jutard,45.77458004908644,4.830905199050903,Bistro
673,45.776260929332395,4.829702424382587,17,1,511e993ae4b0b14e1c7f9f77,Sushi Shop,45.77550281546919,4.832115686549101,Sushi Restaurant
674,45.776260929332395,4.829702424382587,17,2,5b586cd0a42362002b95bc04,Mubyotan,45.77475833558586,4.82806500785955,Japanese Restaurant
675,45.776260929332395,4.829702424382587,17,3,5ddd32bbbb5dd00007551744,Dr Yeast,45.77503309999999,4.831083300000046,Beer Bar
676,45.776260929332395,4.829702424382587,17,4,55dc4908498e92ab7857c9d6,Bobun boulevard,45.774109,4.828863,Vietnamese Restaurant
677,45.776260929332395,4.829702424382587,17,5,4f7741afe4b0ca8cfccc71bd,Saveurs Exotiques,45.774756,4.828647,Indian Restaurant
678,45.776260929332395,4.829702424382587,17,6,51f01340498e58df96d2a4aa,Le Plato,45.774838891083405,4.828728082577161,French Restaurant
679,45.776260929332395,4.829702424382587,17,7,52ececf9498eb88ebc02c69b,iberyco,45.776829,4.83228,Tapas Restaurant
680,45.776260929332395,4.829702424382587,17,8,4be5c7a22468c928238a0043,Plato Restorant,45.7748724322299,4.82891192695424,French Restaurant
681,45.776260929332395,4.829702424382587,17,9,5597bef2498e6d42e559e9c9,Galiane,45.77808294839261,4.829935847610808,French Restaurant
682,45.776260929332395,4.829702424382587,17,10,4bdc97af2a3a0f47ea8db3b6,La Cannoise,45.77507680167656,4.830360462342377,Italian Restaurant
683,45.776260929332395,4.829702424382587,17,11,4da9e6976e81162ae7c9b6fd,La Bodeguita Cubana,45.777788,4.829912,Cuban Restaurant
684,45.776260929332395,4.829702424382587,17,12,4d288aac3c7954810626cf9b,Iber Y Co,45.77672578600118,4.832020183755813,Spanish Restaurant
685,45.776260929332395,4.829702424382587,17,13,5d64183ac40c5b0008993055,Palais de la croix rousse,45.774794,4.827834,Cambodian Restaurant
686,45.776260929332395,4.829702424382587,17,14,4be3074521d5a593ccfd1711,Restaurant les 7 pêchés,45.77499776014079,4.8300012260249146,French Restaurant
687,45.776260929332395,4.829702424382587,17,15,4c83f0c2e602b1f7626baa7a,La Bressane,45.77498,4.830547,French Restaurant
688,45.776260929332395,4.829702424382587,17,16,581a30d1b613dc47892e7e3e,Daniel & Denise Croix Rousse,45.7753,4.8308926,French Restaurant
689,45.77173907066761,4.829702424382587,9,0,58c15f9efb9d8950dc834cb9,La Perle Noire,45.770823365281416,4.827600717544556,Peruvian Restaurant
690,45.77173907066761,4.829702424382587,9,1,4bb511f6f562ef3bed702e97,Aux 3 Gaules,45.770105,4.83022,French Restaurant
691,45.77173907066761,4.829702424382587,9,2,5033d320e4b03e64bc76f893,Gafieira,45.76963376577237,4.829717973325962,Brazilian Restaurant
692,45.77173907066761,4.829702424382587,9,3,4bae3740f964a52068933be3,Montana,45.7727740586602,4.831862037392491,Café
693,45.77173907066761,4.829702424382587,9,4,4e3ee7501838cb1b8304ac98,Bollyfood,45.771369,4.828309,Indian Restaurant
694,45.77173907066761,4.829702424382587,9,5,4ea9ae48d3e3846cbc56d2d4,Tuesquina,45.77027733191313,4.831578471157081,Tapas Restaurant
695,45.77173907066761,4.829702424382587,9,6,4e1f432e483b6e56e8384c3e,La mangue amère,45.7699,4.830343,African Restaurant
696,45.77173907066761,4.829702424382587,9,7,536a9e42498e0df23a1b9553,Num Pang,45.769733,4.829875,Cambodian Restaurant
697,45.77173907066761,4.829702424382587,9,8,5c37cd1cb04056002c63326b,Más Amor Por Favor,45.769924,4.830102,Mexican Restaurant
698,45.776260929332395,4.836142020061859,20,0,4da736ab04377705c309c6ca,Café de la Soie,45.77788918105673,4.834665987843311,French Restaurant
699,45.776260929332395,4.836142020061859,20,1,59458e04f870fd7781324d63,Chez Lucien,45.775687,4.834925,French Restaurant
700,45.776260929332395,4.836142020061859,20,2,5973abad364d972852b06be6,L'aromatic,45.777585,4.834215,French Restaurant
701,45.776260929332395,4.836142020061859,20,3,50477fbee4b0ee5699f44459,Epicerie Comptoir,45.777709,4.834537,Tapas Restaurant
702,45.776260929332395,4.836142020061859,20,4,5af34bd30d173f002cc7e2fe,Bistrot Orcia,45.775508,4.834965,French Restaurant
703,45.776260929332395,4.836142020061859,20,5,4bb5b56e2ea1952157b5aa2f,Cafe la creche,45.77536422445668,4.834627562713445,French Restaurant
704,45.776260929332395,4.836142020061859,20,6,4f214bbde4b03e0109616902,Le Côte-Rôtie,45.776626332387444,4.8349777785458805,French Restaurant
705,45.776260929332395,4.836142020061859,20,7,4dba9b8381548ee14d7d791c,Yo Shi,45.776792,4.833882,Japanese Restaurant
706,45.776260929332395,4.836142020061859,20,8,4c4593ff2d3ec9b6886230ae,Brasserie le commerce,45.776895,4.834894,French Restaurant
707,45.776260929332395,4.836142020061859,20,9,52af264211d22ac732b47224,yoyo,45.776677,4.835122,Asian Restaurant
708,45.776260929332395,4.836142020061859,20,10,4ce81758b99754815f61fa44,Un Gone Au Soleil,45.775683,4.834556,French Restaurant
709,45.776260929332395,4.836142020061859,20,11,4c0168e358dbc9285d4dee6b,Le Grain De Folie,45.77670555737452,4.835820304368631,French Restaurant
710,45.776260929332395,4.836142020061859,20,12,5187f6ce498e495f17861afb,Au Comptoir Du Vin,45.775973,4.834868,French Restaurant
711,45.776260929332395,4.836142020061859,20,13,5c96908e6e4650002cd891d6,Cooper Roots,45.776846,4.836161,Tapas Restaurant
712,45.776260929332395,4.836142020061859,20,14,50812f0fe4b0361f657c2d61,Plezo Plada,45.77661155589919,4.8331619070766605,Turkish Restaurant
713,45.776260929332395,4.836142020061859,20,15,4e0f6c2445ddc2c6d181c8c8,Mon Pere Etait Limonadier,45.775928569875425,4.837019995945551,French Restaurant
714,45.776260929332395,4.836142020061859,20,16,57feb058498ed956d23ba740,la Voguette,45.7765458,4.835071600000001,Tapas Restaurant
715,45.776260929332395,4.836142020061859,20,17,50e6db5ae4b06de012a18617,Le Comptoir des Canuts,45.777480744981105,4.834248774925848,French Restaurant
716,45.776260929332395,4.836142020061859,20,18,4f85dc85e4b04b40a9cfc6bd,Bistrot des Voraces,45.77554702758789,4.834506988525391,French Restaurant
717,45.776260929332395,4.836142020061859,20,19,5380826e498ec7f833038c73,Cafe de le Soir,45.77794,4.834644,French Restaurant
718,45.77173907066761,4.836142020061859,14,0,5bb310e6fe3740002ce7947e,Monsieur P,45.771112,4.837123,French Restaurant
719,45.77173907066761,4.836142020061859,14,1,4bcc4eee68f976b01c556283,L'Ourson qui boit,45.770505037450924,4.837279589472821,Japanese Restaurant
720,45.77173907066761,4.836142020061859,14,2,4b8ece02f964a5203d3833e3,La Gargotte,45.77137451501115,4.837270063513551,French Restaurant
721,45.77173907066761,4.836142020061859,14,3,510973a5e4b09f3985e5e2ec,Moody's Dinner club,45.769967157456485,4.834737112606268,Tapas Restaurant
722,45.77173907066761,4.836142020061859,14,4,5c76dbd2f2554e002c840047,Mojgan,45.770796,4.837173,Mediterranean Restaurant
723,45.77173907066761,4.836142020061859,14,5,59987c1dee628b267d418002,Au Resto',45.77366,4.834785,French Restaurant
724,45.77173907066761,4.836142020061859,14,6,5e1906df3c9c600008f3b982,La Mère Brazier,45.771441,4.837213,Gastropub
725,45.77173907066761,4.836142020061859,14,7,4bc615e46c26b713a146ecf3,Au Temps Perdu,45.773608852626964,4.83721280253829,French Restaurant
726,45.77173907066761,4.836142020061859,14,8,4d97861a0caaa143f24795b3,La Bonâme de Bruno,45.770226836530185,4.836868506932399,French Restaurant
727,45.77173907066761,4.836142020061859,14,9,4bc63de9b387d13a7a8dc1e8,La Belle Equipe,45.77107958787899,4.835132353408789,French Restaurant
728,45.77173907066761,4.836142020061859,14,10,4df891dc2271607ac91836c5,Itadaki,45.77204401940686,4.835701146548327,Japanese Restaurant
729,45.77173907066761,4.836142020061859,14,11,4bb632ba6edc76b0f08c301c,Maison Villemanzy,45.771715235024736,4.835814243442491,French Restaurant
730,45.77173907066761,4.836142020061859,14,12,550df8f7498efe6c67e4cfba,Saveurs Partagées,45.77163314819336,4.83546257019043,French Restaurant
731,45.77173907066761,4.836142020061859,14,13,4c5413bef5f3d13a3ff58bf9,Le Jardin Gourmand,45.771373,4.833255,French Restaurant
