,lat_centre,long_centre,num_venues,venue_iter,venue_id,venue_name,lat_venue,long_venue,category
0,45.76173907066761,4.829703001582534,1,0,4f9d83aee4b0f1efa8e03f79,Gabriel Aligne,45.761117,4.828899,Indian Restaurant
1,45.762869535333806,4.828093456491969,43,0,5867ebff45c3ed5c6abec655,Chez Marie,45.76364,4.828145,Lyonese Bouchon
2,45.762869535333806,4.828093456491969,43,1,4c6ee3aa9375a093c33e0237,Le Laurencin,45.76319628133412,4.827998828951128,French Restaurant
3,45.762869535333806,4.828093456491969,43,2,5144bbe6e4b0380b548edbf8,Le Panier du Chef,45.762540171582316,4.8275749830367065,French Restaurant
4,45.762869535333806,4.828093456491969,43,3,4c7eb811fb13a1cd70889ea4,Le Tire Bouchon,45.762715279796616,4.82720982773085,Lyonese Bouchon
5,45.762869535333806,4.828093456491969,43,4,51576adae4b0715458de8b7e,La Chimère,45.76296910093715,4.827221407087786,French Restaurant
6,45.762869535333806,4.828093456491969,43,5,4de4c4d552b1d38d29a4341e,Aux Trois Maries,45.76323885341654,4.828363892408686,French Restaurant
7,45.762869535333806,4.828093456491969,43,6,514a15fae4b061d1ac90054b,Restaurant Les Loges,45.763327,4.827133,French Restaurant
8,45.762869535333806,4.828093456491969,43,7,4e0c4ac945dd7a490b056413,Les Pavés de Saint-Jean,45.7628867067004,4.827846593395778,French Restaurant
9,45.762869535333806,4.828093456491969,43,8,4f5280d7e4b002a74259d38e,"Aux 24 Colonnes, le Bistrot du Palais",45.76248702917993,4.8283309105885595,French Restaurant
10,45.762869535333806,4.828093456491969,43,9,5cca255833e118002c7b6f8e,Bouchon Rouge,45.763043,4.828934,Lyonese Bouchon
11,45.762869535333806,4.828093456491969,43,10,50682a1de4b0e0776175f501,Tex Mex,45.76350784301758,4.827570915222168,Mexican Restaurant
12,45.762869535333806,4.828093456491969,43,11,4db7e6ac815445bd47c7775f,Hong Ha,45.76298245118316,4.8280341630251105,Vietnamese Restaurant
13,45.762869535333806,4.828093456491969,43,12,4bf18e5352bda5931fb0b1b7,Les Ventres Jaunes,45.762714497683355,4.827335448754068,French Restaurant
14,45.762869535333806,4.828093456491969,43,13,4dea897f18386283a3e8032c,Le Pique,45.76330132952094,4.828401391070576,French Restaurant
15,45.762869535333806,4.828093456491969,43,14,4db0a23143a1bea42bba617f,Le Francois Villon,45.762687946685645,4.827151182703056,French Restaurant
16,45.762869535333806,4.828093456491969,43,15,5783c72b498ee3d0ffc4fb19,Au P'ti bouchon,45.763638564094,4.828062057495117,Lyonese Bouchon
17,45.762869535333806,4.828093456491969,43,16,4c83d6addc018cfa3df0db6c,Les Pampres Rouges,45.76265757215099,4.827300531916704,French Restaurant
18,45.762869535333806,4.828093456491969,43,17,507093bbe4b07e253c4bd949,Chez Grand-Mère,45.76283509106944,4.827158786838521,French Restaurant
19,45.762869535333806,4.828093456491969,43,18,4c712b27df6b8cfaf13dba4d,Le Palais St.Jean,45.76253784988894,4.827500316756511,French Restaurant
20,45.762869535333806,4.828093456491969,43,19,563e0440cd10d06ce09ecd32,Au Comptoir les Gones,45.7628732222529,4.827883788250255,French Restaurant
21,45.762869535333806,4.828093456491969,43,20,523d7fe311d20d248a8ea4fd,Le bistrot Des 4 Chapeaux,45.761979600217195,4.82805138821302,French Restaurant
22,45.762869535333806,4.828093456491969,43,21,4df63196aeb7170aa2f9c0f5,Chez Chabert,45.76370381401672,4.828192346422199,Lyonese Bouchon
23,45.762869535333806,4.828093456491969,43,22,5679d5b3498ea3d07b00f600,Chez Colette,45.763349,4.827224,French Restaurant
24,45.762869535333806,4.828093456491969,43,23,4fd1e5a7e4b0d6a2d4e18e23,Restaurant Le Vieux Lyon,45.76236395806898,4.827728015818322,French Restaurant
25,45.762869535333806,4.828093456491969,43,24,4da0b4109935a093c67f8f6f,Giovany's Ristorante,45.7632992058468,4.828269269474357,Italian Restaurant
26,45.762869535333806,4.828093456491969,43,25,51bf6d40498ed389bc4cc6f6,Pique Assiette,45.76329628440268,4.828460940109662,French Restaurant
27,45.762869535333806,4.828093456491969,43,26,4d45738e7e2e5481a2a66a8f,L'Amphitryon,45.76255459269243,4.827544521170666,French Restaurant
28,45.762869535333806,4.828093456491969,43,27,4d57cd26380ab1f77a7f00f5,L'Eau Salée,45.76279279224497,4.828319549560547,French Restaurant
29,45.762869535333806,4.828093456491969,43,28,4d8cef4bfa9437046a74dcc5,Maitre Boeuf,45.76329490468211,4.828261001676771,French Restaurant
30,45.762869535333806,4.828093456491969,43,29,4bae6311f964a52098ab3be3,Les Chandelles,45.763712982623986,4.828237234368233,French Restaurant
31,45.762869535333806,4.828093456491969,43,30,5ba8d84adb1d81002cc98ce0,Pho Bo,45.762859,4.827595,Vietnamese Restaurant
32,45.762869535333806,4.828093456491969,43,31,5d5411def698410008ade0bc,La Feria,45.7635,4.8288717,Tapas Restaurant
33,45.762869535333806,4.828093456491969,43,32,4c4df2e6fb742d7fae258e2d,La Nef des Fous,45.76314098533146,4.82735493998337,French Restaurant
34,45.762869535333806,4.828093456491969,43,33,5522b4f7498ee9d4555ded2e,Bintje & Zoet,45.763505199493885,4.82808441443615,Belgian Restaurant
35,45.762869535333806,4.828093456491969,43,34,4e4f9e8452b1e893ad5d018e,La Trattoria de Saint Jean,45.762569001833434,4.82764866171495,Pizza Place
36,45.762869535333806,4.828093456491969,43,35,4bf978155ec320a12b4b8ad3,Le Gourmand de Saint Jean,45.76267620205111,4.8272403240293915,French Restaurant
37,45.762869535333806,4.828093456491969,43,36,4c8bd9aa5e048cfa2a4bc7cd,Le Comptoir du Boeuf,45.762680467812615,4.827244711471532,French Restaurant
38,45.762869535333806,4.828093456491969,43,37,59563ef1f79faa6187c61453,Ô Vietnam,45.7627216869477,4.828314185142517,Vietnamese Restaurant
39,45.762869535333806,4.828093456491969,43,38,4d06a1679d33a1435a4fc778,RESTAURANT A LA TRABOULE,45.76373720708462,4.828208268077503,French Restaurant
40,45.762869535333806,4.828093456491969,43,39,53807a46498e59fc12759f82,Bouchon 1.2.3,45.76253,4.827513,Lyonese Bouchon
41,45.762869535333806,4.828093456491969,43,40,4c225422fbe5c9b6a9b69921,Namdo,45.76281571690663,4.828696478946666,Asian Restaurant
42,45.762869535333806,4.828093456491969,43,41,5e5baf09d0725c00087453c2,Le petit bouchon de la place,45.76266,4.82718,Lyonese Bouchon
43,45.762869535333806,4.828093456491969,43,42,4b9c0a80f964a520df4336e3,La Tour Rose,45.76270342472898,4.826939996925166,French Restaurant
44,45.76060860600141,4.828093456491969,3,0,4e14a64d483bfda2e0a7dad2,Le Penjab,45.761204118085466,4.828615226863304,Indian Restaurant
45,45.76060860600141,4.828093456491969,3,1,4f9d83aee4b0f1efa8e03f79,Gabriel Aligne,45.761117,4.828899,Indian Restaurant
46,45.76060860600141,4.828093456491969,3,2,4f744ab5e4b03eeeef43848f,Pasta Luna,45.76099561004818,4.827199860426063,Italian Restaurant
47,45.762869535333806,4.8313125466731,4,0,4b77f13bf964a52094af2ee3,Le Mercière,45.7627,4.832545,French Restaurant
48,45.762869535333806,4.8313125466731,4,1,5050dffce4b056062155dc8a,Du cote de chez Xane,45.7625538320315,4.831931490258712,Thai Restaurant
49,45.762869535333806,4.8313125466731,4,2,4f073ed2e4b08f52477705df,Mendo,45.762135926342715,4.8318428003943925,Asian Restaurant
50,45.762869535333806,4.8313125466731,4,3,50683f92e4b01301ecaa967d,Auberge le Baladin,45.76339890065963,4.832022028515394,French Restaurant
51,45.76060860600141,4.8313125466731,7,0,51d1ce10498e0a9f28d7ce1d,La Tour D'Asie,45.761176,4.832309,Dim Sum Restaurant
52,45.76060860600141,4.8313125466731,7,1,5b7fe42ddab4b1002c7afcbd,Trattoria Celestins,45.760402,4.83099,Italian Restaurant
53,45.76060860600141,4.8313125466731,7,2,5222405e11d259e6d72e744b,L'ange Divin,45.761279,4.832075,Tapas Restaurant
54,45.76060860600141,4.8313125466731,7,3,4ed6885693ad293dfc8a3393,L'acteur,45.76037404018894,4.831264264007608,French Restaurant
55,45.76060860600141,4.8313125466731,7,4,4eb44b347ee5024d7e85a3b7,Le Pékin,45.760388,4.831114,Chinese Restaurant
56,45.76060860600141,4.8313125466731,7,5,544351e5498e8beae02ac260,gabrielle & bryan,45.761024230849586,4.832343315520318,African Restaurant
57,45.76060860600141,4.8313125466731,7,6,58daa9b09dc8d03834dd9d98,Penjabi-Grill,45.76065,4.832542,Indian Restaurant
58,45.76173907066761,4.836141442861911,10,0,4c797d1097028cfac354dbfe,Chez Carlo,45.76228009426328,4.835348767709174,Italian Restaurant
59,45.76173907066761,4.836141442861911,10,1,56f90f41498e515598b6da67,Etcheberry Table Basque,45.7623455758416,4.835261106491089,Spanish Restaurant
60,45.76173907066761,4.836141442861911,10,2,5da46fe279368b0008a6cc53,Cantine Nosch Comptoir,45.762136,4.835467,French Restaurant
61,45.76173907066761,4.836141442861911,10,3,5568ae76498e6aadff6137a9,L'un des Sens,45.76222229003906,4.835289478302002,French Restaurant
62,45.76173907066761,4.836141442861911,10,4,50e4951be4b0c73e8dc8d07d,Ban Thaï,45.762264251708984,4.836238861083984,Thai Restaurant
63,45.76173907066761,4.836141442861911,10,5,4e8c2dd68b81e6788fe6106d,Kebab Istanbul Beyoglu,45.762136191738485,4.836171398802696,Middle Eastern Restaurant
64,45.76173907066761,4.836141442861911,10,6,5dfd1c7a1815f20008453291,Croustiller,45.762062,4.835135,Fast Food Restaurant
65,45.76173907066761,4.836141442861911,10,7,5d1b3659d0ae5e0023dd7772,Smør & Brød,45.761875,4.8352766,Scandinavian Restaurant
66,45.76173907066761,4.836141442861911,10,8,4e779f1aae60c32852145a8a,La Luciole,45.76099,4.836556,French Restaurant
67,45.76173907066761,4.836141442861911,10,9,4be4734d2457a593d43faa15,Sushi King,45.761705,4.836171,Sushi Restaurant
68,45.762869535333806,4.834531897771345,22,0,4bdaf355c79cc928c85c80e9,Grand Café des Négociants,45.763361607386784,4.834397728320508,Lounge
69,45.762869535333806,4.834531897771345,22,1,5bd1a40ad1a402002c5a714f,Bouchon Tupin,45.762842,4.834863,Lyonese Bouchon
70,45.762869535333806,4.834531897771345,22,2,4c797d1097028cfac354dbfe,Chez Carlo,45.76228009426328,4.835348767709174,Italian Restaurant
71,45.762869535333806,4.834531897771345,22,3,56f90f41498e515598b6da67,Etcheberry Table Basque,45.7623455758416,4.835261106491089,Spanish Restaurant
72,45.762869535333806,4.834531897771345,22,4,5b635296ee7120002ca3289c,Café Lisboa,45.762424,4.834592,Portuguese Restaurant
73,45.762869535333806,4.834531897771345,22,5,4c7559f12db5236a7ac1bc79,Les Petits Siamois,45.762477,4.835333,Thai Restaurant
74,45.762869535333806,4.834531897771345,22,6,4fe1acbde4b040e806101a0b,Tapeo BCN,45.76295366664158,4.834215144579689,Tapas Restaurant
75,45.762869535333806,4.834531897771345,22,7,5d30643d49188800098fba53,La Taquera De Masa,45.762395,4.8352,Mexican Restaurant
76,45.762869535333806,4.834531897771345,22,8,57ecf9a7498ead72dacbbd54,Mrs. Winn,45.762614,4.83519,Asian Restaurant
77,45.762869535333806,4.834531897771345,22,9,5568ae76498e6aadff6137a9,L'un des Sens,45.76222229003906,4.835289478302002,French Restaurant
78,45.762869535333806,4.834531897771345,22,10,5016dc86e4b035d9f5b934ec,Pizzas Artisanales,45.762977600097656,4.834304332733154,Italian Restaurant
79,45.762869535333806,4.834531897771345,22,11,4c6e365d10faa1431732f068,Chez Sylvie,45.76300600448092,4.834952224613896,Lyonese Bouchon
80,45.762869535333806,4.834531897771345,22,12,571a760b498e465e2f16781d,L'Episens,45.76318559359292,4.8353126814898815,French Restaurant
81,45.762869535333806,4.834531897771345,22,13,4d88ac4026a36ea8584ad0ad,Table d'hôte,45.762157,4.834493,French Restaurant
82,45.762869535333806,4.834531897771345,22,14,4bdaae3d63c5c9b6c29a2468,Saint-tropez,45.762488,4.835228,French Restaurant
83,45.762869535333806,4.834531897771345,22,15,4e063e2862e100e581685dc9,Le Palais Des Saveurs,45.76340804526129,4.834878807349099,French Restaurant
84,45.762869535333806,4.834531897771345,22,16,521fac1a11d2af02816cf271,Au Grand Mechant Loup,45.762896,4.835296,French Restaurant
85,45.762869535333806,4.834531897771345,22,17,5ba23ce0c53093002c17d010,Lion et Poisson,45.762637,4.835025,Chinese Restaurant
86,45.762869535333806,4.834531897771345,22,18,4e1c942562e147e54f53dcd7,Flam's,45.76290489763291,4.833541992440206,German Restaurant
87,45.762869535333806,4.834531897771345,22,19,4b86e76df964a52009a531e3,Le Cinq,45.76297,4.833368,French Restaurant
88,45.762869535333806,4.834531897771345,22,20,514cc966e4b0e4f73b3f6256,"Au bon beurre, Croix Rousse, lyon",45.76324977172409,4.834498667880151,Moroccan Restaurant
89,45.762869535333806,4.834531897771345,22,21,5083128de4b0ac00f5e7dad1,ramenshop,45.76297394532071,4.835271621876718,Asian Restaurant
90,45.76060860600141,4.834531897771345,4,0,4df3500e6284fefe8fc1c706,Le Ré-Confort,45.759930497359825,4.834536650161063,French Restaurant
91,45.76060860600141,4.834531897771345,4,1,4c8a0ed76418a1436130dcce,Reynaud,45.7610313,4.8334714,French Restaurant
92,45.76060860600141,4.834531897771345,4,2,4b58ae09f964a520536528e3,(Mo) Sushi,45.75991468969106,4.834670071329159,Sushi Restaurant
93,45.76060860600141,4.834531897771345,4,3,4f1dd1dae4b0e2eeedcce402,Coréen barbecue,45.75987926234148,4.834560858800601,Korean Restaurant
94,45.762869535333806,4.837750987952477,6,0,5740d305498e91e770532496,Hard Rock Café Lyon,45.7630007,4.8379483,American Restaurant
95,45.762869535333806,4.837750987952477,6,1,514ca46be4b0c959327a0ca2,Lem sushi,45.7635612487793,4.837630748748779,Japanese Restaurant
96,45.762869535333806,4.837750987952477,6,2,4e8d8121d22d2a85bdacd615,Cuisine & Dependances,45.76220843111821,4.837383400727842,French Restaurant
97,45.762869535333806,4.837750987952477,6,3,51f53136498e7d96d5b75b64,Le Lafayette,45.76203754882322,4.837669810082151,French Restaurant
98,45.762869535333806,4.837750987952477,6,4,507704fbe4b0bc04b9a9c219,Entr'acte,45.76224966262545,4.8374804398235405,French Restaurant
99,45.762869535333806,4.837750987952477,6,5,58bb1bbd03cf257b095f6fe4,Mamasan,45.762016,4.837425,Vietnamese Restaurant
100,45.76060860600141,4.837750987952477,4,0,5c4cb9f81953f3002c26f389,Angelo,45.76080311956873,4.837564641420613,Italian Restaurant
101,45.76060860600141,4.837750987952477,4,1,4ca38943f832a1cd677c9ee5,Nicolas le Bec,45.76102503833847,4.8369648111058625,French Restaurant
102,45.76060860600141,4.837750987952477,4,2,4f968f04e4b0aa1ae5769e1a,Rue Le Bec,45.760703,4.836946,French Restaurant
103,45.76060860600141,4.837750987952477,4,3,509c36ebe4b01b68855bf21a,Le Centre - By Georges Blanc,45.760914041674624,4.836957664720601,French Restaurant
104,45.764,4.832922222222223,11,0,4c13d053a5eb76b0ab9dc0b7,Le Mont Liban,45.76360474571316,4.832467982784331,Lebanese Restaurant
105,45.764,4.832922222222223,11,1,5584779a498e1ed8955587e6,les pâtes vivantes,45.764147,4.832352,Chinese Restaurant
106,45.764,4.832922222222223,11,2,4bc0dbfa920eb71387b6192c,Pique-Nique En Ville,45.763793640562184,4.83257074382933,French Restaurant
107,45.764,4.832922222222223,11,3,4d3d69e38edf37045d62b9a5,Le 9 Rue Merciere,45.764068,4.832375,French Restaurant
108,45.764,4.832922222222223,11,4,52b09cc211d2fb448ef6825a,Chez Fyfy,45.763119631458856,4.8327029866972735,Japanese Restaurant
109,45.764,4.832922222222223,11,5,4c2f32eced37a59395cb6603,La Menthe,45.76382153580953,4.832577883159769,Mediterranean Restaurant
110,45.764,4.832922222222223,11,6,59c16cc8ad910e2a3e67161d,Le Cuisine Des Moules,45.76385,4.832912,Southwestern French Restaurant
111,45.764,4.832922222222223,11,7,5f0235d76a5ce50b3a4c3f9d,Curry To Carry,45.763137,4.832602,Indian Restaurant
112,45.764,4.832922222222223,11,8,4fdb90a7e4b0f97669e16909,Don Taco,45.764045,4.832406,Taco Place
113,45.764,4.832922222222223,11,9,4d986ef70caaa143c713acb3,Planet Sushi,45.76338839355148,4.832565364754583,Sushi Restaurant
114,45.764,4.832922222222223,11,10,50683f92e4b01301ecaa967d,Auberge le Baladin,45.76339890065963,4.832022028515394,French Restaurant
115,45.7651304646662,4.831312611902379,7,0,4be7f742947820a18f46b4db,Riviere Kwaï,45.765023534332464,4.832312528908809,Thai Restaurant
116,45.7651304646662,4.831312611902379,7,1,503530afe4b0ec35e732d56b,Makoto,45.765006,4.832367,Japanese Restaurant
117,45.7651304646662,4.831312611902379,7,2,5555c5e3498eba1d9280ee09,Prairial,45.76485526365827,4.832279911952429,French Restaurant
118,45.7651304646662,4.831312611902379,7,3,56bf8f29cd10d8d45cfd83dd,Le Casse Museau,45.765507,4.8324633,French Restaurant
119,45.7651304646662,4.831312611902379,7,4,55cfab39498ed792648022dc,Pivoine,45.76444714310495,4.8314763472167295,Asian Restaurant
120,45.7651304646662,4.831312611902379,7,5,4bdc78212a3a0f4743fbb2b6,Sushi Ly,45.76587,4.830801,Sushi Restaurant
121,45.7651304646662,4.831312611902379,7,6,4be9316088ed2d7f30a9cc1d,Les Gones,45.76580315421112,4.830783588137245,French Restaurant
122,45.762869535333806,4.831312611902379,4,0,4b77f13bf964a52094af2ee3,Le Mercière,45.7627,4.832545,French Restaurant
123,45.762869535333806,4.831312611902379,4,1,5050dffce4b056062155dc8a,Du cote de chez Xane,45.7625538320315,4.831931490258712,Thai Restaurant
124,45.762869535333806,4.831312611902379,4,2,4f073ed2e4b08f52477705df,Mendo,45.762135926342715,4.8318428003943925,Asian Restaurant
125,45.762869535333806,4.831312611902379,4,3,50683f92e4b01301ecaa967d,Auberge le Baladin,45.76339890065963,4.832022028515394,French Restaurant
126,45.7651304646662,4.8345318325420665,18,0,4d7fbe65564b8cfafdaa0b65,Le Musée,45.76470420119588,4.834464066051043,Lyonese Bouchon
127,45.7651304646662,4.8345318325420665,18,1,55d4e388498ee25b69e9f1c0,Carnet Gourmand,45.76501443242975,4.835066835009671,Chinese Restaurant
128,45.7651304646662,4.8345318325420665,18,2,5e5ab46030aaeb0008ae9063,Caramelo,45.765309,4.834987,Italian Restaurant
129,45.7651304646662,4.8345318325420665,18,3,4bf6d2964a67c928b17922cf,La Meunière,45.76522562396956,4.835338352456442,French Restaurant
130,45.7651304646662,4.8345318325420665,18,4,50dc8bfbe4b0658279323044,La Hugonnière,45.765204,4.835359,Lyonese Bouchon
131,45.7651304646662,4.8345318325420665,18,5,508043cce4b06f332ea5999c,Goramen,45.76521877391016,4.8351152114919005,Japanese Restaurant
132,45.7651304646662,4.8345318325420665,18,6,4bb7aac3314e9521cc7f479d,Le Nord,45.765251585012514,4.835607299260351,French Restaurant
133,45.7651304646662,4.8345318325420665,18,7,532217bd498ec5ca31dcf33e,Autour d'Un Verre,45.7654464358083,4.833770645901549,Wine Bar
134,45.7651304646662,4.8345318325420665,18,8,4ba13c0df964a52095a437e3,Matsuri Lyon Presqu'ile,45.76497455810287,4.833834171295166,Japanese Restaurant
135,45.7651304646662,4.8345318325420665,18,9,51b37d23498e77488e3d9df3,Carnet de Voyage,45.765671218551205,4.8343449118198905,Chinese Restaurant
136,45.7651304646662,4.8345318325420665,18,10,5bd311da446ea6003af423d8,Restaurant Du Musée,45.764589,4.834569,Lyonese Bouchon
137,45.7651304646662,4.8345318325420665,18,11,56bf7f34cd107cc8bda03d92,La Table Pierrade,45.765209,4.83507,French Restaurant
138,45.7651304646662,4.8345318325420665,18,12,50d4ce68e4b0487c2b0f8ea4,Le Mamma,45.76554,4.833489,Italian Restaurant
139,45.7651304646662,4.8345318325420665,18,13,4f3971f8e4b08dd06b72b691,Cocoo,45.765687174327866,4.834816011732977,Thai Restaurant
140,45.7651304646662,4.8345318325420665,18,14,4ff6c821e4b055f896e3bc64,Augusto,45.765211857372286,4.834895909012961,Italian Restaurant
141,45.7651304646662,4.8345318325420665,18,15,4fd1d8e9e4b04e713c9c491c,lemon twist,45.76521095205187,4.834973416873194,French Restaurant
142,45.7651304646662,4.8345318325420665,18,16,4bd189ca046076b094ef7171,L'Harmonie Des Vins,45.76522072174475,4.835114383471507,French Restaurant
143,45.7651304646662,4.8345318325420665,18,17,5e49319eeebce700089e0ee0,Trattoria Carmelo,45.765219,4.834878,Italian Restaurant
144,45.762869535333806,4.8345318325420665,22,0,4bdaf355c79cc928c85c80e9,Grand Café des Négociants,45.763361607386784,4.834397728320508,Lounge
145,45.762869535333806,4.8345318325420665,22,1,5bd1a40ad1a402002c5a714f,Bouchon Tupin,45.762842,4.834863,Lyonese Bouchon
146,45.762869535333806,4.8345318325420665,22,2,4c797d1097028cfac354dbfe,Chez Carlo,45.76228009426328,4.835348767709174,Italian Restaurant
147,45.762869535333806,4.8345318325420665,22,3,56f90f41498e515598b6da67,Etcheberry Table Basque,45.7623455758416,4.835261106491089,Spanish Restaurant
148,45.762869535333806,4.8345318325420665,22,4,5b635296ee7120002ca3289c,Café Lisboa,45.762424,4.834592,Portuguese Restaurant
149,45.762869535333806,4.8345318325420665,22,5,4c7559f12db5236a7ac1bc79,Les Petits Siamois,45.762477,4.835333,Thai Restaurant
150,45.762869535333806,4.8345318325420665,22,6,4fe1acbde4b040e806101a0b,Tapeo BCN,45.76295366664158,4.834215144579689,Tapas Restaurant
151,45.762869535333806,4.8345318325420665,22,7,5d30643d49188800098fba53,La Taquera De Masa,45.762395,4.8352,Mexican Restaurant
152,45.762869535333806,4.8345318325420665,22,8,57ecf9a7498ead72dacbbd54,Mrs. Winn,45.762614,4.83519,Asian Restaurant
153,45.762869535333806,4.8345318325420665,22,9,5568ae76498e6aadff6137a9,L'un des Sens,45.76222229003906,4.835289478302002,French Restaurant
154,45.762869535333806,4.8345318325420665,22,10,5016dc86e4b035d9f5b934ec,Pizzas Artisanales,45.762977600097656,4.834304332733154,Italian Restaurant
155,45.762869535333806,4.8345318325420665,22,11,4c6e365d10faa1431732f068,Chez Sylvie,45.76300600448092,4.834952224613896,Lyonese Bouchon
156,45.762869535333806,4.8345318325420665,22,12,571a760b498e465e2f16781d,L'Episens,45.76318559359292,4.8353126814898815,French Restaurant
157,45.762869535333806,4.8345318325420665,22,13,4d88ac4026a36ea8584ad0ad,Table d'hôte,45.762157,4.834493,French Restaurant
158,45.762869535333806,4.8345318325420665,22,14,4bdaae3d63c5c9b6c29a2468,Saint-tropez,45.762488,4.835228,French Restaurant
159,45.762869535333806,4.8345318325420665,22,15,4e063e2862e100e581685dc9,Le Palais Des Saveurs,45.76340804526129,4.834878807349099,French Restaurant
160,45.762869535333806,4.8345318325420665,22,16,521fac1a11d2af02816cf271,Au Grand Mechant Loup,45.762896,4.835296,French Restaurant
161,45.762869535333806,4.8345318325420665,22,17,5ba23ce0c53093002c17d010,Lion et Poisson,45.762637,4.835025,Chinese Restaurant
162,45.762869535333806,4.8345318325420665,22,18,4e1c942562e147e54f53dcd7,Flam's,45.76290489763291,4.833541992440206,German Restaurant
163,45.762869535333806,4.8345318325420665,22,19,4b86e76df964a52009a531e3,Le Cinq,45.76297,4.833368,French Restaurant
164,45.762869535333806,4.8345318325420665,22,20,514cc966e4b0e4f73b3f6256,"Au bon beurre, Croix Rousse, lyon",45.76324977172409,4.834498667880151,Moroccan Restaurant
165,45.762869535333806,4.8345318325420665,22,21,5083128de4b0ac00f5e7dad1,ramenshop,45.76297394532071,4.835271621876718,Asian Restaurant
166,45.7662609293324,4.829703001582534,8,0,568fa25a498ea01b8760218f,Ramen Djizan,45.767154,4.829782,Ramen Restaurant
167,45.7662609293324,4.829703001582534,8,1,54df9983498e80dff144e891,Djizan 慈山,45.766773161046636,4.829894534458594,Japanese Restaurant
168,45.7662609293324,4.829703001582534,8,2,52acaf9911d225e83886b4e6,Asian Like,45.766018,4.829234,Asian Restaurant
169,45.7662609293324,4.829703001582534,8,3,5e37236402255c000875ce23,Restaurant Le Goût De Kyun,45.766837,4.830642,Korean Restaurant
170,45.7662609293324,4.829703001582534,8,4,4d85e5dde83fa143dd1184a1,Bondit,45.765847,4.829109,French Restaurant
171,45.7662609293324,4.829703001582534,8,5,4bdc78212a3a0f4743fbb2b6,Sushi Ly,45.76587,4.830801,Sushi Restaurant
172,45.7662609293324,4.829703001582534,8,6,57064a41498ebe0d561b54f5,Nambo,45.766216270176336,4.8294598556372605,Asian Restaurant
173,45.7662609293324,4.829703001582534,8,7,4be9316088ed2d7f30a9cc1d,Les Gones,45.76580315421112,4.830783588137245,French Restaurant
174,45.767391393998594,4.828093326025618,7,0,4b881b42f964a52046e031e3,Le Potager des Halles,45.76821698959789,4.828433630526526,French Restaurant
175,45.767391393998594,4.828093326025618,7,1,4c36095f0a71c9b6926d3cc9,Le Bistrot du Potager,45.76818357293449,4.828389534651595,Tapas Restaurant
176,45.767391393998594,4.828093326025618,7,2,5b2ad414947c0500398bf08d,L'éclat,45.768126,4.82833,French Restaurant
177,45.767391393998594,4.828093326025618,7,3,52d2965c11d2c8bfdc0ffb36,Atelier d'Ainay,45.76724426193655,4.828529131037323,French Restaurant
178,45.767391393998594,4.828093326025618,7,4,53482c43498e6b8d79bd9841,L'Émir,45.768084,4.82734,Moroccan Restaurant
179,45.767391393998594,4.828093326025618,7,5,5d77eab309608a0007168ad8,Tacosland,45.76702,4.8275366,Taco Place
180,45.767391393998594,4.828093326025618,7,6,515c2464e4b0b02937794d88,Bistrot Jul,45.76725781378383,4.828184240270468,French Restaurant
181,45.7651304646662,4.828093326025618,19,0,5d546e68923bf40008b5257d,Le Cambodia,45.764564,4.827906,Cambodian Restaurant
182,45.7651304646662,4.828093326025618,19,1,5080ac0ce4b0fedebcaa7d75,The Place To Be,45.764896,4.827498,French Restaurant
183,45.7651304646662,4.828093326025618,19,2,4e345194b0fb59390e92ae45,Les Fines Gueules,45.76496478160196,4.828088696593981,Lyonese Bouchon
184,45.7651304646662,4.828093326025618,19,3,5f04c86f7058bb4056f7e983,Le Comptoir Texan,45.764548,4.82796,Mexican Restaurant
185,45.7651304646662,4.828093326025618,19,4,51116958e4b06ac886430e78,Digor,45.764820022396734,4.828198814972361,Turkish Restaurant
186,45.7651304646662,4.828093326025618,19,5,4de26798ae60e7f3abee0c32,La Grange de Saint Jean,45.76453627155949,4.828432402439013,French Restaurant
187,45.7651304646662,4.828093326025618,19,6,4d97117db188721eb0a60537,Chez Louise,45.76449354626768,4.828254861109336,French Restaurant
188,45.7651304646662,4.828093326025618,19,7,4cdf061641ed224b62cadc3c,Setha,45.76462301372678,4.828747022078035,Chinese Restaurant
189,45.7651304646662,4.828093326025618,19,8,52fbbd66498e5fb38bf8b936,Taco Taco,45.7658,4.82734,Mexican Restaurant
190,45.7651304646662,4.828093326025618,19,9,4bf0166a24f19c745b2df983,Notre Maison,45.764563058969486,4.827801267376407,French Restaurant
191,45.7651304646662,4.828093326025618,19,10,4fe604d2e4b05d1edbfb5c67,Le Royal Indien,45.765161745436906,4.828176234263226,Indian Restaurant
192,45.7651304646662,4.828093326025618,19,11,4fbd2ba2e4b0ef3c2e692dc9,Sainte Russie,45.76503654313609,4.827352102192844,Eastern European Restaurant
193,45.7651304646662,4.828093326025618,19,12,4b649ab8f964a52071c12ae3,Lal Quila,45.765585,4.827985,Indian Restaurant
194,45.7651304646662,4.828093326025618,19,13,5a76fc156c08d1341191b9ae,Le Petit Sorcier,45.76433,4.8280253,French Restaurant
195,45.7651304646662,4.828093326025618,19,14,5b8aafc197cf5a002c99d683,Maison Popeille,45.764595,4.8285437,Lyonese Bouchon
196,45.7651304646662,4.828093326025618,19,15,4fef71f2e4b072533feca3f5,Madras Tandoori,45.765366,4.82802,Indian Restaurant
197,45.7651304646662,4.828093326025618,19,16,4e861652b8f76b83a7fc2d66,Le Boucan Canot,45.764526338183046,4.827843598471052,Cajun / Creole Restaurant
198,45.7651304646662,4.828093326025618,19,17,4f785c00e4b04210839bec22,Rawal Tandoori,45.76468556285564,4.828210491056437,Indian Restaurant
199,45.7651304646662,4.828093326025618,19,18,4e280d372271752a45902159,Les Lyonnais Bouchon,45.76457395910005,4.828446220501122,Lyonese Bouchon
200,45.767391393998594,4.831312677139451,18,0,511689fde4b0f0411f3ddd02,Yaafa,45.76747141526251,4.831746690120228,Falafel Restaurant
201,45.767391393998594,4.831312677139451,18,1,55f47205498e7cc71af97a2f,La Bijouterie,45.768036117393045,4.830747253632454,French Restaurant
202,45.767391393998594,4.831312677139451,18,2,5c92a669088158002b5fd3c0,Hape,45.767866,4.830721,French Restaurant
203,45.767391393998594,4.831312677139451,18,3,4c167ac35e88c9287f332466,Chouette! Un tonneau!,45.767507993890405,4.8317742347717285,French Restaurant
204,45.767391393998594,4.831312677139451,18,4,537f369b498e10c894807fbe,Komé,45.76718521118164,4.831728458404541,Japanese Restaurant
205,45.767391393998594,4.831312677139451,18,5,5a4e978508815849b1a1c233,Retaurant İstanbul,45.766747,4.8310137,Doner Restaurant
206,45.767391393998594,4.831312677139451,18,6,4fb6b9f3e4b03f8836927484,Le Beguin,45.767765,4.830887,Tapas Restaurant
207,45.767391393998594,4.831312677139451,18,7,58b95a00ce66aa16e710e238,Cousbox,45.767568,4.832002,Middle Eastern Restaurant
208,45.767391393998594,4.831312677139451,18,8,4ea945eccc217c087e174a6d,Doma,45.76673855869109,4.831805798673847,Japanese Restaurant
209,45.767391393998594,4.831312677139451,18,9,558133d6498ea927268e79e1,L'Attrape-Coeurs,45.767634470544245,4.8309203512886,French Restaurant
210,45.767391393998594,4.831312677139451,18,10,4bec5941976ac92858e1600b,Letrezet3,45.767944,4.83072,French Restaurant
211,45.767391393998594,4.831312677139451,18,11,5e37236402255c000875ce23,Restaurant Le Goût De Kyun,45.766837,4.830642,Korean Restaurant
212,45.767391393998594,4.831312677139451,18,12,4cd05ad17b685481600bc1f8,Le Cabaretier,45.767013,4.830927,French Restaurant
213,45.767391393998594,4.831312677139451,18,13,5603d66d498ed38532c81a21,Rainbow d'Asie,45.76806349231213,4.831307263896195,Asian Restaurant
214,45.767391393998594,4.831312677139451,18,14,50eeacd0e4b0e2ef7cbeebc7,Les Delices De Kim,45.766641,4.831161,Asian Restaurant
215,45.767391393998594,4.831312677139451,18,15,4e7f8f8bb8f76e28c2d86add,Le Ksar,45.767488,4.830233,Moroccan Restaurant
216,45.767391393998594,4.831312677139451,18,16,4fc8e6726b747e2e10f476cc,Coté Sud,45.76806930087248,4.83073353767395,French Restaurant
217,45.767391393998594,4.831312677139451,18,17,4bc44ca34cdfc9b66d679821,Best Bagels Company,45.76764166641097,4.831620558667596,Bagel Shop
218,45.7651304646662,4.831312677139451,7,0,4be7f742947820a18f46b4db,Riviere Kwaï,45.765023534332464,4.832312528908809,Thai Restaurant
219,45.7651304646662,4.831312677139451,7,1,503530afe4b0ec35e732d56b,Makoto,45.765006,4.832367,Japanese Restaurant
220,45.7651304646662,4.831312677139451,7,2,5555c5e3498eba1d9280ee09,Prairial,45.76485526365827,4.832279911952429,French Restaurant
221,45.7651304646662,4.831312677139451,7,3,56bf8f29cd10d8d45cfd83dd,Le Casse Museau,45.765507,4.8324633,French Restaurant
222,45.7651304646662,4.831312677139451,7,4,55cfab39498ed792648022dc,Pivoine,45.76444714310495,4.8314763472167295,Asian Restaurant
223,45.7651304646662,4.831312677139451,7,5,4bdc78212a3a0f4743fbb2b6,Sushi Ly,45.76587,4.830801,Sushi Restaurant
224,45.7651304646662,4.831312677139451,7,6,4be9316088ed2d7f30a9cc1d,Les Gones,45.76580315421112,4.830783588137245,French Restaurant
225,45.7662609293324,4.836141442861911,31,0,5e0b4172dfbd920008f12fa3,Les Flaconneurs Bistro,45.766779,4.837133,French Restaurant
226,45.7662609293324,4.836141442861911,31,1,5f400e1d24b6ac29b3691bf0,Bouchon Bât-d’Argent,45.766161,4.837061,French Restaurant
227,45.7662609293324,4.836141442861911,31,2,5db147c03a03fc00086d77cd,"Focaccia, I Sapori Italiani",45.766705,4.8359423,Italian Restaurant
228,45.7662609293324,4.836141442861911,31,3,4c571d8a6418a59378a27e0e,Pizzeria Carlino,45.76659949751269,4.835879751956537,Italian Restaurant
229,45.7662609293324,4.836141442861911,31,4,5102d701e4b0275f68a6b3e5,Le Platinium,45.76571966889297,4.8356657374966545,Nightclub
230,45.7662609293324,4.836141442861911,31,5,5ae78444fd16bb002c957ac0,Xiao Chi,45.767056,4.836457,Chinese Restaurant
231,45.7662609293324,4.836141442861911,31,6,4c237fd011de20a1997e86ce,Croissanterie,45.7666136442011,4.835995135638493,French Restaurant
232,45.7662609293324,4.836141442861911,31,7,4bcded7cfb84c9b668db223e,Le Garet,45.766902755486576,4.836779721964944,French Restaurant
233,45.7662609293324,4.836141442861911,31,8,4c795ccf97028cfadfd2dafe,El Porron,45.766941,4.836326,Tapas Restaurant
234,45.7662609293324,4.836141442861911,31,9,4dc991617d8b48df4c952d37,Chez Georges,45.766947,4.836824,French Restaurant
235,45.7662609293324,4.836141442861911,31,10,53d784a7498eb348d500ba01,Au Petit Bouchon « Chez Georges »,45.766918994524524,4.83676200742611,Lyonese Bouchon
236,45.7662609293324,4.836141442861911,31,11,5901cbee0f013c762597f991,Sans-Titre,45.766994,4.835403,French Restaurant
237,45.7662609293324,4.836141442861911,31,12,50db59e2e4b0795456618020,L'Opéra Bouffe,45.76712417602539,4.836472988128662,Italian Restaurant
238,45.7662609293324,4.836141442861911,31,13,5ce94024f0b490002c84d723,A Cantina,45.766895,4.836727,Corsican Restaurant
239,45.7662609293324,4.836141442861911,31,14,58d8eb86da54ae0f56931bd3,L'allegria,45.76617,4.836912,Italian Restaurant
240,45.7662609293324,4.836141442861911,31,15,54a85296498e16f50fbfafb0,Chee is Thaï,45.766139835798846,4.837346130182572,Thai Restaurant
241,45.7662609293324,4.836141442861911,31,16,510ac701e4b042e036b98e93,Alyssaar Restaurant Syrien,45.7661389253065,4.837326840402341,Middle Eastern Restaurant
242,45.7662609293324,4.836141442861911,31,17,4cc5ecbf82388cfa9ba67835,Caro De Lyon,45.76616514765762,4.837205428774678,French Restaurant
243,45.7662609293324,4.836141442861911,31,18,4cf178dd899c6ea887d1f0c1,Les P'tits Pères,45.76689959730558,4.836642370256682,French Restaurant
244,45.7662609293324,4.836141442861911,31,19,4bd35318462cb713e329de07,Le Summertime,45.76700985431671,4.836559295654297,French Restaurant
245,45.7662609293324,4.836141442861911,31,20,50c252b1e4b0e8ae07f369cf,Hakata Ramen,45.766976,4.836777,Noodle House
246,45.7662609293324,4.836141442861911,31,21,4c84c125d4e237048b967c88,Nooï,45.76667406346484,4.836743793291236,Asian Restaurant
247,45.7662609293324,4.836141442861911,31,22,4f0b3ad7e4b0945c6dc2cbf7,Chez Bibi- Meilleur Table De Lyon,45.76652984979411,4.835213274608903,French Restaurant
248,45.7662609293324,4.836141442861911,31,23,4d8cf20c1716a143ef720cf7,L'oiseau de paradis,45.766726199999994,4.836558944444445,Chinese Restaurant
249,45.7662609293324,4.836141442861911,31,24,552f98ad498ebf4d1d5488b6,Vidici,45.76576024342141,4.8360134554211704,Italian Restaurant
250,45.7662609293324,4.836141442861911,31,25,4ba3df63f964a520d16838e3,El Sombrero,45.76700542427673,4.835614117500713,Mexican Restaurant
251,45.7662609293324,4.836141442861911,31,26,5c0285ebe4c459002cef5e8d,Bon Retour,45.765663,4.83648,Asian Restaurant
252,45.7662609293324,4.836141442861911,31,27,4cf3fef51c158cfa7000e1b5,La Mamounia,45.766137,4.836764,Moroccan Restaurant
253,45.7662609293324,4.836141442861911,31,28,55e1fba5498ebe4563220510,Hua Yuan Xuan,45.7658580426246,4.836619072201137,Cantonese Restaurant
254,45.7662609293324,4.836141442861911,31,29,5e5814998605750008e83aeb,Italian Trattoria,45.76581,4.8361645,Italian Restaurant
255,45.7662609293324,4.836141442861911,31,30,4beb032aa9900f4755411740,Chez Hugon,45.766918,4.83539,Lyonese Bouchon
256,45.767391393998594,4.834531767304995,12,0,513cffeae4b0b7f3e61e1586,Les Pampres Rouges,45.767585,4.83572,French Restaurant
257,45.767391393998594,4.834531767304995,12,1,5901cbee0f013c762597f991,Sans-Titre,45.766994,4.835403,French Restaurant
258,45.767391393998594,4.834531767304995,12,2,4f23f789e4b0617643c8a284,Restaurant l'Étage,45.76771754915779,4.833512306213379,French Restaurant
259,45.767391393998594,4.834531767304995,12,3,4f53afe7e4b0c41605c482c0,Le Squale,45.76792860433266,4.835486689792761,Sandwich Place
260,45.767391393998594,4.834531767304995,12,4,51f19a6a498ea41e70d57c5c,Restaurant Campagne,45.767437,4.833832,French Restaurant
261,45.767391393998594,4.834531767304995,12,5,5a181193bb8d36403815608e,Diwan,45.767963,4.835409,Middle Eastern Restaurant
262,45.767391393998594,4.834531767304995,12,6,5414b15f498eadffcb79f983,Casa Lola,45.76697029702631,4.835219701115717,Spanish Restaurant
263,45.767391393998594,4.834531767304995,12,7,4ba3df63f964a520d16838e3,El Sombrero,45.76700542427673,4.835614117500713,Mexican Restaurant
264,45.767391393998594,4.834531767304995,12,8,4bccb674511f95213081b3c7,Le Marmaris,45.767779521474566,4.834843152031116,Middle Eastern Restaurant
265,45.767391393998594,4.834531767304995,12,9,4bb62e512f70c9b64a018530,Les Terrasses Saint Pierre,45.76678631899665,4.833751064107983,Tea Room
266,45.767391393998594,4.834531767304995,12,10,4beb032aa9900f4755411740,Chez Hugon,45.766918,4.83539,Lyonese Bouchon
267,45.767391393998594,4.834531767304995,12,11,519e5f64498ec4c04f16ad28,Chicken House,45.767871427395804,4.834866283772291,Fast Food Restaurant
268,45.7651304646662,4.834531767304995,18,0,4d7fbe65564b8cfafdaa0b65,Le Musée,45.76470420119588,4.834464066051043,Lyonese Bouchon
269,45.7651304646662,4.834531767304995,18,1,55d4e388498ee25b69e9f1c0,Carnet Gourmand,45.76501443242975,4.835066835009671,Chinese Restaurant
270,45.7651304646662,4.834531767304995,18,2,5e5ab46030aaeb0008ae9063,Caramelo,45.765309,4.834987,Italian Restaurant
271,45.7651304646662,4.834531767304995,18,3,4bf6d2964a67c928b17922cf,La Meunière,45.76522562396956,4.835338352456442,French Restaurant
272,45.7651304646662,4.834531767304995,18,4,50dc8bfbe4b0658279323044,La Hugonnière,45.765204,4.835359,Lyonese Bouchon
273,45.7651304646662,4.834531767304995,18,5,508043cce4b06f332ea5999c,Goramen,45.76521877391016,4.8351152114919005,Japanese Restaurant
274,45.7651304646662,4.834531767304995,18,6,4bb7aac3314e9521cc7f479d,Le Nord,45.765251585012514,4.835607299260351,French Restaurant
275,45.7651304646662,4.834531767304995,18,7,532217bd498ec5ca31dcf33e,Autour d'Un Verre,45.7654464358083,4.833770645901549,Wine Bar
276,45.7651304646662,4.834531767304995,18,8,4ba13c0df964a52095a437e3,Matsuri Lyon Presqu'ile,45.76497455810287,4.833834171295166,Japanese Restaurant
277,45.7651304646662,4.834531767304995,18,9,51b37d23498e77488e3d9df3,Carnet de Voyage,45.765671218551205,4.8343449118198905,Chinese Restaurant
278,45.7651304646662,4.834531767304995,18,10,5bd311da446ea6003af423d8,Restaurant Du Musée,45.764589,4.834569,Lyonese Bouchon
279,45.7651304646662,4.834531767304995,18,11,56bf7f34cd107cc8bda03d92,La Table Pierrade,45.765209,4.83507,French Restaurant
280,45.7651304646662,4.834531767304995,18,12,50d4ce68e4b0487c2b0f8ea4,Le Mamma,45.76554,4.833489,Italian Restaurant
281,45.7651304646662,4.834531767304995,18,13,4f3971f8e4b08dd06b72b691,Cocoo,45.765687174327866,4.834816011732977,Thai Restaurant
282,45.7651304646662,4.834531767304995,18,14,4ff6c821e4b055f896e3bc64,Augusto,45.765211857372286,4.834895909012961,Italian Restaurant
283,45.7651304646662,4.834531767304995,18,15,4fd1d8e9e4b04e713c9c491c,lemon twist,45.76521095205187,4.834973416873194,French Restaurant
284,45.7651304646662,4.834531767304995,18,16,4bd189ca046076b094ef7171,L'Harmonie Des Vins,45.76522072174475,4.835114383471507,French Restaurant
285,45.7651304646662,4.834531767304995,18,17,5e49319eeebce700089e0ee0,Trattoria Carmelo,45.765219,4.834878,Italian Restaurant
286,45.767391393998594,4.8377511184188275,15,0,5cc354b5ed293a002b485d1d,La Grenade,45.767025,4.836862,Mediterranean Restaurant
287,45.767391393998594,4.8377511184188275,15,1,5e0b4172dfbd920008f12fa3,Les Flaconneurs Bistro,45.766779,4.837133,French Restaurant
288,45.767391393998594,4.8377511184188275,15,2,5ca48a650802d4002cfc6e2b,Carlita,45.768024,4.837522,Italian Restaurant
289,45.767391393998594,4.8377511184188275,15,3,58c9323afa7ed00b0804bc13,Le Taj Indien,45.766827,4.837399,Indian Restaurant
290,45.767391393998594,4.8377511184188275,15,4,4bcded7cfb84c9b668db223e,Le Garet,45.766902755486576,4.836779721964944,French Restaurant
291,45.767391393998594,4.8377511184188275,15,5,4dc991617d8b48df4c952d37,Chez Georges,45.766947,4.836824,French Restaurant
292,45.767391393998594,4.8377511184188275,15,6,53d784a7498eb348d500ba01,Au Petit Bouchon « Chez Georges »,45.766918994524524,4.83676200742611,Lyonese Bouchon
293,45.767391393998594,4.8377511184188275,15,7,5a232580c0f1633417e55369,Delicatessen,45.766642,4.837319,American Restaurant
294,45.767391393998594,4.8377511184188275,15,8,5ce94024f0b490002c84d723,A Cantina,45.766895,4.836727,Corsican Restaurant
295,45.767391393998594,4.8377511184188275,15,9,5a739f2cda5ede14bb172042,Le Clerclr Rouge,45.766741,4.837389,French Restaurant
296,45.767391393998594,4.8377511184188275,15,10,50c252b1e4b0e8ae07f369cf,Hakata Ramen,45.766976,4.836777,Noodle House
297,45.767391393998594,4.8377511184188275,15,11,55e207fd498eea3f062a2896,Bon Voyage,45.767478942871094,4.837911605834961,Chinese Restaurant
298,45.767391393998594,4.8377511184188275,15,12,4f1daed3e4b01d7c60e94ba3,Les Fils à Maman,45.76674892227487,4.837260690092196,French Restaurant
299,45.767391393998594,4.8377511184188275,15,13,58ca9af15da8f41cc93abfad,Café Arsène,45.767039,4.83688,French Restaurant
300,45.767391393998594,4.8377511184188275,15,14,4d1348e037f1236aab14801b,Les Jardins De Veronne,45.767932,4.838524,French Restaurant
301,45.7651304646662,4.8377511184188275,5,0,56027a97498ec7fbc491e838,Le Bouchon des Cordeliers,45.764309614627905,4.837581425139053,Lyonese Bouchon
302,45.7651304646662,4.8377511184188275,5,1,528a72cd11d2bcbf86318b76,Le Caro De Lyon,45.76498308519234,4.836685773413574,French Restaurant
303,45.7651304646662,4.8377511184188275,5,2,4cf913e03875b1f7275e973c,Le Jean Moulin,45.76531150120035,4.838233716075376,French Restaurant
304,45.7651304646662,4.8377511184188275,5,3,4b7f0aa5f964a520451230e3,Le Karma,45.76476284855247,4.836821836529675,Lounge
305,45.7651304646662,4.8377511184188275,5,4,4bf4255598ac0f4738a563a8,Le Bouche à Oreille,45.764545,4.837595,French Restaurant
306,45.7662609293324,4.857480779360312,4,0,4ca22ffff832a1cdd7f792e5,6eme Sens,45.76540851833233,4.857076495591879,French Restaurant
307,45.7662609293324,4.857480779360312,4,1,5911ae1a8134886a0fe4c164,Brasserie Jullien,45.766198,4.856898,Brasserie
308,45.7662609293324,4.857480779360312,4,2,4ea7e6a1e5fa472d645c3414,Japon Tori,45.76615713988966,4.857526995427975,Japanese Restaurant
309,45.7662609293324,4.857480779360312,4,3,4b697650f964a5204ba32be3,Les Intimes,45.76660316961736,4.857049628858695,French Restaurant
310,45.767391393998594,4.855871103803396,26,0,5b9c091d5455b20039b1849e,Kaffee Berlin,45.767123,4.857099,Burger Joint
311,45.767391393998594,4.855871103803396,26,1,5dcfe0310f68190007da92bd,Ogam Restaurant Coréen,45.768022,4.855589,Korean Restaurant
312,45.767391393998594,4.855871103803396,26,2,4c7b8e2876ce9c7450e4b70c,Planet Sushi,45.767096371945485,4.856759523394262,Sushi Restaurant
313,45.767391393998594,4.855871103803396,26,3,560a673c498e4e43bb4b7860,l'Argot,45.76712865881095,4.8562669935733505,French Restaurant
314,45.767391393998594,4.855871103803396,26,4,55781432498e73508ac15590,Il Fico,45.76805652699404,4.855501290801434,Italian Restaurant
315,45.767391393998594,4.855871103803396,26,5,4e70ec8d2271c7e78c02cc5c,Le Palais D'or,45.768058,4.855419,Chinese Restaurant
316,45.767391393998594,4.855871103803396,26,6,5a390fc3a423620be3311f22,La Casa Vito,45.767188,4.856247,Italian Restaurant
317,45.767391393998594,4.855871103803396,26,7,5a09f2979411f223d80c5570,Mika Sushi,45.767818,4.855043,Sushi Restaurant
318,45.767391393998594,4.855871103803396,26,8,57ffdadbd67c1565b8f8b912,LA GAZETTA,45.7676564,4.856660499999999,Italian Restaurant
319,45.767391393998594,4.855871103803396,26,9,5d5dbd330ecbb100086b8727,Toda,45.7676,4.855,Israeli Restaurant
320,45.767391393998594,4.855871103803396,26,10,4c9922d878ffa093594b6175,Maison Clovis,45.76782067937151,4.856862356903641,French Restaurant
321,45.767391393998594,4.855871103803396,26,11,5b86df65b77c77002c3a19d7,La Mère Titi,45.767765,4.8554826,French Restaurant
322,45.767391393998594,4.855871103803396,26,12,5b86ec92666116002c3304c9,La Mère Titi,45.767944,4.855421,French Restaurant
323,45.767391393998594,4.855871103803396,26,13,56a2231f498ef61d4a057f88,Le Napolitain,45.76675957579468,4.8557209968566895,Italian Restaurant
324,45.767391393998594,4.855871103803396,26,14,589e0e8637318129d1142f2e,Casa Jaguar,45.767788,4.85619,Latin American Restaurant
325,45.767391393998594,4.855871103803396,26,15,4bf2d8bde5eba59318e01d90,Yzumi,45.7667469849438,4.855768424375899,Japanese Restaurant
326,45.767391393998594,4.855871103803396,26,16,560bfa5b498e2e2181441f54,Le Blind Pig,45.767388761101266,4.855692734645002,Speakeasy
327,45.767391393998594,4.855871103803396,26,17,4c9dd7292fb1a143e537e440,Sushido,45.767872915164936,4.856009117490585,Sushi Restaurant
328,45.767391393998594,4.855871103803396,26,18,5b9968d8bed483002c9f74b8,Tanuki Café Comptoire,45.76689,4.855853,Japanese Restaurant
329,45.767391393998594,4.855871103803396,26,19,4bcf4bd5bc13ef3b02fb7c0a,L'horloge,45.7673264844461,4.856903515349809,French Restaurant
330,45.767391393998594,4.855871103803396,26,20,57693955cd105c894e66ed9d,Thai Harmonie,45.76785600488467,4.855254292488098,Asian Restaurant
331,45.767391393998594,4.855871103803396,26,21,53b5b489498efbd69a865a4f,Millonga,45.76735,4.855623,Argentinian Restaurant
332,45.767391393998594,4.855871103803396,26,22,4b852125f964a520324d31e3,Le Dragon Celeste,45.76721249464425,4.856826609255129,Vietnamese Restaurant
333,45.767391393998594,4.855871103803396,26,23,4e8227b82c5b3f1bb678dd5e,Taj Mahal,45.768135134128855,4.8559044460196805,Indian Restaurant
334,45.767391393998594,4.855871103803396,26,24,4c24efbdf7ced13a91ac236d,Le Comptoir du Ney,45.7671044776578,4.8557030568336845,French Restaurant
335,45.767391393998594,4.855871103803396,26,25,53936141498e57e1568067b5,Le Neuvième Art,45.767899,4.856371,French Restaurant
336,45.7651304646662,4.855871103803396,7,0,4ca22ffff832a1cdd7f792e5,6eme Sens,45.76540851833233,4.857076495591879,French Restaurant
337,45.7651304646662,4.855871103803396,7,1,57e58c8e498e88140a8398e7,kuma isakaya,45.765678,4.854948,Udon Restaurant
338,45.7651304646662,4.855871103803396,7,2,52c60b25498e76307b04277f,Fringale et Pépie,45.7657178,4.8549292,French Restaurant
339,45.7651304646662,4.855871103803396,7,3,5cf7a16160255e002c5b6097,O'Hasard,45.765076,4.8569527,Brasserie
340,45.7651304646662,4.855871103803396,7,4,54b42b72498e2617e243202c,kuma,45.765588404504506,4.854926646956848,Japanese Restaurant
341,45.7651304646662,4.855871103803396,7,5,553fd223498edf5cec1134d0,Pavot Rouge,45.765945505525764,4.855574222315919,Asian Restaurant
342,45.7651304646662,4.855871103803396,7,6,4fdce946e4b0ec5a8f0b80a6,japontori,45.76456081508147,4.856136808266713,Japanese Restaurant
343,45.767391393998594,4.8590904549172285,7,0,4ba26e6bf964a52069f837e3,L'Est,45.76753235437938,4.85927130377885,French Restaurant
344,45.767391393998594,4.8590904549172285,7,1,4c08d3307e3fc928c2dff082,Le Boudoir,45.766756788047026,4.859416040809096,French Restaurant
345,45.767391393998594,4.8590904549172285,7,2,4b6b04f5f964a520feec2be3,La Louve Romaine,45.768039,4.859175,Italian Restaurant
346,45.767391393998594,4.8590904549172285,7,3,4b6c16abf964a5203d232ce3,Le Splendid,45.767200752888975,4.858938413078629,French Restaurant
347,45.767391393998594,4.8590904549172285,7,4,4dfb2250ae60c9cdd388ab11,Studio 6,45.76748,4.857941,French Restaurant
348,45.767391393998594,4.8590904549172285,7,5,4e0a1e0c1838eb15af14c40b,Le Bouchon Des Antiquaires,45.767829,4.859334,Lyonese Bouchon
349,45.767391393998594,4.8590904549172285,7,6,4bb0f045f964a520116c3ce3,Brasserie des Brotteaux,45.768038166710824,4.859010146398809,French Restaurant
