,lat_centre,long_centre,num_venues,venue_iter,venue_id,venue_name,lat_venue,long_venue,category
0,52.2249380952381,21.005381818181817,19,0,58ff9dd3b9ac3810e95fdbe2,Bar Pacyfik,52.224702860142195,21.00750141973859,Mexican Restaurant
1,52.2249380952381,21.005381818181817,19,1,5c928445d176e90025d96b97,Pam Pam,52.224032,21.007909,Modern European Restaurant
2,52.2249380952381,21.005381818181817,19,2,541dbe49498e5719ff9d20c2,Flambéeria,52.22451757403526,21.007544882807192,Bistro
3,52.2249380952381,21.005381818181817,19,3,5c28e871f5e9d7002cd92132,Polana Smaków by Andrzej Polan,52.224292,21.00779,Polish Restaurant
4,52.2249380952381,21.005381818181817,19,4,598c3d920a464d2c76acc42e,Peko Peko,52.22408,21.007882,Japanese Curry Restaurant
5,52.2249380952381,21.005381818181817,19,5,57135aad498e6940a4320ed8,TuleŻUR,52.22430339848165,21.00779285418394,French Restaurant
6,52.2249380952381,21.005381818181817,19,6,4c4878ef96abd13a2f707401,Hung Vuong,52.223469,21.008135,Asian Restaurant
7,52.2249380952381,21.005381818181817,19,7,5374a4a7498ebf1a4f457bff,BentoYa Oriental Noodle Bar,52.224071,21.007994,Asian Restaurant
8,52.2249380952381,21.005381818181817,19,8,5e1e2094f0fb390007b55439,Chwast Polski,52.223716,21.008241,Polish Restaurant
9,52.2249380952381,21.005381818181817,19,9,50fe8f95e4b0117440e0e7f6,Kebab U Premiera,52.22322349394152,21.004829952669173,Turkish Restaurant
10,52.2249380952381,21.005381818181817,19,10,4e12fac47d8b4d5613e7e0af,Yummy Bar,52.224824,21.008007,Thai Restaurant
11,52.2249380952381,21.005381818181817,19,11,5a3164afc530935f3739def4,Warszawska Riviera,52.224221,21.007634,Mediterranean Restaurant
12,52.2249380952381,21.005381818181817,19,12,517e30e0498e3621629e2206,Stołówka Gim 43,52.226679,21.004676,Afghan Restaurant
13,52.2249380952381,21.005381818181817,19,13,5437e786498e0d9838ada9d3,Parowóz,52.22499261930593,21.007325341627958,Dim Sum Restaurant
14,52.2249380952381,21.005381818181817,19,14,5c6bec744a7aae002cf99d97,Chulo,52.224787,21.007676,Asian Restaurant
15,52.2249380952381,21.005381818181817,19,15,54b40d53498e9f30247fdecf,Dekagram,52.2237592654174,21.00803453595135,Polish Restaurant
16,52.2249380952381,21.005381818181817,19,16,50632307e4b03f3ec3eaa79b,Oishii Sushi,52.22367982195539,21.0081415242553,Sushi Restaurant
17,52.2249380952381,21.005381818181817,19,17,4c039d549a7920a14c17d079,Katmandu,52.22614578388744,21.008356192861594,Indian Restaurant
18,52.2249380952381,21.005381818181817,19,18,50e6f5ede4b0f34597c6cb6c,india express,52.223647,21.007809,Indian Restaurant
19,52.227199024570496,21.001715619525907,18,0,568bc28f498ea54f142e46c4,Fresh Pasta Point,52.227784,21.002444,Italian Restaurant
20,52.227199024570496,21.001715619525907,18,1,4cd3f13decc3a09372ee9c93,Chinatown,52.2272951635449,20.99981198068473,Chinese Restaurant
21,52.227199024570496,21.001715619525907,18,2,5458f084498eb3c5732a5e8f,Mr. Chilly,52.22718262259673,21.001528455036475,Mexican Restaurant
22,52.227199024570496,21.001715619525907,18,3,4b97c053f964a5205f1335e3,Doppiozero,52.22892014273775,21.00368332081886,Italian Restaurant
23,52.227199024570496,21.001715619525907,18,4,4b952471f964a520319134e3,Wook,52.227702414663554,21.002870022499575,Chinese Restaurant
24,52.227199024570496,21.001715619525907,18,5,5257e666498e347f188a8ef7,oxford tower 18th floor kitchen,52.22722039769347,21.001967462679247,Turkish Restaurant
25,52.227199024570496,21.001715619525907,18,6,517e30e0498e3621629e2206,Stołówka Gim 43,52.226679,21.004676,Afghan Restaurant
26,52.227199024570496,21.001715619525907,18,7,52df9079498e70d7483474f1,wars cafe express,52.22827180322357,21.003063780049768,Afghan Restaurant
27,52.227199024570496,21.001715619525907,18,8,567aa8fd498e6b5bdcdb1ea3,SushiMe,52.227736,21.002404,Sushi Restaurant
28,52.227199024570496,21.001715619525907,18,9,5253e8fc498eed5af7b93271,Bar chiński PANDA,52.228834,21.001753,Chinese Restaurant
29,52.227199024570496,21.001715619525907,18,10,50b39fd7e4b01f7c25c0c3f4,Asia Hung,52.22760549637772,21.001602494202114,Asian Restaurant
30,52.227199024570496,21.001715619525907,18,11,57238768498ee54133c94e4b,FRESH&ROLL,52.228232,21.004005,Sushi Restaurant
31,52.227199024570496,21.001715619525907,18,12,5df98cc2a5a5110008d21cf0,Floor No 2 Restaurant,52.227322413518976,21.003971050262408,Breakfast Spot
32,52.227199024570496,21.001715619525907,18,13,57851228498e9de90e7b8148,Ok Salad,52.229151,21.00126,Italian Restaurant
33,52.227199024570496,21.001715619525907,18,14,56ab6c39498ed199113fb0eb,Makarun,52.22907026402488,21.001418110103263,Italian Restaurant
34,52.227199024570496,21.001715619525907,18,15,4d3f2d5bd625224b16a3a9fa,Parmizzano's,52.22726334852015,21.0052100290479,Italian Restaurant
35,52.227199024570496,21.001715619525907,18,16,5841a7b9ca107064b1598a03,Dai Piadineria,52.229107,21.001484,Italian Restaurant
36,52.227199024570496,21.001715619525907,18,17,5f73301b86a6aa1b1d07195a,India Gate,52.226876,20.999953,Indian Restaurant
37,52.22267716590571,21.001715619525907,3,0,554f6897498e808018f77bc0,teoja stara bar,52.22315570979054,21.002204346928366,Italian Restaurant
38,52.22267716590571,21.001715619525907,3,1,50fe8f95e4b0117440e0e7f6,Kebab U Premiera,52.22322349394152,21.004829952669173,Turkish Restaurant
39,52.22267716590571,21.001715619525907,3,2,4fd72918e4b07220ec3484f1,Sezam (Bar w IMM),52.22210799193546,21.000452041625973,Eastern European Restaurant
40,52.227199024570496,21.009048016837728,35,0,56a8c14b498e4b91ea4ea08e,Youmiko Vegan Sushi,52.22547018843565,21.01059288138138,Sushi Restaurant
41,52.227199024570496,21.009048016837728,35,1,5b8557f6e1f228002c1ec4e7,Posypane,52.225487,21.011208,Italian Restaurant
42,52.227199024570496,21.009048016837728,35,2,4fda26aee4b013d81a7dd72d,Vapiano,52.228104,21.005817,Italian Restaurant
43,52.227199024570496,21.009048016837728,35,3,55353f7d498efaf6bf0bf8c7,Beef n' Pepper,52.22749529017019,21.00877447057581,American Restaurant
44,52.227199024570496,21.009048016837728,35,4,5302036011d208d8157422c7,Cud Miód,52.227531432446156,21.006377636376207,Modern European Restaurant
45,52.227199024570496,21.009048016837728,35,5,5c4231f5d3cce8002c16adad,Żebra i Kości,52.228745,21.010029,Polish Restaurant
46,52.227199024570496,21.009048016837728,35,6,4bd81ca809ecb713810d487c,Lokanta,52.22770260648275,21.008666138191895,Turkish Restaurant
47,52.227199024570496,21.009048016837728,35,7,5700187e498e794dd19ba12b,Culinaria Italiana,52.22562910776897,21.011051752029267,Italian Restaurant
48,52.227199024570496,21.009048016837728,35,8,4f6df1fae4b0c0d5394d7f3a,Zwyczajna,52.227006806660825,21.010711569620632,Eastern European Restaurant
49,52.227199024570496,21.009048016837728,35,9,4c0cd0ced64c0f4716af255d,Art Sushi,52.227530068796874,21.006710722413224,Sushi Restaurant
50,52.227199024570496,21.009048016837728,35,10,4b9c55d1f964a520816036e3,Smaki Warszawy,52.227134,21.01104,Polish Restaurant
51,52.227199024570496,21.009048016837728,35,11,51795e33e4b071f44d9ed801,Kim iPho,52.22915928214121,21.00847469008466,Asian Restaurant
52,52.227199024570496,21.009048016837728,35,12,509ad32fe4b0bd1e6715bf35,Kintaro Sushi,52.228354801793266,21.01103941181467,Sushi Restaurant
53,52.227199024570496,21.009048016837728,35,13,4bf132e86f8aa5934694c23c,Nippon-Kan,52.22743858769901,21.00868471833538,Japanese Restaurant
54,52.227199024570496,21.009048016837728,35,14,4d88a3881508a1432433fc1d,Stołówka Pracownicza TP SA,52.22787,21.009414,Eastern European Restaurant
55,52.227199024570496,21.009048016837728,35,15,4dadc504f7b1e810c136d5a3,Vietnam,52.22768709357496,21.006462401911374,Chinese Restaurant
56,52.227199024570496,21.009048016837728,35,16,5ce5870b7b4669002b1267d2,Dar Mounia,52.225749,21.011652,African Restaurant
57,52.227199024570496,21.009048016837728,35,17,50c32f1ae4b0ebaba0d32da0,日本館,52.22737783188128,21.008680238875016,Japanese Restaurant
58,52.227199024570496,21.009048016837728,35,18,5da9a119fb06640008e90a51,Pho Ever,52.225415,21.010823,Vietnamese Restaurant
59,52.227199024570496,21.009048016837728,35,19,4f58f0b2e4b0271fff66fcdd,Orient LUX,52.228381943538885,21.01113026722673,Vietnamese Restaurant
60,52.227199024570496,21.009048016837728,35,20,4d556f1ac6edf04db3b3c4a2,Trattoria Casa Mia,52.22883808894017,21.010012813729226,Italian Restaurant
61,52.227199024570496,21.009048016837728,35,21,587640c3e309e16076dc6f95,Czyli żurawia 45,52.227586,21.01159,Italian Restaurant
62,52.227199024570496,21.009048016837728,35,22,57e2b194498ed4a9a1e84a78,Lowe Restaurant,52.228597,21.010039,Modern European Restaurant
63,52.227199024570496,21.009048016837728,35,23,5051b659e4b08416d81925b0,Kebab House,52.22858470878206,21.011721568244266,Turkish Restaurant
64,52.227199024570496,21.009048016837728,35,24,4cd722daaeb1224b22222cff,Strauss,52.22926744268109,21.009961426774417,Eastern European Restaurant
65,52.227199024570496,21.009048016837728,35,25,4c12714682a3c9b6ebb6f9f8,Zaścianek,52.228781,21.010095,Eastern European Restaurant
66,52.227199024570496,21.009048016837728,35,26,4ce3bf9b05f7a09301eca128,Delizia,52.22575267783107,21.011626540999046,Italian Restaurant
67,52.227199024570496,21.009048016837728,35,27,53ad75f5498ef536312f6209,Jadalnia - Polska Kuchnia,52.227468851787215,21.00880357306091,Polish Restaurant
68,52.227199024570496,21.009048016837728,35,28,4d357c45b6093704122e15e0,Vis A Vis,52.22829950660979,21.010633422671763,Eastern European Restaurant
69,52.227199024570496,21.009048016837728,35,29,55927efe498eb0666176884d,Arirang,52.228452687808826,21.0110675224305,Korean Restaurant
70,52.227199024570496,21.009048016837728,35,30,564884b6498ed0ce6375c74a,Pho Hung Thien,52.22705119834649,21.010721775517336,Vietnamese Restaurant
71,52.227199024570496,21.009048016837728,35,31,519fc791498e25e78bd38b0b,Izakaya Izumi,52.228072,21.005714,Japanese Restaurant
72,52.227199024570496,21.009048016837728,35,32,4b9e2abdf964a520cdce36e3,Mała Gruzja,52.22844890655882,21.010885682682925,Caucasian Restaurant
73,52.227199024570496,21.009048016837728,35,33,5ad77e8a2be4255d96e34405,East Go West,52.22881,21.009985,Portuguese Restaurant
74,52.227199024570496,21.009048016837728,35,34,4c039d549a7920a14c17d079,Katmandu,52.22614578388744,21.008356192861594,Indian Restaurant
75,52.22267716590571,21.009048016837728,50,0,505ef581e4b04c6cd204f6cb,Sofra,52.2231675726889,21.008405423256793,Mediterranean Restaurant
76,52.22267716590571,21.009048016837728,50,1,570d28f2cd10a48a10fd4f14,La Sirena,52.2231,21.01214,Mexican Restaurant
77,52.22267716590571,21.009048016837728,50,2,5a9aee748a6f1737284db819,Arigator Ramen Shop,52.223087,21.012148,Ramen Restaurant
78,52.22267716590571,21.009048016837728,50,3,58ff9dd3b9ac3810e95fdbe2,Bar Pacyfik,52.224702860142195,21.00750141973859,Mexican Restaurant
79,52.22267716590571,21.009048016837728,50,4,584d1c35de0cbc4a66df2b5a,Ćma by Mateusz Gessler,52.22260778050695,21.01124967370282,Polish Restaurant
80,52.22267716590571,21.009048016837728,50,5,5f21acfcb8441e5e1c12f6be,Nobu Restaurant,52.222944,21.007353,Japanese Restaurant
81,52.22267716590571,21.009048016837728,50,6,5ee2144e867bdd1bc78bb362,Niigata Onigiri,52.22085,21.011105,Japanese Restaurant
82,52.22267716590571,21.009048016837728,50,7,583dbd6f6d632549b5b0fc06,Semolino Ristorante,52.222044163408505,21.011357967563,Italian Restaurant
83,52.22267716590571,21.009048016837728,50,8,5c928445d176e90025d96b97,Pam Pam,52.224032,21.007909,Modern European Restaurant
84,52.22267716590571,21.009048016837728,50,9,541dbe49498e5719ff9d20c2,Flambéeria,52.22451757403526,21.007544882807192,Bistro
85,52.22267716590571,21.009048016837728,50,10,583c8e2df5957266596c34e0,Tuk Tuk Thai Street Food,52.222204335263676,21.01133042670971,Thai Restaurant
86,52.22267716590571,21.009048016837728,50,11,5c28e871f5e9d7002cd92132,Polana Smaków by Andrzej Polan,52.224292,21.00779,Polish Restaurant
87,52.22267716590571,21.009048016837728,50,12,5822050e1094cb2037982db1,Sobremesa Tapas Bar,52.22232126927894,21.01085901260376,Tapas Restaurant
88,52.22267716590571,21.009048016837728,50,13,58147e3f38facd6347e48513,Bar Koszyki,52.222533584753435,21.011061079368297,Cocktail Bar
89,52.22267716590571,21.009048016837728,50,14,598c3d920a464d2c76acc42e,Peko Peko,52.22408,21.007882,Japanese Curry Restaurant
90,52.22267716590571,21.009048016837728,50,15,5813a59e38fa25270dddc400,Mango,52.22254470353955,21.01106921447129,Vegetarian / Vegan Restaurant
91,52.22267716590571,21.009048016837728,50,16,5640a70bcd10e41624419b68,WawPho,52.22140629518433,21.010153650587625,Vietnamese Restaurant
92,52.22267716590571,21.009048016837728,50,17,5f21bd0304091a243960dd86,Nobu Restaurant,52.222887,21.007477,Japanese Restaurant
93,52.22267716590571,21.009048016837728,50,18,57135aad498e6940a4320ed8,TuleŻUR,52.22430339848165,21.00779285418394,French Restaurant
94,52.22267716590571,21.009048016837728,50,19,4c4878ef96abd13a2f707401,Hung Vuong,52.223469,21.008135,Asian Restaurant
95,52.22267716590571,21.009048016837728,50,20,4bbf4a6082a2ef3b207d2cd2,"SO-AN, Susharnia",52.222817228156615,21.012301193419233,Japanese Restaurant
96,52.22267716590571,21.009048016837728,50,21,5a9a9e414a7aae5f29e1cac6,kuchnia konfliktu,52.223743,21.01001,Modern European Restaurant
97,52.22267716590571,21.009048016837728,50,22,5374a4a7498ebf1a4f457bff,BentoYa Oriental Noodle Bar,52.224071,21.007994,Asian Restaurant
98,52.22267716590571,21.009048016837728,50,23,5e1e2094f0fb390007b55439,Chwast Polski,52.223716,21.008241,Polish Restaurant
99,52.22267716590571,21.009048016837728,50,24,58d7b6352cba225607446347,Vien Dong,52.222157,21.009372,Thai Restaurant
100,52.22267716590571,21.009048016837728,50,25,589095fc9e35d33eeb3c3fbb,Bar Szawa,52.2223051667295,21.012371778488156,Bar
101,52.22267716590571,21.009048016837728,50,26,4e12fac47d8b4d5613e7e0af,Yummy Bar,52.224824,21.008007,Thai Restaurant
102,52.22267716590571,21.009048016837728,50,27,5849a781126ae87dbd831371,Gringo Bar / Salsownia,52.222577451138235,21.01119215239322,Burrito Place
103,52.22267716590571,21.009048016837728,50,28,5559d8b8498e58f3d0761283,Pate Mai,52.222771,21.009145,Asian Restaurant
104,52.22267716590571,21.009048016837728,50,29,5a3164afc530935f3739def4,Warszawska Riviera,52.224221,21.007634,Mediterranean Restaurant
105,52.22267716590571,21.009048016837728,50,30,4ff2d80fe4b04d5cf035e908,Bar Binh-minh,52.222632199773166,21.00875114258219,Chinese Restaurant
106,52.22267716590571,21.009048016837728,50,31,5394b01e498e0e408d45e6f7,pierdolnik,52.223525,21.009671,American Restaurant
107,52.22267716590571,21.009048016837728,50,32,5d13934da0b78300237d52f8,Jeff’s,52.222204,21.011075,American Restaurant
108,52.22267716590571,21.009048016837728,50,33,5c1a31fcf1fdaf0039e340bd,Albek Kebab,52.221194,21.010643,Doner Restaurant
109,52.22267716590571,21.009048016837728,50,34,5734507f498e2a1fb1b3510d,ThaiStyle,52.221093,21.010527,Thai Restaurant
110,52.22267716590571,21.009048016837728,50,35,5843085ff63c54143e3de15e,KAGO SUSHI by izumi,52.222525,21.010714,Sushi Restaurant
111,52.22267716590571,21.009048016837728,50,36,54b40d53498e9f30247fdecf,Dekagram,52.2237592654174,21.00803453595135,Polish Restaurant
112,52.22267716590571,21.009048016837728,50,37,529262a311d25aa97e3a1a16,Maurizio's Naughty Pizza,52.22317123413086,21.011964797973633,Italian Restaurant
113,52.22267716590571,21.009048016837728,50,38,52fface9498e688820f7867c,Salto,52.22316452822261,21.00841348289401,Argentinian Restaurant
114,52.22267716590571,21.009048016837728,50,39,58b0ac3ebf1a6d6f3b768de4,Heritage Shop&Wine,52.22255622829272,21.011167271250482,Italian Restaurant
115,52.22267716590571,21.009048016837728,50,40,59e7929ca3061936f1fc194f,The Indian Hut,52.22291,21.008858,Indian Restaurant
116,52.22267716590571,21.009048016837728,50,41,5217e34311d24839f467e7d1,SmartArt Studio,52.224547,21.010331,Arepa Restaurant
117,52.22267716590571,21.009048016837728,50,42,50632307e4b03f3ec3eaa79b,Oishii Sushi,52.22367982195539,21.0081415242553,Sushi Restaurant
118,52.22267716590571,21.009048016837728,50,43,592ad0172be4255fb7b4784f,Koreanka,52.22252684698941,21.012272218808004,Korean Restaurant
119,52.22267716590571,21.009048016837728,50,44,5c03f0aee07550002c1f0ab1,Nikos Greek Gyros,52.222574,21.011101,Greek Restaurant
120,52.22267716590571,21.009048016837728,50,45,5af2c8ec492814002c6341d4,Buena Vista Social Food,52.222512,21.010997,Cuban Restaurant
121,52.22267716590571,21.009048016837728,50,46,5290b84311d20e4e0093237a,Burrito Bandidos,52.22275955494665,21.00907271543384,Burrito Place
122,52.22267716590571,21.009048016837728,50,47,50e6f5ede4b0f34597c6cb6c,india express,52.223647,21.007809,Indian Restaurant
123,52.22267716590571,21.009048016837728,50,48,5b07e1d8dee770002cb99978,Pho2,52.222095,21.011305,Vietnamese Restaurant
124,52.22267716590571,21.009048016837728,50,49,5810804138fa183484308399,Curry Leaves,52.22254055828113,21.01099926786469,South Indian Restaurant
125,52.2249380952381,21.021290909090904,35,0,4cb04b94aef16dcbde7faf54,Flaming & Co. Restaurant,52.222915713810934,21.020677889398463,Italian Restaurant
126,52.2249380952381,21.021290909090904,35,1,5fb9597d7ea19345f24884d7,Pizzaiolo,52.225894,21.019171,Pizza Place
127,52.2249380952381,21.021290909090904,35,2,4ea07bcf2c5b9f62fb3bcc5a,AleWino,52.22523806117944,21.02183424726326,Wine Shop
128,52.2249380952381,21.021290909090904,35,3,5723acef498eb236f61cae00,Woda Ognista,52.22617454771627,21.02148854226318,Cocktail Bar
129,52.2249380952381,21.021290909090904,35,4,4c5abab8f346c928a8a64fca,Przegryź,52.22575971688309,21.02186795545993,Polish Restaurant
130,52.2249380952381,21.021290909090904,35,5,504b5109e4b09a443160fc02,Trattoria Rucola,52.22556105298556,21.01910218663885,Italian Restaurant
131,52.2249380952381,21.021290909090904,35,6,4bae3ba0f964a520e9953be3,Tomo Sushi,52.226016346198946,21.018833490816224,Sushi Restaurant
132,52.2249380952381,21.021290909090904,35,7,599746c7efa82a13844e2db0,Chinkalnia,52.22351,21.018519,Caucasian Restaurant
133,52.2249380952381,21.021290909090904,35,8,5cd6bba68a6f17002cf281a6,Trân Trân,52.225588,21.019541,Vietnamese Restaurant
134,52.2249380952381,21.021290909090904,35,9,5df64b49463c9500074f408e,secret spice,52.223563,21.019282,Indian Restaurant
135,52.2249380952381,21.021290909090904,35,10,553278b9498ef49d4e1b16b0,Rusiko,52.22665286173217,21.023367801795967,Kosher Restaurant
136,52.2249380952381,21.021290909090904,35,11,593862cbad1ea40cbd6055a2,U Tato,52.224322,21.020739,Caucasian Restaurant
137,52.2249380952381,21.021290909090904,35,12,58c4a468fb9d896ae479024e,Klub SPATiF,52.22676900414722,21.023265932929327,Cocktail Bar
138,52.2249380952381,21.021290909090904,35,13,55a94c20498e57dffe40ed97,Trawisz,52.22446,21.021314,Modern European Restaurant
139,52.2249380952381,21.021290909090904,35,14,4dcd36aae4cd130e1647c976,Restauracja Roma,52.22429183508424,21.02114292147843,Italian Restaurant
140,52.2249380952381,21.021290909090904,35,15,4c331902a0ced13a3a06166e,Dominium Pizza,52.2258698148888,21.01887011585345,Pizza Place
141,52.2249380952381,21.021290909090904,35,16,51a678f3498ee6e5b39a05ee,U Jasia,52.226225,21.02397,Arepa Restaurant
142,52.2249380952381,21.021290909090904,35,17,4ce0285eaba88cfa91884dd7,Porta Rossa,52.225547,21.019145,Italian Restaurant
143,52.2249380952381,21.021290909090904,35,18,4cf5581ec9af6dcb9245b17f,La Fiesta Tortilla Restaurant,52.226608577233854,21.023444478094767,Mexican Restaurant
144,52.2249380952381,21.021290909090904,35,19,4c80d675d34ca143b7571c80,Lemon Grass,52.22512923333333,21.024275,Asian Restaurant
145,52.2249380952381,21.021290909090904,35,20,50488f5fe4b0424d5905d1af,Bar Nam-Nam,52.22358966417172,21.02020712741062,Chinese Restaurant
146,52.2249380952381,21.021290909090904,35,21,4d0e688e62a55481b5579a49,Restauracja Ujazdowska & Mołdawska,52.22444727145964,21.024361838605223,Eastern European Restaurant
147,52.2249380952381,21.021290909090904,35,22,5934169b446ea63a116f3571,Koh Phangan,52.223501,21.020168,Thai Restaurant
148,52.2249380952381,21.021290909090904,35,23,4fc8bd0ae4b0f325e1f3000b,Smok,52.22549162679702,21.018629068874304,Asian Restaurant
149,52.2249380952381,21.021290909090904,35,24,538991e4498e382b6f970275,Mercato Bar Delikatesy,52.223563556820054,21.01869862670259,Italian Restaurant
150,52.2249380952381,21.021290909090904,35,25,4c0538670d0e0f47d4ff049a,Bukieteria Roma,52.22438300992093,21.021208963961868,Italian Restaurant
151,52.2249380952381,21.021290909090904,35,26,5b12d586724750002ced9b51,Detapeo-fresh tapas&wine,52.226409,21.018581,Tapas Restaurant
152,52.2249380952381,21.021290909090904,35,27,4bbcd9804e069c74ecff9de3,Cafe Presto,52.225633,21.019175,Italian Restaurant
153,52.2249380952381,21.021290909090904,35,28,4b93c0d9f964a520f04f34e3,Jazz Bistro,52.22364158873897,21.019211165092557,Italian Restaurant
154,52.2249380952381,21.021290909090904,35,29,57233fed498ee54133420eac,M49 Restaurant,52.22485521518378,21.020987033843994,Modern European Restaurant
155,52.2249380952381,21.021290909090904,35,30,5471db7d498eb9d244a70f22,Дача Михала Данельича Томашевсково,52.226031,21.020454,Kosher Restaurant
156,52.2249380952381,21.021290909090904,35,31,4da9ac96cda1652a2b792a75,Yummy,52.2256756700298,21.019291284701076,Asian Restaurant
157,52.2249380952381,21.021290909090904,35,32,572ccacd498ef7b0546048f4,Urban Burritos,52.223525,21.018837,Burrito Place
158,52.2249380952381,21.021290909090904,35,33,4fd7b2cfe4b0621d09c119c1,Belvedere,52.224671565685554,21.02339138473218,Cajun / Creole Restaurant
159,52.2249380952381,21.021290909090904,35,34,5c30ba6ada2e00002bfa33c4,Grzechu Warte,52.22657,21.022404,Asian Restaurant
160,52.227199024570496,21.017624710434994,43,0,551d30ec498e3ebc8f2b5649,UKI UKI,52.227463,21.017702,Udon Restaurant
161,52.227199024570496,21.017624710434994,43,1,5fb9597d7ea19345f24884d7,Pizzaiolo,52.225894,21.019171,Pizza Place
162,52.227199024570496,21.017624710434994,43,2,5e3831a403a64e0008830e25,The Mexican,52.226953,21.014052,Mexican Restaurant
163,52.227199024570496,21.017624710434994,43,3,4c23437313c00f47e3b188de,Sushi Zushi,52.229112960949195,21.018548412707162,Sushi Restaurant
164,52.227199024570496,21.017624710434994,43,4,504b5109e4b09a443160fc02,Trattoria Rucola,52.22556105298556,21.01910218663885,Italian Restaurant
165,52.227199024570496,21.017624710434994,43,5,4c616667cd522d7fa062d03f,Bar Bambino,52.2269731004384,21.018305107557893,Diner
166,52.227199024570496,21.017624710434994,43,6,5245e73111d2ff69a9d19eac,Trattoria da Antonio,52.228741715338934,21.016396375693688,Italian Restaurant
167,52.227199024570496,21.017624710434994,43,7,4bae3ba0f964a520e9953be3,Tomo Sushi,52.226016346198946,21.018833490816224,Sushi Restaurant
168,52.227199024570496,21.017624710434994,43,8,5b06fd3b6bd36b0039a3831f,Chmeli Suneli restauracja Gruzińska,52.22534154800329,21.017178297042847,Caucasian Restaurant
169,52.227199024570496,21.017624710434994,43,9,5cd6bba68a6f17002cf281a6,Trân Trân,52.225588,21.019541,Vietnamese Restaurant
170,52.227199024570496,21.017624710434994,43,10,5b337f5161e53b002caf66f5,Mugi,52.227314,21.014828,Japanese Restaurant
171,52.227199024570496,21.017624710434994,43,11,5adb783bc3658840592daec8,Chinkali,52.229388,21.017149,Caucasian Restaurant
172,52.227199024570496,21.017624710434994,43,12,50805a1fe4b082d3afad9488,Silk and Spicy,52.228720676401544,21.016759971253173,Thai Restaurant
173,52.227199024570496,21.017624710434994,43,13,5776af87498ec37566562059,Karma,52.228615,21.01569,Indian Restaurant
174,52.227199024570496,21.017624710434994,43,14,4c331902a0ced13a3a06166e,Dominium Pizza,52.2258698148888,21.01887011585345,Pizza Place
175,52.227199024570496,21.017624710434994,43,15,59ee495b61e53b3e8c4fa041,Mozaikowa Krucza,52.22906,21.016954,Polish Restaurant
176,52.227199024570496,21.017624710434994,43,16,4ce0285eaba88cfa91884dd7,Porta Rossa,52.225547,21.019145,Italian Restaurant
177,52.227199024570496,21.017624710434994,43,17,4fde07efe4b0d60dd912e4d3,Festa Italiana Ristorante,52.226601,21.015354,Italian Restaurant
178,52.227199024570496,21.017624710434994,43,18,524ea44d11d283ab7e454a72,Noodle w pudle,52.226822138417525,21.015935859599058,Asian Restaurant
179,52.227199024570496,21.017624710434994,43,19,4fe20aabe4b00d46bcd95fad,Nununu,52.22895318078072,21.018434729967012,Italian Restaurant
180,52.227199024570496,21.017624710434994,43,20,4cb7054e52edb1f745d072fe,Suhizushi,52.22895505934876,21.01811454877141,Sushi Restaurant
181,52.227199024570496,21.017624710434994,43,21,4c8be8168018a1cd51afe7d2,Maguro sushi bar,52.225278,21.017342,Sushi Restaurant
182,52.227199024570496,21.017624710434994,43,22,4bd1aa43b221c9b61fe3d5d0,India Curry,52.22882691584988,21.015621390926455,Indian Restaurant
183,52.227199024570496,21.017624710434994,43,23,53477f1c498e3e4b337b36bd,Grand Brasseries @ Grand Mercure,52.22751706780309,21.01861010617153,Polish Restaurant
184,52.227199024570496,21.017624710434994,43,24,4fc8bd0ae4b0f325e1f3000b,Smok,52.22549162679702,21.018629068874304,Asian Restaurant
185,52.227199024570496,21.017624710434994,43,25,52fa12ae498ed755790765de,Four Seasons,52.22654438519626,21.01525623140147,Vietnamese Restaurant
186,52.227199024570496,21.017624710434994,43,26,5a1181f678782c1062262bb4,El Jefe Tapas & Grill,52.227697,21.014776,Spanish Restaurant
187,52.227199024570496,21.017624710434994,43,27,4ebd98107beb5340fffa5b52,Solera,52.225238038423726,21.017164885997772,Spanish Restaurant
188,52.227199024570496,21.017624710434994,43,28,5b12d586724750002ced9b51,Detapeo-fresh tapas&wine,52.226409,21.018581,Tapas Restaurant
189,52.227199024570496,21.017624710434994,43,29,4bbcd9804e069c74ecff9de3,Cafe Presto,52.225633,21.019175,Italian Restaurant
190,52.227199024570496,21.017624710434994,43,30,530c82b6498e84ec30a34a9c,Argentina Steak House,52.22679096263259,21.016517793531083,Argentinian Restaurant
191,52.227199024570496,21.017624710434994,43,31,5cd558004aa3f8002c23f365,Guravio,52.228294,21.015133,Italian Restaurant
192,52.227199024570496,21.017624710434994,43,32,4bd44a3977b29c74bb569282,Magazyn butelek,52.228241,21.014537333333333,Spanish Restaurant
193,52.227199024570496,21.017624710434994,43,33,5ee92b3447265f0008ab35e0,aragvi,52.229066,21.01809,Caucasian Restaurant
194,52.227199024570496,21.017624710434994,43,34,4e1d72c2aeb78c0dfeccdf91,Alforno,52.22772537988371,21.017957067224884,Italian Restaurant
195,52.227199024570496,21.017624710434994,43,35,584817ce46563a7aa26f0cba,Spiżarnia Smaków,52.227296,21.015107,Polish Restaurant
196,52.227199024570496,21.017624710434994,43,36,5471db7d498eb9d244a70f22,Дача Михала Данельича Томашевсково,52.226031,21.020454,Kosher Restaurant
197,52.227199024570496,21.017624710434994,43,37,54c29dad498e7fe1b586ca37,La Cucina di Mammá,52.225401,21.017653,Italian Restaurant
198,52.227199024570496,21.017624710434994,43,38,4da9ac96cda1652a2b792a75,Yummy,52.2256756700298,21.019291284701076,Asian Restaurant
199,52.227199024570496,21.017624710434994,43,39,5059abcfe4b02a61e2894d09,Fusion Perfect,52.227396980396804,21.014946960708176,Indian Restaurant
200,52.227199024570496,21.017624710434994,43,40,515f3555e4b0cbc173cbfedf,obciach,52.228885650634766,21.01639175415039,Eastern European Restaurant
201,52.227199024570496,21.017624710434994,43,41,5b81513d61f070002cca423c,Tahina,52.228853,21.019108,Middle Eastern Restaurant
202,52.227199024570496,21.017624710434994,43,42,53a6de64498ef405d8b163eb,Bekef,52.226636489201326,21.01561918607928,Falafel Restaurant
203,52.22267716590571,21.017624710434994,44,0,59db89a33af9882da480264f,ORZO,52.22251406147738,21.015820937797496,Italian Restaurant
204,52.22267716590571,21.017624710434994,44,1,4cb04b94aef16dcbde7faf54,Flaming & Co. Restaurant,52.222915713810934,21.020677889398463,Italian Restaurant
205,52.22267716590571,21.017624710434994,44,2,56eeb0d0498e4677496b8f1d,Wi-taj,52.22189910362032,21.01688710059835,Vietnamese Restaurant
206,52.22267716590571,21.017624710434994,44,3,5cc87e73916bc1002c40b521,W Orbicie Słońca,52.22094,21.016884,Italian Restaurant
207,52.22267716590571,21.017624710434994,44,4,5e528883ccdd2d0008bc91fd,Shiso Ramen,52.222197,21.018564,Ramen Restaurant
208,52.22267716590571,21.017624710434994,44,5,57597bfa498e7c3433d16505,Sexy Duck,52.22166065361218,21.015698553015564,Italian Restaurant
209,52.22267716590571,21.017624710434994,44,6,50c76abef136fcb3640a7830,Superiore,52.2234527698725,21.017157231229113,Wine Bar
210,52.22267716590571,21.017624710434994,44,7,5ca492d1a2c00b002c3ff5df,Uki Green,52.22236,21.01443,Ramen Restaurant
211,52.22267716590571,21.017624710434994,44,8,4ba5688ff964a520390439e3,U Szwejka,52.221342943279055,21.015905636930253,Czech Restaurant
212,52.22267716590571,21.017624710434994,44,9,5321a478498e3946d585849f,To To Phô,52.221202002499055,21.018870234894273,Noodle House
213,52.22267716590571,21.017624710434994,44,10,599746c7efa82a13844e2db0,Chinkalnia,52.22351,21.018519,Caucasian Restaurant
214,52.22267716590571,21.017624710434994,44,11,5e2b2980a6b0c200087ba596,K-Bar Piękna,52.223686,21.017453,Korean Restaurant
215,52.22267716590571,21.017624710434994,44,12,5df64b49463c9500074f408e,secret spice,52.223563,21.019282,Indian Restaurant
216,52.22267716590571,21.017624710434994,44,13,5a2d4eed67af3a5a3a39360b,Mao Restaurant Coctail Bar,52.22429739220716,21.015213661485102,Chinese Restaurant
217,52.22267716590571,21.017624710434994,44,14,5b03f18a0802d4002c34242f,Na Bałkany,52.222289,21.014521,Bulgarian Restaurant
218,52.22267716590571,21.017624710434994,44,15,4cb98d9686dd95210b2dabe6,Dyspensa,52.222341,21.01952,Eastern European Restaurant
219,52.22267716590571,21.017624710434994,44,16,4c27737eb012b713b7100993,Illy Espressamente,52.22421662980814,21.015134811249652,Café
220,52.22267716590571,21.017624710434994,44,17,5ae1a0004aa3f8002d68a323,U Kresowiaka,52.222375,21.017673,Polish Restaurant
221,52.22267716590571,21.017624710434994,44,18,56c1d184cd106f124cf77d6c,Stockholm Bar&Canteen,52.2213146784749,21.01898981669331,Scandinavian Restaurant
222,52.22267716590571,21.017624710434994,44,19,4b681806f964a520f9662be3,Restauracja Lanse,52.221185833306876,21.017096731975993,Eastern European Restaurant
223,52.22267716590571,21.017624710434994,44,20,4d9f42337f1b721e5be7990f,Chińczyk na Pl. Konstytucji 3,52.222104,21.017041,Chinese Restaurant
224,52.22267716590571,21.017624710434994,44,21,572f9b39498eb9a06be1f7dc,Witaly,52.22350108775717,21.018401902748,Italian Restaurant
225,52.22267716590571,21.017624710434994,44,22,502a09b2e4b0c7dc802a66bd,Shabu Shabu,52.221273329777226,21.018872011709803,Shabu-Shabu Restaurant
226,52.22267716590571,21.017624710434994,44,23,5290eaa811d28f84767c5b85,Saffrong,52.22115461011343,21.015297990243745,Indian Restaurant
227,52.22267716590571,21.017624710434994,44,24,5cfd073ec8b2fb0039180a48,Gado Gado,52.223477,21.017467,Indonesian Restaurant
228,52.22267716590571,21.017624710434994,44,25,4b817507f964a52057a730e3,Chłopskie Jadło,52.22122363111826,21.015945231762128,Polish Restaurant
229,52.22267716590571,21.017624710434994,44,26,4c0e16ea336220a1a79ccb77,Nguyen,52.22168759635081,21.016100475792157,Asian Restaurant
230,52.22267716590571,21.017624710434994,44,27,50488f5fe4b0424d5905d1af,Bar Nam-Nam,52.22358966417172,21.02020712741062,Chinese Restaurant
231,52.22267716590571,21.017624710434994,44,28,5934169b446ea63a116f3571,Koh Phangan,52.223501,21.020168,Thai Restaurant
232,52.22267716590571,21.017624710434994,44,29,53412fd2498e023243fd4a95,Bistro de Belgique,52.222979142063146,21.015223948345607,Belgian Restaurant
233,52.22267716590571,21.017624710434994,44,30,5777dac6498e5a7c10e5ae64,GOP's Stop,52.221487,21.019218,Polish Restaurant
234,52.22267716590571,21.017624710434994,44,31,538991e4498e382b6f970275,Mercato Bar Delikatesy,52.223563556820054,21.01869862670259,Italian Restaurant
235,52.22267716590571,21.017624710434994,44,32,5eea54369739640008007770,Koszykowa 47,52.222437,21.014715,Modern European Restaurant
236,52.22267716590571,21.017624710434994,44,33,524f329711d2775b71f4041b,Portal Le Kebab,52.223656648203914,21.016492869998967,African Restaurant
237,52.22267716590571,21.017624710434994,44,34,4b93c0d9f964a520f04f34e3,Jazz Bistro,52.22364158873897,21.019211165092557,Italian Restaurant
238,52.22267716590571,21.017624710434994,44,35,5a0f082a3149b9796e375f37,Pho Hung Thien,52.221123,21.020134,Asian Restaurant
239,52.22267716590571,21.017624710434994,44,36,59bbcce2123a196ea4727868,Przystanek Pierogarnia,52.222304,21.017851,Polish Restaurant
240,52.22267716590571,21.017624710434994,44,37,4dfa9d9f483b085eeda1dfa9,Katibim Döner Kebab,52.22350001335144,21.01588010787964,Doner Restaurant
241,52.22267716590571,21.017624710434994,44,38,58a85c6c5cab2f66490e0b96,Koszykowa 31,52.222119,21.018626,Sushi Restaurant
242,52.22267716590571,21.017624710434994,44,39,5b9443860a08ab002cba214a,SaigonKa,52.221410643400496,21.01885414120261,Vietnamese Restaurant
243,52.22267716590571,21.017624710434994,44,40,4cb60ead8db0a14373176716,Suparom Thaifood,52.2209566682365,21.017301493215253,Thai Restaurant
244,52.22267716590571,21.017624710434994,44,41,4fd8d4c6e4b0ac05ac5f8222,Ottoman Kebab,52.22341537475586,21.015071868896484,Middle Eastern Restaurant
245,52.22267716590571,21.017624710434994,44,42,572ccacd498ef7b0546048f4,Urban Burritos,52.223525,21.018837,Burrito Place
246,52.22267716590571,21.017624710434994,44,43,5443f294498e12eec69633c4,Wiesz Co Zjesz,52.22142623576073,21.016819477549404,Polish Restaurant
247,52.227199024570496,21.024957107746815,18,0,4ca0925c0df79c7446a82c1a,SomePlace Else,52.22779521068194,21.024199757254426,Cocktail Bar
248,52.227199024570496,21.024957107746815,18,1,5da8a17df15131000815c95f,Cucina Mia,52.227903,21.024573,Italian Restaurant
249,52.227199024570496,21.024957107746815,18,2,553278b9498ef49d4e1b16b0,Rusiko,52.22665286173217,21.023367801795967,Kosher Restaurant
250,52.227199024570496,21.024957107746815,18,3,5164463ce4b02b2e45579f5f,InAzia,52.227928257108864,21.02429866595219,Asian Restaurant
251,52.227199024570496,21.024957107746815,18,4,58c4a468fb9d896ae479024e,Klub SPATiF,52.22676900414722,21.023265932929327,Cocktail Bar
252,52.227199024570496,21.024957107746815,18,5,50e74283e4b0e26343916ecc,Why Thai?,52.22662693116353,21.025174418559374,Thai Restaurant
253,52.227199024570496,21.024957107746815,18,6,571b843b498efd3c55e93964,Chef's Table,52.227814,21.024311,Asian Restaurant
254,52.227199024570496,21.024957107746815,18,7,51a678f3498ee6e5b39a05ee,U Jasia,52.226225,21.02397,Arepa Restaurant
255,52.227199024570496,21.024957107746815,18,8,4e567b5ed164a0684c5f72b6,El Toro,52.22671160701881,21.02489299755419,Mexican Restaurant
256,52.227199024570496,21.024957107746815,18,9,4cf5581ec9af6dcb9245b17f,La Fiesta Tortilla Restaurant,52.226608577233854,21.023444478094767,Mexican Restaurant
257,52.227199024570496,21.024957107746815,18,10,4ddfca31e4cde756db3bff58,Przejazd Baraka,52.228433,21.022514,African Restaurant
258,52.227199024570496,21.024957107746815,18,11,4c80d675d34ca143b7571c80,Lemon Grass,52.22512923333333,21.024275,Asian Restaurant
259,52.227199024570496,21.024957107746815,18,12,4dc17c7e7d8bf48713c391fa,Restauracja Embassy,52.22772843045044,21.023885580290187,Eastern European Restaurant
260,52.227199024570496,21.024957107746815,18,13,4dc2c5a5887770a6be075d8e,Restauracja Studio Buffo,52.22791328668372,21.026245093704272,Eastern European Restaurant
261,52.227199024570496,21.024957107746815,18,14,4dde9648b0fbc2c4ef069847,Dom Dochodowy,52.227451077827695,21.022729997325875,Eastern European Restaurant
262,52.227199024570496,21.024957107746815,18,15,529b2dae498e11615194a8b6,Chińczyk na Hożej,52.227121108213446,21.023334003148133,Chinese Restaurant
263,52.227199024570496,21.024957107746815,18,16,4e7c3256814d3907a71f9b41,The Oriental,52.22800971166361,21.024484634399414,Asian Restaurant
264,52.227199024570496,21.024957107746815,18,17,5c30ba6ada2e00002bfa33c4,Grzechu Warte,52.22657,21.022404,Asian Restaurant
265,52.22267716590571,21.024957107746815,3,0,4c56c78d2308be9a6294576c,Restauracja Amber,52.221318,21.023958,Eastern European Restaurant
266,52.22267716590571,21.024957107746815,3,1,4d0e688e62a55481b5579a49,Restauracja Ujazdowska & Mołdawska,52.22444727145964,21.024361838605223,Eastern European Restaurant
267,52.22267716590571,21.024957107746815,3,2,4fd7b2cfe4b0621d09c119c1,Belvedere,52.224671565685554,21.02339138473218,Cajun / Creole Restaurant
268,52.23446190476191,20.989472727272727,18,0,5613af31498ed1e5aacc4f62,Miss Kimchi,52.23557575178567,20.990367148551336,Korean Restaurant
269,52.23446190476191,20.989472727272727,18,1,5f1ec5492bbc4d30f408d6ea,Mykonos,52.2345,20.987097,Greek Restaurant
270,52.23446190476191,20.989472727272727,18,2,5956a94ec4df1d216bf22d0e,munja,52.234884481248265,20.991967373099346,Eastern European Restaurant
271,52.23446190476191,20.989472727272727,18,3,5c150c22deb49500254c3cef,Mango Vegan Street Food,52.235446,20.9905,Vegetarian / Vegan Restaurant
272,52.23446190476191,20.989472727272727,18,4,50c37495e4b0f9a0d7c88c4f,L'Olivo,52.23401216651505,20.991212212224806,Italian Restaurant
273,52.23446190476191,20.989472727272727,18,5,4bec5d09c43f2d7fb9c8dbd9,Folk Gospoda,52.23515011978143,20.992035534111526,Polish Restaurant
274,52.23446190476191,20.989472727272727,18,6,5756b39c498e564849fac7c6,Maharaja,52.233532,20.987062,Indian Restaurant
275,52.23446190476191,20.989472727272727,18,7,4d8749c25e70224b16374609,Pizzeria I Monelli,52.23338696607425,20.987379848920114,Italian Restaurant
276,52.23446190476191,20.989472727272727,18,8,50cb0cbbe4b04f44d35e717c,Smaki Woka,52.235657589897514,20.990485185659125,Thai Restaurant
277,52.23446190476191,20.989472727272727,18,9,531dbd13498ed12bcc23eab9,Hummusbar,52.23568229501089,20.99013942865244,Middle Eastern Restaurant
278,52.23446190476191,20.989472727272727,18,10,4f663778e4b03be104b98d44,Nanaki Sushi,52.23332647192232,20.987436228355225,Sushi Restaurant
279,52.23446190476191,20.989472727272727,18,11,5b16cf20dd8442002cfcd98b,Toro Toro,52.23565,20.989974,Sushi Restaurant
280,52.23446190476191,20.989472727272727,18,12,4ba3daa5f964a520cc6638e3,American Chinese Food,52.23513328051496,20.991272405612268,Asian Restaurant
281,52.23446190476191,20.989472727272727,18,13,4d5ab98124466ea820fd849f,Sushioki Japan Bar,52.2340780862052,20.988135627456657,Sushi Restaurant
282,52.23446190476191,20.989472727272727,18,14,4eb7e80c93ad23657131dc4c,Ganesh Express,52.23347778961864,20.987254636793498,Indian Restaurant
283,52.23446190476191,20.989472727272727,18,15,4fc16c81e4b014a2d6b12960,Kebab Tounsi,52.23502561392017,20.99246544037661,Turkish Restaurant
284,52.23446190476191,20.989472727272727,18,16,4c177a5159cc2d7fd8a85287,Noodle World,52.23330963539884,20.991620000591638,Noodle House
285,52.23446190476191,20.989472727272727,18,17,4fe0aa81e4b088dac6f7f971,Ha Long,52.233787,20.992262,Asian Restaurant
286,52.2367228340943,20.985805742054314,19,0,5804cdc438fa3b7294680423,Sora,52.2345946173952,20.985226363956265,Korean Restaurant
287,52.2367228340943,20.985805742054314,19,1,587e38611e1de532e5933ab7,Pho 206,52.236147,20.985322,Vietnamese Restaurant
288,52.2367228340943,20.985805742054314,19,2,530c8771498ed9174ebc6375,Bar Orientalny,52.236563,20.985316,Asian Restaurant
289,52.2367228340943,20.985805742054314,19,3,5075851e45b0509fb2da5f38,Casa Sicilia,52.238192293332865,20.98768888528678,Italian Restaurant
290,52.2367228340943,20.985805742054314,19,4,5b0961cfda5ede002c8f8cd9,Smaki Gruzji,52.237553,20.984608,Caucasian Restaurant
291,52.2367228340943,20.985805742054314,19,5,55d6fd46498eb5ebd4fcc1ea,Mazowiecka Pyza,52.236522,20.984675,Polish Restaurant
292,52.2367228340943,20.985805742054314,19,6,55afa233498e9758efcd2d7b,Kebab Kuchnia Orientalna,52.23663444185729,20.986053149431193,Asian Restaurant
293,52.2367228340943,20.985805742054314,19,7,595697237dc9e12acb7653c9,Rice Bar,52.23797,20.988344,Vietnamese Restaurant
294,52.2367228340943,20.985805742054314,19,8,579e2723498ebfdb3ca41883,Don Makaron,52.237647,20.984632,Italian Restaurant
295,52.2367228340943,20.985805742054314,19,9,5425679d498ef381c7f71c7a,Wolę Sushi,52.236977011270774,20.988056553346734,Sushi Restaurant
296,52.2367228340943,20.985805742054314,19,10,4fdc6f69e4b0598b2099cd12,Chervony Vepr,52.23787895757628,20.987329126802162,Eastern European Restaurant
297,52.2367228340943,20.985805742054314,19,11,4c8236de2f1c236aaae53643,Molala bar & restaurant,52.236592805787254,20.984383128385343,Sushi Restaurant
298,52.2367228340943,20.985805742054314,19,12,569640c4498e683a337d2ce5,Małi Wietnam,52.23799268097427,20.988586830214064,Vietnamese Restaurant
299,52.2367228340943,20.985805742054314,19,13,4ced4a704cd4236a172ca763,Tobaya,52.23743960403762,20.98241513217659,Sushi Restaurant
300,52.2367228340943,20.985805742054314,19,14,53360ba8498e9aca3cc56632,Asian Lan Anh,52.23636992378795,20.985724400168657,Asian Restaurant
301,52.2367228340943,20.985805742054314,19,15,5f1301cdc372c96e5c1d51cc,Tutti Amici,52.236626,20.984238,Italian Restaurant
302,52.2367228340943,20.985805742054314,19,16,4dc7beb0c65b89d3caa530be,Hong Ha,52.23653607732268,20.98485979658018,Chinese Restaurant
303,52.2367228340943,20.985805742054314,19,17,5b06fc5423870600241b6f0f,Wolę Sushi,52.237,20.987965,Sushi Restaurant
304,52.2367228340943,20.985805742054314,19,18,51fa5909498e3bbaef5b4b5e,Italian  Lounge Bar Szałwia,52.236627501126215,20.98439450500605,Italian Restaurant
305,52.232200975429514,20.985805742054314,16,0,57764a32498e6337f99cf147,STIXX,52.23316648480838,20.985286250319326,American Restaurant
306,52.232200975429514,20.985805742054314,16,1,58432866dfa6ff53e09297ce,Wabu Sushi & Japanese Tapas,52.23264645220757,20.98433286674205,Sushi Restaurant
307,52.232200975429514,20.985805742054314,16,2,5f3cf43124d6c340bc497bb0,Mrs. Kim korean food,52.233565,20.984123,Korean Restaurant
308,52.232200975429514,20.985805742054314,16,3,5756b39c498e564849fac7c6,Maharaja,52.233532,20.987062,Indian Restaurant
309,52.232200975429514,20.985805742054314,16,4,559277ce498e888b3cf87cca,Souvlak Truck,52.23278986959048,20.98489907688075,Food Truck
310,52.232200975429514,20.985805742054314,16,5,4d8749c25e70224b16374609,Pizzeria I Monelli,52.23338696607425,20.987379848920114,Italian Restaurant
311,52.232200975429514,20.985805742054314,16,6,53bfd0e6498e50b638a7cc82,TAPAS gastrobar,52.233019201797475,20.985807899678584,Tapas Restaurant
312,52.232200975429514,20.985805742054314,16,7,50128803e4b0d8233d9d62be,Prosta bistro,52.230475529478795,20.987783495775822,Eastern European Restaurant
313,52.232200975429514,20.985805742054314,16,8,52e91d16498e3a625cea12ea,IKUZO Bistro & Wine,52.232476,20.987222,Japanese Restaurant
314,52.232200975429514,20.985805742054314,16,9,520251a0498ec87b67a5705d,Kuchina Indyjska,52.23344802856445,20.985694885253906,Indian Restaurant
315,52.232200975429514,20.985805742054314,16,10,4e1c7a1314954cd5e42336cb,Ferajna,52.23318368463875,20.98608022593902,Eastern European Restaurant
316,52.232200975429514,20.985805742054314,16,11,4f663778e4b03be104b98d44,Nanaki Sushi,52.23332647192232,20.987436228355225,Sushi Restaurant
317,52.232200975429514,20.985805742054314,16,12,5d481379fedaf7000838e7fc,French Tacos,52.233157,20.984505,Food Truck
318,52.232200975429514,20.985805742054314,16,13,4eb7e80c93ad23657131dc4c,Ganesh Express,52.23347778961864,20.987254636793498,Indian Restaurant
319,52.232200975429514,20.985805742054314,16,14,56054d62498e3a95f99b48ae,The Nomad,52.23241288207579,20.98726112995343,Mongolian Restaurant
320,52.232200975429514,20.985805742054314,16,15,55744fd5498eedc148477df3,Wabu Sushi Bar,52.232665470373696,20.983983278274536,Polish Restaurant
321,52.2367228340943,20.99313971249114,23,0,5613af31498ed1e5aacc4f62,Miss Kimchi,52.23557575178567,20.990367148551336,Korean Restaurant
322,52.2367228340943,20.99313971249114,23,1,5956a94ec4df1d216bf22d0e,munja,52.234884481248265,20.991967373099346,Eastern European Restaurant
323,52.2367228340943,20.99313971249114,23,2,5a633e862105c3555b14e22a,UKIM,52.237657,20.991266,Asian Restaurant
324,52.2367228340943,20.99313971249114,23,3,5c150c22deb49500254c3cef,Mango Vegan Street Food,52.235446,20.9905,Vegetarian / Vegan Restaurant
325,52.2367228340943,20.99313971249114,23,4,4bec5d09c43f2d7fb9c8dbd9,Folk Gospoda,52.23515011978143,20.992035534111526,Polish Restaurant
326,52.2367228340943,20.99313971249114,23,5,5d964c7d75495d0008607846,360°,52.238058,20.99116,Pizza Place
327,52.2367228340943,20.99313971249114,23,6,56a38fcc498e557a80977162,Stołowka u Chłopaków,52.236674,20.991395,Bistro
328,52.2367228340943,20.99313971249114,23,7,4e4aa35162847afcaf18b1fa,U Madziara,52.23764730430313,20.991035125964007,Hungarian Restaurant
329,52.2367228340943,20.99313971249114,23,8,53a6fbf8498edce8c32b0ade,La Maison Gourmand,52.23739512611016,20.990018707546163,French Restaurant
330,52.2367228340943,20.99313971249114,23,9,4fc0a975e4b032785151a995,广东酒家,52.237075,20.995905,Chinese Restaurant
331,52.2367228340943,20.99313971249114,23,10,54da4cd4498e122061b0d048,White Tiger,52.23670886340836,20.995028649895207,Sushi Restaurant
332,52.2367228340943,20.99313971249114,23,11,50cb0cbbe4b04f44d35e717c,Smaki Woka,52.235657589897514,20.990485185659125,Thai Restaurant
333,52.2367228340943,20.99313971249114,23,12,51de8ade498e3e6d00c7eba6,Kemal Kebab,52.237515071874064,20.990328814252944,Turkish Restaurant
334,52.2367228340943,20.99313971249114,23,13,59c03315a9fe120d5325f62a,Chłodna 15 by Wilamowski,52.23736016235251,20.99027842283249,French Restaurant
335,52.2367228340943,20.99313971249114,23,14,531dbd13498ed12bcc23eab9,Hummusbar,52.23568229501089,20.99013942865244,Middle Eastern Restaurant
336,52.2367228340943,20.99313971249114,23,15,503a5f0ae4b0451d7d7ded2e,Florian Ogień czy Woda,52.23853991974017,20.993903930987006,Eastern European Restaurant
337,52.2367228340943,20.99313971249114,23,16,51236e55e4b097759ba249ca,Sajgonki,52.23606832877909,20.99627436503784,Asian Restaurant
338,52.2367228340943,20.99313971249114,23,17,53b800f0498ea5fc572cd974,sushi femina,52.2377756438217,20.994108199983543,Sushi Restaurant
339,52.2367228340943,20.99313971249114,23,18,5b16cf20dd8442002cfcd98b,Toro Toro,52.23565,20.989974,Sushi Restaurant
340,52.2367228340943,20.99313971249114,23,19,4ba3daa5f964a520cc6638e3,American Chinese Food,52.23513328051496,20.991272405612268,Asian Restaurant
341,52.2367228340943,20.99313971249114,23,20,52024672ccdaf65c347752e1,Bar Restauracja Sajgonka,52.23616764593599,20.995570421218872,Chinese Restaurant
342,52.2367228340943,20.99313971249114,23,21,4fc16c81e4b014a2d6b12960,Kebab Tounsi,52.23502561392017,20.99246544037661,Turkish Restaurant
343,52.2367228340943,20.99313971249114,23,22,51111a72e4b0562f884e1d31,Matexi Polska,52.236575,20.995749,American Restaurant
344,52.232200975429514,20.99313971249114,20,0,51c46682498e5b5208e2c770,Chmielarnia Multitap,52.231075549464045,20.995530236164477,Gastropub
345,52.232200975429514,20.99313971249114,20,1,4b851a48f964a5201a4c31e3,Restro,52.232046177847636,20.99608566260109,Italian Restaurant
346,52.232200975429514,20.99313971249114,20,2,50c37495e4b0f9a0d7c88c4f,L'Olivo,52.23401216651505,20.991212212224806,Italian Restaurant
347,52.232200975429514,20.99313971249114,20,3,54d643ae498e84070438a7e5,Pełną Parą,52.23048573788216,20.99445480101361,Dim Sum Restaurant
348,52.232200975429514,20.99313971249114,20,4,4c572024d12a20a1060266bd,Chicago's Bar & Grill,52.23020568644559,20.99357568011967,American Restaurant
349,52.232200975429514,20.99313971249114,20,5,4c99e6823bc3199c6485ad62,Sushi King Japanese Restaurant,52.230211845410786,20.993372262859854,Sushi Restaurant
350,52.232200975429514,20.99313971249114,20,6,4d061959c2e5370408c3c167,Thien Phu,52.23161390429116,20.993540982291982,Asian Restaurant
351,52.232200975429514,20.99313971249114,20,7,51a5ec79498e929a09319dd8,Saint Jacques,52.23168,20.99449,French Restaurant
352,52.232200975429514,20.99313971249114,20,8,4dd10d0cc65bdac7139f63c5,Bistro,52.2310348,20.9931906,Eastern European Restaurant
353,52.232200975429514,20.99313971249114,20,9,585acef1876ade0a35498dc4,Pańska 85,52.230827,20.990544,Chinese Restaurant
354,52.232200975429514,20.99313971249114,20,10,527e3687498e902833f7cf08,Pestka,52.231937,20.99013,Eastern European Restaurant
355,52.232200975429514,20.99313971249114,20,11,4d409848bd53f04d24ad4515,Bor Pince,52.23178053093815,20.992203037384954,Eastern European Restaurant
356,52.232200975429514,20.99313971249114,20,12,4bc08ee72a89ef3b4ba8f088,77 Sushi,52.230214252352404,20.99347047888772,Sushi Restaurant
357,52.232200975429514,20.99313971249114,20,13,5a1c6db62a7ab62415add9e3,Thai Plus,52.231606,20.993865,Thai Restaurant
358,52.232200975429514,20.99313971249114,20,14,5d18c60cc1959800235459fd,La Sen,52.231722,20.994921,Asian Restaurant
359,52.232200975429514,20.99313971249114,20,15,5593e88d498e5c1f0cf06b01,75 bistro,52.231555,20.99198,Polish Restaurant
360,52.232200975429514,20.99313971249114,20,16,4ca5bcf3d971b1f74ffbf8e0,Halka,52.230931372743534,20.990445551536947,Polish Restaurant
361,52.232200975429514,20.99313971249114,20,17,5b97fb33bed483002c94b6ba,Wok Deli,52.230907,20.995497,Asian Restaurant
362,52.232200975429514,20.99313971249114,20,18,4c177a5159cc2d7fd8a85287,Noodle World,52.23330963539884,20.991620000591638,Noodle House
363,52.232200975429514,20.99313971249114,20,19,4fe0aa81e4b088dac6f7f971,Ha Long,52.233787,20.992262,Asian Restaurant
364,52.23446190476191,21.005381818181817,21,0,53f4c81e498e66d0892fd832,Spacca Napoli,52.23484368522063,21.005494594573975,Italian Restaurant
365,52.23446190476191,21.005381818181817,21,1,59fe2f28d807ee06e36b0b48,Big Szef,52.236011004966194,21.007992259196,Turkish Restaurant
366,52.23446190476191,21.005381818181817,21,2,4f5124b9e4b0d16b3080708a,Mamma Mia Never Closed,52.23429266599208,21.004020425339732,Italian Restaurant
367,52.23446190476191,21.005381818181817,21,3,4d88d5985ecdf04d2aad9d8a,Fenicja Restauracja Libańska,52.2340519094531,21.003247516607345,Middle Eastern Restaurant
368,52.23446190476191,21.005381818181817,21,4,59c3ec23bb8d3664aa2371b4,san thai,52.23665,21.005929,Thai Restaurant
369,52.23446190476191,21.005381818181817,21,5,4dcc4fd0d1645340037287bd,Alibaba Kebab,52.23559810635862,21.008263577236317,Middle Eastern Restaurant
370,52.23446190476191,21.005381818181817,21,6,5dc2c376aff6dc00078b2f94,Enjoy American Food & Drink,52.235108,21.006279,New American Restaurant
371,52.23446190476191,21.005381818181817,21,7,4b8ffaf0f964a520d36d33e3,Tratoria Ti Amo,52.23397998684503,21.001825446883476,Italian Restaurant
372,52.23446190476191,21.005381818181817,21,8,59c3b63dcf72a06bc0f8cd9d,Food,52.23653887348922,21.00507080554962,Thai Restaurant
373,52.23446190476191,21.005381818181817,21,9,4cc80e8294e1a093af00958b,Sprytna Gosposia,52.235053944646964,21.005215644836426,Eastern European Restaurant
374,52.23446190476191,21.005381818181817,21,10,523832de11d2799b10ab3872,Galil Restaurant,52.23629216857284,21.006818493412307,Kosher Restaurant
375,52.23446190476191,21.005381818181817,21,11,55ba96e4498edfeaeddbc1a3,Kebab z Baraniny,52.23335381562272,21.003856563140435,Doner Restaurant
376,52.23446190476191,21.005381818181817,21,12,544643df498e9b3efe3e2778,Bar Orient Express,52.235597,21.008203,Thai Restaurant
377,52.23446190476191,21.005381818181817,21,13,5093afa3e4b07b04aa0ac265,Zushi Point,52.23432957620172,21.00414303030236,Sushi Restaurant
378,52.23446190476191,21.005381818181817,21,14,59fcbb114382ab2354630396,Spaaca Nepolio,52.234931,21.005469,Italian Restaurant
379,52.23446190476191,21.005381818181817,21,15,506346bae4b0530cb8f6c45b,MBM Kebab,52.235473,21.008054,Turkish Restaurant
380,52.23446190476191,21.005381818181817,21,16,5ccb38f92bf29b002da927b7,Harbi kebab,52.233792,21.002885,Kebab Restaurant
381,52.23446190476191,21.005381818181817,21,17,539f451e498e62c5568cce92,dinners,52.234413146972656,21.00193214416504,American Restaurant
382,52.23446190476191,21.005381818181817,21,18,5491786d498ea44c2ca63ef9,7th Street,52.23506416333444,21.006440205067403,American Restaurant
383,52.23446190476191,21.005381818181817,21,19,59242545c8b2fb26c57f5c62,Cafe Korb,52.236356,21.005111,Austrian Restaurant
384,52.23446190476191,21.005381818181817,21,20,5614ecdb498ec1ec9796e3a9,Ceviche Bar,52.235360707423595,21.002071025493596,Peruvian Restaurant
385,52.2367228340943,21.001714832963405,26,0,501a8027e4b0960fbbec39c5,Sol y Sombra Tapas Bar,52.23812460715664,21.00288760896343,Spanish Restaurant
386,52.2367228340943,21.001714832963405,26,1,4c14c6a1a9c220a19408589d,El Greco,52.23623,20.998918,Greek Restaurant
387,52.2367228340943,21.001714832963405,26,2,4dce8af2b0fb25f6e3459f68,Il Padrino,52.2364396,21.0012893,Italian Restaurant
388,52.2367228340943,21.001714832963405,26,3,4f61d69ee4b08c60fa06d0d3,Miseczka Oshin,52.23758761665934,21.002410298381882,Sushi Restaurant
389,52.2367228340943,21.001714832963405,26,4,4c45cc792d3ec9b644be30ae,Bonsai Sushi,52.236809,21.000329,Japanese Restaurant
390,52.2367228340943,21.001714832963405,26,5,4dd9300652b1a5c64476de63,Kosher Falafel,52.23597256912224,21.001587498837615,Middle Eastern Restaurant
391,52.2367228340943,21.001714832963405,26,6,51bef719498e4560adaf3fc5,Bakbuk,52.235818,21.000975,Middle Eastern Restaurant
392,52.2367228340943,21.001714832963405,26,7,59c3b63dcf72a06bc0f8cd9d,Food,52.23653887348922,21.00507080554962,Thai Restaurant
393,52.2367228340943,21.001714832963405,26,8,523ef0b811d2996a1e51efb0,Bonsai Fusion Style,52.2372062548358,21.002487575719577,Asian Restaurant
394,52.2367228340943,21.001714832963405,26,9,50e404cee4b09f5ea467b51f,Majoor kichen,52.237221,21.001404,Italian Restaurant
395,52.2367228340943,21.001714832963405,26,10,514180a7e4b08c91f6e0b2fe,Kuchnia Reszela,52.238659,21.003329,French Restaurant
396,52.2367228340943,21.001714832963405,26,11,52f0e6a5498ed4280bcebd3a,Restaurant kosher delight,52.23769760131836,21.003198623657227,Jewish Restaurant
397,52.2367228340943,21.001714832963405,26,12,4ea99963b803ca4a89c1ca72,Etno,52.2364734,21.000428,Mediterranean Restaurant
398,52.2367228340943,21.001714832963405,26,13,5034acc4e4b0ec35e6e8c201,Casa Pablo,52.23660300694975,21.000684791026778,Spanish Restaurant
399,52.2367228340943,21.001714832963405,26,14,59d4c392f62f2b25e1a1ee34,Le Cedre Lounge,52.236813,21.00043,Lebanese Restaurant
400,52.2367228340943,21.001714832963405,26,15,4f66629fe4b0ce431ef167d7,Specialita Italiane,52.23727039272547,21.002238365125702,Italian Restaurant
401,52.2367228340943,21.001714832963405,26,16,554a4b3f498e594e54930ec9,Yamuyamu,52.236945,21.00032,Japanese Restaurant
402,52.2367228340943,21.001714832963405,26,17,5801017938faa8d30dae85fd,Locale,52.23541,21.00176,Italian Restaurant
403,52.2367228340943,21.001714832963405,26,18,5b377ef6febf31002c82b73c,L’avanti,52.237105,21.001712,Mediterranean Restaurant
404,52.2367228340943,21.001714832963405,26,19,5d67cf63e3ac44000747c16b,Mai Mai Asian Food,52.238113,20.999545,Thai Restaurant
405,52.2367228340943,21.001714832963405,26,20,59242545c8b2fb26c57f5c62,Cafe Korb,52.236356,21.005111,Austrian Restaurant
406,52.2367228340943,21.001714832963405,26,21,552e5690498e3c6c57a46d4c,Caprese,52.237193219097094,21.001081402102617,Polish Restaurant
407,52.2367228340943,21.001714832963405,26,22,4d7cddb118a1ba7a1cba4615,Sushiya,52.23769725471455,21.002323543817166,Sushi Restaurant
408,52.2367228340943,21.001714832963405,26,23,5018cc5a8302fd9b4e62453e,Czebureki,52.23701193773024,21.002426147460938,Eastern European Restaurant
409,52.2367228340943,21.001714832963405,26,24,5614ecdb498ec1ec9796e3a9,Ceviche Bar,52.235360707423595,21.002071025493596,Peruvian Restaurant
410,52.2367228340943,21.001714832963405,26,25,5f82124ea21fc05cf70cb516,Tapas Gastrobar,52.237025,21.000916,Tapas Restaurant
411,52.232200975429514,21.001714832963405,34,0,4be9a88661aca593e5d18200,Thai Wok,52.23027220710539,21.00278286798553,Thai Restaurant
412,52.232200975429514,21.001714832963405,34,1,4d88d5985ecdf04d2aad9d8a,Fenicja Restauracja Libańska,52.2340519094531,21.003247516607345,Middle Eastern Restaurant
413,52.232200975429514,21.001714832963405,34,2,559fe2da498e529c42dcb445,Akashia,52.23157901537625,21.001995652030974,Sushi Restaurant
414,52.232200975429514,21.001714832963405,34,3,4eb8c89e0039f4f9ede94879,Kebab King,52.23370370809105,21.00127187762255,Middle Eastern Restaurant
415,52.232200975429514,21.001714832963405,34,4,5b1fb0f41fa763002c2d9de3,WAW Pho,52.233681,21.000551,Vietnamese Restaurant
416,52.232200975429514,21.001714832963405,34,5,5e05f137637ee60007987dd8,Wang & Wang,52.231198,20.998553,Chinese Restaurant
417,52.232200975429514,21.001714832963405,34,6,4b8ffaf0f964a520d36d33e3,Tratoria Ti Amo,52.23397998684503,21.001825446883476,Italian Restaurant
418,52.232200975429514,21.001714832963405,34,7,553b9aec498e8cfc0a58f7e9,Bar polski Skrzynka,52.23159625283353,20.999201820352926,Polish Restaurant
419,52.232200975429514,21.001714832963405,34,8,4fa68977e4b0fed4829ce1b0,TiAmo Trattoria,52.233801336926156,21.00183184502459,Italian Restaurant
420,52.232200975429514,21.001714832963405,34,9,54c58f53498e8d9e2742a357,Polish Your Cooking,52.23279631689535,20.999323287379486,Polish Restaurant
421,52.232200975429514,21.001714832963405,34,10,55d9b912498edde53354bcef,Tacamole Mexican Grill,52.23037307024553,21.002415337342295,Burrito Place
422,52.232200975429514,21.001714832963405,34,11,54e49308498ea9b639102d6a,Lemonka,52.23204116319422,21.002977571612927,Asian Restaurant
423,52.232200975429514,21.001714832963405,34,12,4c2c7ab677cfe21e2308b6f1,Giovanni Cafe & Restaurant,52.230569,21.000429,Sushi Restaurant
424,52.232200975429514,21.001714832963405,34,13,5d2c84e8e0332c00238d6a5d,LaVigna,52.231447,20.998979,Italian Restaurant
425,52.232200975429514,21.001714832963405,34,14,520a4a9711d2e5348b9eaa65,Edokko Sushi Box,52.232798130025174,20.998992329795367,Sushi Restaurant
426,52.232200975429514,21.001714832963405,34,15,55ba96e4498edfeaeddbc1a3,Kebab z Baraniny,52.23335381562272,21.003856563140435,Doner Restaurant
427,52.232200975429514,21.001714832963405,34,16,54bcd69d498e63100fd2d6e8,Lemonka,52.2319792525157,21.003048022189937,Asian Restaurant
428,52.232200975429514,21.001714832963405,34,17,5008648ee4b05525ca864aef,Platter by Karol Okrasa,52.23244212951155,21.00298813227064,Restaurant
429,52.232200975429514,21.001714832963405,34,18,4ba214def964a5207dda37e3,Bar Orientalny 9999,52.23399854200695,21.001153803763767,Asian Restaurant
430,52.232200975429514,21.001714832963405,34,19,4d99b12c97d06ea850f84e0b,Restauacja Filmowa,52.23158064126188,21.001910938303247,Eastern European Restaurant
431,52.232200975429514,21.001714832963405,34,20,559d1a75498e69496f6d236c,Bar Gold Kim,52.23374543378561,21.001283214992938,Asian Restaurant
432,52.232200975429514,21.001714832963405,34,21,5072cf9de4b09145cdefc0c1,AP Foods Orient Asian Restaurant,52.231119178538236,21.003149917000197,Asian Restaurant
433,52.232200975429514,21.001714832963405,34,22,4d66512883865481e1dff653,Bazylia,52.230013970644045,21.00242331521234,Italian Restaurant
434,52.232200975429514,21.001714832963405,34,23,5ccb38f92bf29b002da927b7,Harbi kebab,52.233792,21.002885,Kebab Restaurant
435,52.232200975429514,21.001714832963405,34,24,56bdb53f498e8e42f0aaac27,Parownik,52.230334,21.003442,Chinese Restaurant
436,52.232200975429514,21.001714832963405,34,25,4d873e5102eb5481744666f5,Italian Corner,52.230290409457176,21.002852467834156,Italian Restaurant
437,52.232200975429514,21.001714832963405,34,26,539f451e498e62c5568cce92,dinners,52.234413146972656,21.00193214416504,American Restaurant
438,52.232200975429514,21.001714832963405,34,27,5cf5073e8a6f17002c248d46,Bame,52.233955,21.000742,Asian Restaurant
439,52.232200975429514,21.001714832963405,34,28,56e586fc498e64591d9cde47,Prosecco,52.233666028548285,21.001154971629095,Italian Restaurant
440,52.232200975429514,21.001714832963405,34,29,5e3fe9493efbbc000857a6d2,Portobello Pizza & Pasta,52.231986,20.999851,Italian Restaurant
441,52.232200975429514,21.001714832963405,34,30,59d4a8a76eda0234d35a2084,Piekarnia Kaukazka,52.23148714450634,20.99913833895704,Bakery
442,52.232200975429514,21.001714832963405,34,31,5197afeb498e64099a6907a8,Döner Kebab,52.232072681995525,21.00307075218928,Doner Restaurant
443,52.232200975429514,21.001714832963405,34,32,4d6802966d6a236aec2c382a,Saint Jacques,52.23385674207061,21.001738118187273,French Restaurant
444,52.232200975429514,21.001714832963405,34,33,5086b394e4b0c9729931a410,North Fish,52.2302318719785,21.00261807006507,Seafood Restaurant
445,52.2367228340943,21.00904880340023,30,0,50a38bf6e4b072c7b4e8f399,AïOLI,52.235924207249525,21.01169970257084,Mediterranean Restaurant
446,52.2367228340943,21.00904880340023,30,1,59fe2f28d807ee06e36b0b48,Big Szef,52.236011004966194,21.007992259196,Turkish Restaurant
447,52.2367228340943,21.00904880340023,30,2,4eea435d5c5c0575fb4ed35e,Tawerna Paros,52.2353008480736,21.011276385582597,Greek Restaurant
448,52.2367228340943,21.00904880340023,30,3,4ba3a0dff964a5209c4d38e3,Banjaluka,52.236086756496384,21.009346418154475,Grilled Meat Restaurant
449,52.2367228340943,21.00904880340023,30,4,59c3ec23bb8d3664aa2371b4,san thai,52.23665,21.005929,Thai Restaurant
450,52.2367228340943,21.00904880340023,30,5,5e386f3cc4da68000847afb3,Sing Sing,52.236078,21.012154,Asian Restaurant
451,52.2367228340943,21.00904880340023,30,6,4dcc4fd0d1645340037287bd,Alibaba Kebab,52.23559810635862,21.008263577236317,Middle Eastern Restaurant
452,52.2367228340943,21.00904880340023,30,7,4eb6a4a9f790d87d033a3278,Dos Tacos,52.23608289784035,21.010685906634027,Mexican Restaurant
453,52.2367228340943,21.00904880340023,30,8,4d8562505ad3a09397d9e4fd,Asado Mezze & Grill,52.238018894638024,21.01067243608062,Lebanese Restaurant
454,52.2367228340943,21.00904880340023,30,9,516d6396e4b0f2c9b892f7b7,Bar Bartek,52.234711,21.009641,Eastern European Restaurant
455,52.2367228340943,21.00904880340023,30,10,4d24c7d214f2b1f7254f71be,Churrasco Do Landa,52.23680823544892,21.006263776518562,Brazilian Restaurant
456,52.2367228340943,21.00904880340023,30,11,4f6de591e4b0a6b771de2d7c,Kebab Swietokrzyska,52.23509252768012,21.00901189022423,Turkish Restaurant
457,52.2367228340943,21.00904880340023,30,12,584b03f094c690146af938f0,kaVos,52.236702,21.010139,Greek Restaurant
458,52.2367228340943,21.00904880340023,30,13,523832de11d2799b10ab3872,Galil Restaurant,52.23629216857284,21.006818493412307,Kosher Restaurant
459,52.2367228340943,21.00904880340023,30,14,4f523133e4b099f1d228c619,Du-za Mi-ha,52.23610552735656,21.01069704244618,Noodle House
460,52.2367228340943,21.00904880340023,30,15,57dfd6c3498ed247688497b6,U Rysia,52.236486737899114,21.00831140509813,Seafood Restaurant
461,52.2367228340943,21.00904880340023,30,16,5b8688345d891b002ceaac65,Mleczarnia,52.235834,21.010272,Diner
462,52.2367228340943,21.00904880340023,30,17,544643df498e9b3efe3e2778,Bar Orient Express,52.235597,21.008203,Thai Restaurant
463,52.2367228340943,21.00904880340023,30,18,5910438e0a464d19ef2d755d,Café Dell' Amore,52.235869,21.010477,Café
464,52.2367228340943,21.00904880340023,30,19,506346bae4b0530cb8f6c45b,MBM Kebab,52.235473,21.008054,Turkish Restaurant
465,52.2367228340943,21.00904880340023,30,20,4e4fc648fa7626401eadde49,Ming Wok,52.23714592313564,21.00692414909687,Asian Restaurant
466,52.2367228340943,21.00904880340023,30,21,50cef652e4b0d07033679773,Parter W Gim 38,52.236817,21.011842,American Restaurant
467,52.2367228340943,21.00904880340023,30,22,4f57f7e4d5fbfe3b34578f08,"Bong sen, bar bistro",52.234685989997246,21.01012945175171,Vietnamese Restaurant
468,52.2367228340943,21.00904880340023,30,23,4bf92d655efe2d7f14c96b34,Sphinx,52.23496637308431,21.00907852710361,Middle Eastern Restaurant
469,52.2367228340943,21.00904880340023,30,24,4e90982c775bfdaabc674a33,Khuk,52.236823545608814,21.0096980081406,Thai Restaurant
470,52.2367228340943,21.00904880340023,30,25,5249a98911d23327177711c1,Kebab King,52.23585130748391,21.01096620482966,Turkish Restaurant
471,52.2367228340943,21.00904880340023,30,26,4c7bd913794e224b41746c28,Kebab Diana,52.23581612671831,21.008498668670654,Middle Eastern Restaurant
472,52.2367228340943,21.00904880340023,30,27,4be1854e5541d13afca58266,Hana Sushi,52.235021775,21.011177,Sushi Restaurant
473,52.2367228340943,21.00904880340023,30,28,4c443806dcd61b8d69f87a56,Jazz Bistro Zen,52.236256031353854,21.01048121762382,Sushi Restaurant
474,52.2367228340943,21.00904880340023,30,29,4b8a8ce8f964a520da7132e3,Krokodyl,52.23610623092673,21.011482250712245,Italian Restaurant
475,52.232200975429514,21.00904880340023,14,0,550c5ca1498e2a7e9023c235,Česká Pivní Restaurace,52.231710829744934,21.011700688924073,Czech Restaurant
476,52.232200975429514,21.00904880340023,14,1,5393457e498e94dc38844f8b,SŁOIK,52.23229057315445,21.011233580797317,Polish Restaurant
477,52.232200975429514,21.00904880340023,14,2,4d11f3b87a8ba1436734c569,Du-Za Mi-Ha,52.232864,21.012192,Noodle House
478,52.232200975429514,21.00904880340023,14,3,4b966068f964a520dec834e3,Bordo,52.23185676460594,21.011875291339905,Italian Restaurant
479,52.232200975429514,21.00904880340023,14,4,4c30d8cbed37a593e67b6903,Essencia,52.230596,21.01054,Eastern European Restaurant
480,52.232200975429514,21.00904880340023,14,5,518b48cd498e3255fe75c83e,Sahara Kebab,52.23337742783635,21.009294428291557,Turkish Restaurant
481,52.232200975429514,21.00904880340023,14,6,593ab000fc9e940adfb570d2,gimbusiarskie ławeczki,52.230406,21.008689,Gay Bar
482,52.232200975429514,21.00904880340023,14,7,5ced66ed065ef5002cf1e991,Yatta2 Ramen,52.232081,21.011971,Ramen Restaurant
483,52.232200975429514,21.00904880340023,14,8,5d91edb0bf3d610007296667,Bistro A&S,52.23296,21.01215,Vietnamese Restaurant
484,52.232200975429514,21.00904880340023,14,9,53f378e4498ec7b0472dd6b0,Złota 7,52.23300213198862,21.011799576409647,Polish Restaurant
485,52.232200975429514,21.00904880340023,14,10,5c90ec80c0cacb0039a7b516,Yathai,52.23224,21.011965,Thai Restaurant
486,52.232200975429514,21.00904880340023,14,11,4e529b76483bf6d4ed39e1ef,Luxtorpeda,52.230125717936005,21.00922338062497,Food Truck
487,52.232200975429514,21.00904880340023,14,12,4dab331acda1652a2b9df5eb,Ginger Restaurant,52.233663373217546,21.010968364947228,Cajun / Creole Restaurant
488,52.232200975429514,21.00904880340023,14,13,506ddbb6e4b0a9ca4bce4aa7,Bordo,52.23185748104228,21.011671202840773,Italian Restaurant
489,52.23446190476191,21.021290909090904,50,0,5740576e498eddde7bc4e614,Thai Me Up!,52.23370727471055,21.020641347897524,Thai Restaurant
490,52.23446190476191,21.021290909090904,50,1,4db1bb4e0cb6442b2ecfeef5,Specjały Regionalne,52.234548170014754,21.01879957726739,Polish Restaurant
491,52.23446190476191,21.021290909090904,50,2,5f37fc6c886d3b7de7d46615,Teheran,52.235421,21.019262,Persian Restaurant
492,52.23446190476191,21.021290909090904,50,3,5e46cd03a8dc4200087b8f46,TGI Fridays,52.23314,21.019075,American Restaurant
493,52.23446190476191,21.021290909090904,50,4,4be184dc2b27ef3b62e7746a,Frida,52.233708832750025,21.019268822045273,Mexican Restaurant
494,52.23446190476191,21.021290909090904,50,5,5094194ae4b0f71702323f45,Kameralna,52.23430317744187,21.02115207175994,Polish Restaurant
495,52.23446190476191,21.021290909090904,50,6,5bf958ee829b0c002c8a55f5,Pho Lovers,52.236464,21.021736,Vietnamese Restaurant
496,52.23446190476191,21.021290909090904,50,7,4cbf2e569ca854817219b516,Bollywood Lounge,52.235342947312006,21.018528161168145,Indian Restaurant
497,52.23446190476191,21.021290909090904,50,8,591310b29be5225783bfa944,Mama Pho,52.23406224228919,21.019065984153926,Vietnamese Restaurant
498,52.23446190476191,21.021290909090904,50,9,5165d52ae4b01b8e609c3cae,Dawne Smaki,52.23518122915291,21.018453659214657,Polish Restaurant
499,52.23446190476191,21.021290909090904,50,10,5c3a2c6eda2e00002ce1e4e7,Gościniec,52.23454,21.01868,Polish Restaurant
500,52.23446190476191,21.021290909090904,50,11,4ba0f0e4f964a520b78837e3,Oto Sushi,52.23460122824667,21.018751725506117,Sushi Restaurant
501,52.23446190476191,21.021290909090904,50,12,4c308b0e3896e21e29a8e590,Chianti,52.233578,21.020737,Italian Restaurant
502,52.23446190476191,21.021290909090904,50,13,51712751e4b0e30bacc500e9,Oliva,52.23594787726324,21.020224977722048,Italian Restaurant
503,52.23446190476191,21.021290909090904,50,14,4bbc65f5afe1b7130b50304b,Kamanda Lwowska,52.23418668722431,21.022376985312906,Eastern European Restaurant
504,52.23446190476191,21.021290909090904,50,15,5e5c2230c2d8a8000891a934,Chmeli Suneli restauracja Gruzińska,52.233864651651096,21.018889546394348,Caucasian Restaurant
505,52.23446190476191,21.021290909090904,50,16,5d581f10a1d53e0008b5aa99,Flo,52.232558,21.021254,Polish Restaurant
506,52.23446190476191,21.021290909090904,50,17,511fc0fae4b00145dcb57e0f,Viking Bar P.G. Sandwicz,52.23297119140625,21.019689559936523,Eastern European Restaurant
507,52.23446190476191,21.021290909090904,50,18,4fe9c4a5e4b0636892eb930e,Restauracja Chińska Li-Du,52.235244,21.020658,Asian Restaurant
508,52.23446190476191,21.021290909090904,50,19,55709278498e88c352326a04,Ukrainska Karczma,52.23307195575033,21.019642668926714,Ukrainian Restaurant
509,52.23446190476191,21.021290909090904,50,20,4d57cd32380ab1f72c8000f5,Endorfina,52.23440934755039,21.024046485808064,Other Nightlife
510,52.23446190476191,21.021290909090904,50,21,4cf55595899c6ea8425b05c2,Tamka43,52.236564984859555,21.022514821563203,Modern European Restaurant
511,52.23446190476191,21.021290909090904,50,22,5b5202b94a7aae002c0e3640,Capriccio,52.233949,21.01918,Italian Restaurant
512,52.23446190476191,21.021290909090904,50,23,4fc79e04e4b0f2f7108afeb8,Bubble Tea 7 + VietMama,52.233181368973106,21.018592629161315,Bubble Tea Shop
513,52.23446190476191,21.021290909090904,50,24,58655ada8190793ef781e6a5,Groole,52.233818,21.018877,Polish Restaurant
514,52.23446190476191,21.021290909090904,50,25,4f7c5468e4b04f0338405ea9,Przemiana,52.23643040195926,21.02096553416769,Vegetarian / Vegan Restaurant
515,52.23446190476191,21.021290909090904,50,26,53468c6e498e59b767c5da6d,Pergamin,52.233796,21.0188,Italian Restaurant
516,52.23446190476191,21.021290909090904,50,27,4c332a1da0ced13a3d23166e,St.Traffo,52.233881,21.01891,Eastern European Restaurant
517,52.23446190476191,21.021290909090904,50,28,4dfc92de18a8eee4fe3ce9ab,Chińczyk Nowy Świat,52.234593,21.019622,Chinese Restaurant
518,52.23446190476191,21.021290909090904,50,29,560edd47498e8b54557f382d,Sabat On The Street,52.23387122241817,21.020686626434326,Polish Restaurant
519,52.23446190476191,21.021290909090904,50,30,526c2e33498e21ec3d62ba76,Kuchnia Wino i Oliwa,52.23632337076739,21.022965322795848,Spanish Restaurant
520,52.23446190476191,21.021290909090904,50,31,519cafd2498e55e13daad2f7,Cucina Da Fabio,52.234098,21.019028,Italian Restaurant
521,52.23446190476191,21.021290909090904,50,32,505ae3dce4b0b434df954564,Bordo NS,52.23510628728809,21.01970551573277,Italian Restaurant
522,52.23446190476191,21.021290909090904,50,33,507d399ae4b0f77767ffb21c,Stołówka W Gim. 44,52.233164,21.022916,Brazilian Restaurant
523,52.23446190476191,21.021290909090904,50,34,4bcd9e488920b713c3f09fdc,Da Nando,52.234259684175086,21.020306723022127,Italian Restaurant
524,52.23446190476191,21.021290909090904,50,35,5150a7dce4b08c23e6b893c6,Pepperoni,52.235128738434675,21.018563743870242,Italian Restaurant
525,52.23446190476191,21.021290909090904,50,36,56fe7603498e480eafd68858,Śródmieście,52.23561,21.020678,Polish Restaurant
526,52.23446190476191,21.021290909090904,50,37,51cf4198498e62b1b05117fd,22 Nowy Świat,52.232627761646015,21.0198828968797,Burger Joint
527,52.23446190476191,21.021290909090904,50,38,54512f0b498e49a9fe1f8491,ThaiHouse,52.233878,21.019263,Thai Restaurant
528,52.23446190476191,21.021290909090904,50,39,4e1082dc1495c8d31bbe30f7,Wiking,52.233067,21.019513,Diner
529,52.23446190476191,21.021290909090904,50,40,4dcd8f91d164679b8ce9a206,Doppio,52.234288051504144,21.02016087450521,Italian Restaurant
530,52.23446190476191,21.021290909090904,50,41,5044892ae4b068ce7e30fd3d,Bubble World Mexican Burrito,52.23340945728364,21.02054147425126,Mexican Restaurant
531,52.23446190476191,21.021290909090904,50,42,4c6e83524d24b60cb3ced8d8,Made In Japan,52.233515,21.019373,Asian Restaurant
532,52.23446190476191,21.021290909090904,50,43,4d022f183be26dcb38f676e4,Bar Binh Minh,52.234421212955496,21.019519997426872,Chinese Restaurant
533,52.23446190476191,21.021290909090904,50,44,4ede3a016c2547bc672215f9,Bar Kubuś,52.235748021897514,21.019282905638004,Eastern European Restaurant
534,52.23446190476191,21.021290909090904,50,45,514859bce4b08f1e64571c1f,Restauracja Kameralna,52.233857,21.021875,Polish Restaurant
535,52.23446190476191,21.021290909090904,50,46,505f45cee4b004c15c790549,Ordynacka 13,52.235814160255565,21.019372061101745,Eastern European Restaurant
536,52.23446190476191,21.021290909090904,50,47,4b9b6fe0f964a520430736e3,SPHINX,52.234320088220045,21.01899128520113,American Restaurant
537,52.23446190476191,21.021290909090904,50,48,4bbcb64e4e069c740dc89de3,Pizza Eataliano,52.23445548235155,21.018825579938895,Pizza Place
538,52.23446190476191,21.021290909090904,50,49,50f07203e4b07a0a273f31e2,Kebab King,52.2325882487977,21.019993963507574,Turkish Restaurant
539,52.2367228340943,21.017623923872492,28,0,4f929d02e4b0ab5f0961e4c5,Zapiecek,52.23659383401354,21.0182374791352,Dumpling Restaurant
540,52.2367228340943,21.017623923872492,28,1,5a501df462420b381a18cd37,Setka,52.23650333427907,21.014796584340576,Polish Restaurant
541,52.2367228340943,21.017623923872492,28,2,5f37fc6c886d3b7de7d46615,Teheran,52.235421,21.019262,Persian Restaurant
542,52.2367228340943,21.017623923872492,28,3,5b16e17f8d0a53002c8e609f,Bella Napoli,52.236629,21.01415,Pizza Place
543,52.2367228340943,21.017623923872492,28,4,4b75b455f964a5205e1e2ee3,La Cantina Bar & Restaurant,52.23627497440567,21.018274290592707,Mediterranean Restaurant
544,52.2367228340943,21.017623923872492,28,5,4cbf2e569ca854817219b516,Bollywood Lounge,52.235342947312006,21.018528161168145,Indian Restaurant
545,52.2367228340943,21.017623923872492,28,6,5165d52ae4b01b8e609c3cae,Dawne Smaki,52.23518122915291,21.018453659214657,Polish Restaurant
546,52.2367228340943,21.017623923872492,28,7,4ba0f0e4f964a520b78837e3,Oto Sushi,52.23460122824667,21.018751725506117,Sushi Restaurant
547,52.2367228340943,21.017623923872492,28,8,51712751e4b0e30bacc500e9,Oliva,52.23594787726324,21.020224977722048,Italian Restaurant
548,52.2367228340943,21.017623923872492,28,9,57d8213d498ebd99f5a6b6fc,La Cantina Meyhane,52.236161,21.018011,Mediterranean Restaurant
549,52.2367228340943,21.017623923872492,28,10,4c62b5c74b5176b026400717,"Barek Gastronomiczny ""Małe co nieco""",52.23650381031773,21.016196917684308,Eastern European Restaurant
550,52.2367228340943,21.017623923872492,28,11,4c73ace80e23b1f7d5e820dc,Sushi Go,52.23648776666667,21.017981,Sushi Restaurant
551,52.2367228340943,21.017623923872492,28,12,57164356498ee8cf5fe0f3d6,Roolon,52.236832866189644,21.020197668927047,Sushi Restaurant
552,52.2367228340943,21.017623923872492,28,13,4f7c5468e4b04f0338405ea9,Przemiana,52.23643040195926,21.02096553416769,Vegetarian / Vegan Restaurant
553,52.2367228340943,21.017623923872492,28,14,4c9b815878ffa09377af7575,Bierhalle,52.23614896401162,21.01823873639942,Beer Garden
554,52.2367228340943,21.017623923872492,28,15,505ae3dce4b0b434df954564,Bordo NS,52.23510628728809,21.01970551573277,Italian Restaurant
555,52.2367228340943,21.017623923872492,28,16,52554274498e1656f4d58386,Classic Burger,52.23833730296961,21.01788713193254,American Restaurant
556,52.2367228340943,21.017623923872492,28,17,5150a7dce4b08c23e6b893c6,Pepperoni,52.235128738434675,21.018563743870242,Italian Restaurant
557,52.2367228340943,21.017623923872492,28,18,56fe7603498e480eafd68858,Śródmieście,52.23561,21.020678,Polish Restaurant
558,52.2367228340943,21.017623923872492,28,19,5727b3ab498ef384adf384c0,Wana Sushi,52.236919,21.018336,Sushi Restaurant
559,52.2367228340943,21.017623923872492,28,20,4ede3a016c2547bc672215f9,Bar Kubuś,52.235748021897514,21.019282905638004,Eastern European Restaurant
560,52.2367228340943,21.017623923872492,28,21,563a4660cd109e4302143c1e,Handroll Oboźna,52.23842645047962,21.01850179863395,Sushi Restaurant
561,52.2367228340943,21.017623923872492,28,22,505f45cee4b004c15c790549,Ordynacka 13,52.235814160255565,21.019372061101745,Eastern European Restaurant
562,52.2367228340943,21.017623923872492,28,23,4fe61023e4b0b3b973658eb3,Telepaella,52.2386,21.0193,Paella Restaurant
563,52.2367228340943,21.017623923872492,28,24,57f10149498e961ddb63a93c,Pronto Pasta,52.238578,21.017781,Italian Restaurant
564,52.2367228340943,21.017623923872492,28,25,4e760d45c65bb91db4a06c85,Li-Du,52.236144649436746,21.02006435394287,Chinese Restaurant
565,52.2367228340943,21.017623923872492,28,26,4d279f9aebacb1f7821ae94f,Bar turecki,52.23862416912647,21.017671811895642,Turkish Restaurant
566,52.2367228340943,21.017623923872492,28,27,4f495325e4b024e50d2fb09c,Ichiban Sushi,52.2366568772101,21.01803403635253,Sushi Restaurant
567,52.232200975429514,21.017623923872492,50,0,511a6376e4b063145660f410,Mąka i Woda,52.23245778321596,21.01637262484476,Pizza Place
568,52.232200975429514,21.017623923872492,50,1,5e46cd03a8dc4200087b8f46,TGI Fridays,52.23314,21.019075,American Restaurant
569,52.232200975429514,21.017623923872492,50,2,4be184dc2b27ef3b62e7746a,Frida,52.233708832750025,21.019268822045273,Mexican Restaurant
570,52.232200975429514,21.017623923872492,50,3,4c6312434b5176b0c0380e17,Borpince,52.23272928899162,21.0142601270457,Hungarian Restaurant
571,52.232200975429514,21.017623923872492,50,4,4f5cb1ede4b0cfc5e1ef5a23,Concept 13,52.23053328898774,21.019217088971274,Modern European Restaurant
572,52.232200975429514,21.017623923872492,50,5,4c56fcaf2308be9a5c1b586c,Sphinx,52.23251068249919,21.015099186682278,Mediterranean Restaurant
573,52.232200975429514,21.017623923872492,50,6,55587ffd498ebc638af2b2b0,Jack's Bar and Restaurant Cinema,52.23169052079142,21.01684303669693,Modern European Restaurant
574,52.232200975429514,21.017623923872492,50,7,591310b29be5225783bfa944,Mama Pho,52.23406224228919,21.019065984153926,Vietnamese Restaurant
575,52.232200975429514,21.017623923872492,50,8,50f03086e4b005218acea625,Spring Roll,52.23289811074227,21.014941956833646,Asian Restaurant
576,52.232200975429514,21.017623923872492,50,9,5ccdde201fa763002cdfa421,Magari,52.231414,21.015231,Italian Restaurant
577,52.232200975429514,21.017623923872492,50,10,5730c411498e351826338a15,Hops Kuchnia Bar,52.23310515709116,21.018224354316104,Modern European Restaurant
578,52.232200975429514,21.017623923872492,50,11,5e5c2230c2d8a8000891a934,Chmeli Suneli restauracja Gruzińska,52.233864651651096,21.018889546394348,Caucasian Restaurant
579,52.232200975429514,21.017623923872492,50,12,4c4d9be0fb742d7f4a2d042d,Toan Pho,52.233033807901066,21.018224362994996,Vietnamese Restaurant
580,52.232200975429514,21.017623923872492,50,13,511fc0fae4b00145dcb57e0f,Viking Bar P.G. Sandwicz,52.23297119140625,21.019689559936523,Eastern European Restaurant
581,52.232200975429514,21.017623923872492,50,14,566c6398498eb5eec5c6fa1c,Trattoria Gusto,52.23272873524095,21.014135614400352,Italian Restaurant
582,52.232200975429514,21.017623923872492,50,15,55709278498e88c352326a04,Ukrainska Karczma,52.23307195575033,21.019642668926714,Ukrainian Restaurant
583,52.232200975429514,21.017623923872492,50,16,4d6fcbff56dea093b209c58c,Mleczarnia Jerozolimska,52.23138107994796,21.0185730493144,Diner
584,52.232200975429514,21.017623923872492,50,17,5cfbf355f05ca8002d7f12a9,Viet Street - Chill & Eat,52.233027,21.018294,Vietnamese Restaurant
585,52.232200975429514,21.017623923872492,50,18,56d840a5cd1054a0b35e216a,Sushi Studio Chmielna 6,52.23307475502634,21.018314851093237,Sushi Restaurant
586,52.232200975429514,21.017623923872492,50,19,5097ee23e4b07ba8c7d81a0d,Dice,52.23307800292969,21.01836585998535,Mexican Restaurant
587,52.232200975429514,21.017623923872492,50,20,55c48f82498ee435abb95d03,Fresh Pasta Point,52.23270490890623,21.01654317019113,Italian Restaurant
588,52.232200975429514,21.017623923872492,50,21,4f086c4be4b09d21f684ebba,Restauracja Zgoda,52.2326350069885,21.01454944692577,Polish Restaurant
589,52.232200975429514,21.017623923872492,50,22,5b5202b94a7aae002c0e3640,Capriccio,52.233949,21.01918,Italian Restaurant
590,52.232200975429514,21.017623923872492,50,23,4ba4cdc9f964a52061b638e3,Bar Zgoda,52.232759,21.014387,Eastern European Restaurant
591,52.232200975429514,21.017623923872492,50,24,51713e6d183fdec68e1c0e56,AFERA na Szpitalnej,52.23292085035972,21.01492109676089,Bar
592,52.232200975429514,21.017623923872492,50,25,5a916f5db6eedb41e846f62e,5 Składników,52.232691,21.016965,Café
593,52.232200975429514,21.017623923872492,50,26,4fc79e04e4b0f2f7108afeb8,Bubble Tea 7 + VietMama,52.233181368973106,21.018592629161315,Bubble Tea Shop
594,52.232200975429514,21.017623923872492,50,27,58655ada8190793ef781e6a5,Groole,52.233818,21.018877,Polish Restaurant
595,52.232200975429514,21.017623923872492,50,28,56756b26498ea48271695380,rolls rolls,52.23278359555403,21.016869197079963,Sushi Restaurant
596,52.232200975429514,21.017623923872492,50,29,597705f9b8fd9d580a80fc5b,ck sanacja,52.2325701915679,21.014732122421265,Polish Restaurant
597,52.232200975429514,21.017623923872492,50,30,4c018cd93ab80f47355590ff,Sahara Krucza,52.23137055532676,21.01611347135917,Kebab Restaurant
598,52.232200975429514,21.017623923872492,50,31,53468c6e498e59b767c5da6d,Pergamin,52.233796,21.0188,Italian Restaurant
599,52.232200975429514,21.017623923872492,50,32,5aa3183ce1f2283804c3ee8d,włoszczyzna,52.231696,21.017051,Pizza Place
600,52.232200975429514,21.017623923872492,50,33,4c332a1da0ced13a3d23166e,St.Traffo,52.233881,21.01891,Eastern European Restaurant
601,52.232200975429514,21.017623923872492,50,34,4bc8933e6501c9b66d614029,French Connection,52.232538,21.015223,French Restaurant
602,52.232200975429514,21.017623923872492,50,35,51af409c498e74c93782e3ed,Bonjour Vietnam,52.232711226034276,21.01639710959197,Vietnamese Restaurant
603,52.232200975429514,21.017623923872492,50,36,5deaa8bbaecb3c0007623098,Otorongo,52.232956,21.014702,Peruvian Restaurant
604,52.232200975429514,21.017623923872492,50,37,56fd49ba498eeb5d595fdad3,Sanacja,52.232643,21.014515,Polish Restaurant
605,52.232200975429514,21.017623923872492,50,38,519cafd2498e55e13daad2f7,Cucina Da Fabio,52.234098,21.019028,Italian Restaurant
606,52.232200975429514,21.017623923872492,50,39,4e9711fe0aafdb60e0b825e8,Kebab Emil,52.231326622978756,21.018979485053,Falafel Restaurant
607,52.232200975429514,21.017623923872492,50,40,51cf4198498e62b1b05117fd,22 Nowy Świat,52.232627761646015,21.0198828968797,Burger Joint
608,52.232200975429514,21.017623923872492,50,41,538d7f3d498e7360cc2b9b75,Mleczania,52.23115921020508,21.018592834472656,Polish Restaurant
609,52.232200975429514,21.017623923872492,50,42,54512f0b498e49a9fe1f8491,ThaiHouse,52.233878,21.019263,Thai Restaurant
610,52.232200975429514,21.017623923872492,50,43,4e1082dc1495c8d31bbe30f7,Wiking,52.233067,21.019513,Diner
611,52.232200975429514,21.017623923872492,50,44,4e4121b3a80996808531a0fa,Onlitaly,52.23062,21.015019,Italian Restaurant
612,52.232200975429514,21.017623923872492,50,45,5044892ae4b068ce7e30fd3d,Bubble World Mexican Burrito,52.23340945728364,21.02054147425126,Mexican Restaurant
613,52.232200975429514,21.017623923872492,50,46,4c6e83524d24b60cb3ced8d8,Made In Japan,52.233515,21.019373,Asian Restaurant
614,52.232200975429514,21.017623923872492,50,47,4c63bcb186b6be9a9d458f34,Phuong Anh,52.23298434277197,21.01483707838444,Asian Restaurant
615,52.232200975429514,21.017623923872492,50,48,50f07203e4b07a0a273f31e2,Kebab King,52.2325882487977,21.019993963507574,Turkish Restaurant
616,52.232200975429514,21.017623923872492,50,49,4f3acce5e4b00bffdfa01786,Turka Döner,52.233194766859214,21.020149392749616,Doner Restaurant
617,52.2367228340943,21.024957894309317,9,0,5e518db4d7810e0008e909cf,GRANO DURO,52.2389,21.024937,Italian Restaurant
618,52.2367228340943,21.024957894309317,9,1,5b251c421543c7002c31e024,Yatta Ramen,52.23764533045175,21.021801885932224,Ramen Restaurant
619,52.2367228340943,21.024957894309317,9,2,5bf958ee829b0c002c8a55f5,Pho Lovers,52.236464,21.021736,Vietnamese Restaurant
620,52.2367228340943,21.024957894309317,9,3,4cf55595899c6ea8425b05c2,Tamka43,52.236564984859555,21.022514821563203,Modern European Restaurant
621,52.2367228340943,21.024957894309317,9,4,4ff5b3dae4b0d27dd701ded8,Kebab Szams,52.237286,21.026109,Burrito Place
622,52.2367228340943,21.024957894309317,9,5,526c2e33498e21ec3d62ba76,Kuchnia Wino i Oliwa,52.23632337076739,21.022965322795848,Spanish Restaurant
623,52.2367228340943,21.024957894309317,9,6,56535872498ee87b7e023160,CHO CHO SAN,52.238703,21.024904,Sushi Restaurant
624,52.2367228340943,21.024957894309317,9,7,51db193a498e76d759ad0acb,karnak,52.23704844567364,21.02602754789534,Turkish Restaurant
625,52.2367228340943,21.024957894309317,9,8,4dde51afc65bb2aa738ce38c,Nudle W Pudle,52.23665113473721,21.028066679294035,Noodle House
626,52.232200975429514,21.024957894309317,8,0,4d30b25a5f806dcb5e321cac,City24 Grill&Bar,52.23232495253005,21.022770390161718,Bar
627,52.232200975429514,21.024957894309317,8,1,51de7d5a498e878aaf974649,Domowy Okruszek,52.23048671897922,21.022616478280195,Eastern European Restaurant
628,52.232200975429514,21.024957894309317,8,2,503da3c4e4b058aa48f32f31,España,52.231532,21.022661,Spanish Restaurant
629,52.232200975429514,21.024957894309317,8,3,507d399ae4b0f77767ffb21c,Stołówka W Gim. 44,52.233164,21.022916,Brazilian Restaurant
630,52.232200975429514,21.024957894309317,8,4,4c90b111ae96a09314b69c46,Hawełka,52.230791,21.02312,Eastern European Restaurant
631,52.232200975429514,21.024957894309317,8,5,56e98729498eb00f6358e42b,Tortilla House,52.232336,21.024151,Burrito Place
632,52.232200975429514,21.024957894309317,8,6,56c0999dcd10c4e392065e30,Los Plackos,52.23246013657989,21.02376360057712,Mexican Restaurant
633,52.232200975429514,21.024957894309317,8,7,5197fd7a498e47b45de47b2b,hot dog buda,52.231579,21.021873,American Restaurant
634,52.24398571428571,20.989472727272727,27,0,5c5ee4ae4c954c002cd63c68,Bangkok Soi,52.243797,20.992592,Thai Restaurant
635,52.24398571428571,20.989472727272727,27,1,4d29a909f7a9224be99100a0,Canton,52.24260947640656,20.987482864125496,Chinese Restaurant
636,52.24398571428571,20.989472727272727,27,2,5bf4a84767e5f2002c1f9868,Zacny Pyrkot,52.24444889605842,20.991903841495514,Polish Restaurant
637,52.24398571428571,20.989472727272727,27,3,4cebe0b7f86537047e49c5c4,Kebab King,52.242900667499626,20.992293005281578,Middle Eastern Restaurant
638,52.24398571428571,20.989472727272727,27,4,538e177f498e5865fbe95719,nowolipie za drzwiami,52.24276330342641,20.991302130475887,Polish Restaurant
639,52.24398571428571,20.989472727272727,27,5,516ef8a0e4b026e8ab8082c0,Klukovka,52.244114890483594,20.991543258148223,Pelmeni House
640,52.24398571428571,20.989472727272727,27,6,56ba216e38faedec114d0c7f,Cynamon Kuchnia Orientalna,52.24459199699862,20.9913620445138,Asian Restaurant
641,52.24398571428571,20.989472727272727,27,7,5ac23a8ca35dce29f4c6d1e4,Shiva Lounge,52.243137,20.986831,Indian Restaurant
642,52.24398571428571,20.989472727272727,27,8,581749c838faf1fd6d0b6329,KFP Kluski Frytki Placki,52.2433,20.991756,Polish Restaurant
643,52.24398571428571,20.989472727272727,27,9,4d5cfa08f57ca090e3ad84e0,AMCF - Woo to Go,52.24521517753601,20.98815143108368,Asian Restaurant
644,52.24398571428571,20.989472727272727,27,10,534aed36498e504052165d09,ba Adriatico,52.243646543138304,20.992415167565227,Hungarian Restaurant
645,52.24398571428571,20.989472727272727,27,11,4e9ef6dc02d576b655677e8e,SHiNESABA SUSHi,52.243489782391705,20.991568565368652,Sushi Restaurant
646,52.24398571428571,20.989472727272727,27,12,5d63bd3551bb400008bc15cc,Umi Ramen,52.243441,20.991496,Ramen Restaurant
647,52.24398571428571,20.989472727272727,27,13,5a9c2ef316ef677e81fb98a1,Bombay Lounge,52.243784,20.992331,Indian Restaurant
648,52.24398571428571,20.989472727272727,27,14,4be959a8d837c9b6bc4aa606,Sapaya,52.24419547529447,20.99165647269764,Asian Restaurant
649,52.24398571428571,20.989472727272727,27,15,51c1e98d498e4ba47c48a003,Sen Viet,52.24302,20.991749,Asian Restaurant
650,52.24398571428571,20.989472727272727,27,16,4c99020cf419a093e0977488,Kebab Lampa Aladdina,52.244154131447615,20.991580225177387,Turkish Restaurant
651,52.24398571428571,20.989472727272727,27,17,5921b27e8c35dc7af61791e4,Cuong,52.242747,20.991655,Vietnamese Restaurant
652,52.24398571428571,20.989472727272727,27,18,51261741e4b0fa38659a0339,HeyooDubai,52.24436977694694,20.99113456693124,Moroccan Restaurant
653,52.24398571428571,20.989472727272727,27,19,5313620311d2008c26cee477,Yummy Bar,52.24462883380926,20.991427892645945,Asian Restaurant
654,52.24398571428571,20.989472727272727,27,20,57055d29cd10067dff9addb4,Muddina Restaurant,52.24357188307266,20.991448586815707,Middle Eastern Restaurant
655,52.24398571428571,20.989472727272727,27,21,5369355b498eaa8131f7dbc5,Fabryka Frytek,52.24346350501319,20.99161148071289,Fast Food Restaurant
656,52.24398571428571,20.989472727272727,27,22,5330681a11d2d49920a36f0f,Złoty Ryż,52.244468031715314,20.990743794226386,Vietnamese Restaurant
657,52.24398571428571,20.989472727272727,27,23,5b546c50e55d8b002c3aa348,La Vietnamita,52.244705,20.99177,Vietnamese Restaurant
658,52.24398571428571,20.989472727272727,27,24,5e444e63489d7b00086f9563,Thai-Pai,52.244026,20.991104,Thai Restaurant
659,52.24398571428571,20.989472727272727,27,25,4ce28fff78ddf04d866cb198,Furkot,52.24427668083424,20.991611488780716,Eastern European Restaurant
660,52.24398571428571,20.989472727272727,27,26,5e5fa733602d7c0007bc7652,Bawarchi,52.243004,20.987063,Indian Restaurant
661,52.2462466436181,20.985804955052874,12,0,5bf95d9acabcff002b816e40,Rico,52.247413,20.988279,Mexican Restaurant
662,52.2462466436181,20.985804955052874,12,1,5443ff99498e18280066084d,dinner,52.248216,20.987221,Vietnamese Restaurant
663,52.2462466436181,20.985804955052874,12,2,4d9c9bd9c540236a25977c4b,Bar Kim Son,52.247030752274306,20.988751192439704,Chinese Restaurant
664,52.2462466436181,20.985804955052874,12,3,5363bbce498ef751e953e9cb,Robata,52.24723242080403,20.988588014825666,Sushi Restaurant
665,52.2462466436181,20.985804955052874,12,4,4d5cfa08f57ca090e3ad84e0,AMCF - Woo to Go,52.24521517753601,20.98815143108368,Asian Restaurant
666,52.2462466436181,20.985804955052874,12,5,57dc260d498ee572ab35e33d,Koszerna Kuchnia im. Korwina,52.247837,20.984175,Jewish Restaurant
667,52.2462466436181,20.985804955052874,12,6,55699187498e7fd14de94491,Kitajka 24,52.24716283418382,20.9888515463769,Asian Restaurant
668,52.2462466436181,20.985804955052874,12,7,4c7d3057d461a1431d5b7cf5,Bao Long,52.246868803610816,20.984863220406563,Chinese Restaurant
669,52.2462466436181,20.985804955052874,12,8,5517c7c3498efa514816c815,5 smaków,52.2471,20.988736,Thai Restaurant
670,52.2462466436181,20.985804955052874,12,9,5810fc3e38fa0b52f6f738c3,Marc et Bella,52.247395,20.9882,Modern European Restaurant
671,52.2462466436181,20.985804955052874,12,10,56994553498eae10a5cec6f2,Slavika,52.247393,20.988415,Modern European Restaurant
672,52.2462466436181,20.985804955052874,12,11,50198516e4b07ea8af2c8946,da italiano,52.24675750732422,20.988882064819336,Italian Restaurant
673,52.24172478495331,20.985804955052874,6,0,4d29a909f7a9224be99100a0,Canton,52.24260947640656,20.987482864125496,Chinese Restaurant
674,52.24172478495331,20.985804955052874,6,1,4d25af6b10a7721ec3151704,Pizzeria Efes,52.2411829050684,20.98648683089492,Middle Eastern Restaurant
675,52.24172478495331,20.985804955052874,6,2,5ac23a8ca35dce29f4c6d1e4,Shiva Lounge,52.243137,20.986831,Indian Restaurant
676,52.24172478495331,20.985804955052874,6,3,4f0dbe04e4b00ae6bb77152e,Sushi Yana,52.24162983325608,20.982445377624085,Sushi Restaurant
677,52.24172478495331,20.985804955052874,6,4,507476a7e4b0105934947c25,Sushiyana,52.241807,20.982343,Sushi Restaurant
678,52.24172478495331,20.985804955052874,6,5,5e5fa733602d7c0007bc7652,Bawarchi,52.243004,20.987063,Indian Restaurant
679,52.2462466436181,20.99314049949258,13,0,5bf4a84767e5f2002c1f9868,Zacny Pyrkot,52.24444889605842,20.991903841495514,Polish Restaurant
680,52.2462466436181,20.99314049949258,13,1,5da368a19a213a00071fc2f3,Rock n Roll - sushi i pizza,52.245040120181876,20.99283993244171,Japanese Restaurant
681,52.2462466436181,20.99314049949258,13,2,4cab714b36fa6dcbb019d978,Pizzeria Na Nowolipkach,52.245448438171444,20.993399660085302,Pizza Place
682,52.2462466436181,20.99314049949258,13,3,56ba216e38faedec114d0c7f,Cynamon Kuchnia Orientalna,52.24459199699862,20.9913620445138,Asian Restaurant
683,52.2462466436181,20.99314049949258,13,4,5eb6b973b94fa90008f7950d,Tonis Puri,52.24515,20.993309,Caucasian Restaurant
684,52.2462466436181,20.99314049949258,13,5,52453b9e11d22d74d19014e6,Plaża Poniatowskiego,52.24462410053123,20.995048210218993,African Restaurant
685,52.2462466436181,20.99314049949258,13,6,539343e0498e4cf319ab0df6,Kim Loan,52.245155334472656,20.993762969970703,Vietnamese Restaurant
686,52.2462466436181,20.99314049949258,13,7,4be959a8d837c9b6bc4aa606,Sapaya,52.24419547529447,20.99165647269764,Asian Restaurant
687,52.2462466436181,20.99314049949258,13,8,51261741e4b0fa38659a0339,HeyooDubai,52.24436977694694,20.99113456693124,Moroccan Restaurant
688,52.2462466436181,20.99314049949258,13,9,5313620311d2008c26cee477,Yummy Bar,52.24462883380926,20.991427892645945,Asian Restaurant
689,52.2462466436181,20.99314049949258,13,10,5b546c50e55d8b002c3aa348,La Vietnamita,52.244705,20.99177,Vietnamese Restaurant
690,52.2462466436181,20.99314049949258,13,11,526a4c1e498e78ac1f858bc1,Bufet W Poniacie,52.2447208509645,20.995343024356043,Argentinian Restaurant
691,52.2462466436181,20.99314049949258,13,12,4ce28fff78ddf04d866cb198,Furkot,52.24427668083424,20.991611488780716,Eastern European Restaurant
692,52.24172478495331,20.99314049949258,31,0,5c5ee4ae4c954c002cd63c68,Bangkok Soi,52.243797,20.992592,Thai Restaurant
693,52.24172478495331,20.99314049949258,31,1,5f36b7df0d6233043238c425,El Mexicano,52.241648,20.991753,Mexican Restaurant
694,52.24172478495331,20.99314049949258,31,2,5ca0047e31fd140039ac368c,Pandacake,52.241755,20.991888,Chinese Restaurant
695,52.24172478495331,20.99314049949258,31,3,50424794e4b01446ab235deb,Amrit Kebab,52.24162652629061,20.99392978567298,Falafel Restaurant
696,52.24172478495331,20.99314049949258,31,4,4cebe0b7f86537047e49c5c4,Kebab King,52.242900667499626,20.992293005281578,Middle Eastern Restaurant
697,52.24172478495331,20.99314049949258,31,5,538e177f498e5865fbe95719,nowolipie za drzwiami,52.24276330342641,20.991302130475887,Polish Restaurant
698,52.24172478495331,20.99314049949258,31,6,51f0f8e5498ee9dbc339cb7c,Tatami Sushi,52.241769014591455,20.991452552862537,Sushi Restaurant
699,52.24172478495331,20.99314049949258,31,7,5b40d167a89b5a002439feb5,Kan Zamaan,52.24258,20.993153,Middle Eastern Restaurant
700,52.24172478495331,20.99314049949258,31,8,511f9cc9e4b0bc188c8e0fa1,Lale Kebab,52.24261006958694,20.992740616925616,Turkish Restaurant
701,52.24172478495331,20.99314049949258,31,9,4c92693dae45224bb813f097,San Lorenzo,52.24076291582275,20.99494492350669,Italian Restaurant
702,52.24172478495331,20.99314049949258,31,10,581749c838faf1fd6d0b6329,KFP Kluski Frytki Placki,52.2433,20.991756,Polish Restaurant
703,52.24172478495331,20.99314049949258,31,11,51e58a68498e2696956c49e8,Bao Bar,52.242480561646644,20.992974015680943,Chinese Restaurant
704,52.24172478495331,20.99314049949258,31,12,534aed36498e504052165d09,ba Adriatico,52.243646543138304,20.992415167565227,Hungarian Restaurant
705,52.24172478495331,20.99314049949258,31,13,4e9ef6dc02d576b655677e8e,SHiNESABA SUSHi,52.243489782391705,20.991568565368652,Sushi Restaurant
706,52.24172478495331,20.99314049949258,31,14,5d63bd3551bb400008bc15cc,Umi Ramen,52.243441,20.991496,Ramen Restaurant
707,52.24172478495331,20.99314049949258,31,15,5a9c2ef316ef677e81fb98a1,Bombay Lounge,52.243784,20.992331,Indian Restaurant
708,52.24172478495331,20.99314049949258,31,16,54f4aed3498e12fe89985284,Smak Tybetu,52.24236348783889,20.99270236184309,Tibetan Restaurant
709,52.24172478495331,20.99314049949258,31,17,51c1e98d498e4ba47c48a003,Sen Viet,52.24302,20.991749,Asian Restaurant
710,52.24172478495331,20.99314049949258,31,18,4d6d155a21acf04d44054b3a,Matsu Sushi,52.24158034778287,20.992469983864947,Sushi Restaurant
711,52.24172478495331,20.99314049949258,31,19,5921b27e8c35dc7af61791e4,Cuong,52.242747,20.991655,Vietnamese Restaurant
712,52.24172478495331,20.99314049949258,31,20,4d53f32f3d73548140374252,Piwiarnia Warka,52.24156584278218,20.99420980192152,Pub
713,52.24172478495331,20.99314049949258,31,21,5931412e5ba04607d24e4e54,Makarun,52.241074,20.994844,Noodle House
714,52.24172478495331,20.99314049949258,31,22,4c60245913791b8d4cdc4eaf,Matsu Sushi & Thai Wok,52.24158088475139,20.994064147369553,Sushi Restaurant
715,52.24172478495331,20.99314049949258,31,23,4ff1c33de4b0dc34773713a0,Le Cedre 84,52.24122201611555,20.991138826011912,Lebanese Restaurant
716,52.24172478495331,20.99314049949258,31,24,4c9a546fd4b1b1f73650cf35,Sake Sushi,52.242578,20.992486,Sushi Restaurant
717,52.24172478495331,20.99314049949258,31,25,5470809d498e45b94adef420,Tsong Kha Momo,52.242526,20.992681,Tibetan Restaurant
718,52.24172478495331,20.99314049949258,31,26,57055d29cd10067dff9addb4,Muddina Restaurant,52.24357188307266,20.991448586815707,Middle Eastern Restaurant
719,52.24172478495331,20.99314049949258,31,27,577d2a50cd1082e7222c134d,Panda Handroll,52.241234,20.994822,Sushi Restaurant
720,52.24172478495331,20.99314049949258,31,28,5369355b498eaa8131f7dbc5,Fabryka Frytek,52.24346350501319,20.99161148071289,Fast Food Restaurant
721,52.24172478495331,20.99314049949258,31,29,56e8475fcd10cf6ee59e4aa7,kuchnia tybetańska,52.24268,20.992528,Tibetan Restaurant
722,52.24172478495331,20.99314049949258,31,30,515c8370e4b07c3dddee1740,Sicilian Original Snacks,52.24150466918945,20.993831634521484,Italian Restaurant
