,lat_centre,long_centre,num_venues,venue_iter,venue_id,venue_name,lat_venue,long_venue,category
0,48.1882,16.35695789473684,7,0,5b8e6943b6eedb002c56f387,Om Namo - Indisches Restaurant,48.18635,16.355972,Indian Restaurant
1,48.1882,16.35695789473684,7,1,4b9b6108f964a520a50336e3,Tien Tsin,48.188606,16.356422,Chinese Restaurant
2,48.1882,16.35695789473684,7,2,59a45eca58002c3c1fb1f532,Tawa,48.189384,16.355598,Indian Restaurant
3,48.1882,16.35695789473684,7,3,58820498916802691b7b79e5,Hendlbrater vorm Spar,48.18735,16.359394,Austrian Restaurant
4,48.1882,16.35695789473684,7,4,4c001e7692a6c928e0ae43e2,To Syrtaki,48.186647480099005,16.357229127801425,Greek Restaurant
5,48.1882,16.35695789473684,7,5,53b98177498e3a0a0d36678d,Gold Rock,48.18941211210977,16.35635242860175,Korean Restaurant
6,48.1882,16.35695789473684,7,6,5f6cb6d69e02805f021e68c9,Hey!,48.189375,16.356227,Vietnamese Restaurant
7,48.190460929332396,16.353589325448592,19,0,4d21cdd12eb1f04dff08fbc1,Vietnam Bistro,48.189547565955856,16.35213134377913,Vietnamese Restaurant
8,48.190460929332396,16.353589325448592,19,1,515587f5e4b0c678e6dda7f9,Iso Kebap,48.19198698950179,16.355244587018237,Turkish Restaurant
9,48.190460929332396,16.353589325448592,19,2,4b50c786f964a5201d3227e3,Colombo Hoppers,48.18970693106047,16.350754501185783,Indian Restaurant
10,48.190460929332396,16.353589325448592,19,3,5e1da5110643390007febf27,Dancing Noodles,48.1919789,16.35603,Noodle House
11,48.190460929332396,16.353589325448592,19,4,50f9cd3fe4b05d911f2db9e7,gondola,48.19242477416992,16.354318618774414,Italian Restaurant
12,48.190460929332396,16.353589325448592,19,5,59a45eca58002c3c1fb1f532,Tawa,48.189384,16.355598,Indian Restaurant
13,48.190460929332396,16.353589325448592,19,6,5d9231ab021d5900080aec40,Zum Stoeger,48.190169,16.355015,Austrian Restaurant
14,48.190460929332396,16.353589325448592,19,7,5f1b0a28ba898f5597454141,Polt Bayrisch Pub,48.189901,16.352801,Pub
15,48.190460929332396,16.353589325448592,19,8,589dd295fb9d8959238e8da9,Asian Cuisine,48.190699,16.355411,Asian Restaurant
16,48.190460929332396,16.353589325448592,19,9,4f0c429ae4b0cdfb028afd9a,La Taka,48.19090426831744,16.355827718761155,Turkish Restaurant
17,48.190460929332396,16.353589325448592,19,10,500159e5e4b04575fd9afc7d,Kyoto Japanese Restaurant,48.192436270715554,16.353325363604686,Japanese Restaurant
18,48.190460929332396,16.353589325448592,19,11,4be6eef3cf200f47a905153c,La Gondola,48.18964215129951,16.35237801970138,Italian Restaurant
19,48.190460929332396,16.353589325448592,19,12,4bcd9c1a937ca59387f3ac92,Stöger,48.19041312212512,16.354995925457768,Austrian Restaurant
20,48.190460929332396,16.353589325448592,19,13,4bf034431f17ef3bbfbe9bc8,Woracziczky Gasthaus,48.189187366075984,16.353057580496237,Austrian Restaurant
21,48.190460929332396,16.353589325448592,19,14,5543d459498e255e06061599,Xu's Cooking,48.188582995032654,16.35195433436311,Sushi Restaurant
22,48.190460929332396,16.353589325448592,19,15,4fe44f26e4b0237b9dc16b0b,Leskovacki Zar,48.18926080305899,16.351231160781317,Eastern European Restaurant
23,48.190460929332396,16.353589325448592,19,16,4bec17959fa3ef3bfb4d80c9,Pizzeria Da Capo,48.19021299513843,16.352475111435904,Pizza Place
24,48.190460929332396,16.353589325448592,19,17,53b98177498e3a0a0d36678d,Gold Rock,48.18941211210977,16.35635242860175,Korean Restaurant
25,48.190460929332396,16.353589325448592,19,18,5f6cb6d69e02805f021e68c9,Hey!,48.189375,16.356227,Vietnamese Restaurant
26,48.18593907066761,16.353589325448592,18,0,5127787fe4b07724f9a7dd59,Mimoza,48.185452673285724,16.353397831057574,Middle Eastern Restaurant
27,48.18593907066761,16.353589325448592,18,1,4fc8b88ce4b08eb1f5800a83,Nam-Nam Deli,48.18680266945639,16.353955372945002,Indian Restaurant
28,48.18593907066761,16.353589325448592,18,2,4c5db9b89b28d13a076f5a70,Senhor Vinho,48.187310784849124,16.353561343461788,Portuguese Restaurant
29,48.18593907066761,16.353589325448592,18,3,5b8e6943b6eedb002c56f387,Om Namo - Indisches Restaurant,48.18635,16.355972,Indian Restaurant
30,48.18593907066761,16.353589325448592,18,4,513225d2e4b08f70f01ea45f,Ünsal Bäckerei,48.186067,16.354942,Turkish Restaurant
31,48.18593907066761,16.353589325448592,18,5,4ed5401abe7b276c603e85ce,edo Noodles,48.18630230920199,16.35339057501643,Asian Restaurant
32,48.18593907066761,16.353589325448592,18,6,51df0d9d498ee64c62a2fe5b,Caffe India,48.185516,16.353421,Indian Restaurant
33,48.18593907066761,16.353589325448592,18,7,57e92e69cd100e7c46caef3c,Sushi & More,48.187614,16.352384,Asian Restaurant
34,48.18593907066761,16.353589325448592,18,8,4e2749f1aeb75df8caa0adb0,Kebab World VIE Magareten,48.18568,16.355056,Doner Restaurant
35,48.18593907066761,16.353589325448592,18,9,4c31947c3896e21ec642e790,Ristorante Maria-Rosa,48.185499241664,16.353533097158916,Italian Restaurant
36,48.18593907066761,16.353589325448592,18,10,4cab67792f08236ae5258661,China Restaurant Duft,48.18491713178417,16.35493763793688,Chinese Restaurant
37,48.18593907066761,16.353589325448592,18,11,5399d4e3498e2365d2916c2c,Aliya Restaurant,48.185422,16.352836,Romanian Restaurant
38,48.18593907066761,16.353589325448592,18,12,56091893498e86a57a5dd6c5,Ham Ham,48.186388,16.352523,Sushi Restaurant
39,48.18593907066761,16.353589325448592,18,13,50df6066e4b0a78bf6c01fc2,Murat cig kofte,48.1848562,16.3538762,Cigkofte Place
40,48.18593907066761,16.353589325448592,18,14,50fc3a39e4b02fe313666b60,Pizzeria Manara,48.18640927888238,16.35286795597956,Italian Restaurant
41,48.18593907066761,16.353589325448592,18,15,4c88e80f7223b1f7a22b2fa8,Vietnam Imbiss,48.187702,16.352242,Vietnamese Restaurant
42,48.18593907066761,16.353589325448592,18,16,4f1c29afe4b0d9f8ba11be92,Sofia,48.18449733307001,16.35358648262983,Bulgarian Restaurant
43,48.18593907066761,16.353589325448592,18,17,568aa3c1498e94fa5333a7b3,Ai Sushi,48.18465,16.355188,Asian Restaurant
44,48.190460929332396,16.36032646402509,9,0,4bc05d86abf495213c23bf93,Silberwirt,48.191084269315915,16.35906319214014,Austrian Restaurant
45,48.190460929332396,16.36032646402509,9,1,4b87c714f964a5208bcb31e3,Margareta,48.19176862232957,16.358815843937798,Italian Restaurant
46,48.190460929332396,16.36032646402509,9,2,57d2c9e9498ed490d31e6d34,Mosquito Mexican Restaurant,48.19243,16.36006,Mexican Restaurant
47,48.190460929332396,16.36032646402509,9,3,5836f1756b0cdb2394c59eb7,La Fornace,48.189598,16.362529,Italian Restaurant
48,48.190460929332396,16.36032646402509,9,4,4bcdbe2efb84c9b61175223e,Zum Alten Fassl,48.191630416359445,16.36050657680275,Austrian Restaurant
49,48.190460929332396,16.36032646402509,9,5,5b34bb6d90d1ed002c22e62b,Dai Golosi,48.190893,16.357825,Italian Restaurant
50,48.190460929332396,16.36032646402509,9,6,4bd1f325046076b08ee07271,Moli,48.192435,16.360733,Asian Restaurant
51,48.190460929332396,16.36032646402509,9,7,576d819a498e086d571c87ec,Seasons,48.189746,16.362363,Bulgarian Restaurant
52,48.190460929332396,16.36032646402509,9,8,52456ea911d26fb0eb77bd68,Seasons,48.18991103960777,16.362637078298935,Eastern European Restaurant
53,48.18593907066761,16.36032646402509,4,0,551d846b498e2d9b07141562,Duspara,48.18448434807615,16.361576340286028,Austrian Restaurant
54,48.18593907066761,16.36032646402509,4,1,4f7adf5fe4b02f1b2ccde42f,Ristorante Leone d'Oro,48.18489074707031,16.36201286315918,Italian Restaurant
55,48.18593907066761,16.36032646402509,4,2,58820498916802691b7b79e5,Hendlbrater vorm Spar,48.18735,16.359394,Austrian Restaurant
56,48.18593907066761,16.36032646402509,4,3,4c001e7692a6c928e0ae43e2,To Syrtaki,48.186647480099005,16.357229127801425,Greek Restaurant
57,48.1982,16.342221052631576,24,0,56d872b6cd10fd56c4d24dab,Ebi Mariahilfer,48.19661964607276,16.343165285928205,Japanese Restaurant
58,48.1982,16.342221052631576,24,1,51bcad5e498e895bd86dd240,Tata,48.20025,16.34298,Vietnamese Restaurant
59,48.1982,16.342221052631576,24,2,4d53d50cdcb1a143a561b7bf,Caspian,48.199172366394336,16.345044922994322,Persian Restaurant
60,48.1982,16.342221052631576,24,3,4b71a819f964a52013542de3,Sushi-Bar MONO,48.19749519180846,16.343868589338154,Sushi Restaurant
61,48.1982,16.342221052631576,24,4,4b5d909cf964a520b26129e3,Il Mare,48.19898975525971,16.34508892046393,Italian Restaurant
62,48.1982,16.342221052631576,24,5,5de2445b65673b0007465328,laolao,48.19644013689308,16.340553760528564,Chinese Restaurant
63,48.1982,16.342221052631576,24,6,5ef8afaaf506b9000885281f,Vevi Restaurant,48.198743,16.34164,Vegetarian / Vegan Restaurant
64,48.1982,16.342221052631576,24,7,4b7d97b5f964a520abc82fe3,tapasta,48.19764365894531,16.34382468537554,Spanish Restaurant
65,48.1982,16.342221052631576,24,8,54e8816b498edbb9645879e4,Chap In - Street Food Buffet Restaurant,48.19793871011237,16.34128784443103,Vietnamese Restaurant
66,48.1982,16.342221052631576,24,9,4f47e691e4b0bf7286f5e9da,akoya bar & restaurant,48.198074,16.342024,Asian Restaurant
67,48.1982,16.342221052631576,24,10,5b1e982bca18ea0039f48cad,Maivy,48.198672,16.341832,Vietnamese Restaurant
68,48.1982,16.342221052631576,24,11,56e5a01f498e40be579df927,Mozart's Restaurant,48.196873,16.339521,Australian Restaurant
69,48.1982,16.342221052631576,24,12,52026ce3498e85ea5adf4f89,مطعم ايراني ً,48.19901699053021,16.343091122071158,Arepa Restaurant
70,48.1982,16.342221052631576,24,13,4d513b4c4015b1f7b4f56dcf,asia to go,48.19620151811025,16.34366506371326,Asian Restaurant
71,48.1982,16.342221052631576,24,14,4e0f07c122711665f61a562f,Green Express,48.196858913725414,16.34456477592831,Asian Restaurant
72,48.1982,16.342221052631576,24,15,4c1a25d3f551ef3bc3534768,Würstel-Express,48.19681422484275,16.34412637310963,Bratwurst Joint
73,48.1982,16.342221052631576,24,16,580f358338fa5e369fb0aed9,An Nam,48.198754,16.345127,Vietnamese Restaurant
74,48.1982,16.342221052631576,24,17,4d6013dd1939a35d0b371dee,Home Cooking,48.19853,16.345206,Asian Restaurant
75,48.1982,16.342221052631576,24,18,50b9e8b7e4b0e9eceb00bd08,Гнидник,48.196258544921875,16.34347915649414,Eastern European Restaurant
76,48.1982,16.342221052631576,24,19,4c72cdb66b91b7138545f620,Quick Green,48.196711,16.3446468114853,Asian Restaurant
77,48.1982,16.342221052631576,24,20,5db482a69843be0008ec82b5,Gaon,48.198193,16.342752,Korean Restaurant
78,48.1982,16.342221052631576,24,21,59ee339f9ba3e5673a7fdeb3,9Delou,48.198807,16.341398,Chinese Restaurant
79,48.1982,16.342221052631576,24,22,4d664521e07aa35dd8e8a68f,Sushi Bar,48.197442,16.343651,Sushi Restaurant
80,48.1982,16.342221052631576,24,23,4d0ce37d80105481ea4e1b96,Hopfenstange,48.19791082,16.34131034,German Restaurant
81,48.200460929332394,16.338851825876482,23,0,5f34244afbf6650f63d52efc,Chef’s,48.20111,16.337454,Doner Restaurant
82,48.200460929332394,16.338851825876482,23,1,5996d3e518d43b6d095b9ac6,Kaoo - Asiatische Fusionsküche,48.20164798471565,16.340561830160723,Ramen Restaurant
83,48.200460929332394,16.338851825876482,23,2,4c6cfe807bfe199cb38ed9ce,Restaurant Pulkautaler Weinhaus,48.19836636017351,16.33833508820211,Austrian Restaurant
84,48.200460929332394,16.338851825876482,23,3,5f3991b1115d935f896dd862,Melat,48.200329,16.33946,Persian Restaurant
85,48.200460929332394,16.338851825876482,23,4,4de53044d4c0704405ad2079,Galaxie,48.200472405842795,16.336489438627208,Mediterranean Restaurant
86,48.200460929332394,16.338851825876482,23,5,4d4de7bc4aa3a093935f48ae,Mitzitant,48.2003569540328,16.340689454155978,Gastropub
87,48.200460929332394,16.338851825876482,23,6,4dac3a575da3ba8a47b143a1,Süshi Bar,48.20146091020657,16.34018581968707,Asian Restaurant
88,48.200460929332394,16.338851825876482,23,7,5dd98bacde17f80008a20533,Dönermeister,48.200892,16.337538,Doner Restaurant
89,48.200460929332394,16.338851825876482,23,8,57b338b9498e14688ee73066,Shao & Liu,48.20101,16.337166,Sushi Restaurant
90,48.200460929332394,16.338851825876482,23,9,4dcfde177d8b975f18f19039,Kebab Stand Nr. 6,48.2019380030383,16.337313652038574,Doner Restaurant
91,48.200460929332394,16.338851825876482,23,10,4dffbd7e52b10e7477989dcb,Lili Box,48.202072,16.337429,Asian Restaurant
92,48.200460929332394,16.338851825876482,23,11,5839e06814250b703bcce493,Pasargad Restaurant | رستوران پاسارگاد (Pasargad Restaurant) (Pasargad Restaurant),48.200189,16.338914,Persian Restaurant
93,48.200460929332394,16.338851825876482,23,12,4dc70a2145dd26455298ddab,Kebab Stand Nr. 2,48.20109419613479,16.337485313415527,Doner Restaurant
94,48.200460929332394,16.338851825876482,23,13,517fd0ca498e377c64b15af4,La Fortuna,48.19923298966225,16.338494492544378,Italian Restaurant
95,48.200460929332394,16.338851825876482,23,14,508aa621e4b0f6951d463c34,6.Stock Küche,48.20080709084447,16.33905061259797,Turkish Restaurant
96,48.200460929332394,16.338851825876482,23,15,581cd7202fea3626412c6cf0,Lin's,48.20092,16.337175,Asian Restaurant
97,48.200460929332394,16.338851825876482,23,16,4ca5834e14c33704c1fbb63b,Sofram Kebap,48.198418538601125,16.338815352229105,Doner Restaurant
98,48.200460929332394,16.338851825876482,23,17,599c82a8a4236278ff6c43ca,Tapas Mayas,48.201053,16.340797,Tapas Restaurant
99,48.200460929332394,16.338851825876482,23,18,4e1af52e1f6e88001e43bf02,West Bahn Henol,48.20191,16.339776,Eastern European Restaurant
100,48.200460929332394,16.338851825876482,23,19,55e5f314498e10250f2952e6,Mily,48.201219,16.33752,Sushi Restaurant
101,48.200460929332394,16.338851825876482,23,20,4bad0bc9f964a520f4273be3,Xu's Cooking,48.20141438682852,16.340386491654623,Asian Restaurant
102,48.200460929332394,16.338851825876482,23,21,5a82a9ffb8fd9d6fa2d7f785,Cylon Curry,48.19929069096367,16.338829100131985,Sri Lankan Restaurant
103,48.200460929332394,16.338851825876482,23,22,559bd9af498e1fddfbc8587d,Happy Thai Imbiss Spezialitäten,48.200444,16.341881,Thai Restaurant
104,48.195939070667606,16.338851825876482,27,0,4dedf7c8d4c0194252f23253,Schnellimbiss Europaplatz,48.19689646509913,16.339216768312635,Hot Dog Joint
105,48.195939070667606,16.338851825876482,27,1,4e9c2f57d22d8be589bd3359,Vapiano,48.19597488659879,16.338812685292083,Italian Restaurant
106,48.195939070667606,16.338851825876482,27,2,5c404351d90516002588b6c3,Salpicon - Tacos & Salad,48.19540886361328,16.34051889181137,Taco Place
107,48.195939070667606,16.338851825876482,27,3,5de2445b65673b0007465328,laolao,48.19644013689308,16.340553760528564,Chinese Restaurant
108,48.195939070667606,16.338851825876482,27,4,5b1fbf6e0d0877001c5a9648,Željo Grill Burek,48.197037,16.337692,Snack Place
109,48.195939070667606,16.338851825876482,27,5,4f809281e4b0c7b85541b317,Noodle-Rice-Sushi,48.196659,16.338521,Asian Restaurant
110,48.195939070667606,16.338851825876482,27,6,526ac170498ed864586dc299,Asia Restaurant Paradies,48.19777309086435,16.337400565670354,Chinese Restaurant
111,48.195939070667606,16.338851825876482,27,7,5342831311d26f9393336be0,Westbahnhof'taki dönerci amca,48.19523133545573,16.337595772032447,Doner Restaurant
112,48.195939070667606,16.338851825876482,27,8,5c695c80c9a517002c564d5f,Alaturka,48.195238,16.337505,Turkish Restaurant
113,48.195939070667606,16.338851825876482,27,9,4de64dcd7d8b53987c5d45f3,Türkis,48.19672033434788,16.33808505002951,Turkish Restaurant
114,48.195939070667606,16.338851825876482,27,10,5ed2a6de9e53ee0008fc21c9,Som Kitchen,48.196743,16.337942,Thai Restaurant
115,48.195939070667606,16.338851825876482,27,11,4e895fc12c5bc023fcc69391,TrattoVia,48.1968274387251,16.33801183287316,Italian Restaurant
116,48.195939070667606,16.338851825876482,27,12,519cf5375019fa1b83d85526,Cafe Lepa Brena,48.19425741756171,16.338729858398438,Eastern European Restaurant
117,48.195939070667606,16.338851825876482,27,13,56e5a01f498e40be579df927,Mozart's Restaurant,48.196873,16.339521,Australian Restaurant
118,48.195939070667606,16.338851825876482,27,14,5507164c498e2637e34ce6bc,Mega Pizza Kebap,48.19502358719506,16.336763324046057,Doner Restaurant
119,48.195939070667606,16.338851825876482,27,15,50cefde1e4b0d07033961fa0,Happy Noodles,48.1966811480918,16.337361585646406,Asian Restaurant
120,48.195939070667606,16.338851825876482,27,16,51406ce8e4b075f69a4b0ed2,Tratto Via,48.196800962379655,16.337889587031793,Italian Restaurant
121,48.195939070667606,16.338851825876482,27,17,53e3ac24498ed4ef32c8957b,hanedan doner kebap,48.1964225769043,16.335586547851562,Doner Restaurant
122,48.195939070667606,16.338851825876482,27,18,4d1253ebffa1224b6a6d98ad,Crazy Noodles,48.196159792749626,16.339073181152344,Fast Food Restaurant
123,48.195939070667606,16.338851825876482,27,19,4d5acb17fe7c224b5ecc86b5,Mr. Lee,48.196753953625446,16.33770097689876,Sushi Restaurant
124,48.195939070667606,16.338851825876482,27,20,5f146679c445c87c07a7fd24,Thai Taste,48.195301,16.341474,Thai Restaurant
125,48.195939070667606,16.338851825876482,27,21,58b1c15861052868fb48874a,Merak | Traditional Characoal Barbecue,48.194694,16.336826,Eastern European Restaurant
126,48.195939070667606,16.338851825876482,27,22,4dd95b30ae60680f1535fbbc,Zum Hagenthaler,48.19412462576693,16.34025073649028,Austrian Restaurant
127,48.195939070667606,16.338851825876482,27,23,4ee8dde377c83054d9325492,COCOS einfach asiatisch,48.196539013551934,16.338103315654703,Asian Restaurant
128,48.195939070667606,16.338851825876482,27,24,5a3d441ebed4834ef2444b8f,老北京,48.197916,16.337678,Chinese Restaurant
129,48.195939070667606,16.338851825876482,27,25,508e6e54e4b01167ec578370,Ristorante Pierino Rathaus,48.19423885563155,16.338591715498413,Italian Restaurant
130,48.195939070667606,16.338851825876482,27,26,4cde7318df986ea81fdfdb16,Yummy Cooking,48.194864240598505,16.336569904276676,Asian Restaurant
131,48.200460929332394,16.34559027938667,27,0,55bfb692498eae66ee9f7565,Berliner Döner,48.20177790590743,16.34499942369765,Doner Restaurant
132,48.200460929332394,16.34559027938667,27,1,51bcad5e498e895bd86dd240,Tata,48.20025,16.34298,Vietnamese Restaurant
133,48.200460929332394,16.34559027938667,27,2,5aeb40a4029a5500392aad78,Pinoy Food,48.200788,16.346068,Filipino Restaurant
134,48.200460929332394,16.34559027938667,27,3,4d53d50cdcb1a143a561b7bf,Caspian,48.199172366394336,16.345044922994322,Persian Restaurant
135,48.200460929332394,16.34559027938667,27,4,4b0c7ff0f964a5205c3e23e3,Zur Stadt Krems,48.202182622784,16.344884239604884,Austrian Restaurant
136,48.200460929332394,16.34559027938667,27,5,4b4a1ed2f964a520547b26e3,I Terroni,48.2018536969928,16.34338260714334,Italian Restaurant
137,48.200460929332394,16.34559027938667,27,6,5b9bde2266f3cd002c689f10,Berliner Restaurant Grillspezialitäten,48.201876,16.344842,Kebab Restaurant
138,48.200460929332394,16.34559027938667,27,7,51329ca8e4b054cc6fc18a25,Toma tu tiempo,48.20230650413381,16.3449957897007,Tapas Restaurant
139,48.200460929332394,16.34559027938667,27,8,4b5d909cf964a520b26129e3,Il Mare,48.19898975525971,16.34508892046393,Italian Restaurant
140,48.200460929332394,16.34559027938667,27,9,594ed942d69ed07b8e0161b7,Yi Pin Bu Yi,48.201869,16.346808,Chinese Restaurant
141,48.200460929332394,16.34559027938667,27,10,4d04c70d8620224b91f0aa40,Neubauschenke,48.20039064683673,16.344748539055384,Austrian Restaurant
142,48.200460929332394,16.34559027938667,27,11,50197272e4b06d50765797f3,Noosh - Afghanische Spezialitäten,48.20069099123432,16.344996464536184,Afghan Restaurant
143,48.200460929332394,16.34559027938667,27,12,5022bb6ae4b0ae1fa6878ea0,Ra'mien,48.19902801513672,16.346511840820312,Asian Restaurant
144,48.200460929332394,16.34559027938667,27,13,4ec64c8c0e6158bafd1448a4,Kanton,48.20062469709196,16.343356097244754,Asian Restaurant
145,48.200460929332394,16.34559027938667,27,14,54f9c764498ea577584220b2,Those russians Vienna edition,48.200188,16.347009,American Restaurant
146,48.200460929332394,16.34559027938667,27,15,58007685d67c5f0864d1bdc5,Phillipine,48.2008452,16.3461093,Filipino Restaurant
147,48.200460929332394,16.34559027938667,27,16,52026ce3498e85ea5adf4f89,مطعم ايراني ً,48.19901699053021,16.343091122071158,Arepa Restaurant
148,48.200460929332394,16.34559027938667,27,17,5526b712498eee24f5f01e60,Tredici e Mezzo,48.19957283207627,16.346563140594753,Italian Restaurant
149,48.200460929332394,16.34559027938667,27,18,4e159446b61c42e7c54c0fec,Cafe-Restaurant Arnes,48.20193,16.344276,Greek Restaurant
150,48.200460929332394,16.34559027938667,27,19,580f358338fa5e369fb0aed9,An Nam,48.198754,16.345127,Vietnamese Restaurant
151,48.200460929332394,16.34559027938667,27,20,4d6013dd1939a35d0b371dee,Home Cooking,48.19853,16.345206,Asian Restaurant
152,48.200460929332394,16.34559027938667,27,21,5eeb43adac5bea000867a62f,Beriner,48.201886,16.344816,Mediterranean Restaurant
153,48.200460929332394,16.34559027938667,27,22,4d5174469d493704e20bcd39,Khaled Und Sonja,48.20056,16.345061,South American Restaurant
154,48.200460929332394,16.34559027938667,27,23,5893337e4ca49b2aa5ec1969,Old Quarter,48.201945,16.347426,Vietnamese Restaurant
155,48.200460929332394,16.34559027938667,27,24,4cf53b1e88de37047b7a892b,Restaurant Salonica,48.20062,16.344859,Greek Restaurant
156,48.200460929332394,16.34559027938667,27,25,4e2bf0ebc65bcaf40033f925,Cafe Bygos,48.201694,16.345218,Café
157,48.200460929332394,16.34559027938667,27,26,58d16c3dcf445119f840bef7,Yipin Buyi,48.201824,16.346447,Szechuan Restaurant
158,48.195939070667606,16.34559027938667,28,0,56d872b6cd10fd56c4d24dab,Ebi Mariahilfer,48.19661964607276,16.343165285928205,Japanese Restaurant
159,48.195939070667606,16.34559027938667,28,1,4b71a819f964a52013542de3,Sushi-Bar MONO,48.19749519180846,16.343868589338154,Sushi Restaurant
160,48.195939070667606,16.34559027938667,28,2,585f13373bd4ab627c2be035,Ivy's Pho House,48.197013572977596,16.345343458290767,Vietnamese Restaurant
161,48.195939070667606,16.34559027938667,28,3,51baeae7498ebbbec1ae15ee,Yummyaki,48.197227461819224,16.347639712211873,Vietnamese Restaurant
162,48.195939070667606,16.34559027938667,28,4,4ddcb573091a09826a0f6ed8,Mythos,48.196350035762066,16.344421846729063,Greek Restaurant
163,48.195939070667606,16.34559027938667,28,5,57208f66498efeacd8622e51,Rani,48.19595828696183,16.34463367270111,Indian Restaurant
164,48.195939070667606,16.34559027938667,28,6,536a7923498eb84c74280334,myschnitzel,48.19692026901457,16.347892560968344,Austrian Restaurant
165,48.195939070667606,16.34559027938667,28,7,5596cc35498ed14c4e01992d,Aroi Thai,48.19455404348084,16.34406725975168,Thai Restaurant
166,48.195939070667606,16.34559027938667,28,8,584a8d1ee7f1cf64e9984cff,Curry Express,48.196961,16.347684,Indian Restaurant
167,48.195939070667606,16.34559027938667,28,9,5bc1e7e8d3cce8002c592d41,Pho Hang,48.197876,16.345638,Vietnamese Restaurant
168,48.195939070667606,16.34559027938667,28,10,4b7d97b5f964a520abc82fe3,tapasta,48.19764365894531,16.34382468537554,Spanish Restaurant
169,48.195939070667606,16.34559027938667,28,11,5f27ede678733c1afd6f946c,Otto Yami,48.196412,16.348441,Sushi Restaurant
170,48.195939070667606,16.34559027938667,28,12,4d513b4c4015b1f7b4f56dcf,asia to go,48.19620151811025,16.34366506371326,Asian Restaurant
171,48.195939070667606,16.34559027938667,28,13,4b582e7cf964a520284d28e3,Mr. Lee,48.19740055786345,16.34703957136145,Asian Restaurant
172,48.195939070667606,16.34559027938667,28,14,4b4b735bf964a520299c26e3,Dots,48.19624981882803,16.34563078051985,Sushi Restaurant
173,48.195939070667606,16.34559027938667,28,15,4e0f07c122711665f61a562f,Green Express,48.196858913725414,16.34456477592831,Asian Restaurant
174,48.195939070667606,16.34559027938667,28,16,4c1a25d3f551ef3bc3534768,Würstel-Express,48.19681422484275,16.34412637310963,Bratwurst Joint
175,48.195939070667606,16.34559027938667,28,17,50b9e8b7e4b0e9eceb00bd08,Гнидник,48.196258544921875,16.34347915649414,Eastern European Restaurant
176,48.195939070667606,16.34559027938667,28,18,4d971f67b188721e11ff0637,Restaurant Mythos,48.19441226217024,16.3462554139747,Greek Restaurant
177,48.195939070667606,16.34559027938667,28,19,4c515f4d9426c92818e99a73,Igiban,48.195712,16.342495,Asian Restaurant
178,48.195939070667606,16.34559027938667,28,20,4c72cdb66b91b7138545f620,Quick Green,48.196711,16.3446468114853,Asian Restaurant
179,48.195939070667606,16.34559027938667,28,21,4b7e7d0bf964a5203aef2fe3,Shalimar,48.19511643173234,16.34646686186783,Indian Restaurant
180,48.195939070667606,16.34559027938667,28,22,56ed461f498eab94498f83c4,Pak Choi,48.196464335615254,16.34854193100678,Asian Restaurant
181,48.195939070667606,16.34559027938667,28,23,5dd5953a3d68ad00080eca11,Shenglong,48.19499,16.343162,Asian Restaurant
182,48.195939070667606,16.34559027938667,28,24,4d664521e07aa35dd8e8a68f,Sushi Bar,48.197442,16.343651,Sushi Restaurant
183,48.195939070667606,16.34559027938667,28,25,4d55af4cc6edf04d997ec7a2,Wiener Würstelstand,48.196876764071035,16.345975730867405,Hot Dog Joint
184,48.195939070667606,16.34559027938667,28,26,5a5a4d521ffed736f6215012,Blattgold Flagship Store - Vienna,48.19531946655444,16.34283497929573,Modern European Restaurant
185,48.195939070667606,16.34559027938667,28,27,4e0adc78922eb4eb9b3842ef,vinos majoma,48.19399994782399,16.344362497329712,Wine Bar
186,48.1982,16.35695789473684,28,0,4b4f7b30f964a520540827e3,Natsu Sushi,48.19834381516333,16.356629451986276,Sushi Restaurant
187,48.1982,16.35695789473684,28,1,5628d012498efd132ea67899,Karma Ramen,48.1964371825966,16.35777947749022,Ramen Restaurant
188,48.1982,16.35695789473684,28,2,4b2c0053f964a52053bf24e3,Mama Liu and Sons,48.19905374990505,16.35879084530415,Asian Restaurant
189,48.1982,16.35695789473684,28,3,4ce6cd240f196dcbb0f539ae,Restaurant Apadana,48.19621114768972,16.35742494125747,Middle Eastern Restaurant
190,48.1982,16.35695789473684,28,4,5f4517baf568bf0ea9f19b6d,enter my kitchen,48.198832,16.358394,Austrian Restaurant
191,48.1982,16.35695789473684,28,5,4d401961c1d4721e243a0dc7,Grillhaus Hong Kong,48.19896249209647,16.35879876476413,Chinese Restaurant
192,48.1982,16.35695789473684,28,6,5156ef93e4b074236ffbec5b,Restaurant Chinazentrum Zhong Xin,48.19736576,16.35871414,Chinese Restaurant
193,48.1982,16.35695789473684,28,7,5850dfcaecb67e2f6af82537,Cafe Pierre,48.197888438135614,16.35435396844717,Café
194,48.1982,16.35695789473684,28,8,56069857498e1ae1f8a7674d,China Garten Running Sushi,48.199977774775505,16.357362093153604,Chinese Restaurant
195,48.1982,16.35695789473684,28,9,531b62d0498eaa015f300abf,Restaurant Chinazentrum,48.197204652194245,16.358635188202907,Chinese Restaurant
196,48.1982,16.35695789473684,28,10,58c838109f2583148393fb7e,Ludwig van,48.1995,16.359205,Austrian Restaurant
197,48.1982,16.35695789473684,28,11,4b058896f964a5203bcf22e3,Restaurant Makedonija,48.19760144323756,16.358446384064013,Eastern European Restaurant
198,48.1982,16.35695789473684,28,12,4cc07bb78db3b60c0fad7e78,Restaurant Nayeb,48.19939623648402,16.359634272872405,Middle Eastern Restaurant
199,48.1982,16.35695789473684,28,13,55be58cf498e81a7417c1328,China Bar an der Wien,48.196368030183265,16.357215296529066,Asian Restaurant
200,48.1982,16.35695789473684,28,14,4b802983f964a520165830e3,Stella Marina,48.19972277449184,16.357436745010794,Italian Restaurant
201,48.1982,16.35695789473684,28,15,4fe99a43e4b010a6777e567c,Ristorante Villaggio,48.1972656587413,16.358558718852045,Italian Restaurant
202,48.1982,16.35695789473684,28,16,5dcc5a68adf07f0008e34e8a,Sägewerk Mahü,48.199632,16.355543,Austrian Restaurant
203,48.1982,16.35695789473684,28,17,4b058896f964a52022cf22e3,Der Grieche,48.19847938110049,16.353879137250818,Greek Restaurant
204,48.1982,16.35695789473684,28,18,4d3acb20039eb60c86c9ee9c,Kowloon China Restaurant,48.19650576347849,16.355576614353772,Chinese Restaurant
205,48.1982,16.35695789473684,28,19,57136524498eb84e867256d0,china restuarant nanking,48.197625,16.35989,Chinese Restaurant
206,48.1982,16.35695789473684,28,20,55ce1415498e232f33cbc491,Oishi - Sushi Take Away,48.19885525356904,16.35811948866035,Sushi Restaurant
207,48.1982,16.35695789473684,28,21,4b5c8abef964a5207c3529e3,Aming Dim Sum Profi,48.196148,16.357803,Dim Sum Restaurant
208,48.1982,16.35695789473684,28,22,53123063498e1447847e20ee,Weinschänke,48.196761875845795,16.359167709615324,Austrian Restaurant
209,48.1982,16.35695789473684,28,23,4d2cab4255a8b60c34f9f1c0,Bangkok Vienna Thai Restaurant,48.197717263702124,16.357468993261474,Thai Restaurant
210,48.1982,16.35695789473684,28,24,54cd23b7498e57df0bb33059,Chinesisches Männerwohnheim,48.197299,16.358648,Asian Restaurant
211,48.1982,16.35695789473684,28,25,4d7cf8f8645ea35dd9664ff8,Zhong Hua,48.19850102094125,16.35717348845386,Chinese Restaurant
212,48.1982,16.35695789473684,28,26,53451cb8498e855d91eec02c,das kai,48.20028780072259,16.35723727378486,Sushi Restaurant
213,48.1982,16.35695789473684,28,27,4b42461ef964a52077d025e3,Kuishimbo,48.197120178789476,16.35920020337347,Japanese Restaurant
214,48.200460929332394,16.353588667981747,28,0,4fbfe2e3e4b0a06f8def77de,Epos,48.20240360097168,16.354284031866282,Turkish Restaurant
215,48.200460929332394,16.353588667981747,28,1,5800ab6538fab63bb465d7e6,BAO BAR,48.19930229995206,16.351108697996782,Asian Restaurant
216,48.200460929332394,16.353588667981747,28,2,4b56f6a3f964a520e32028e3,I Carusi,48.20195790069994,16.351842964631647,Italian Restaurant
217,48.200460929332394,16.353588667981747,28,3,4b2f6f16f964a52062eb24e3,Sapa,48.199997753955806,16.35074499282461,Vietnamese Restaurant
218,48.200460929332394,16.353588667981747,28,4,524eb4c811d2835ad05f0279,Brandauer,48.19991032472549,16.352962177673717,Austrian Restaurant
219,48.200460929332394,16.353588667981747,28,5,4d3db88ba2e4b1f7179af425,Le Troquet,48.20109733978229,16.352194998452976,French Restaurant
220,48.200460929332394,16.353588667981747,28,6,4c0ce38098102d7f6944e106,Ostwind,48.200482691198076,16.35170957224522,Szechuan Restaurant
221,48.200460929332394,16.353588667981747,28,7,4b5c56faf964a520982b29e3,Centimeter II,48.20243287394037,16.354769793639935,Austrian Restaurant
222,48.200460929332394,16.353588667981747,28,8,557b2a0b498eee541e6c6c85,treubleiben wien,48.20127629827189,16.352139460061593,Bistro
223,48.200460929332394,16.353588667981747,28,9,4b54b973f964a52016c927e3,Akakiko,48.19969629645562,16.353267757250947,Japanese Restaurant
224,48.200460929332394,16.353588667981747,28,10,4b19700ff964a52057dd23e3,Lobo y Luna,48.20192,16.35111,Spanish Restaurant
225,48.200460929332394,16.353588667981747,28,11,4bed29c79868a593c7f75c46,*tart'a tata,48.200264187044134,16.35107056198294,French Restaurant
226,48.200460929332394,16.353588667981747,28,12,4cc2a2d3806246882ebc2a2f,Café Day Lounge,48.19970222096314,16.3536406086992,Café
227,48.200460929332394,16.353588667981747,28,13,4eda79ea61af8a14b66f0415,passaparola,48.202002,16.353407,Italian Restaurant
228,48.200460929332394,16.353588667981747,28,14,4dbaa0b90437ffd207a80800,Il Pasticcio,48.200422879992615,16.35270265495557,Italian Restaurant
229,48.200460929332394,16.353588667981747,28,15,5262b42b11d218d45544ad70,Zipfer,48.20238477736014,16.355112980611697,German Restaurant
230,48.200460929332394,16.353588667981747,28,16,51e062be498e3f6dffb556b2,Tsutenkaku,48.20028970786081,16.35144152329618,Sushi Restaurant
231,48.200460929332394,16.353588667981747,28,17,5dcc5a68adf07f0008e34e8a,Sägewerk Mahü,48.199632,16.355543,Austrian Restaurant
232,48.200460929332394,16.353588667981747,28,18,4c0b9618a1b32d7f83319bf0,Dal Capitano,48.199577,16.350804,Italian Restaurant
233,48.200460929332394,16.353588667981747,28,19,4b058896f964a52022cf22e3,Der Grieche,48.19847938110049,16.353879137250818,Greek Restaurant
234,48.200460929332394,16.353588667981747,28,20,538e184b498e248f6fca3805,東風,48.200476,16.351278,Chinese Restaurant
235,48.200460929332394,16.353588667981747,28,21,4c3385737cc0c9b66bf1f19a,Bea's,48.201401,16.351179,Brazilian Restaurant
236,48.200460929332394,16.353588667981747,28,22,4d31c5b85c2db60cb556bb6c,Alte Taverne,48.20139162630361,16.354470165480247,Austrian Restaurant
237,48.200460929332394,16.353588667981747,28,23,55dc9c5a498ea88689da0faa,Crêpös,48.20246,16.354762,French Restaurant
238,48.200460929332394,16.353588667981747,28,24,595e376a03132020d47ce3a3,Rosmarin. Nach Griechischem Rezept,48.198864,16.353434,Greek Restaurant
239,48.200460929332394,16.353588667981747,28,25,4cf0f29a899c6ea86796edc1,Sushi Lounge,48.20189,16.353388,Sushi Restaurant
240,48.200460929332394,16.353588667981747,28,26,56f2c168498ede8c0517ebee,Wok On,48.20038,16.355917,Noodle House
241,48.200460929332394,16.353588667981747,28,27,5f8d8ebb646d61552f405d4d,Mr. Mai,48.199737,16.352633,Dim Sum Restaurant
242,48.195939070667606,16.353588667981747,12,0,4beae1b762c0c928b364e1d4,Kaiserwalzer 2.0,48.19467318163226,16.35239569329238,Austrian Restaurant
243,48.195939070667606,16.353588667981747,12,1,5981e5901ffe976cb542c548,Mi Barrio,48.19445051901599,16.35205775499344,Latin American Restaurant
244,48.195939070667606,16.353588667981747,12,2,58065fbad67ce6b2cc2d3970,Teddy's American Diner,48.19740761899398,16.353310202684565,American Restaurant
245,48.195939070667606,16.353588667981747,12,3,5850dfcaecb67e2f6af82537,Cafe Pierre,48.197888438135614,16.35435396844717,Café
246,48.195939070667606,16.353588667981747,12,4,4c5e8f847735c9b6d1319272,Frau Mizzi Vienna.,48.194445,16.35172,German Restaurant
247,48.195939070667606,16.353588667981747,12,5,525ec54211d2865b8496cb93,Yang Haus,48.195079923121725,16.35081333978263,Asian Restaurant
248,48.195939070667606,16.353588667981747,12,6,5afac4def0b490002c30e783,Shokudo Kuishimbo,48.195186,16.351729,Japanese Restaurant
249,48.195939070667606,16.353588667981747,12,7,4d3acb20039eb60c86c9ee9c,Kowloon China Restaurant,48.19650576347849,16.355576614353772,Chinese Restaurant
250,48.195939070667606,16.353588667981747,12,8,5c007514112c6c002cdbe42b,Wang's Home Kitchen,48.19555189858303,16.355772614479065,Asian Restaurant
251,48.195939070667606,16.353588667981747,12,9,4df9d10dd4c064db03aa2047,Batello - Trattoria Cafe Pizzeria,48.195877308134115,16.356114367095284,Trattoria/Osteria
252,48.195939070667606,16.353588667981747,12,10,5cffb236d552c7002c607b48,Hokkaido Restaurant,48.19561984005376,16.35565459728241,Asian Restaurant
253,48.195939070667606,16.353588667981747,12,11,538f6c80498ee47df756318f,A. J's American Diner,48.19742269184826,16.353266904614838,American Restaurant
254,48.200460929332394,16.360327121491935,29,0,589c5419d772f913b0d24502,Max & Benito,48.20151422897355,16.360075122361604,Burrito Place
255,48.200460929332394,16.360327121491935,29,1,5f4b8980f5ac1773cd2304ec,Phoever,48.200623,16.357754,Vietnamese Restaurant
256,48.200460929332394,16.360327121491935,29,2,5f1976deaf13a308589f789c,Ma Belle,48.199717,16.360469,French Restaurant
257,48.200460929332394,16.360327121491935,29,3,4b2c0053f964a52053bf24e3,Mama Liu and Sons,48.19905374990505,16.35879084530415,Asian Restaurant
258,48.200460929332394,16.360327121491935,29,4,4b058891f964a520f3cd22e3,Ra'mien,48.200359078207725,16.361414849743745,Asian Restaurant
259,48.200460929332394,16.360327121491935,29,5,4b058897f964a52053cf22e3,Vapiano,48.20067006230172,16.358301591300503,Italian Restaurant
260,48.200460929332394,16.360327121491935,29,6,5f4517baf568bf0ea9f19b6d,enter my kitchen,48.198832,16.358394,Austrian Restaurant
261,48.200460929332394,16.360327121491935,29,7,4d401961c1d4721e243a0dc7,Grillhaus Hong Kong,48.19896249209647,16.35879876476413,Chinese Restaurant
262,48.200460929332394,16.360327121491935,29,8,4dd548a3b0fb7a332e7cc428,Natsu Sushi,48.20258933861575,16.36135447367741,Sushi Restaurant
263,48.200460929332394,16.360327121491935,29,9,4b1cf468f964a520af0a24e3,ShanghaiTan,48.2001252312325,16.3614159822464,Asian Restaurant
264,48.200460929332394,16.360327121491935,29,10,4bc04e99920eb713eec5182c,Türkis,48.2006966996302,16.357342644672453,Turkish Restaurant
265,48.200460929332394,16.360327121491935,29,11,56069857498e1ae1f8a7674d,China Garten Running Sushi,48.199977774775505,16.357362093153604,Chinese Restaurant
266,48.200460929332394,16.360327121491935,29,12,4cc9d72b5c17b60cb0990b05,Hanil,48.20027,16.361135,Korean Restaurant
267,48.200460929332394,16.360327121491935,29,13,58c838109f2583148393fb7e,Ludwig van,48.1995,16.359205,Austrian Restaurant
268,48.200460929332394,16.360327121491935,29,14,529a2ba0498ecb82898a9c95,shanghaitan,48.201560974121094,16.36311149597168,Asian Restaurant
269,48.200460929332394,16.360327121491935,29,15,4cc07bb78db3b60c0fad7e78,Restaurant Nayeb,48.19939623648402,16.359634272872405,Middle Eastern Restaurant
270,48.200460929332394,16.360327121491935,29,16,4b802983f964a520165830e3,Stella Marina,48.19972277449184,16.357436745010794,Italian Restaurant
271,48.200460929332394,16.360327121491935,29,17,4b6823d0f964a520d3682be3,Fusan,48.2023309228919,16.36185793419871,Asian Restaurant
272,48.200460929332394,16.360327121491935,29,18,4cc5a4ecd43ba14357de6ef8,El Greco,48.20038376979506,16.359197413539587,Greek Restaurant
273,48.200460929332394,16.360327121491935,29,19,55ce1415498e232f33cbc491,Oishi - Sushi Take Away,48.19885525356904,16.35811948866035,Sushi Restaurant
274,48.200460929332394,16.360327121491935,29,20,59dcec9b9e0d5418cbf84593,dupa venue,48.200278979654385,16.359801292419434,American Restaurant
275,48.200460929332394,16.360327121491935,29,21,4b6c72e8f964a520053b2ce3,Pizzeria Nerone,48.20025558726573,16.35955398699891,Pizza Place
276,48.200460929332394,16.360327121491935,29,22,4c9cea5554c8a1cd23bb7e4b,Schwarze Katze,48.19914,16.361978,Greek Restaurant
277,48.200460929332394,16.360327121491935,29,23,50d5ac1fe4b07f4e5ca03097,Kispizzeria,48.20168685913086,16.360536575317383,Italian Restaurant
278,48.200460929332394,16.360327121491935,29,24,5df3efbf3aeced0008c52726,Sangsang,48.199872,16.36091,Korean Restaurant
279,48.200460929332394,16.360327121491935,29,25,52505947498edf021229b560,Natori,48.20097553617525,16.36189901793758,Asian Restaurant
280,48.200460929332394,16.360327121491935,29,26,54b660e0498eb2f6dffac3cd,Vemaya,48.201051,16.362052,Asian Restaurant
281,48.200460929332394,16.360327121491935,29,27,53451cb8498e855d91eec02c,das kai,48.20028780072259,16.35723727378486,Sushi Restaurant
282,48.200460929332394,16.360327121491935,29,28,5ac4eadea22db7536a289709,Ebi Mini,48.200929,16.362169,Sushi Restaurant
283,48.195939070667606,16.360327121491935,41,0,5628d012498efd132ea67899,Karma Ramen,48.1964371825966,16.35777947749022,Ramen Restaurant
284,48.195939070667606,16.360327121491935,41,1,4ce6cd240f196dcbb0f539ae,Restaurant Apadana,48.19621114768972,16.35742494125747,Middle Eastern Restaurant
285,48.195939070667606,16.360327121491935,41,2,5c5553f0a30619002c84b926,Feine Sichuan Küche,48.19546,16.360195,Szechuan Restaurant
286,48.195939070667606,16.360327121491935,41,3,5156ef93e4b074236ffbec5b,Restaurant Chinazentrum Zhong Xin,48.19736576,16.35871414,Chinese Restaurant
287,48.195939070667606,16.360327121491935,41,4,4b69be94f964a52061b12be3,Papas Spezialitäten,48.19764869266788,16.36208782265045,Greek Restaurant
288,48.195939070667606,16.360327121491935,41,5,587a1595076be11c95946f71,Soba Noodle Bar,48.196891733426554,16.360195752805055,Noodle House
289,48.195939070667606,16.360327121491935,41,6,4d11fdf3ffa36ea828b9f5da,Donatella,48.195418900756806,16.363586728777562,Italian Restaurant
290,48.195939070667606,16.360327121491935,41,7,4b5f368bf964a520b6ad29e3,Der Hannes,48.196541783622784,16.362299453518123,Austrian Restaurant
291,48.195939070667606,16.360327121491935,41,8,4d5a73c21d4a8cfaa53a98ed,Dim-Sum Restaurant Chinazentrum,48.19732222202624,16.361507540046038,Chinese Restaurant
292,48.195939070667606,16.360327121491935,41,9,531b62d0498eaa015f300abf,Restaurant Chinazentrum,48.197204652194245,16.358635188202907,Chinese Restaurant
293,48.195939070667606,16.360327121491935,41,10,56ab7333498e060470b3d6af,Linda's Imbiss,48.196571,16.361551,Chinese Restaurant
294,48.195939070667606,16.360327121491935,41,11,4fdf73ade4b052ec1bc3cc4d,Sixta,48.19397849195411,16.35950356721878,Austrian Restaurant
295,48.195939070667606,16.360327121491935,41,12,4b058896f964a5203bcf22e3,Restaurant Makedonija,48.19760144323756,16.358446384064013,Eastern European Restaurant
296,48.195939070667606,16.360327121491935,41,13,55be58cf498e81a7417c1328,China Bar an der Wien,48.196368030183265,16.357215296529066,Asian Restaurant
297,48.195939070667606,16.360327121491935,41,14,56e3e865498eebccdc362c94,Aycan Doner Kebap,48.197242,16.360629,Doner Restaurant
298,48.195939070667606,16.360327121491935,41,15,4d285faf55a8b60c0dadccc0,La Piccola Italia,48.197337945045156,16.360671547424815,Italian Restaurant
299,48.195939070667606,16.360327121491935,41,16,56137e5f498e2872ab871b6f,Kojiro 3,48.19741013778934,16.36199369051539,Japanese Restaurant
300,48.195939070667606,16.360327121491935,41,17,4fe99a43e4b010a6777e567c,Ristorante Villaggio,48.1972656587413,16.358558718852045,Italian Restaurant
301,48.195939070667606,16.360327121491935,41,18,505d7cd6e4b06d1d2b0c0c1f,Buona Cucina,48.197464,16.361383,Italian Restaurant
302,48.195939070667606,16.360327121491935,41,19,5ef8c3858556300008913074,Jinco,48.196762,16.360252,Szechuan Restaurant
303,48.195939070667606,16.360327121491935,41,20,5c4c9504418686002c54d9e3,Wang-Nudelshop,48.196471,16.359534,Chinese Restaurant
304,48.195939070667606,16.360327121491935,41,21,50b6079ee4b0d4ffa6c62fc0,neuDeli,48.197933372156804,16.360702514648438,Indian Restaurant
305,48.195939070667606,16.360327121491935,41,22,4ca4e711b7106dcb34be4fa5,die unfreundlichste pizzaria der welt,48.194143,16.361927,Italian Restaurant
306,48.195939070667606,16.360327121491935,41,23,52405fe511d26f01da3bd815,Kojiro Japan Restaurant,48.1975114374604,16.36087954044342,Japanese Restaurant
307,48.195939070667606,16.360327121491935,41,24,5485daa1498e1221995114df,Baschly,48.197333,16.360516,Middle Eastern Restaurant
308,48.195939070667606,16.360327121491935,41,25,4cc32cf31e596dcbed8fc867,La Fonda,48.196999,16.36203,Latin American Restaurant
309,48.195939070667606,16.360327121491935,41,26,547b5d59498e321dddc9e9ec,lemon leaf thai restaurant,48.196182,16.359837,Thai Restaurant
310,48.195939070667606,16.360327121491935,41,27,57136524498eb84e867256d0,china restuarant nanking,48.197625,16.35989,Chinese Restaurant
311,48.195939070667606,16.360327121491935,41,28,4d8de404ca75b60c73bff1a8,Il Buon Gusto,48.19735369983363,16.361717919967578,Italian Restaurant
312,48.195939070667606,16.360327121491935,41,29,5350fa1d11d25cae78b2933c,Azzuro,48.19739316395364,16.36062704499752,Italian Restaurant
313,48.195939070667606,16.360327121491935,41,30,4b5c8abef964a5207c3529e3,Aming Dim Sum Profi,48.196148,16.357803,Dim Sum Restaurant
314,48.195939070667606,16.360327121491935,41,31,53123063498e1447847e20ee,Weinschänke,48.196761875845795,16.359167709615324,Austrian Restaurant
315,48.195939070667606,16.360327121491935,41,32,5183eea3498e560f5754481d,Seasons,48.194318191330375,16.362189573495776,Eastern European Restaurant
316,48.195939070667606,16.360327121491935,41,33,4ff1e0dde4b0ef320e04055d,I Love Bubbletea,48.197022,16.360205,Chinese Restaurant
317,48.195939070667606,16.360327121491935,41,34,5b0bcf2bccad6b002ca3f62d,D'antonio,48.1974,16.36074,Italian Restaurant
318,48.195939070667606,16.360327121491935,41,35,4f1da2efe4b0e6badddc7c6a,Nosh/Dionysos,48.1975470009085,16.362029980352315,Greek Restaurant
319,48.195939070667606,16.360327121491935,41,36,4c0fd1136b7e2d7f3b9f2635,Thai Kitchen,48.19384415559001,16.3592881944007,Thai Restaurant
320,48.195939070667606,16.360327121491935,41,37,54cd23b7498e57df0bb33059,Chinesisches Männerwohnheim,48.197299,16.358648,Asian Restaurant
321,48.195939070667606,16.360327121491935,41,38,56190076498efdb18c7b7964,Kojiro Pressgasse,48.197589,16.362382,Japanese Restaurant
322,48.195939070667606,16.360327121491935,41,39,4b42461ef964a52077d025e3,Kuishimbo,48.197120178789476,16.35920020337347,Japanese Restaurant
323,48.195939070667606,16.360327121491935,41,40,5e4dae8c16673e0008dae466,Schlawiener,48.196556,16.362074,Austrian Restaurant
324,48.1982,16.371694736842105,10,0,56dd6307498e8755e40ef654,Gorilla Kitchen,48.197259,16.37209,Burrito Place
325,48.1982,16.371694736842105,10,1,4bdf0affc3392d7fd3fd9bd5,Petz im Gußhaus,48.19705958678189,16.371102221274434,Austrian Restaurant
326,48.1982,16.371694736842105,10,2,5bd89c7b772fbc002ccf6995,Chuan Fu,48.19667,16.37212,Chinese Restaurant
327,48.1982,16.371694736842105,10,3,5da870afbfb9f20008d6a828,Le's Vietnamesische Küche,48.19983,16.373753,Vietnamese Restaurant
328,48.1982,16.371694736842105,10,4,56058ad3498e4006395df5a2,China Garten,48.19807752717883,16.37147928618252,Asian Restaurant
329,48.1982,16.371694736842105,10,5,4be2adea21d5a5934efe1611,salon wichtig,48.19663157321895,16.369761934757868,Thai Restaurant
330,48.1982,16.371694736842105,10,6,4ca9b8c114c33704d664e03b,Manzana,48.19792383918209,16.36954838326096,Tapas Restaurant
331,48.1982,16.371694736842105,10,7,4cb30233562d224b8f7f2a88,Ostmeer,48.196850734949685,16.372179873913836,Chinese Restaurant
332,48.1982,16.371694736842105,10,8,5ca1ea4298fbfc002b8019df,Le's,48.19958532032828,16.37396603822708,Vietnamese Restaurant
333,48.1982,16.371694736842105,10,9,4bcc8afd3740b7139b2f6465,Ristorante Caso Alberto,48.19618696597519,16.372504991314,Italian Restaurant
334,48.200460929332394,16.36832551008701,41,0,5328bcde498ec1a8f48e7bc8,Heuer,48.200054670484256,16.367831559905362,Modern European Restaurant
335,48.200460929332394,16.36832551008701,41,1,55a229f2498e1ef2ec67624a,Leberkas-Pepi,48.20219,16.36755,Snack Place
336,48.200460929332394,16.36832551008701,41,2,5a24659409e2836fcda92220,Ali's Grill,48.20198567352291,16.36755842695799,Turkish Restaurant
337,48.200460929332394,16.36832551008701,41,3,54e476e2498ee6b450a524d9,Bier & Bierli,48.202056635120734,16.367613905497784,Austrian Restaurant
338,48.200460929332394,16.36832551008701,41,4,50df4fd8e4b0f6dd0bbf7eea,charlyfresh,48.200807,16.370328,Burrito Place
339,48.200460929332394,16.36832551008701,41,5,4c40b767520fa5931f80c8ac,Umar Fisch,48.19980680121325,16.365563023421835,Seafood Restaurant
340,48.200460929332394,16.36832551008701,41,6,4cd53e5eaeb1224ba52b21ff,Kostas - Griechische Spezialitäten,48.20104722097727,16.367776784946805,Greek Restaurant
341,48.200460929332394,16.36832551008701,41,7,4c6a787b8e7c0f47a72ee20f,Wok & More,48.20105,16.36952,Asian Restaurant
342,48.200460929332394,16.36832551008701,41,8,517ab17ce4b06ff7fc450cea,Nihonbashi,48.20154328991933,16.368936626501608,Japanese Restaurant
343,48.200460929332394,16.36832551008701,41,9,4e7c7368d4c0f8326e3a3c1b,Vietthao,48.20093034850064,16.36850049051521,Vietnamese Restaurant
344,48.200460929332394,16.36832551008701,41,10,57f229a7498e549384ef43fb,Cafe Mendez,48.20069122652124,16.369835219276297,Café
345,48.200460929332394,16.36832551008701,41,11,4fb0dafde4b0ddb44ad67c2d,Yumi,48.19963833989237,16.365222949530896,Japanese Restaurant
346,48.200460929332394,16.36832551008701,41,12,5304f3a111d2b8555ab885d7,Wurst Stand am Ring,48.201992,16.370221,German Restaurant
347,48.200460929332394,16.36832551008701,41,13,4e3ca4d9aeb73139a16f37ba,Würstelstand Zur Oper,48.20212576111787,16.369265434200777,BBQ Joint
348,48.200460929332394,16.36832551008701,41,14,4f0ec045e4b0129c7444405b,Hoichi Ramen,48.20112177771901,16.36700932875373,Asian Restaurant
349,48.200460929332394,16.36832551008701,41,15,54708476498eb9d2448f1bbc,apicius,48.201949,16.367586,Italian Restaurant
350,48.200460929332394,16.36832551008701,41,16,59e2015025fb7b15019d2c2f,Trattoria Pulcinella,48.199715,16.365475,Italian Restaurant
351,48.200460929332394,16.36832551008701,41,17,4eba6f216da17451dddc541f,Asia In A Box,48.19851805063484,16.367709594355652,Asian Restaurant
352,48.200460929332394,16.36832551008701,41,18,594e5445898bdc3820f642da,Gyosa,48.201109,16.366999,Asian Restaurant
353,48.200460929332394,16.36832551008701,41,19,5a86da643abcaf25dcfc1934,Le Stella Bianca,48.202478,16.368161,Italian Restaurant
354,48.200460929332394,16.36832551008701,41,20,534e6b30498e8b9316546611,gallo d'oro,48.202137,16.367549,Italian Restaurant
355,48.200460929332394,16.36832551008701,41,21,4e77794288775d593ed90616,Sushi Roll To Go,48.2021525280011,16.369521617889404,Sushi Restaurant
356,48.200460929332394,16.36832551008701,41,22,4b7691d2f964a5206f522ee3,Korfu Greek Restaurant,48.19916303886288,16.367840471921383,Greek Restaurant
357,48.200460929332394,16.36832551008701,41,23,4d5a9571296d5481e71965b1,Tekaway Sushi,48.2024,16.3695149,Sushi Restaurant
358,48.200460929332394,16.36832551008701,41,24,55db4123498e2dbb3b155559,Ying's Kitchen,48.19927683731589,16.368010410607074,Asian Restaurant
359,48.200460929332394,16.36832551008701,41,25,523d882311d288f65619c200,Herr Ober,48.201173,16.368743,Asian Restaurant
360,48.200460929332394,16.36832551008701,41,26,4c6d82e965eda0938cd64ed0,Sunshine,48.201005,16.367309,Chinese Restaurant
361,48.200460929332394,16.36832551008701,41,27,4c28fb343492a593cf39b828,Pineapple,48.19972551336534,16.36523178478783,Asian Restaurant
362,48.200460929332394,16.36832551008701,41,28,4c3dfb590596c928aba68378,Senkoma,48.20151912000001,16.369173,Japanese Restaurant
363,48.200460929332394,16.36832551008701,41,29,4b7e8ad3f964a520e7f12fe3,Red Apple Restaurant,48.199285,16.366876,Asian Restaurant
364,48.200460929332394,16.36832551008701,41,30,4e60c08452b1260c125d7686,Honobono,48.19886,16.368151,Asian Restaurant
365,48.200460929332394,16.36832551008701,41,31,4cdafbcec409b60ca416d21a,Da Pierino,48.199034379751936,16.366691009530395,Italian Restaurant
366,48.200460929332394,16.36832551008701,41,32,4e9c114393ada5036df1a3df,Kaiser Nudeln,48.199993,16.368138,Japanese Restaurant
367,48.200460929332394,16.36832551008701,41,33,4b058896f964a52019cf22e3,Yugetsu Senkoma,48.20151653362258,16.368916608890057,Sushi Restaurant
368,48.200460929332394,16.36832551008701,41,34,4c38acc593db0f4723fb2192,Bistro 59,48.201909,16.369353,French Restaurant
369,48.200460929332394,16.36832551008701,41,35,4c6fcb2e9c6d6dcbb775d07a,Le CousCous - Tunesische & arabische Spezialitäten,48.201433,16.370177,Mediterranean Restaurant
370,48.200460929332394,16.36832551008701,41,36,52173771498ed3b29e5a9586,Wurstwaren Horvath,48.199696746635745,16.36528794303846,Bratwurst Joint
371,48.200460929332394,16.36832551008701,41,37,51266b30e4b00d98b9ee7d6c,Manzana,48.199774,16.367816,Spanish Restaurant
372,48.200460929332394,16.36832551008701,41,38,4b559d47f964a52020e927e3,Indian Pavilion,48.19982545067119,16.36522713703625,Indian Restaurant
373,48.200460929332394,16.36832551008701,41,39,5287bbcc11d2b35678965c7a,Wellbeing,48.20240873728895,16.369439752235056,Asian Restaurant
374,48.200460929332394,16.36832551008701,41,40,599182a2febf317ebe10906d,Ciao Amici,48.201294,16.368369,Italian Restaurant
375,48.195939070667606,16.36832551008701,38,0,52653b3411d230d50d026693,Santos Wieden | Mexican Grill & Bar,48.195756,16.368777,Mexican Restaurant
376,48.195939070667606,16.36832551008701,38,1,54fdedfd498ed2b2612e8682,El Burro,48.197263331912346,16.365768186581366,Burrito Place
377,48.195939070667606,16.36832551008701,38,2,5d16323211549d0023722530,Kikko Bā,48.196858,16.366004,Japanese Restaurant
378,48.195939070667606,16.36832551008701,38,3,4b60ab8ef964a5203df329e3,Wieden Bräu,48.194861,16.366366,Brewery
379,48.195939070667606,16.36832551008701,38,4,4bdf0affc3392d7fd3fd9bd5,Petz im Gußhaus,48.19705958678189,16.371102221274434,Austrian Restaurant
380,48.195939070667606,16.36832551008701,38,5,578d05b2498edc44d0c3fdde,Bêp Viêt,48.1963552491502,16.36770094834385,Vietnamese Restaurant
381,48.195939070667606,16.36832551008701,38,6,4c0e1e8f7189c928c3ecd7b6,Chang,48.194729,16.366717,Asian Restaurant
382,48.195939070667606,16.36832551008701,38,7,4fa4086ce4b038e6a15574e2,Süd Länder,48.19776084047449,16.36750397478528,Mediterranean Restaurant
383,48.195939070667606,16.36832551008701,38,8,5b1a59ba835c9a002cfd6f4a,Rio Gostoso,48.19528728357507,16.366834044456482,Brazilian Restaurant
384,48.195939070667606,16.36832551008701,38,9,4bc8421a2f94d13a253d137f,Nagoya Sushi,48.19682222507546,16.36571403441116,Asian Restaurant
385,48.195939070667606,16.36832551008701,38,10,58d00d63084be50860dffc4b,Sha Guo,48.194219,16.367629,Asian Restaurant
386,48.195939070667606,16.36832551008701,38,11,4e1447f6d16447c40d16646c,Oliviers & Co,48.196675,16.365308,French Restaurant
387,48.195939070667606,16.36832551008701,38,12,5398a42d498eb12d43a7362f,Kebap Haus - Faulmanngasse,48.19627861242147,16.36870674441834,Burrito Place
388,48.195939070667606,16.36832551008701,38,13,4d70e7c476f3f04dde5e6348,rice&noodles to go,48.19398564391175,16.367268562316895,Asian Restaurant
389,48.195939070667606,16.36832551008701,38,14,4cf8de706cee236a1234e903,May Lee,48.19444479115229,16.367398362451986,Asian Restaurant
390,48.195939070667606,16.36832551008701,38,15,54bd134d498e05024fd8dda0,Hildegard Wurst deli,48.19733943217113,16.365829096127886,Hot Dog Joint
391,48.195939070667606,16.36832551008701,38,16,4c7cd754ad90224bb7308b0c,Asia Pavillon,48.196136071233006,16.3683414479112,Asian Restaurant
392,48.195939070667606,16.36832551008701,38,17,4b058896f964a52040cf22e3,Restaurant Collio,48.19735025660645,16.367068572526183,Italian Restaurant
393,48.195939070667606,16.36832551008701,38,18,51d468ed498e009c2a956379,Zur Herknerin,48.195073036533124,16.36712255621056,Austrian Restaurant
394,48.195939070667606,16.36832551008701,38,19,4b9a9a39f964a5206bc535e3,TeigWare,48.19773201347433,16.36735593788629,Italian Restaurant
395,48.195939070667606,16.36832551008701,38,20,4be2adea21d5a5934efe1611,salon wichtig,48.19663157321895,16.369761934757868,Thai Restaurant
396,48.195939070667606,16.36832551008701,38,21,5a60d0a1c365885c6bc30bfe,Mezze Roma,48.19761,16.367762,Italian Restaurant
397,48.195939070667606,16.36832551008701,38,22,5a96fe501de7651f601aede2,Da Capo Restaurant,48.197403,16.367662,Italian Restaurant
398,48.195939070667606,16.36832551008701,38,23,4af2b070f964a5203ee821e3,BOK,48.19556900418336,16.369041100054627,Asian Restaurant
399,48.195939070667606,16.36832551008701,38,24,4cf3f9b97bf3b60cc6d86d7f,Bacchus & Co,48.195602,16.365055,Italian Restaurant
400,48.195939070667606,16.36832551008701,38,25,5b558bf06adbf5002cc1d395,Nr. 13,48.1948903585007,16.37078493833542,Burrito Place
401,48.195939070667606,16.36832551008701,38,26,4ca9b8c114c33704d664e03b,Manzana,48.19792383918209,16.36954838326096,Tapas Restaurant
402,48.195939070667606,16.36832551008701,38,27,4babbb6cf964a52097c43ae3,Lanea,48.19780195857789,16.36753979117676,Cocktail Bar
403,48.195939070667606,16.36832551008701,38,28,4c03d2940b8eef3b84cdb882,Crupi - Specialita Siciliane,48.196635,16.365731,Gourmet Shop
404,48.195939070667606,16.36832551008701,38,29,5df37fc9d6434b00078db34e,Riva Officina - Trattoria napoletana,48.19595954605605,16.36802226305008,Italian Restaurant
405,48.195939070667606,16.36832551008701,38,30,55314f61498ef7e26745cd49,Restaurante Ischia,48.195634,16.368631,Italian Restaurant
406,48.195939070667606,16.36832551008701,38,31,4dac2560cda1652a2bb106fd,Ischia,48.19530597559009,16.368364507047744,Mediterranean Restaurant
407,48.195939070667606,16.36832551008701,38,32,4eb27fcbf5b94483885b519a,Bella More,48.19770862000043,16.367605050277227,Italian Restaurant
408,48.195939070667606,16.36832551008701,38,33,52b2df66498e69ca9ab1ff4a,Hoa Sen,48.19658308971185,16.36550137416625,Vietnamese Restaurant
409,48.195939070667606,16.36832551008701,38,34,56c75875cd105a5512f51f75,Lanea,48.197896556379106,16.367356307514356,Italian Restaurant
410,48.195939070667606,16.36832551008701,38,35,53b5baf5498e8b9d66067123,La Pesce,48.194659760379636,16.3698244413036,Italian Restaurant
411,48.195939070667606,16.36832551008701,38,36,4f316ee2e4b0f5735f89d2e2,Sopile,48.19599917062849,16.36641725131593,Mediterranean Restaurant
412,48.195939070667606,16.36832551008701,38,37,5464901f498e255d342545b4,Das Wieden,48.19586718113182,16.368067474996476,Austrian Restaurant
413,48.200460929332394,16.3750639635972,14,0,5a9858a56eda027b3877b5db,In-Dish,48.2024418738561,16.373798870805974,Indian Restaurant
414,48.200460929332394,16.3750639635972,14,1,59ae97fbd3cce861057bff53,Meissl & Schadn,48.20214436411321,16.375152992564345,Austrian Restaurant
415,48.200460929332394,16.3750639635972,14,2,4bc8c30aab62d13afef817d4,Phở Sài Gòn,48.202610279517835,16.374378379465593,Vietnamese Restaurant
416,48.200460929332394,16.3750639635972,14,3,5c7d3cd5e97dfb002c737f0b,Falco's,48.200516,16.37542,Austrian Restaurant
417,48.200460929332394,16.3750639635972,14,4,5da870afbfb9f20008d6a828,Le's Vietnamesische Küche,48.19983,16.373753,Vietnamese Restaurant
418,48.200460929332394,16.3750639635972,14,5,4dcf0939e4cd130e16773f8a,Zum scharfen René,48.20067407522663,16.374768018722534,Bratwurst Joint
419,48.200460929332394,16.3750639635972,14,6,523c4e24498e023eb5e057fa,s'Müllerbeisl,48.200726,16.376333,Austrian Restaurant
420,48.200460929332394,16.3750639635972,14,7,553f7832498e5c6fee93cd22,Melounge at the Ritz Carlton,48.202568,16.376077,American Restaurant
421,48.200460929332394,16.3750639635972,14,8,4c5a8528b05c1b8d8c67d8b1,RCM,48.200343,16.375447,German Restaurant
422,48.200460929332394,16.3750639635972,14,9,5ca1ea4298fbfc002b8019df,Le's,48.19958532032828,16.37396603822708,Vietnamese Restaurant
423,48.200460929332394,16.3750639635972,14,10,4db1ac8d4b22ba776d88149e,kent gerngross,48.199871255013385,16.376070356666023,Middle Eastern Restaurant
424,48.200460929332394,16.3750639635972,14,11,4d879df7e83fa1430f2ba8a1,Osteria Da Antonio,48.20148852081514,16.373434831889178,Trattoria/Osteria
425,48.200460929332394,16.3750639635972,14,12,4f54a4a6e4b07c31b5c41996,XO Noodles,48.20182058028177,16.37277045744762,Asian Restaurant
426,48.200460929332394,16.3750639635972,14,13,56b24df9498e8b9219c69969,Casa Alberto,48.198745,16.375351,Italian Restaurant
427,48.195939070667606,16.3750639635972,5,0,5bd89c7b772fbc002ccf6995,Chuan Fu,48.19667,16.37212,Chinese Restaurant
428,48.195939070667606,16.3750639635972,5,1,4cfe9304dccef04d4570cb9c,Wohlleben Beisl,48.1965882,16.3741413,Austrian Restaurant
429,48.195939070667606,16.3750639635972,5,2,4cb30233562d224b8f7f2a88,Ostmeer,48.196850734949685,16.372179873913836,Chinese Restaurant
430,48.195939070667606,16.3750639635972,5,3,4dfb34cf628460789532789f,Zhany Asian Restaurant,48.197492271491654,16.375341271412537,Asian Restaurant
431,48.195939070667606,16.3750639635972,5,4,4bcc8afd3740b7139b2f6465,Ristorante Caso Alberto,48.19618696597519,16.372504991314,Italian Restaurant
432,48.2082,16.342221052631576,27,0,5881155c89151d20aa93dabf,Chili & Pfeffer,48.206231419927114,16.343246192347387,Chinese Restaurant
433,48.2082,16.342221052631576,27,1,4be2c0201dd22d7ffeb094bd,PARS,48.208169055002784,16.34071406068764,Persian Restaurant
434,48.2082,16.342221052631576,27,2,56545ca0498e8cc21f548e75,Mamamon Thai Eatery,48.20943527025501,16.34391340318739,Thai Restaurant
435,48.2082,16.342221052631576,27,3,5d0dcef520a53f002345e10b,Wiener Würstelstand,48.20889,16.344376,Bratwurst Joint
436,48.2082,16.342221052631576,27,4,4e907a3d61afcfde29e198d8,Hafes - Persische Spezialitäten,48.206407382342924,16.34019453648583,Persian Restaurant
437,48.2082,16.342221052631576,27,5,5debd60bf74bc7000835ac9f,Zakopane Bistro,48.208113,16.341241,Polish Restaurant
438,48.2082,16.342221052631576,27,6,5a6cb15c7dc9e1709313a147,Güven Kebap&Pizza,48.208466,16.339801,Doner Restaurant
439,48.2082,16.342221052631576,27,7,503a4d7ce4b0124e445e1916,Fooood,48.207318,16.339305,Argentinian Restaurant
440,48.2082,16.342221052631576,27,8,5b1cc63d6f0aa2002c3e31bd,Kapst,48.208344,16.34015,Doner Restaurant
441,48.2082,16.342221052631576,27,9,4d335b506c7c721e10a1b856,Ristorante - Pizzeria Casanova,48.20641160078904,16.340174073696975,Italian Restaurant
442,48.2082,16.342221052631576,27,10,5b1cc15c6fd626002c04af9c,Chopsticks,48.20731,16.339403,Asian Restaurant
443,48.2082,16.342221052631576,27,11,4e4c291daeb77d4a40d81ce9,I Terroni,48.20732660662606,16.340356293027824,Italian Restaurant
444,48.2082,16.342221052631576,27,12,4cdbd34edf986ea84158cc16,Osteria Cantinetta,48.209654,16.343859,Trattoria/Osteria
445,48.2082,16.342221052631576,27,13,56bf9656cd10f62cdea37fd8,Flarchers Steakhouse und Bar,48.207533,16.33942,French Restaurant
446,48.2082,16.342221052631576,27,14,54f45522498e3a13f3359d50,Blindengassen Beisl,48.209654,16.339973,Austrian Restaurant
447,48.2082,16.342221052631576,27,15,4feb6caee4b0581377f64c18,Summerstation,48.207429,16.344221,German Restaurant
448,48.2082,16.342221052631576,27,16,4d625571ef378cfa3fb295a6,Pizzeria L' Idea,48.20756222083153,16.34073950090352,Italian Restaurant
449,48.2082,16.342221052631576,27,17,56e949b7498ee6c6f5039b2e,Nt Banh Mi Shop,48.208058762407084,16.33988857269287,Vietnamese Restaurant
450,48.2082,16.342221052631576,27,18,5e550786969a340008675cef,Nt Bánh Mì,48.208195,16.339977,Vietnamese Restaurant
451,48.2082,16.342221052631576,27,19,5a2fb0fdc9f9077c9205978d,Mahal Palace,48.208790201446945,16.343914568424225,Indian Restaurant
452,48.2082,16.342221052631576,27,20,4c83d01cd8086dcb66338352,5 Elemente,48.207655,16.343251,Asian Restaurant
453,48.2082,16.342221052631576,27,21,5532ca10498e4134d6cf0eaf,Royal Diner,48.208431243896484,16.33965301513672,American Restaurant
454,48.2082,16.342221052631576,27,22,4d0a71b59a4437042297b367,Xiang Haus,48.20758469393255,16.343211698205074,Asian Restaurant
455,48.2082,16.342221052631576,27,23,4be72421cf200f470a54153c,Pizza Speedy,48.20719229477759,16.34328574152685,Italian Restaurant
456,48.2082,16.342221052631576,27,24,56a7b2e6498e9123f268da93,Noodle World,48.20798179258179,16.341273231616885,Chinese Restaurant
457,48.2082,16.342221052631576,27,25,538f72c2498eeca0cdfcf2aa,Capricornio,48.2072900701314,16.3446626532823,Moroccan Restaurant
458,48.2082,16.342221052631576,27,26,598f3d94dd12f8153ad3ec46,Do Eat,48.207775,16.342962,Asian Restaurant
459,48.21046092933239,16.33885116805027,18,0,5a6cb15c7dc9e1709313a147,Güven Kebap&Pizza,48.208466,16.339801,Doner Restaurant
460,48.21046092933239,16.33885116805027,18,1,4dde4a90d4c01aeee8f93592,Kirchenwirt,48.21234892431792,16.340476753667044,German Restaurant
461,48.21046092933239,16.33885116805027,18,2,4e04b19e18a877730b77fab7,HAO Noodles,48.211021,16.339911,Asian Restaurant
462,48.21046092933239,16.33885116805027,18,3,4ee89c8f722e123494a54ff2,Corner 101,48.210730582928136,16.34080530062742,Asian Restaurant
463,48.21046092933239,16.33885116805027,18,4,58ebc212d4ab7360a8298749,Kebap Hot-Dog U6 Station,48.211246129931915,16.338941752910614,Doner Restaurant
464,48.21046092933239,16.33885116805027,18,5,5be347498a6f17002c73e239,Orientalisches Restaurant Maya,48.21124,16.33846,Middle Eastern Restaurant
465,48.21046092933239,16.33885116805027,18,6,4b17ae70f964a52014c723e3,ETAP,48.21078046925305,16.33713728286282,Turkish Restaurant
466,48.21046092933239,16.33885116805027,18,7,54f45522498e3a13f3359d50,Blindengassen Beisl,48.209654,16.339973,Austrian Restaurant
467,48.21046092933239,16.33885116805027,18,8,572f3b1ecd10eebee960990a,Mevlana Etli Ekmek & Kebap,48.208888,16.33646,Turkish Restaurant
468,48.21046092933239,16.33885116805027,18,9,4b190875f964a52051d723e3,Denis,48.20999218336821,16.33567107040533,Middle Eastern Restaurant
469,48.21046092933239,16.33885116805027,18,10,564e2910498ef09faed6536d,Oishi Sushi,48.211049,16.339785,Sushi Restaurant
470,48.21046092933239,16.33885116805027,18,11,4cc84451be874688b56183af,Saigon Box,48.20993202620348,16.335618495941162,Snack Place
471,48.21046092933239,16.33885116805027,18,12,5532ca10498e4134d6cf0eaf,Royal Diner,48.208431243896484,16.33965301513672,American Restaurant
472,48.21046092933239,16.33885116805027,18,13,543d59c8498ead5eaf5f3c98,Kasatschok,48.20899070418208,16.33844319771276,Russian Restaurant
473,48.21046092933239,16.33885116805027,18,14,4bf5a716bfeac9280ce99236,Würstelstand,48.20837336111451,16.33842945098877,Bratwurst Joint
474,48.21046092933239,16.33885116805027,18,15,5bd21b0b12c8f00039b7e773,U6 Box,48.208718,16.338406,Doner Restaurant
475,48.21046092933239,16.33885116805027,18,16,4c017fd8716bc9b6fcfabb55,Weinhaus Sittl,48.21072703073804,16.3384904719566,Gastropub
476,48.21046092933239,16.33885116805027,18,17,5a7659ba95da0c6d9835d174,Mangalet Kebab,48.211039,16.339137,Kebab Restaurant
477,48.205939070667604,16.33885116805027,14,0,4e907a3d61afcfde29e198d8,Hafes - Persische Spezialitäten,48.206407382342924,16.34019453648583,Persian Restaurant
478,48.205939070667604,16.33885116805027,14,1,4d93760b5cf5236a71f963a3,Keboss Kebab & Burger,48.20414755552017,16.33740001737722,Doner Restaurant
479,48.205939070667604,16.33885116805027,14,2,503a4d7ce4b0124e445e1916,Fooood,48.207318,16.339305,Argentinian Restaurant
480,48.205939070667604,16.33885116805027,14,3,556b45f5498e321bf93a0a17,La Cucina é la Casa,48.20491409301758,16.33867645263672,Italian Restaurant
481,48.205939070667604,16.33885116805027,14,4,4c1507a282a3c9b6f419fef8,Kai's Asian Food,48.20407059872783,16.337316556567668,Asian Restaurant
482,48.205939070667604,16.33885116805027,14,5,4d335b506c7c721e10a1b856,Ristorante - Pizzeria Casanova,48.20641160078904,16.340174073696975,Italian Restaurant
483,48.205939070667604,16.33885116805027,14,6,4f00a2148231bcb7048de956,Asia Restaurant Lotus,48.2043,16.3398,Asian Restaurant
484,48.205939070667604,16.33885116805027,14,7,5b1cc15c6fd626002c04af9c,Chopsticks,48.20731,16.339403,Asian Restaurant
485,48.205939070667604,16.33885116805027,14,8,4e4c291daeb77d4a40d81ce9,I Terroni,48.20732660662606,16.340356293027824,Italian Restaurant
486,48.205939070667604,16.33885116805027,14,9,56bf9656cd10f62cdea37fd8,Flarchers Steakhouse und Bar,48.207533,16.33942,French Restaurant
487,48.205939070667604,16.33885116805027,14,10,4d625571ef378cfa3fb295a6,Pizzeria L' Idea,48.20756222083153,16.34073950090352,Italian Restaurant
488,48.205939070667604,16.33885116805027,14,11,5c05777e23a2e6002c02e141,Sake,48.204751,16.339876,Japanese Restaurant
489,48.205939070667604,16.33885116805027,14,12,56e949b7498ee6c6f5039b2e,Nt Banh Mi Shop,48.208058762407084,16.33988857269287,Vietnamese Restaurant
490,48.205939070667604,16.33885116805027,14,13,4e7f5eedbe7b3ac644daae07,Cafe U6,48.204354,16.338668,Arepa Restaurant
491,48.21046092933239,16.345590937212883,21,0,56545ca0498e8cc21f548e75,Mamamon Thai Eatery,48.20943527025501,16.34391340318739,Thai Restaurant
492,48.21046092933239,16.345590937212883,21,1,5d0dcef520a53f002345e10b,Wiener Würstelstand,48.20889,16.344376,Bratwurst Joint
493,48.21046092933239,16.345590937212883,21,2,4b5afafbf964a52038dd28e3,Hitomi Sushi,48.21008519508067,16.346481100111635,Sushi Restaurant
494,48.21046092933239,16.345590937212883,21,3,4b3e2bbdf964a5201e9925e3,Ruffino Ristorante,48.209942150566505,16.347185907883844,Italian Restaurant
495,48.21046092933239,16.345590937212883,21,4,5b88d0c1c53093002ce47660,Matcha Komachi,48.210564,16.34469,Japanese Restaurant
496,48.21046092933239,16.345590937212883,21,5,4e03306d45ddd36826986858,Asia Restaurant Lin,48.21109248062614,16.34392041730013,Asian Restaurant
497,48.21046092933239,16.345590937212883,21,6,5ab5032704d1ae1560450e54,“Der“ Imbiss,48.21054,16.344193,BBQ Joint
498,48.21046092933239,16.345590937212883,21,7,5391fc77498ecd20b1916342,Pasquale,48.211968,16.345187,Italian Restaurant
499,48.21046092933239,16.345590937212883,21,8,4fcf436ee4b09eb367502a2e,Gasthaus Josefstadt,48.212000076313444,16.34703146322091,Austrian Restaurant
500,48.21046092933239,16.345590937212883,21,9,52ed07e0498edad715a9223c,Suliko,48.209697,16.348671,Eastern European Restaurant
501,48.21046092933239,16.345590937212883,21,10,54551ef7498e4fb5ed29a5c0,Repubblica del Vino,48.21220779418945,16.344900131225586,Italian Restaurant
502,48.21046092933239,16.345590937212883,21,11,5bb8f06b35811b00399a78df,Marcodi,48.212452,16.344987,Seafood Restaurant
503,48.21046092933239,16.345590937212883,21,12,4cdbd34edf986ea84158cc16,Osteria Cantinetta,48.209654,16.343859,Trattoria/Osteria
504,48.21046092933239,16.345590937212883,21,13,4b60a713f964a5206ef229e3,Hold Cafe•Bar,48.210062888395136,16.34671463930203,Italian Restaurant
505,48.21046092933239,16.345590937212883,21,14,5a2fb0fdc9f9077c9205978d,Mahal Palace,48.208790201446945,16.343914568424225,Indian Restaurant
506,48.21046092933239,16.345590937212883,21,15,53811feb498ecd1450974e66,schlipf&co,48.21008080660028,16.344300312927977,Austrian Restaurant
507,48.21046092933239,16.345590937212883,21,16,533e8664498e21bdfa0f3921,Noodles Josef,48.209989,16.345846,Asian Restaurant
508,48.21046092933239,16.345590937212883,21,17,5ba1372060255e002c39e86b,Villa Maria,48.210346,16.344618,Greek Restaurant
509,48.21046092933239,16.345590937212883,21,18,4b607d86f964a5205ae929e3,Tai-Yo Asia Cooking,48.209402943372496,16.34838581085205,Asian Restaurant
510,48.21046092933239,16.345590937212883,21,19,58b1b0f97d0f6d3e479ec00d,Sajado Express,48.21019,16.34568,Asian Restaurant
511,48.21046092933239,16.345590937212883,21,20,58f10c001f74405e77616c10,Koinonia+,48.212021,16.343865,Asian Restaurant
512,48.205939070667604,16.345590937212883,18,0,5cd0459c6bdee6002c2ca779,Seven North,48.204998474152255,16.343278884887695,Restaurant
513,48.205939070667604,16.345590937212883,18,1,5881155c89151d20aa93dabf,Chili & Pfeffer,48.206231419927114,16.343246192347387,Chinese Restaurant
514,48.205939070667604,16.345590937212883,18,2,511251bee4b02db889decc04,Nguyen's Pho House,48.2065763382299,16.348647761584655,Vietnamese Restaurant
515,48.205939070667604,16.345590937212883,18,3,5cae16a59b0473002c994c13,Oreno Ramen,48.207066,16.346413,Ramen Restaurant
516,48.205939070667604,16.345590937212883,18,4,4e120fd17d8b4d5613e03937,ChinaBar,48.20433305050503,16.346469118517245,Asian Restaurant
517,48.205939070667604,16.345590937212883,18,5,4bce153c29d4b713fdeaa7dc,Konoba,48.2071231,16.3469441,Mediterranean Restaurant
518,48.205939070667604,16.345590937212883,18,6,4cbdda094352a1cd5d07a6f5,La Spiga,48.20677,16.34659,Italian Restaurant
519,48.205939070667604,16.345590937212883,18,7,52cdadaf498ea36b3b2de55f,Natraj,48.205483400331985,16.348595483759375,Indian Restaurant
520,48.205939070667604,16.345590937212883,18,8,550c1e53498e28d81a89b7c9,Westpol,48.207063757905814,16.345784957481577,Mediterranean Restaurant
521,48.205939070667604,16.345590937212883,18,9,51aa23ef498e2da61a148474,Umami,48.20713459329371,16.34548204984076,Japanese Restaurant
522,48.205939070667604,16.345590937212883,18,10,5c1a0add9ba3e5002cd8878d,Kim's Raum,48.20699,16.346597,Korean Restaurant
523,48.205939070667604,16.345590937212883,18,11,4feb6caee4b0581377f64c18,Summerstation,48.207429,16.344221,German Restaurant
524,48.205939070667604,16.345590937212883,18,12,4c6a78123bad2d7fe666b2ee,Hausmair's Gaststätte,48.20715186160589,16.34563827792047,Austrian Restaurant
525,48.205939070667604,16.345590937212883,18,13,513cc541e4b01394c222931f,Nguyen's,48.206963,16.348015,Asian Restaurant
526,48.205939070667604,16.345590937212883,18,14,4be72421cf200f470a54153c,Pizza Speedy,48.20719229477759,16.34328574152685,Italian Restaurant
527,48.205939070667604,16.345590937212883,18,15,56490c17498eafe196ab1387,Sindh,48.204401410617116,16.347747445106503,Indian Restaurant
528,48.205939070667604,16.345590937212883,18,16,4bb396232397b713f05438b3,Natsu Sushi,48.204301475709165,16.346911809191877,Sushi Restaurant
529,48.205939070667604,16.345590937212883,18,17,538f72c2498eeca0cdfcf2aa,Capricornio,48.2072900701314,16.3446626532823,Moroccan Restaurant
530,48.2082,16.35695789473684,8,0,5d6bfacdae1e130007c21d66,Ribelli,48.206547,16.354732,Italian Restaurant
531,48.2082,16.35695789473684,8,1,4d7a766725c5cbffb4d45433,"Gastwirtschaft Blauensteiner ""Zur Stadt Paris""",48.209327417489185,16.35470148970909,Austrian Restaurant
532,48.2082,16.35695789473684,8,2,5cf22bdb3fffb40031660c99,Deval,48.20834600362922,16.356143331803423,Austrian Restaurant
533,48.2082,16.35695789473684,8,3,5367f2f8498e8e2384e8f74c,VARIATION Bistro Crêperie,48.209113,16.356935,French Restaurant
534,48.2082,16.35695789473684,8,4,4ddfdbeeae60c015c0a0e5f7,Gastwirtschaft,48.20849233347635,16.35521786304044,German Restaurant
535,48.2082,16.35695789473684,8,5,4d1b0efc02a66dcb8f686565,Girasole,48.208378,16.356217,Italian Restaurant
536,48.2082,16.35695789473684,8,6,4b93d6e7f964a520715434e3,Curry Insel,48.209551162417974,16.354633216541174,Indian Restaurant
537,48.2082,16.35695789473684,8,7,50326e56e4b04d70bfd72aee,CANTINA Osteria friulana,48.20806889059691,16.35640855810032,Trattoria/Osteria
538,48.21046092933239,16.353588010155534,24,0,4b4c686cf964a5206ab226e3,Il Sestante,48.210565161099225,16.350435659451104,Italian Restaurant
539,48.21046092933239,16.353588010155534,24,1,4bf121b3a09076b055ce29d4,La Delizia,48.211775,16.351175,Italian Restaurant
540,48.21046092933239,16.353588010155534,24,2,4d7a766725c5cbffb4d45433,"Gastwirtschaft Blauensteiner ""Zur Stadt Paris""",48.209327417489185,16.35470148970909,Austrian Restaurant
541,48.21046092933239,16.353588010155534,24,3,5d55c21b344f6900086f8260,Arezu,48.211796,16.351213,Persian Restaurant
542,48.21046092933239,16.353588010155534,24,4,5455110e498eb4041c078220,Trilogie Griechisches Restaurant,48.208610074846625,16.35248325795329,Greek Restaurant
543,48.21046092933239,16.353588010155534,24,5,4c189bed50389c746787b3cf,Tin Tan,48.212314747407824,16.3549058428063,Mexican Restaurant
544,48.21046092933239,16.353588010155534,24,6,4d052fca347da1cd76af2f8f,Pizzeria Scarabocchio,48.2122941207826,16.354650701853664,Italian Restaurant
545,48.21046092933239,16.353588010155534,24,7,51b5f7db498e86aec8736f08,Samrat,48.21191815869712,16.35147832877413,Indian Restaurant
546,48.21046092933239,16.353588010155534,24,8,5f2af28f952995556ed1a457,Comal,48.212128,16.352833,Mexican Restaurant
547,48.21046092933239,16.353588010155534,24,9,4b33ababf964a520861c25e3,Fromme Helene,48.209364430002644,16.352279188011096,Austrian Restaurant
548,48.21046092933239,16.353588010155534,24,10,4dbc8baecda109aa6c9ee9bb,Puerta del Sol,48.211611517136966,16.351522173038703,Tapas Restaurant
549,48.21046092933239,16.353588010155534,24,11,4b619194f964a52011182ae3,il tempo,48.209417047207765,16.352536006145108,Italian Restaurant
550,48.21046092933239,16.353588010155534,24,12,5673e65f498ef74bc21b80d2,WINISAN - Yakitori Café & Restaurant,48.21031649240507,16.351906266922057,Japanese Restaurant
551,48.21046092933239,16.353588010155534,24,13,4d81eb4c6476a09316ac1753,Au-We-Do,48.20923710445476,16.353295787143868,Asian Restaurant
552,48.21046092933239,16.353588010155534,24,14,52f7eb62498e274664626cac,Cafe Hausbrandt,48.209731,16.353581,Austrian Restaurant
553,48.21046092933239,16.353588010155534,24,15,5e5fe2a17aa26f00070e03e4,Guru,48.212202,16.354499,North Indian Restaurant
554,48.21046092933239,16.353588010155534,24,16,4ddfdbeeae60c015c0a0e5f7,Gastwirtschaft,48.20849233347635,16.35521786304044,German Restaurant
555,48.21046092933239,16.353588010155534,24,17,4baf9b95f964a520760f3ce3,Oliva Verde,48.21199303666337,16.351985708918967,Italian Restaurant
556,48.21046092933239,16.353588010155534,24,18,4cb5f6c83ac93704dc3ad00a,Piaristenkeller,48.21093070786446,16.350423,Gastropub
557,48.21046092933239,16.353588010155534,24,19,544df306498ee019d1a4ba32,Serenade Cabaret – Brasserie française,48.20916309252984,16.35124856181924,French Restaurant
558,48.21046092933239,16.353588010155534,24,20,5b1c06407269fe002c5c4705,Salonga,48.211929,16.351787,Peruvian Restaurant
559,48.21046092933239,16.353588010155534,24,21,531cf23b11d27c99f158ead7,pearistenkeller,48.210937,16.351412,Austrian Restaurant
560,48.21046092933239,16.353588010155534,24,22,5a8efcaee7a237608e7fcde0,Nola The Italian,48.209239,16.352612,Italian Restaurant
561,48.21046092933239,16.353588010155534,24,23,4b93d6e7f964a520715434e3,Curry Insel,48.209551162417974,16.354633216541174,Indian Restaurant
562,48.205939070667604,16.353588010155534,33,0,5d6bfacdae1e130007c21d66,Ribelli,48.206547,16.354732,Italian Restaurant
563,48.205939070667604,16.353588010155534,33,1,4d7e85e187003704bef37299,Pizzeria Osteria Da Giovanni,48.2037641180571,16.35414719581604,Pizza Place
564,48.205939070667604,16.353588010155534,33,2,4b058897f964a52045cf22e3,I Ragazzi,48.204357850374976,16.355852726271042,Italian Restaurant
565,48.205939070667604,16.353588010155534,33,3,5932b078b8fd9d08ebb60ba9,Durchhaus,48.20541319682294,16.35319232940674,Austrian Restaurant
566,48.205939070667604,16.353588010155534,33,4,5802365bd67c0d10d44112a9,Mari's Metcha Matcha,48.20548377231413,16.355423137151263,Japanese Restaurant
567,48.205939070667604,16.353588010155534,33,5,4b646e4ef964a5208ab22ae3,Los Mexikas,48.20768581675358,16.352742924489757,Mexican Restaurant
568,48.205939070667604,16.353588010155534,33,6,5d97338d718dfa0008d608b2,Karma Food,48.205258,16.350744,Vegetarian / Vegan Restaurant
569,48.205939070667604,16.353588010155534,33,7,4e3c27afd22d102e852fdb02,Victus & Mili,48.205318063014616,16.351815281483802,Austrian Restaurant
570,48.205939070667604,16.353588010155534,33,8,4df9e24b8877b30c39860cb6,Zum hungrigen Kojoten,48.20433365245126,16.355808555762874,Austrian Restaurant
571,48.205939070667604,16.353588010155534,33,9,515e7cc2e4b0a90e66eb530d,1500 Foodmakers,48.20645145885179,16.354735372611795,Italian Restaurant
572,48.205939070667604,16.353588010155534,33,10,4d20837fdd6a236a7c103838,La Gondola,48.20421612340232,16.35541232626886,Italian Restaurant
573,48.205939070667604,16.353588010155534,33,11,4d5d955b241a721e4d80e32e,Osteria Numero Uno,48.20418944987344,16.35374943275703,Trattoria/Osteria
574,48.205939070667604,16.353588010155534,33,12,4c54607bf5f3d13aab240efa,Pizzeria Verdi,48.2079425748958,16.352747082710266,Italian Restaurant
575,48.205939070667604,16.353588010155534,33,13,5445460c498e9b3efe24a4fe,Sapori e delizie,48.2048522014949,16.355733005704778,Italian Restaurant
576,48.205939070667604,16.353588010155534,33,14,4db93c326e818f67a9b9b560,Café Nepomuk,48.20528632274825,16.352544116736457,Eastern European Restaurant
577,48.205939070667604,16.353588010155534,33,15,4c447c1add1f2d7f5ae47ff9,La Passione,48.206436,16.353099,Italian Restaurant
578,48.205939070667604,16.353588010155534,33,16,5830ab30a55db032fe042e11,Kuro,48.204195,16.35396,Udon Restaurant
579,48.205939070667604,16.353588010155534,33,17,54495432498e6a3b0119ee30,Burggasse 4,48.2049560546875,16.35567283630371,Austrian Restaurant
580,48.205939070667604,16.353588010155534,33,18,55a93aee498e73edd7766a69,Trattoria da Paolo & Anna,48.204035,16.35375,Trattoria/Osteria
581,48.205939070667604,16.353588010155534,33,19,5096a603e4b00a7cdebfafb6,Bei Omi&Opi,48.207970615346674,16.35322173662955,Mexican Restaurant
582,48.205939070667604,16.353588010155534,33,20,4b058895f964a5200fcf22e3,Zu Ebener Erde und im Ersten Stock,48.20420306694941,16.355467320331464,Eastern European Restaurant
583,48.205939070667604,16.353588010155534,33,21,4be3e41c1dd22d7f2faa97bd,Sosaku,48.20532420325485,16.352346705064328,Japanese Restaurant
584,48.205939070667604,16.353588010155534,33,22,4f52479be4b0362449f5f22c,Tiger,48.20420825595259,16.353624506664925,Vietnamese Restaurant
585,48.205939070667604,16.353588010155534,33,23,5b07efa9838e59002c00d0a6,Ngô's Kitchen,48.20525,16.354218,Vietnamese Restaurant
586,48.205939070667604,16.353588010155534,33,24,5144cc6fe4b0c0b7ecc033b8,Danieli Italian Restaurant,48.20567284432034,16.35314903050179,Italian Restaurant
587,48.205939070667604,16.353588010155534,33,25,55b772f3498e507b4371afd2,Tandoor,48.204071044921875,16.355140686035156,Indian Restaurant
588,48.205939070667604,16.353588010155534,33,26,59e1ed7b86bc495799abc19a,Jia Restaurant,48.2055,16.351686,Asian Restaurant
589,48.205939070667604,16.353588010155534,33,27,5e44496ca95a5400088356ca,Nana 7,48.206249,16.35118,Asian Restaurant
590,48.205939070667604,16.353588010155534,33,28,4c3227bf3ffc9521cb3c90f5,Zum Moghulhof,48.20423766881991,16.35487174062128,Indian Restaurant
591,48.205939070667604,16.353588010155534,33,29,55941f36498ebeb409f04577,La Mia,48.206276738891894,16.353084113053548,Italian Restaurant
592,48.205939070667604,16.353588010155534,33,30,4eb836f2e5fa17fc87f1709b,Pinocchio,48.20531403522525,16.352735970894063,Italian Restaurant
593,48.205939070667604,16.353588010155534,33,31,4d27131b8292236a01140cbb,Bohème,48.20402951553953,16.35507563980451,French Restaurant
594,48.205939070667604,16.353588010155534,33,32,4dc68cfdae608779d1566681,Bamboo Restaurant,48.20556204029179,16.3566026822702,Asian Restaurant
595,48.21046092933239,16.360327779318148,18,0,59ec7bf6829b0c09cff484cc,Ebi,48.21128164245664,16.362328529466776,Japanese Restaurant
596,48.21046092933239,16.360327779318148,18,1,4b058897f964a52051cf22e3,Al Fayrooz,48.21245223254822,16.361502421609913,Middle Eastern Restaurant
597,48.21046092933239,16.360327779318148,18,2,4c377525dfb0e21e90d1aca8,Restaurant Vestibül,48.20980690575722,16.36117994785309,Austrian Restaurant
598,48.21046092933239,16.360327779318148,18,3,4b058891f964a52016ce22e3,Wiener Rathauskeller,48.21080404082975,16.358200663585805,Austrian Restaurant
599,48.21046092933239,16.360327779318148,18,4,4b058895f964a52009cf22e3,Café Einstein,48.21233962917517,16.35874752896513,Austrian Restaurant
600,48.21046092933239,16.360327779318148,18,5,4d5ec89c196ba093a7f00556,Irodium,48.212334316470994,16.362033791008884,Greek Restaurant
601,48.21046092933239,16.360327779318148,18,6,560680bd498e71c773616b45,Salon Ziehrer,48.21111297607422,16.358224868774414,Austrian Restaurant
602,48.21046092933239,16.360327779318148,18,7,502f7231e4b04d70be5b470a,Virsich-Bowle,48.210575,16.359845,Eastern European Restaurant
603,48.21046092933239,16.360327779318148,18,8,51ddb81e498e0b05c9e0e57f,Taverne Poseidon,48.210609,16.359827,Greek Restaurant
604,48.21046092933239,16.360327779318148,18,9,57bac9d1498e610086b912fc,Allora CANTINETTA Vienna,48.212116,16.361456,Italian Restaurant
605,48.21046092933239,16.360327779318148,18,10,56092f0d498eff8b29c06ecd,Augustin-Stüberl @ Rathauskeller,48.211401283165614,16.358146005935474,Austrian Restaurant
606,48.21046092933239,16.360327779318148,18,11,4ff46adde4b055f895eb0412,Alto Adige / Südtirol by Gelbmanns Gaststube,48.210432,16.35933,Mediterranean Restaurant
607,48.21046092933239,16.360327779318148,18,12,4f479906e4b0291e4752453d,Willings Gewölb,48.211298,16.360112,Australian Restaurant
608,48.21046092933239,16.360327779318148,18,13,4d7b6828ea35236a4eba4423,Asia Vienna,48.211453,16.362393,Asian Restaurant
609,48.21046092933239,16.360327779318148,18,14,5377937d498e82a2813e4618,Restaurant Vinothek Bankettzentrum Salon Rittersaal,48.21126289291518,16.35810445501233,Austrian Restaurant
610,48.21046092933239,16.360327779318148,18,15,537241e5498ecde45c9eb64c,مطعم الفيروز في ڤيينا,48.212418,16.361436,Asian Restaurant
611,48.21046092933239,16.360327779318148,18,16,5d62d0892c61ca000857cf8f,China Baron,48.210621,16.359303,Chinese Restaurant
612,48.21046092933239,16.360327779318148,18,17,4c7a8b3c93ef236a8cdbb20f,Cantinetta Allora,48.21213463527274,16.36114694800873,Italian Restaurant
613,48.205939070667604,16.360327779318148,6,0,4df53fb0d1649c8a28e92f8e,Würstelstand beim Parlament,48.206815830986514,16.359642070881186,Hot Dog Joint
614,48.205939070667604,16.360327779318148,6,1,591eca982d2fd913807dd39f,Noodle King,48.205148,16.357681,Asian Restaurant
615,48.205939070667604,16.360327779318148,6,2,55b4d279498e872b8ecc51f9,Würstlstand Burgring,48.20450953073157,16.362901888079545,Bratwurst Joint
616,48.205939070667604,16.360327779318148,6,3,4dfba63ab61c4a285bf9de54,Funny Noodles,48.206754971221706,16.360395251398902,Chinese Restaurant
617,48.205939070667604,16.360327779318148,6,4,5398a629498e6ead0c4bd408,pesco,48.204292496773775,16.36227647847191,Italian Restaurant
618,48.205939070667604,16.360327779318148,6,5,4d1b2a0483c5a1cd6b82294e,Wienerwald,48.2052200586874,16.3582237715142,Fried Chicken Joint
619,48.2082,16.371694736842105,50,0,4b112371f964a520527823e3,Fabios Restaurant Bar,48.21003504664254,16.369763234112284,Italian Restaurant
620,48.2082,16.371694736842105,50,1,4b058895f964a52000cf22e3,Danieli,48.2060940957571,16.37194436761891,Italian Restaurant
621,48.2082,16.371694736842105,50,2,4bc8a9000050b713c6dcba3b,Sparkys,48.20886374448985,16.3709326609466,American Restaurant
622,48.2082,16.371694736842105,50,3,4de9200ed4c0faa5644116da,Wienerwald Restaurant,48.20880475572399,16.37115151933018,Austrian Restaurant
623,48.2082,16.371694736842105,50,4,5669d70c498eb72355a897ae,Miznon,48.20841226321208,16.37465635779676,Jewish Restaurant
624,48.2082,16.371694736842105,50,5,4b9e3a64f964a52063d336e3,Le Bol,48.206469,16.370575,Café
625,48.2082,16.371694736842105,50,6,4b22b214f964a520fd4b24e3,Gasthaus Pöschl,48.20662765655453,16.373761109422386,Austrian Restaurant
626,48.2082,16.371694736842105,50,7,4b058896f964a52023cf22e3,Orpheus,48.20696283557083,16.369795873761177,Greek Restaurant
627,48.2082,16.371694736842105,50,8,5b969384180b91002c56c9fd,Sura Korean,48.207054,16.37439,Korean Restaurant
628,48.2082,16.371694736842105,50,9,4bd186aba8b3a593cad2655f,Akakiko,48.20780431336044,16.372571281607915,Sushi Restaurant
629,48.2082,16.371694736842105,50,10,574da9d1498ef19a1bdd6606,Blue Mustard,48.20783275247796,16.369770129214597,Modern European Restaurant
630,48.2082,16.371694736842105,50,11,4ba0ca15f964a520aa7d37e3,L'asino Che Ride Ristorante Pizzeria,48.20742,16.36927,Italian Restaurant
631,48.2082,16.371694736842105,50,12,4d8dd63eca75b60cd08cf0a8,Dai Fratelli,48.20984248578544,16.37351790688282,Italian Restaurant
632,48.2082,16.371694736842105,50,13,4bac9b2df964a520cffd3ae3,Procacci - Vino e Cucina,48.207168631661375,16.37055751928506,Italian Restaurant
633,48.2082,16.371694736842105,50,14,5363d4bd498e0de21138e4d4,Türkis,48.208736585698354,16.37155946992858,Turkish Restaurant
634,48.2082,16.371694736842105,50,15,4c56f86e7329c928afc08d80,Chamäleon,48.20779040687272,16.374419785274664,Swiss Restaurant
635,48.2082,16.371694736842105,50,16,4cdad5fad4ecb1f755207648,Restaurant Salut,48.209633231163025,16.372010707855225,French Restaurant
636,48.2082,16.371694736842105,50,17,53c273ea498ec863e5cddb2f,Café Restaurant Allenberg,48.207915,16.369919,Italian Restaurant
637,48.2082,16.371694736842105,50,18,4e11aff0ae602afe96bed206,acgileus,48.2085103988647,16.3732204437256,Greek Restaurant
638,48.2082,16.371694736842105,50,19,51baf09c498e0e442e0745c4,Café Eskeles,48.207179317003096,16.369277289711317,Middle Eastern Restaurant
639,48.2082,16.371694736842105,50,20,4d2a2281467d6ea87291d595,Pizzeria Venezia,48.20713841310667,16.371615519802134,Italian Restaurant
640,48.2082,16.371694736842105,50,21,4e4bcbff62e1ce23e579d54a,Hamama,48.20697792128243,16.3744487881129,Middle Eastern Restaurant
641,48.2082,16.371694736842105,50,22,4bd0947bcaff9521711ccff0,Goldenen Panda,48.20899971330434,16.37299890992766,Chinese Restaurant
642,48.2082,16.371694736842105,50,23,4c790347bd346dcb02dcf3ef,Listaurant,48.2082303619416,16.370744705200195,Eastern European Restaurant
643,48.2082,16.371694736842105,50,24,4e6a37937d8b143eb7004b26,Kyoto 한일식전문점,48.207069502322675,16.374323529129832,Korean Restaurant
644,48.2082,16.371694736842105,50,25,4b8c1aa9f964a5201fbe32e3,procacci,48.207372358519244,16.370487213134766,Italian Restaurant
645,48.2082,16.371694736842105,50,26,4c07ee257e3fc928ba7aef82,Ilona Stüberl,48.2084818411421,16.369516547200895,Hungarian Restaurant
646,48.2082,16.371694736842105,50,27,4efb2a63f7907312553de7ab,Japanika,48.209678773304994,16.37344569091377,Asian Restaurant
647,48.2082,16.371694736842105,50,28,576c2a55498efee0011b1a80,Restaurant König von Ungarn,48.20837148063864,16.37504776152803,Hungarian Restaurant
648,48.2082,16.371694736842105,50,29,5072c442e4b011218bea70d4,Mandarin,48.207202489043546,16.374069472205665,Asian Restaurant
649,48.2082,16.371694736842105,50,30,5238402211d23729540422db,Shanghai China Restaurant,48.209212,16.37188,Asian Restaurant
650,48.2082,16.371694736842105,50,31,4bf914feb182c9b66464785a,Yohm,48.2092622337777,16.3698581450042,Asian Restaurant
651,48.2082,16.371694736842105,50,32,4ca32eafd7c3370440639e62,Da Gennaro,48.208160870618535,16.369156422867928,Italian Restaurant
652,48.2082,16.371694736842105,50,33,4c095493009a0f47de94e7bf,Shanghai,48.209289,16.371852,Chinese Restaurant
653,48.2082,16.371694736842105,50,34,58eb2f67fa7ed00ad6e9d50a,Piaristenkeller,48.207941,16.372327,German Restaurant
654,48.2082,16.371694736842105,50,35,5b19227b2619ee002c2ebba3,Som Kitchen,48.209109,16.372755,Thai Restaurant
655,48.2082,16.371694736842105,50,36,538cb65c498e9e17bc6f2eff,lillet,48.20904517830965,16.37159007325306,French Restaurant
656,48.2082,16.371694736842105,50,37,4cfd29bcc671721ed673cc18,Sushi Lounge,48.209881644831206,16.373572364576297,Sushi Restaurant
657,48.2082,16.371694736842105,50,38,51efaf1b498ea87f101308a6,Mandarin chinese cuisine,48.20821142082006,16.371737767100086,Chinese Restaurant
658,48.2082,16.371694736842105,50,39,50f01637e4b0e7ad43d6fa00,Danieli,48.208561,16.371782,Italian Restaurant
659,48.2082,16.371694736842105,50,40,4d552743cc65a143ff7b4a5e,Pizza Bizi,48.20854482608555,16.37166162098567,Italian Restaurant
660,48.2082,16.371694736842105,50,41,4d60f7705c39b1f7d4820a4a,"firenze ,settimo cielo",48.207933978014005,16.372231610585853,Italian Restaurant
661,48.2082,16.371694736842105,50,42,4d7e1298ebc15481b01ddba6,Alt Wiener Kür,48.207918329609015,16.36896881729141,Eastern European Restaurant
662,48.2082,16.371694736842105,50,43,58eb2289e309e104fbf37748,Gerstner Landhaus,48.20786,16.374689,Austrian Restaurant
663,48.2082,16.371694736842105,50,44,509a5d40e4b02f8be1ddedb6,Osteria Restarant,48.20707954621632,16.372932916615326,Trattoria/Osteria
664,48.2082,16.371694736842105,50,45,560a75ac498edc26802cafb3,رستوران پاکستانی,48.20818328857422,16.37380027770996,Austrian Restaurant
665,48.2082,16.371694736842105,50,46,58adc8a89168024bbbc96054,Austria,48.208176,16.37382,Austrian Restaurant
666,48.2082,16.371694736842105,50,47,51b23d13498e74713ef59bd7,Atinori,48.208963,16.372097,Mediterranean Restaurant
667,48.2082,16.371694736842105,50,48,503f46ede4b0f8feebd74bf6,Da Angelo,48.208129141384525,16.372932571503195,Italian Restaurant
668,48.2082,16.371694736842105,50,49,5f770fa7249dad51042648fa,La Scaletta,48.207063,16.371615,Italian Restaurant
669,48.21046092933239,16.3683248522608,35,0,4b058896f964a52038cf22e3,Zum Schwarzen Kameel,48.2100099,16.36824,Austrian Restaurant
670,48.21046092933239,16.3683248522608,35,1,5c69805d2db4a9002c8bab17,Le Bol Blanc,48.210565,16.367188,Café
671,48.21046092933239,16.3683248522608,35,2,4b55d69df964a52040f227e3,Vapiano,48.20959297850683,16.366326510746585,Italian Restaurant
672,48.21046092933239,16.3683248522608,35,3,4b112371f964a520527823e3,Fabios Restaurant Bar,48.21003504664254,16.369763234112284,Italian Restaurant
673,48.21046092933239,16.3683248522608,35,4,4c93a489f244b1f722a51a1d,Pizzeria Regina Margherita,48.20976189814355,16.367172312078665,Italian Restaurant
674,48.21046092933239,16.3683248522608,35,5,4c17c07b834e2d7f0fd72780,Ella's,48.21161611308791,16.369523878999292,Mediterranean Restaurant
675,48.21046092933239,16.3683248522608,35,6,4e8d8a74775bde318a84fc16,Beaulieu,48.21084115407185,16.365328655319043,French Restaurant
676,48.21046092933239,16.3683248522608,35,7,4b7c623df964a5201f902fe3,Bodega Marqués,48.21137325176965,16.369385908672385,Spanish Restaurant
677,48.21046092933239,16.3683248522608,35,8,4c41e104d691c9b6b7658d0a,Bieradies,48.21154652044848,16.369784465290444,Austrian Restaurant
678,48.21046092933239,16.3683248522608,35,9,5d550cc485b52a00084c1179,Zwolf Restaurant,48.210068,16.365438,Modern European Restaurant
679,48.21046092933239,16.3683248522608,35,10,5abea2f2ff0306051db539e7,Cafe Restaurant Leto,48.212525,16.369467,Mediterranean Restaurant
680,48.21046092933239,16.3683248522608,35,11,5f4aa216febd234508ab87df,Meayai,48.211654,16.369026,Asian Restaurant
681,48.21046092933239,16.3683248522608,35,12,4c5febb047429c7474ea1b7a,Akakiko,48.21124316371241,16.36652218293772,Japanese Restaurant
682,48.21046092933239,16.3683248522608,35,13,52c1e60c498e5210360994b2,Al Hamra Lebanese restuarant,48.21036,16.365608,Lebanese Restaurant
683,48.21046092933239,16.3683248522608,35,14,4cde8e97c4f6a35d0e86ca6c,Das Schwarze Kamel,48.20979849344113,16.36824162994877,German Restaurant
684,48.21046092933239,16.3683248522608,35,15,5a0a1355ee628b7be1fac968,Aï,48.21056,16.369173,Sushi Restaurant
685,48.21046092933239,16.3683248522608,35,16,4bbf5b51b083a5936144a3e9,Levante,48.209263604222755,16.36740753221846,Turkish Restaurant
686,48.21046092933239,16.3683248522608,35,17,5bd86850f2554e002c31b4fa,Reserva Ibérica by PACO,48.209571,16.366758,Tapas Restaurant
687,48.21046092933239,16.3683248522608,35,18,4b058897f964a52048cf22e3,Sapori Restaurant,48.2100428859503,16.365766982043635,Mediterranean Restaurant
688,48.21046092933239,16.3683248522608,35,19,4c07ee257e3fc928ba7aef82,Ilona Stüberl,48.2084818411421,16.369516547200895,Hungarian Restaurant
689,48.21046092933239,16.3683248522608,35,20,52c588d611d26efd160e4477,Strobls Biberstube,48.208675384521484,16.36744499206543,German Restaurant
690,48.21046092933239,16.3683248522608,35,21,4bab6d49f964a520a0a83ae3,Bierhof Hopferl,48.210457770275504,16.367596184796504,Austrian Restaurant
691,48.21046092933239,16.3683248522608,35,22,4bf914feb182c9b66464785a,Yohm,48.2092622337777,16.3698581450042,Asian Restaurant
692,48.21046092933239,16.3683248522608,35,23,4baa62f1f964a52057653ae3,Brezl Gwölb,48.21170263525697,16.36871131092337,Austrian Restaurant
693,48.21046092933239,16.3683248522608,35,24,4e9c609a7ee539c857ef1f29,Gustl Bauer,48.21156204302173,16.368747325812418,Austrian Restaurant
694,48.21046092933239,16.3683248522608,35,25,579746f9498e1e34a84f90ec,Chu Chu,48.212529,16.369281,Venezuelan Restaurant
695,48.21046092933239,16.3683248522608,35,26,4c9cd4838afca093f1ddf015,Restaurant zur Hohen Brücke,48.21252684473383,16.368223471528378,Asian Restaurant
696,48.21046092933239,16.3683248522608,35,27,5a0601aadb1d816f16680472,Ipanema Brazil Bar & Bistro,48.211723,16.36922,Brazilian Restaurant
697,48.21046092933239,16.3683248522608,35,28,4bd9c03f0115c9b60c847880,Kern's Beisl,48.210485,16.370745,Austrian Restaurant
698,48.21046092933239,16.3683248522608,35,29,4b828069f964a52091d530e3,Il Tempo,48.20920432926353,16.367508351561117,Italian Restaurant
699,48.21046092933239,16.3683248522608,35,30,573772b5498ec5a36b61eb83,dir wenner dewaan,48.211925,16.366176,Pakistani Restaurant
700,48.21046092933239,16.3683248522608,35,31,4b562643f964a520a30228e3,Gösser Bierklinik,48.21044961082382,16.369523965232535,Beer Bar
701,48.21046092933239,16.3683248522608,35,32,50c5d4cde4b076c8e57c419d,Rauschsalon,48.208766,16.367281,German Restaurant
702,48.21046092933239,16.3683248522608,35,33,4c08f119cd09d13a79fcd209,Patara Fine Thai Cuisine,48.20896,16.37028,Thai Restaurant
703,48.21046092933239,16.3683248522608,35,34,4b18f9c6f964a520dcd623e3,Neu Deli,48.21262992074219,16.368917727978324,Indian Restaurant
704,48.205939070667604,16.3683248522608,28,0,4c1036cbb93cc9b6777656e0,Bitzinger Imbiss,48.204140318189346,16.368603244283282,Bratwurst Joint
705,48.205939070667604,16.3683248522608,28,1,53a1eb58498e3e8d16266f70,L'Osteria,48.20706042372404,16.368496337875555,Trattoria/Osteria
706,48.205939070667604,16.3683248522608,28,2,4b058891f964a52000ce22e3,Crossfield's Australian Pub,48.204330086183376,16.369244357862275,Australian Restaurant
707,48.205939070667604,16.3683248522608,28,3,4b9e3a64f964a52063d336e3,Le Bol,48.206469,16.370575,Café
708,48.205939070667604,16.3683248522608,28,4,54103395498e24decc19fa28,Do & Co Albertina,48.20449458876432,16.368077250244074,Austrian Restaurant
709,48.205939070667604,16.3683248522608,28,5,4b058896f964a52023cf22e3,Orpheus,48.20696283557083,16.369795873761177,Greek Restaurant
710,48.205939070667604,16.3683248522608,28,6,574da9d1498ef19a1bdd6606,Blue Mustard,48.20783275247796,16.369770129214597,Modern European Restaurant
711,48.205939070667604,16.3683248522608,28,7,4ba0ca15f964a520aa7d37e3,L'asino Che Ride Ristorante Pizzeria,48.20742,16.36927,Italian Restaurant
712,48.205939070667604,16.3683248522608,28,8,4bac9b2df964a520cffd3ae3,Procacci - Vino e Cucina,48.207168631661375,16.37055751928506,Italian Restaurant
713,48.205939070667604,16.3683248522608,28,9,5a7075d94f0e585cddefec42,Miss Maki,48.205365,16.370329,Sushi Restaurant
714,48.205939070667604,16.3683248522608,28,10,53c273ea498ec863e5cddb2f,Café Restaurant Allenberg,48.207915,16.369919,Italian Restaurant
715,48.205939070667604,16.3683248522608,28,11,51baf09c498e0e442e0745c4,Café Eskeles,48.207179317003096,16.369277289711317,Middle Eastern Restaurant
716,48.205939070667604,16.3683248522608,28,12,4babbb6df964a52098c43ae3,Tirolerhof,48.20493289683031,16.369501480656503,Café
717,48.205939070667604,16.3683248522608,28,13,5b0fe43cc9a517002c89c1f7,Marrakesch,48.205438,16.370278,Middle Eastern Restaurant
718,48.205939070667604,16.3683248522608,28,14,4b8c1aa9f964a5201fbe32e3,procacci,48.207372358519244,16.370487213134766,Italian Restaurant
719,48.205939070667604,16.3683248522608,28,15,4c1b5f7355e4c9b62b2b4923,Wiener Wald,48.204681118259224,16.371010741854974,Austrian Restaurant
720,48.205939070667604,16.3683248522608,28,16,5b7f0c487dc9e1002cebc4ed,Marrakesch,48.205755,16.370751,Moroccan Restaurant
721,48.205939070667604,16.3683248522608,28,17,4e75080fae60c32850f356af,Il melograno,48.20627448258225,16.368404722082392,Italian Restaurant
722,48.205939070667604,16.3683248522608,28,18,4c50228f2a73c9288879fbd1,Lubella,48.20470885622932,16.3701408647977,Italian Restaurant
723,48.205939070667604,16.3683248522608,28,19,55d7651c498ecaa7a42a9eb9,Trattoria Toscana La No,48.206180552334665,16.368209199886902,Italian Restaurant
724,48.205939070667604,16.3683248522608,28,20,4cebb2cfe888f04da8a0536b,Lucky Chinese,48.205506,16.370292,Chinese Restaurant
725,48.205939070667604,16.3683248522608,28,21,5400c654498e0bcc5f69d768,opøeas,48.207443,16.367402,Greek Restaurant
726,48.205939070667604,16.3683248522608,28,22,5392fd76498e10da32cc23de,Albertina Restaurant & Bar,48.204626,16.367943,Austrian Restaurant
727,48.205939070667604,16.3683248522608,28,23,4b8aea2cf964a520dc8832e3,Augustinerkeller,48.204728,16.3683302,Austrian Restaurant
728,48.205939070667604,16.3683248522608,28,24,4d7e1298ebc15481b01ddba6,Alt Wiener Kür,48.207918329609015,16.36896881729141,Eastern European Restaurant
729,48.205939070667604,16.3683248522608,28,25,5d345399e249a000080e5a93,Mama's Ramen,48.205425,16.370255,Ramen Restaurant
730,48.205939070667604,16.3683248522608,28,26,5d658d2fadaabe0007091f1d,Kilim ‪Restaurant and Bar ‬,48.207466,16.36834,Italian Restaurant
731,48.205939070667604,16.3683248522608,28,27,4e1445ccd4c023f7053d3866,Trattoria Santo Stefano,48.207892425671,16.369940286818316,Trattoria/Osteria
732,48.21046092933239,16.375064621423412,50,0,52f651bf498e274f7d6af263,Figlmüller,48.209364118352575,16.375613749881484,Austrian Restaurant
733,48.21046092933239,16.375064621423412,50,1,534aa8ce498ecf32f55f8d1c,Hard Rock Cafe,48.21131735081294,16.375482215979446,American Restaurant
734,48.21046092933239,16.375064621423412,50,2,4b058896f964a5203ecf22e3,Figlmüller,48.20934265601087,16.374677592695146,Austrian Restaurant
735,48.21046092933239,16.375064621423412,50,3,5a450845f870fd694cf13665,Parémi,48.20913259310059,16.3759602275945,Bakery
736,48.21046092933239,16.375064621423412,50,4,4b9178fdf964a52028bf33e3,Heindl's Palatschinkenkuchl,48.2101564,16.3760576,Austrian Restaurant
737,48.21046092933239,16.375064621423412,50,5,568fc03b498e81de1c4e1e7d,Hungry Guy,48.21108579140914,16.375128109823315,Mediterranean Restaurant
738,48.21046092933239,16.375064621423412,50,6,548ecec9498ef3749fb7a9f2,Lugeck Figlmüller,48.209682,16.375169,Austrian Restaurant
739,48.21046092933239,16.375064621423412,50,7,4bfd022c2b83b7137b9ca998,Würstelstand Hoher Markt,48.21113316179447,16.372437409432184,Bratwurst Joint
740,48.21046092933239,16.375064621423412,50,8,4b058896f964a5202acf22e3,Griechenbeisl,48.210759600885865,16.37727051973343,Austrian Restaurant
741,48.21046092933239,16.375064621423412,50,9,4c6adea4e503c9288ab546b3,Restaurant OM Cocktail Bar,48.21122255231381,16.37522087193493,Indian Restaurant
742,48.21046092933239,16.375064621423412,50,10,5669d70c498eb72355a897ae,Miznon,48.20841226321208,16.37465635779676,Jewish Restaurant
743,48.21046092933239,16.375064621423412,50,11,4bd07c9641b9ef3bc726fae5,Happy Noodles,48.21151328428268,16.377713726187554,Noodle House
744,48.21046092933239,16.375064621423412,50,12,53ea5571498e26df2fc93c8d,Kussmaul,48.20937419142018,16.375689493779117,Tapas Restaurant
745,48.21046092933239,16.375064621423412,50,13,5cab2d38625a66002ce75485,Max & Benito,48.211395,16.375883,Burrito Place
746,48.21046092933239,16.375064621423412,50,14,59f237049de23b1d61b825c7,OSB Oriental Sandwich Bar,48.211485,16.375621,Middle Eastern Restaurant
747,48.21046092933239,16.375064621423412,50,15,59b113a0061b514d3fd88ba5,Ivys Pho And Grill,48.208544959594924,16.37610375881195,Vietnamese Restaurant
748,48.21046092933239,16.375064621423412,50,16,4bf6c065b1a7a59302a6d65b,Le Salzgries,48.21215659925768,16.37317660895131,French Restaurant
749,48.21046092933239,16.375064621423412,50,17,4d8dd63eca75b60cd08cf0a8,Dai Fratelli,48.20984248578544,16.37351790688282,Italian Restaurant
750,48.21046092933239,16.375064621423412,50,18,572b522b498e554ddb805347,Buxbaum Restaurant,48.209955,16.376354,Austrian Restaurant
751,48.21046092933239,16.375064621423412,50,19,4e05cb5f6284d9ee92ca927d,Pizzeria Casa Romana,48.210320361323916,16.374262129889306,Italian Restaurant
752,48.21046092933239,16.375064621423412,50,20,4b92bf1df964a520dd1734e3,Zwölf Apostelkeller,48.2097936908326,16.3755902522231,Austrian Restaurant
753,48.21046092933239,16.375064621423412,50,21,4cc5d588f49676b0af8c73d5,Yiu,48.212015,16.375375,Noodle House
754,48.21046092933239,16.375064621423412,50,22,4cdad5fad4ecb1f755207648,Restaurant Salut,48.209633231163025,16.372010707855225,French Restaurant
755,48.21046092933239,16.375064621423412,50,23,52d04b26498ed48f91626106,Indisches Restaurant Nirvana,48.2106767373608,16.375466640345753,Indian Restaurant
756,48.21046092933239,16.375064621423412,50,24,516be3dae4b0a88e0605a73b,Yu Asia Restaurant,48.210521,16.375479,Asian Restaurant
757,48.21046092933239,16.375064621423412,50,25,5929dbd8d41bb74f6e7c7f11,Osteria Mangia E Ridi,48.209682,16.375881,Italian Restaurant
758,48.21046092933239,16.375064621423412,50,26,5b141bfb8c812a002c56fb65,Zweiter Würstelstand Am Schwedenplatz,48.211735,16.376625,Bratwurst Joint
759,48.21046092933239,16.375064621423412,50,27,58177d9b38fa462c3a8ac75e,Eat Happy im Merkur,48.210784,16.373371,Sushi Restaurant
760,48.21046092933239,16.375064621423412,50,28,4fa547b1e4b00c58442f8565,Tripizza,48.21126295984557,16.37542822403817,Italian Restaurant
761,48.21046092933239,16.375064621423412,50,29,4c35a9224308b7138fbfc430,Restaurant Chinese Court,48.212466,16.374973,Chinese Restaurant
762,48.21046092933239,16.375064621423412,50,30,4bd0947bcaff9521711ccff0,Goldenen Panda,48.20899971330434,16.37299890992766,Chinese Restaurant
763,48.21046092933239,16.375064621423412,50,31,4cacc59ef47ea143554b9421,El Pulpo,48.21123448309775,16.377182645182632,Spanish Restaurant
764,48.21046092933239,16.375064621423412,50,32,563e0c78498e069d88b3c787,Lale Restaurant,48.21207491765602,16.375433235275263,Turkish Restaurant
765,48.21046092933239,16.375064621423412,50,33,51a10649498e348d69a7b295,Mandarin,48.208811,16.376278,Asian Restaurant
766,48.21046092933239,16.375064621423412,50,34,55de1aaf498efdd44613add6,schönscharf,48.21073061540723,16.378152927431177,Thai Restaurant
767,48.21046092933239,16.375064621423412,50,35,4d067ac72f96f04d9a0f2854,ef16,48.210419469112225,16.376709221609445,Austrian Restaurant
768,48.21046092933239,16.375064621423412,50,36,4c2cc710ae6820a1e3d91943,Kiang,48.21102434281842,16.374742792233796,Asian Restaurant
769,48.21046092933239,16.375064621423412,50,37,4efb2a63f7907312553de7ab,Japanika,48.209678773304994,16.37344569091377,Asian Restaurant
770,48.21046092933239,16.375064621423412,50,38,4bf3d23498ac0f47de3763a8,XO Noodles,48.2107418686194,16.37322797807657,Asian Restaurant
771,48.21046092933239,16.375064621423412,50,39,4d45aecfe198721ef343c88b,Artemis,48.211361,16.37648,Greek Restaurant
772,48.21046092933239,16.375064621423412,50,40,4b058896f964a5202fcf22e3,Achilleus,48.21041907781593,16.375770917587303,Greek Restaurant
773,48.21046092933239,16.375064621423412,50,41,576c2a55498efee0011b1a80,Restaurant König von Ungarn,48.20837148063864,16.37504776152803,Hungarian Restaurant
774,48.21046092933239,16.375064621423412,50,42,4e0c5a3faeb7af850d67b573,Restaurant Phönix,48.210482,16.375433,Chinese Restaurant
775,48.21046092933239,16.375064621423412,50,43,4d9a1dee3b86f04df1e752c6,Alef Alef,48.2116878,16.3740792,Diner
776,48.21046092933239,16.375064621423412,50,44,4cae0149628cb1f739993015,Lindenkeller,48.209852952948296,16.374378376115622,German Restaurant
777,48.21046092933239,16.375064621423412,50,45,5b19227b2619ee002c2ebba3,Som Kitchen,48.209109,16.372755,Thai Restaurant
778,48.21046092933239,16.375064621423412,50,46,4cfd29bcc671721ed673cc18,Sushi Lounge,48.209881644831206,16.373572364576297,Sushi Restaurant
779,48.21046092933239,16.375064621423412,50,47,4cbecc4919ceb1f730611fcd,Restaurant Stolichniy,48.21087154949918,16.373760593597396,Russian Restaurant
780,48.21046092933239,16.375064621423412,50,48,5b6de2222b6710002cb3c3e5,Tre Ristorante,48.20845,16.376434,Italian Restaurant
781,48.21046092933239,16.375064621423412,50,49,4c42e124d691c9b6e3f98e0a,Kornhäuslturm,48.21118354797223,16.374392509459973,Eastern European Restaurant
782,48.205939070667604,16.375064621423412,50,0,59cbccb5b37e2b6989e4afd1,Elissar - Libanesische Küche,48.203854262984315,16.375456263274085,Lebanese Restaurant
783,48.205939070667604,16.375064621423412,50,1,4cfa9f14c6cca35dc0778732,s’ Müllerbeisl,48.20421884728973,16.373968225547202,Gastropub
784,48.205939070667604,16.375064621423412,50,2,4b058895f964a52000cf22e3,Danieli,48.2060940957571,16.37194436761891,Italian Restaurant
785,48.205939070667604,16.375064621423412,50,3,4d18d90dbb64224bd446ca65,Al Borgo,48.2066857427338,16.377436492029393,Italian Restaurant
786,48.205939070667604,16.375064621423412,50,4,4b686560f964a520f4752be3,Champions Sports Bar & Restaurant,48.2046829177245,16.37762053177159,Sports Bar
787,48.205939070667604,16.375064621423412,50,5,4b058896f964a52026cf22e3,Da Capo,48.207842095015444,16.376276992721905,Italian Restaurant
788,48.205939070667604,16.375064621423412,50,6,56ae1ebe498e6a949d39ca58,junn,48.20548749351194,16.37517885997279,Japanese Restaurant
789,48.205939070667604,16.375064621423412,50,7,5f3ebe8ce5287a421f0c264d,All Reis Bangkok Street Food,48.206157,16.373341,Thai Restaurant
790,48.205939070667604,16.375064621423412,50,8,4c35ebe13ffc9521704791f5,Roo Bar Australian Pub,48.20399808830159,16.37590828391412,Australian Restaurant
791,48.205939070667604,16.375064621423412,50,9,586a4abeda54ae618f8ac96a,Shoyu Ramen,48.20575305804129,16.375749070738998,Ramen Restaurant
792,48.205939070667604,16.375064621423412,50,10,4c925cdbae45224b18a6ef97,Salieri,48.203887104097994,16.37375065488344,Italian Restaurant
793,48.205939070667604,16.375064621423412,50,11,5c0ea61b25ecca002c6f2eaa,Taco Tante,48.204086,16.37449,Taco Place
794,48.205939070667604,16.375064621423412,50,12,55302a16498e0d57980d32e4,Porterhouse,48.20781180186655,16.37672589795811,Austrian Restaurant
795,48.205939070667604,16.375064621423412,50,13,4c587da412f0d13aca8d09ad,Pürstner,48.20697594404889,16.37652752457147,Austrian Restaurant
796,48.205939070667604,16.375064621423412,50,14,4b22b214f964a520fd4b24e3,Gasthaus Pöschl,48.20662765655453,16.373761109422386,Austrian Restaurant
797,48.205939070667604,16.375064621423412,50,15,5b969384180b91002c56c9fd,Sura Korean,48.207054,16.37439,Korean Restaurant
798,48.205939070667604,16.375064621423412,50,16,4c4dcec41b8e1b8dc1653826,Lord Of S,48.205787195299784,16.378206508316094,Middle Eastern Restaurant
799,48.205939070667604,16.375064621423412,50,17,5cd94258da5ede002c067e83,Chinacy,48.204771,16.373029,Chinese Restaurant
800,48.205939070667604,16.375064621423412,50,18,4c2cfbac4e132d7ff6a59bdf,Restaurant zum Kellergwölb,48.204578594444875,16.374299972071057,Austrian Restaurant
801,48.205939070667604,16.375064621423412,50,19,4b058895f964a52007cf22e3,Gulaschmuseum,48.20781349381503,16.376693942069313,Austrian Restaurant
802,48.205939070667604,16.375064621423412,50,20,4e344a4dc65b2313e280f2da,Gourmetrestaurant Silvio Nickol,48.205931088460524,16.377170327659314,Modern European Restaurant
803,48.205939070667604,16.375064621423412,50,21,5c79540bc03635002c806111,Ganko,48.20641,16.37702,Japanese Restaurant
804,48.205939070667604,16.375064621423412,50,22,4b30b188f964a520f5fa24e3,Huth da Moritz,48.20461,16.375418,Italian Restaurant
805,48.205939070667604,16.375064621423412,50,23,4dcab05c2271a5cb22512466,Bastei Beisl,48.20648610548509,16.377877447104385,Austrian Restaurant
806,48.205939070667604,16.375064621423412,50,24,4bb6302e46d4a59347d4c5c0,Salud,48.20425687814837,16.375006722008855,Mexican Restaurant
807,48.205939070667604,16.375064621423412,50,25,4c56f86e7329c928afc08d80,Chamäleon,48.20779040687272,16.374419785274664,Swiss Restaurant
808,48.205939070667604,16.375064621423412,50,26,5452631c498e49a9fe3cfa0f,Ristorante Da Vinci,48.20398310447334,16.375486850738525,Italian Restaurant
809,48.205939070667604,16.375064621423412,50,27,4ef253dc0e015e413aeae77c,Sinohouse,48.20457623744855,16.375620258609526,Asian Restaurant
810,48.205939070667604,16.375064621423412,50,28,4d7bcecbda568cfa2ecf58ff,la piazza,48.20384284783899,16.37549782714057,Italian Restaurant
811,48.205939070667604,16.375064621423412,50,29,4e39922e7d8b6bed20b01949,Wolfsrudel Buffet,48.20386,16.374699,Brazilian Restaurant
812,48.205939070667604,16.375064621423412,50,30,4cfa3bc234c1a09381e93e0e,L'Osteria del Collio,48.2052638813383,16.37409790549184,Trattoria/Osteria
813,48.205939070667604,16.375064621423412,50,31,4b058895f964a52015cf22e3,Vier Jahreszeiten,48.20383,16.375427,French Restaurant
814,48.205939070667604,16.375064621423412,50,32,5203e3fa498ea4a4cc4dad48,seafood,48.20472293875458,16.373752057091984,Korean Restaurant
815,48.205939070667604,16.375064621423412,50,33,5888a058e0adac60750cf07a,ristorantino da francesco,48.206185,16.373564,Italian Restaurant
816,48.205939070667604,16.375064621423412,50,34,569d1f10498e5a25c54a980d,SKY,48.20465,16.372942,Austrian Restaurant
817,48.205939070667604,16.375064621423412,50,35,5616bdf5498ed90cc32f60f1,Blue kitchen,48.20461645279281,16.372897598823805,Austrian Restaurant
818,48.205939070667604,16.375064621423412,50,36,4e4bcbff62e1ce23e579d54a,Hamama,48.20697792128243,16.3744487881129,Middle Eastern Restaurant
819,48.205939070667604,16.375064621423412,50,37,56d9c9e6cd102abc2f374c7c,Huth Gastwirtschaft,48.20444390682473,16.375314992251347,Austrian Restaurant
820,48.205939070667604,16.375064621423412,50,38,4e6a37937d8b143eb7004b26,Kyoto 한일식전문점,48.207069502322675,16.374323529129832,Korean Restaurant
821,48.205939070667604,16.375064621423412,50,39,5065f7b6e4b08ee4f03bc76c,la creperie,48.20729636192945,16.375136643170634,French Restaurant
822,48.205939070667604,16.375064621423412,50,40,4bc612b7bf29c9b65134f92a,Huth Gastwirtschaft,48.20443205943693,16.375290549653272,Austrian Restaurant
823,48.205939070667604,16.375064621423412,50,41,4c580ecdb7a31b8d378a51da,Zu den 3 Hacken,48.206272,16.375912,Austrian Restaurant
824,48.205939070667604,16.375064621423412,50,42,515de181e4b04b5bf990baac,مطعم اللورد (فيينا),48.20582553000436,16.37808340639632,Mediterranean Restaurant
825,48.205939070667604,16.375064621423412,50,43,5999be54da5e5606a941e9d1,Bukowina Restaurant,48.206116,16.373552,Romanian Restaurant
826,48.205939070667604,16.375064621423412,50,44,51a8dd04498e66640f799c39,Currasceria,48.203842,16.374629,American Restaurant
827,48.205939070667604,16.375064621423412,50,45,5072c442e4b011218bea70d4,Mandarin,48.207202489043546,16.374069472205665,Asian Restaurant
828,48.205939070667604,16.375064621423412,50,46,5466671a498e137569500302,Da Vinci Restaurant and Bar,48.203912106401766,16.375504606841933,Italian Restaurant
829,48.205939070667604,16.375064621423412,50,47,4d9034583bfef04d2ee1be86,Palais Cafe,48.204368,16.377229,Eastern European Restaurant
830,48.205939070667604,16.375064621423412,50,48,53dbebcf498e6a427f14476f,New Sichuan,48.204602,16.37562,Szechuan Restaurant
831,48.205939070667604,16.375064621423412,50,49,524ef798498e474f767b48ff,Le Viet,48.20605524972767,16.37765954026694,Vietnamese Restaurant
832,48.2082,16.386431578947366,14,0,4b705380f964a520e0122de3,Stadtwirt,48.20721,16.387712,Austrian Restaurant
833,48.2082,16.386431578947366,14,1,5805ed1938fabbec4b9b412c,Alaverdi,48.207019,16.387966,Eastern European Restaurant
834,48.2082,16.386431578947366,14,2,5819d42344c8dc30e650fe4e,Song Hua Jiang,48.206971,16.388248,Chinese Restaurant
835,48.2082,16.386431578947366,14,3,4e1445d8227146630ababc06,Fufu Asia Restaurant,48.20897395328049,16.38761043548584,Asian Restaurant
836,48.2082,16.386431578947366,14,4,530f43d4498e934310a7d1fa,Salzburger Stiegl,48.2074997307017,16.38712765696512,Austrian Restaurant
837,48.2082,16.386431578947366,14,5,5406e97d498e5c9379551b11,Finanz Eck,48.20999993905733,16.386419404106718,Austrian Restaurant
838,48.2082,16.386431578947366,14,6,4f413917e4b024a96a2ac552,Dacapo,48.20660153817245,16.3852199351515,Italian Restaurant
839,48.2082,16.386431578947366,14,7,4d9309fff10ea093656f1f1e,Piatti del Giorno,48.209741,16.386594,Italian Restaurant
840,48.2082,16.386431578947366,14,8,54254eed498e962713b2c959,Finanzeck,48.20963576242325,16.386604319852747,Austrian Restaurant
841,48.2082,16.386431578947366,14,9,52a9a992498e240448b2876e,Fu Fu,48.209831,16.38655,Asian Restaurant
842,48.2082,16.386431578947366,14,10,4c90a524de3d236a24246d18,Green Apple,48.209898,16.38651,Asian Restaurant
843,48.2082,16.386431578947366,14,11,5506da32498e0ee5ed92bbae,Die Arkade,48.210420426280855,16.386570696867526,Austrian Restaurant
844,48.2082,16.386431578947366,14,12,4cb5861e64998cfae4560ea2,Quick Green,48.209859,16.3865702,Chinese Restaurant
845,48.2082,16.386431578947366,14,13,57c5733b498efebd15960e30,Nam Nam Dabba im 3.,48.206993,16.388456,Indian Restaurant
846,48.21046092933239,16.38306169436606,10,0,56215700498e384259762b39,Yori,48.210865242136244,16.381681390328907,Korean Restaurant
847,48.21046092933239,16.38306169436606,10,1,4b2284a6f964a5202e4824e3,Xpedit,48.21066122689327,16.381223442923933,Italian Restaurant
848,48.21046092933239,16.38306169436606,10,2,4fa6b673e4b0c1088f401169,Restaurant Hero,48.210917,16.380009,Middle Eastern Restaurant
849,48.21046092933239,16.38306169436606,10,3,523492c011d2cc03d3faa4b2,Pfudl,48.208742967616246,16.38162141112767,German Restaurant
850,48.21046092933239,16.38306169436606,10,4,4cc556bebde8f04dba6eb04b,Pizzeria Noli,48.21029445265516,16.38267448182077,Italian Restaurant
851,48.21046092933239,16.38306169436606,10,5,55507c06498efa10768a5ea2,Buenos Aires Beach Bar,48.21178185276467,16.381236171921476,Argentinian Restaurant
852,48.21046092933239,16.38306169436606,10,6,5d6eb822fa837e000832a7d8,Marrakesch,48.208677,16.381535,Hookah Bar
853,48.21046092933239,16.38306169436606,10,7,524ee0e6498e47de9a69d88c,Babička,48.211698,16.381988,Eastern European Restaurant
854,48.21046092933239,16.38306169436606,10,8,4e8591552c5b1f256f0526cb,Kantine,48.210642493486155,16.382746842626034,German Restaurant
855,48.21046092933239,16.38306169436606,10,9,4c498bdb6b26ef3b276e0438,Sapori d´Italia,48.21080496599986,16.38006461338352,Italian Restaurant
856,48.205939070667604,16.38306169436606,28,0,516d553ae4b07872cd671f23,Vapiano,48.20591131274522,16.38525187594509,Italian Restaurant
857,48.205939070667604,16.38306169436606,28,1,50aa6253e4b05977cfb06fa9,ra'mien go,48.206136192912645,16.384658115236284,Noodle House
858,48.205939070667604,16.38306169436606,28,2,50b25766e4b04a092f0c0bf2,Sternzeichen,48.20614404082561,16.384543532030634,Chinese Restaurant
859,48.205939070667604,16.38306169436606,28,3,5bf31a48efa82a002ccdb548,Max & Benito,48.206385,16.383748,Burrito Place
860,48.205939070667604,16.38306169436606,28,4,5666f2d0498e010319247fad,Salon Plafond,48.20796334806486,16.381817068330147,Modern European Restaurant
861,48.205939070667604,16.38306169436606,28,5,4bbc2af4e5b0d13a63026f7c,Steirereck,48.20437126940727,16.381561467707943,Austrian Restaurant
862,48.205939070667604,16.38306169436606,28,6,51fe32ee498eedc7713ffc09,Meierei im Stadtpark,48.2045424958977,16.381007943542176,Austrian Restaurant
863,48.205939070667604,16.38306169436606,28,7,5a67252a5455b22d4f33f02c,Curry’n’Masala,48.206147,16.38413,Indian Restaurant
864,48.205939070667604,16.38306169436606,28,8,50ca02c4245f2d4aa8c2c0c6,S'Parks Restaurant,48.20635155369297,16.383286452046345,Austrian Restaurant
865,48.205939070667604,16.38306169436606,28,9,58a6f876e786b20f316bf13e,Burger Bros,48.206150257604214,16.384631738731397,Burger Joint
866,48.205939070667604,16.38306169436606,28,10,505c65dee4b07797497bd332,Gluttenburg,48.205996,16.385416,German Restaurant
867,48.205939070667604,16.38306169436606,28,11,51924144498ebf78363235b3,Longi Vegetarian Gourmet Asia Supermarket,48.206026,16.384566,Asian Restaurant
868,48.205939070667604,16.38306169436606,28,12,515c1202e4b0541f0b200242,Mr. Lee,48.20617974270923,16.384380761652906,Asian Restaurant
869,48.205939070667604,16.38306169436606,28,13,509d5baee4b029db3cfe7eae,Pasta & Café by INTERSPAR,48.206028121962404,16.38476125612814,Italian Restaurant
870,48.205939070667604,16.38306169436606,28,14,4d3d95766b3d236ae7006b64,Fernbedienung,48.20586029016112,16.38368065992825,Italian Restaurant
871,48.205939070667604,16.38306169436606,28,15,557172ce498ef4e26807bf68,Due Goppion Café Wien,48.20611151714236,16.384546851504687,Austrian Restaurant
872,48.205939070667604,16.38306169436606,28,16,4f413917e4b024a96a2ac552,Dacapo,48.20660153817245,16.3852199351515,Italian Restaurant
873,48.205939070667604,16.38306169436606,28,17,4d768bf1d6688cfa63111f15,Wiener Würstl,48.206933,16.381005,Hot Dog Joint
874,48.205939070667604,16.38306169436606,28,18,4bf82c155317a5934657ff7e,LiDu,48.204469,16.384006,Chinese Restaurant
875,48.205939070667604,16.38306169436606,28,19,4b3a21f8f964a520706125e3,damoa,48.206192968950624,16.38423594919978,Asian Restaurant
876,48.205939070667604,16.38306169436606,28,20,5545535c498e3c063a18ba1b,Imbiss Kebab Noodles Würstel,48.206384,16.384175,Middle Eastern Restaurant
877,48.205939070667604,16.38306169436606,28,21,511e2d60e4b046e9cfb6ab53,Panzerotti,48.20642403265578,16.38394366294991,Italian Restaurant
878,48.205939070667604,16.38306169436606,28,22,4d90c2d86174a0931e55fae3,Running Sushi,48.20453584275965,16.38366001496599,Japanese Restaurant
879,48.205939070667604,16.38306169436606,28,23,4fc649e3e4b058a77a5db24c,Due,48.206390351514976,16.384101404610654,Italian Restaurant
880,48.205939070667604,16.38306169436606,28,24,569f76b5498e243fc15ab740,Marco Polo Running Sushi,48.205724461972736,16.384288434449026,Sushi Restaurant
881,48.205939070667604,16.38306169436606,28,25,52b029e411d2a89b1cb0dbbc,Sushi Cross,48.206135517548546,16.384646189724595,Sushi Restaurant
882,48.205939070667604,16.38306169436606,28,26,564e32eb498e9cd0694b1cf6,Joyi's Kitchen,48.205324,16.385385,Asian Restaurant
883,48.205939070667604,16.38306169436606,28,27,5e050b673913a80007dc4ef5,Türkis,48.206112,16.384595,Turkish Restaurant
884,48.21046092933239,16.389801463528674,18,0,4bcf2e729854d13a3e89f54d,Indus,48.21186388115066,16.39071238006193,Indian Restaurant
885,48.21046092933239,16.389801463528674,18,1,5d2cc0567cfbfe0023496c67,Pumpui,48.212285,16.389413,Thai Restaurant
886,48.21046092933239,16.389801463528674,18,2,4bd96e40e914a593656e56fa,Wild,48.21068417437373,16.389992951819444,Austrian Restaurant
887,48.21046092933239,16.389801463528674,18,3,53da3475498ec4fe240e8ae9,Dreieck,48.211904,16.392174,Austrian Restaurant
888,48.21046092933239,16.389801463528674,18,4,54074f6d498e0bfa435ba48a,Doña Irma,48.20917725209783,16.391997740547357,Mexican Restaurant
889,48.21046092933239,16.389801463528674,18,5,5d0365e3c0af570039d14860,Yu Yu’s Food,48.210331,16.390886,Asian Restaurant
890,48.21046092933239,16.389801463528674,18,6,4e1445d8227146630ababc06,Fufu Asia Restaurant,48.20897395328049,16.38761043548584,Asian Restaurant
891,48.21046092933239,16.389801463528674,18,7,53f47816498e15557bc69cd5,lili's snack & meal,48.21032,16.390808,Asian Restaurant
892,48.21046092933239,16.389801463528674,18,8,4dfb378bb0fb73bb4d78fc3d,Mediterania,48.21033228989347,16.390845007962884,Mediterranean Restaurant
893,48.21046092933239,16.389801463528674,18,9,4d32fb915c2db60c461dc76c,China Restaurant Lucky Pavillon,48.209723801762294,16.391458310731306,Chinese Restaurant
894,48.21046092933239,16.389801463528674,18,10,4f8464bbe4b08b03b08fd4e2,Cocinoto,48.21226344520019,16.38944056302802,Italian Restaurant
895,48.21046092933239,16.389801463528674,18,11,4ead47f56c250091a22b8abd,Osteria Da Claudia,48.20857596450662,16.390662,Trattoria/Osteria
896,48.21046092933239,16.389801463528674,18,12,5506da32498e0ee5ed92bbae,Die Arkade,48.210420426280855,16.386570696867526,Austrian Restaurant
897,48.21046092933239,16.389801463528674,18,13,52efcfef11d25cef3768c4f0,Vital Pizza & Pasta,48.210953,16.390044,Italian Restaurant
898,48.21046092933239,16.389801463528674,18,14,4cb5861e64998cfae4560ea2,Quick Green,48.209859,16.3865702,Chinese Restaurant
899,48.21046092933239,16.389801463528674,18,15,4bf6fa445ec320a1762386d3,Kuchlmasterei,48.211387395858765,16.387841,French Restaurant
900,48.21046092933239,16.389801463528674,18,16,573609c2498ed7cf0fcba960,El Asador,48.211285,16.387335,Argentinian Restaurant
901,48.21046092933239,16.389801463528674,18,17,56f671d0498ef7a12afad7ef,das Dreieck,48.211416,16.392772,Austrian Restaurant
902,48.205939070667604,16.389801463528674,20,0,4b705380f964a520e0122de3,Stadtwirt,48.20721,16.387712,Austrian Restaurant
903,48.205939070667604,16.389801463528674,20,1,4c0cc7cd2466a593ac807621,Hitomi,48.20693303107927,16.38932738852448,Asian Restaurant
904,48.205939070667604,16.389801463528674,20,2,5805ed1938fabbec4b9b412c,Alaverdi,48.207019,16.387966,Eastern European Restaurant
905,48.205939070667604,16.389801463528674,20,3,58de643be9dad14ceae5c3fc,Heunisch und Erben,48.204926,16.387978,Austrian Restaurant
906,48.205939070667604,16.389801463528674,20,4,5f11c8014af89b3471666ef1,Madame Curry,48.205585,16.386564,Indian Restaurant
907,48.205939070667604,16.389801463528674,20,5,5177fb1be4b02e3e2a162658,Elvira's Restaurant,48.204957853028404,16.388165701850777,Ukrainian Restaurant
908,48.205939070667604,16.389801463528674,20,6,4bb1cfb4f964a5203aa43ce3,Pizzeria Trimelli,48.2038974875415,16.389110116535146,Italian Restaurant
909,48.205939070667604,16.389801463528674,20,7,4b802677f964a520df5630e3,Kimchi Restaurant,48.20684564222314,16.39024131172035,Korean Restaurant
910,48.205939070667604,16.389801463528674,20,8,5c168b1c270ee70039cd75b6,Taste of India,48.206426,16.391332,Indian Restaurant
911,48.205939070667604,16.389801463528674,20,9,5819d42344c8dc30e650fe4e,Song Hua Jiang,48.206971,16.388248,Chinese Restaurant
912,48.205939070667604,16.389801463528674,20,10,4dad74be0cb6f003f4889dc5,Trattoria Pergola,48.205102494776135,16.38987681184208,Trattoria/Osteria
913,48.205939070667604,16.389801463528674,20,11,4c038d59f56c2d7f0a041d66,Murakami,48.205603,16.388117,Chinese Restaurant
914,48.205939070667604,16.389801463528674,20,12,598d907a9de23b5c0f88a64d,Nem,48.205533,16.387601,Vietnamese Restaurant
915,48.205939070667604,16.389801463528674,20,13,4be2f07fb02ec9b6d3124ec0,Zum Schmankerlwirt,48.203857,16.390364,German Restaurant
916,48.205939070667604,16.389801463528674,20,14,4c76596edb52b1f7d31b7bdc,Sofienwirt,48.20757505192212,16.39085236479708,Austrian Restaurant
917,48.205939070667604,16.389801463528674,20,15,4c9497dff7cfa1cd5518b515,China Restaurant Asia Paradies,48.205669613092425,16.38806552291652,Chinese Restaurant
918,48.205939070667604,16.389801463528674,20,16,57c5733b498efebd15960e30,Nam Nam Dabba im 3.,48.206993,16.388456,Indian Restaurant
919,48.205939070667604,16.389801463528674,20,17,5b8446426eda02002c419ad5,Colono Deli Store & Tapas Bar,48.205267,16.387138,Winery
920,48.205939070667604,16.389801463528674,20,18,4b826d15f964a52078d230e3,La Culina,48.20548739999999,16.38788,Italian Restaurant
921,48.205939070667604,16.389801463528674,20,19,54cbcb4e498e14b4a8b0f423,Hemmers,48.20540423601497,16.38788597668881,Gastropub
922,48.218199999999996,16.35695789473684,11,0,5290fbf0498e2f2a53a24fec,Küche 18,48.21741482719675,16.359018547563483,Chinese Restaurant
923,48.218199999999996,16.35695789473684,11,1,58bd8ec96d349d32d8a84fe1,Sägewerk,48.21883124405233,16.357606455187554,Austrian Restaurant
924,48.218199999999996,16.35695789473684,11,2,4d5ed2e2d7206ea83a6de1f1,Ethopian Restaurant,48.218354,16.358107725,Ethiopian Restaurant
925,48.218199999999996,16.35695789473684,11,3,4c93443f332c3704be078f64,Hayaci Sushi Bar,48.21698709095325,16.359479252317506,Japanese Restaurant
926,48.218199999999996,16.35695789473684,11,4,5c34aa6edff81500386fe774,Daily Deli HOME,48.21769640294638,16.35898321866989,American Restaurant
927,48.218199999999996,16.35695789473684,11,5,54f35248498e7f141724c18c,Pizza Post  22,48.219017,16.356633,Italian Restaurant
928,48.218199999999996,16.35695789473684,11,6,58e4c95c89151d53e925f6eb,Ostarrichi Stuben,48.217035,16.358618,Austrian Restaurant
929,48.218199999999996,16.35695789473684,11,7,52cad67d498ed9fda0a227b4,Village Restaurant,48.21600974151286,16.356878013467366,Middle Eastern Restaurant
930,48.218199999999996,16.35695789473684,11,8,5769316b498e970368a81adc,t. john's,48.215962,16.356767,New American Restaurant
931,48.218199999999996,16.35695789473684,11,9,597b0e3abd4009797a6b3b6c,Noodle King,48.2173,16.359762,Chinese Restaurant
932,48.218199999999996,16.35695789473684,11,10,4d99ac1997d06ea84d7f4e0b,iron chef,48.218096,16.358449,Chinese Restaurant
933,48.22046092933239,16.3535873519697,18,0,5c373e4eff0306002c89f81e,Shouko,48.221216,16.352616,Ramen Restaurant
934,48.22046092933239,16.3535873519697,18,1,4c65268fc74c1b8d2b46b383,Meksan Kebap & Grillhaus,48.2220415539439,16.35358890002262,Turkish Restaurant
935,48.22046092933239,16.3535873519697,18,2,4d8e3001d265236a213a0417,Giuliano Ristorante Pizzeria,48.221051065614205,16.352179721030943,Italian Restaurant
936,48.22046092933239,16.3535873519697,18,3,5877f5ca16f0004ec8ba90dd,Taverna Gyros,48.222338,16.352913,Greek Restaurant
937,48.22046092933239,16.3535873519697,18,4,4ef32a2ae3003ccf857b6a90,Dora's Cafe Bistro Mediterrane,48.22177519241039,16.353496050980493,Mediterranean Restaurant
938,48.22046092933239,16.3535873519697,18,5,5dfc937ad42a9c000776b5e1,Le's Cooking,48.22215,16.353764,Sushi Restaurant
939,48.22046092933239,16.3535873519697,18,6,563b947ecd10da6360b5a386,Restaurant Kim,48.221935,16.354246,Korean Restaurant
940,48.22046092933239,16.3535873519697,18,7,52964f6011d2bb6245ff6c2f,Flying Diner,48.22045,16.352367,American Restaurant
941,48.22046092933239,16.3535873519697,18,8,5340658e498ee4ab54df07ce,Patamat,48.221174115788436,16.353232524886504,Austrian Restaurant
942,48.22046092933239,16.3535873519697,18,9,4ffaf4dae4b0887e56492c6d,BoboQ,48.221868,16.353511,Asian Restaurant
943,48.22046092933239,16.3535873519697,18,10,4cf3ec9b899c6ea83322fec1,Okinawa Sushi-Bar,48.22207250956322,16.35358617055995,Japanese Restaurant
944,48.22046092933239,16.3535873519697,18,11,4b4f1523f964a520e5f926e3,Pasta Mix,48.22230935096741,16.35342299938202,Italian Restaurant
945,48.22046092933239,16.3535873519697,18,12,5ce80ba9d552c7002dfa7593,Little Italian Deli,48.22215,16.352745,Italian Restaurant
946,48.22046092933239,16.3535873519697,18,13,4c33935b452620a1b1d2230f,Lenek's Wiener Würstelstand,48.222086502698524,16.35350211701625,BBQ Joint
947,48.22046092933239,16.3535873519697,18,14,4b43aac3f964a520b3e525e3,Mittagspause,48.22053,16.352393,German Restaurant
948,48.22046092933239,16.3535873519697,18,15,4f9a7429e4b0de62666baded,Das grüne Eck,48.220416780542394,16.35258627905451,German Restaurant
949,48.22046092933239,16.3535873519697,18,16,4b058895f964a52017cf22e3,Grotta Azzurra,48.22160160407226,16.353653559489565,Indian Restaurant
950,48.22046092933239,16.3535873519697,18,17,4fd8f7c6e4b04a083ce868de,Lili Box Noodles,48.22191946715673,16.35328689463664,Chinese Restaurant
951,48.2159390706676,16.3535873519697,20,0,4be6832ed4f7c9b622d82620,Stiegl Ambulanz,48.216215322844576,16.352543159028507,Beer Garden
952,48.2159390706676,16.3535873519697,20,1,4b7bd199f964a520506f2fe3,Bierheuriger Gangl,48.21514824792203,16.353534015319145,Beer Garden
953,48.2159390706676,16.3535873519697,20,2,5463a819498eb8917d112ca3,Bitzinger Wiener Kulinarium,48.2145417408633,16.35401699844961,Austrian Restaurant
954,48.2159390706676,16.3535873519697,20,3,4be801c7a117b713cb5b81c8,ie ga,48.21532050919806,16.350963557182087,Korean Restaurant
955,48.2159390706676,16.3535873519697,20,4,4f1544e9e4b0d85e55ed121b,Kassem Imbiss,48.21502359233715,16.352934524536526,Moroccan Restaurant
956,48.2159390706676,16.3535873519697,20,5,5c86495fb6eedb002ceabe36,Pasta2go,48.214848,16.356482,Italian Restaurant
957,48.2159390706676,16.3535873519697,20,6,4f356e98e4b05179958111d6,Panda Imbiss,48.21454,16.351246,Chinese Restaurant
958,48.2159390706676,16.3535873519697,20,7,59cfa915c0af57169949b8e9,Würstelstand bei der Nationalbank,48.21511531887735,16.351604461669922,BBQ Joint
959,48.2159390706676,16.3535873519697,20,8,583c1e4dd6fe900bdcc2182e,Fanaberia,48.215662,16.356538,Polish Restaurant
960,48.2159390706676,16.3535873519697,20,9,5dc19eb66e1a19000738bfee,Nam’s,48.215717,16.350959,Vietnamese Restaurant
961,48.2159390706676,16.3535873519697,20,10,4fad547be4b09f53756f0e05,iega,48.21533345527871,16.351933371576134,Korean Restaurant
962,48.2159390706676,16.3535873519697,20,11,54837ef4498eb82fd6281909,Josefinenalm,48.215708,16.35319,Austrian Restaurant
963,48.2159390706676,16.3535873519697,20,12,5874bc657d0f6d3b2ace0969,Rice Time,48.21586,16.35691,Vietnamese Restaurant
964,48.2159390706676,16.3535873519697,20,13,4d6bfd5371d3721e8a9c9806,Asia World,48.21533085405613,16.3510353745996,Asian Restaurant
965,48.2159390706676,16.3535873519697,20,14,51000c5be4b0989a4c4d127c,Noodles & Rice,48.21510687860668,16.350554373539612,Fast Food Restaurant
966,48.2159390706676,16.3535873519697,20,15,52cad67d498ed9fda0a227b4,Village Restaurant,48.21600974151286,16.356878013467366,Middle Eastern Restaurant
967,48.2159390706676,16.3535873519697,20,16,5769316b498e970368a81adc,t. john's,48.215962,16.356767,New American Restaurant
968,48.2159390706676,16.3535873519697,20,17,5db0b18f34687a0007fbf370,Onkel Franz - Dein Wohnzimmer,48.214865,16.355537,Austrian Restaurant
969,48.2159390706676,16.3535873519697,20,18,52a9b1ff11d28270f3960e55,Express Fast Food,48.21459630428954,16.35101224523965,Noodle House
970,48.2159390706676,16.3535873519697,20,19,5dcedf6fe466fd0008b28589,Helloworld,48.215324,16.350835,Chinese Restaurant
971,48.22046092933239,16.36032843750398,15,0,4b0a9342f964a5203e2523e3,Rembetiko,48.222555627809,16.3612860819094,Greek Restaurant
972,48.22046092933239,16.36032843750398,15,1,4cb2f974b4b0a35da5295dce,I Vecchi Amici,48.219343787083936,16.36122080260588,Italian Restaurant
973,48.22046092933239,16.36032843750398,15,2,5f44f53adc700346ef601c15,Allegro,48.220111,16.361313,Italian Restaurant
974,48.22046092933239,16.36032843750398,15,3,4cae10818c48a093447f712c,D'Landsknecht,48.21965970048088,16.361862197288023,Austrian Restaurant
975,48.22046092933239,16.36032843750398,15,4,4b058897f964a52047cf22e3,Ruben's Brasserie,48.222126,16.360080242156982,French Restaurant
976,48.22046092933239,16.36032843750398,15,5,5b6322940d8a0f003ab5e4be,Pad Thai - i love you,48.21977,16.360582,Thai Restaurant
977,48.22046092933239,16.36032843750398,15,6,531073bc498ee3585d94fbab,Oishi,48.21893785884572,16.361158775607485,Asian Restaurant
978,48.22046092933239,16.36032843750398,15,7,5e1b526f70fc8200077948b6,Usus,48.219968,16.361823,Tapas Restaurant
979,48.22046092933239,16.36032843750398,15,8,5263defb11d2742303d7892a,hollywood,48.220739,16.363595,American Restaurant
980,48.22046092933239,16.36032843750398,15,9,4b914cdbf964a52025b133e3,Goldener Drachen,48.22153036016638,16.360626894822623,Asian Restaurant
981,48.22046092933239,16.36032843750398,15,10,4d03b5f70e49721e8c956c7f,Pizzeria Mar,48.2201639546429,16.363024021287412,Italian Restaurant
982,48.22046092933239,16.36032843750398,15,11,4b865e02f964a520918731e3,WOK & Sushi,48.21899758283157,16.36108867240094,Asian Restaurant
983,48.22046092933239,16.36032843750398,15,12,4b92ad61f964a520751034e3,Kantine Thai,48.220078012319355,16.361531252883836,Thai Restaurant
984,48.22046092933239,16.36032843750398,15,13,4d7273378e12b1f714643b05,Pizza Pronto,48.220544,16.360193,Italian Restaurant
985,48.22046092933239,16.36032843750398,15,14,530f02e1498ec25a9fbdde07,Harmonie Vienna Breakfast,48.2200259788822,16.360059837713298,Austrian Restaurant
986,48.2159390706676,16.36032843750398,18,0,50f2fd8ee4b08ef91bd6c0ed,Café Français,48.21579205855256,16.3608329599434,Café
987,48.2159390706676,16.36032843750398,18,1,59e3239b419a9e7fcc8502c5,Florentin 1090,48.217745,16.360751,Israeli Restaurant
988,48.2159390706676,16.36032843750398,18,2,5290fbf0498e2f2a53a24fec,Küche 18,48.21741482719675,16.359018547563483,Chinese Restaurant
989,48.2159390706676,16.36032843750398,18,3,4bed38b7bac3c9b671effde9,Der Wiener Deewan,48.21701,16.362735,Pakistani Restaurant
990,48.2159390706676,16.36032843750398,18,4,4b55be73f964a5200cee27e3,FRESCO Grill,48.21693460025898,16.36272733973076,Burrito Place
991,48.2159390706676,16.36032843750398,18,5,4b5f3ef1f964a520b3af29e3,Hitomi Sushi,48.21778376550309,16.36195211490357,Japanese Restaurant
992,48.2159390706676,16.36032843750398,18,6,4c93443f332c3704be078f64,Hayaci Sushi Bar,48.21698709095325,16.359479252317506,Japanese Restaurant
993,48.2159390706676,16.36032843750398,18,7,5c34aa6edff81500386fe774,Daily Deli HOME,48.21769640294638,16.35898321866989,American Restaurant
994,48.2159390706676,16.36032843750398,18,8,543eae41498e8eacbbaae3ff,Betonküche,48.21751125322542,16.360327643056998,Austrian Restaurant
995,48.2159390706676,16.36032843750398,18,9,5694e507498e12faea9902da,Berk Kebap,48.217863,16.36189,Doner Restaurant
996,48.2159390706676,16.36032843750398,18,10,58e4c95c89151d53e925f6eb,Ostarrichi Stuben,48.217035,16.358618,Austrian Restaurant
997,48.2159390706676,16.36032843750398,18,11,5ab615279ef8ef02d95dbf3b,Würstelstand Vor Der Pathobiochemie,48.215694,16.360954,BBQ Joint
998,48.2159390706676,16.36032843750398,18,12,4ede2b9d6da1642c611af29e,Lucky Noodles,48.21401100278633,16.361952314242785,Noodle House
999,48.2159390706676,16.36032843750398,18,13,4cf3fbf26195721e55d44fc1,Pizzeria Valentino,48.21756373876739,16.36027037332002,Italian Restaurant
1000,48.2159390706676,16.36032843750398,18,14,597b0e3abd4009797a6b3b6c,Noodle King,48.2173,16.359762,Chinese Restaurant
1001,48.2159390706676,16.36032843750398,18,15,4c448ae7f799e21e4df6ada2,Sushi Daihachi,48.21500486101638,16.362993469603587,Sushi Restaurant
1002,48.2159390706676,16.36032843750398,18,16,5628c550498edeba708f6e77,Kota Radja,48.214053,16.36186,Noodle House
1003,48.2159390706676,16.36032843750398,18,17,501d99fde4b08250804f1c8d,Kebab Pizza Nudel Schottentor,48.21462209702395,16.361819185734593,Doner Restaurant
1004,48.218199999999996,16.371694736842105,14,0,4cf52cd71c158cfa95dbe7b5,Gasthaus zum Friedensrichter,48.218199659131635,16.372766945557863,Austrian Restaurant
1005,48.218199999999996,16.371694736842105,14,1,56784b3f498ecc0a7ebea23e,Kaiserzeit - Wiener Würstelstand,48.21907032204595,16.370962883939356,BBQ Joint
1006,48.218199999999996,16.371694736842105,14,2,4f180069e4b07e1b48bd9136,Japan Wok,48.2165960008892,16.370770630880834,Asian Restaurant
1007,48.218199999999996,16.371694736842105,14,3,51f18dbb498ef3b5a38fa321,Mc Döner's,48.219673603116405,16.37159419169979,Turkish Restaurant
1008,48.218199999999996,16.371694736842105,14,4,4bc6f9f314d79521257e66e9,Kebap Box,48.219601300682534,16.370552244857183,Mediterranean Restaurant
1009,48.218199999999996,16.371694736842105,14,5,5381f135498e043092e5ec08,Hermes,48.2172603230938,16.36904578075413,Austrian Restaurant
1010,48.218199999999996,16.371694736842105,14,6,4cdd30ca3f6a8cfacd3bf6ea,Flugfisch Sushi-Sashimi,48.219854923252356,16.371714995612244,Asian Restaurant
1011,48.218199999999996,16.371694736842105,14,7,58c992a75804ea7c26d741a5,Kokos,48.21991,16.37215,Korean Restaurant
1012,48.218199999999996,16.371694736842105,14,8,4db216f643a1ea612fc6c572,Nudeln Wok Sushi,48.2167095226993,16.371458172798157,Asian Restaurant
1013,48.218199999999996,16.371694736842105,14,9,5a57a920780eee67f7e65475,La Vitrina,48.21871,16.373337,Latin American Restaurant
1014,48.218199999999996,16.371694736842105,14,10,513b7d32e4b03409cbea2ce3,Arbaillo,48.22002436805526,16.37171395020167,Indian Restaurant
1015,48.218199999999996,16.371694736842105,14,11,4be158a7a7380f4730bd19b0,Konfuzius,48.21892645275548,16.37360143455143,Asian Restaurant
1016,48.218199999999996,16.371694736842105,14,12,57c01f89498ed372494abdd0,Ye Senxing Nudelhaus,48.216553,16.37147,Asian Restaurant
1017,48.218199999999996,16.371694736842105,14,13,52db1632498e06500967a84a,zweiter stock links,48.218011,16.374736,French Restaurant
1018,48.22046092933239,16.368324194074965,11,0,4cdc22634006a14357c8dcb2,Zum Roten Bären,48.21945,16.36677,Austrian Restaurant
1019,48.22046092933239,16.368324194074965,11,1,56784b3f498ecc0a7ebea23e,Kaiserzeit - Wiener Würstelstand,48.21907032204595,16.370962883939356,BBQ Joint
1020,48.22046092933239,16.368324194074965,11,2,5b044c7118d43b002c2ecf32,Le Pastis,48.221354,16.367625,French Restaurant
1021,48.22046092933239,16.368324194074965,11,3,4e17471352b123a586cb3155,Pancho & mas!,48.220967782642894,16.367781628223756,Mexican Restaurant
1022,48.22046092933239,16.368324194074965,11,4,4bc6f9f314d79521257e66e9,Kebap Box,48.219601300682534,16.370552244857183,Mediterranean Restaurant
1023,48.22046092933239,16.368324194074965,11,5,4d0fc1c7d21db60ce0f92518,K's Movie And Food Stop Extended Living Room,48.22160743947354,16.37092840729573,Eastern European Restaurant
1024,48.22046092933239,16.368324194074965,11,6,578111c7498e65d29087b42a,Vienna's First caribbean Restaurant,48.220576,16.367788,Caribbean Restaurant
1025,48.22046092933239,16.368324194074965,11,7,51c73d8f498edcb7f7bb44df,Indus Summerstage,48.221148,16.367595,Indian Restaurant
1026,48.22046092933239,16.368324194074965,11,8,5596c3b5498e92f38122580b,Johann,48.221111,16.367696,Austrian Restaurant
1027,48.22046092933239,16.368324194074965,11,9,4c3c942a933b0f47b33de421,Oasia Restaurant,48.221183,16.36744,Asian Restaurant
1028,48.22046092933239,16.368324194074965,11,10,4ddd4092b0fba481fc94811f,Pizzeria Riva,48.2207686993139,16.367793594936334,Italian Restaurant
1029,48.2159390706676,16.368324194074965,18,0,56655a3c498e9cc5263993e5,Qero,48.21391,16.36731,Peruvian Restaurant
1030,48.2159390706676,16.368324194074965,18,1,4b992392f964a5200e6435e3,ottimo,48.215316338052666,16.370553021728565,Italian Restaurant
1031,48.2159390706676,16.368324194074965,18,2,4b28b753f964a520ce9424e3,Aera,48.215113371299324,16.37059525832576,Italian Restaurant
1032,48.2159390706676,16.368324194074965,18,3,4bfe33d54cf820a1f18bedf4,Hansen Restaurant Börse,48.21465239926231,16.366132675469853,Austrian Restaurant
1033,48.2159390706676,16.368324194074965,18,4,5ca4a4380457b7002c54a7c4,Arikei,48.214937,16.370185,Korean Restaurant
1034,48.2159390706676,16.368324194074965,18,5,4b0e80ecf964a5201b5823e3,Pasta e Basta,48.21536335829642,16.37080545525433,Italian Restaurant
1035,48.2159390706676,16.368324194074965,18,6,4f180069e4b07e1b48bd9136,Japan Wok,48.2165960008892,16.370770630880834,Asian Restaurant
1036,48.2159390706676,16.368324194074965,18,7,50dfdecbe4b0929c222610f0,LOLA,48.21543589084113,16.370336916025966,Spanish Restaurant
1037,48.2159390706676,16.368324194074965,18,8,5381f135498e043092e5ec08,Hermes,48.2172603230938,16.36904578075413,Austrian Restaurant
1038,48.2159390706676,16.368324194074965,18,9,536616f0498e55d478599247,Good Food,48.217395758440574,16.36816125582065,Pizza Place
1039,48.2159390706676,16.368324194074965,18,10,4c49cbb09e3e2d7fa8344349,EN - Restaurant für japanische Spezialitäten,48.21514448706155,16.37042423144098,Sushi Restaurant
1040,48.2159390706676,16.368324194074965,18,11,5adb26ef8173cb433fd6a508,Wiener Würstel Am Börseplatz,48.214546,16.366524,BBQ Joint
1041,48.2159390706676,16.368324194074965,18,12,4c5164049426c928feb7ab73,Alimentari Paninoteca Bologna,48.215610197403066,16.366889449013065,Italian Restaurant
1042,48.2159390706676,16.368324194074965,18,13,5434489c498ef1e030f9b1ba,LE'O Restaurant & Bar,48.215602,16.368366,Modern European Restaurant
1043,48.2159390706676,16.368324194074965,18,14,4db216f643a1ea612fc6c572,Nudeln Wok Sushi,48.2167095226993,16.371458172798157,Asian Restaurant
1044,48.2159390706676,16.368324194074965,18,15,57c01f89498ed372494abdd0,Ye Senxing Nudelhaus,48.216553,16.37147,Asian Restaurant
1045,48.2159390706676,16.368324194074965,18,16,51d2b9a7498e0ab4615e71e1,Kuche Restaurant,48.21632072762529,16.36817213483619,German Restaurant
1046,48.2159390706676,16.368324194074965,18,17,51d7c84b498ea2cce91c01d1,Die Küche,48.216338831423975,16.368364642630198,Austrian Restaurant
1047,48.22046092933239,16.375065279609245,7,0,4b065ccaf964a5202aeb22e3,Schöne Perle,48.21877736846536,16.377105733117304,Austrian Restaurant
1048,48.22046092933239,16.375065279609245,7,1,5390501d498e4b405074f3fd,Okra - Izakaya,48.21989704693294,16.37661426668072,Sushi Restaurant
1049,48.22046092933239,16.375065279609245,7,2,5aa3b18c4aa3f802de742585,Ignaz Jahn,48.221272,16.376954,Austrian Restaurant
1050,48.22046092933239,16.375065279609245,7,3,58c992a75804ea7c26d741a5,Kokos,48.21991,16.37215,Korean Restaurant
1051,48.22046092933239,16.375065279609245,7,4,5a57a920780eee67f7e65475,La Vitrina,48.21871,16.373337,Latin American Restaurant
1052,48.22046092933239,16.375065279609245,7,5,4c14d64ca1010f478dfc4c18,Arcadia am Augarten,48.2213110595266,16.377097112094148,Italian Restaurant
1053,48.22046092933239,16.375065279609245,7,6,4be158a7a7380f4730bd19b0,Konfuzius,48.21892645275548,16.37360143455143,Asian Restaurant
1054,48.2159390706676,16.375065279609245,23,0,4d3d829b557d6dcbb2264544,Kamala Thai Imbiss,48.215571874512754,16.376724842779318,Thai Restaurant
1055,48.2159390706676,16.375065279609245,23,1,4bd07bfe77b29c74c3ce8a82,tewa Karmelitermarkt,48.21714377651445,16.377010091149575,Middle Eastern Restaurant
1056,48.2159390706676,16.375065279609245,23,2,50afc0d4e4b03ce4911c021a,by Chi,48.2164967465642,16.377424298820763,Vietnamese Restaurant
1057,48.2159390706676,16.375065279609245,23,3,5267fed111d208ea175b203c,Al Mercato,48.21713018333909,16.376747495889227,Italian Restaurant
1058,48.2159390706676,16.375065279609245,23,4,554c959e498e4550eddcebdd,Figar macht Urlaub,48.21548624622243,16.374523661541776,Modern European Restaurant
1059,48.2159390706676,16.375065279609245,23,5,4edd197b6da1642c5fea4fc7,Cide Pizzazustellservice,48.21627852640168,16.376635044130968,Italian Restaurant
1060,48.2159390706676,16.375065279609245,23,6,527214f711d26079f69ad5ff,Zeytin,48.217092,16.376889,Turkish Restaurant
1061,48.2159390706676,16.375065279609245,23,7,4e00b6091838cb6a1acb7ce9,Gülfırat Türkische Spezialitäten,48.21753958882849,16.377050155785938,Middle Eastern Restaurant
1062,48.2159390706676,16.375065279609245,23,8,57f3922b498eb98d1c1d121d,RisottoBox,48.2156629299563,16.376945972442627,Italian Restaurant
1063,48.2159390706676,16.375065279609245,23,9,56be1c8c498e098e12e8a6d1,Mezze,48.215352,16.376875,Middle Eastern Restaurant
1064,48.2159390706676,16.375065279609245,23,10,55a646bf498e0331a9a0cfd7,Los Mexikas  II,48.21613276846938,16.377312052666767,Mexican Restaurant
1065,48.2159390706676,16.375065279609245,23,11,4c39a5fd2c8020a1cd028d00,Taverne Skyros,48.21455240249634,16.374328136444092,Greek Restaurant
1066,48.2159390706676,16.375065279609245,23,12,4e0236c0fa764068a36f0745,India Gate,48.215701479147775,16.372273698003273,Indian Restaurant
1067,48.2159390706676,16.375065279609245,23,13,4f6ce52ce4b032eb628bec00,L'Abidi,48.216617,16.377461,Mediterranean Restaurant
1068,48.2159390706676,16.375065279609245,23,14,5d29b16cc56f48002333de2b,Bistro-Brasserie CouCou,48.21547,16.376772,Brasserie
1069,48.2159390706676,16.375065279609245,23,15,4b2233a5f964a5205a4424e3,Asia House,48.217121,16.37752,Asian Restaurant
1070,48.2159390706676,16.375065279609245,23,16,4b45d407f964a520df1026e3,MyKai,48.21509017688565,16.373181362267676,Asian Restaurant
1071,48.2159390706676,16.375065279609245,23,17,4c5017d12a73c928982ae8d1,Le Wei,48.214962,16.372059,Asian Restaurant
1072,48.2159390706676,16.375065279609245,23,18,51c7e369498ed8aaf22ad9cf,Pinocchio,48.217266360138694,16.377552995564518,Deli / Bodega
1073,48.2159390706676,16.375065279609245,23,19,535523ec498e75e2eca651fe,Takori,48.214812,16.374019,Asian Restaurant
1074,48.2159390706676,16.375065279609245,23,20,5c3dd59bbd4009002c6bf553,Donasia,48.215058,16.375542,Asian Restaurant
1075,48.2159390706676,16.375065279609245,23,21,5e638db06121ca000825efe2,Tre Viet,48.217104,16.377442,Vietnamese Restaurant
1076,48.2159390706676,16.375065279609245,23,22,52db1632498e06500967a84a,zweiter stock links,48.218011,16.374736,French Restaurant
1077,48.218199999999996,16.386431578947366,10,0,5756ae07cd106221118a0a70,Coconut Curry,48.216729215499235,16.38823371723444,Asian Restaurant
1078,48.218199999999996,16.386431578947366,10,1,5e3b0af4940a060008e51f47,Taeko Ramen Bar,48.217031,16.388348,Ramen Restaurant
1079,48.218199999999996,16.386431578947366,10,2,50dc3b19e4b042f44c54950d,KOKO,48.216956297819145,16.388774256406904,Italian Restaurant
1080,48.218199999999996,16.386431578947366,10,3,541dacf9498e3fbc99a1dfd3,Amazing Grace,48.21844482421875,16.386953353881836,African Restaurant
1081,48.218199999999996,16.386431578947366,10,4,4cf1075488de3704ee9c6f2b,Zum Inder,48.217116713275516,16.38885873793187,Indian Restaurant
1082,48.218199999999996,16.386431578947366,10,5,4de3b4d1b0fb267148a2ef30,Pizzeria Il Castello,48.21861721914728,16.389442797829513,Italian Restaurant
1083,48.218199999999996,16.386431578947366,10,6,5ef0f84a376fb400075116d8,Ova,48.219067,16.387981,Turkish Restaurant
1084,48.218199999999996,16.386431578947366,10,7,4c0d47e9c700c9b6bd2ba2dd,Fiorino,48.21626911066632,16.387135428554778,Italian Restaurant
1085,48.218199999999996,16.386431578947366,10,8,5c75865a1f8ed6003990c89b,domo,48.217005,16.388377,Asian Restaurant
1086,48.218199999999996,16.386431578947366,10,9,5abcfbd0ad910e5e602d88bd,L'orient,48.217125,16.384005,Moroccan Restaurant
1087,48.22046092933239,16.383061036180226,13,0,4b0af2faf964a520902a23e3,Pancho,48.21890941979647,16.381295656316198,Mexican Restaurant
1088,48.22046092933239,16.383061036180226,13,1,4d850a8ae83fa14366a471a1,Briuni,48.21881122228101,16.382288932800293,Mediterranean Restaurant
1089,48.22046092933239,16.383061036180226,13,2,5c928878da2e00002c3151ae,Liwei’s Kitchen,48.218865,16.381005,Chinese Restaurant
1090,48.22046092933239,16.383061036180226,13,3,5a352d640881587f92fdd54c,TAYA Washoku Deli,48.222571,16.382324,Japanese Restaurant
1091,48.22046092933239,16.383061036180226,13,4,52b02ed1498e2296de9cd484,Elephant,48.219295524229715,16.382854074713897,Chinese Restaurant
1092,48.22046092933239,16.383061036180226,13,5,4dda2c8752b1a5c6448d237c,Simcha,48.221384497391526,16.381478507564157,Eastern European Restaurant
1093,48.22046092933239,16.383061036180226,13,6,5182adce498e9a91fb80bd50,simchas,48.22041245929042,16.381473541259766,Russian Restaurant
1094,48.22046092933239,16.383061036180226,13,7,58efa6f2780eee5476164040,Kafee von Sinnen,48.221751,16.384908,Beer Bar
1095,48.22046092933239,16.383061036180226,13,8,502a5880e4b0e1a0d3723332,Apple Imbiss,48.22229303078642,16.382290701257052,Sushi Restaurant
1096,48.22046092933239,16.383061036180226,13,9,4f213858e4b0628b542491d1,Tadim Kebap,48.220974695543475,16.381841463658525,Mediterranean Restaurant
1097,48.22046092933239,16.383061036180226,13,10,55f828cd498e9282a152d176,Wafflewerkstatt,48.221564,16.382094,Belgian Restaurant
1098,48.22046092933239,16.383061036180226,13,11,532ddf9a498eaffe9bbb5826,kod Dade na pivo,48.222414,16.382243,Mongolian Restaurant
1099,48.22046092933239,16.383061036180226,13,12,4ffc3608e4b033998601f2fc,Wok Haus,48.2196044921875,16.38118553161621,Asian Restaurant
1100,48.2159390706676,16.383061036180226,25,0,4b0a6ee1f964a520062423e3,Vapiano,48.21389629138035,16.383378231839743,Italian Restaurant
1101,48.2159390706676,16.383061036180226,25,1,4beaabfb62c0c928f814e1d4,Kosu,48.21489915142699,16.384730198328022,Asian Restaurant
1102,48.2159390706676,16.383061036180226,25,2,4b41eccef964a52043ca25e3,Hitomi,48.21457845137669,16.384106291749017,Sushi Restaurant
1103,48.2159390706676,16.383061036180226,25,3,5f020f6e19b00d546620ce42,Shin,48.21397,16.38346,Asian Restaurant
1104,48.2159390706676,16.383061036180226,25,4,4cb6d3563ac93704d580d60a,Seoul,48.21420325284853,16.383617508506926,Korean Restaurant
1105,48.2159390706676,16.383061036180226,25,5,4b065c63f964a52023eb22e3,Gasthaus Nestroy,48.215070460414,16.38416573701454,Austrian Restaurant
1106,48.2159390706676,16.383061036180226,25,6,4e71ee1d8877dff6bd0156a4,Novellino,48.21557227482534,16.383683456762387,Italian Restaurant
1107,48.2159390706676,16.383061036180226,25,7,5de009f0dec0240008db0760,Zott'o Restaurant,48.216068558618915,16.38269695042254,Austrian Restaurant
1108,48.2159390706676,16.383061036180226,25,8,5dc05c5ddb6fca0008d425bf,Eatalico,48.214767,16.38397,Italian Restaurant
1109,48.2159390706676,16.383061036180226,25,9,4bdb0b6f3904a593f672489e,Cadiz - Tapas Bar,48.216097354888916,16.379794478416443,Spanish Restaurant
1110,48.2159390706676,16.383061036180226,25,10,5e53d186c202a900075c4cec,Mea Shearim Kosher Restaurant,48.21581234235046,16.38132870197296,Kosher Restaurant
1111,48.2159390706676,16.383061036180226,25,11,54148cae498ea3d31a35acce,esra,48.2146070943527,16.38428892496971,Middle Eastern Restaurant
1112,48.2159390706676,16.383061036180226,25,12,549417de498e44406aa5a8a2,Li's Wok To Go,48.21756421297696,16.380831722031605,Asian Restaurant
1113,48.2159390706676,16.383061036180226,25,13,4c3369e5a0ced13a8c94166e,Asiana - Korean Shop,48.2152197726561,16.385314996356495,Grocery Store
1114,48.2159390706676,16.383061036180226,25,14,52f4dd21498e9e4d0af81f63,Bollyfood,48.21459872679998,16.384994852894554,Indian Restaurant
1115,48.2159390706676,16.383061036180226,25,15,50d081f5e4b08cc4936fb6b8,Noodle House,48.21446577692586,16.384020920749403,Asian Restaurant
1116,48.2159390706676,16.383061036180226,25,16,574d5d14498e721202d00aec,Riki's,48.214455,16.383879,Austrian Restaurant
1117,48.2159390706676,16.383061036180226,25,17,5efa0fa54765500007bbfc2f,Ferhat Döner,48.216501,16.381091,Turkish Restaurant
1118,48.2159390706676,16.383061036180226,25,18,5bdad177724750002cb888e8,Mea Shearim Kosher Restaurant,48.21606,16.38138,Kosher Restaurant
1119,48.2159390706676,16.383061036180226,25,19,500ea63ae4b0d914eefdda09,Noodle Bar,48.214347935252476,16.383741423076636,Asian Restaurant
1120,48.2159390706676,16.383061036180226,25,20,4c3eeecf0e0d0f47c42a167f,Osteria Stradina,48.215201137760594,16.385372067064196,Trattoria/Osteria
1121,48.2159390706676,16.383061036180226,25,21,4bd97f3be914a5932ba956fa,Soosser Weinhaus,48.216327,16.3801,Wine Bar
1122,48.2159390706676,16.383061036180226,25,22,5abcfbd0ad910e5e602d88bd,L'orient,48.217125,16.384005,Moroccan Restaurant
1123,48.2159390706676,16.383061036180226,25,23,4c5af5eed3aee21ea2fd6b55,Kebap König,48.21634962145415,16.380715836861363,Doner Restaurant
1124,48.2159390706676,16.383061036180226,25,24,4ce273da78ddf04d45b7b098,Bahur Tov,48.21653,16.38053,Kosher Restaurant
1125,48.22046092933239,16.389802121714506,5,0,4dc91aa1ae60385d1113fe30,Chinarestaurant Palais,48.22088314484531,16.39024793604252,Chinese Restaurant
1126,48.22046092933239,16.389802121714506,5,1,4de3b4d1b0fb267148a2ef30,Pizzeria Il Castello,48.21861721914728,16.389442797829513,Italian Restaurant
1127,48.22046092933239,16.389802121714506,5,2,5ef0f84a376fb400075116d8,Ova,48.219067,16.387981,Turkish Restaurant
1128,48.22046092933239,16.389802121714506,5,3,4be5fe348a8cb7133370c4a0,Türkis,48.21916788971388,16.391086243158313,Turkish Restaurant
1129,48.22046092933239,16.389802121714506,5,4,4d2ccbf179bc721e0fbce5ee,Fischrestaurant KAJ,48.22099252018087,16.38813845886876,Mediterranean Restaurant
1130,48.2159390706676,16.389802121714506,11,0,5756ae07cd106221118a0a70,Coconut Curry,48.216729215499235,16.38823371723444,Asian Restaurant
1131,48.2159390706676,16.389802121714506,11,1,5e3b0af4940a060008e51f47,Taeko Ramen Bar,48.217031,16.388348,Ramen Restaurant
1132,48.2159390706676,16.389802121714506,11,2,4e8463d3d5fb77e2a81f7f7f,Pizza Mann,48.21470191630701,16.391354964638214,Pizza Place
1133,48.2159390706676,16.389802121714506,11,3,4edad461be7be283384e1adc,Mat's Würstelstand,48.217177562037186,16.39094941381825,Austrian Restaurant
1134,48.2159390706676,16.389802121714506,11,4,50dc3b19e4b042f44c54950d,KOKO,48.216956297819145,16.388774256406904,Italian Restaurant
1135,48.2159390706676,16.389802121714506,11,5,4cf1075488de3704ee9c6f2b,Zum Inder,48.217116713275516,16.38885873793187,Indian Restaurant
1136,48.2159390706676,16.389802121714506,11,6,530664eb11d25c45b2c08ee2,Hansey,48.218061,16.390496,Austrian Restaurant
1137,48.2159390706676,16.389802121714506,11,7,4cceb6afba0a54815e594a59,Green Tepanyaki,48.21714287564598,16.392102549862134,Asian Restaurant
1138,48.2159390706676,16.389802121714506,11,8,4c0d47e9c700c9b6bd2ba2dd,Fiorino,48.21626911066632,16.387135428554778,Italian Restaurant
1139,48.2159390706676,16.389802121714506,11,9,5c75865a1f8ed6003990c89b,domo,48.217005,16.388377,Asian Restaurant
1140,48.2159390706676,16.389802121714506,11,10,5f771f9b3cfe6e64cfb6d325,Aleppo Sweets,48.216926,16.390756,Syrian Restaurant
