,lat_centre,long_centre,num_venues,venue_iter,venue_id,venue_name,lat_venue,long_venue,category
0,48.205939070667604,16.375064621423412,5,0,56ae1ebe498e6a949d39ca58,junn,48.20548749351194,16.37517885997279,Japanese Restaurant
1,48.205939070667604,16.375064621423412,5,1,586a4abeda54ae618f8ac96a,Shoyu Ramen,48.20575305804129,16.375749070738998,Ramen Restaurant
2,48.205939070667604,16.375064621423412,5,2,4c580ecdb7a31b8d378a51da,Zu den 3 Hacken,48.206272,16.375912,Austrian Restaurant
3,48.205939070667604,16.375064621423412,5,3,4be9be23b3352d7f7e5a54d2,East To West,48.20542838041615,16.37521066329837,Chinese Restaurant
4,48.205939070667604,16.375064621423412,5,4,51bc709d498ec72abe6b4a0b,Expedit Van Feinsten,48.206785,16.374688,Italian Restaurant
5,48.2070695353338,16.373379753513415,8,0,4b22b214f964a520fd4b24e3,Gasthaus Pöschl,48.20662765655453,16.373761109422386,Austrian Restaurant
6,48.2070695353338,16.373379753513415,8,1,5b969384180b91002c56c9fd,Sura Korean,48.207054,16.37439,Korean Restaurant
7,48.2070695353338,16.373379753513415,8,2,5888a058e0adac60750cf07a,ristorantino da francesco,48.206185,16.373564,Italian Restaurant
8,48.2070695353338,16.373379753513415,8,3,4e4bcbff62e1ce23e579d54a,Hamama,48.20697792128243,16.3744487881129,Middle Eastern Restaurant
9,48.2070695353338,16.373379753513415,8,4,4e6a37937d8b143eb7004b26,Kyoto 한일식전문점,48.207069502322675,16.374323529129832,Korean Restaurant
10,48.2070695353338,16.373379753513415,8,5,5072c442e4b011218bea70d4,Mandarin,48.207202489043546,16.374069472205665,Asian Restaurant
11,48.2070695353338,16.373379753513415,8,6,509a5d40e4b02f8be1ddedb6,Osteria Restarant,48.20707954621632,16.372932916615326,Trattoria/Osteria
12,48.2070695353338,16.373379753513415,8,7,4c0146aed715c9284fd4fce3,Restaurant zum Mandarin,48.2072169,16.3741395,Chinese Restaurant
13,48.20480860600141,16.373379753513415,7,0,4cfa9f14c6cca35dc0778732,s’ Müllerbeisl,48.20421884728973,16.373968225547202,Gastropub
14,48.20480860600141,16.373379753513415,7,1,5cd94258da5ede002c067e83,Chinacy,48.204771,16.373029,Chinese Restaurant
15,48.20480860600141,16.373379753513415,7,2,4c2cfbac4e132d7ff6a59bdf,Restaurant zum Kellergwölb,48.204578594444875,16.374299972071057,Austrian Restaurant
16,48.20480860600141,16.373379753513415,7,3,4cfa3bc234c1a09381e93e0e,L'Osteria del Collio,48.2052638813383,16.37409790549184,Trattoria/Osteria
17,48.20480860600141,16.373379753513415,7,4,5203e3fa498ea4a4cc4dad48,seafood,48.20472293875458,16.373752057091984,Korean Restaurant
18,48.20480860600141,16.373379753513415,7,5,569d1f10498e5a25c54a980d,SKY,48.20465,16.372942,Austrian Restaurant
19,48.20480860600141,16.373379753513415,7,6,5616bdf5498ed90cc32f60f1,Blue kitchen,48.20461645279281,16.372897598823805,Austrian Restaurant
20,48.2070695353338,16.37674948933341,10,0,4d18d90dbb64224bd446ca65,Al Borgo,48.2066857427338,16.377436492029393,Italian Restaurant
21,48.2070695353338,16.37674948933341,10,1,4b058896f964a52026cf22e3,Da Capo,48.207842095015444,16.376276992721905,Italian Restaurant
22,48.2070695353338,16.37674948933341,10,2,55302a16498e0d57980d32e4,Porterhouse,48.20781180186655,16.37672589795811,Austrian Restaurant
23,48.2070695353338,16.37674948933341,10,3,4c587da412f0d13aca8d09ad,Pürstner,48.20697594404889,16.37652752457147,Austrian Restaurant
24,48.2070695353338,16.37674948933341,10,4,4b058895f964a52007cf22e3,Gulaschmuseum,48.20781349381503,16.376693942069313,Austrian Restaurant
25,48.2070695353338,16.37674948933341,10,5,5c79540bc03635002c806111,Ganko,48.20641,16.37702,Japanese Restaurant
26,48.2070695353338,16.37674948933341,10,6,5159d933e4b0d8c134af06ee,Santissimo,48.207802966584715,16.377264342683493,Italian Restaurant
27,48.2070695353338,16.37674948933341,10,7,59fcdde7acc5f50cfa840d8a,Bistrot Le Petit,48.20632,16.377064,French Restaurant
28,48.2070695353338,16.37674948933341,10,8,4bb1dd5bf964a5203da73ce3,Santo Spirito,48.20728160207155,16.375840069001065,Bar
29,48.2070695353338,16.37674948933341,10,9,59de7a84491be75244976e7b,Philigrano,48.206866,16.376325,Italian Restaurant
30,48.20480860600141,16.37674948933341,4,0,4b686560f964a520f4752be3,Champions Sports Bar & Restaurant,48.2046829177245,16.37762053177159,Sports Bar
31,48.20480860600141,16.37674948933341,4,1,4ef253dc0e015e413aeae77c,Sinohouse,48.20457623744855,16.375620258609526,Asian Restaurant
32,48.20480860600141,16.37674948933341,4,2,4d9034583bfef04d2ee1be86,Palais Cafe,48.204368,16.377229,Eastern European Restaurant
33,48.20480860600141,16.37674948933341,4,3,53dbebcf498e6a427f14476f,New Sichuan,48.204602,16.37562,Szechuan Restaurant
34,48.2082,16.371694736842105,16,0,4bc8a9000050b713c6dcba3b,Sparkys,48.20886374448985,16.3709326609466,American Restaurant
35,48.2082,16.371694736842105,16,1,4de9200ed4c0faa5644116da,Wienerwald Restaurant,48.20880475572399,16.37115151933018,Austrian Restaurant
36,48.2082,16.371694736842105,16,2,4bd186aba8b3a593cad2655f,Akakiko,48.20780431336044,16.372571281607915,Sushi Restaurant
37,48.2082,16.371694736842105,16,3,5363d4bd498e0de21138e4d4,Türkis,48.208736585698354,16.37155946992858,Turkish Restaurant
38,48.2082,16.371694736842105,16,4,4c790347bd346dcb02dcf3ef,Listaurant,48.2082303619416,16.370744705200195,Eastern European Restaurant
39,48.2082,16.371694736842105,16,5,58eb2f67fa7ed00ad6e9d50a,Piaristenkeller,48.207941,16.372327,German Restaurant
40,48.2082,16.371694736842105,16,6,538cb65c498e9e17bc6f2eff,lillet,48.20904517830965,16.37159007325306,French Restaurant
41,48.2082,16.371694736842105,16,7,51efaf1b498ea87f101308a6,Mandarin chinese cuisine,48.20821142082006,16.371737767100086,Chinese Restaurant
42,48.2082,16.371694736842105,16,8,50f01637e4b0e7ad43d6fa00,Danieli,48.208561,16.371782,Italian Restaurant
43,48.2082,16.371694736842105,16,9,4d552743cc65a143ff7b4a5e,Pizza Bizi,48.20854482608555,16.37166162098567,Italian Restaurant
44,48.2082,16.371694736842105,16,10,4d60f7705c39b1f7d4820a4a,"firenze ,settimo cielo",48.207933978014005,16.372231610585853,Italian Restaurant
45,48.2082,16.371694736842105,16,11,51b23d13498e74713ef59bd7,Atinori,48.208963,16.372097,Mediterranean Restaurant
46,48.2082,16.371694736842105,16,12,503f46ede4b0f8feebd74bf6,Da Angelo,48.208129141384525,16.372932571503195,Italian Restaurant
47,48.2082,16.371694736842105,16,13,4d32f10ab6093704c35afcdf,Ristorante Firenze,48.20786733646805,16.37230248748774,Italian Restaurant
48,48.2082,16.371694736842105,16,14,564cc5ba498e5205bdfe2dd8,Settimo Cielo,48.20830130315102,16.372522615411093,Italian Restaurant
49,48.2082,16.371694736842105,16,15,4b3cb624f964a520698625e3,Cantinetta Antinori,48.208949,16.371954,Italian Restaurant
50,48.209330464666195,16.37000979455145,4,0,4b112371f964a520527823e3,Fabios Restaurant Bar,48.21003504664254,16.369763234112284,Italian Restaurant
51,48.209330464666195,16.37000979455145,4,1,4bc8a9000050b713c6dcba3b,Sparkys,48.20886374448985,16.3709326609466,American Restaurant
52,48.209330464666195,16.37000979455145,4,2,4bf914feb182c9b66464785a,Yohm,48.2092622337777,16.3698581450042,Asian Restaurant
53,48.209330464666195,16.37000979455145,4,3,4c08f119cd09d13a79fcd209,Patara Fine Thai Cuisine,48.20896,16.37028,Thai Restaurant
54,48.2070695353338,16.37000979455145,10,0,4b9e3a64f964a52063d336e3,Le Bol,48.206469,16.370575,Café
55,48.2070695353338,16.37000979455145,10,1,4b058896f964a52023cf22e3,Orpheus,48.20696283557083,16.369795873761177,Greek Restaurant
56,48.2070695353338,16.37000979455145,10,2,574da9d1498ef19a1bdd6606,Blue Mustard,48.20783275247796,16.369770129214597,Modern European Restaurant
57,48.2070695353338,16.37000979455145,10,3,4ba0ca15f964a520aa7d37e3,L'asino Che Ride Ristorante Pizzeria,48.20742,16.36927,Italian Restaurant
58,48.2070695353338,16.37000979455145,10,4,4bac9b2df964a520cffd3ae3,Procacci - Vino e Cucina,48.207168631661375,16.37055751928506,Italian Restaurant
59,48.2070695353338,16.37000979455145,10,5,53c273ea498ec863e5cddb2f,Café Restaurant Allenberg,48.207915,16.369919,Italian Restaurant
60,48.2070695353338,16.37000979455145,10,6,51baf09c498e0e442e0745c4,Café Eskeles,48.207179317003096,16.369277289711317,Middle Eastern Restaurant
61,48.2070695353338,16.37000979455145,10,7,4b8c1aa9f964a5201fbe32e3,procacci,48.207372358519244,16.370487213134766,Italian Restaurant
62,48.2070695353338,16.37000979455145,10,8,4c7d351410916dcbf1af2896,Reinthaler's Beisl,48.207952175,16.369987,Austrian Restaurant
63,48.2070695353338,16.37000979455145,10,9,4e1445ccd4c023f7053d3866,Trattoria Santo Stefano,48.207892425671,16.369940286818316,Trattoria/Osteria
64,48.209330464666195,16.37337967913276,9,0,4b058896f964a5203ecf22e3,Figlmüller,48.20934265601087,16.374677592695146,Austrian Restaurant
65,48.209330464666195,16.37337967913276,9,1,4d8dd63eca75b60cd08cf0a8,Dai Fratelli,48.20984248578544,16.37351790688282,Italian Restaurant
66,48.209330464666195,16.37337967913276,9,2,4e11aff0ae602afe96bed206,acgileus,48.2085103988647,16.3732204437256,Greek Restaurant
67,48.209330464666195,16.37337967913276,9,3,4bd0947bcaff9521711ccff0,Goldenen Panda,48.20899971330434,16.37299890992766,Chinese Restaurant
68,48.209330464666195,16.37337967913276,9,4,4efb2a63f7907312553de7ab,Japanika,48.209678773304994,16.37344569091377,Asian Restaurant
69,48.209330464666195,16.37337967913276,9,5,4cae0149628cb1f739993015,Lindenkeller,48.209852952948296,16.374378376115622,German Restaurant
70,48.209330464666195,16.37337967913276,9,6,5b19227b2619ee002c2ebba3,Som Kitchen,48.209109,16.372755,Thai Restaurant
71,48.209330464666195,16.37337967913276,9,7,4cfd29bcc671721ed673cc18,Sushi Lounge,48.209881644831206,16.373572364576297,Sushi Restaurant
72,48.209330464666195,16.37337967913276,9,8,4d235adab69c6dcb339f8a95,Akakiko,48.20998610234836,16.373857921740242,Japanese Restaurant
73,48.2070695353338,16.37337967913276,8,0,4b22b214f964a520fd4b24e3,Gasthaus Pöschl,48.20662765655453,16.373761109422386,Austrian Restaurant
74,48.2070695353338,16.37337967913276,8,1,5b969384180b91002c56c9fd,Sura Korean,48.207054,16.37439,Korean Restaurant
75,48.2070695353338,16.37337967913276,8,2,5888a058e0adac60750cf07a,ristorantino da francesco,48.206185,16.373564,Italian Restaurant
76,48.2070695353338,16.37337967913276,8,3,4e4bcbff62e1ce23e579d54a,Hamama,48.20697792128243,16.3744487881129,Middle Eastern Restaurant
77,48.2070695353338,16.37337967913276,8,4,4e6a37937d8b143eb7004b26,Kyoto 한일식전문점,48.207069502322675,16.374323529129832,Korean Restaurant
78,48.2070695353338,16.37337967913276,8,5,5072c442e4b011218bea70d4,Mandarin,48.207202489043546,16.374069472205665,Asian Restaurant
79,48.2070695353338,16.37337967913276,8,6,509a5d40e4b02f8be1ddedb6,Osteria Restarant,48.20707954621632,16.372932916615326,Trattoria/Osteria
80,48.2070695353338,16.37337967913276,8,7,4c0146aed715c9284fd4fce3,Restaurant zum Mandarin,48.2072169,16.3741395,Chinese Restaurant
81,48.21046092933239,16.375064621423412,21,0,4b9178fdf964a52028bf33e3,Heindl's Palatschinkenkuchl,48.2101564,16.3760576,Austrian Restaurant
82,48.21046092933239,16.375064621423412,21,1,568fc03b498e81de1c4e1e7d,Hungry Guy,48.21108579140914,16.375128109823315,Mediterranean Restaurant
83,48.21046092933239,16.375064621423412,21,2,548ecec9498ef3749fb7a9f2,Lugeck Figlmüller,48.209682,16.375169,Austrian Restaurant
84,48.21046092933239,16.375064621423412,21,3,4c6adea4e503c9288ab546b3,Restaurant OM Cocktail Bar,48.21122255231381,16.37522087193493,Indian Restaurant
85,48.21046092933239,16.375064621423412,21,4,4e05cb5f6284d9ee92ca927d,Pizzeria Casa Romana,48.210320361323916,16.374262129889306,Italian Restaurant
86,48.21046092933239,16.375064621423412,21,5,4b92bf1df964a520dd1734e3,Zwölf Apostelkeller,48.2097936908326,16.3755902522231,Austrian Restaurant
87,48.21046092933239,16.375064621423412,21,6,52d04b26498ed48f91626106,Indisches Restaurant Nirvana,48.2106767373608,16.375466640345753,Indian Restaurant
88,48.21046092933239,16.375064621423412,21,7,516be3dae4b0a88e0605a73b,Yu Asia Restaurant,48.210521,16.375479,Asian Restaurant
89,48.21046092933239,16.375064621423412,21,8,4fa547b1e4b00c58442f8565,Tripizza,48.21126295984557,16.37542822403817,Italian Restaurant
90,48.21046092933239,16.375064621423412,21,9,4c2cc710ae6820a1e3d91943,Kiang,48.21102434281842,16.374742792233796,Asian Restaurant
91,48.21046092933239,16.375064621423412,21,10,4b058896f964a5202fcf22e3,Achilleus,48.21041907781593,16.375770917587303,Greek Restaurant
92,48.21046092933239,16.375064621423412,21,11,4e0c5a3faeb7af850d67b573,Restaurant Phönix,48.210482,16.375433,Chinese Restaurant
93,48.21046092933239,16.375064621423412,21,12,4cae0149628cb1f739993015,Lindenkeller,48.209852952948296,16.374378376115622,German Restaurant
94,48.21046092933239,16.375064621423412,21,13,4c42e124d691c9b6e3f98e0a,Kornhäuslturm,48.21118354797223,16.374392509459973,Eastern European Restaurant
95,48.21046092933239,16.375064621423412,21,14,4cdea11294c3b60c6f7966ea,Cavaliere,48.21023553059226,16.375565456836924,Italian Restaurant
96,48.21046092933239,16.375064621423412,21,15,4f73359de4b0ee7d4719d20b,asian restaurant,48.21055320863292,16.375511595929783,Asian Restaurant
97,48.21046092933239,16.375064621423412,21,16,5391e43c498e085ff39b1cde,Yujia,48.210186,16.375356,Asian Restaurant
98,48.21046092933239,16.375064621423412,21,17,4bf7d0285efe2d7f2d8a6934,Nirvana,48.21071151171225,16.375460983891948,Indian Restaurant
99,48.21046092933239,16.375064621423412,21,18,4b9a6817f964a520adb235e3,Cafè Melange,48.21004200255388,16.3744176162052,German Restaurant
100,48.21046092933239,16.375064621423412,21,19,4c7ff70ed8086dcb14835f52,l'ombra,48.210100484678954,16.374476580489524,Italian Restaurant
101,48.21046092933239,16.375064621423412,21,20,4bdab6832a3a0f47abbeabb6,Take a Kiang,48.21135199551067,16.375047493550436,Asian Restaurant
102,48.21159139399859,16.37337960474291,12,0,4bfd022c2b83b7137b9ca998,Würstelstand Hoher Markt,48.21113316179447,16.372437409432184,Bratwurst Joint
103,48.21159139399859,16.37337960474291,12,1,4bf6c065b1a7a59302a6d65b,Le Salzgries,48.21215659925768,16.37317660895131,French Restaurant
104,48.21159139399859,16.37337960474291,12,2,58177d9b38fa462c3a8ac75e,Eat Happy im Merkur,48.210784,16.373371,Sushi Restaurant
105,48.21159139399859,16.37337960474291,12,3,4bf3d23498ac0f47de3763a8,XO Noodles,48.2107418686194,16.37322797807657,Asian Restaurant
106,48.21159139399859,16.37337960474291,12,4,4d9a1dee3b86f04df1e752c6,Alef Alef,48.2116878,16.3740792,Diner
107,48.21159139399859,16.37337960474291,12,5,4cbecc4919ceb1f730611fcd,Restaurant Stolichniy,48.21087154949918,16.373760593597396,Russian Restaurant
108,48.21159139399859,16.37337960474291,12,6,4c42e124d691c9b6e3f98e0a,Kornhäuslturm,48.21118354797223,16.374392509459973,Eastern European Restaurant
109,48.21159139399859,16.37337960474291,12,7,5639f934cd10d499a03e7067,Midi - le petit déli,48.211159,16.372408,Bistro
110,48.21159139399859,16.37337960474291,12,8,4fe34597e4b0efa3a65d1b89,ra'mien go,48.211134622056335,16.37244256596112,Asian Restaurant
111,48.21159139399859,16.37337960474291,12,9,4bf019fd3a002d7fdfa985a4,Koh-i-noor,48.21233633374158,16.373432716530427,Indian Restaurant
112,48.21159139399859,16.37337960474291,12,10,4c76e4555cd6b1f72c5d3d94,Pizza Del Popolo,48.21167978823228,16.372484676091496,Italian Restaurant
113,48.21159139399859,16.37337960474291,12,11,57f7e0bb498e90a77d7dddf3,Schachtelwirt,48.2114103036467,16.373666538803935,Austrian Restaurant
114,48.209330464666195,16.37337960474291,9,0,4b058896f964a5203ecf22e3,Figlmüller,48.20934265601087,16.374677592695146,Austrian Restaurant
115,48.209330464666195,16.37337960474291,9,1,4d8dd63eca75b60cd08cf0a8,Dai Fratelli,48.20984248578544,16.37351790688282,Italian Restaurant
116,48.209330464666195,16.37337960474291,9,2,4e11aff0ae602afe96bed206,acgileus,48.2085103988647,16.3732204437256,Greek Restaurant
117,48.209330464666195,16.37337960474291,9,3,4bd0947bcaff9521711ccff0,Goldenen Panda,48.20899971330434,16.37299890992766,Chinese Restaurant
118,48.209330464666195,16.37337960474291,9,4,4efb2a63f7907312553de7ab,Japanika,48.209678773304994,16.37344569091377,Asian Restaurant
119,48.209330464666195,16.37337960474291,9,5,4cae0149628cb1f739993015,Lindenkeller,48.209852952948296,16.374378376115622,German Restaurant
120,48.209330464666195,16.37337960474291,9,6,5b19227b2619ee002c2ebba3,Som Kitchen,48.209109,16.372755,Thai Restaurant
121,48.209330464666195,16.37337960474291,9,7,4cfd29bcc671721ed673cc18,Sushi Lounge,48.209881644831206,16.373572364576297,Sushi Restaurant
122,48.209330464666195,16.37337960474291,9,8,4d235adab69c6dcb339f8a95,Akakiko,48.20998610234836,16.373857921740242,Japanese Restaurant
123,48.21159139399859,16.376749638103913,9,0,534aa8ce498ecf32f55f8d1c,Hard Rock Cafe,48.21131735081294,16.375482215979446,American Restaurant
124,48.21159139399859,16.376749638103913,9,1,4bd07c9641b9ef3bc726fae5,Happy Noodles,48.21151328428268,16.377713726187554,Noodle House
125,48.21159139399859,16.376749638103913,9,2,5cab2d38625a66002ce75485,Max & Benito,48.211395,16.375883,Burrito Place
126,48.21159139399859,16.376749638103913,9,3,59f237049de23b1d61b825c7,OSB Oriental Sandwich Bar,48.211485,16.375621,Middle Eastern Restaurant
127,48.21159139399859,16.376749638103913,9,4,5b141bfb8c812a002c56fb65,Zweiter Würstelstand Am Schwedenplatz,48.211735,16.376625,Bratwurst Joint
128,48.21159139399859,16.376749638103913,9,5,4cacc59ef47ea143554b9421,El Pulpo,48.21123448309775,16.377182645182632,Spanish Restaurant
129,48.21159139399859,16.376749638103913,9,6,4d45aecfe198721ef343c88b,Artemis,48.211361,16.37648,Greek Restaurant
130,48.21159139399859,16.376749638103913,9,7,5650fc78498ed65cd37293f2,Würstelstand beim Schwedenplatz,48.211594,16.37743,BBQ Joint
131,48.21159139399859,16.376749638103913,9,8,5cee67c81af852002cae79f6,Plachu,48.211716,16.376627,Bratwurst Joint
132,48.209330464666195,16.376749638103913,7,0,52f651bf498e274f7d6af263,Figlmüller,48.209364118352575,16.375613749881484,Austrian Restaurant
133,48.209330464666195,16.376749638103913,7,1,5a450845f870fd694cf13665,Parémi,48.20913259310059,16.3759602275945,Bakery
134,48.209330464666195,16.376749638103913,7,2,53ea5571498e26df2fc93c8d,Kussmaul,48.20937419142018,16.375689493779117,Tapas Restaurant
135,48.209330464666195,16.376749638103913,7,3,59b113a0061b514d3fd88ba5,Ivys Pho And Grill,48.208544959594924,16.37610375881195,Vietnamese Restaurant
136,48.209330464666195,16.376749638103913,7,4,572b522b498e554ddb805347,Buxbaum Restaurant,48.209955,16.376354,Austrian Restaurant
137,48.209330464666195,16.376749638103913,7,5,5929dbd8d41bb74f6e7c7f11,Osteria Mangia E Ridi,48.209682,16.375881,Italian Restaurant
138,48.209330464666195,16.376749638103913,7,6,51a10649498e348d69a7b295,Mandarin,48.208811,16.376278,Asian Restaurant
