,Unnamed: 0,lat_centre,long_centre,num_venues,venue_iter,venue_id,venue_name,lat_venue,long_venue,category
398,398,48.19593907066761,16.36832551008701,38,23,4af2b070f964a5203ee821e3,BOK,48.19556900418336,16.369041100054627,Asian Restaurant
1439,298,48.1882,16.29801052631579,18,0,4b028b5af964a520e34822e3,Mario Pasta - Grill - Bar,48.18651916738034,16.29831982786535,Italian Restaurant
2682,1541,48.2482,16.327484210526315,3,0,4b058890f964a520c1cd22e3,Eckel,48.24708075085428,16.333675439848143,Austrian Restaurant
2698,1557,48.2482,16.40116842105263,2,0,4b058890f964a520d3cd22e3,Birners Strandgasthaus,48.25035146206572,16.4038575291594,Austrian Restaurant
2117,976,48.2082,16.386431578947366,50,21,4b058891f964a52010ce22e3,Comida y Ron,48.208257658589055,16.381191951885715,Caribbean Restaurant
813,813,48.205939070667604,16.375064621423412,50,31,4b058895f964a52015cf22e3,Vier Jahreszeiten,48.203829999999996,16.375427,French Restaurant
949,949,48.22046092933239,16.3535873519697,18,16,4b058895f964a52017cf22e3,Grotta Azzurra,48.221601604072255,16.353653559489565,Indian Restaurant
367,367,48.2004609293324,16.36832551008701,41,33,4b058896f964a52019cf22e3,Yugetsu Senkoma,48.20151653362258,16.368916608890054,Sushi Restaurant
1811,670,48.1982,16.371694736842105,50,23,4b058896f964a52021cf22e3,Kebab Haus,48.198568156435385,16.366152850183855,Doner Restaurant
740,740,48.21046092933239,16.375064621423412,50,8,4b058896f964a5202acf22e3,Griechenbeisl,48.21075960088586,16.37727051973343,Austrian Restaurant
1311,170,48.1782,16.29801052631579,4,0,4b058896f964a5202dcf22e3,Gasthaus Tirolergarten,48.17972717115031,16.30384750441531,Austrian Restaurant
1822,681,48.1982,16.371694736842105,50,34,4b058896f964a5203fcf22e3,Le Ciel,48.202131869651254,16.37216958994744,French Restaurant
687,687,48.21046092933239,16.368324852260802,35,18,4b058897f964a52048cf22e3,Sapori Restaurant,48.2100428859503,16.365766982043635,Mediterranean Restaurant
2699,1558,48.2482,16.40116842105263,2,1,4b058897f964a5204ccf22e3,La Crêperie,48.25117626728383,16.398277236098348,French Restaurant
1804,663,48.1982,16.371694736842105,50,16,4b058897f964a5204dcf22e3,Unkai 雲海,48.20202912002834,16.371940598095687,Japanese Restaurant
596,596,48.21046092933239,16.360327779318148,18,1,4b058897f964a52051cf22e3,Al Fayrooz,48.212452232548216,16.361502421609913,Middle Eastern Restaurant
2763,1622,48.2582,16.40116842105263,25,19,4b058897f964a52052cf22e3,Thai Wok,48.25917767040738,16.400239452968055,Thai Restaurant
2811,1670,48.2982,16.386431578947366,2,0,4b06d6c7f964a52026f122e3,Ristorante Da Giovanni,48.294032669865295,16.388287796842462,Italian Restaurant
2755,1614,48.2582,16.40116842105263,25,11,4b07ad40f964a5206bff22e3,Tartufo,48.258879174090396,16.394865164914552,Italian Restaurant
1434,293,48.1882,16.268536842105263,7,5,4b098040f964a520561823e3,Michl's Tavernetta,48.188353504845026,16.267223475118612,Austrian Restaurant
2566,1425,48.2282,16.386431578947366,6,0,4b0a4bb2f964a5200f2323e3,Am Nordpol 3,48.226525572920224,16.38189070393628,Czech Restaurant
1100,1100,48.2159390706676,16.383061036180223,25,0,4b0a6ee1f964a520062423e3,Vapiano,48.21389629138035,16.383378231839746,Italian Restaurant
1197,56,48.1482,16.342221052631572,1,0,4b0a9013f964a520202523e3,Asia Garten,48.1449594002186,16.346068652897088,Chinese Restaurant
971,971,48.22046092933239,16.36032843750398,15,0,4b0a9342f964a5203e2523e3,Rembetiko,48.222555627809,16.3612860819094,Greek Restaurant
2538,1397,48.2282,16.371694736842105,42,14,4b0e6a9bf964a5207a5723e3,Pizzeria Palermo,48.225902700818956,16.37031885050556,Italian Restaurant
2525,1384,48.2282,16.371694736842105,42,1,4b1189b5f964a520c97e23e3,Adriano,48.23076164911796,16.374132410170034,Italian Restaurant
1956,815,48.2082,16.342221052631572,50,10,4b13ba8af964a520b79823e3,Prinz Ferdinand,48.211606,16.342435000000002,Austrian Restaurant
703,703,48.21046092933239,16.368324852260802,35,34,4b18f9c6f964a520dcd623e3,Neu Deli,48.21262992074219,16.368917727978324,Indian Restaurant
468,468,48.21046092933239,16.33885116805027,18,9,4b190875f964a52051d723e3,Denis,48.209992183368215,16.33567107040533,Middle Eastern Restaurant
1333,192,48.1782,16.327484210526315,21,16,4b191113f964a52097d723e3,Takami,48.176950782781724,16.32930256533438,Sushi Restaurant
224,224,48.2004609293324,16.35358866798175,28,10,4b19700ff964a52057dd23e3,Lobo y Luna,48.20192,16.351110000000002,Spanish Restaurant
217,217,48.2004609293324,16.35358866798175,28,3,4b2f6f16f964a52062eb24e3,Sapa,48.19999775395581,16.35074499282461,Vietnamese Restaurant
804,804,48.205939070667604,16.375064621423412,50,22,4b30b188f964a520f5fa24e3,Huth da Moritz,48.204609999999995,16.375418,Italian Restaurant
875,875,48.205939070667604,16.383061694366063,28,19,4b3a21f8f964a520706125e3,damoa,48.20619296895062,16.38423594919978,Asian Restaurant
2869,49,48.2082,16.371694736842105,16,15,4b3cb624f964a520698625e3,Cantinetta Antinori,48.208949,16.371954000000002,Italian Restaurant
1395,254,48.1782,16.371694736842105,41,32,4b3f91a3f964a52049a925e3,Kioyo Running Sushi,48.18208732121873,16.375036679020678,Asian Restaurant
947,947,48.22046092933239,16.3535873519697,18,14,4b43aac3f964a520b3e525e3,Mittagspause,48.22053,16.352393,German Restaurant
2736,1595,48.2582,16.371694736842105,7,0,4b44ead6f964a520b3ff25e3,Gasthof zum Renner,48.26003044945625,16.366297830562402,Austrian Restaurant
1070,1070,48.2159390706676,16.375065279609245,23,16,4b45d407f964a520df1026e3,MyKai,48.21509017688565,16.373181362267676,Asian Restaurant
2527,1386,48.2282,16.371694736842105,42,3,4b47a4a4f964a520ba3826e3,Hacienda Ephemer,48.22906691250754,16.371076488833815,Mexican Restaurant
1674,533,48.1982,16.327484210526315,27,13,4b486881f964a520e04c26e3,Good Morning Viet Nam!,48.1993457420743,16.332006453006358,Vietnamese Restaurant
1841,700,48.1982,16.386431578947366,30,3,4b4a0508f964a520167826e3,Gasthaus Herlitschka,48.200074327495344,16.380924560482224,Austrian Restaurant
172,172,48.19593907066761,16.34559027938667,28,14,4b4b735bf964a520299c26e3,Dots,48.19624981882803,16.34563078051985,Sushi Restaurant
538,538,48.21046092933239,16.353588010155534,24,0,4b4c686cf964a5206ab226e3,Il Sestante,48.21056516109921,16.350435659451104,Italian Restaurant
1839,698,48.1982,16.386431578947366,30,1,4b4dac5ff964a52094d526e3,LUCULLUS Catering & Restaurant,48.19888706584222,16.385103563640953,Austrian Restaurant
1612,471,48.1982,16.2538,7,1,4b4dbbfdf964a52084d626e3,L421,48.20242452398196,16.25547114581177,Asian Restaurant
944,944,48.22046092933239,16.3535873519697,18,11,4b4f1523f964a520e5f926e3,Pasta Mix,48.22230935096741,16.35342299938202,Italian Restaurant
2663,1522,48.2382,16.386431578947366,25,21,4b5310e1f964a520ea8d27e3,Kioyo Reisspezialitäten,48.24048592943418,16.385870442792875,Japanese Restaurant
372,372,48.2004609293324,16.36832551008701,41,38,4b559d47f964a52020e927e3,Indian Pavilion,48.199825450671185,16.36522713703625,Indian Restaurant
216,216,48.2004609293324,16.35358866798175,28,2,4b56f6a3f964a520e32028e3,I Carusi,48.20195790069994,16.351842964631647,Italian Restaurant
171,171,48.19593907066761,16.34559027938667,28,13,4b582e7cf964a520284d28e3,Mr. Lee,48.19740055786345,16.34703957136145,Asian Restaurant
1611,470,48.1982,16.2538,7,0,4b5b54b3f964a5201ff528e3,Yume,48.20165634182023,16.25701982080734,Japanese Restaurant
1475,334,48.1882,16.342221052631572,26,1,4b5cdcb2f964a520f54729e3,Happy Buddha,48.19117695231903,16.33716898017225,Dim Sum Restaurant
1738,597,48.1982,16.35695789473684,50,0,4b5eeed4f964a520799e29e3,NENI am Naschmarkt,48.19797591822308,16.362156209912396,Middle Eastern Restaurant
1557,416,48.1882,16.371694736842105,30,7,4b6032bcf964a5208bd929e3,Koo,48.190400328376896,16.366238251953614,Asian Restaurant
509,509,48.21046092933239,16.345590937212883,21,18,4b607d86f964a5205ae929e3,Tai-Yo Asia Cooking,48.209402943372496,16.34838581085205,Asian Restaurant
2169,1028,48.2182,16.327484210526315,28,1,4b6483f4f964a520eab92ae3,Lercherl von Hernals,48.218042797689435,16.333312649814697,Austrian Restaurant
1744,603,48.1982,16.35695789473684,50,6,4b681efef964a5200c682be3,Suk Sushi,48.198260730730496,16.362522765791798,Sushi Restaurant
271,271,48.2004609293324,16.360327121491935,29,17,4b6823d0f964a520d3682be3,Fusan,48.2023309228919,16.36185793419871,Asian Restaurant
1874,733,48.1982,16.40116842105263,25,6,4b68757ef964a520f5792be3,Restaurant Lubin,48.19874827723253,16.398097282082514,Mediterranean Restaurant
2467,1326,48.2282,16.342221052631572,31,16,4b687714f964a520437a2be3,Tokyo Running Sushi,48.22860810386816,16.34452680331933,Sushi Restaurant
1662,521,48.1982,16.327484210526315,27,1,4b69d1f1f964a5203bb62be3,Das Augustin,48.196657073225424,16.323067811424963,Austrian Restaurant
1955,814,48.2082,16.342221052631572,50,9,4b6afecdf964a5205feb2be3,Gastwirtschaft Schilling,48.20422317315096,16.341512037766822,Austrian Restaurant
2572,1431,48.2282,16.40116842105263,8,0,4b6c179ff964a5206f232ce3,Thali,48.22547453045024,16.400427828963867,Indian Restaurant
2654,1513,48.2382,16.386431578947366,25,12,4b713e85f964a520e13d2de3,Kyoto Running Sushi,48.24042094816274,16.385922058021688,Sushi Restaurant
2691,1550,48.2482,16.35695789473684,4,2,4b7315e4f964a5207f9a2de3,Restaurant NARA,48.24849569786428,16.360123486906172,Asian Restaurant
2782,1641,48.2682,16.40116842105263,8,1,4b73db09f964a520d1bd2de3,Kyoto,48.26730211016082,16.398304218446643,Asian Restaurant
356,356,48.2004609293324,16.36832551008701,41,22,4b7691d2f964a5206f522ee3,Korfu Greek Restaurant,48.199163038862885,16.367840471921383,Greek Restaurant
1228,87,48.1582,16.474852631578948,2,0,4b7697cbf964a5208c532ee3,Im schwarzen Adler,48.158326,16.477691,German Restaurant
1301,160,48.1682,16.474852631578948,3,2,4b76d728f964a52030632ee3,Al Capone,48.168442028661296,16.471400427986413,Italian Restaurant
2231,1090,48.2182,16.342221052631572,37,35,4b7996b0f964a520af032fe3,Centimeter VII,48.217320869464906,16.341548485621153,Austrian Restaurant
2500,1359,48.2282,16.35695789473684,42,18,4b7d3b69f964a520e9b32fe3,Akakiko,48.225974848526356,16.362251337989086,Japanese Restaurant
179,179,48.19593907066761,16.34559027938667,28,21,4b7e7d0bf964a5203aef2fe3,Shalimar,48.19511643173234,16.34646686186783,Indian Restaurant
363,363,48.2004609293324,16.36832551008701,41,29,4b7e8ad3f964a520e7f12fe3,Red Apple Restaurant,48.199284999999996,16.366876,Asian Restaurant
2472,1331,48.2282,16.342221052631572,31,21,4b81a26cf964a52040b430e3,Bruce,48.2258448544829,16.340017318725586,German Restaurant
920,920,48.205939070667604,16.389801463528677,20,18,4b826d15f964a52078d230e3,La Culina,48.20548739999999,16.38788,Italian Restaurant
698,698,48.21046092933239,16.368324852260802,35,29,4b828069f964a52091d530e3,Il Tempo,48.209204329263535,16.367508351561113,Italian Restaurant
727,727,48.205939070667604,16.368324852260802,28,23,4b8aea2cf964a520dc8832e3,Augustinerkeller,48.204728,16.3683302,Austrian Restaurant
2147,1006,48.2082,16.40116842105263,4,1,4b8eb62cf964a520813233e3,Estancia Santa Cruz,48.212005554573366,16.402617672779982,Mexican Restaurant
2737,1596,48.2582,16.371694736842105,7,1,4b8ec05df964a520ec3433e3,Plachutta,48.25780945073229,16.366978516848164,Austrian Restaurant
983,983,48.22046092933239,16.36032843750398,15,12,4b92ad61f964a520751034e3,Kantine Thai,48.220078012319355,16.361531252883836,Thai Restaurant
2919,99,48.21046092933239,16.375064621423412,21,18,4b9a6817f964a520adb235e3,Cafè Melange,48.210042002553884,16.3744176162052,German Restaurant
1487,346,48.1882,16.342221052631572,26,13,4ba619caf964a520913339e3,L'idea al Teatro,48.19121107230972,16.33922744469807,Italian Restaurant
1581,440,48.1882,16.386431578947366,10,1,4ba8a28df964a520b1e339e3,Zur kleinen Steiermark,48.186254570484465,16.386014255843573,Austrian Restaurant
1880,739,48.1982,16.40116842105263,25,12,4ba8fd32f964a52004013ae3,Cafe Restaurant Alt erdberg,48.19603,16.4037185125,Austrian Restaurant
692,692,48.21046092933239,16.368324852260802,35,23,4baa62f1f964a52057653ae3,Brezl Gwölb,48.21170263525697,16.36871131092337,Austrian Restaurant
690,690,48.21046092933239,16.368324852260802,35,21,4bab6d49f964a520a0a83ae3,Bierhof Hopferl,48.2104577702755,16.367596184796504,Austrian Restaurant
1443,302,48.1882,16.29801052631579,18,4,4bab7833f964a520bfab3ae3,Vino e Mare,48.192049789785024,16.299390400558686,Italian Restaurant
1846,705,48.1982,16.386431578947366,30,8,4baba7e5f964a5205dbd3ae3,Winkler's Zum Posthorn,48.1998859094549,16.386419105469358,Austrian Restaurant
101,101,48.2004609293324,16.338851825876482,23,20,4bad0bc9f964a520f4273be3,Xu's Cooking,48.201414386828525,16.340386491654623,Asian Restaurant
1606,465,48.1882,16.415905263157892,13,9,4baf7a2cf964a52006033ce3,Ginza,48.185508850121295,16.42122849323675,Sushi Restaurant
555,555,48.21046092933239,16.353588010155534,24,17,4baf9b95f964a520760f3ce3,Oliva Verde,48.21199303666337,16.351985708918967,Italian Restaurant
908,908,48.205939070667604,16.389801463528677,20,6,4bb1cfb4f964a5203aa43ce3,Pizzeria Trimelli,48.203897487541504,16.389110116535143,Italian Restaurant
2605,1464,48.2382,16.327484210526315,5,0,4bb1f6c9f964a52000ae3ce3,Meister Xiao,48.235491490637045,16.326863125827593,Szechuan Restaurant
528,528,48.205939070667604,16.345590937212883,18,16,4bb396232397b713f05438b3,Natsu Sushi,48.20430147570917,16.346911809191877,Sushi Restaurant
2160,1019,48.2182,16.2538,1,0,4bb4723349bdc9b69dc80c10,Hsieh,48.2148815,16.24969605,Chinese Restaurant
1454,313,48.1882,16.29801052631579,18,15,4bb4db9fa705952131cf1bce,La Grappa,48.18715932516066,16.297965544718572,Italian Restaurant
1907,766,48.2082,16.31274736842105,13,1,4bb5c9dfef159c74be0a75f7,Pizzeria La Valetta,48.21159120783015,16.309557148146972,Italian Restaurant
2514,1373,48.2282,16.35695789473684,42,32,4bb616866edc76b0c05d301c,Cantina's,48.227417788117116,16.353194978808595,Mexican Restaurant
806,806,48.205939070667604,16.375064621423412,50,24,4bb6302e46d4a59347d4c5c0,Salud,48.204256878148364,16.375006722008855,Mexican Restaurant
2408,1267,48.2182,16.40116842105263,35,25,4bb9d9e57421a593ae10c340,Stadtgasthaus Eisvogel,48.21754349310925,16.395970183584723,Austrian Restaurant
2599,1458,48.2282,16.5338,1,0,4bbc246aafe1b713f921304b,Pizzeria Mediterrano,48.22864731708594,16.53384766222142,Italian Restaurant
2431,1290,48.2182,16.489589473684212,6,2,4bbc2600afe1b7133a23304b,Pizzeria Milano,48.21737204935633,16.48670309715564,Italian Restaurant
861,861,48.205939070667604,16.383061694366063,28,5,4bbc2af4e5b0d13a63026f7c,Steirereck,48.204371269407275,16.381561467707947,Austrian Restaurant
685,685,48.21046092933239,16.368324852260802,35,16,4bbf5b51b083a5936144a3e9,Levante,48.209263604222755,16.36740753221846,Turkish Restaurant
1598,457,48.1882,16.415905263157892,13,1,4bc08ef574a9a5931f2ed0f6,El Greco,48.185044917599285,16.418530941009518,Greek Restaurant
1607,466,48.1882,16.415905263157892,13,10,4bc08f6174a9a593c22ed0f6,Ginza - Running Sushi,48.185633836614116,16.421362840331422,Sushi Restaurant
1603,462,48.1882,16.415905263157892,13,6,4bc0902e74a9a5930e30d0f6,Pasta&Grill,48.18519974408993,16.420682893857776,Italian Restaurant
1597,456,48.1882,16.415905263157892,13,0,4bc0935374a9a593b735d0f6,Cenaro,48.18573021511678,16.418649106893113,Italian Restaurant
2502,1361,48.2282,16.35695789473684,42,20,4bc2fb3c461576b0cafc7d32,Taco Grill,48.232163786888115,16.354238390922543,Mexican Restaurant
2496,1355,48.2282,16.35695789473684,42,14,4bc308ccabf49521b028c393,Christos,48.227612,16.359876999999997,Greek Restaurant
822,822,48.205939070667604,16.375064621423412,50,40,4bc612b7bf29c9b65134f92a,Huth Gastwirtschaft,48.20443205943693,16.375290549653272,Austrian Restaurant
2148,1007,48.2082,16.40116842105263,4,2,4bc89eb96501c9b686824029,Jolly Ox,48.210033984623394,16.397755844400347,American Restaurant
415,415,48.2004609293324,16.3750639635972,14,2,4bc8c30aab62d13afef817d4,Phở Sài Gòn,48.20261027951784,16.374378379465593,Vietnamese Restaurant
1449,308,48.1882,16.29801052631579,18,10,4bcdadc268f976b065956483,Sorriso Ristorante,48.19123610969353,16.301777165470305,Italian Restaurant
1585,444,48.1882,16.386431578947366,10,5,4bcdf2d168f976b041236583,Kebabstand Ilkim,48.18760212458611,16.381564736366276,Doner Restaurant
884,884,48.21046092933239,16.389801463528677,18,0,4bcf2e729854d13a3e89f54d,Indus,48.211863881150656,16.39071238006193,Indian Restaurant
2429,1288,48.2182,16.489589473684212,6,0,4bcf396ccaff952142bbccf0,sushi aspern,48.217199471654006,16.48813369580935,Sushi Restaurant
2653,1512,48.2382,16.386431578947366,25,11,4bd053fcb221c9b6fe6cd3d0,D'Lounge,48.2404358899241,16.385878506344906,Italian Restaurant
1845,704,48.1982,16.386431578947366,30,7,4bd17d9341b9ef3bcaf9fbe5,Santa Lucia,48.19893991464387,16.38122082899152,Italian Restaurant
50,50,48.1904609293324,16.36032646402509,9,6,4bd1f325046076b08ee07271,Moli,48.192434999999996,16.360733,Asian Restaurant
2642,1501,48.2382,16.386431578947366,25,0,4bd2d4ac41b9ef3ba1bffee5,Gasthaus Kopp,48.23787288785448,16.38746373430079,Austrian Restaurant
1919,778,48.2082,16.327484210526315,27,0,4bd2fe28caff95219abcd3f0,Pizzeria Da Filippo,48.210482463302355,16.327724808522525,Italian Restaurant
1205,64,48.1482,16.460115789473686,2,1,4bd3379ca8b3a5934d62695f,Stammhaus,48.15079515354538,16.456302157105437,Asian Restaurant
1169,28,48.1382,16.40116842105263,6,1,4bd425b041b9ef3b118201e6,Weinlaube Oberlaa,48.13769785223914,16.40610396829839,Austrian Restaurant
1838,697,48.1982,16.386431578947366,30,0,4bd490cbcfa7b713e75824da,Salm Bräu,48.19672802800108,16.38095784055487,Austrian Restaurant
2781,1640,48.2682,16.40116842105263,8,0,4bd55d8c6798ef3bea39638d,Taco Mexican Restaurant,48.267554318420494,16.398430969437868,Mexican Restaurant
1440,299,48.1882,16.29801052631579,18,1,4bd82e6edc4b95216d7e7888,Brandauer Schlossbräu,48.18580939570016,16.30066345318091,Austrian Restaurant
697,697,48.21046092933239,16.368324852260802,35,28,4bd9c03f0115c9b60c847880,Kern's Beisl,48.210485,16.370745,Austrian Restaurant
2921,101,48.21046092933239,16.375064621423412,21,20,4bdab6832a3a0f47abbeabb6,Take a Kiang,48.211351995510675,16.375047493550436,Asian Restaurant
1109,1109,48.2159390706676,16.383061036180223,25,9,4bdb0b6f3904a593f672489e,Cadiz - Tapas Bar,48.21609735488892,16.379794478416446,Spanish Restaurant
1238,97,48.1682,16.31274736842105,6,1,4bdc9e3bccf52d7fe596786d,Tiziano,48.16738759439278,16.309015093467366,Italian Restaurant
1799,658,48.1982,16.371694736842105,50,11,4bdd96b83f720f47416c8ae7,Ne Ko,48.20256323898983,16.372526893304446,Japanese Restaurant
2721,1580,48.2482,16.445378947368418,11,10,4bdf247f6316d13a3ccea011,Restaurant Napoleon,48.2481812056775,16.44951723452589,Austrian Restaurant
1303,162,48.1782,16.283273684210524,8,0,4be067b72aed2d7f0d41c86f,Wok' in,48.181363333845844,16.285459484680956,Chinese Restaurant
1269,128,48.1682,16.371694736842105,7,0,4be15b92d816c92831ccefd9,China-Restaurant Jade,48.17130672017189,16.37571626968297,Asian Restaurant
915,915,48.205939070667604,16.389801463528677,20,13,4be2f07fb02ec9b6d3124ec0,Zum Schmankerlwirt,48.203857,16.390364,German Restaurant
954,954,48.2159390706676,16.3535873519697,20,3,4be801c7a117b713cb5b81c8,ie ga,48.215320509198065,16.350963557182087,Korean Restaurant
2191,1050,48.2182,16.327484210526315,28,23,4be8325b947820a10095b4db,Alexis Sorbas,48.217749,16.324625,Greek Restaurant
1363,222,48.1782,16.371694736842105,41,0,4be84eaa88ed2d7f3bb6cb1d,Türkis,48.176068317887314,16.377374804334437,Kebab Restaurant
2823,3,48.205939070667604,16.375064621423412,5,3,4be9be23b3352d7f7e5a54d2,East To West,48.205428380416144,16.37521066329837,Chinese Restaurant
242,242,48.19593907066761,16.35358866798175,12,0,4beae1b762c0c928b364e1d4,Kaiserwalzer 2.0,48.19467318163226,16.352395693292383,Austrian Restaurant
1665,524,48.1982,16.327484210526315,27,4,4bec351a61aca59368f58500,Bieriger,48.19948281615801,16.326880157111226,Austrian Restaurant
2526,1385,48.2282,16.371694736842105,42,2,4bee7b363686c9b64b8c246e,Diwan,48.230648156629044,16.373548555673505,Mediterranean Restaurant
2229,1088,48.2182,16.342221052631572,37,33,4befe163c8d920a1ad329430,Heidenkummer,48.214170982666204,16.34237937219099,Austrian Restaurant
2931,111,48.211591393998596,16.37337960474291,12,9,4bf019fd3a002d7fdfa985a4,Koh-i-noor,48.21233633374158,16.373432716530427,Indian Restaurant
539,539,48.21046092933239,16.353588010155534,24,1,4bf121b3a09076b055ce29d4,La Delizia,48.211775,16.351175,Italian Restaurant
1528,387,48.1882,16.35695789473684,50,28,4bf2dc746991c9b6bf9729e9,Sale e Pepe Ristorante,48.19239466342905,16.355900141347348,Italian Restaurant
2458,1317,48.2282,16.342221052631572,31,7,4bf3e10ad2fbef3befb2a4c5,Ristorante Roma,48.22660497667688,16.344772560723715,Italian Restaurant
1350,209,48.1782,16.35695789473684,13,0,4bf50b6bcad2c928b78d9c99,Restaurant Mango,48.17622556819868,16.35459421584923,Asian Restaurant
1217,76,48.1582,16.31274736842105,4,3,4bf517646a31d13a586e962e,Lee's Wok,48.15832496859149,16.30700496883826,Chinese Restaurant
1961,820,48.2082,16.342221052631572,50,15,4bf563b794af2d7f5ea53b72,Hidori,48.204312228804,16.34317248660568,Japanese Restaurant
1644,503,48.1982,16.31274736842105,21,4,4bf6bc845efe2d7f11a86734,rise - much more than rice,48.19917434797967,16.314906897309342,Asian Restaurant
899,899,48.21046092933239,16.389801463528677,18,15,4bf6fa445ec320a1762386d3,Kuchlmasterei,48.21138739585877,16.387841,French Restaurant
2918,98,48.21046092933239,16.375064621423412,21,17,4bf7d0285efe2d7f2d8a6934,Nirvana,48.21071151171225,16.375460983891948,Indian Restaurant
1247,106,48.1682,16.327484210526315,5,4,4bf7e0f94a67c928e04524cf,Asia restaurant Wok Kabekwerk,48.16532918631486,16.324862877144906,Asian Restaurant
1661,520,48.1982,16.327484210526315,27,0,4bf813a1508c0f478d383e31,Kent,48.19846653430742,16.32882441033478,Turkish Restaurant
1464,323,48.1882,16.327484210526315,13,3,4bf81c71b182c9b64bdf765a,Capatosta,48.18628323807746,16.32463440409112,Italian Restaurant
874,874,48.205939070667604,16.383061694366063,28,18,4bf82c155317a5934657ff7e,LiDu,48.204469,16.384006,Chinese Restaurant
1032,1032,48.2159390706676,16.368324194074965,18,3,4bfe33d54cf820a1f18bedf4,Hansen Restaurant Börse,48.21465239926231,16.366132675469853,Austrian Restaurant
1159,18,48.1382,16.327484210526315,5,0,4c0405683f03b713ab125241,Fischer's American Restaurant,48.13505989573327,16.324146051886498,American Restaurant
1473,332,48.1882,16.327484210526315,13,12,4c06e65d3cbed13a74db0bc0,halal food,48.18872267998807,16.327559183210944,Mediterranean Restaurant
1505,364,48.1882,16.35695789473684,50,5,4c06f95ecf8c76b023653b65,La Vita è Bella,48.192193413180455,16.356217230172838,Italian Restaurant
2175,1034,48.2182,16.327484210526315,28,7,4c081a4dbbc676b0cc0246d5,Pizzeria Da Annalisa,48.220277,16.328885,Italian Restaurant
1831,690,48.1982,16.371694736842105,50,43,4c0940b46071a593d895dd32,Restaurant Korso,48.202455296568594,16.370201078280903,German Restaurant
652,652,48.2082,16.371694736842105,50,33,4c095493009a0f47de94e7bf,Shanghai,48.209289,16.371852,Chinese Restaurant
2667,1526,48.2382,16.40116842105263,1,0,4c0a6ac7bbc676b050bc49d5,Summer Station,48.239809558193905,16.3956183075987,Indian Restaurant
232,232,48.2004609293324,16.35358866798175,28,18,4c0b9618a1b32d7f83319bf0,Dal Capitano,48.199577000000005,16.350804,Italian Restaurant
381,381,48.19593907066761,16.36832551008701,38,6,4c0e1e8f7189c928c3ecd7b6,Chang,48.194728999999995,16.366717,Asian Restaurant
319,319,48.19593907066761,16.360327121491935,41,36,4c0fd1136b7e2d7f3b9f2635,Thai Kitchen,48.19384415559001,16.359288194400698,Thai Restaurant
2726,1585,48.2582,16.29801052631579,1,0,4c138a8e77cea5935eecce60,Häuserl am Stoan,48.25785482665107,16.29376347117588,Austrian Restaurant
2668,1527,48.2382,16.415905263157892,5,0,4c13c29682a3c9b60c02fcf8,China Sichuan,48.23967375727594,16.420276512475322,Szechuan Restaurant
1052,1052,48.22046092933239,16.375065279609245,7,5,4c14d64ca1010f478dfc4c18,Arcadia am Augarten,48.221311059526606,16.377097112094148,Italian Restaurant
481,481,48.205939070667604,16.33885116805027,14,4,4c1507a282a3c9b6f419fef8,Kai's Asian Food,48.204070598727824,16.337316556567668,Asian Restaurant
719,719,48.205939070667604,16.368324852260802,28,15,4c1b5f7355e4c9b62b2b4923,Wiener Wald,48.204681118259224,16.371010741854974,Austrian Restaurant
1442,301,48.1882,16.29801052631579,18,3,4c26309f905a0f479dc46260,Akakiko,48.18550437880002,16.30128374627509,Sushi Restaurant
361,361,48.2004609293324,16.36832551008701,41,27,4c28fb343492a593cf39b828,Pineapple,48.199725513365344,16.365231784787827,Asian Restaurant
2505,1364,48.2282,16.35695789473684,42,23,4c29c22b783d9c74a4908f6b,Tokyo Noodle,48.228968998509494,16.358829858647187,Asian Restaurant
1252,111,48.1682,16.342221052631572,19,4,4c2ae2b2b5fbb7132b7549df,Kyoto Running Sushi,48.16790379237892,16.345388471386563,Sushi Restaurant
2221,1080,48.2182,16.342221052631572,37,25,4c2b279777cfe21eb0fbb3f1,Schnitzel Landmann,48.215374760311796,16.344982383159373,German Restaurant
2585,1444,48.2282,16.445378947368418,1,0,4c2b783e355cef3be949cd56,Gasthof Valley Rose Vienna,48.23170940175213,16.44827361255238,Italian Restaurant
2218,1077,48.2182,16.342221052631572,37,22,4c2dce947d85a593412453f3,Longi Asia Cuisine,48.217379347124215,16.34833415906616,Asian Restaurant
2162,1021,48.2182,16.31274736842105,7,1,4c2dcfebe760c9b6bf6b4549,Gelbmanns Gaststube,48.21718881433307,16.312749720165517,Austrian Restaurant
2523,1382,48.2282,16.35695789473684,42,41,4c2e2edde307d13abc180fda,Zum Reznicek,48.22828054011801,16.35733255363984,Austrian Restaurant
2727,1586,48.2582,16.342221052631572,7,0,4c2f77d6213c2d7f6ee3305d,Maly,48.25544370019973,16.343906969085168,Austrian Restaurant
590,590,48.205939070667604,16.353588010155534,33,28,4c3227bf3ffc9521cb3c90f5,Zum Moghulhof,48.20423766881991,16.354871740621277,Indian Restaurant
235,235,48.2004609293324,16.35358866798175,28,21,4c3385737cc0c9b66bf1f19a,Bea's,48.201401000000004,16.351179000000002,Brazilian Restaurant
761,761,48.21046092933239,16.375064621423412,50,29,4c35a9224308b7138fbfc430,Restaurant Chinese Court,48.212466,16.374973,Chinese Restaurant
790,790,48.205939070667604,16.375064621423412,50,8,4c35ebe13ffc9521704791f5,Roo Bar Australian Pub,48.20399808830159,16.37590828391412,Australian Restaurant
1445,304,48.1882,16.29801052631579,18,6,4c3742712c8020a18aa58800,Hanil Sushi,48.186172427292654,16.301979555098566,Sushi Restaurant
1306,165,48.1782,16.283273684210524,8,3,4c3742d51e06d13ac28e753e,Hanil Sushi,48.17897131039328,16.284603889259316,Japanese Restaurant
1905,764,48.2082,16.29801052631579,3,2,4c3766aa1e06d13aa4dd753e,Zum Windradl,48.207202665512746,16.294448917849277,Austrian Restaurant
368,368,48.2004609293324,16.36832551008701,41,34,4c38acc593db0f4723fb2192,Bistro 59,48.201909,16.369353,French Restaurant
2193,1052,48.2182,16.327484210526315,28,25,4c3b685b1a1cd13a6d50b60d,Erico's Grill-Platz'l,48.2199766583923,16.321980235513287,Greek Restaurant
362,362,48.2004609293324,16.36832551008701,41,28,4c3dfb590596c928aba68378,Senkoma,48.20151912000001,16.369173,Japanese Restaurant
2591,1450,48.2282,16.460115789473686,8,5,4c41fd4e520fa593387ccaac,Wok House,48.225748004533614,16.465109724134802,Asian Restaurant
1001,1001,48.2159390706676,16.36032843750398,18,15,4c448ae7f799e21e4df6ada2,Sushi Daihachi,48.215004861016375,16.362993469603587,Sushi Restaurant
1272,131,48.1682,16.371694736842105,7,3,4c44b45bf0bdd13a07f4c9cc,Goldene Rose,48.171311509055776,16.375349287949614,Chinese Restaurant
2518,1377,48.2282,16.35695789473684,42,36,4c46d88e19fde21e5f620676,Sasso d'Oro,48.22594134606911,16.36237650151193,Italian Restaurant
1561,420,48.1882,16.371694736842105,30,11,4c46ee0a417b20a1d9e7dba9,ShinJu,48.18874539744878,16.372713778394168,Asian Restaurant
2367,1226,48.2182,16.386431578947366,50,34,4c473b5096abd13a73137001,Mr Lee,48.21782616908185,16.392806296410427,Asian Restaurant
1263,122,48.1682,16.342221052631572,19,15,4c49771ba3ace21ea4bfa03b,Coeo,48.1681946261689,16.34511582505111,Thai Restaurant
855,855,48.21046092933239,16.383061694366063,10,9,4c498bdb6b26ef3b276e0438,Sapori d´Italia,48.21080496599986,16.38006461338352,Italian Restaurant
2495,1354,48.2282,16.35695789473684,42,13,4c4d7122fb742d7fcf4ebb2c,Ha Noi Express,48.225570000000005,16.351882,Vietnamese Restaurant
798,798,48.205939070667604,16.375064621423412,50,16,4c4dcec41b8e1b8dc1653826,Lord Of S,48.20578719529978,16.378206508316094,Middle Eastern Restaurant
1071,1071,48.2159390706676,16.375065279609245,23,17,4c5017d12a73c928982ae8d1,Le Wei,48.214962,16.372059,Asian Restaurant
722,722,48.205939070667604,16.368324852260802,28,18,4c50228f2a73c9288879fbd1,Lubella,48.204708856229324,16.3701408647977,Italian Restaurant
2792,1651,48.2682,16.460115789473686,2,0,4c506f68371520a12fe851c1,Leopoldauer Alm,48.26522470337244,16.456595311735853,Austrian Restaurant
177,177,48.19593907066761,16.34559027938667,28,19,4c515f4d9426c92818e99a73,Igiban,48.195712,16.342495,Asian Restaurant
1618,477,48.1982,16.268536842105263,4,0,4c51ab445ee81b8da88aa200,Stags Head Pub,48.19712852809079,16.26458707641105,American Restaurant
1258,117,48.1682,16.342221052631572,19,10,4c52a9109426c92823e2c375,Pizzeria TwinTower,48.1712421933787,16.342232502482787,Italian Restaurant
1436,295,48.1882,16.283273684210524,3,0,4c52b20694790f4731ae0ea3,China Restaurant Sun,48.187293,16.28282215,Chinese Restaurant
1334,193,48.1782,16.327484210526315,21,17,4c52fb2a2543a593f3403986,"Restaurant zum ""Jimmy""",48.178256931415866,16.32797194293414,German Restaurant
2171,1030,48.2182,16.327484210526315,28,3,4c5581b01b46c9b65a9b59d0,Retsina,48.218128590294725,16.333887011098724,Greek Restaurant
2664,1523,48.2382,16.386431578947366,25,22,4c59a203aeb7b7138e6f73cd,Pizzeria Il Delfino,48.23948072657211,16.385687400056874,Italian Restaurant
421,421,48.2004609293324,16.3750639635972,14,8,4c5a8528b05c1b8d8c67d8b1,RCM,48.200343,16.375447,German Restaurant
1123,1123,48.2159390706676,16.383061036180223,25,23,4c5af5eed3aee21ea2fd6b55,Kebap König,48.21634962145415,16.380715836861366,Doner Restaurant
1284,143,48.1682,16.40116842105263,2,1,4c5c60126147be9a27178f09,Bierstadl,48.16740685817717,16.398539356647685,Austrian Restaurant
1613,472,48.1982,16.2538,7,2,4c5d50f799ff76b0c43eba9e,Ristorante Francesco,48.20177980935213,16.25705380615334,Italian Restaurant
246,246,48.19593907066761,16.35358866798175,12,4,4c5e8f847735c9b6d1319272,Frau Mizzi Vienna.,48.194445,16.35172,German Restaurant
1243,102,48.1682,16.327484210526315,5,0,4c5ee7e86147be9a9cfe9509,Döring's Schutzhaus Gartenfreunde,48.16837906054262,16.33299421523358,Austrian Restaurant
681,681,48.21046092933239,16.368324852260802,35,12,4c5febb047429c7474ea1b7a,Akakiko,48.2112431637124,16.366522182937718,Japanese Restaurant
2728,1587,48.2582,16.342221052631572,7,1,4c62c32758810f476eec071e,Zum Martin Sepp,48.257405665797975,16.338944435119632,Austrian Restaurant
1242,101,48.1682,16.31274736842105,6,5,4c64445858810f4724bf0b1e,Culinari,48.16647976477418,16.315568596219197,Asian Restaurant
1183,42,48.1482,16.29801052631579,3,0,4c6668ddc2ead13abeacb380,Ginko - Asia Restaurant,48.14629324469525,16.29624357504603,Asian Restaurant
2744,1603,48.2582,16.40116842105263,25,0,4c6709f5d6f676b09deed96c,Akakiko,48.25742975470657,16.400376693873632,Asian Restaurant
1174,33,48.1382,16.415905263157892,2,0,4c6832e231ba2d7f580ff772,"Asia Restaurant ""Zum Liesingbach""",48.134856039907795,16.413675583440043,Asian Restaurant
1285,144,48.1682,16.415905263157892,7,0,4c6abc7da3932c7a6c13fef4,Akasaka,48.171828000000005,16.418732000000002,Sushi Restaurant
2651,1510,48.2382,16.386431578947366,25,9,4c6c1f8723c1a1cd2bae18cf,Chopstick House,48.240303999999995,16.386224,Malay Restaurant
360,360,48.2004609293324,16.36832551008701,41,26,4c6d82e965eda0938cd64ed0,Sunshine,48.201005,16.367309,Chinese Restaurant
1396,255,48.1782,16.371694736842105,41,33,4c6e757b65eda093e76751d0,Kent,48.178294891579114,16.377547430235254,Mediterranean Restaurant
2351,1210,48.2182,16.386431578947366,50,18,4c6ec1aa65eda093636852d0,Pizzeria della Casa,48.218182850180455,16.39290492299473,Italian Restaurant
369,369,48.2004609293324,16.36832551008701,41,35,4c6fcb2e9c6d6dcbb775d07a,Le CousCous - Tunesische & arabische Spezialitäten,48.201433,16.370176999999998,Mediterranean Restaurant
1640,499,48.1982,16.31274736842105,21,0,4c72a819ad69b60c490b84b9,Sunny,48.1991047685059,16.316660964502198,Chinese Restaurant
2029,888,48.2082,16.35695789473684,50,33,4c741b2c66be6dcb1bc7bc0f,Restaurant 1070,48.204055,16.355684,Mediterranean Restaurant
2153,1012,48.2082,16.415905263157892,6,3,4c764d9bb474a1cdeb82bbbf,Sajado,48.210260628968314,16.421420635153893,Asian Restaurant
2795,1654,48.2782,16.35695789473684,2,0,4c76ce6d93faa093f0d6eefb,Schimankos Winzerhaus,48.27468170024691,16.355431019853985,Austrian Restaurant
2932,112,48.211591393998596,16.37337960474291,12,10,4c76e4555cd6b1f72c5d3d94,Pizza Del Popolo,48.21167978823228,16.372484676091496,Italian Restaurant
2798,1657,48.2782,16.386431578947366,2,1,4c7a37653badb1f77f905154,Stix Schlemmer Eck,48.278018811213215,16.387417991985625,Austrian Restaurant
612,612,48.21046092933239,16.360327779318148,18,17,4c7a8b3c93ef236a8cdbb20f,Cantinetta Allora,48.21213463527274,16.36114694800873,Italian Restaurant
1940,799,48.2082,16.327484210526315,27,21,4c7b9919794e224bc3a26b28,China Restaurant Kaiserreich,48.204986979128655,16.322889048797425,Asian Restaurant
1168,27,48.1382,16.40116842105263,6,0,4c7d336f3b22a1cdb7285e9e,Oberlaaer Dorfwirt,48.13608661233828,16.398677114518435,Austrian Restaurant
2882,62,48.207069535333794,16.37000979455145,10,8,4c7d351410916dcbf1af2896,Reinthaler's Beisl,48.207952175,16.369987,Austrian Restaurant
1203,62,48.1482,16.40116842105263,2,1,4c7d36aed461a14323737cf5,don alfredo,48.14939589201376,16.398525684675562,Italian Restaurant
1177,36,48.1482,16.268536842105263,3,0,4c7f83d401df3704f653e6ac,Suli,48.15157468291042,16.265124240184804,Chinese Restaurant
2486,1345,48.2282,16.35695789473684,42,4,4c7fcb00c9cfef3bcf143880,Heilige Kuh,48.22740383592646,16.35927046825801,Indian Restaurant
2920,100,48.21046092933239,16.375064621423412,21,19,4c7ff70ed8086dcb14835f52,l'ombra,48.21010048467897,16.374476580489524,Italian Restaurant
2604,1463,48.2382,16.31274736842105,3,2,4c82804bd34ca143738f2c80,La Grappa,48.241636,16.30979,Italian Restaurant
2387,1246,48.2182,16.40116842105263,35,4,4c83a34f47cc224b7aa9909f,Zum Englischen Reiter,48.2146024952053,16.40070260519441,Austrian Restaurant
452,452,48.2082,16.342221052631572,27,20,4c83d01cd8086dcb66338352,5 Elemente,48.207654999999995,16.343251000000002,Asian Restaurant
1637,496,48.1982,16.29801052631579,14,11,4c88bb967223b1f7b0a52da8,Müldür,48.19758041968308,16.297939784774346,Mediterranean Restaurant
2586,1445,48.2282,16.460115789473686,8,0,4c8b831952a98cfa487136e9,Wokhouse,48.225750596865176,16.465035114897955,Chinese Restaurant
2700,1559,48.2482,16.415905263157892,2,0,4c8cc53355fba093804462ab,Indian Food Land,48.252304966666664,16.4144112,Indian Restaurant
2296,1155,48.2182,16.371694736842105,50,13,4c8f482bd2aea09375fed469,Stopfer,48.21456312035706,16.371912702608657,Austrian Restaurant
842,842,48.2082,16.386431578947366,14,10,4c90a524de3d236a24246d18,Green Apple,48.209897999999995,16.38651,Asian Restaurant
792,792,48.205939070667604,16.375064621423412,50,10,4c925cdbae45224b18a6ef97,Salieri,48.203887104097994,16.37375065488344,Italian Restaurant
917,917,48.205939070667604,16.389801463528677,20,15,4c9497dff7cfa1cd5518b515,China Restaurant Asia Paradies,48.205669613092425,16.38806552291652,Chinese Restaurant
2815,1674,48.3082,16.31274736842105,1,0,4c95e77bf7cfa1cdaa9fc115,Restaurant Poseidon,48.306771173192466,16.311554993232193,Greek Restaurant
2224,1083,48.2182,16.342221052631572,37,28,4c98a22cb6ee236acf7fa9a7,Yi Ting,48.21654655789235,16.34368288001335,Asian Restaurant
2652,1511,48.2382,16.386431578947366,25,10,4c9a4b9680958cfa7eb941d4,Pani Bär,48.2404559085221,16.385899730555586,Asian Restaurant
1679,538,48.1982,16.327484210526315,27,18,4c9b2897b8e9224b87c1533d,Gasthaus Heidinger,48.19823447609432,16.32276374585247,Austrian Restaurant
695,695,48.21046092933239,16.368324852260802,35,26,4c9cd4838afca093f1ddf015,Restaurant zur Hohen Brücke,48.21252684473383,16.368223471528378,Asian Restaurant
276,276,48.2004609293324,16.360327121491935,29,22,4c9cea5554c8a1cd23bb7e4b,Schwarze Katze,48.19914,16.361978,Greek Restaurant
1321,180,48.1782,16.327484210526315,21,4,4c9e554a27d3bfb705182967,Gasthaus Stafler,48.182316421019316,16.325698002962156,Austrian Restaurant
1253,112,48.1682,16.342221052631572,19,5,4ca0797154c8a1cd838c9f4b,Twins Kebab,48.16794,16.345138000000002,Doner Restaurant
651,651,48.2082,16.371694736842105,50,32,4ca32eafd7c3370440639e62,Da Gennaro,48.20816087061854,16.369156422867928,Italian Restaurant
305,305,48.19593907066761,16.360327121491935,41,22,4ca4e711b7106dcb34be4fa5,die unfreundlichste pizzaria der welt,48.194143,16.361926999999998,Italian Restaurant
97,97,48.2004609293324,16.338851825876482,23,16,4ca5834e14c33704c1fbb63b,Sofram Kebap,48.19841853860113,16.338815352229105,Doner Restaurant
2722,1581,48.2482,16.460115789473686,2,0,4ca74b75f47ea14315e86821,American Burger & Hotdog,48.246429321742134,16.463990337490756,American Restaurant
1144,3,48.1282,16.31274736842105,6,2,4ca75d5ca6e08cfa14c58394,Il Capo,48.126688,16.313854,Italian Restaurant
1903,762,48.2082,16.29801052631579,3,0,4ca866da76d3a093155d156b,Schutzhaus Waidäcker,48.21037756608676,16.29549914268312,Austrian Restaurant
1201,60,48.1482,16.386431578947366,4,3,4caca3bcf47ea1436a179321,china restaurant schwan,48.149815999999994,16.38089,Chinese Restaurant
2588,1447,48.2282,16.460115789473686,8,2,4cadde9c628cb1f7c7332f15,Call Pizza,48.22752220102693,16.453710030988947,Italian Restaurant
2213,1072,48.2182,16.342221052631572,37,17,4caefb20562d224bd7040a88,"Rioja, Tapas y Mas",48.21704913384762,16.346059946067047,Spanish Restaurant
1307,166,48.1782,16.283273684210524,8,4,4caf0ab03f0676b0cae5fa0c,China Restaurant Hietzing,48.176787297912036,16.283572560041478,Chinese Restaurant
1863,722,48.1982,16.386431578947366,30,25,4cb052621168a0932a782923,Mr. Zhang,48.19486489551458,16.38529901353411,Chinese Restaurant
1894,753,48.1982,16.415905263157892,3,1,4cb19c7b1463a14341d1a6a9,Schutzhaus wasserwiese,48.196737,16.41865,Austrian Restaurant
1254,113,48.1682,16.342221052631572,19,6,4cb5a2a264998cfa52120fa2,Taverna Takis,48.16805175041061,16.345596377915303,Greek Restaurant
1587,446,48.1882,16.386431578947366,10,7,4cb6bec63abd9c746198572f,Restaurant Arsenalstuben,48.18742,16.3913699,Austrian Restaurant
2813,1672,48.2982,16.415905263157892,2,0,4cb72a48e262b60ca73874e0,Haus Schmidt,48.30064685738248,16.41813719859038,Austrian Restaurant
2141,1000,48.2082,16.386431578947366,50,45,4cb83740dd41a35d9cbdd8a0,Kardos,48.208889899999996,16.3801,Austrian Restaurant
1455,314,48.1882,16.29801052631579,18,16,4cb87d4643ec6dcba1f89531,Della Lucia,48.18713685593379,16.302891021653974,Italian Restaurant
1148,7,48.1282,16.327484210526315,1,0,4cb98b6843ec6dcb19b59d31,Grill Asia,48.127354461040895,16.326006749512118,Chinese Restaurant
2180,1039,48.2182,16.327484210526315,28,12,4cb9f1fd7148f04d3f85d9ab,CrêpeCat,48.21864657333732,16.33127407297796,French Restaurant
1853,712,48.1982,16.386431578947366,30,15,4cba10d7adcd54811bd420a2,Hakka Cun,48.19425976405574,16.387685716815866,Asian Restaurant
2186,1045,48.2182,16.327484210526315,28,18,4cbb43ebf50e224b98adf8fb,Casa Milano,48.216628,16.331246,Italian Restaurant
2516,1375,48.2282,16.35695789473684,42,34,4cbc1d9fadcd548161672ca2,Al Dente,48.232431,16.356782,Italian Restaurant
2014,873,48.2082,16.35695789473684,50,18,4cbd31893481199c964b6d3f,Ohh! Sushi - Wok,48.21227268977432,16.355753265792323,Sushi Restaurant
2190,1049,48.2182,16.327484210526315,28,22,4cbee9e99ca854816151b316,Sheng Long,48.218859372974,16.331431991052074,Asian Restaurant
2450,1309,48.2282,16.327484210526315,9,8,4cc073e773ef199cf286d9a2,Bürgerhof,48.23001267408227,16.331433647726946,Austrian Restaurant
2645,1504,48.2382,16.386431578947366,25,3,4cc2227782388cfaee325e35,Dal Maestro,48.237567999999996,16.387729,Italian Restaurant
308,308,48.19593907066761,16.360327121491935,41,25,4cc32cf31e596dcbed8fc867,La Fonda,48.196999,16.362029999999997,Latin American Restaurant
2725,1584,48.2582,16.283273684210524,1,0,4cc4563401fb236a492fabba,Häuserl am Roan,48.25839085072354,16.28571778217315,Austrian Restaurant
850,850,48.21046092933239,16.383061694366063,10,4,4cc556bebde8f04dba6eb04b,Pizzeria Noli,48.210294452655155,16.382674481820768,Italian Restaurant
1625,484,48.1982,16.283273684210524,4,3,4cc5587480624688f2803b2f,Retsina,48.194549,16.286698,Greek Restaurant
2707,1566,48.2482,16.430642105263153,9,5,4cc55f49306e224bd76aa26c,Tokyo House,48.25101454162798,16.4300786841496,Asian Restaurant
272,272,48.2004609293324,16.360327121491935,29,18,4cc5a4ecd43ba14357de6ef8,El Greco,48.20038376979507,16.35919741353959,Greek Restaurant
1556,415,48.1882,16.371694736842105,30,6,4cc742923477b60c31e5746a,Sokrates,48.19072575363679,16.366562694370895,Greek Restaurant
2818,1677,48.3082,16.35695789473684,2,0,4cc843ebde08199c9411ed5e,China-Restaurant Jasmin,48.310955257998636,16.35586091074686,Chinese Restaurant
2455,1314,48.2282,16.342221052631572,31,4,4ccb030dc9b846882018b3c3,Mikado,48.22917330050875,16.343932520987448,Asian Restaurant
1882,741,48.1982,16.40116842105263,25,14,4ccb077d54f0b1f7acc60cca,Sri Thai Imbiss,48.195816,16.397804999999998,Thai Restaurant
1623,482,48.1982,16.283273684210524,4,1,4cd2a44ca60d224bcb4d30d1,Cook Inn,48.197421023816595,16.279367680825207,Chinese Restaurant
1895,754,48.1982,16.415905263157892,3,2,4cd2ee6c158c548126cfb1e4,Knusperhäuschen,48.1963267795769,16.40999820574433,German Restaurant
2177,1036,48.2182,16.327484210526315,28,9,4cd45eed89eb6dcb3ca7211e,Restaurant Seidenstraße,48.217953,16.333614,Middle Eastern Restaurant
1588,447,48.1882,16.386431578947366,10,8,4cd6a22394848cfa8112eeb1,Stadtbeisl,48.189686,16.389228,German Restaurant
1770,629,48.1982,16.35695789473684,50,32,4cd81fd06e8b5941f5b363d2,Restaurant Waldviertlerhof,48.19387646671631,16.35845418475335,Austrian Restaurant
1302,161,48.1782,16.268536842105263,1,0,4cd933d01891236acdf8390b,Zum Goldenen Fisch,48.17791157623046,16.273207758596428,Asian Restaurant
2615,1474,48.2382,16.35695789473684,19,3,4cd9449a7bb06dcbb1f8a6b2,Lemongreen,48.23725086957123,16.354188617291445,Asian Restaurant
1188,47,48.1482,16.31274736842105,10,2,4cd961564ebba090c9b3acd6,Restaurant Wiesenstadt,48.1497302594863,16.31264729803381,German Restaurant
365,365,48.2004609293324,16.36832551008701,41,31,4cdafbcec409b60ca416d21a,Da Pierino,48.19903437975194,16.366691009530395,Italian Restaurant
2154,1013,48.2082,16.415905263157892,6,4,4cdbb89cd4ecb1f7e8467b48,di piu,48.209660053253174,16.420660614967346,Italian Restaurant
130,130,48.19593907066761,16.338851825876482,27,26,4cde7318df986ea81fdfdb16,Yummy Cooking,48.1948642405985,16.336569904276676,Asian Restaurant
683,683,48.21046092933239,16.368324852260802,35,14,4cde8e97c4f6a35d0e86ca6c,Das Schwarze Kamel,48.209798493441134,16.36824162994877,German Restaurant
2915,95,48.21046092933239,16.375064621423412,21,14,4cdea11294c3b60c6f7966ea,Cavaliere,48.21023553059226,16.375565456836927,Italian Restaurant
1326,185,48.1782,16.327484210526315,21,9,4ce042a178ddf04de35aa598,Monte Grappa,48.17435694,16.32568434,Italian Restaurant
1124,1124,48.2159390706676,16.383061036180223,25,24,4ce273da78ddf04d45b7b098,Bahur Tov,48.21653,16.38053,Kosher Restaurant
2152,1011,48.2082,16.415905263157892,6,2,4ce41fd30eec8cfa2a5ea22a,Zum Burgenländer,48.2102508858975,16.421410992106274,Austrian Restaurant
2630,1489,48.2382,16.35695789473684,19,18,4ce96a8c595cb1f7008ace14,Monte Christo,48.23540638487716,16.353141046347886,Italian Restaurant
1208,67,48.1482,16.504326315789477,1,0,4ceaa562fe90a35d51ef4e0e,Kaminstub'n Fam. Webora,48.15094394462125,16.504341479312725,Austrian Restaurant
724,724,48.205939070667604,16.368324852260802,28,20,4cebb2cfe888f04da8a0536b,Lucky Chinese,48.205506,16.370292000000003,Chinese Restaurant
2606,1465,48.2382,16.327484210526315,5,1,4cec2a7f9e3a236a72422a38,Spumante,48.23414140891097,16.32762278493099,Italian Restaurant
2576,1435,48.2282,16.40116842105263,8,4,4ced65b34cd4236a48d1a763,Zum Goldenen Panda,48.22907557763864,16.397853595810346,Chinese Restaurant
239,239,48.2004609293324,16.35358866798175,28,25,4cf0f29a899c6ea86796edc1,Sushi Lounge,48.20189,16.353388,Sushi Restaurant
1642,501,48.1982,16.31274736842105,21,2,4cf237422eb25941a84cbaa1,La Sicilia,48.202331298117116,16.310663223266598,Italian Restaurant
2214,1073,48.2182,16.342221052631572,37,18,4cf24f9f7e93f04dd74d5269,Jaipur Palace,48.217354,16.34562,Indian Restaurant
1349,208,48.1782,16.342221052631572,12,11,4cf38c6d1c158cfa4523deb5,Restaurant Ecke,48.17991457631022,16.34218384570321,Chinese Restaurant
399,399,48.19593907066761,16.36832551008701,38,24,4cf3f9b97bf3b60cc6d86d7f,Bacchus & Co,48.195602,16.365054999999998,Italian Restaurant
1341,200,48.1782,16.342221052631572,12,3,4cf4055a7e0da1cd21f79f97,Restaurant Carino,48.18209226318139,16.342817943878394,Italian Restaurant
155,155,48.2004609293324,16.34559027938667,27,24,4cf53b1e88de37047b7a892b,Restaurant Salonica,48.20062,16.344859,Greek Restaurant
2521,1380,48.2282,16.35695789473684,42,39,4cf7e0da55e137046150d5b6,kungfukids,48.225114000000005,16.355832,Asian Restaurant
2480,1339,48.2282,16.342221052631572,31,29,4cf7f3961cfea093799ee739,Hanil Sushi,48.22933380407103,16.34416135334541,Sushi Restaurant
2629,1488,48.2382,16.35695789473684,19,17,4cf806cd01568cfa766e1de7,SUN CHINA RESTAURANT,48.24185236209528,16.355733946859008,Chinese Restaurant
389,389,48.19593907066761,16.36832551008701,38,14,4cf8de706cee236a1234e903,May Lee,48.194444791152286,16.367398362451986,Asian Restaurant
2424,1283,48.2182,16.460115789473686,3,0,4cf8ed8e6cee236a6295e903,Schönes China,48.219541500001405,16.458138786615365,Chinese Restaurant
1878,737,48.1982,16.40116842105263,25,10,4d03c6e87d9ba35d31e06123,"cafe klabautermann, wien",48.198068,16.406562,German Restaurant
1151,10,48.1382,16.283273684210524,5,0,4d04c6fda26854813eb2b9bd,Pizzaria Murano,48.137480834774244,16.278024010264044,Italian Restaurant
1499,358,48.1882,16.342221052631572,26,25,4d04d79ea2685481ae00babd,Schile Imbiss,48.190401,16.344688,Middle Eastern Restaurant
767,767,48.21046092933239,16.375064621423412,50,35,4d067ac72f96f04d9a0f2854,ef16,48.210419469112225,16.376709221609445,Austrian Restaurant
2509,1368,48.2282,16.35695789473684,42,27,4d079c2637036dcb1ba822fb,Delphin Kebabhaus,48.232452,16.3554942,Eastern European Restaurant
2173,1032,48.2182,16.327484210526315,28,5,4d0a0da5e6f8370410ec5d87,La Kuilla di Mare,48.2207825935609,16.327215086632034,Italian Restaurant
454,454,48.2082,16.342221052631572,27,22,4d0a71b59a4437042297b367,Xiang Haus,48.207584693932546,16.343211698205074,Asian Restaurant
2515,1374,48.2282,16.35695789473684,42,33,4d0cdb343905b1f7cad4964b,Frascati,48.22559567794753,16.357800088158058,Italian Restaurant
80,80,48.1982,16.342221052631572,24,23,4d0ce37d80105481ea4e1b96,Hopfenstange,48.19791082,16.34131034,German Restaurant
2641,1500,48.2382,16.371694736842105,11,10,4d0e478b257d6dcba132a167,Brigittenauer Stadl,48.23694771365291,16.372147411004573,Austrian Restaurant
1448,307,48.1882,16.29801052631579,18,9,4d110fb8d21db60c9b052e18,Maxing Stüberl,48.18480174172132,16.30064023240201,Austrian Restaurant
1620,479,48.1982,16.268536842105263,4,2,4d11e7a9b69f224bfeea7b55,Gasthaus Peschta,48.197881,16.261956,Austrian Restaurant
289,289,48.19593907066761,16.360327121491935,41,6,4d11fdf3ffa36ea828b9f5da,Donatella,48.19541890075682,16.363586728777562,Italian Restaurant
2770,1629,48.2582,16.415905263157892,3,1,4d1234e780f6721ee9ee15eb,Little Asia,48.256816462249915,16.410435384843016,Asian Restaurant
122,122,48.19593907066761,16.338851825876482,27,18,4d1253ebffa1224b6a6d98ad,Crazy Noodles,48.19615979274961,16.339073181152347,Fast Food Restaurant
1364,223,48.1782,16.371694736842105,41,1,4d17a0c5401db60cfe51eda4,La Koliba,48.18131817207635,16.37355085742296,Eastern European Restaurant
1615,474,48.1982,16.2538,7,4,4d1a18c6bb64224bf3a3d365,Dotto's,48.201921,16.257073000000002,Italian Restaurant
1387,246,48.1782,16.371694736842105,41,24,4d1b36feeab1224b7440d0e2,Ni Hao,48.17615879601087,16.366466742568484,Chinese Restaurant
2535,1394,48.2282,16.371694736842105,42,11,4d20c8b66e8c3704119efc9f,Thai Lotus,48.229499,16.378020000000003,Thai Restaurant
2655,1514,48.2382,16.386431578947366,25,13,4d21b302756e8cfa33d57754,Beijing,48.240435999999995,16.385977,Asian Restaurant
2565,1424,48.2282,16.371694736842105,42,41,4d2205fd756e8cfa0d007b54,Siri's Thai Haus,48.230464819451505,16.370960209348286,Asian Restaurant
2649,1508,48.2382,16.386431578947366,25,7,4d245563836f54819f1442f7,Sunrise Kyoto,48.24034912233506,16.386546828566473,Japanese Restaurant
1446,305,48.1882,16.29801052631579,18,7,4d245c9c8882a35df3801338,Pizzeria Ristorante San Stefano,48.19024773,16.29943261,Italian Restaurant
593,593,48.205939070667604,16.353588010155534,33,31,4d27131b8292236a01140cbb,Bohème,48.20402951553953,16.355075639804507,French Restaurant
2579,1438,48.2282,16.40116842105263,8,7,4d28415f467d6ea8198bc495,Restaurant Nikita Dal Russo,48.22387832216098,16.402219083822633,Italian Restaurant
639,639,48.2082,16.371694736842105,50,20,4d2a2281467d6ea87291d595,Pizzeria Venezia,48.20713841310667,16.371615519802134,Italian Restaurant
1167,26,48.1382,16.386431578947366,2,1,4d2b063e888af04d4d78dcaf,Rothneusiedlerhof,48.13866253347611,16.38322061929199,Austrian Restaurant
209,209,48.1982,16.35695789473684,28,23,4d2cab4255a8b60c34f9f1c0,Bangkok Vienna Thai Restaurant,48.19771726370214,16.357468993261474,Thai Restaurant
2618,1477,48.2382,16.35695789473684,19,6,4d2db19c679e6dcb45a5b195,Crossover Restaurant,48.234999,16.352597,Asian Restaurant
2316,1175,48.2182,16.371694736842105,50,33,4d2defd694013704b531e1da,Acapulco,48.21911140000001,16.365543,Mexican Restaurant
2709,1568,48.2482,16.430642105263153,9,7,4d2f4fd5b97cb1f735259748,Pizzaria Madalena,48.24862570296603,16.42936674601016,Italian Restaurant
236,236,48.2004609293324,16.35358866798175,28,22,4d31c5b85c2db60cb556bb6c,Alte Taverne,48.201391626303604,16.354470165480247,Austrian Restaurant
2808,1667,48.2882,16.445378947368418,1,0,4d32c17112412c0fbe578fd9,City Garden,48.288263422232895,16.448455421667653,Chinese Restaurant
2867,47,48.2082,16.371694736842105,16,13,4d32f10ab6093704c35afcdf,Ristorante Firenze,48.20786733646805,16.37230248748774,Italian Restaurant
1432,291,48.1882,16.268536842105263,7,3,4d3b283dbeb7b1f784caf071,Pizzeria Punto Rosso,48.18879408248296,16.267326573273678,Italian Restaurant
2778,1637,48.2682,16.386431578947366,3,0,4d3c0fab84d46ea8e3befa5c,Cara Mia,48.266942568385275,16.392779214834732,Italian Restaurant
2558,1417,48.2282,16.371694736842105,42,34,4d40058a467754815ab353f4,Buffet Chinese Kristall,48.22825645539729,16.370485243506305,Chinese Restaurant
2491,1350,48.2282,16.35695789473684,42,9,4d406877915a3704063a157f,Ristorante Mediterrano,48.229367390387104,16.35812019413968,Italian Restaurant
1493,352,48.1882,16.342221052631572,26,19,4d414b97aae1b1f714a98ef5,Frank's Gaststätte,48.18958999646057,16.342104059138894,German Restaurant
1626,485,48.1982,16.29801052631579,14,0,4d43033751cca35d544e07db,Restaurant Musil,48.20199430607367,16.294653808064595,Austrian Restaurant
1872,731,48.1982,16.40116842105263,25,4,4d454b9414aa8cfac3d3703d,That's Amore,48.197899,16.395374,Italian Restaurant
2428,1287,48.2182,16.474852631578948,2,1,4d45bb48befe236a3c1102e3,Rigoletto,48.21846842765808,16.47096276283264,Italian Restaurant
1191,50,48.1482,16.31274736842105,10,5,4d49d386782f3704bc797137,Asia Restaurant Kama & Co,48.151242037605364,16.316285133361813,Chinese Restaurant
1466,325,48.1882,16.327484210526315,13,5,4d4aedfe183f224b947ceda8,Hello Vietnam,48.191229052622184,16.327118548185478,Vietnamese Restaurant
2156,1015,48.2082,16.460115789473686,1,0,4d4d2f8ea7f86ea820cc33de,Lobauerhof,48.20636013400449,16.45697862845654,German Restaurant
1222,81,48.1582,16.386431578947366,2,1,4d4d3f34b887a1cd0896b9a0,Viola Pub,48.162083276935455,16.388398954830766,German Restaurant
1186,45,48.1482,16.31274736842105,10,0,4d4d96af773aa09072633a55,Pizza Plus,48.15134324225141,16.315460713907818,Italian Restaurant
1602,461,48.1882,16.415905263157892,13,5,4d4dd85380cb6dcbf4881501,La Crepette,48.187794256634035,16.413554366201026,French Restaurant
2764,1623,48.2582,16.40116842105263,25,20,4d4fea4a3626a0939c1115bd,Goldene Ähre,48.26075246408354,16.399950196492682,Asian Restaurant
1936,795,48.2082,16.327484210526315,27,17,4d515e62747f6dcb8a24c0d4,Ha Long,48.208925,16.332472,Vietnamese Restaurant
1858,717,48.1982,16.386431578947366,30,20,4d516c84c305b60c74f88f1e,Rennweg Asia Wok Stand,48.19457520110343,16.385010153721495,Asian Restaurant
153,153,48.2004609293324,16.34559027938667,27,22,4d5174469d493704e20bcd39,Khaled Und Sonja,48.200559999999996,16.345060999999998,South American Restaurant
1227,86,48.1582,16.460115789473686,1,0,4d52aadf07b1a090ee43153c,Asia Restaurant zum Goldenen Fisch,48.160396623965305,16.462765683114522,Asian Restaurant
1914,773,48.2082,16.31274736842105,13,8,4d52eac8bd6ff04d1901010d,Iron Chef,48.21250999947112,16.3142395874625,Asian Restaurant
2297,1156,48.2182,16.371694736842105,50,14,4d552f52a05c3704bc46b587,Das Heinz,48.21421711727389,16.371367338902832,Austrian Restaurant
2626,1485,48.2382,16.35695789473684,19,14,4d558ba216a6b60cdb494cf8,Tokyo Running Sushi,48.237085,16.3539221,Sushi Restaurant
1418,277,48.1782,16.415905263157892,17,8,4d57cfd88147f04d18e99a54,Pizzaria Caprese,48.174333000000004,16.417226,Italian Restaurant
2393,1252,48.2182,16.40116842105263,35,10,4d59733223e0a09366ee4449,Guiseppe,48.217911587790155,16.400716759793383,Italian Restaurant
357,357,48.2004609293324,16.36832551008701,41,23,4d5a9571296d5481e71965b1,Tekaway Sushi,48.2024,16.369514900000002,Sushi Restaurant
123,123,48.19593907066761,16.338851825876482,27,19,4d5acb17fe7c224b5ecc86b5,Mr. Lee,48.19675395362545,16.33770097689876,Sushi Restaurant
1194,53,48.1482,16.31274736842105,10,8,4d5acda84d9a721e5ac04f0e,Dragon town,48.15089153173348,16.31500451099038,Chinese Restaurant
1274,133,48.1682,16.371694736842105,7,5,4d5d2cd5524fa35dcc815135,Castle Restaurant,48.170046610573685,16.370797230005643,Middle Eastern Restaurant
600,600,48.21046092933239,16.360327779318148,18,5,4d5ec89c196ba093a7f00556,Irodium,48.212334316470994,16.362033791008884,Greek Restaurant
2199,1058,48.2182,16.342221052631572,37,3,4d63aa261a83f04dadac752b,One Sinn,48.21566299,16.34554668,Chinese Restaurant
2742,1601,48.2582,16.371694736842105,7,6,4d661ba4c8dbec4a7f80ebcc,Kebab Ephesos,48.257484999999996,16.366822,Doner Restaurant
1297,156,48.1682,16.430642105263153,7,5,4d67d4639792b1f7df48421f,"Chinan Restaurant ""Sun""",48.16975387398327,16.427899587879722,Asian Restaurant
1294,153,48.1682,16.430642105263153,7,2,4d69589230a7236abc6374ac,Chinese Gehringergasse,48.169773485850584,16.427976615629266,Chinese Restaurant
2769,1628,48.2582,16.415905263157892,3,0,4d6bd06e79476dcb3b0b8068,EBI All You Can Eat Sushi & Grill,48.26040472344107,16.410675181564926,Japanese Restaurant
964,964,48.2159390706676,16.3535873519697,20,13,4d6bfd5371d3721e8a9c9806,Asia World,48.21533085405613,16.3510353745996,Asian Restaurant
1551,410,48.1882,16.371694736842105,30,1,4d6e809e922f8cfaedba4afe,Restaurant Böhmerwald,48.187413261022776,16.377257924691705,Czech Restaurant
1993,852,48.2082,16.342221052631572,50,47,4d6ff0e0359937040dee159d,Ungar Grill,48.204260854773004,16.342156408771455,Hungarian Restaurant
2716,1575,48.2482,16.445378947368418,11,5,4d70de5068276ea8da988d90,Selam Restaurant,48.25036405,16.439606,Mediterranean Restaurant
388,388,48.19593907066761,16.36832551008701,38,13,4d70e7c476f3f04dde5e6348,rice&noodles to go,48.19398564391175,16.367268562316895,Asian Restaurant
2459,1318,48.2282,16.342221052631572,31,8,4d713c8c7c44a35dd7f5237a,Afrodite,48.226696000000004,16.346129,Greek Restaurant
984,984,48.22046092933239,16.36032843750398,15,13,4d7273378e12b1f714643b05,Pizza Pronto,48.220544,16.360193,Italian Restaurant
2760,1619,48.2582,16.40116842105263,25,16,4d73bb1d5f0037040cfcf3a0,"Restaurant Akropolis, 21.",48.259758000000005,16.395938,Greek Restaurant
1296,155,48.1682,16.430642105263153,7,4,4d73c369946b6dcb08ab507a,Mr. Chen,48.16569261600311,16.431157037545006,Asian Restaurant
2409,1268,48.2182,16.40116842105263,35,26,4d7679661d7ab1f7278c8bfb,Grill-Park,48.217919206462895,16.400732837458516,Greek Restaurant
1160,19,48.1382,16.327484210526315,5,1,4d767bb80dbb6dcb88eceb6f,Jadewald,48.138917,16.326010999999998,Chinese Restaurant
2656,1515,48.2382,16.386431578947366,25,14,4d77c358d10fa143132acf3d,Bani Bär - WOK & Nudeln,48.24040794498268,16.385962251625102,Asian Restaurant
2673,1532,48.2382,16.430642105263153,5,0,4d7914f6a56e370484437667,Saloon Donauplex,48.24214541326445,16.433628166668036,American Restaurant
608,608,48.21046092933239,16.360327779318148,18,13,4d7b6828ea35236a4eba4423,Asia Vienna,48.211453000000006,16.362393,Asian Restaurant
1685,544,48.1982,16.327484210526315,27,24,4d7b77da7498a1cd82696afc,Jasmina,48.19959675153029,16.327540007409002,Italian Restaurant
1369,228,48.1782,16.371694736842105,41,6,4d7bc4df34f7721ebad4b825,Sakura,48.1780223,16.377077,Asian Restaurant
810,810,48.205939070667604,16.375064621423412,50,28,4d7bcecbda568cfa2ecf58ff,la piazza,48.20384284783899,16.37549782714057,Italian Restaurant
211,211,48.1982,16.35695789473684,28,25,4d7cf8f8645ea35dd9664ff8,Zhong Hua,48.19850102094125,16.35717348845386,Chinese Restaurant
1563,422,48.1882,16.371694736842105,30,13,4d7d1b7786cfa143a216d7a0,Restaurant Sarajewo,48.1854048316984,16.37104048192625,Eastern European Restaurant
1917,776,48.2082,16.31274736842105,13,11,4d7e7f973633a0930bab7f9d,Chinarestaurant Ciao,48.210372,16.307462,Asian Restaurant
1332,191,48.1782,16.327484210526315,21,15,4d80feac577eb1f771fab2d3,Konoba Bellini,48.17472095994649,16.326091225233323,Mediterranean Restaurant
1293,152,48.1682,16.430642105263153,7,1,4d8254e72ad9a143c59e8528,Weinschenke Augustin,48.1666678178309,16.42779599039925,German Restaurant
1648,507,48.1982,16.31274736842105,21,8,4d85e271f9f3a1cde165d464,Shang Li,48.197586734096326,16.31871754608833,Chinese Restaurant
1562,421,48.1882,16.371694736842105,30,12,4d861e1a9324236a997ddc0e,XxXL Grill Restaurant,48.18945043886848,16.366588189805846,Middle Eastern Restaurant
2489,1348,48.2282,16.35695789473684,42,7,4d8b250f76e1236a6e152843,Orlik,48.22695552230831,16.3621081588028,Austrian Restaurant
2759,1618,48.2582,16.40116842105263,25,15,4d8c98dc5091a1cdfe816301,Floridsdorfer Stuben,48.25991784383878,16.3958157820753,Austrian Restaurant
2577,1436,48.2282,16.40116842105263,8,5,4d8cd205d00a6ea82e81934f,ilkim Kebab,48.2242449822329,16.402048840003552,Doner Restaurant
1554,413,48.1882,16.371694736842105,30,4,4d8ceac8fa9437043f02dcc5,Pizzeria-Ristorante Venezia,48.188414856820344,16.374688658890527,Italian Restaurant
311,311,48.19593907066761,16.360327121491935,41,28,4d8de404ca75b60c73bff1a8,Il Buon Gusto,48.197353699833634,16.361717919967578,Italian Restaurant
2774,1633,48.2582,16.445378947368418,2,0,4d8de791d4ec8cfacfb86489,Asia Restaurant Ying,48.25470059595993,16.443539050322705,Asian Restaurant
878,878,48.205939070667604,16.383061694366063,28,22,4d90c2d86174a0931e55fae3,Running Sushi,48.20453584275965,16.38366001496599,Japanese Restaurant
1409,268,48.1782,16.40116842105263,1,0,4d930c10b3273704db058f25,Geiselbergstube,48.17516,16.397002,German Restaurant
478,478,48.205939070667604,16.33885116805027,14,1,4d93760b5cf5236a71f963a3,Keboss Kebab & Burger,48.20414755552017,16.33740001737722,Doner Restaurant
1338,197,48.1782,16.342221052631572,12,0,4d945cb9cf46224bc2399294,Gasthaus Alt Wien,48.18085767378286,16.341797448822224,Austrian Restaurant
1153,12,48.1382,16.283273684210524,5,2,4d947a175241a1cd10e45f4b,Okiru Running Sushi,48.1376688069017,16.278031913609368,Asian Restaurant
176,176,48.19593907066761,16.34559027938667,28,18,4d971f67b188721e11ff0637,Restaurant Mythos,48.19441226217024,16.3462554139747,Greek Restaurant
1308,167,48.1782,16.283273684210524,8,5,4d9799d02bd6f04d90885450,piccolino,48.181771422266166,16.285629357300866,Italian Restaurant
1896,755,48.1982,16.519063157894735,2,0,4d984abf647d8cfa976beb3d,Jade Wald,48.2014495267216,16.518927506716814,Chinese Restaurant
2164,1023,48.2182,16.31274736842105,7,3,4d989fefc19fb60c6675b265,Pizzeria Cipollino,48.21790553386548,16.319075387030967,Italian Restaurant
1899,758,48.2082,16.268536842105263,1,0,4d98a381a2c6548117d7f553,Kleines Schutzhaus Rosental,48.21025157004377,16.269824,Austrian Restaurant
2222,1081,48.2182,16.342221052631572,37,26,4d999b8e942ba093df839e8c,Titoni,48.21769628852994,16.33662846934656,Sushi Restaurant
932,932,48.2182,16.35695789473684,11,10,4d99ac1997d06ea84d7f4e0b,iron chef,48.218096,16.358449,Chinese Restaurant
2194,1053,48.2182,16.327484210526315,28,26,4d99df89daec224b5718693e,Jois,48.215722,16.328042,Mediterranean Restaurant
2220,1079,48.2182,16.342221052631572,37,24,4d9e3b8c0efda093c0f5ac28,Kebap Kral,48.21709345757536,16.341577881357402,Falafel Restaurant
1145,4,48.1282,16.31274736842105,6,3,4da06fc7c41ca143125d48a3,Godfather of Kebab,48.13190526318122,16.316090114901385,Eastern European Restaurant
1156,15,48.1382,16.29801052631579,1,0,4da2e040c6e96ea8d4f3dc5d,Lichtenstöger,48.142087754093644,16.295671940541688,Austrian Restaurant
1219,78,48.1582,16.327484210526315,3,1,4da33badb521224bd1d419ee,Hui-Feng,48.15640045609208,16.321323680044053,Asian Restaurant
2761,1620,48.2582,16.40116842105263,25,17,4da46e822939b1f72d1f3257,Da Giovanni,48.25746344042776,16.39721550409378,Italian Restaurant
1352,211,48.1782,16.35695789473684,13,2,4da58287a86e226c26b8136e,Lucky Box,48.17794499,16.35820362,Asian Restaurant
1479,338,48.1882,16.342221052631572,26,5,4da5d6d16a23904516d3e273,Restaurant Donaudelta,48.18932283220232,16.337674677304722,Romanian Restaurant
1229,88,48.1582,16.474852631578948,2,1,4da5e1f0fa8cf9bcc888ff0e,Schloss Restaurant Thürnlhof,48.15831264818811,16.47580469190322,Austrian Restaurant
2713,1572,48.2482,16.445378947368418,11,2,4da839f3fa8c4175d0b3b78d,Vogelbauer,48.2452759176266,16.440372808505646,German Restaurant
1149,8,48.1382,16.2538,1,0,4da975bb6a2303012ef48fd5,"China Restaurant ""Stammhaus""",48.1379489238286,16.257717261789182,Chinese Restaurant
2593,1452,48.2282,16.460115789473686,8,7,4da9ba2843a1128196e4df9b,China-Restaurant Hua Qiang,48.22451193362853,16.463619224968447,Asian Restaurant
1843,702,48.1982,16.386431578947366,30,5,4da9c3e01e72c1ab9be39c3a,Elianto,48.19925070746368,16.387371317498687,Italian Restaurant
406,406,48.19593907066761,16.36832551008701,38,31,4dac2560cda1652a2bb106fd,Ischia,48.195305975590095,16.368364507047744,Mediterranean Restaurant
2210,1069,48.2182,16.342221052631572,37,14,4dad6da74df0522cc55973eb,Pizzeria Toscana,48.214493,16.345914,Italian Restaurant
2723,1582,48.2482,16.460115789473686,2,1,4dad9ec243a18e541319b2bc,Su Thai Grill Imbiss,48.250765,16.455934,Thai Restaurant
1492,351,48.1882,16.342221052631572,26,18,4daf0a4f4b2290767873ebcd,"Gaststätte ""Zur Fabrik""",48.187290000000004,16.33973,Austrian Restaurant
2743,1602,48.2582,16.386431578947366,1,0,4db169974df03036e8cd32e4,Yuli,48.25816916181362,16.39258513907789,Chinese Restaurant
423,423,48.2004609293324,16.3750639635972,14,10,4db1ac8d4b22ba776d88149e,kent gerngross,48.19987125501338,16.376070356666027,Middle Eastern Restaurant
2422,1281,48.2182,16.430642105263153,2,0,4db3f0b6f7b121c29f41ab99,Augustin-Schenke,48.21945497257529,16.42711308134398,German Restaurant
1870,729,48.1982,16.40116842105263,25,2,4db7f2efcda10515411d0498,Jiang,48.20096055702147,16.397651563554486,Chinese Restaurant
1397,256,48.1782,16.371694736842105,41,34,4db828b3ced722c9a38efd2f,Lucky Noodles,48.17700408457509,16.376699209213257,Japanese Restaurant
2724,1583,48.2482,16.474852631578948,1,0,4dba9f5943a1b9dbe87d9df7,Pizzeria Campanile,48.24534159838059,16.471923016087242,Italian Restaurant
2594,1453,48.2282,16.489589473684212,1,0,4dbc10b9316a78b90c222d62,Restaurant Hopfengartl,48.228,16.489175,German Restaurant
548,548,48.21046092933239,16.353588010155534,24,10,4dbc8baecda109aa6c9ee9bb,Puerta del Sol,48.211611517136966,16.351522173038706,Tapas Restaurant
1621,480,48.1982,16.268536842105263,4,3,4dbd3f5e4b222080d3a4ed1e,Pizzeria Per Sempre,48.199841,16.263707,Italian Restaurant
2389,1248,48.2182,16.40116842105263,35,6,4dbd9e194b222080d3ad994a,"Gasthaus ""Zum mährischen Spatzen""",48.22186961107765,16.399519969054936,Austrian Restaurant
2200,1059,48.2182,16.342221052631572,37,4,4dc2d408fa7608e86fe2cf7d,Kebab-Stand Alserstraße,48.217076224993065,16.34223771859828,Doner Restaurant
1405,264,48.1782,16.386431578947366,5,1,4dc2e3e422717802a731d0f4,Pizzeria Camorra,48.1748819518366,16.38243373314707,Italian Restaurant
1898,757,48.2082,16.2538,1,0,4dc41868d4c0ad9c0f65528f,La Mama,48.212290651157616,16.25238021584391,Italian Restaurant
594,594,48.205939070667604,16.353588010155534,33,32,4dc68cfdae608779d1566681,Bamboo Restaurant,48.20556204029179,16.3566026822702,Asian Restaurant
93,93,48.2004609293324,16.338851825876482,23,12,4dc70a2145dd26455298ddab,Kebab Stand Nr. 2,48.20109419613479,16.337485313415527,Doner Restaurant
2524,1383,48.2282,16.371694736842105,42,0,4dca9f9ce4cde9e42f8a563a,Saphire Restaurant,48.23070678186814,16.37092243826103,Falafel Restaurant
805,805,48.205939070667604,16.375064621423412,50,23,4dcab05c2271a5cb22512466,Bastei Beisl,48.2064861054851,16.377877447104385,Austrian Restaurant
1370,229,48.1782,16.371694736842105,41,7,4dce62c145ddbe15f886f267,Restaurant zum Goldenen Fisch,48.17584890283538,16.37072504953393,Asian Restaurant
90,90,48.2004609293324,16.338851825876482,23,9,4dcfde177d8b975f18f19039,Kebab Stand Nr. 6,48.2019380030383,16.337313652038574,Doner Restaurant
1683,542,48.1982,16.327484210526315,27,22,4dd27a73e4cd7f7178c9c877,Gradska Kafana,48.20077334457997,16.332794951120903,Mediterranean Restaurant
262,262,48.2004609293324,16.360327121491935,29,8,4dd548a3b0fb7a332e7cc428,Natsu Sushi,48.20258933861575,16.361354473677412,Sushi Restaurant
126,126,48.19593907066761,16.338851825876482,27,22,4dd95b30ae60680f1535fbbc,Zum Hagenthaler,48.194124625766925,16.34025073649028,Austrian Restaurant
1092,1092,48.22046092933239,16.383061036180223,13,5,4dda2c8752b1a5c6448d237c,Simcha,48.221384497391526,16.381478507564154,Eastern European Restaurant
2183,1042,48.2182,16.327484210526315,28,15,4dda5151fa76ad96d168756e,Marienbeisl,48.21863250968654,16.3248011469841,Austrian Restaurant
1304,163,48.1782,16.283273684210524,8,1,4dda8c0ed22d38ef43319990,La Grappa,48.177501,16.284385,Italian Restaurant
1028,1028,48.22046092933239,16.368324194074965,11,10,4ddd4092b0fba481fc94811f,Pizzeria Riva,48.2207686993139,16.367793594936334,Italian Restaurant
1435,294,48.1882,16.268536842105263,7,6,4dde82217d8bb03c06b56d4f,Gasthaus Zum lustigen Radfahrer,48.189946329787986,16.271076462342066,German Restaurant
2398,1257,48.2182,16.40116842105263,35,15,4de0d7d0d164e323c7b5e068,Salamucci,48.21729828691413,16.395969912254337,Italian Restaurant
1166,25,48.1382,16.386431578947366,2,0,4de525708877bcb6868448b7,Gasthof Unsinn,48.139299559085714,16.3830021972927,Austrian Restaurant
2464,1323,48.2282,16.342221052631572,31,13,4de8f5bf227148fcea3c3176,san ha,48.227887725731414,16.338008310027313,Asian Restaurant
2230,1089,48.2182,16.342221052631572,37,34,4decb44022713dd973cbde0e,Pizzeria Ristorante Toscana,48.214591,16.345660000000002,Italian Restaurant
2783,1642,48.2682,16.40116842105263,8,2,4df1296bd22dbe02b9bbd148,Bierwerkstatt,48.267754970838006,16.39886498451233,German Restaurant
1202,61,48.1482,16.40116842105263,2,0,4df5a624b3ad9dc8c19ef85f,Kurparkdiele,48.151757405349684,16.402019262313846,Austrian Restaurant
2403,1262,48.2182,16.40116842105263,35,20,4df669fb62e141c907619c04,Chimichurri Würstelstand,48.216253,16.397444,Argentinian Restaurant
2670,1529,48.2382,16.415905263157892,5,2,4df83bb818506f77560ae60f,Restaurant Donauturm,48.240215963968886,16.410020222644178,Austrian Restaurant
430,430,48.19593907066761,16.3750639635972,5,3,4dfb34cf628460789532789f,Zhany Asian Restaurant,48.197492271491654,16.375341271412534,Asian Restaurant
1714,573,48.1982,16.342221052631572,50,26,4dfb74b1e4cd5679360904d2,Mia Cucina Ristorante,48.19772987794963,16.347670375944972,Italian Restaurant
1319,178,48.1782,16.327484210526315,21,2,4dff8c0ec65b104689632e52,Marengo,48.17861374888786,16.32529098555599,Eastern European Restaurant
91,91,48.2004609293324,16.338851825876482,23,10,4dffbd7e52b10e7477989dcb,Lili Box,48.202071999999994,16.337429,Asian Restaurant
2567,1426,48.2282,16.386431578947366,6,1,4e00fb7b52b1ac66aac8d318,Augarten Grill,48.22655392777333,16.381904012934097,Mediterranean Restaurant
2602,1461,48.2382,16.31274736842105,3,0,4e03929018a877730b7451e6,Wirtshaus Steirerstöckl,48.240100019124135,16.309963265929643,Austrian Restaurant
2184,1043,48.2182,16.327484210526315,28,16,4e072a9a52b165b7d7ac7f2c,Atlantis,48.219066999999995,16.332452,Asian Restaurant
2803,1662,48.2882,16.386431578947366,3,0,4e07590b7d8b2a018059ef2a,China Restaurant,48.2879429956829,16.3860200427449,Chinese Restaurant
1385,244,48.1782,16.371694736842105,41,22,4e09ac2ed4c03ae0b9d7ef38,China Restaurant Lucky Friend,48.181203510846956,16.37268827765909,Chinese Restaurant
2081,940,48.2082,16.371694736842105,50,35,4e0a09a0b0fbba5eee2da444,Ristorante Sole,48.20433180160437,16.37207533893325,Italian Restaurant
2625,1484,48.2382,16.35695789473684,19,13,4e0b1346d22dbfe2dd78e991,Restaurant Sun,48.241896058790005,16.353746135311056,Chinese Restaurant
1460,319,48.1882,16.31274736842105,4,3,4e0c8755e4cdc8c1cde98092,Da Corrado,48.19026228125743,16.314991439415138,Italian Restaurant
1628,487,48.1982,16.29801052631579,14,2,4e0f7bb9aeb7a5b33ef43159,Mykonos,48.2002904,16.3037362,Greek Restaurant
516,516,48.205939070667604,16.345590937212883,18,4,4e120fd17d8b4d5613e03937,ChinaBar,48.20433305050503,16.346469118517245,Asian Restaurant
1458,317,48.1882,16.31274736842105,4,1,4e133ef3483bee47ff41aff3,Pizzeria San Giovanni,48.190317,16.316895000000002,Italian Restaurant
386,386,48.19593907066761,16.36832551008701,38,11,4e1447f6d16447c40d16646c,Oliviers & Co,48.196675,16.365308,French Restaurant
149,149,48.2004609293324,16.34559027938667,27,18,4e159446b61c42e7c54c0fec,Cafe-Restaurant Arnes,48.20193,16.344276,Greek Restaurant
2483,1342,48.2282,16.35695789473684,42,1,4e15e53caeb733245ed364cc,Feuervogel,48.22501746151675,16.358839115314098,Russian Restaurant
1438,297,48.1882,16.283273684210524,3,2,4e1753cc88777e9647657cf6,China Mann,48.187579,16.283091,Chinese Restaurant
2582,1441,48.2282,16.415905263157892,4,2,4e18cd9cd4c062b044ec40bc,Hua Long Noodles,48.22975137,16.41121028,Asian Restaurant
2396,1255,48.2182,16.40116842105263,35,13,4e199800aeb7eb0120d627ed,Al Capone,48.215339422467835,16.39869559234356,Asian Restaurant
99,99,48.2004609293324,16.338851825876482,23,18,4e1af52e1f6e88001e43bf02,West Bahn Henol,48.20191,16.339776,Eastern European Restaurant
2678,1537,48.2382,16.445378947368418,1,0,4e1c237caeb75875fbc0e51b,Happy Bär,48.23775245757202,16.439810290837908,Chinese Restaurant
2498,1357,48.2282,16.35695789473684,42,16,4e1ee16da809eb325ff3ac40,Asia Wok Restaurant Jackie Chan,48.229840993879826,16.35428667068434,Chinese Restaurant
1314,173,48.1782,16.29801052631579,4,3,4e21655952b1f82ffb9ddae7,Erzherzog Johann Stüberl,48.17972,16.303751000000002,German Restaurant
2748,1607,48.2582,16.40116842105263,25,4,4e21bbfaae6015b212a8bc28,China Restaurant Tien Tu,48.25930524320721,16.395865871692816,Chinese Restaurant
2560,1419,48.2282,16.371694736842105,42,36,4e2552181f6ee0c70a5e0ce7,Yoi,48.22972771344679,16.367568195181878,Sushi Restaurant
1141,0,48.1282,16.283273684210524,1,0,4e26a75e628436bf4d693823,China-Restaurant Hua Dali,48.13202667236328,16.280023574829098,Chinese Restaurant
1330,189,48.1782,16.327484210526315,21,13,4e2b0f2f8877b69d49dc1529,Lilis Noodlesbox,48.1750843612861,16.330296739133967,Asian Restaurant
2584,1443,48.2282,16.430642105263153,1,0,4e3811eee4cdedd4a1b7d051,Echte Kiste Vor Holland,48.225794,16.429872,African Restaurant
2423,1282,48.2182,16.430642105263153,2,1,4e3814351838d056d278abaa,The One And Only Penber Reef,48.220775,16.4258,American Restaurant
811,811,48.205939070667604,16.375064621423412,50,29,4e39922e7d8b6bed20b01949,Wolfsrudel Buffet,48.20386,16.374699,Brazilian Restaurant
1220,79,48.1582,16.327484210526315,3,2,4e39a17d18380f8ec552b663,Kebab - Pizza Maturka,48.1626227,16.326504999999997,Fast Food Restaurant
2686,1545,48.2482,16.342221052631572,4,1,4e3fdac562e19d61098cdd5d,Chi,48.245369374600536,16.343187402114324,Chinese Restaurant
2189,1048,48.2182,16.327484210526315,28,21,4e416fa0d22d6fdb87dfd207,Restaurant Grill King,48.21780119302061,16.3297601472742,Eastern European Restaurant
2635,1494,48.2382,16.371694736842105,11,4,4e425e15b61ca5ba3b24b95a,Noodle Jägerstrasse,48.23693480801268,16.372143681485696,Asian Restaurant
1627,486,48.1982,16.29801052631579,14,1,4e456ea57d8b91a065810823,AKAZ Japanisches Restaurant und Sushibar,48.197533,16.297029000000002,Japanese Restaurant
2545,1404,48.2282,16.371694736842105,42,21,4e4a4adf14951b66ae8c09c0,China Redtaurante Grand,48.22828120340723,16.371143018442154,Asian Restaurant
1891,750,48.1982,16.40116842105263,25,23,4e4ba33db0fbbc2182ae4051,La Donna,48.19796687376835,16.39931017722827,Middle Eastern Restaurant
2809,1668,48.2982,16.327484210526315,1,0,4e4ba59dd164d2bc73af49df,Pizzeria Castelnuovo,48.29490056812807,16.32851417424441,Italian Restaurant
2679,1538,48.2382,16.474852631578948,1,0,4e5153588877402b06de112f,Klee Wok,48.23732461421567,16.477242757907653,Japanese Restaurant
1908,767,48.2082,16.31274736842105,13,2,4e529709e4cdb70cc52f9263,Retsina,48.21240107187332,16.313537694660326,Greek Restaurant
2534,1393,48.2282,16.371694736842105,42,10,4e52a4fdd1643fe9163dedaa,Das Styria XX,48.230588301973285,16.376053859062722,Austrian Restaurant
1403,262,48.1782,16.371694736842105,41,40,4e57cef762e126c911a45898,Pizzeria Ristorante Bernado,48.17842483520508,16.372987747192386,Italian Restaurant
1568,427,48.1882,16.371694736842105,30,18,4e5cb9d57d8bfb5e36bab4d9,Djakaly,48.18898,16.371243,African Restaurant
364,364,48.2004609293324,16.36832551008701,41,30,4e60c08452b1260c125d7686,Honobono,48.198859999999996,16.368151,Asian Restaurant
2470,1329,48.2282,16.342221052631572,31,19,4e65f84345ddda352b0f61bf,oan,48.22499868147069,16.34444454011103,Mediterranean Restaurant
1290,149,48.1682,16.415905263157892,7,5,4e68996f1838d179b10cf008,Leaders American Diner,48.1674862536028,16.421784170558094,American Restaurant
1295,154,48.1682,16.430642105263153,7,3,4e734b4f814db130a5e671d1,Asia Restaurant Li,48.16870439345818,16.424273550510403,Asian Restaurant
721,721,48.205939070667604,16.368324852260802,28,17,4e75080fae60c32850f356af,Il melograno,48.20627448258225,16.368404722082392,Italian Restaurant
1859,718,48.1982,16.386431578947366,30,21,4e7624012271ffa4e73e82b5,Wok Restaurant,48.195178999999996,16.384583984192513,Chinese Restaurant
1457,316,48.1882,16.31274736842105,4,0,4e7c7e387d8b55fc47153827,Pizzeria Da Corrado,48.189807053560436,16.311968417667895,Italian Restaurant
490,490,48.205939070667604,16.33885116805027,14,13,4e7f5eedbe7b3ac644daae07,Cafe U6,48.204353999999995,16.338668,Arepa Restaurant
854,854,48.21046092933239,16.383061694366063,10,8,4e8591552c5b1f256f0526cb,Kantine,48.210642493486155,16.382746842626034,German Restaurant
1356,215,48.1782,16.35695789473684,13,6,4e872d3029c248230cc86eec,Cafe Lala,48.18188016651774,16.358537690046337,Eastern European Restaurant
1181,40,48.1482,16.283273684210524,3,1,4e8743eaf5b916b3e0e9d271,Pomod'oro,48.14736827149507,16.283660080893764,Italian Restaurant
115,115,48.19593907066761,16.338851825876482,27,11,4e895fc12c5bc023fcc69391,TrattoVia,48.1968274387251,16.33801183287316,Italian Restaurant
1911,770,48.2082,16.31274736842105,13,5,4e8a0944f790b7e9ce94311d,Cafe Restaurant Sudar,48.21001971693156,16.31312411200356,Eastern European Restaurant
1885,744,48.1982,16.40116842105263,25,17,4e8c39569a52f194de26daf7,Schrammel & Schrammel,48.200853,16.399326000000002,German Restaurant
675,675,48.21046092933239,16.368324852260802,35,6,4e8d8a74775bde318a84fc16,Beaulieu,48.21084115407186,16.365328655319043,French Restaurant
2603,1462,48.2382,16.31274736842105,3,1,4e99ba5ef79022d7ec9fb0ef,Esstisch Gerrit Eltern zum Schnitzel Essen,48.23752109137736,16.315086641918434,German Restaurant
2647,1506,48.2382,16.386431578947366,25,5,4e9bd78cbe7bc875ab0942d9,Xtanbul,48.2376322376114,16.381085657597822,Turkish Restaurant
366,366,48.2004609293324,16.36832551008701,41,32,4e9c114393ada5036df1a3df,Kaiser Nudeln,48.199993,16.368138000000002,Japanese Restaurant
693,693,48.21046092933239,16.368324852260802,35,24,4e9c609a7ee539c857ef1f29,Gustl Bauer,48.21156204302173,16.368747325812418,Austrian Restaurant
2751,1610,48.2582,16.40116842105263,25,7,4e9ea11f6da161b08da20be7,Asia Restaurant,48.2587611,16.399465300000003,Asian Restaurant
2694,1553,48.2482,16.371694736842105,4,1,4ea59d53dab47252714135d3,Pizzeria Piazetta,48.24684719839639,16.374703096304124,Italian Restaurant
1619,478,48.1982,16.268536842105263,4,1,4eac060b29c2152debfb46eb,Taverna Agora,48.201032140644884,16.264230132001632,Greek Restaurant
1599,458,48.1882,16.415905263157892,13,2,4eac1fb602d52c460b874352,Gasometer Noodle House,48.18543596758222,16.4180294100227,Chinese Restaurant
407,407,48.19593907066761,16.36832551008701,38,32,4eb27fcbf5b94483885b519a,Bella More,48.19770862000043,16.367605050277227,Italian Restaurant
1868,727,48.1982,16.40116842105263,25,0,4eb55bf10aaf1abedf4197d9,Erdberger Braustuben,48.19726036814961,16.401490402892552,Austrian Restaurant
1236,95,48.1682,16.29801052631579,2,1,4eb564fcf5b94bd85bcaa15e,Split,48.170419105254794,16.296449092086252,Italian Restaurant
1241,100,48.1682,16.31274736842105,6,4,4eb7d745be7bfc284b4e2c46,Şiran Restaurant,48.165977000000005,16.313482,Mediterranean Restaurant
592,592,48.205939070667604,16.353588010155534,33,30,4eb836f2e5fa17fc87f1709b,Pinocchio,48.20531403522525,16.352735970894066,Italian Restaurant
1852,711,48.1982,16.386431578947366,30,14,4ec249af6c25dfd982bfad9b,Noodles&More,48.19445788555422,16.38664069554764,Asian Restaurant
1163,22,48.1382,16.327484210526315,5,4,4ec500c9d3e3098aeb0d4980,Wok Eck,48.13795942501167,16.324722033584067,Asian Restaurant
2132,991,48.2082,16.386431578947366,50,36,4ec816fe9adf9c7bf3c91a13,El Patio de Nando,48.20391385522144,16.385769277299573,Latin American Restaurant
2447,1306,48.2282,16.327484210526315,9,5,4ed6994499112d6efedb2901,Amore Mio,48.22606401416164,16.329925979897794,Italian Restaurant
2444,1303,48.2282,16.327484210526315,9,2,4eda0e7fb8f7fcd03fd42468,Guang Zhou China Restaurant,48.22397632960072,16.329290456776594,Chinese Restaurant
2172,1031,48.2182,16.327484210526315,28,4,4edd13346da1642c5fe25c0f,Muxxu,48.21914927643082,16.33256504737994,Asian Restaurant
2786,1645,48.2682,16.40116842105263,8,5,4eddd740f5b921398cad7f56,WS Restaurant,48.26817245570256,16.403542150989022,Asian Restaurant
127,127,48.19593907066761,16.338851825876482,27,23,4ee8dde377c83054d9325492,COCOS einfach asiatisch,48.19653901355194,16.338103315654706,Asian Restaurant
1257,116,48.1682,16.342221052631572,19,9,4eea2db9b634ea557a1f36e4,Sunrise Kyoto,48.168136527856795,16.345225053178225,Asian Restaurant
2695,1554,48.2482,16.371694736842105,4,2,4eee05118231688f1f004e17,Sapore D'Italia,48.24746133589768,16.374224165652635,Italian Restaurant
1380,239,48.1782,16.371694736842105,41,17,4ef0db0cd3e3a26712cc3efc,Asia Bistro,48.17442492589907,16.373329606392396,Japanese Restaurant
1660,519,48.1982,16.31274736842105,21,20,4ef1cc1929c2e7e6d1b051c2,Tiryaki,48.19933561776888,16.31770329796076,Middle Eastern Restaurant
1622,481,48.1982,16.283273684210524,4,0,4ef5b216a69dea74f948876e,Gasthaus zum goldenenen Baum,48.19991324650064,16.279479622421913,Eastern European Restaurant
2494,1353,48.2282,16.35695789473684,42,12,4f0448a2c512408c657d2ff8,Spring,48.225729,16.35529,Asian Restaurant
1235,94,48.1682,16.29801052631579,2,0,4f05f663c5128dfdea275e1f,Hetzendorf Wokji - Asia Restaurant,48.16952613756549,16.300577935875033,Asian Restaurant
2158,1017,48.2082,16.474852631578948,2,1,4f0d54a3e4b09cffffaf2584,Nha Hang Duc Hieu,48.210941,16.47806,Vietnamese Restaurant
2437,1296,48.2282,16.29801052631579,1,0,4f0d7c7ae4b0d2af71e4f3c4,Sinohouse,48.2281890408199,16.301898515391493,Asian Restaurant
2790,1649,48.2682,16.445378947368418,3,1,4f12fdd2e4b0865b09282cbc,Chinarestaurant Harmonie,48.267233995275234,16.441194852562873,Chinese Restaurant
2789,1648,48.2682,16.445378947368418,3,0,4f15b136e4b0380206e8921a,Kubeba - קובבה (Kubeba),48.269134,16.440867,Middle Eastern Restaurant
1889,748,48.1982,16.40116842105263,25,21,4f1d42c7e4b0850c86057ada,Pizza Galleria,48.19898984315928,16.395176108685092,Italian Restaurant
318,318,48.19593907066761,16.360327121491935,41,35,4f1da2efe4b0e6badddc7c6a,Nosh/Dionysos,48.1975470009085,16.362029980352315,Greek Restaurant
1653,512,48.1982,16.31274736842105,21,13,4f22ffdbe4b067a32556e9ad,Kod Kuma,48.19553171151635,16.312680496825248,Eastern European Restaurant
2227,1086,48.2182,16.342221052631572,37,31,4f24be90e4b006e5c2880e48,Imbiss Bostan,48.216875430336316,16.341767544773553,Turkish Restaurant
1594,453,48.1882,16.40116842105263,7,4,4f2840c7e4b04e256a5434c2,T-Centro,48.1864476712454,16.403203051163935,Italian Restaurant
411,411,48.19593907066761,16.36832551008701,38,36,4f316ee2e4b0f5735f89d2e2,Sopile,48.19599917062849,16.36641725131593,Mediterranean Restaurant
1215,74,48.1582,16.31274736842105,4,1,4f328c99e4b08cb90d2cdff6,China Master,48.159357,16.311937,Chinese Restaurant
2805,1664,48.2882,16.386431578947366,3,2,4f34f4b5e4b0aa70b2d77dcd,Ost Perle Chinese Restaurant,48.288073,16.385673,Chinese Restaurant
1433,292,48.1882,16.268536842105263,7,4,4f351edfe4b07c0116becdc0,Restaurant Nara,48.18728671028683,16.267123404229288,Asian Restaurant
957,957,48.2159390706676,16.3535873519697,20,6,4f356e98e4b05179958111d6,Panda Imbiss,48.21454,16.351246,Chinese Restaurant
2417,1276,48.2182,16.40116842105263,35,34,4f456b4de4b02a61455b5c08,Stuwereck,48.214273720430754,16.40129806842963,French Restaurant
1929,788,48.2082,16.327484210526315,27,10,4f492fd7e4b0f85d08f2e341,Zov Homolja,48.20867670173682,16.33067097643226,Eastern European Restaurant
2392,1251,48.2182,16.40116842105263,35,9,4f4a70ede4b0eddb53237b15,Santo,48.21888732910156,16.40528678894043,Caribbean Restaurant
1189,48,48.1482,16.31274736842105,10,3,4f4f6265e4b0390eba0a8b7b,Alaturka,48.150709651658346,16.317223112036412,Turkish Restaurant
584,584,48.205939070667604,16.353588010155534,33,22,4f52479be4b0362449f5f22c,Tiger,48.204208255952594,16.353624506664925,Vietnamese Restaurant
425,425,48.2004609293324,16.3750639635972,14,12,4f54a4a6e4b07c31b5c41996,XO Noodles,48.201820580281776,16.37277045744762,Asian Restaurant
2334,1193,48.2182,16.386431578947366,50,1,4f56395ee4b0ac8e544b11df,Pita BOX,48.2187048063424,16.380854639611375,Falafel Restaurant
1893,752,48.1982,16.415905263157892,3,0,4f58ef03e4b0ad7e1633496e,Salvador Bar & Restaurant,48.19971660920263,16.41609218976965,Mexican Restaurant
1381,240,48.1782,16.371694736842105,41,18,4f59f405e4b07f0bf625c125,Lamm,48.177061063142894,16.365873589238397,Doner Restaurant
1578,437,48.1882,16.371694736842105,30,28,4f5a1540e4b05eee2bc8d4d8,asia to go,48.1899101460986,16.375116693122166,Asian Restaurant
2610,1469,48.2382,16.342221052631572,2,0,4f60dc08e4b07f86951600b2,happy noodls,48.24078477921547,16.339835931942133,Asian Restaurant
2636,1495,48.2382,16.371694736842105,11,5,4f64cf0ce4b06b3088a54be4,chinese,48.239496659393424,16.370203916000808,Chinese Restaurant
1361,220,48.1782,16.35695789473684,13,11,4f718277e4b072f676b6903d,Drachen Phönix,48.17459185051896,16.35524661352795,Asian Restaurant
2916,96,48.21046092933239,16.375064621423412,21,15,4f73359de4b0ee7d4719d20b,asian restaurant,48.210553208632916,16.375511595929783,Asian Restaurant
2397,1256,48.2182,16.40116842105263,35,14,4f787044e4b0b9643b4cc0bf,Wasabi Grill Restaurant,48.217924244965154,16.400736147323727,Asian Restaurant
54,54,48.18593907066761,16.36032646402509,4,1,4f7adf5fe4b02f1b2ccde42f,Ristorante Leone d'Oro,48.18489074707031,16.36201286315918,Italian Restaurant
1450,309,48.1882,16.29801052631579,18,11,4f8093b4e4b0b2237c42472c,Asia Express,48.1877828319962,16.30366277280928,Asian Restaurant
894,894,48.21046092933239,16.389801463528677,18,10,4f8464bbe4b08b03b08fd4e2,Cocinoto,48.212263445200186,16.389440563028018,Italian Restaurant
1150,9,48.1382,16.268536842105263,1,0,4f85b737e4b042f37bf581a3,Asia Restaurant Peng,48.13427151329583,16.266555343487447,Chinese Restaurant
1322,181,48.1782,16.327484210526315,21,5,4f8800dee4b0e6f347235515,Yakisoba,48.178872999999996,16.330202,Chinese Restaurant
1171,30,48.1382,16.40116842105263,6,3,4f8afbc3e4b0cec3aca23876,Winzerhof Oberlaa,48.13771902572356,16.399094104616857,Austrian Restaurant
1255,114,48.1682,16.342221052631572,19,7,4f904dc8e4b0d414c3b2256c,Sunrise BBQ,48.168187114967566,16.345759283614463,Asian Restaurant
2804,1663,48.2882,16.386431578947366,3,1,4f913997e4b048074f33126f,XU Asia Restaurant,48.28695231406747,16.383376200062642,Asian Restaurant
1404,263,48.1782,16.386431578947366,5,0,4f92ab49e4b0e29f544ae338,Carpatia - Alimente Românești,48.18107603660768,16.389256961427133,Eastern European Restaurant
1212,71,48.1582,16.268536842105263,3,2,4f9306d4e4b0949d2094a462,Ambrosia,48.154696991188075,16.2712189077502,Greek Restaurant
948,948,48.22046092933239,16.3535873519697,18,15,4f9a7429e4b0de62666baded,Das grüne Eck,48.2204167805424,16.35258627905451,German Restaurant
1347,206,48.1782,16.342221052631572,12,9,4f9a766ee4b060916757bef0,Adana Sofra,48.182431802508475,16.341119924622436,Turkish Restaurant
1245,104,48.1682,16.327484210526315,5,2,4f9c2235e4b065054c0c58d0,Chen's Cooking,48.166177422867506,16.326673085963392,Asian Restaurant
1283,142,48.1682,16.40116842105263,2,0,4fa54f88e4b0d6f4bc92560f,Asia Grill Böhmischer Prater,48.16915380282065,16.396580865341413,Asian Restaurant
2550,1409,48.2282,16.371694736842105,42,26,4fa5853de4b0c1088e668ac7,Cafe Restaurant Kısmet,48.23142247748461,16.370848312351153,Turkish Restaurant
848,848,48.21046092933239,16.383061694366063,10,2,4fa6b673e4b0c1088f401169,Restaurant Hero,48.210916999999995,16.380009,Middle Eastern Restaurant
1209,68,48.1482,16.519063157894735,1,0,4fabe8c6e4b0f1115f3e2d63,mangabar,48.14804456161364,16.51279141724423,Sushi Restaurant
2192,1051,48.2182,16.327484210526315,28,24,4fae4357e4b021a2bffa4165,Snatch,48.21958669800539,16.326024080156017,American Restaurant
345,345,48.2004609293324,16.36832551008701,41,11,4fb0dafde4b0ddb44ad67c2d,Yumi,48.19963833989237,16.365222949530896,Japanese Restaurant
2753,1612,48.2582,16.40116842105263,25,9,4fbe0552e4b0291b656a5243,Asia Noodles,48.260241081864116,16.403379978790205,Asian Restaurant
2749,1608,48.2582,16.40116842105263,25,5,4fbeb299e4b090690216db34,Kebab am Spitz,48.258301,16.396986,Doner Restaurant
214,214,48.2004609293324,16.35358866798175,28,0,4fbfe2e3e4b0a06f8def77de,Epos,48.20240360097168,16.354284031866282,Turkish Restaurant
2479,1338,48.2282,16.342221052631572,31,28,4fc36ed3e4b07ac9fd5a160b,Pizzeria Santa Maria,48.22615432739258,16.336950302124027,Italian Restaurant
2787,1646,48.2682,16.40116842105263,8,6,4fc4e399e4b0635c5d7ccacc,Pragersaloon,48.2655911159657,16.40222931361862,Turkish Restaurant
2785,1644,48.2682,16.40116842105263,8,4,4fc604ae77167930c37c489e,SIM & MORE GmbH (Business & Event Catering),48.26984029140165,16.400978565216064,German Restaurant
879,879,48.205939070667604,16.383061694366063,28,23,4fc649e3e4b058a77a5db24c,Due,48.206390351514976,16.384101404610654,Italian Restaurant
2600,1459,48.2382,16.268536842105263,1,0,4fcb8b50e4b039f7d455bff4,Klee am Hanslteich,48.2385809521172,16.27159286093286,Austrian Restaurant
1420,279,48.1782,16.415905263157892,17,10,4fcdf482e4b0155a2e9ac2c2,"Baba Döner, Pizza, Schnitzel",48.174560546875,16.416379928588867,Turkish Restaurant
499,499,48.21046092933239,16.345590937212883,21,8,4fcf436ee4b09eb367502a2e,Gasthaus Josefstadt,48.21200007631344,16.34703146322091,Austrian Restaurant
1569,428,48.1882,16.371694736842105,30,19,4fd0f774e4b064b8c3604cd1,Weltmeister Murat,48.18682367117485,16.374064000578876,Turkish Restaurant
950,950,48.22046092933239,16.3535873519697,18,17,4fd8f7c6e4b04a083ce868de,Lili Box Noodles,48.221919467156724,16.35328689463664,Chinese Restaurant
2155,1014,48.2082,16.415905263157892,6,5,4fd9e8a6e4b00bfb274f8e85,Wok-Teppanyki,48.20843,16.421298999999998,Asian Restaurant
1849,708,48.1982,16.386431578947366,30,11,4fdf6e8be4b018d079c8ad89,No. 27,48.20218142362962,16.387240607643637,Szechuan Restaurant
294,294,48.19593907066761,16.360327121491935,41,11,4fdf73ade4b052ec1bc3cc4d,Sixta,48.193978491954105,16.359503567218777,Austrian Restaurant
2930,110,48.211591393998596,16.37337960474291,12,8,4fe34597e4b0efa3a65d1b89,ra'mien go,48.21113462205634,16.37244256596112,Asian Restaurant
1431,290,48.1882,16.268536842105263,7,2,4fe467e9e4b077d44ddf8653,Ristorante da Salvatore,48.190475,16.270798000000003,Italian Restaurant
1671,530,48.1982,16.327484210526315,27,10,4fe72792e4b0af2e67b97191,Efendi,48.197477,16.330424,Turkish Restaurant
2553,1412,48.2282,16.371694736842105,42,29,4fef4a8ce4b0562c836d332a,Stursi's Kochstudio,48.2274167137241,16.36575345878461,Ethiopian Restaurant
316,316,48.19593907066761,16.360327121491935,41,33,4ff1e0dde4b0ef320e04055d,I Love Bubbletea,48.197022,16.360205,Chinese Restaurant
1533,392,48.1882,16.35695789473684,50,33,4ff4934ce4b083d14b1b1b71,Pasham,48.18829914288637,16.351918003192715,Turkish Restaurant
1631,490,48.1982,16.29801052631579,14,5,4ff80bcce4b0956dd56f1aba,Café Restaurant Biedermann,48.196994000000004,16.293765,German Restaurant
2504,1363,48.2282,16.35695789473684,42,22,4ffc01cae4b09736bcf3dfeb,Easy Noodles,48.2258624103658,16.36139191713724,Asian Restaurant
1261,120,48.1682,16.342221052631572,19,13,4ffd20a2e4b07010bfd759a6,Burgenlandstüberl,48.169611927395884,16.344494052816607,German Restaurant
2561,1420,48.2282,16.371694736842105,42,37,4ffd9db3e4b08c5c1bdd516b,Pizzeria Santa Lucia,48.232488000000004,16.371635,Italian Restaurant
2205,1064,48.2182,16.342221052631572,37,9,4ffff73fe4b0ef4b049d8c65,Komagene come again,48.21455054418103,16.33842945098877,Turkish Restaurant
17,17,48.1904609293324,16.353589325448592,19,10,500159e5e4b04575fd9afc7d,Kyoto Japanese Restaurant,48.192436270715554,16.353325363604686,Japanese Restaurant
1675,534,48.1982,16.327484210526315,27,14,50019fd3e4b07ecf511449d5,Galerie Restaurant,48.20165947358576,16.331314717743822,Italian Restaurant
2174,1033,48.2182,16.327484210526315,28,6,5005a997e4b0b02ea252acf7,ADAM'S KEBAB,48.21898905190507,16.32745785821832,Doner Restaurant
1419,278,48.1782,16.415905263157892,17,9,500a4c92e4b0bab9bbbfa029,Guten Morgen Via Wien,48.17946470886078,16.4094600817929,Greek Restaurant
1635,494,48.1982,16.29801052631579,14,9,500c216be4b001d6c5e0ea92,China Restaurant Zhang,48.197766813113844,16.298905572034187,Chinese Restaurant
2780,1639,48.2682,16.386431578947366,3,2,500e8aede4b0ded039ed5743,Polish Shop/Imbiss Bogusia,48.266593,16.392418,Eastern European Restaurant
2711,1570,48.2482,16.445378947368418,11,0,5013d53ee4b0d93bf7ebbc49,Culinari,48.25013869475414,16.44371841182598,Asian Restaurant
1875,734,48.1982,16.40116842105263,25,7,501901d2e4b0f528fa6675a5,Schnitzel König,48.19811955349603,16.394980056707993,Austrian Restaurant
2665,1524,48.2382,16.386431578947366,25,23,50195f62e4b07fbd9314ff14,Kyoto Reisspezialitaten,48.240394595060046,16.385761265258967,Asian Restaurant
2801,1660,48.2882,16.29801052631579,1,0,50197935e4b0c1f51d3f4541,Pizzeria Sophia,48.29029083592989,16.29228670855709,Italian Restaurant
1152,11,48.1382,16.283273684210524,5,1,501a6605e4b0f2d50232c81d,Pasha Kebap Liesing,48.13458143760489,16.28344629050219,Turkish Restaurant
1358,217,48.1782,16.35695789473684,13,8,501c25e7e4b081fddd4da011,İftar Çadırı,48.17518700155093,16.3559494452936,Turkish Restaurant
2475,1334,48.2282,16.342221052631572,31,24,501d6c11e4b04dbcf0f17766,Lins Sushi,48.228215677431955,16.33756301863769,Asian Restaurant
1003,1003,48.2159390706676,16.36032843750398,18,17,501d99fde4b08250804f1c8d,Kebab Pizza Nudel Schottentor,48.214622097023955,16.361819185734593,Doner Restaurant
1348,207,48.1782,16.342221052631572,12,10,5023f6c6e4b053b46e2748f0,Pizzeria Luzzia,48.17979827844208,16.342142699970058,Italian Restaurant
1279,138,48.1682,16.386431578947366,7,3,5023f93de4b0783685a0c6a8,Istambul Simit Haus,48.16749139455839,16.381122300282456,Turkish Restaurant
1892,751,48.1982,16.40116842105263,25,24,50292672e4b0f66ff9980df8,Cafe Kamin,48.199505690918066,16.402993015964586,Turkish Restaurant
1095,1095,48.22046092933239,16.383061036180223,13,8,502a5880e4b0e1a0d3723332,Apple Imbiss,48.22229303078642,16.382290701257052,Sushi Restaurant
2145,1004,48.2082,16.386431578947366,50,49,50315fc4e4b0bf3e6b0606e0,Shaqqour,48.20732,16.38005,Middle Eastern Restaurant
2552,1411,48.2282,16.371694736842105,42,28,503216e4e4b0a9ac00403e74,FU-DU,48.23040008544922,16.371149063110348,Chinese Restaurant
2681,1540,48.2482,16.29801052631579,1,0,50327177e4b0c65b4c4b0cc6,Eischer's,48.25125456994808,16.300066214588536,Austrian Restaurant
2569,1428,48.2282,16.386431578947366,6,3,5034c68ae4b098e3f9933e58,Ristorante Chianti,48.224055759800216,16.388291256613332,Italian Restaurant
1412,271,48.1782,16.415905263157892,17,2,50361750e4b0368b21c21759,Efe Restaurant,48.177792797520866,16.41257889991058,Turkish Restaurant
1262,121,48.1682,16.342221052631572,19,14,5036217ae4b00d1850b35a90,BBQ Asia,48.16785873832661,16.345272068786034,Asian Restaurant
2436,1295,48.2282,16.283273684210524,1,0,5037ace8e4b0361aeafd7c9e,Schutzhaus Heuberg,48.22586,16.28346,Indian Restaurant
2731,1590,48.2582,16.342221052631572,7,4,50392a2ce4b021b47971c5f8,Aragosta,48.257255,16.339135,Italian Restaurant
1890,749,48.1982,16.40116842105263,25,22,503cfbcfe4b0ee9c6cf6cd54,Sultans,48.198171,16.399078,Turkish Restaurant
2204,1063,48.2182,16.342221052631572,37,8,50426432e4b0d3bcedda526a,Trtoni,48.2178169,16.3389496,Japanese Restaurant
1877,736,48.1982,16.40116842105263,25,9,50472a34e4b0bc62e40f78c1,Fulong,48.195948135501396,16.397486857016617,Chinese Restaurant
1650,509,48.1982,16.31274736842105,21,10,5047925be4b0aa9a70aebe8b,Grill Mihailovic,48.199513,16.312839,Eastern European Restaurant
2650,1509,48.2382,16.386431578947366,25,8,5048dbeee4b0e55a967795d2,Hühnerparadies,48.238181973673534,16.386785910938766,Turkish Restaurant
1223,82,48.1582,16.40116842105263,1,0,5049ced2e4b0f62439a86950,Heimkehrer,48.156677,16.405735,German Restaurant
2449,1308,48.2282,16.327484210526315,9,7,504b4672e4b015de61cf6e72,Chineese buffet,48.228572887734536,16.32698983353561,Sushi Restaurant
1646,505,48.1982,16.31274736842105,21,6,504cc1f5e4b050eb2ab41cb9,Kanya,48.19920859458697,16.318579615338226,Asian Restaurant
1383,242,48.1782,16.371694736842105,41,20,505603cde4b017bb26e15bb3,Lucky Noodles,48.1808667684609,16.375441360984627,Japanese Restaurant
2802,1661,48.2882,16.342221052631572,1,0,505c9920e4b0fa2eba218a9a,Hulu,48.291538437729656,16.341428961188377,Asian Restaurant
301,301,48.19593907066761,16.360327121491935,41,18,505d7cd6e4b06d1d2b0c0c1f,Buona Cucina,48.197464000000004,16.361383,Italian Restaurant
2799,1658,48.2782,16.40116842105263,2,0,505d93cee4b038601edc926f,China Restaurant Xiang Dong,48.277911164407044,16.40508080438371,Chinese Restaurant
1273,132,48.1682,16.371694736842105,7,4,505dbe40e4b0d444847a3bc1,Pizzeria Prinzess,48.169062166469324,16.36939287185669,Turkish Restaurant
2376,1235,48.2182,16.386431578947366,50,43,505e0e23e4b03a383aaa127c,Happy Noodles,48.21825638926919,16.391347820571767,Asian Restaurant
2601,1460,48.2382,16.283273684210524,1,0,505f1139e4b023b9a06495d9,Zur Allee,48.2404489703596,16.277584885992148,Austrian Restaurant
1264,123,48.1682,16.342221052631572,19,16,5060318de4b081c35543038a,Cucina Italiana,48.16796325092988,16.345561094329287,Italian Restaurant
821,821,48.205939070667604,16.375064621423412,50,39,5065f7b6e4b08ee4f03bc76c,la creperie,48.20729636192946,16.375136643170634,French Restaurant
1216,75,48.1582,16.31274736842105,4,2,506ac55de4b0e292354394b5,pizzahaus paolo,48.16161727905274,16.31605339050293,Italian Restaurant
2217,1076,48.2182,16.342221052631572,37,21,506ae639e4b0b640b4157e9e,Yao88,48.2164619538156,16.34131957120103,Asian Restaurant
2439,1298,48.2282,16.31274736842105,4,1,506b332de4b08ce6004b8c2c,Weinhaus Artl,48.224696373522384,16.310781171688205,German Restaurant
1482,341,48.1882,16.342221052631572,26,8,5072a19ae4b09fc3c34669dd,'s Bürgerstüberl,48.18809525608618,16.33741311680372,German Restaurant
1267,126,48.1682,16.35695789473684,2,0,507acff9e4b018ca96a0a436,Grillen,48.168646,16.351282,Turkish Restaurant
1927,786,48.2082,16.327484210526315,27,8,5082bc6be4b0290492e1c8b0,Mersin Tantuni,48.21001413511946,16.330162255337857,Turkish Restaurant
2508,1367,48.2282,16.35695789473684,42,26,508438e8e4b02113478ee11b,Asia Restaurant Li,48.231104207210045,16.353185939997704,Asian Restaurant
95,95,48.2004609293324,16.338851825876482,23,14,508aa621e4b0f6951d463c34,6.Stock Küche,48.20080709084447,16.339050612597973,Turkish Restaurant
1847,706,48.1982,16.386431578947366,30,9,508ad2d4e4b01167ea4f3e0a,Pizzastandl,48.20070836102154,16.38531796047182,Italian Restaurant
129,129,48.19593907066761,16.338851825876482,27,25,508e6e54e4b01167ec578370,Ristorante Pierino Rathaus,48.19423885563154,16.33859171549841,Italian Restaurant
2614,1473,48.2382,16.35695789473684,19,2,50aa2444e4b0702a837c0e00,Lemon Green,48.23744201660156,16.353919982910153,Asian Restaurant
1275,134,48.1682,16.371694736842105,7,6,50ae6aefe4b09d9e066eb45b,D&B Kebab - Schnitzel,48.167019,16.373677999999998,Turkish Restaurant
1190,49,48.1482,16.31274736842105,10,4,50ae8b9de4b056d2aa6544c5,88 Noidles,48.15101483903621,16.316728068253685,Asian Restaurant
1495,354,48.1882,16.342221052631572,26,21,50afceca7ab4aecf17c40eca,Duru Kebap 2,48.19038093073229,16.337056159973145,Turkish Restaurant
1873,732,48.1982,16.40116842105263,25,5,50b33ff2e4b03b4498ac5ef1,Al Sarago,48.19662034605719,16.396019046821152,Italian Restaurant
2378,1237,48.2182,16.386431578947366,50,45,50b4d408e4b04d4b639bc869,Praterstern Nudel,48.218067773787546,16.39134407043457,Asian Restaurant
304,304,48.19593907066761,16.360327121491935,41,21,50b6079ee4b0d4ffa6c62fc0,neuDeli,48.197933372156804,16.360702514648438,Indian Restaurant
2746,1605,48.2582,16.40116842105263,25,2,50b75294e4b0a061465f4ce2,Dreikönigshof,48.25732482861373,16.401441192138485,Austrian Restaurant
2637,1496,48.2382,16.371694736842105,11,6,50b9fcdde4b01367273c57e5,Morgenröte,48.23807855608627,16.365027058574938,Chinese Restaurant
2453,1312,48.2282,16.342221052631572,31,2,50c1f586e4b05f48f758372d,Restaurant Wilder Mann,48.22558408279746,16.346610998298544,Austrian Restaurant
701,701,48.21046092933239,16.368324852260802,35,32,50c5d4cde4b076c8e57c419d,Rauschsalon,48.208766,16.367281,German Restaurant
2478,1337,48.2282,16.342221052631572,31,27,50c86c06e4b0e3c221b06ebf,Pommes Rot-Weiss,48.228066528343106,16.34186972780901,German Restaurant
1266,125,48.1682,16.342221052631572,19,18,50c88577e4b09dbd74e73f83,Masala,48.169196,16.342133999999998,Indian Restaurant
1324,183,48.1782,16.327484210526315,21,7,50cb0d3ee4b04f44d361cdcb,Yummy Noodles,48.17748732654336,16.330075050952793,Asian Restaurant
1684,543,48.1982,16.327484210526315,27,23,50cec8d0e4b00d24b0a70152,Börek Evi,48.199201,16.331463,Turkish Restaurant
119,119,48.19593907066761,16.338851825876482,27,15,50cefde1e4b0d07033961fa0,Happy Noodles,48.19668114809179,16.337361585646406,Asian Restaurant
2340,1199,48.2182,16.386431578947366,50,7,50d0a43ce4b05d30a983254b,Quick Wu,48.21772070076809,16.39242053327299,Japanese Restaurant
2468,1327,48.2282,16.342221052631572,31,17,50d3164ee4b0ec19a41c7185,C'est Bon,48.226662,16.34375,Mediterranean Restaurant
277,277,48.2004609293324,16.360327121491935,29,23,50d5ac1fe4b07f4e5ca03097,Kispizzeria,48.20168685913086,16.360536575317386,Italian Restaurant
2137,996,48.2082,16.386431578947366,50,41,50d9b820e4b079544c80bf22,Zum Goldenen Löwen,48.208361211634646,16.392977401059596,Eastern European Restaurant
1218,77,48.1582,16.327484210526315,3,0,50e1797fe4b0a2f216499516,Alaturka,48.1614262640206,16.324792685710314,Turkish Restaurant
2708,1567,48.2482,16.430642105263153,9,6,50e479f9e4b0f6dd2cd57bfa,Fengshui,48.24905971055942,16.43011791373017,Asian Restaurant
2185,1044,48.2182,16.327484210526315,28,17,50e56e99e4b0efc68c881779,Alessandro,48.21507686006108,16.331381241038393,Italian Restaurant
1249,108,48.1682,16.342221052631572,19,1,50efd6c1e4b07a5bc9176e61,Sunrise Gourmet - BBQ Asia,48.1681639242303,16.345221528307132,Asian Restaurant
1281,140,48.1682,16.386431578947366,7,5,50f2a2eae4b09fca8194f008,Orient Palast,48.168865999999994,16.380470000000003,Asian Restaurant
2715,1574,48.2482,16.445378947368418,11,4,50f2a9b0e4b0d94f92390341,city pizza,48.24966430664063,16.444513320922848,Indian Restaurant
1844,703,48.1982,16.386431578947366,30,6,50f708bfe4b0a61af556d783,Kebab,48.19464648222455,16.38555089949837,Doner Restaurant
1942,801,48.2082,16.327484210526315,27,23,50f729cfe4b0c1ab6f0e48b4,Mutfak,48.20660400390625,16.330936431884766,Turkish Restaurant
11,11,48.1904609293324,16.353589325448592,19,4,50f9cd3fe4b05d911f2db9e7,gondola,48.19242477416992,16.354318618774414,Italian Restaurant
1915,774,48.2082,16.31274736842105,13,9,50fab796e4b0ef4b934d9fb9,Asia Nudeln & Sushi,48.212109000000005,16.315754000000002,Asian Restaurant
965,965,48.2159390706676,16.3535873519697,20,14,51000c5be4b0989a4c4d127c,Noodles & Rice,48.21510687860668,16.350554373539612,Fast Food Restaurant
1906,765,48.2082,16.31274736842105,13,0,510079aae4b0871e973dd716,Dönerstand,48.212451,16.312007,Doner Restaurant
2497,1356,48.2282,16.35695789473684,42,15,51090839e4b0f44e47e136a5,Steve's Suppenfabrik,48.23241424560547,16.35518455505371,Afghan Restaurant
2741,1600,48.2582,16.371694736842105,7,5,510cff29e4b0681bacbf6d75,Chen in Nussdorf,48.26039726535088,16.36721442365306,Asian Restaurant
1676,535,48.1982,16.327484210526315,27,15,510ec3a0e4b04d3f9c8f3e5b,Küche,48.197182,16.327764000000002,Mediterranean Restaurant
514,514,48.205939070667604,16.345590937212883,18,2,511251bee4b02db889decc04,Nguyen's Pho House,48.206576338229894,16.348647761584655,Vietnamese Restaurant
1575,434,48.1882,16.371694736842105,30,25,5113a542e4b09a3b1078df80,Gasthaus Weidinger,48.191736577252605,16.369734935047642,German Restaurant
1485,344,48.1882,16.342221052631572,26,11,5113eb23e4b09f1fb4089354,Chinarestaurant Zum Glück,48.190705,16.344524,Asian Restaurant
2182,1041,48.2182,16.327484210526315,28,14,5116f8c5e4b0160c42470fdf,Vampino,48.21464257936812,16.327342217525793,Italian Restaurant
1345,204,48.1782,16.342221052631572,12,7,511a3c81e4b02a68e9e3c561,Chinesische Restaurant,48.18021086823139,16.34363890774148,Chinese Restaurant
1372,231,48.1782,16.371694736842105,41,9,511be980e4b03a145187b01b,Kebab to Go,48.175463845624456,16.376643582163133,Doner Restaurant
877,877,48.205939070667604,16.383061694366063,28,21,511e2d60e4b046e9cfb6ab53,Panzerotti,48.20642403265578,16.38394366294991,Italian Restaurant
2511,1370,48.2282,16.35695789473684,42,29,511f87cae4b0e90c5dc2df17,Astera Restaurant,48.22475324893752,16.355880970302366,Middle Eastern Restaurant
1471,330,48.1882,16.327484210526315,13,10,512130f0e4b0bc18981bff83,Cheys Famous Cooking,48.191086999999996,16.332603,Asian Restaurant
1537,396,48.1882,16.35695789473684,50,37,512642b6e4b0022f9215186f,Pizzeria Senorita,48.18775,16.35143,Italian Restaurant
371,371,48.2004609293324,16.36832551008701,41,37,51266b30e4b00d98b9ee7d6c,Manzana,48.199774,16.367816,Spanish Restaurant
1472,331,48.1882,16.327484210526315,13,11,512ddc99e4b0e9b6584aa8e5,Grillrestaurant Sokače,48.18611545748451,16.321933951503205,Mediterranean Restaurant
2460,1319,48.2282,16.342221052631572,31,9,512fec5ee4b04f772da6f9ad,Kebab-Stand Volksoper,48.22633672187476,16.336559985725966,Doner Restaurant
138,138,48.2004609293324,16.34559027938667,27,7,51329ca8e4b054cc6fc18a25,Toma tu tiempo,48.202306504133816,16.3449957897007,Tapas Restaurant
2706,1565,48.2482,16.430642105263153,9,4,51333ecce4b0c827fbb5925f,Ginza Wok&Grill,48.244351278983714,16.43019216005123,Asian Restaurant
2519,1378,48.2282,16.35695789473684,42,37,51361917e4b08e6a75bbba75,Red Hot Chilli Pepper,48.225416656177366,16.36036145699329,Asian Restaurant
1918,777,48.2082,16.31274736842105,13,12,51362ea6e4b0ed44a446fd21,Restaurant Reis,48.2077460174245,16.306233127364,Chinese Restaurant
2537,1396,48.2282,16.371694736842105,42,13,513a2297e4b0d28a12abd2c6,Gasthaus Haller,48.230798898485396,16.373866398433286,Hungarian Restaurant
1014,1014,48.2182,16.371694736842105,14,10,513b7d32e4b03409cbea2ce3,Arbaillo,48.220024368055256,16.37171395020167,Indian Restaurant
525,525,48.205939070667604,16.345590937212883,18,13,513cc541e4b01394c222931f,Nguyen's,48.206963,16.348015,Asian Restaurant
2216,1075,48.2182,16.342221052631572,37,20,513f7d47e4b0023ee1b95d06,Topthai,48.216937,16.341698,Thai Restaurant
120,120,48.19593907066761,16.338851825876482,27,16,51406ce8e4b075f69a4b0ed2,Tratto Via,48.196800962379655,16.337889587031793,Italian Restaurant
2202,1061,48.2182,16.342221052631572,37,6,5140a991e4b0f3cc48a27e11,Grill Lepenac,48.21499678506028,16.340308182864444,Eastern European Restaurant
1305,164,48.1782,16.283273684210524,8,2,51420f09e4b08294a64d4fbb,Ristorante Al Pacino,48.17753041015469,16.284312312201813,Italian Restaurant
1299,158,48.1682,16.474852631578948,3,0,514300cde4b096dc004ec2b6,Wow Asian Finest Cooking,48.169233,16.472193,Asian Restaurant
586,586,48.205939070667604,16.353588010155534,33,24,5144cc6fe4b0c0b7ecc033b8,Danieli Italian Restaurant,48.20567284432035,16.35314903050179,Italian Restaurant
2484,1343,48.2282,16.35695789473684,42,2,51474f6de4b0238f40110d70,Good Morning Vietnam,48.22564807935994,16.351987572719654,Vietnamese Restaurant
2718,1577,48.2482,16.445378947368418,11,7,51498942e4b07d881282f492,Döner Wow,48.249815999999996,16.443046,Turkish Restaurant
1478,337,48.1882,16.342221052631572,26,4,5149a711e4b00d7f75663991,Klein aber Fein,48.18994065251855,16.342642954255897,Austrian Restaurant
1373,232,48.1782,16.371694736842105,41,10,514b6161e4b06bd417151024,Mevlana,48.17545872663347,16.376495361328125,Turkish Restaurant
2767,1626,48.2582,16.40116842105263,25,23,514e06bbe4b023ae12191fc1,Treffpunkt,48.255278650436296,16.398157501188386,Turkish Restaurant
2640,1499,48.2382,16.371694736842105,11,9,514ed29be4b06c69f5dcf969,Ridvan Camii Ve Lokanta,48.235853000000006,16.377148000000002,Turkish Restaurant
2551,1410,48.2282,16.371694736842105,42,27,5151cc15e4b0269758b0271a,Bistro Europa,48.22898076398837,16.368480109737533,Turkish Restaurant
1184,43,48.1482,16.29801052631579,3,1,515738fce4b0967e24e57121,88 Noodles,48.146207000000004,16.297473,Asian Restaurant
1182,41,48.1482,16.283273684210524,3,2,5159a173e4b04e4af87f0c97,Don Camillo & Peppone,48.147810658273364,16.28943215854249,Italian Restaurant
2846,26,48.207069535333794,16.37674948933341,10,6,5159d933e4b0d8c134af06ee,Santissimo,48.20780296658472,16.377264342683493,Italian Restaurant
2549,1408,48.2282,16.371694736842105,42,25,515ab0e2e4b03c0e2a00528e,quo ching,48.22815710891177,16.368584901168294,Asian Restaurant
824,824,48.205939070667604,16.375064621423412,50,42,515de181e4b04b5bf990baac,مطعم اللورد (فيينا),48.20582553000436,16.37808340639632,Mediterranean Restaurant
1213,72,48.1582,16.29801052631579,1,0,515f1a9ee4b005f7783233dc,Purzl's mit Claus Curn,48.154322530711134,16.299472237675108,Austrian Restaurant
2427,1286,48.2182,16.474852631578948,2,0,516183bae4b0d19a96b543e5,Ginza Point,48.22241350554832,16.47479785148091,Asian Restaurant
2712,1571,48.2482,16.445378947368418,11,1,51694a70e4b04487904b085d,Lucky Star,48.24960808788981,16.445379413689068,Asian Restaurant
2542,1401,48.2282,16.371694736842105,42,18,516af2b2e4b036719b2ed591,Waffle's,48.23004092001287,16.367544555684862,Turkish Restaurant
1142,1,48.1282,16.31274736842105,6,0,516fc18ae4b03e954c1108e7,Athos,48.128172289416725,16.308652709022187,Greek Restaurant
1185,44,48.1482,16.29801052631579,3,2,5172f64ce4b04fc8ba52363c,Pizzeria Romantica,48.146271,16.299228,Italian Restaurant
2434,1293,48.2182,16.489589473684212,6,5,5173c48de4b07d59d510a4e0,Restaurant Xiaoli,48.217164000000004,16.489442999999998,Asian Restaurant
2157,1016,48.2082,16.474852631578948,2,0,517d4e47e4b0f03479a7ca29,Olive,48.206486737863386,16.46973805244517,Greek Restaurant
94,94,48.2004609293324,16.338851825876482,23,13,517fd0ca498e377c64b15af4,La Fortuna,48.19923298966225,16.338494492544378,Italian Restaurant
315,315,48.19593907066761,16.360327121491935,41,32,5183eea3498e560f5754481d,Seasons,48.19431819133038,16.362189573495773,Eastern European Restaurant
1930,789,48.2082,16.327484210526315,27,11,518ae0b6498ea3f93354cbed,Duru Kebap,48.20919987931471,16.325266520335415,Turkish Restaurant
1725,584,48.1982,16.342221052631572,50,37,518d1043498edf83d665aedf,Qermes,48.19898,16.336054,American Restaurant
2212,1071,48.2182,16.342221052631572,37,16,519120af498e6b6a98209397,Vapiano,48.21679496330464,16.347487766471847,Italian Restaurant
1239,98,48.1682,16.31274736842105,6,2,51912e4f498e6b6a98ab6580,Pauli Matrixking,48.167252000000005,16.313803,Afghan Restaurant
116,116,48.19593907066761,16.338851825876482,27,12,519cf5375019fa1b83d85526,Cafe Lepa Brena,48.194257417561715,16.338729858398438,Eastern European Restaurant
1353,212,48.1782,16.35695789473684,13,3,51a0e154498e9aef23c8a489,Buhara,48.181717,16.359939,Turkish Restaurant
2704,1563,48.2482,16.430642105263153,9,2,51a2445e498eeb0fc1226282,Monsoon,48.24756541647604,16.429858438967198,Indian Restaurant
1591,450,48.1882,16.40116842105263,7,1,51a5db6b498ea5399d7e8596,EastEnd,48.18901092812572,16.405346733045185,Austrian Restaurant
1360,219,48.1782,16.35695789473684,13,10,51a674a7498e45ecca409cfd,Ristorante Trio,48.17457205328932,16.354522609292335,Italian Restaurant
2493,1352,48.2282,16.35695789473684,42,11,51a73065498eb644eb8fa75b,Filoxenia,48.227561,16.359973,Greek Restaurant
2441,1300,48.2282,16.31274736842105,4,3,51a741c7498ef3fe8cb48178,Asia Restaurant Yuan,48.224834,16.31286,Asian Restaurant
2775,1634,48.2582,16.445378947368418,2,1,51a88f3a498e293fef35a063,Salon Steaks & Ribs,48.25636672973633,16.448247909545902,American Restaurant
2557,1416,48.2282,16.371694736842105,42,33,51a8b334498ed1d5348bff0d,Ossi's Pizza,48.228253,16.367309,Italian Restaurant
826,826,48.205939070667604,16.375064621423412,50,44,51a8dd04498e66640f799c39,Currasceria,48.203842,16.374629000000002,American Restaurant
1389,248,48.1782,16.371694736842105,41,26,51b21696498e798a710efc5e,Soko Banja GRILL,48.179231,16.373758,Eastern European Restaurant
545,545,48.21046092933239,16.353588010155534,24,7,51b5f7db498e86aec8736f08,Samrat,48.21191815869712,16.35147832877413,Indian Restaurant
1355,214,48.1782,16.35695789473684,13,5,51b644c5498e747a7a0439e5,Rainers Restaurant,48.17940152228535,16.362416851293446,Eastern European Restaurant
1354,213,48.1782,16.35695789473684,13,4,51b7993e498e97e3eed9601c,Stadt Heuriger Gigerl,48.179018812593725,16.362204789631125,Austrian Restaurant
2207,1066,48.2182,16.342221052631572,37,11,51b9aa59498eb912a64c85e6,ONEsinn,48.21552571280553,16.34548646877038,Asian Restaurant
2697,1556,48.2482,16.386431578947366,1,0,51bab760498eaca6953fc5ca,Markus's Imbissbude,48.249663,16.385655,Caribbean Restaurant
2658,1517,48.2382,16.386431578947366,25,16,51bb5eb3498ebeb35cc61c89,Gastwirtschaft zum Nussgart'l,48.23426381526607,16.389621551577733,Austrian Restaurant
2824,4,48.205939070667604,16.375064621423412,5,4,51bc709d498ec72abe6b4a0b,Expedit Van Feinsten,48.206784999999996,16.374688,Italian Restaurant
1498,357,48.1882,16.342221052631572,26,24,51c1f2c8498e29e858fb7199,andino,48.1853141784668,16.343048095703125,Tapas Restaurant
2754,1613,48.2582,16.40116842105263,25,10,51cc3969498e064c7442dd50,Doy Doy,48.25671681312186,16.403209676609134,Turkish Restaurant
2395,1254,48.2182,16.40116842105263,35,12,51cd95cb498e7e057c8c67ad,Döner Kebab,48.221193145650396,16.398402986301114,Turkish Restaurant
1393,252,48.1782,16.371694736842105,41,30,51d175a1498ed21d58318840,Saray,48.17867688615781,16.368275794216018,Turkish Restaurant
1045,1045,48.2159390706676,16.368324194074965,18,16,51d2b9a7498e0ab4615e71e1,Kuche Restaurant,48.216320727625295,16.36817213483619,German Restaurant
1376,235,48.1782,16.371694736842105,41,13,51d714e5498e7169fa7e4fbc,Sehzade Restaurant,48.175791629876116,16.372043114116963,Turkish Restaurant
1046,1046,48.2159390706676,16.368324194074965,18,17,51d7c84b498ea2cce91c01d1,Die Küche,48.216338831423975,16.368364642630198,Austrian Restaurant
1912,771,48.2082,16.31274736842105,13,6,51dedbec498ee350ec586810,Adi Kebab,48.208859000000004,16.308831,Doner Restaurant
230,230,48.2004609293324,16.35358866798175,28,16,51e062be498e3f6dffb556b2,Tsutenkaku,48.20028970786081,16.35144152329618,Sushi Restaurant
2438,1297,48.2282,16.31274736842105,4,0,51e3bede498e3b696827c866,Koinonia,48.225119906999616,16.312111100509064,Korean Restaurant
2643,1502,48.2382,16.386431578947366,25,1,51e51efa498e270b3dd3a2b0,ra'mien go,48.23588927653247,16.380703812254655,Asian Restaurant
1923,782,48.2082,16.327484210526315,27,4,51eacb51498e46b34f5a1da2,Etno Konak,48.20574378132857,16.330727021060145,Eastern European Restaurant
1856,715,48.1982,16.386431578947366,30,18,51ed223f498e8270c46e5507,Pizzeria Ristorante Elianto,48.199488,16.38729,Italian Restaurant
1195,54,48.1482,16.31274736842105,10,9,51ee52ad498e06b465bf0264,Noodles,48.15047448783924,16.31661744604243,Asian Restaurant
1232,91,48.1682,16.283273684210524,4,1,51f0323d498e6ec7100b8595,Al Primo,48.167807199152406,16.283444983111313,Italian Restaurant
2529,1388,48.2282,16.371694736842105,42,5,51f0f66d498eb3fc2e47bcfe,Balkan Bosna Grill Spezialitäten,48.232215999999994,16.368741,Bosnian Restaurant
1670,529,48.1982,16.327484210526315,27,9,51f183b7498e58e5daf46afc,Toki Imbiss,48.19827,16.32856,Turkish Restaurant
2559,1418,48.2282,16.371694736842105,42,35,51f952fa498ecf59ce7448c6,Zwischenbrückenwirt,48.22882059521214,16.366434169399948,Austrian Restaurant
862,862,48.205939070667604,16.383061694366063,28,6,51fe32ee498eedc7713ffc09,Meierei im Stadtpark,48.204542495897705,16.381007943542176,Austrian Restaurant
1206,65,48.1482,16.474852631578948,2,0,52013ea4498e9640b34c16a9,Bella Italia,48.14939880371094,16.471773147583008,Greek Restaurant
1199,58,48.1482,16.386431578947366,4,1,5213ae0611d2560b07e03935,China Restaurant Me-Lie,48.14571352985733,16.38251151605341,Chinese Restaurant
2608,1467,48.2382,16.327484210526315,5,3,5218fab711d2df8d8179cd82,Piroschka ungarische Restaurant,48.23765356025121,16.32169092531894,Hungarian Restaurant
1379,238,48.1782,16.371694736842105,41,16,5225f25e11d2d5709730cd8d,Umar Fischrestaurant,48.17695729235479,16.376375387212054,Mediterranean Restaurant
1424,283,48.1782,16.415905263157892,17,14,5225f5d711d2b035ac14db77,Lily's Nudelhaus,48.17436723811629,16.41343953644115,Asian Restaurant
1320,179,48.1782,16.327484210526315,21,3,522a10b411d2adfd1e3ffab2,JC Lucky Fen,48.17925330606307,16.32953449512041,Chinese Restaurant
649,649,48.2082,16.371694736842105,50,30,5238402211d23729540422db,Shanghai China Restaurant,48.209212,16.371879999999997,Asian Restaurant
2541,1400,48.2282,16.371694736842105,42,17,5239e01311d24175ed5403d2,Nudeln Kai,48.22949830721653,16.36972086524256,Asian Restaurant
2765,1624,48.2582,16.40116842105263,25,21,523c6c8f11d22dbd36300bba,Akropolis,48.25978,16.396179999999998,Greek Restaurant
2400,1259,48.2182,16.40116842105263,35,17,523c8c1b11d2c579c1612d21,biggarten,48.22164535522461,16.402063369750973,Mediterranean Restaurant
359,359,48.2004609293324,16.36832551008701,41,25,523d882311d288f65619c200,Herr Ober,48.201173,16.368743,Asian Restaurant
1193,52,48.1482,16.31274736842105,10,7,523f4021498e0b3ddc140608,Wok King,48.14928751231099,16.312061856965617,Asian Restaurant
306,306,48.19593907066761,16.360327121491935,41,23,52405fe511d26f01da3bd815,Kojiro Japan Restaurant,48.19751143746039,16.36087954044342,Japanese Restaurant
1335,194,48.1782,16.327484210526315,21,18,524197d711d259b138aac4f5,Fortuna,48.177637,16.323817000000002,Indian Restaurant
2150,1009,48.2082,16.415905263157892,6,0,524d969611d2d4160bcd0d9f,Don Camillo,48.21043439665597,16.42140946678272,Italian Restaurant
853,853,48.21046092933239,16.383061694366063,10,7,524ee0e6498e47de9a69d88c,Babička,48.211698,16.381988,Eastern European Restaurant
831,831,48.205939070667604,16.375064621423412,50,49,524ef798498e474f767b48ff,Le Viet,48.20605524972767,16.37765954026694,Vietnamese Restaurant
1292,151,48.1682,16.430642105263153,7,0,524ffa2511d27138e44188c3,Asia-Restaurant Sun,48.1702545204987,16.429881955216228,Asian Restaurant
279,279,48.2004609293324,16.360327121491935,29,25,52505947498edf021229b560,Natori,48.20097553617525,16.361899017937578,Asian Restaurant
1654,513,48.1982,16.31274736842105,21,14,52543375498e2e137a1c3908,Ristorante San Marco,48.200027638331505,16.316493483609158,Italian Restaurant
1375,234,48.1782,16.371694736842105,41,12,5256a5d211d2f8b059b12bc7,Alaturka,48.176246,16.377343,Turkish Restaurant
2469,1328,48.2282,16.342221052631572,31,18,5259180611d2a459c353bd59,TANIS am Kutschkermarkt - Weltmeister Kebap,48.22515005708485,16.34459353912234,Doner Restaurant
1934,793,48.2082,16.327484210526315,27,15,5259741c498e02746cbe4727,Otantik,48.2108906690372,16.323520430731982,Turkish Restaurant
247,247,48.19593907066761,16.35358866798175,12,5,525ec54211d2865b8496cb93,Yang Haus,48.19507992312173,16.350813339782633,Asian Restaurant
2354,1213,48.2182,16.386431578947366,50,21,52617b0b11d2226cc0cfb805,L'ase,48.2223920250083,16.38688997789605,Tapas Restaurant
229,229,48.2004609293324,16.35358866798175,28,15,5262b42b11d218d45544ad70,Zipfer,48.202384777360145,16.355112980611697,German Restaurant
979,979,48.22046092933239,16.36032843750398,15,8,5263defb11d2742303d7892a,hollywood,48.220739,16.363595,American Restaurant
2163,1022,48.2182,16.31274736842105,7,2,526ac35511d2f589b9ab7d0f,Heimatduft,48.216674,16.314870000000003,Vietnamese Restaurant
2201,1060,48.2182,16.342221052631572,37,5,526cf6eb498e21ec453a3cc0,Restaurant Jossy,48.216743,16.338442,Asian Restaurant
1214,73,48.1582,16.31274736842105,4,0,52710a6a498eb1ff804db445,Hongi Asia,48.160832755738994,16.310609579086304,Asian Restaurant
1399,258,48.1782,16.371694736842105,41,36,527b80e511d2fb4081b3bbae,Sushi Pavillion,48.176751,16.376435,Asian Restaurant
2208,1067,48.2182,16.342221052631572,37,12,527d268c498eadf248bb6292,Restaurant Retsina,48.22102737426758,16.341976165771484,Greek Restaurant
2819,1678,48.3082,16.35695789473684,2,1,528626dc498ed980496e86d6,Rhodos,48.307995,16.360404,Greek Restaurant
373,373,48.2004609293324,16.36832551008701,41,39,5287bbcc11d2b35678965c7a,Wellbeing,48.202408737288955,16.369439752235056,Asian Restaurant
1331,190,48.1782,16.327484210526315,21,14,528b4bf511d277202764cd69,Gasthaus Palatin,48.18023681640625,16.332448959350586,Austrian Restaurant
1861,720,48.1982,16.386431578947366,30,23,528cb745498ecf3a74ab1539,Dong Hai,48.194766171143506,16.38575538597726,Chinese Restaurant
1922,781,48.2082,16.327484210526315,27,3,528d03d911d2b375512e4fee,Semendria,48.208000416863115,16.325359767812987,Eastern European Restaurant
2717,1576,48.2482,16.445378947368418,11,6,528f4cb2498e33b366a2d64e,Myooi,48.250613152775344,16.443563058840464,Asian Restaurant
2159,1018,48.2082,16.519063157894735,1,0,5290fc0c11d2e7166b88cabd,Ilse's Spezialitäten Kuchl,48.207494,16.516308,Afghan Restaurant
2657,1516,48.2382,16.386431578947366,25,15,529735fe11d2751d54dd4cfa,Geflügel Fisch Imbiss,48.23618,16.389163,Doner Restaurant
2705,1564,48.2482,16.430642105263153,9,3,5298abda11d239bb8fe502c7,Restaurant Feng Shui,48.24726186448926,16.429044162228454,Asian Restaurant
2710,1569,48.2482,16.430642105263153,9,8,5298d78711d2dd103f0d4dd8,myool,48.251777169361645,16.430341915022765,Asian Restaurant
268,268,48.2004609293324,16.360327121491935,29,14,529a2ba0498ecb82898a9c95,shanghaitan,48.201560974121094,16.36311149597168,Asian Restaurant
1165,24,48.1382,16.35695789473684,1,0,529e13ed11d27d30cbdfd68b,Zum AKG Türk mit Alles&Scharf,48.135420917489675,16.356967009114413,Doner Restaurant
2281,1140,48.2182,16.35695789473684,50,48,52a3141111d249c2fbbe59e1,Zwettler,48.217872136218716,16.35081679342585,German Restaurant
1881,740,48.1982,16.40116842105263,25,13,52a9ee76498e6f6b4dea6189,Zhang's Imbiss,48.19732284545898,16.400493621826172,Chinese Restaurant
2477,1336,48.2282,16.342221052631572,31,26,52ab6d9511d2eecd69dd471d,Ablauf Datum,48.229338,16.339772,Mediterranean Restaurant
2445,1304,48.2282,16.327484210526315,9,3,52aef3bf498ec21899c5689b,Pizzeria - Ristorante FORTUNA,48.228630688530686,16.333385190493782,Italian Restaurant
881,881,48.205939070667604,16.383061694366063,28,25,52b029e411d2a89b1cb0dbbc,Sushi Cross,48.20613551754855,16.384646189724595,Sushi Restaurant
2590,1449,48.2282,16.460115789473686,8,4,52b18501498ea5afa63a74cb,Green,48.22914033241993,16.457013542079142,Chinese Restaurant
408,408,48.19593907066761,16.36832551008701,38,33,52b2df66498e69ca9ab1ff4a,Hoa Sen,48.19658308971185,16.36550137416625,Vietnamese Restaurant
2465,1324,48.2282,16.342221052631572,31,14,52b44cf3498ed5e4b7030da4,Sushibar & Asia Food,48.227971000000004,16.336948,Asian Restaurant
2685,1544,48.2482,16.342221052631572,4,0,52bc53b8498e70a53cc38fc6,L'autentico,48.249466529450814,16.341940127316608,Italian Restaurant
682,682,48.21046092933239,16.368324852260802,35,13,52c1e60c498e5210360994b2,Al Hamra Lebanese restuarant,48.210359999999994,16.365607999999998,Lebanese Restaurant
689,689,48.21046092933239,16.368324852260802,35,20,52c588d611d26efd160e4477,Strobls Biberstube,48.20867538452149,16.36744499206543,German Restaurant
2506,1365,48.2282,16.35695789473684,42,24,52c5b0f5498e3c4e90ab8278,La Paz,48.22616270401659,16.356819113469033,South American Restaurant
519,519,48.205939070667604,16.345590937212883,18,7,52cdadaf498ea36b3b2de55f,Natraj,48.20548340033199,16.348595483759375,Indian Restaurant
1453,312,48.1882,16.29801052631579,18,14,52dbe829498e4e22db5bba3a,Sushihavara,48.187205,16.303094,Sushi Restaurant
1374,233,48.1782,16.371694736842105,41,11,52e6b507498e7a42d7911aaa,saray kebap - pizza,48.178638153359344,16.36820775446529,Turkish Restaurant
500,500,48.21046092933239,16.345590937212883,21,9,52ed07e0498edad715a9223c,Suliko,48.209697,16.348671,Eastern European Restaurant
897,897,48.21046092933239,16.389801463528677,18,13,52efcfef11d25cef3768c4f0,Vital Pizza & Pasta,48.210953,16.390044,Italian Restaurant
1176,35,48.1382,16.489589473684212,1,0,52fd0e89498e7fc1003ceff1,Lucky food,48.13915854153629,16.486788987581285,Asian Restaurant
2690,1549,48.2482,16.35695789473684,4,1,52fd3858498e7d97d7118ba7,Restaurant Goa,48.249162747005265,16.36270074875085,Indian Restaurant
1268,127,48.1682,16.35695789473684,2,1,530a2c0711d251473822029d,Gedeihen,48.1661719457094,16.362850498863768,Chinese Restaurant
985,985,48.22046092933239,16.36032843750398,15,14,530f02e1498ec25a9fbdde07,Harmonie Vienna Breakfast,48.220025978882205,16.360059837713298,Austrian Restaurant
2669,1528,48.2382,16.415905263157892,5,1,530f048e498e5e60b38dc31b,Beaufort 10,48.2354251642829,16.421089670102663,Asian Restaurant
2633,1492,48.2382,16.371694736842105,11,2,530f221a498e72d8f28623bc,Zaphir,48.23589324951172,16.370420455932614,Turkish Restaurant
1655,514,48.1982,16.31274736842105,21,15,5318d6d911d2fb3b56711de5,Valentinos,48.19540318572413,16.311823208156827,Italian Restaurant
559,559,48.21046092933239,16.353588010155534,24,21,531cf23b11d27c99f158ead7,pearistenkeller,48.210937,16.351412,Austrian Restaurant
2456,1315,48.2282,16.342221052631572,31,5,531dadd9498ec8d70058d834,lamian,48.227677,16.338248,Asian Restaurant
2692,1551,48.2482,16.35695789473684,4,3,532324b811d2d2f5f84c94b4,رستوران كلبه,48.24460220937236,16.357463873386642,Persian Restaurant
2555,1414,48.2282,16.371694736842105,42,31,53282b52498e4fe53b4c525d,Imbiss Metin,48.232104,16.368972,Turkish Restaurant
2195,1054,48.2182,16.327484210526315,28,27,532b3bcc498e0014b2aaf9e6,king american diner,48.221185,16.32824,American Restaurant
1941,800,48.2082,16.327484210526315,27,22,532c0413498e5bdc9fa91ed0,my style pizzeria,48.208813,16.321295000000003,Italian Restaurant
1098,1098,48.22046092933239,16.383061036180223,13,11,532ddf9a498eaffe9bbb5826,kod Dade na pivo,48.222414,16.382243,Mongolian Restaurant
2671,1530,48.2382,16.415905263157892,5,3,532f34fc498eed2c7888a5eb,UNC Restaurant,48.233909000000004,16.415907999999998,Austrian Restaurant
2693,1552,48.2482,16.371694736842105,4,0,53304679498efe5a1d30fcfc,Tempesta,48.245643,16.375663,Italian Restaurant
2426,1285,48.2182,16.460115789473686,3,2,533c30cc498e4a2a8a2be6a7,Donna Bella,48.22101073421878,16.45808751963907,Turkish Restaurant
507,507,48.21046092933239,16.345590937212883,21,16,533e8664498e21bdfa0f3921,Noodles Josef,48.209989,16.345845999999998,Asian Restaurant
1200,59,48.1482,16.386431578947366,4,2,53410f2f498ebef658dfb665,B&G Pizza,48.14862217154282,16.385727524757385,Italian Restaurant
1244,103,48.1682,16.327484210526315,5,1,53428b5a498edbdeb2311b24,TUK TUK,48.170106765877456,16.332803907744648,Asian Restaurant
2675,1534,48.2382,16.430642105263153,5,2,534d3d79498ea50bdfc24f81,la massaia,48.235816955566406,16.427864074707028,Italian Restaurant
354,354,48.2004609293324,16.36832551008701,41,20,534e6b30498e8b9316546611,gallo d'oro,48.202137,16.367549,Italian Restaurant
2394,1253,48.2182,16.40116842105263,35,11,534fc2a7498eace3ec6c4131,big garten,48.22174605192264,16.401870028423858,Mediterranean Restaurant
312,312,48.19593907066761,16.360327121491935,41,29,5350fa1d11d25cae78b2933c,Azzuro,48.197393163953635,16.36062704499752,Italian Restaurant
1073,1073,48.2159390706676,16.375065279609245,23,19,535523ec498e75e2eca651fe,Takori,48.214812,16.374019,Asian Restaurant
1313,172,48.1782,16.29801052631579,4,2,53566e7c11d2624bf2f4bdcc,ORF Sushi Bar,48.17794750731412,16.29272200200875,Sushi Restaurant
2776,1635,48.2582,16.460115789473686,1,0,535795cf498e383bde031aaf,Noodle King,48.26063109232628,16.464123233635615,Asian Restaurant
2701,1560,48.2482,16.415905263157892,2,1,535950ac498e311a8b24abff,Öge's kitchen,48.2518153353798,16.415593828646113,Turkish Restaurant
1656,515,48.1982,16.31274736842105,21,16,535abfbd498ec93697b21c8f,Kebab-Stand Johnstraße,48.198995000000004,16.318205,Doner Restaurant
2730,1589,48.2582,16.342221052631572,7,3,535c09c9498ec93697ddc242,Gerstner Landhaus,48.25765720031114,16.33816555732443,Austrian Restaurant
1325,184,48.1782,16.327484210526315,21,8,535d3b74498e00b29f6e1ae6,Da Martino,48.174426000000004,16.325658999999998,Italian Restaurant
1595,454,48.1882,16.40116842105263,7,5,5360e7a7498e74798d0ef33d,Kebapci,48.18647654189078,16.401274056007107,Turkish Restaurant
1608,467,48.1882,16.415905263157892,13,11,536a20e3498e6ad8e84c46f7,buffet to go,48.185309000000004,16.417893,Asian Restaurant
1682,541,48.1982,16.327484210526315,27,21,536a8f80498e8f7323a38d4b,Toki,48.198641936454756,16.328899529536788,Asian Restaurant
1256,115,48.1682,16.342221052631572,19,8,536e3471498e4c7368f11f3f,Urfa Kebap,48.16977904416892,16.341940826657723,Doner Restaurant
2547,1406,48.2282,16.371694736842105,42,23,536faa9b498e2e4d070fb27c,cristall,48.22422790527344,16.37234115600586,Chinese Restaurant
2432,1291,48.2182,16.489589473684212,6,3,536fb80d498e9efb783fcd4a,Haveli,48.21714389588729,16.489866348895607,Indian Restaurant
1451,310,48.1882,16.29801052631579,18,12,5371d89711d20666cd8477c8,'Morgenstund' Breakfast Buffet,48.1864013671875,16.301986694335938,Austrian Restaurant
610,610,48.21046092933239,16.360327779318148,18,15,537241e5498ecde45c9eb64c,مطعم الفيروز في ڤيينا,48.212418,16.361435999999998,Asian Restaurant
1572,431,48.1882,16.371694736842105,30,22,537613a4498eef20c75d706e,Weltmeister Kebap,48.18656921386719,16.374074935913086,Doner Restaurant
2733,1592,48.2582,16.342221052631572,7,6,537a0a07498e485da49b68db,Nino's,48.25620447130253,16.3408547811019,Italian Restaurant
2548,1407,48.2282,16.371694736842105,42,24,537b966e498eb7fac064cdeb,zwischenbrueckenwirt,48.22631072998047,16.367706298828125,Austrian Restaurant
1463,322,48.1882,16.327484210526315,13,2,537cc216498eed2021c29287,Viennas Vietnam am Schwendermarkt,48.19098281860352,16.326688766479492,Vietnamese Restaurant
506,506,48.21046092933239,16.345590937212883,21,15,53811feb498ecd1450974e66,schlipf&co,48.21008080660028,16.344300312927977,Austrian Restaurant
1681,540,48.1982,16.327484210526315,27,20,53861fb6498e432045b34141,Lucky Noodles,48.19803474163335,16.321214958187866,Asian Restaurant
234,234,48.2004609293324,16.35358866798175,28,20,538e184b498e248f6fca3805,東風,48.200476,16.351278,Chinese Restaurant
2517,1376,48.2282,16.35695789473684,42,35,538f60a5498e3f7bfb4f41b7,zum schwarzen schaf,48.22500651629306,16.36165227837688,Tapas Restaurant
253,253,48.19593907066761,16.35358866798175,12,11,538f6c80498ee47df756318f,A. J's American Diner,48.19742269184826,16.353266904614838,American Restaurant
2187,1046,48.2182,16.327484210526315,28,19,5390a1ac498ed799b4a5d758,Ji's Noodles,48.217994,16.330889000000003,Chinese Restaurant
2256,1115,48.2182,16.35695789473684,50,23,5391b856498e1eb46534451c,hoang long,48.21818315783164,16.350607849144172,Vietnamese Restaurant
2917,97,48.21046092933239,16.375064621423412,21,16,5391e43c498e085ff39b1cde,Yujia,48.210186,16.375356,Asian Restaurant
726,726,48.205939070667604,16.368324852260802,28,22,5392fd76498e10da32cc23de,Albertina Restaurant & Bar,48.204626,16.367943,Austrian Restaurant
1490,349,48.1882,16.342221052631572,26,16,53932434498e97c3af39b93f,Arndtstüberl,48.185323,16.342278,Austrian Restaurant
1427,286,48.1782,16.489589473684212,2,0,5395b2ae498e7b5d5ba0f53e,Dammhütte,48.175645,16.494192,Austrian Restaurant
617,617,48.205939070667604,16.360327779318148,6,4,5398a629498e6ead0c4bd408,pesco,48.204292496773775,16.362276478471912,Italian Restaurant
1555,414,48.1882,16.371694736842105,30,5,5399df2f498ea108fbfad4db,lima56,48.18898,16.37237,Peruvian Restaurant
1497,356,48.1882,16.342221052631572,26,23,539d82aa498e06f4cc7daf9d,Tybah Pizzeria-Ristorante,48.188113,16.336343,Caribbean Restaurant
2777,1636,48.2582,16.474852631578948,1,0,53ad6c6c498e46c70e4c2d5a,Pulcinella,48.259158798805494,16.46857674065216,Italian Restaurant
410,410,48.19593907066761,16.36832551008701,38,35,53b5baf5498e8b9d66067123,La Pesce,48.194659760379636,16.3698244413036,Italian Restaurant
1459,318,48.1882,16.31274736842105,4,2,53b6a1d6498eeed934abc2f8,Asia Restaurant Goldene Schüssel,48.18887710571289,16.307910919189453,Asian Restaurant
1286,145,48.1682,16.415905263157892,7,1,53b83a5e498e69be2ef0221d,Meşhur Kuzu Çevirmeci Tuncay Abi,48.17118835449219,16.412052154541016,Turkish Restaurant
1901,760,48.2082,16.283273684210524,3,1,53b989b2498ec20e7e09279f,Don Arturo,48.206069,16.277801999999998,Italian Restaurant
1935,794,48.2082,16.327484210526315,27,16,53ba8444498e8cb5723b9477,Mr.Feng,48.210592999999996,16.325426999999998,Asian Restaurant
1658,517,48.1982,16.31274736842105,21,18,53bae3ff498e8819b453d5c2,Donna Diana,48.196028999999996,16.318453,Italian Restaurant
1175,34,48.1382,16.415905263157892,2,1,53bc09d9498e81436a514f0c,Brückenbräu,48.13434982299805,16.414606094360348,Austrian Restaurant
2758,1617,48.2582,16.40116842105263,25,14,53c16b3e498ed6ec6b7a1ea5,Flying Diner 1210,48.25835138378663,16.396946135008367,American Restaurant
1452,311,48.1882,16.29801052631579,18,13,53c954b7498e2b622e16ad08,Café Restaurant im Alvarez,48.186693704827825,16.29650920629501,Spanish Restaurant
1897,756,48.1982,16.519063157894735,2,1,53cf9cd7498e2a8a25aa0481,Restaurant Hansi,48.20144513149029,16.518817787341494,Austrian Restaurant
1657,516,48.1982,16.31274736842105,21,17,53d15171498e62a7343e3d83,Spice Corner,48.199212,16.316232,Sri Lankan Restaurant
1550,409,48.1882,16.371694736842105,30,0,53d6919b498e87e251e1b15b,Mishi,48.188956157392205,16.36518166404975,Asian Restaurant
887,887,48.21046092933239,16.389801463528677,18,3,53da3475498ec4fe240e8ae9,Dreieck,48.211904,16.392174,Austrian Restaurant
121,121,48.19593907066761,16.338851825876482,27,17,53e3ac24498ed4ef32c8957b,hanedan doner kebap,48.1964225769043,16.335586547851562,Doner Restaurant
1876,735,48.1982,16.40116842105263,25,8,53e9ed44498e9cb071f4ba38,Alaturka Kebap,48.196911841826456,16.403782815340485,Turkish Restaurant
2578,1437,48.2282,16.40116842105263,8,6,53f0cf39498e62022a682736,Bischofshof am Dom,48.227827000000005,16.407401,German Restaurant
1604,463,48.1882,16.415905263157892,13,7,53f6331f498e71a1e0a55a63,Laralenta,48.185804,16.421346,Italian Restaurant
725,725,48.205939070667604,16.368324852260802,28,21,5400c654498e0bcc5f69d768,opøeas,48.207443,16.367402,Greek Restaurant
2188,1047,48.2182,16.327484210526315,28,20,540c9f97498ebb802dda82f6,Der Koch,48.219901,16.333043,Doner Restaurant
2703,1562,48.2482,16.430642105263153,9,1,54101dad498e2fee655d913c,Restaurant Feng Shui,48.250126,16.430201999999998,Asian Restaurant
2510,1369,48.2282,16.35695789473684,42,28,541185df498e3cc7d78e951f,Ginger & Spice,48.22606691814618,16.355277980693526,Asian Restaurant
2661,1520,48.2382,16.386431578947366,25,19,5419688d498e11da4a0b093a,Motara Beisl,48.23452377319336,16.38558006286621,Austrian Restaurant
2689,1548,48.2482,16.35695789473684,4,0,541c0e3d498e0fca5a652c62,Minh Khiem,48.24475092219365,16.360907055319352,Vietnamese Restaurant
2433,1292,48.2182,16.489589473684212,6,4,5425b919498e51842d3c9a53,Tribeca Inn,48.216958,16.489588,American Restaurant
2161,1020,48.2182,16.31274736842105,7,0,54270a37498e259fb71627ba,terra rossa,48.218499204138574,16.306140521643147,Italian Restaurant
1645,504,48.1982,16.31274736842105,21,5,542ff9de498e14ac519638ef,Nar,48.198986487568256,16.312409291257925,Middle Eastern Restaurant
2225,1084,48.2182,16.342221052631572,37,29,54368882498e1891c5678dcd,Deniz Kebap alser strasse,48.216943872645714,16.342183565808394,Doner Restaurant
1552,411,48.1882,16.371694736842105,30,2,5437adeb498ec747959f5b2a,Chutney,48.18560816553997,16.377176265712343,Indian Restaurant
1280,139,48.1682,16.386431578947366,7,4,543a616a498e3726db3a56c4,Peru 56,48.16979217529297,16.385168075561527,Latin American Restaurant
1298,157,48.1682,16.430642105263153,7,6,543a9f4a498ed0069dd5bf64,Harry's Augustin,48.167287865425635,16.427305644145626,Austrian Restaurant
472,472,48.21046092933239,16.33885116805027,18,13,543d59c8498ead5eaf5f3c98,Kasatschok,48.20899070418208,16.33844319771276,Russian Restaurant
2688,1547,48.2482,16.342221052631572,4,3,54469759498e393cf5d564f5,Heuriger Weinprecht,48.249109000000004,16.341901,Austrian Restaurant
2430,1289,48.2182,16.489589473684212,6,1,54513244498ed29905f497ea,Tribecca Inn,48.2167953080446,16.48969531059265,American Restaurant
808,808,48.205939070667604,16.375064621423412,50,26,5452631c498e49a9fe3cfa0f,Ristorante Da Vinci,48.203983104473345,16.375486850738525,Italian Restaurant
1429,288,48.1882,16.268536842105263,7,0,5453c86a498ef0cd9c65086e,Thurn,48.18948047739256,16.2681789768208,Austrian Restaurant
2684,1543,48.2482,16.327484210526315,3,2,5457e781498e9c0e13d0ac04,Ablaufdatum Sommer 2017,48.251267332404225,16.323605785211758,Austrian Restaurant
1211,70,48.1582,16.268536842105263,3,1,545a4e87498e7b0eead2bace,Ristorante Leonardo,48.15611331015658,16.27326469886241,Italian Restaurant
1609,468,48.1882,16.415905263157892,13,12,545caf96498e0a1d56c0b968,Larenta Vienna,48.185840361987154,16.42142934469314,Italian Restaurant
2203,1062,48.2182,16.342221052631572,37,7,546211b7498e6e7ec8313039,Santa Maria,48.215090999999994,16.343851,Italian Restaurant
412,412,48.19593907066761,16.36832551008701,38,37,5464901f498e255d342545b4,Das Wieden,48.195867181131824,16.368067474996472,Austrian Restaurant
1488,347,48.1882,16.342221052631572,26,14,5464ff06498e520ce4e0276a,168 noodle house,48.190338557337256,16.337817413231207,Asian Restaurant
1643,502,48.1982,16.31274736842105,21,3,546651bd498eab2977490e2b,Kent Restaurant,48.19897,16.312203,Turkish Restaurant
828,828,48.205939070667604,16.375064621423412,50,46,5466671a498e137569500302,Da Vinci Restaurant and Bar,48.20391210640178,16.375504606841933,Italian Restaurant
2416,1275,48.2182,16.40116842105263,35,33,546ce730498ebce2c582e4dd,Pommes Fritz Hütte von Surf´n´Fries,48.21733503754508,16.395437121391293,American Restaurant
349,349,48.2004609293324,16.36832551008701,41,15,54708476498eb9d2448f1bbc,apicius,48.201949,16.367586,Italian Restaurant
2592,1451,48.2282,16.460115789473686,8,6,54710254498e51e8913d2594,Nori,48.229,16.457034,Asian Restaurant
1584,443,48.1882,16.386431578947366,10,4,5474cac3498ec12e30efe619,La Rustica,48.187996000000005,16.380313,Italian Restaurant
309,309,48.19593907066761,16.360327121491935,41,26,547b5d59498e321dddc9e9ec,lemon leaf thai restaurant,48.196182,16.359837,Thai Restaurant
1422,281,48.1782,16.415905263157892,17,12,547c9d3e498e43be5a900a7b,Mantıcı,48.17466526649182,16.414013282565744,Turkish Restaurant
2680,1539,48.2382,16.489589473684212,1,0,54819f14498ed4e5d2735715,Gasthaus Seiler,48.23694229693749,16.48625717767419,Austrian Restaurant
307,307,48.19593907066761,16.360327121491935,41,24,5485daa1498e1221995114df,Baschly,48.197333,16.360516,Middle Eastern Restaurant
2623,1482,48.2382,16.35695789473684,19,11,54985b49498e84ed8315c154,Xeina,48.24052123235667,16.354518006969798,Greek Restaurant
1416,275,48.1782,16.415905263157892,17,6,54a476aa498e6d5ac9a16b57,Imbissstube Yunus Akkus,48.17741012573242,16.412837982177734,Mediterranean Restaurant
280,280,48.2004609293324,16.360327121491935,29,26,54b660e0498eb2f6dffac3cd,Vemaya,48.201051,16.362052,Asian Restaurant
2621,1480,48.2382,16.35695789473684,19,9,54b90951498e7edbd517c122,Döblinger Burger,48.235953608315725,16.353509498211707,American Restaurant
1803,662,48.1982,16.371694736842105,50,15,54bce1ab498e68ed34319748,Nam Nam Dabba,48.19858660536514,16.366008240307806,Indian Restaurant
2648,1507,48.2382,16.386431578947366,25,6,54c06274498e05bbd6236d3c,taqueria los mexicas,48.240970000000004,16.387269,Mexican Restaurant
2349,1208,48.2182,16.386431578947366,50,16,54c413dd498ed093faac1c46,khalkedon restaurant,48.21412268421627,16.387331460331403,Turkish Restaurant
2499,1358,48.2282,16.35695789473684,42,17,54c66e1e498e47f3d614f646,Asia Corner,48.232063000000004,16.353927,Asian Restaurant
1362,221,48.1782,16.35695789473684,13,12,54d1bf5f498e7bfe6ff166b7,Atip Restaurant,48.1790930712398,16.362754733250142,Turkish Restaurant
2262,1121,48.2182,16.35695789473684,50,29,54d2784d498edfa65615e06e,Lucky Noodles,48.214599609375,16.357357025146484,Asian Restaurant
337,337,48.2004609293324,16.36832551008701,41,3,54e476e2498ee6b450a524d9,Bier & Bierli,48.20205663512075,16.367613905497784,Austrian Restaurant
1558,417,48.1882,16.371694736842105,30,8,54ef59c9498eed5faa7a86d7,Mai Thai,48.18561717080337,16.376967430114743,Thai Restaurant
1647,506,48.1982,16.31274736842105,21,7,54f07f25498ea3087036b6dc,Sushi & More,48.19936752584978,16.31193391774164,Sushi Restaurant
118,118,48.19593907066761,16.338851825876482,27,14,5507164c498e2637e34ce6bc,Mega Pizza Kebap,48.19502358719506,16.336763324046053,Doner Restaurant
2581,1440,48.2282,16.415905263157892,4,1,5509b8ac498eb37b3f0568a1,ra'mien go,48.23155456938019,16.413083855562515,Asian Restaurant
1377,236,48.1782,16.371694736842105,41,14,550d9ff6498ef14ceb88332b,güllüoglu,48.17642998779972,16.373488810541758,Turkish Restaurant
1945,804,48.2082,16.327484210526315,27,26,550dbda7498e1d661307226c,Adım Kebap,48.20970230756481,16.331392545375472,Doner Restaurant
1790,649,48.1982,16.371694736842105,50,2,550dcf82498e82297b69fef4,Matcha Komachi,48.197661618004865,16.366066932678226,Japanese Restaurant
1687,546,48.1982,16.327484210526315,27,26,55118de2498ede0981cb0573,Lucky Noodles,48.19751383859614,16.321467424033926,Thai Restaurant
53,53,48.18593907066761,16.36032646402509,4,0,551d846b498e2d9b07141562,Duspara,48.184484348076154,16.361576340286028,Austrian Restaurant
148,148,48.2004609293324,16.34559027938667,27,17,5526b712498eee24f5f01e60,Tredici e Mezzo,48.19957283207627,16.346563140594753,Italian Restaurant
2739,1598,48.2582,16.371694736842105,7,3,5528f889498e5f398a10381f,Lan's Nudel Markt,48.257777000000004,16.367063,Asian Restaurant
1237,96,48.1682,16.31274736842105,6,0,552ba20f498e4130b15eb76a,Bahçe,48.17181323235872,16.315521758344214,Turkish Restaurant
2461,1320,48.2282,16.342221052631572,31,10,552e5d7f498ee77de69925eb,Kourosh,48.227765000000005,16.337649,Persian Restaurant
1351,210,48.1782,16.35695789473684,13,1,5530f9df498e3c3da0359f0b,Mis Kebap,48.17530272575964,16.356698532450068,Doner Restaurant
405,405,48.19593907066761,16.36832551008701,38,30,55314f61498ef7e26745cd49,Restaurante Ischia,48.195634000000005,16.368631,Italian Restaurant
2011,870,48.2082,16.35695789473684,50,15,553688bc498eb543de36f5a1,Hofbräu zum Rathaus,48.21228509752247,16.355623016626414,German Restaurant
2612,1471,48.2382,16.35695789473684,19,0,55390085498e6809904c4861,Imbiss Kebap,48.23543895923334,16.357449905003072,Doner Restaurant
420,420,48.2004609293324,16.3750639635972,14,7,553f7832498e5c6fee93cd22,Melounge at the Ritz Carlton,48.202568,16.376077,American Restaurant
1634,493,48.1982,16.29801052631579,14,8,5542769b498e6f478c6f11c6,Hauswein,48.194377891676254,16.295660637523252,Czech Restaurant
876,876,48.205939070667604,16.383061694366063,28,20,5545535c498e3c063a18ba1b,Imbiss Kebab Noodles Würstel,48.206384,16.384175,Middle Eastern Restaurant
851,851,48.21046092933239,16.383061694366063,10,5,55507c06498efa10768a5ea2,Buenos Aires Beach Bar,48.21178185276467,16.381236171921476,Argentinian Restaurant
2421,1280,48.2182,16.415905263157892,4,3,555f7c87498ee652816c070d,L'Orient,48.21556006786505,16.41682441064133,Moroccan Restaurant
2228,1087,48.2182,16.342221052631572,37,32,5563573c498e030b12abcf3e,Natraj,48.221187,16.340861999999998,Indian Restaurant
1649,508,48.1982,16.31274736842105,21,9,5564c25a498e61e2968f2bf8,Gasthaus Breitensee,48.20014190673828,16.311241149902347,Austrian Restaurant
2287,1146,48.2182,16.371694736842105,50,4,5564da4d498effbebd696375,Taqueria Los Mexikas,48.21822116059185,16.377298874542188,Mexican Restaurant
2597,1456,48.2282,16.504326315789477,4,2,556ede42498e2dcdfd0d12f5,Seestadt Kantine,48.224612,16.504441,Austrian Restaurant
1667,526,48.1982,16.327484210526315,27,6,5575e49d498e4ce26ec0e463,restaurant meisel,48.198996,16.320851,Austrian Restaurant
1417,276,48.1782,16.415905263157892,17,7,55770af2498e61b304bacc16,Onkel's,48.174474,16.415879999999998,Doner Restaurant
1991,850,48.2082,16.342221052631572,50,45,5582ade4498e75545d030995,Panini Grill,48.20819,16.348828,Italian Restaurant
1371,230,48.1782,16.371694736842105,41,8,5585a52a498e3d1f8912139b,Mevlana Etli Ekmek Salonu,48.17655640650061,16.375099103517144,Turkish Restaurant
2659,1518,48.2382,16.386431578947366,25,17,559181bd498e52457f70a57d,Shanghai Haus,48.23751923061378,16.39013307366876,Asian Restaurant
591,591,48.205939070667604,16.353588010155534,33,29,55941f36498ebeb409f04577,La Mia,48.20627673889189,16.353084113053544,Italian Restaurant
103,103,48.2004609293324,16.338851825876482,23,22,559bd9af498e1fddfbc8587d,Happy Thai Imbiss Spezialitäten,48.200444,16.341881,Thai Restaurant
2814,1673,48.2982,16.415905263157892,2,1,559d11b3498ef73aeffb1051,da Francesco,48.30122656414878,16.419146677323578,Italian Restaurant
1491,350,48.1882,16.342221052631572,26,17,55a6ab28498e34057a51016e,San Giovanni,48.189766999999996,16.347952,Italian Restaurant
2466,1325,48.2282,16.342221052631572,31,15,55b21601498e5ab2ec5c0b91,adem im,48.225584999999995,16.344745,Mediterranean Restaurant
1240,99,48.1682,16.31274736842105,6,3,55b67662498eb250a00ef2b7,Das Hanil,48.16739367436469,16.308188213778248,Sushi Restaurant
587,587,48.205939070667604,16.353588010155534,33,25,55b772f3498e507b4371afd2,Tandoor,48.20407104492188,16.355140686035153,Indian Restaurant
1567,426,48.1882,16.371694736842105,30,17,55bb55e6498e92cd910f71e2,La Bella Vita,48.189516999999995,16.370266,Italian Restaurant
1158,17,48.1382,16.31274736842105,2,1,55c1e7c1498e744520cd58dd,Woktime,48.13762886493691,16.31853370171255,Asian Restaurant
1916,775,48.2082,16.31274736842105,13,10,55c33811498e17078af3cb5a,Lucky Noodles,48.211920101492865,16.311987274219945,Asian Restaurant
1359,218,48.1782,16.35695789473684,13,9,55c37520498eaac7cbcd403e,Kebap Express,48.180145899055475,16.35741649682954,Doner Restaurant
2702,1561,48.2482,16.430642105263153,9,0,55ce1ab9498e99e0aad0476b,Asia Restaurant Fengshui,48.249816774779006,16.43009488729549,Asian Restaurant
2563,1422,48.2282,16.371694736842105,42,39,55d4aca9498e74170fd9a816,Alora,48.229657,16.371526,Italian Restaurant
1233,92,48.1682,16.283273684210524,4,2,55d4caff498ef7b51eb58993,I Calabresi,48.16782760620117,16.283348083496097,Italian Restaurant
2065,924,48.2082,16.371694736842105,50,19,55d74314498ecf05fbb0d344,IKO,48.211529708187825,16.37148144545248,Asian Restaurant
723,723,48.205939070667604,16.368324852260802,28,19,55d7651c498ecaa7a42a9eb9,Trattoria Toscana La No,48.20618055233465,16.368209199886902,Italian Restaurant
2573,1432,48.2282,16.40116842105263,8,1,55da009c498e2c299c7aa28e,Pino Ristorantino,48.224503999999996,16.402841,Italian Restaurant
358,358,48.2004609293324,16.36832551008701,41,24,55db4123498e2dbb3b155559,Ying's Kitchen,48.19927683731589,16.368010410607074,Asian Restaurant
237,237,48.2004609293324,16.35358866798175,28,23,55dc9c5a498ea88689da0faa,Crêpös,48.202459999999995,16.354762,French Restaurant
1677,536,48.1982,16.327484210526315,27,16,55dca153498efa5a175d0271,CIHAN Kebab & Pizza,48.19769870166348,16.325647989434522,Doner Restaurant
766,766,48.21046092933239,16.375064621423412,50,34,55de1aaf498efdd44613add6,schönscharf,48.21073061540723,16.378152927431177,Thai Restaurant
100,100,48.2004609293324,16.338851825876482,23,19,55e5f314498e10250f2952e6,Mily,48.201219,16.33752,Sushi Restaurant
2543,1402,48.2282,16.371694736842105,42,19,55fac9f7498e407bc0005c87,cigköftem,48.231046450791794,16.370920387774927,Turkish Restaurant
2198,1057,48.2182,16.342221052631572,37,2,55fda777498e141bd7fb8e02,Asia Restaurant Jin,48.21606530592843,16.340818326283006,Asian Restaurant
1346,205,48.1782,16.342221052631572,12,8,55fff894498e0e3099efc0d4,Topf Am Herd -w,48.178688049316406,16.337100982666016,Austrian Restaurant
1192,51,48.1482,16.31274736842105,10,6,560193d8498e6d95dea55c83,Asia Restaurant Kama & Co,48.15150451660156,16.314956665039062,Asian Restaurant
1592,451,48.1882,16.40116842105263,7,2,5606ddb1498e2b2f60c8fcad,vienna contemporary dinner,48.187478000000006,16.404876,Austrian Restaurant
664,664,48.2082,16.371694736842105,50,45,560a75ac498edc26802cafb3,رستوران پاکستانی,48.20818328857422,16.37380027770996,Austrian Restaurant
1357,216,48.1782,16.35695789473684,13,7,560fd16e498e9a97ef65aac3,Choco Kebap King,48.17613947353065,16.362281944944908,Turkish Restaurant
299,299,48.19593907066761,16.360327121491935,41,16,56137e5f498e2872ab871b6f,Kojiro 3,48.19741013778935,16.36199369051539,Japanese Restaurant
2178,1037,48.2182,16.327484210526315,28,10,5617d66f498ec64a08e25bac,liman Restaurant Grill & Kebaphaus,48.218493,16.331485999999998,Australian Restaurant
321,321,48.19593907066761,16.360327121491935,41,38,56190076498efdb18c7b7964,Kojiro Pressgasse,48.197589,16.362382,Japanese Restaurant
2546,1405,48.2282,16.371694736842105,42,22,561e909c498ee09c176966eb,Stern,48.227810999999996,16.366789999999998,Doner Restaurant
2473,1332,48.2282,16.342221052631572,31,22,561eacd4498e1ae074283cd0,Mach Ma Curry,48.225722999999995,16.336752,Indian Restaurant
1680,539,48.1982,16.327484210526315,27,19,5627a7b4498e3abfb15d8dd2,Vlaire Uisine,48.19722406346738,16.33005862824337,Asian Restaurant
1571,430,48.1882,16.371694736842105,30,21,5627e78c498ee29481583633,Grätzl Heuriger,48.186953,16.369617,Austrian Restaurant
2740,1599,48.2582,16.371694736842105,7,4,56327b28498e7c9214d2d6ad,Kekko,48.25733219945293,16.36667041782494,Sushi Restaurant
764,764,48.21046092933239,16.375064621423412,50,32,563e0c78498e069d88b3c787,Lale Restaurant,48.21207491765602,16.375433235275267,Turkish Restaurant
2211,1070,48.2182,16.342221052631572,37,15,563efb5bcd10023b2051fa22,griecden,48.215975,16.33764,Austrian Restaurant
2176,1035,48.2182,16.327484210526315,28,8,5645d39c498efa22f1ae26b8,sushi point,48.219941999999996,16.333033,Asian Restaurant
2750,1609,48.2582,16.40116842105263,25,6,564782e7498ef53f70f49554,Casa Mama,48.25592702892108,16.396116272381896,Indian Restaurant
527,527,48.205939070667604,16.345590937212883,18,15,56490c17498eafe196ab1387,Sindh,48.204401410617116,16.347747445106506,Indian Restaurant
2868,48,48.2082,16.371694736842105,16,14,564cc5ba498e5205bdfe2dd8,Settimo Cielo,48.208301303151025,16.37252261541109,Italian Restaurant
469,469,48.21046092933239,16.33885116805027,18,10,564e2910498ef09faed6536d,Oishi Sushi,48.211048999999996,16.339785,Sushi Restaurant
882,882,48.205939070667604,16.383061694366063,28,26,564e32eb498e9cd0694b1cf6,Joyi's Kitchen,48.205324,16.385385,Asian Restaurant
1736,595,48.1982,16.342221052631572,50,48,565077be498e6359d77dcf11,Ristorante Mittelmeer,48.19818496704102,16.337455749511722,Italian Restaurant
1883,742,48.1982,16.40116842105263,25,15,56573092498e2fa76c804125,noodles box,48.198818763514176,16.399848496806573,Chinese Restaurant
1484,343,48.1882,16.342221052631572,26,10,56576ec1498edfd40cb25ead,Panda togo,48.191102,16.346852,Asian Restaurant
2660,1519,48.2382,16.386431578947366,25,18,565b2bce498e3f29242b348f,Yan Asia Imbiss,48.236266,16.389113000000002,Chinese Restaurant
1577,436,48.1882,16.371694736842105,30,27,56601835498e0186da2388d7,ConFusion,48.18434976321824,16.374375210074255,Thai Restaurant
1029,1029,48.2159390706676,16.368324194074965,18,0,56655a3c498e9cc5263993e5,Qero,48.21391,16.36731,Peruvian Restaurant
1462,321,48.1882,16.327484210526315,13,1,566b2e1a498ef09a266195f1,Kuzumun Malikanesi,48.187134,16.323034,Turkish Restaurant
1221,80,48.1582,16.386431578947366,2,0,56718e22498eb6a2143c049d,Fassl Wirt,48.15488,16.382486,Austrian Restaurant
2391,1250,48.2182,16.40116842105263,35,8,5679451d498e90c73a4686fa,Donburi,48.220982,16.396673999999997,Japanese Restaurant
2571,1430,48.2282,16.386431578947366,6,5,567eb465498ef1df2be9e98e,Qui Du,48.2267,16.386785999999997,Chinese Restaurant
1402,261,48.1782,16.371694736842105,41,39,568e5f6d498e246c46d8e22c,Mr. Xiang,48.182045,16.374934,Sushi Restaurant
1342,201,48.1782,16.342221052631572,12,4,56911aa6498e8f20fe43b958,In der Küche - W,48.178175845498096,16.33625184438987,German Restaurant
1329,188,48.1782,16.327484210526315,21,12,56954990498e9653bf389f66,Vatra,48.17576458242317,16.330503523349762,Eastern European Restaurant
880,880,48.205939070667604,16.383061694366063,28,24,569f76b5498e243fc15ab740,Marco Polo Running Sushi,48.20572446197274,16.384288434449026,Sushi Restaurant
456,456,48.2082,16.342221052631572,27,24,56a7b2e6498e9123f268da93,Noodle World,48.20798179258179,16.341273231616885,Chinese Restaurant
426,426,48.2004609293324,16.3750639635972,14,13,56b24df9498e8b9219c69969,Casa Alberto,48.198745,16.375351000000002,Italian Restaurant
1586,445,48.1882,16.386431578947366,10,6,56b5e2f4498e095e6bd8b92d,Cafe Arabica,48.188033181702345,16.380315793963508,Middle Eastern Restaurant
1629,488,48.1982,16.29801052631579,14,3,56b72995498ec22913fb40e6,Feine Sichuan Küche,48.196979999999996,16.2936,Szechuan Restaurant
1271,130,48.1682,16.371694736842105,7,2,56be46db498eef03fd5a817c,Burgerlicious,48.168217,16.367931,American Restaurant
1386,245,48.1782,16.371694736842105,41,23,56c59889cd1051f141aff308,Tuna Döner,48.175913406991775,16.369858542680152,Doner Restaurant
409,409,48.19593907066761,16.36832551008701,38,34,56c75875cd105a5512f51f75,Lanea,48.197896556379106,16.367356307514356,Italian Restaurant
2554,1413,48.2282,16.371694736842105,42,30,56cb3b5b498e9ce2cc2a2593,Nesil,48.22862080854056,16.368350330629088,Doner Restaurant
1576,435,48.1882,16.371694736842105,30,26,56d0c141cd107b3859da466a,Cuccu,48.187073,16.373559,Doner Restaurant
2634,1493,48.2382,16.371694736842105,11,3,56d5978e498eee115f201a4e,Bauernschmankerln,48.23896,16.37689,Austrian Restaurant
2639,1498,48.2382,16.371694736842105,11,8,56d6dfd2cd1024d7652e1245,Bauernschmankerl,48.239006298504584,16.377554686679357,Austrian Restaurant
819,819,48.205939070667604,16.375064621423412,50,37,56d9c9e6cd102abc2f374c7c,Huth Gastwirtschaft,48.20444390682472,16.375314992251347,Austrian Restaurant
1441,300,48.1882,16.29801052631579,18,2,56dc1ca8cd108d4b32e9cda2,Da Ferdinando,48.18648076166478,16.299248300622573,Italian Restaurant
1406,265,48.1782,16.386431578947366,5,2,56e15f95498ede559e668441,Tantuni,48.17486357056098,16.382678600748832,Turkish Restaurant
2631,1490,48.2382,16.371694736842105,11,0,56e2c8b4cd10fabb79be31ae,Noodle King,48.23888772220196,16.377273275839794,Chinese Restaurant
2564,1423,48.2282,16.371694736842105,42,40,56e2fafb498e8a4351f40baa,Etno Zlatibor,48.230885,16.368872,Eastern European Restaurant
1401,260,48.1782,16.371694736842105,41,38,56e5658c498e8f8e71381f13,Gasthaus Timo,48.180077000000004,16.369303,Austrian Restaurant
180,180,48.19593907066761,16.34559027938667,28,22,56ed461f498eab94498f83c4,Pak Choi,48.196464335615254,16.34854193100678,Asian Restaurant
1343,202,48.1782,16.342221052631572,12,5,56f02296498e7524043cb425,kochen - D,48.17816188525956,16.336324513838075,Austrian Restaurant
2611,1470,48.2382,16.342221052631572,2,1,56f3e13a498e35c187e64133,Sub-on,48.240109999999994,16.341173,Doner Restaurant
2570,1429,48.2282,16.386431578947366,6,4,56f44c21498e8df493b13c47,Moretti,48.224514,16.38343,Italian Restaurant
2485,1344,48.2282,16.35695789473684,42,3,56f45899498e9337d281ce74,Pho 33,48.22634067755354,16.355256458919598,Vietnamese Restaurant
901,901,48.21046092933239,16.389801463528677,18,17,56f671d0498ef7a12afad7ef,das Dreieck,48.211416,16.392772,Austrian Restaurant
2732,1591,48.2582,16.342221052631572,7,5,56f7d062498e69128c967bb1,Gerstners Landhaus,48.25736995028257,16.337850093841553,Austrian Restaurant
2734,1593,48.2582,16.35695789473684,2,0,56f7e4db498e1dd7c6bd0f98,Amador's Wirtshaus & Geißlerei,48.253923,16.358715,Austrian Restaurant
1300,159,48.1682,16.474852631578948,3,1,56fc0339498ede64b5aa9c13,Schmankerlbräu,48.16904,16.473292999999998,Austrian Restaurant
2388,1247,48.2182,16.40116842105263,35,5,56fd9f80498e632a810ab16d,Rollercoaster Restaurant,48.217303891528736,16.396229618175038,American Restaurant
1937,796,48.2082,16.327484210526315,27,18,56feb94e498e6f1139f9f1fb,Angie's Pizzeria,48.2126518920695,16.327898157415902,Belgian Restaurant
2806,1665,48.2882,16.415905263157892,1,0,57029479498ee2bba2257be8,La Scala Restaurant Cafe,48.29164200861882,16.416608895279623,Mediterranean Restaurant
1601,460,48.1882,16.415905263157892,13,4,57166bfecd10e1b0bda07b94,Würstlmausi,48.185666999999995,16.415129,Austrian Restaurant
1291,150,48.1682,16.415905263157892,7,6,572a3960498e3c5bbd0d43d7,Shanghai City,48.168163,16.422447000000002,Chinese Restaurant
2683,1542,48.2482,16.327484210526315,3,1,572b69b6498eedbbe8e48a53,Buschenschank Kroiss,48.250578000000004,16.325088,Austrian Restaurant
900,900,48.21046092933239,16.389801463528677,18,16,573609c2498ed7cf0fcba960,El Asador,48.211285,16.387335,Argentinian Restaurant
1887,746,48.1982,16.40116842105263,25,19,5736239d498e6915cc9edd23,Rise Restaurant,48.195561,16.397026,Chinese Restaurant
1480,339,48.1882,16.342221052631572,26,6,573765b6498ed9e514a470f9,stephan die gastwirtschaft,48.188749,16.348722,Austrian Restaurant
699,699,48.21046092933239,16.368324852260802,35,30,573772b5498ec5a36b61eb83,dir wenner dewaan,48.211925,16.366176,Pakistani Restaurant
1909,768,48.2082,16.31274736842105,13,3,573b4d8d498e0b37859ddf89,BBQ,48.212047999999996,16.311264,Doner Restaurant
1423,282,48.1782,16.415905263157892,17,13,5741ac51498ec732ff133f6a,Mr Qu'ebap,48.17387,16.41679,Doner Restaurant
1630,489,48.1982,16.29801052631579,14,4,5741d9da498eddde7f229348,Pizzeria La Strada,48.198134,16.302366,Italian Restaurant
1328,187,48.1782,16.327484210526315,21,11,57436de0498e63cfeea3832a,Damla / Nalin,48.174759886470326,16.331595037600316,Doner Restaurant
1902,761,48.2082,16.283273684210524,3,2,57473f07498e07ee3fe595ac,Rucola,48.20615166714318,16.277700110584068,Italian Restaurant
1430,289,48.1882,16.268536842105263,7,1,57498bd0498e8781de46f453,Das Pizz,48.187443,16.275171,Italian Restaurant
2788,1647,48.2682,16.40116842105263,8,7,57505b23498ef745005dfce9,Sen Menü,48.267669,16.400679,Turkish Restaurant
2414,1273,48.2182,16.40116842105263,35,31,5756b298cd1086df18d265e0,ténéré,48.221790000000006,16.402403,African Restaurant
2779,1638,48.2682,16.386431578947366,3,1,576d0000498ec1db340ff2ab,Zum Jedleseer,48.266113,16.38543,Austrian Restaurant
2418,1277,48.2182,16.415905263157892,4,0,5773f990498e1cb89974b6d8,Paw Wok Bar,48.216677367134636,16.411324236013638,Thai Restaurant
2385,1244,48.2182,16.40116842105263,35,2,5776568c498e1c78eaa64153,Mochi Ramen Bar,48.221851,16.40249,Ramen Restaurant
1924,783,48.2082,16.327484210526315,27,5,577cd5a8498ebe02ffc3aa46,Tantuni-Künefe,48.210204,16.33014,Turkish Restaurant
1415,274,48.1782,16.415905263157892,17,5,57826fc5498e42a896e88215,Lucky Star,48.174686,16.416222,Asian Restaurant
1164,23,48.1382,16.342221052631572,1,0,57837245498eb82e10c5af02,Taha Kebap & Pizza,48.137524,16.33665,Doner Restaurant
1759,618,48.1982,16.35695789473684,50,21,578a6e73498e639d748a8c3e,China Kitchen No. 27,48.19856,16.36267,Szechuan Restaurant
2412,1271,48.2182,16.40116842105263,35,29,5790bef5498e18e958bf6949,Fercos,48.215456,16.398771,Modern European Restaurant
694,694,48.21046092933239,16.368324852260802,35,25,579746f9498e1e34a84f90ec,Chu Chu,48.212528999999996,16.369281,Venezuelan Restaurant
1851,710,48.1982,16.386431578947366,30,13,57af779dcd109fd1a5025347,Léontine,48.19889165160973,16.38400554656982,French Restaurant
1632,491,48.1982,16.29801052631579,14,6,57b6d2de498eebea26ba7260,Restaurant Roßkopf,48.193928,16.299442000000003,Austrian Restaurant
604,604,48.21046092933239,16.360327779318148,18,9,57bac9d1498e610086b912fc,Allora CANTINETTA Vienna,48.212115999999995,16.361456,Italian Restaurant
1579,438,48.1882,16.371694736842105,30,29,57c01ebe498e726a043aabea,Goldener Löwe,48.186232000000004,16.373157,Austrian Restaurant
1224,83,48.1582,16.445378947368418,3,0,57c173ce498e03513e4c3fbb,Restaurant Zentral,48.154213,16.44357,Austrian Restaurant
2401,1260,48.2182,16.40116842105263,35,18,57c42073498e8347cee69f24,Thalassa,48.220721999999995,16.406666,Greek Restaurant
1580,439,48.1882,16.386431578947366,10,0,57c6b5e3498ebb16f2117ebb,IKI,48.18687044737528,16.380091990345903,Asian Restaurant
1318,177,48.1782,16.327484210526315,21,1,57c8453d498ee24fc050c7fd,Pan Kee,48.18161,16.329335999999998,Japanese Restaurant
46,46,48.1904609293324,16.36032646402509,9,2,57d2c9e9498ed490d31e6d34,Mosquito Mexican Restaurant,48.19243,16.36006,Mexican Restaurant
2482,1341,48.2282,16.35695789473684,42,0,57d43f77cd10062aa9cd8b6a,Somkhit Cooks,48.232155999999996,16.356509,Thai Restaurant
2219,1078,48.2182,16.342221052631572,37,23,57d5a5f9498eefa893a5bef5,Sutanahmet Restaurant,48.214768,16.338555,Turkish Restaurant
2812,1671,48.2982,16.386431578947366,2,1,57d802d238fafa8bb52a4ed7,"школьний ""ресторан"" Delasalle",48.296933,16.388236,Austrian Restaurant
2666,1525,48.2382,16.386431578947366,25,24,57d81475498ea60463087f14,Chutney,48.24029,16.385357,North Indian Restaurant
2773,1632,48.2582,16.430642105263153,2,1,57d86dc7498e84fd63e9e7d0,chez Tevye,48.253727000000005,16.430047000000002,Belgian Restaurant
1574,433,48.1882,16.371694736842105,30,24,57d90043cd104a378bce34b1,asiagourmet,48.18564969056161,16.37604268686218,Asian Restaurant
2616,1475,48.2382,16.35695789473684,19,4,57e7d606498e0d78f218c24c,Brust & Keule,48.240271,16.354251,Czech Restaurant
2440,1299,48.2282,16.31274736842105,4,2,57f22abfcd102951e70d4b9c,Mein neuübernommener Chineserer,48.22455,16.312596,Chinese Restaurant
2404,1263,48.2182,16.40116842105263,35,21,57f7cd73498e4aa72f76a2d4,Prater Alm,48.215377000000004,16.401533999999998,Austrian Restaurant
2933,113,48.211591393998596,16.37337960474291,12,11,57f7e0bb498e90a77d7dddf3,Schachtelwirt,48.21141030364671,16.373666538803935,Austrian Restaurant
1573,432,48.1882,16.371694736842105,30,23,57ff684038faf57c50ff9344,Asia Gourmet,48.18466,16.373154,Asian Restaurant
146,146,48.2004609293324,16.34559027938667,27,15,58007685d67c5f0864d1bdc5,Phillipine,48.2008452,16.3461093,Filipino Restaurant
1394,253,48.1782,16.371694736842105,41,31,5802591638fa72299fbebd2b,Željo Grill Burek,48.175883,16.373282999999997,Eastern European Restaurant
1392,251,48.1782,16.371694736842105,41,29,58088fec38fa9283af9fc3a2,Büfetti,48.178193,16.36869,Turkish Restaurant
1931,790,48.2082,16.327484210526315,27,12,580fbd2c38fa74d4d682ad4f,Duru Kebap 3,48.211034000000005,16.322417,Doner Restaurant
96,96,48.2004609293324,16.338851825876482,23,15,581cd7202fea3626412c6cf0,Lin's,48.20092,16.337175,Asian Restaurant
1337,196,48.1782,16.327484210526315,21,20,58304cadfc5a5f4d94fe685e,Saigon Bistro,48.180762,16.332928,Vietnamese Restaurant
2674,1533,48.2382,16.430642105263153,5,1,583054ddc7ec6b2419bfd736,Curry on Fire,48.241906,16.433509,Indian Restaurant
2714,1573,48.2482,16.445378947368418,11,3,5839844d424f937971cf3e86,Wiener Mehlspeiskuchl,48.24709,16.440725,Austrian Restaurant
92,92,48.2004609293324,16.338851825876482,23,11,5839e06814250b703bcce493,Pasargad Restaurant | رستوران پاسارگاد (Pasargad Restaurant) (Pasargad Restaurant),48.200189,16.338914000000003,Persian Restaurant
1246,105,48.1682,16.327484210526315,5,3,5841b3aaf68d8d5570624a5f,Viet House,48.171234000000005,16.327369,Thai Restaurant
2166,1025,48.2182,16.31274736842105,7,5,5841d5d22ec3646c1125fd30,Brasilienhaus,48.216681,16.314794,Brazilian Restaurant
2607,1466,48.2382,16.327484210526315,5,2,5851795e5d6ec67d7369d59c,Herbeck Wein&Bier,48.234726,16.324094,Austrian Restaurant
1312,171,48.1782,16.29801052631579,4,1,58542b76109dfe314254adc5,Restaurant Bergwirt,48.175861,16.297491,Austrian Restaurant
1566,425,48.1882,16.371694736842105,30,16,5856c0ae2980db2d862984bc,Gasthaus Weinhappel,48.187731591016686,16.371731758117676,Austrian Restaurant
1855,714,48.1982,16.386431578947366,30,17,585d7f45f59572639869f274,Arsenal,48.197246,16.386915,Austrian Restaurant
1179,38,48.1482,16.268536842105263,3,2,585ff980460dd94c3a71a38a,Mama Chan's,48.149042,16.265467,Cantonese Restaurant
1456,315,48.1882,16.29801052631579,18,17,58680ce572714f3f6a20838c,Noodle King,48.18738,16.302868,Asian Restaurant
1287,146,48.1682,16.415905263157892,7,2,586968d0469aef424c89656f,Yengari,48.171645,16.418947,Turkish Restaurant
1467,326,48.1882,16.327484210526315,13,6,586eb907ac329156c78ff8f8,Weisse Sonne,48.191603,16.328156,Eastern European Restaurant
936,936,48.22046092933239,16.3535873519697,18,3,5877f5ca16f0004ec8ba90dd,Taverna Gyros,48.222338,16.352913,Greek Restaurant
1398,257,48.1782,16.371694736842105,41,35,58838cc6e9dad13b1ffee8ca,Zeno,48.176196999999995,16.374899,Middle Eastern Restaurant
1477,336,48.1882,16.342221052631572,26,3,588ce211f5bfab372c902760,Xin Chào,48.190556,16.344501,Vietnamese Restaurant
154,154,48.2004609293324,16.34559027938667,27,23,5893337e4ca49b2aa5ec1969,Old Quarter,48.201945,16.347426000000002,Vietnamese Restaurant
1230,89,48.1582,16.489589473684212,1,0,58a595d28f0be45941fb282b,Gasthaus Binder,48.160194,16.484845999999997,Austrian Restaurant
1593,452,48.1882,16.40116842105263,7,3,58aadad584c4ed19f8441b1d,Riva ROSA,48.19,16.39759,Italian Restaurant
1414,273,48.1782,16.415905263157892,17,4,58ac7e3e84c4ed19f85c26f6,Kebab BRO'S,48.177364000000004,16.413443,Turkish Restaurant
665,665,48.2082,16.371694736842105,50,46,58adc8a89168024bbbc96054,Austria,48.208176,16.373820000000002,Austrian Restaurant
1344,203,48.1782,16.342221052631572,12,6,58af39057d0f6d3e473527c5,Akku Fontanella delivery,48.179266,16.340757999999997,Italian Restaurant
510,510,48.21046092933239,16.345590937212883,21,19,58b1b0f97d0f6d3e479ec00d,Sajado Express,48.210190000000004,16.345679999999998,Asian Restaurant
125,125,48.19593907066761,16.338851825876482,27,21,58b1c15861052868fb48874a,Merak | Traditional Characoal Barbecue,48.194694,16.336826000000002,Eastern European Restaurant
2149,1008,48.2082,16.40116842105263,4,3,58b44d21cf44514697a0635a,Wittelsbach Kebap,48.206177000000004,16.398578,Doner Restaurant
1207,66,48.1482,16.474852631578948,2,1,58b5b81125911e1883a6b5c8,Manuel'sTaverne,48.150517,16.471926,Greek Restaurant
1842,701,48.1982,16.386431578947366,30,4,58c18e7bcc5b6a4a587c3d91,Marco Serra Enogastronomie,48.198772,16.387434,Italian Restaurant
1210,69,48.1582,16.268536842105263,3,0,58c43b5abbd6d16df664128f,Pizzeria Francesco,48.156136,16.272945,Italian Restaurant
1651,510,48.1982,16.31274736842105,21,11,58c82cf7297c1650ab1b71f7,ONAR,48.199165,16.312332,Mediterranean Restaurant
1157,16,48.1382,16.31274736842105,2,0,58cfb079cc5b6a59c5fddbb7,Perfect Kitchen,48.137236,16.317012,Turkish Restaurant
385,385,48.19593907066761,16.36832551008701,38,10,58d00d63084be50860dffc4b,Sha Guo,48.194219,16.367629,Asian Restaurant
157,157,48.2004609293324,16.34559027938667,27,26,58d16c3dcf445119f840bef7,Yipin Buyi,48.201824,16.346447,Szechuan Restaurant
1282,141,48.1682,16.386431578947366,7,6,58d260a814f8f47b29d9b1f2,Gölsentaler‘s Beisl,48.165314,16.381667,Austrian Restaurant
1757,616,48.1982,16.35695789473684,50,19,58e9261f88cfcc1ddbbfd04c,Soya Noodles,48.197999814659795,16.350405393406316,Asian Restaurant
662,662,48.2082,16.371694736842105,50,43,58eb2289e309e104fbf37748,Gerstner Landhaus,48.20786,16.374689,Austrian Restaurant
1610,469,48.1882,16.445378947368418,1,0,58eb2bf016f0000d9731e3c5,Lusthaus Wein,48.188375,16.440075,Austrian Restaurant
1525,384,48.1882,16.35695789473684,50,25,58eca7900e0a1e75117df0c4,Milos Grillinsel Balkan Grill,48.184053000000006,16.355435,Eastern European Restaurant
1553,412,48.1882,16.371694736842105,30,3,58f0abaaee628b62e12fd0b9,Leberkas-Pepi,48.1856952975734,16.37595959990192,Austrian Restaurant
511,511,48.21046092933239,16.345590937212883,21,20,58f10c001f74405e77616c10,Koinonia+,48.212021,16.343865,Asian Restaurant
2528,1387,48.2282,16.371694736842105,42,4,590776470e5da82f2167e620,Kent Restaurant,48.231476600208026,16.370357214210113,Kebab Restaurant
2719,1578,48.2482,16.445378947368418,11,8,591c354a65cdf82e060b1dcb,Aangan,48.249541,16.445383,Indian Restaurant
2609,1468,48.2382,16.327484210526315,5,4,591db9ba5455b213eb4c466d,Unı Imbıss Döner,48.237083,16.332794,Doner Restaurant
2507,1366,48.2282,16.35695789473684,42,25,5937ee705d0fea74a97f7209,Grüner Schatten,48.229636,16.351902,Bangladeshi Restaurant
2583,1442,48.2282,16.415905263157892,4,3,593e7e32f427de5f7f82e0d1,Le Trouquet,48.230582,16.411476999999998,French Restaurant
2817,1676,48.3082,16.327484210526315,2,1,59455f0e86f4cc40161636ab,Mais,48.307762,16.321177,Asian Restaurant
2410,1269,48.2182,16.40116842105263,35,27,5948f20417556232c3327026,Alte-Stadt,48.21881106433703,16.406665519207312,Austrian Restaurant
140,140,48.2004609293324,16.34559027938667,27,9,594ed942d69ed07b8e0161b7,Yi Pin Bu Yi,48.201869,16.346808,Chinese Restaurant
2406,1265,48.2182,16.40116842105263,35,23,5951368da6fe4d184fbc11c6,Amici Miei,48.222021999999996,16.402279,Italian Restaurant
1925,784,48.2082,16.327484210526315,27,6,5953f587b2958f3d6df6d204,Sultan Kebab & Pizzahaus,48.211028000000006,16.323710000000002,Doner Restaurant
2118,977,48.2082,16.386431578947366,50,22,59593e8809e2832a1a2ee08d,Jamie's Italian,48.2076107529155,16.379868322419966,Italian Restaurant
2771,1630,48.2582,16.415905263157892,3,2,595bd5128a6f171c0a857402,Chiki,48.257284000000006,16.410419,Chinese Restaurant
238,238,48.2004609293324,16.35358866798175,28,24,595e376a03132020d47ce3a3,Rosmarin. Nach Griechischem Rezept,48.198864,16.353434,Greek Restaurant
2170,1029,48.2182,16.327484210526315,28,2,596659c6fd16bb6cf937c7fb,O’Sfizio,48.21885,16.332729999999998,Italian Restaurant
1943,802,48.2082,16.327484210526315,27,24,596c9386be70786ccb9f9257,Taste & See,48.20714355517893,16.330726146697998,African Restaurant
1496,355,48.1882,16.342221052631572,26,22,596cfa785315937bd5873c91,La Pergola Osteria Friulana,48.19084,16.347656,Italian Restaurant
2415,1274,48.2182,16.40116842105263,35,32,596f7dc628374e0f76ed127b,Meister Lángos,48.216458,16.397678,Hungarian Restaurant
2797,1656,48.2782,16.386431578947366,2,0,597774b63731ee4584eb2eaa,Kitchen 21,48.276302,16.38871,Pakistani Restaurant
1172,31,48.1382,16.40116842105263,6,4,5978c7cb9b047356e756568e,Fritzi's Steirereck,48.13693,16.397247,Austrian Restaurant
1178,37,48.1482,16.268536842105263,3,1,597b7fe12e2680644f11ba9d,Il Gabbiano,48.150778,16.268531,Italian Restaurant
243,243,48.19593907066761,16.35358866798175,12,1,5981e5901ffe976cb542c548,Mi Barrio,48.19445051901599,16.35205775499344,Latin American Restaurant
2084,943,48.2082,16.371694736842105,50,38,59830e0f535d6f7629790be5,La Sosta,48.208192,16.365642,Italian Restaurant
458,458,48.2082,16.342221052631572,27,26,598f3d94dd12f8153ad3ec46,Do Eat,48.207775,16.342962,Asian Restaurant
374,374,48.2004609293324,16.36832551008701,41,40,599182a2febf317ebe10906d,Ciao Amici,48.201294,16.368369,Italian Restaurant
1309,168,48.1782,16.283273684210524,8,6,599193a85c68384be5e43c90,Il Giardino,48.177367,16.283867,Italian Restaurant
1486,345,48.1882,16.342221052631572,26,12,59971f0cb399f744b936b440,Pho • Vietnam Food,48.191067,16.346752,Vietnamese Restaurant
825,825,48.205939070667604,16.375064621423412,50,43,5999be54da5e5606a941e9d1,Bukowina Restaurant,48.206115999999994,16.373552,Romanian Restaurant
98,98,48.2004609293324,16.338851825876482,23,17,599c82a8a4236278ff6c43ca,Tapas Mayas,48.201053,16.340797,Tapas Restaurant
2165,1024,48.2182,16.31274736842105,7,4,59a0288ce97dfb71b7f31862,DS Arjuna,48.219539000000005,16.307634,Indian Restaurant
2587,1446,48.2282,16.460115789473686,8,1,59a3f49b75cb8c77a8d1163b,Morvarid Pizza Kebab,48.228424,16.456381,Doner Restaurant
2179,1038,48.2182,16.327484210526315,28,11,59ac414f42d8c27897379560,Raj Mahal,48.220116,16.332922,Indian Restaurant
414,414,48.2004609293324,16.3750639635972,14,1,59ae97fbd3cce861057bff53,Meissl & Schadn,48.20214436411321,16.375152992564345,Austrian Restaurant
2687,1546,48.2482,16.342221052631572,4,2,59afe4e74a7aae7ed5198b49,Zum Alten Nussbaum,48.244935,16.343735000000002,Austrian Restaurant
2448,1307,48.2282,16.327484210526315,9,6,59b056f695da0c6a448878ad,Felmer's Bistro,48.227391,16.33377,Austrian Restaurant
1926,785,48.2082,16.327484210526315,27,7,59b1a9d5c0f1635d39605817,Laziza Restaurant,48.210015999999996,16.330229,Middle Eastern Restaurant
782,782,48.205939070667604,16.375064621423412,50,0,59cbccb5b37e2b6989e4afd1,Elissar - Libanesische Küche,48.20385426298432,16.375456263274085,Lebanese Restaurant
1180,39,48.1482,16.283273684210524,3,0,59d7ef3251950e4b69225ea6,Meng's Thai Imbiss,48.14928,16.289649,Thai Restaurant
274,274,48.2004609293324,16.360327121491935,29,20,59dcec9b9e0d5418cbf84593,dupa venue,48.200278979654385,16.359801292419437,American Restaurant
1187,46,48.1482,16.31274736842105,10,1,59dcfae1dec1d6104eb7c376,Sushi Xiang,48.150824,16.315058999999998,Asian Restaurant
2849,29,48.207069535333794,16.37674948933341,10,9,59de7a84491be75244976e7b,Philigrano,48.206866,16.376325,Italian Restaurant
588,588,48.205939070667604,16.353588010155534,33,26,59e1ed7b86bc495799abc19a,Jia Restaurant,48.2055,16.351685999999997,Asian Restaurant
595,595,48.21046092933239,16.360327779318148,18,0,59ec7bf6829b0c09cff484cc,Ebi,48.21128164245663,16.362328529466776,Japanese Restaurant
78,78,48.1982,16.342221052631572,24,21,59ee339f9ba3e5673a7fdeb3,9Delou,48.198807,16.341398,Chinese Restaurant
1276,135,48.1682,16.386431578947366,7,0,59f0c1bd345cbe36e4ee58a2,Chaya,48.169292,16.380479,Asian Restaurant
1570,429,48.1882,16.371694736842105,30,20,59f20508b3d8e27e2f60ef5e,Hot Lemon Kitchen,48.185629999999996,16.37161,Asian Restaurant
2662,1521,48.2382,16.386431578947366,25,20,59f8a5e5be70782f97d94adf,Pandos,48.240349,16.385819,Mexican Restaurant
2847,27,48.207069535333794,16.37674948933341,10,7,59fcdde7acc5f50cfa840d8a,Bistrot Le Petit,48.20632,16.377064,French Restaurant
2488,1347,48.2282,16.35695789473684,42,6,5a01b895947c057f96bf13d8,Kim Chingu,48.227832,16.359884,Korean Restaurant
696,696,48.21046092933239,16.368324852260802,35,27,5a0601aadb1d816f16680472,Ipanema Brazil Bar & Bistro,48.211723,16.369220000000002,Brazilian Restaurant
684,684,48.21046092933239,16.368324852260802,35,15,5a0a1355ee628b7be1fac968,Aï,48.21056,16.369173,Sushi Restaurant
2729,1588,48.2582,16.342221052631572,7,2,5a102425805e3f75a4dd215f,L'osteria,48.25483937767724,16.342782826603766,Italian Restaurant
2589,1448,48.2282,16.460115789473686,8,3,5a139ab8aa6c9507b5a56045,WOK HOUSE Asia Restaurant,48.22576,16.4650399,Asian Restaurant
1444,303,48.1882,16.29801052631579,18,5,5a244471fd16bb353b3ffec3,Restaurant Wintergarten,48.186455,16.30215,Austrian Restaurant
336,336,48.2004609293324,16.36832551008701,41,2,5a24659409e2836fcda92220,Ali's Grill,48.2019856735229,16.36755842695799,Turkish Restaurant
1840,699,48.1982,16.386431578947366,30,2,5a26ecc7112c6c4f2cd1b085,Meze Meze,48.201406,16.387451000000002,Greek Restaurant
1090,1090,48.22046092933239,16.383061036180223,13,3,5a352d640881587f92fdd54c,TAYA Washoku Deli,48.222571,16.382324,Japanese Restaurant
1686,545,48.1982,16.327484210526315,27,25,5a3aa7d460255e774bc07152,Burek-Vučko '84,48.199723,16.333814999999998,Eastern European Restaurant
128,128,48.19593907066761,16.338851825876482,27,24,5a3d441ebed4834ef2444b8f,老北京,48.197916,16.337678,Chinese Restaurant
1850,709,48.1982,16.386431578947366,30,12,5a3d5b7d09e283441fc15508,Aso Rock Cafr Bar Lounge,48.194787,16.385057999999997,African Restaurant
2226,1085,48.2182,16.342221052631572,37,30,5a3dacc96adbf53a1c65d59f,La Passione,48.222398,16.341556,Italian Restaurant
1672,531,48.1982,16.327484210526315,27,11,5a3e7c29002f4c20b3ebae1e,Niški Merak,48.199172999999995,16.33185,Eastern European Restaurant
2793,1652,48.2682,16.460115789473686,2,1,5a59f948628c833187c9eb02,Hiro,48.265307,16.455697,Japanese Restaurant
184,184,48.19593907066761,16.34559027938667,28,26,5a5a4d521ffed736f6215012,Blattgold Flagship Store - Vienna,48.195319466554444,16.34283497929573,Modern European Restaurant
1860,719,48.1982,16.386431578947366,30,22,5a5f862d9de23b345c85d5f7,Benkei,48.197055999999996,16.387272,Japanese Restaurant
396,396,48.19593907066761,16.36832551008701,38,21,5a60d0a1c365885c6bc30bfe,Mezze Roma,48.19761,16.367762,Italian Restaurant
2791,1650,48.2682,16.445378947368418,3,2,5a6c3fc3dee770696f5ae382,Nefis kebap,48.27151468521304,16.447587515249324,Doner Restaurant
713,713,48.205939070667604,16.368324852260802,28,9,5a7075d94f0e585cddefec42,Miss Maki,48.205365,16.370329,Sushi Restaurant
2613,1472,48.2382,16.35695789473684,19,1,5a74a6b4012358406ca1abc4,Vienam,48.237083,16.354113,Vietnamese Restaurant
476,476,48.21046092933239,16.33885116805027,18,17,5a7659ba95da0c6d9835d174,Mangalet Kebab,48.211039,16.339137,Kebab Restaurant
2696,1555,48.2482,16.371694736842105,4,3,5a79ee08a87921763f79c645,Brotzeit Gourmet Kantine,48.246778000000006,16.36606,Austrian Restaurant
102,102,48.2004609293324,16.338851825876482,23,21,5a82a9ffb8fd9d6fa2d7f785,Cylon Curry,48.19929069096367,16.338829100131985,Sri Lankan Restaurant
1365,224,48.1782,16.371694736842105,41,2,5a85d3dba4b51b359e8fee7b,Leibnizgasse 9 Köfteci,48.175545,16.37646,Doner Restaurant
353,353,48.2004609293324,16.36832551008701,41,19,5a86da643abcaf25dcfc1934,Le Stella Bianca,48.202478,16.368160999999997,Italian Restaurant
560,560,48.21046092933239,16.353588010155534,24,22,5a8efcaee7a237608e7fcde0,Nola The Italian,48.209239000000004,16.352612,Italian Restaurant
2676,1535,48.2382,16.430642105263153,5,3,5a8f16bf67af3a74d3b71e5b,Phoever,48.24201,16.433254,Sushi Restaurant
2544,1403,48.2282,16.371694736842105,42,20,5a933ad4d1a40270d1125028,Flamingo Restaurant,48.23048,16.367144,Turkish Restaurant
1582,441,48.1882,16.386431578947366,10,2,5a95a8319de23b07e7941675,Al Banco,48.187186032169656,16.380685632925154,Italian Restaurant
397,397,48.19593907066761,16.36832551008701,38,22,5a96fe501de7651f601aede2,Da Capo Restaurant,48.197403,16.367662,Italian Restaurant
1049,1049,48.22046092933239,16.375065279609245,7,2,5aa3b18c4aa3f802de742585,Ignaz Jahn,48.221272,16.376954,Austrian Restaurant
1270,129,48.1682,16.371694736842105,7,1,5aafb1996bd36b5ee4bb1948,Restaurant Casa Romaneasca,48.17065064849623,16.371549367904663,Romanian Restaurant
679,679,48.21046092933239,16.368324852260802,35,10,5abea2f2ff0306051db539e7,Cafe Restaurant Leto,48.212525,16.369467,Mediterranean Restaurant
282,282,48.2004609293324,16.360327121491935,29,28,5ac4eadea22db7536a289709,Ebi Mini,48.200928999999995,16.362169,Sushi Restaurant
1288,147,48.1682,16.415905263157892,7,3,5aca37c6a4ba7c05bfe184f4,Samran Thai,48.170177,16.415413,Thai Restaurant
1913,772,48.2082,16.31274736842105,13,7,5ad0d1bc6dcf04066dcbe0ab,Han Sushi & Wok,48.205884999999995,16.309242,Asian Restaurant
2620,1479,48.2382,16.35695789473684,19,8,5ad0e28acf72a047d41f9d0c,Bocconcino,48.239643,16.354937,Italian Restaurant
1260,119,48.1682,16.342221052631572,19,12,5ad46823acc5f54f9177b37e,Pasta Pasta,48.16784859024626,16.346972286701202,Italian Restaurant
1428,287,48.1782,16.489589473684212,2,1,5ad656f74c9be624bd1f3dd8,Şafak’ın Yeri,48.177890000000005,16.489775,Turkish Restaurant
1476,335,48.1882,16.342221052631572,26,2,5ada2358febf315132249d62,Aend,48.189693,16.341063000000002,Scandinavian Restaurant
1939,798,48.2082,16.327484210526315,27,20,5aec5f3ba8eb60002c4be906,Zum Alten Sünder,48.209449,16.323717000000002,Austrian Restaurant
2568,1427,48.2282,16.386431578947366,6,2,5aedfa3b89e4900039a9b932,Kashmir Grill,48.224365,16.383368,Pakistani Restaurant
2197,1056,48.2182,16.342221052631572,37,1,5af17225345cbe002c753c03,Lucky Noodles,48.216377,16.341271,Asian Restaurant
1339,198,48.1782,16.342221052631572,12,1,5af17e94c53093002c93806c,Homolje Grill,48.182672,16.341975,Eastern European Restaurant
1988,847,48.2082,16.342221052631572,50,42,5afa9dc38c812a002c77d4f7,Konya Sofrası Thaliastr,48.208878000000006,16.336048,Turkish Restaurant
248,248,48.19593907066761,16.35358866798175,12,6,5afac4def0b490002c30e783,Shokudo Kuishimbo,48.195186,16.351729000000002,Japanese Restaurant
2425,1284,48.2182,16.460115789473686,3,1,5afcd084dec1d6002ca7678c,PANWANDEEP RANDHAWA,48.222609000000006,16.46145,Indian Restaurant
1862,721,48.1982,16.386431578947366,30,24,5aff042f03369300336e3c7f,Heuriger Am Belvedere,48.195676,16.382742999999998,Austrian Restaurant
585,585,48.205939070667604,16.353588010155534,33,23,5b07efa9838e59002c00d0a6,Ngô's Kitchen,48.20525,16.354218,Vietnamese Restaurant
317,317,48.19593907066761,16.360327121491935,41,34,5b0bcf2bccad6b002ca3f62d,D'antonio,48.1974,16.36074,Italian Restaurant
1867,726,48.1982,16.386431578947366,30,29,5b0d365b3f5c69002ce8a51b,Noodle King,48.194891999999996,16.386611,Asian Restaurant
717,717,48.205939070667604,16.368324852260802,28,13,5b0fe43cc9a517002c89c1f7,Marrakesch,48.205438,16.370278,Middle Eastern Restaurant
1864,723,48.1982,16.386431578947366,30,26,5b11ace05f68b9002cbbd4ca,Prinz Kebab,48.194828,16.38597,Doner Restaurant
2492,1351,48.2282,16.35695789473684,42,10,5b1415c667f62b002c0939a9,Rados Gastwirtschaft,48.225285,16.355398,Austrian Restaurant
2457,1316,48.2282,16.342221052631572,31,6,5b1ae38cf15b51002c945767,Ariston Hellenic Restaurant,48.225809999999996,16.34013,Greek Restaurant
558,558,48.21046092933239,16.353588010155534,24,20,5b1c06407269fe002c5c4705,Salonga,48.211929,16.351786999999998,Peruvian Restaurant
2474,1333,48.2282,16.342221052631572,31,23,5b1c188b6f0aa2002caa5a7a,Liu Liu,48.224151,16.342163,Chinese Restaurant
67,67,48.1982,16.342221052631572,24,10,5b1e982bca18ea0039f48cad,Maivy,48.198671999999995,16.341832,Vietnamese Restaurant
1277,136,48.1682,16.386431578947366,7,1,5b2e2b30237dee002dbe9eb8,Jamas,48.169723,16.380278,Greek Restaurant
2206,1065,48.2182,16.342221052631572,37,10,5b2fd82f48b04e0034a1a625,Gasthaus Pezzl,48.218857,16.337598999999997,Austrian Restaurant
1796,655,48.1982,16.371694736842105,50,8,5b488a1867af3a002c5813b9,SHU Spicy Sichuan Food,48.198006,16.365907999999997,Szechuan Restaurant
1663,522,48.1982,16.327484210526315,27,2,5b49a69b42d8c2002c01e755,All Reis Bangkok Street Food,48.197334000000005,16.329017999999998,Thai Restaurant
1250,109,48.1682,16.342221052631572,19,2,5b50d45b66fc65003937c66d,Vapiano,48.168316,16.348173000000003,Italian Restaurant
2800,1659,48.2782,16.40116842105263,2,1,5b5228118d0a530039e27db0,Swagat,48.277903,16.40514,Indian Restaurant
2735,1594,48.2582,16.35695789473684,2,1,5b5339e1dee770002cfe870a,Einkehr Zur Zahnradbahn,48.259496,16.362416,Austrian Restaurant
1384,243,48.1782,16.371694736842105,41,21,5b58bf7195d986002c9aaeb7,Karafirin Lahmacun & Tirit,48.176419,16.376865,Turkish Restaurant
2522,1381,48.2282,16.35695789473684,42,40,5b5e01c04f0e58002b23efec,Bio Speisen,48.22765,16.356358,Indian Restaurant
2816,1675,48.3082,16.327484210526315,2,0,5b5f62de3e6741002c75b232,Camping-Buffet-Restaurant Fam.Koller,48.310837,16.328064,Austrian Restaurant
1933,792,48.2082,16.327484210526315,27,14,5b675f9ff193c0002c060da1,Curry Indianer,48.210636,16.330773999999998,Indian Restaurant
1154,13,48.1382,16.283273684210524,5,3,5b697d405d891b002cf437ce,Stastino,48.137714,16.279184,Modern European Restaurant
1315,174,48.1782,16.31274736842105,2,0,5b6c8f02911fc4002ce942cb,Restaurant Im Schönbrunnerbad,48.179474,16.314783,German Restaurant
780,780,48.21046092933239,16.375064621423412,50,48,5b6de2222b6710002cb3c3e5,Tre Ristorante,48.20845,16.376434,Italian Restaurant
1827,686,48.1982,16.371694736842105,50,39,5b71602e121384002c23e1e1,Shu,48.197936999999996,16.365885000000002,Chinese Restaurant
1421,280,48.1782,16.415905263157892,17,11,5b71eb38e1f0aa002cb4c39b,Cikomen,48.17827467736614,16.411862969398502,Doner Restaurant
2530,1389,48.2282,16.371694736842105,42,6,5b72c2fa237dee002c3185de,Thaihouse,48.230494,16.373254,Thai Restaurant
720,720,48.205939070667604,16.368324852260802,28,16,5b7f0c487dc9e1002cebc4ed,Marrakesch,48.205754999999996,16.370751000000002,Moroccan Restaurant
1938,797,48.2082,16.327484210526315,27,19,5b7fbb4e249623002cb7a474,Sandwich & Bolani Haus,48.2099120070399,16.33092999458313,Afghan Restaurant
1234,93,48.1682,16.283273684210524,4,3,5b81bf91b6eedb002c1417e1,May,48.16389,16.284418,Italian Restaurant
1231,90,48.1682,16.283273684210524,4,0,5b81c006a2c00b002c2ad68c,May31,48.16389,16.284418,Italian Restaurant
1391,250,48.1782,16.371694736842105,41,28,5b9cd59973fe25002c91f90c,Schmankerl Treff Prokes,48.176144,16.376585000000002,Austrian Restaurant
508,508,48.21046092933239,16.345590937212883,21,17,5ba1372060255e002c39e86b,Villa Maria,48.210346,16.344618,Greek Restaurant
2556,1415,48.2282,16.371694736842105,42,32,5ba531ecba57b4002c9f65bd,Konya,48.230057,16.373343,Turkish Restaurant
502,502,48.21046092933239,16.345590937212883,21,11,5bb8f06b35811b00399a78df,Marcodi,48.212452,16.344987,Seafood Restaurant
2532,1391,48.2282,16.371694736842105,42,8,5bbb1bee2632ec002cdfc5b4,Has Konya Etliekmek,48.230071,16.373269,Turkish Restaurant
2443,1302,48.2282,16.327484210526315,9,1,5bbb9c57e1f0aa002c42d0b8,Asia Imbiss,48.231377,16.328777,Asian Restaurant
1278,137,48.1682,16.386431578947366,7,2,5bc885c0f5e9d7002ca92cca,Opas Haus,48.168832,16.380714,Middle Eastern Restaurant
474,474,48.21046092933239,16.33885116805027,18,15,5bd21b0b12c8f00039b7e773,U6 Box,48.208718,16.338406,Doner Restaurant
686,686,48.21046092933239,16.368324852260802,35,17,5bd86850f2554e002c31b4fa,Reserva Ibérica by PACO,48.209571000000004,16.366757999999997,Tapas Restaurant
1932,791,48.2082,16.327484210526315,27,13,5bdc6316db1d81002c7d4c2d,Duru Cafe Restaurant,48.210518300793886,16.325072050094604,Mediterranean Restaurant
2419,1278,48.2182,16.415905263157892,4,1,5be80cb042d8c2002cbf9d28,China-Restaurant Gedeihen,48.217728,16.412947,Chinese Restaurant
1147,6,48.1282,16.31274736842105,6,5,5bf447ae01bc5a002c08f79f,Asiafood Takeaway,48.129844,16.310126,Asian Restaurant
1673,532,48.1982,16.327484210526315,27,12,5bfba7e0149946002ccb6a08,Casa Miorita,48.198791533699456,16.32771670818329,Romanian Restaurant
250,250,48.19593907066761,16.35358866798175,12,8,5c007514112c6c002cdbe42b,Wang's Home Kitchen,48.195551898583034,16.355772614479065,Asian Restaurant
1327,186,48.1782,16.327484210526315,21,10,5c06e9c286bc49002c840a99,Meidlinger Deewan,48.17875,16.331460999999997,Pakistani Restaurant
2463,1322,48.2282,16.342221052631572,31,12,5c15237ab6b04b002c4fe2fa,Yong Li,48.22767279729538,16.336836218833927,Dim Sum Restaurant
2738,1597,48.2582,16.371694736842105,7,2,5c2621ab419a9e002c7d9157,One Night In Bejing,48.26027,16.367144,Chinese Restaurant
2794,1653,48.2782,16.283273684210524,1,0,5c2a09b212c8f0002c8cba44,Unser Weidlinger,48.2809109,16.2842598,Austrian Restaurant
2471,1330,48.2282,16.342221052631572,31,20,5c30ee1bda7080002cdb17f6,Phoenix Restaurant,48.22666323773343,16.34570628404617,Persian Restaurant
1600,459,48.1882,16.415905263157892,13,3,5c3724b1492822002dfeed1f,Natürlich Essbar,48.185154,16.418110000000002,Asian Restaurant
1074,1074,48.2159390706676,16.375065279609245,23,20,5c3dd59bbd4009002c6bf553,Donasia,48.215058,16.375542000000003,Asian Restaurant
2627,1486,48.2382,16.35695789473684,19,15,5c40d14e1987ec002c0b09c9,Chilidorf,48.239582,16.354983999999998,Szechuan Restaurant
2390,1249,48.2182,16.40116842105263,35,7,5c476bb7d48ec1002ca63477,Leopoldstädter Deewan,48.219906,16.405756,Pakistani Restaurant
2536,1395,48.2282,16.371694736842105,42,12,5c4b16d4a6ec98002cc5d2d8,Vietnjam,48.230571999999995,16.375592,Vietnamese Restaurant
2619,1478,48.2382,16.35695789473684,19,7,5c4c9150dd8442002cc9c269,Hongkong Palace,48.235620000000004,16.356014000000002,Chinese Restaurant
303,303,48.19593907066761,16.360327121491935,41,20,5c4c9504418686002c54d9e3,Wang-Nudelshop,48.196471,16.359534,Chinese Restaurant
2490,1349,48.2282,16.35695789473684,42,8,5c65855a603d2a00390e0660,Baomi,48.228854999999996,16.358960999999997,Vietnamese Restaurant
2677,1536,48.2382,16.430642105263153,5,4,5c6ae0543731ee002cdc3ea0,Vapiano,48.242332,16.432942999999998,Italian Restaurant
2435,1294,48.2182,16.504326315789477,1,0,5c8e63e6f4b525002c605f1f,Mc Donald‘s,48.216086,16.504822,Fast Food Restaurant
1638,497,48.1982,16.29801052631579,14,12,5c94c814c47cf9002c27fc39,Lindbergh,48.194225,16.29496,Austrian Restaurant
2503,1362,48.2282,16.35695789473684,42,21,5c95225c9d7468002cffceed,Oko Sushi,48.225153999999996,16.353594,Sushi Restaurant
2622,1481,48.2382,16.35695789473684,19,10,5ca0e1d806fb60002c9743cc,Restaurant Döbling,48.240355,16.35456,Austrian Restaurant
2501,1360,48.2282,16.35695789473684,42,19,5caa29318c35dc002cbef5dc,Tiflis,48.226028,16.356714,Caucasian Restaurant
1583,442,48.1882,16.386431578947366,10,3,5cb05677588e36002c4e2034,Eugen21,48.185152,16.383492999999998,Austrian Restaurant
2420,1279,48.2182,16.415905263157892,4,2,5cb061b181635b002c4a30c9,Iki’s Roast Grill,48.217482000000004,16.410598,Kebab Restaurant
2757,1616,48.2582,16.40116842105263,25,13,5cb9c303aa6c95003972cd61,Nudelbox,48.256687,16.401857999999997,Chinese Restaurant
1590,449,48.1882,16.40116842105263,7,0,5ccc1ff41fa763002c3604bd,Ni Jo,48.189223999999996,16.397458,Asian Restaurant
1869,728,48.1982,16.40116842105263,25,1,5cdc094cfe3740002c13d2d9,Ebi,48.201854,16.400967,Asian Restaurant
2298,1157,48.2182,16.371694736842105,50,15,5ce045637b385f002cd9155d,Nguyen’s,48.218708,16.377843,Vietnamese Restaurant
1857,716,48.1982,16.386431578947366,30,19,5ce151922632ec002cbd27c4,Restaurant Hu,48.19763,16.381021,Chinese Restaurant
945,945,48.22046092933239,16.3535873519697,18,12,5ce80ba9d552c7002dfa7593,Little Italian Deli,48.22215,16.352745000000002,Italian Restaurant
1641,500,48.1982,16.31274736842105,21,1,5ce96f90f5e9d7002cadb410,Viet Soup,48.196438,16.316197,Vietnamese Restaurant
1340,199,48.1782,16.342221052631572,12,2,5cea891b9e0d54002c905abf,Kirin - Asia Restaurant,48.181540000000005,16.3384,Asian Restaurant
1461,320,48.1882,16.327484210526315,13,0,5cf64613535d6f002c754955,Hünkar Restaurant,48.191303000000005,16.32882,Doner Restaurant
252,252,48.19593907066761,16.35358866798175,12,10,5cffb236d552c7002c607b48,Hokkaido Restaurant,48.19561984005376,16.35565459728241,Asian Restaurant
1469,328,48.1882,16.327484210526315,13,8,5d0296d7d5d77a002322d83d,Fast And Nice,48.190288,16.323042,Sushi Restaurant
2386,1245,48.2182,16.40116842105263,35,3,5d1494b1e324520023780240,Finn,48.215579999999996,16.406022,Asian Restaurant
2575,1434,48.2282,16.40116842105263,8,3,5d166df4d29cbb00238f6060,La Stazione,48.226548,16.398775,Italian Restaurant
1504,363,48.1882,16.35695789473684,50,4,5d25b8dbe7e5fc0023c9941c,Peace Kitchen,48.192409999999995,16.355985,Middle Eastern Restaurant
885,885,48.21046092933239,16.389801463528677,18,1,5d2cc0567cfbfe0023496c67,Pumpui,48.212284999999994,16.389413,Thai Restaurant
1481,340,48.1882,16.342221052631572,26,7,5d3317f92010d600080d39b0,Bella Italia,48.18654,16.340244000000002,Italian Restaurant
729,729,48.205939070667604,16.368324852260802,28,25,5d345399e249a000080e5a93,Mama's Ramen,48.205425,16.370255,Ramen Restaurant
2196,1055,48.2182,16.342221052631572,37,0,5d36030eeda47a0008d69c0c,Ganesha,48.221199,16.340587,Indian Restaurant
1900,759,48.2082,16.283273684210524,3,0,5d3b163027457e0008592b48,Tao Garten,48.206324,16.277596,Asian Restaurant
2168,1027,48.2182,16.327484210526315,28,0,5d45e75e3dc4950008e4e239,Kimi Asian Buffet,48.21904,16.33268,Japanese Restaurant
1196,55,48.1482,16.327484210526315,1,0,5d46dd0fbb608a0007ae59c5,Restaurant Safran,48.149215999999996,16.333427,Indian Restaurant
678,678,48.21046092933239,16.368324852260802,35,9,5d550cc485b52a00084c1179,Zwolf Restaurant,48.210068,16.365438,Modern European Restaurant
541,541,48.21046092933239,16.353588010155534,24,3,5d55c21b344f6900086f8260,Arezu,48.211796,16.351213,Persian Restaurant
611,611,48.21046092933239,16.360327779318148,18,16,5d62d0892c61ca000857cf8f,China Baron,48.210621,16.359303,Chinese Restaurant
1474,333,48.1882,16.342221052631572,26,0,5d65555d2c61ca0008806c6f,Don Camillo,48.190849,16.347638,Italian Restaurant
730,730,48.205939070667604,16.368324852260802,28,26,5d658d2fadaabe0007091f1d,Kilim ‪Restaurant and Bar ‬,48.207466,16.36834,Italian Restaurant
1465,324,48.1882,16.327484210526315,13,4,5d6ac76368a0380008b6f8f9,Gasthaus Zum Krügerl,48.186687,16.327026999999998,Austrian Restaurant
1616,475,48.1982,16.2538,7,5,5d95f7021778280008ac241e,Mitra,48.20172,16.25692,Syrian Restaurant
568,568,48.205939070667604,16.353588010155534,33,6,5d97338d718dfa0008d608b2,Karma Food,48.205258,16.350744,Vegetarian / Vegan Restaurant
1425,284,48.1782,16.415905263157892,17,15,5da0687d9850d80007cd50c2,Gasthaus Markovic,48.175792,16.4105,Austrian Restaurant
1410,269,48.1782,16.415905263157892,17,0,5daffbca95a6df0008bc95fa,Burger King,48.173952,16.416467,Fast Food Restaurant
968,968,48.2159390706676,16.3535873519697,20,17,5db0b18f34687a0007fbf370,Onkel Franz - Dein Wohnzimmer,48.214865,16.355536999999998,Austrian Restaurant
77,77,48.1982,16.342221052631572,24,20,5db482a69843be0008ec82b5,Gaon,48.198192999999996,16.342751999999997,Korean Restaurant
1879,738,48.1982,16.40116842105263,25,11,5db5b21e7c41ac000800dc97,Saffron Lounge,48.195859000000006,16.397879999999997,Indian Restaurant
1155,14,48.1382,16.283273684210524,5,4,5dbed645607ad200085467d2,yuzu RUNNING SUSHI,48.137634000000006,16.27822,Asian Restaurant
960,960,48.2159390706676,16.3535873519697,20,9,5dc19eb66e1a19000738bfee,Nam’s,48.215717,16.350959,Vietnamese Restaurant
2462,1321,48.2282,16.342221052631572,31,11,5dc6ae9e1f0d290008d2086f,Vin,48.227802000000004,16.336966,Vietnamese Restaurant
970,970,48.2159390706676,16.3535873519697,20,19,5dcedf6fe466fd0008b28589,Helloworld,48.215324,16.350835,Chinese Restaurant
2223,1082,48.2182,16.342221052631572,37,27,5dd2ead3c3860c0008af9501,Pak Choi,48.216772,16.341558,Asian Restaurant
181,181,48.19593907066761,16.34559027938667,28,23,5dd5953a3d68ad00080eca11,Shenglong,48.194990000000004,16.343162,Asian Restaurant
404,404,48.19593907066761,16.36832551008701,38,29,5df37fc9d6434b00078db34e,Riva Officina - Trattoria napoletana,48.19595954605605,16.36802226305008,Italian Restaurant
1390,249,48.1782,16.371694736842105,41,27,5df3c470c6350b000847119d,Özkonyalı,48.176418,16.3767,Turkish Restaurant
278,278,48.2004609293324,16.360327121491935,29,24,5df3efbf3aeced0008c52726,Sangsang,48.199872,16.36091,Korean Restaurant
1161,20,48.1382,16.327484210526315,5,2,5dfa98779a28780008486085,Nam Nam Deli,48.137688,16.324102,Indian Restaurant
1407,266,48.1782,16.386431578947366,5,3,5e04a35e93cebf00081baab8,7 Tepe Restorant,48.174805,16.383608,Turkish Restaurant
883,883,48.205939070667604,16.383061694366063,28,27,5e050b673913a80007dc4ef5,Türkis,48.206112,16.384595,Turkish Restaurant
2756,1615,48.2582,16.40116842105263,25,12,5e1dfd59daee0b0008d27eeb,Tasty Retro,48.2592914095734,16.396361947026893,Austrian Restaurant
1366,225,48.1782,16.371694736842105,41,3,5e2391b29dfc690007a718df,GÜNAY Restaurant,48.178135,16.375712,Turkish Restaurant
1659,518,48.1982,16.31274736842105,21,19,5e36ce2cee4edc0008e41816,San Restaurant,48.200179999999996,16.31625,Italian Restaurant
1323,182,48.1782,16.327484210526315,21,6,5e385c27a8b69c000824c5b9,Tozi Korean Kitchen,48.175446,16.330349,Korean Restaurant
589,589,48.205939070667604,16.353588010155534,33,27,5e44496ca95a5400088356ca,Nana 7,48.206249,16.35118,Asian Restaurant
323,323,48.19593907066761,16.360327121491935,41,40,5e4dae8c16673e0008dae466,Schlawiener,48.196556,16.362074,Austrian Restaurant
450,450,48.2082,16.342221052631572,27,18,5e550786969a340008675cef,Nt Bánh Mì,48.208195,16.339976999999998,Vietnamese Restaurant
1251,110,48.1682,16.342221052631572,19,3,5e5e9a041f5bc900086ee5f9,Som Kitchen Eatery,48.168015999999994,16.344891,Thai Restaurant
1075,1075,48.2159390706676,16.375065279609245,23,21,5e638db06121ca000825efe2,Tre Viet,48.217104,16.377442000000002,Vietnamese Restaurant
1614,473,48.1982,16.2538,7,3,5e64c6356921be0007fcf3d1,X Und K Imbiss,48.202404,16.25606,Asian Restaurant
2632,1491,48.2382,16.371694736842105,11,1,5e78966e1056ea000890f6d1,Vietflair,48.238385,16.376359,Vietnamese Restaurant
2454,1313,48.2282,16.342221052631572,31,3,5eabb7a42294de000879cead,Vin - Northern Vietnamese Kitchen,48.22788900126735,16.336739659309387,Vietnamese Restaurant
1678,537,48.1982,16.327484210526315,27,17,5ec684bef3be7d0008cd694e,Station,48.197615,16.325217000000002,Doner Restaurant
1624,483,48.1982,16.283273684210524,4,2,5eca6b76a93f0c000816a91d,Tian Nudeln&Sushi,48.19692,16.28458,Asian Restaurant
1489,348,48.1882,16.342221052631572,26,15,5ed37ee274129d0008dd3007,Auszeit,48.189734,16.34166,Doner Restaurant
1560,419,48.1882,16.371694736842105,30,10,5edbebc6357a390008a92b3d,The Everest,48.185743,16.369843,Indian Restaurant
152,152,48.2004609293324,16.34559027938667,27,21,5eeb43adac5bea000867a62f,Beriner,48.201886,16.344816,Mediterranean Restaurant
1146,5,48.1282,16.31274736842105,6,4,5ef09c0c4595790008fd0545,Pizzeria Ramundi,48.1262295,16.315090400000003,Italian Restaurant
1408,267,48.1782,16.386431578947366,5,4,5ef3a91b6350400007e5de91,Mimi Im Stadtelefant,48.178917,16.386974,Modern European Restaurant
302,302,48.19593907066761,16.360327121491935,41,19,5ef8c3858556300008913074,Jinco,48.196762,16.360252,Szechuan Restaurant
1103,1103,48.2159390706676,16.383061036180223,25,3,5f020f6e19b00d546620ce42,Shin,48.21397,16.38346,Asian Restaurant
2533,1392,48.2282,16.371694736842105,42,9,5f021bfe825ebf5da603346b,Mama‘s Gyros,48.227916,16.366563,Greek Restaurant
1589,448,48.1882,16.386431578947366,10,9,5f117f8aa3aaf13f0960bcae,Aguacate Latin Food,48.188512,16.386128,Venezuelan Restaurant
2646,1505,48.2382,16.386431578947366,25,4,5f12df8b2835f147a2bd213c,Zushimarket,48.240171999999994,16.385357,Asian Restaurant
124,124,48.19593907066761,16.338851825876482,27,20,5f146679c445c87c07a7fd24,Thai Taste,48.195301,16.341473999999998,Thai Restaurant
1910,769,48.2082,16.31274736842105,13,4,5f1c6ddb3608be64332647f9,He!,48.207902000000004,16.309213,Japanese Restaurant
169,169,48.19593907066761,16.34559027938667,28,11,5f27ede678733c1afd6f946c,Otto Yami,48.196412,16.348441,Sushi Restaurant
1143,2,48.1282,16.31274736842105,6,1,5f2ab2924c19ba038014a483,Mali Thai Kitchen,48.13183,16.315683,Thai Restaurant
546,546,48.21046092933239,16.353588010155534,24,8,5f2af28f952995556ed1a457,Comal,48.212128,16.352833,Mexican Restaurant
2413,1272,48.2182,16.40116842105263,35,30,5f2c339ba3caf05a631e3ea8,Solas,48.221404,16.40165,Tapas Restaurant
1787,646,48.1982,16.35695789473684,50,49,5f3b919bab4e4540b14fb1f8,Pizzeria Minante,48.2026706,16.3566918,Italian Restaurant
1198,57,48.1482,16.386431578947366,4,0,5f3eb5dbd3b83855c7d84ca8,Wok Weili,48.152384999999995,16.383982999999997,Asian Restaurant
2104,963,48.2082,16.386431578947366,50,8,5f47cb9f8928187ee5b09f56,Viva La Mama,48.207775,16.379812,Italian Restaurant
2596,1455,48.2282,16.504326315789477,4,1,5f4a4365439eca0f18cd5dc6,Ping Pong,48.224877,16.506268,Asian Restaurant
1865,724,48.1982,16.386431578947366,30,27,5f633334b86b535e83ffa736,Wein Mag Käse,48.19834,16.38724,Italian Restaurant
2766,1625,48.2582,16.40116842105263,25,22,5f6ba236fc3c6039c8da6ff0,Nachbarn,48.258819,16.396525,Eastern European Restaurant
1639,498,48.1982,16.29801052631579,14,13,5f75d090a711e459cf6de9e3,Red Chilli Dragon,48.19761,16.299843,Chinese Restaurant
668,668,48.2082,16.371694736842105,50,49,5f770fa7249dad51042648fa,La Scaletta,48.207063,16.371615,Italian Restaurant
1140,1140,48.2159390706676,16.389802121714506,11,10,5f771f9b3cfe6e64cfb6d325,Aleppo Sweets,48.216926,16.390756,Syrian Restaurant
1336,195,48.1782,16.327484210526315,21,19,5f786460fbafa14fa104b32b,Heu und Gabel,48.180279,16.333237,Austrian Restaurant
241,241,48.2004609293324,16.35358866798175,28,27,5f8d8ebb646d61552f405d4d,Mr. Mai,48.199737,16.352632999999997,Dim Sum Restaurant
2481,1340,48.2282,16.342221052631572,31,30,5fb115fd0c57570033a1b632,Edo Nudeln,48.2266165,16.3416145,Asian Restaurant
1426,285,48.1782,16.415905263157892,17,16,5fb67732b6ee25619fbdaffb,Noodle King,48.17409,16.415932,Asian Restaurant
