,lat_centre,long_centre,num_venues,venue_iter,venue_id,venue_name,lat_venue,long_venue,category
0,64.14374285714285,-21.9306,13,0,52fe85b5498ea021d12642ad,KOL restaurant,64.14303682757286,-21.92849786025478,Modern European Restaurant
1,64.14374285714285,-21.9306,13,1,574b1659cd10c9410ea5578f,ROK,64.14293985570752,-21.92717671394348,Scandinavian Restaurant
2,64.14374285714285,-21.9306,13,2,4b0588aaf964a52031d322e3,Hótel Holt,64.14295535684856,-21.93513117274,Hotel
3,64.14374285714285,-21.9306,13,3,4c1f8020b4e62d7f8bb5df93,Scandinavian,64.14558408603517,-21.92880568963135,Scandinavian Restaurant
4,64.14374285714285,-21.9306,13,4,5960a18fc876c841c01a55e2,Lauf Restaurant,64.14515,-21.926693,Scandinavian Restaurant
5,64.14374285714285,-21.9306,13,5,50e56da1e4b097e716f09eca,Icelandic Food Station,64.14480957054182,-21.93092678545633,Scandinavian Restaurant
6,64.14374285714285,-21.9306,13,6,56b398b1498ef7789054335e,krua Thai Express,64.14435695439833,-21.9302643335744,Thai Restaurant
7,64.14374285714285,-21.9306,13,7,5236ca36498e229cbcded7ee,Rue de Laugarvegi,64.14500459049046,-21.929692500632928,French Restaurant
8,64.14374285714285,-21.9306,13,8,4bb2516a4019a593f8ab36b8,Basil And Lime,64.145093,-21.929717,Italian Restaurant
9,64.14374285714285,-21.9306,13,9,4d979fa17cfc14569cec38f6,Brasilia,64.14449796575965,-21.930395364761353,Brazilian Restaurant
10,64.14374285714285,-21.9306,13,10,5b6de0867564f70039de6605,Óx,64.145391,-21.927942,Scandinavian Restaurant
11,64.14374285714285,-21.9306,13,11,5f5a871ffe774e63aa5d6c30,dragon dim sum,64.145915,-21.931893,Dim Sum Restaurant
12,64.14374285714285,-21.9306,13,12,57e1a736498e88898a6bac49,vietnam restaurant,64.145659,-21.928103,Vietnamese Restaurant
13,64.14600378647525,-21.935749509914796,39,0,4c5ead5785a1e21e30c45c11,Jómfrúin,64.14680946199843,-21.937548169502843,Scandinavian Restaurant
14,64.14600378647525,-21.935749509914796,39,1,4d9caea548b6224b266e139f,Grillmarkaðurinn,64.14733403440674,-21.93723588485068,Steakhouse
15,64.14600378647525,-21.935749509914796,39,2,57bf4ed6498e5370e313c836,Hard Rock Cafe Reykjavik,64.14694739540606,-21.93677341271103,American Restaurant
16,64.14600378647525,-21.935749509914796,39,3,4ed40195b634dd2995b2b94b,Sushi Social,64.1463869007215,-21.93471960811472,Sushi Restaurant
17,64.14600378647525,-21.935749509914796,39,4,4d0bc04fd8d78cfad0f31ebe,Ítalía,64.14621725252171,-21.931496002040657,Italian Restaurant
18,64.14600378647525,-21.935749509914796,39,5,55bbdeeb498ed69c3c1a24ab,Primo Ristorante,64.14679872219637,-21.934226680404002,Italian Restaurant
19,64.14600378647525,-21.935749509914796,39,6,53d99214498e20e413f1adbb,Hraðlestin,64.14640250378028,-21.937867918281466,Indian Restaurant
20,64.14600378647525,-21.935749509914796,39,7,4b8d6cd3f964a52002fb32e3,Dill Restaurant,64.1470786586383,-21.933132500273366,Scandinavian Restaurant
21,64.14600378647525,-21.935749509914796,39,8,599490e5396de010b71b7480,Icelandic Street Food,64.14646188795366,-21.93771672124541,Scandinavian Restaurant
22,64.14600378647525,-21.935749509914796,39,9,5110ffe2e4b0b3fb914b7a00,Austurlandahraðlestin,64.14641316542217,-21.93798477447491,Indian Restaurant
23,64.14600378647525,-21.935749509914796,39,10,55ddc0a1498ebbd37260d24b,Solon Bistro & Bar,64.14668033065253,-21.93357140976885,New American Restaurant
24,64.14600378647525,-21.935749509914796,39,11,5dd9a82fa4cdde0008e53320,MB Taqueira,64.145944,-21.931711,Taco Place
25,64.14600378647525,-21.935749509914796,39,12,5365578c498e00ff04a04eae,Íslenski barinn,64.14699373509072,-21.93331686945264,Bar
26,64.14600378647525,-21.935749509914796,39,13,4e37eb4be4cdedd4a1b6116f,517 Fiðraður,64.146144,-21.931567,Asian Restaurant
27,64.14600378647525,-21.935749509914796,39,14,55c25b05498e744521dc81f4,Shirokuma Sushi,64.145623,-21.938667,Sushi Restaurant
28,64.14600378647525,-21.935749509914796,39,15,4eec118bf790c40a88769bf0,Kebab Grill,64.14627516634606,-21.938008228454205,Middle Eastern Restaurant
29,64.14600378647525,-21.935749509914796,39,16,55bcb40e498e227e2923715b,Shirokuma Sushi,64.14564,-21.938577,Sushi Restaurant
30,64.14600378647525,-21.935749509914796,39,17,4bf12f60f45ec9280f84943c,Núðluskálin,64.14599153502155,-21.932575361122915,Noodle House
31,64.14600378647525,-21.935749509914796,39,18,4c4625cbcd5ca59316f0ff86,Ristorante Caruso,64.14674053174927,-21.934209689551626,Italian Restaurant
32,64.14600378647525,-21.935749509914796,39,19,4bc8ab5a6501c9b66da34029,Volare Ristorante Italiano,64.14665371318367,-21.934253422160264,Italian Restaurant
33,64.14600378647525,-21.935749509914796,39,20,5444e55f498e1ab598204ba2,Torfan Restaurant,64.14660180406034,-21.936542288195593,Scandinavian Restaurant
34,64.14600378647525,-21.935749509914796,39,21,50b1587fe4b0f66121f167f9,Matseđill,64.14658480391373,-21.933848665910574,Italian Restaurant
35,64.14600378647525,-21.935749509914796,39,22,57d46180498e630084b5c3ef,Essensia,64.14765771077448,-21.934125749327155,Italian Restaurant
36,64.14600378647525,-21.935749509914796,39,23,4c951d1af244b1f74db1281d,Gandhi,64.14658301714204,-21.938801901576564,Asian Restaurant
37,64.14600378647525,-21.935749509914796,39,24,4cc814b2d77af04d3e43ac99,Pósthúsið Vínbar,64.14680758261095,-21.93942837658271,Wine Bar
38,64.14600378647525,-21.935749509914796,39,25,5e63d62029ef8200087597ac,Pho Vietnamese,64.146446,-21.932607,Vietnamese Restaurant
39,64.14600378647525,-21.935749509914796,39,26,4fedfc48e4b0e7487e6f9b0d,Sakebarinn,64.14638848853875,-21.932946455625533,Sake Bar
40,64.14600378647525,-21.935749509914796,39,27,4c0eab9698102d7fb408e406,Thai Reykjavík,64.14644602940213,-21.937691095048773,Thai Restaurant
41,64.14600378647525,-21.935749509914796,39,28,51f44707498ee0709198136f,Bistro 101,64.146091,-21.931231,French Restaurant
42,64.14600378647525,-21.935749509914796,39,29,4c766054ff1fb60cd0a9f8a7,The Deli,64.14646794579211,-21.933094071582378,Fast Food Restaurant
43,64.14600378647525,-21.935749509914796,39,30,5d125e79de944500235351e0,Tacoson,64.145597,-21.938434,Food Truck
44,64.14600378647525,-21.935749509914796,39,31,5c38dc43121384002c0d2161,Systir,64.147128,-21.932982,Scandinavian Restaurant
45,64.14600378647525,-21.935749509914796,39,32,539845fd498efd9709448232,Ginger,64.14748814063898,-21.937742829058198,Burrito Place
46,64.14600378647525,-21.935749509914796,39,33,5061a5cae4b0293cde4bc924,Adesso Crépes & Súpubar,64.147031,-21.937035,French Restaurant
47,64.14600378647525,-21.935749509914796,39,34,538f0afe498e20c4a148ed4c,Sbarro,64.14765781758877,-21.936631762931967,Italian Restaurant
48,64.14600378647525,-21.935749509914796,39,35,5ecac48ba823280008b87095,Duck & Rose,64.147537,-21.938847,French Restaurant
49,64.14600378647525,-21.935749509914796,39,36,5973b2f5178a2a6534c3b62c,Jamie's Italian,64.14697968265997,-21.93907910287369,Italian Restaurant
50,64.14600378647525,-21.935749509914796,39,37,5709c11a498e7ebc9c357f5a,Scandinavian Smörrebröd Og Brasserie,64.1464292177394,-21.93312963406959,Scandinavian Restaurant
51,64.14600378647525,-21.935749509914796,39,38,5f5a871ffe774e63aa5d6c30,dragon dim sum,64.145915,-21.931893,Dim Sum Restaurant
52,64.14148192781046,-21.935749509914796,2,0,4b0588aaf964a52031d322e3,Hótel Holt,64.14295535684856,-21.93513117274,Hotel
53,64.14148192781046,-21.935749509914796,2,1,51accb31498eedc512e3b7da,Urðarstígur 12,64.141467,-21.934275,Filipino Restaurant
54,64.14600378647525,-21.9254504900852,20,0,4c7cebe5aa3ba093f2e9ab74,Rossopomodoro,64.1449633088473,-21.925587071959313,Italian Restaurant
55,64.14600378647525,-21.9254504900852,20,1,4c1f8020b4e62d7f8bb5df93,Scandinavian,64.14558408603517,-21.92880568963135,Scandinavian Restaurant
56,64.14600378647525,-21.9254504900852,20,2,5978ae07f62e091bd1acc753,Shanghai,64.144104,-21.922777,Chinese Restaurant
57,64.14600378647525,-21.9254504900852,20,3,5c23bf85971317002d729bf5,Hi Noodle,64.145117,-21.924452,Ramen Restaurant
58,64.14600378647525,-21.9254504900852,20,4,4c115654416620a193ebd8e4,Svarta Kaffið,64.1445617444858,-21.923263021270404,Scandinavian Restaurant
59,64.14600378647525,-21.9254504900852,20,5,4bd4a1cf637ba5933b1df570,Thai Restaurant,64.144531,-21.92267,Thai Restaurant
60,64.14600378647525,-21.9254504900852,20,6,5960a18fc876c841c01a55e2,Lauf Restaurant,64.14515,-21.926693,Scandinavian Restaurant
61,64.14600378647525,-21.9254504900852,20,7,5205730911d22b8edad48edd,Kitchen Eldhus,64.14441686379986,-21.922383893254654,Indian Restaurant
62,64.14600378647525,-21.9254504900852,20,8,4bf43508354e9c74a5b72602,Austurlandahraðlestin,64.14538443523315,-21.924160506391434,Indian Restaurant
63,64.14600378647525,-21.9254504900852,20,9,4df2ace0e4cda09e6da0a57d,Great Wall Chinese Restaurant,64.14605981726184,-21.92930898042815,Chinese Restaurant
64,64.14600378647525,-21.9254504900852,20,10,4cbcb5e343ec6dcb9097b231,Indian Mango,64.144434,-21.9255526,Indian Restaurant
65,64.14600378647525,-21.9254504900852,20,11,4bd09feab221c9b63212d4d0,Nepalese kitchen,64.144291,-21.922631,Indian Restaurant
66,64.14600378647525,-21.9254504900852,20,12,4cb230e4cbab236a30d9ae73,Kitchen,64.1444,-21.922378,Indian Restaurant
67,64.14600378647525,-21.9254504900852,20,13,52ed569e11d249bb08d234e5,Meze Restaurant,64.1449398228882,-21.925315672518476,Turkish Restaurant
68,64.14600378647525,-21.9254504900852,20,14,5236ca36498e229cbcded7ee,Rue de Laugarvegi,64.14500459049046,-21.929692500632928,French Restaurant
69,64.14600378647525,-21.9254504900852,20,15,4b3a8fa6f964a520f36925e3,Austur India Fjelagid,64.14576000816304,-21.92559937963782,Indian Restaurant
70,64.14600378647525,-21.9254504900852,20,16,4df5e872922e8e1ea8918197,Buddha Café,64.14650467227247,-21.9304767012914,Nightclub
71,64.14600378647525,-21.9254504900852,20,17,4bb2516a4019a593f8ab36b8,Basil And Lime,64.145093,-21.929717,Italian Restaurant
72,64.14600378647525,-21.9254504900852,20,18,5b6de0867564f70039de6605,Óx,64.145391,-21.927942,Scandinavian Restaurant
73,64.14600378647525,-21.9254504900852,20,19,57e1a736498e88898a6bac49,vietnam restaurant,64.145659,-21.928103,Vietnamese Restaurant
74,64.14148192781046,-21.9254504900852,2,0,52fe85b5498ea021d12642ad,KOL restaurant,64.14303682757286,-21.92849786025478,Modern European Restaurant
75,64.14148192781046,-21.9254504900852,2,1,574b1659cd10c9410ea5578f,ROK,64.14293985570752,-21.92717671394348,Scandinavian Restaurant
