,Unnamed: 0,lat_centre,long_centre,num_venues,venue_iter,venue_id,venue_name,lat_venue,long_venue,category
296,296,59.9239,10.7522,50,6,4b0588b3f964a52095d422e3,Mucho Mas,59.92398415923685,10.759204860244159,Mexican Restaurant
511,42,59.9116390706676,10.727720099357164,20,0,4b0588b4f964a520ded422e3,Louise Restaurant & Bar,59.909934,10.727385,Scandinavian Restaurant
61,61,59.9139,10.7122,44,23,4b0588b6f964a520add522e3,Hos Thea,59.912766000000005,10.709328999999999,Scandinavian Restaurant
643,174,59.91616092933239,10.747720099357164,49,11,4b0588b6f964a520b8d522e3,Klosteret,59.918027025210144,10.747862379670815,French Restaurant
566,97,59.9116390706676,10.736679900642836,25,9,4b0588b6f964a520bbd522e3,Brasserie Hansken,59.91039037721781,10.73952800373432,French Restaurant
28,28,59.9039,10.7722,7,1,4b0588b7f964a520d4d522e3,Gamlebyen Mat & Vinhus,59.90610600000001,10.767892,French Restaurant
546,77,59.91616092933239,10.736679900642836,26,15,4b0588b7f964a520d9d522e3,Jaipur,59.91799671866353,10.737448545517335,Indian Restaurant
352,352,59.9239,10.7722,16,12,4b0588b7f964a520dbd522e3,Petrus,59.923342285434764,10.76599909726434,Dive Bar
40,40,59.9139,10.7122,44,2,4b05c055f964a5206de222e3,Alex Sushi,59.91464499999999,10.72077,Sushi Restaurant
206,206,59.9139,10.7722,28,24,4b07fb90f964a520e40123e3,Olympen,59.91230682126749,10.764540316069695,Bar
68,68,59.9139,10.7122,44,30,4b0830eff964a520e20523e3,Jewel of India,59.91595279999999,10.716983500000001,Indian Restaurant
921,452,59.92616092933239,10.756681250703606,13,1,4b0db073f964a520ee4d23e3,Noahs Ark,59.927194719375464,10.75900278682159,Pub
801,332,59.9239,10.7322,21,20,4b0ef72df964a5205a5d23e3,Mother India,59.92389500769916,10.731419382320007,Indian Restaurant
236,236,59.9239,10.7122,17,13,4b102576f964a520fa6923e3,Yaya's,59.92613249222808,10.719584926385505,Thai Restaurant
351,351,59.9239,10.7722,16,11,4b119cb5f964a520918023e3,Sushihuset,59.925557927837886,10.775752143840942,Sushi Restaurant
378,378,59.9339,10.7122,15,11,4b291c14f964a520e29824e3,Sushi & Wok,59.92980794975029,10.711668813283355,Asian Restaurant
663,194,59.91616092933239,10.747720099357164,49,31,4b2bb21cf964a5204ab924e3,Eat Sushi & More,59.91685434073439,10.744498365503723,Sushi Restaurant
310,310,59.9239,10.7522,50,20,4b2bc4bcf964a5208fba24e3,Restaurant Delhi Tandoori,59.9196799,10.751164900000001,Indian Restaurant
492,23,59.9139,10.7322,29,23,4b3b46f0f964a520117225e3,Bocata,59.91404289612489,10.734481851771262,Tapas Restaurant
578,109,59.9116390706676,10.736679900642836,25,21,4b4e03cef964a52030de26e3,Sushi Asia,59.9120391040027,10.734969466718903,Sushi Restaurant
555,86,59.91616092933239,10.736679900642836,26,24,4b4e03d0f964a52031de26e3,The Great India,59.91640692194529,10.73818217426783,Indian Restaurant
721,252,59.9116390706676,10.747720099357164,50,40,4b4e1dc5f964a520c7e126e3,Nilsen Spiseri,59.90982511981998,10.746790000657121,Scandinavian Restaurant
222,222,59.9239,10.6922,1,0,4b59e1f3f964a520149e28e3,Da Capo,59.921336296924714,10.688179835310077,Asian Restaurant
191,191,59.9139,10.7722,28,9,4b5e11f2f964a520f27b29e3,Ali Baba,59.91261093538472,10.763665076997068,Mediterranean Restaurant
359,359,59.9239,10.8122,3,0,4b65b98af964a520effb2ae3,Økern Sushi,59.925679,10.812063,Sushi Restaurant
753,284,59.91616092933239,10.756679900642837,31,22,4b7054b4f964a5203a132de3,Restaurant Øst,59.91627401260992,10.754364827678266,Thai Restaurant
773,304,59.9116390706676,10.756679900642837,19,11,4b71a848f964a5201e542de3,Den Røde Mølle,59.913654782166546,10.756047679712646,Indian Restaurant
392,392,59.9339,10.7522,10,0,4b72c0dbf964a520f2862de3,Bamboo,59.936891704671176,10.752141887481882,Sushi Restaurant
390,390,59.9339,10.7322,10,8,4b7fe26df964a5206b4230e3,La Sosta,59.930989563427524,10.734853076823583,Chinese Restaurant
960,491,59.9216390706676,10.756681250703606,34,27,4b81272ff964a5208d9830e3,Nam Fah Thai Resturaunt,59.921149232915994,10.756691448036928,Thai Restaurant
51,51,59.9139,10.7122,44,13,4b969fe4f964a5209cd934e3,Japo Sushi,59.91541836756818,10.717118833126014,Sushi Restaurant
569,100,59.9116390706676,10.736679900642836,25,12,4b9784b2f964a520fc0635e3,Chiba Sushi,59.91132752155533,10.740406057807093,Sushi Restaurant
927,458,59.92616092933239,10.756681250703606,13,7,4b97eb77f964a520671f35e3,Fuji House,59.925473,10.757024000000001,Asian Restaurant
183,183,59.9139,10.7722,28,1,4b9a93b7f964a520f0c235e3,Lahori Dera Tandoori,59.91316171942033,10.765275304280062,Indian Restaurant
279,279,59.9239,10.7322,50,39,4b9b52f5f964a5207d0036e3,Planet Bollywood,59.92312,10.740496,Indian Restaurant
80,80,59.9139,10.7122,44,42,4b9cefdbf964a5207f8336e3,Star Sushi,59.916187,10.71583,Sushi Restaurant
397,397,59.9339,10.7522,10,5,4b9cf26df964a5201f8436e3,Helt Rått,59.93625669616585,10.752192140587592,Sushi Restaurant
368,368,59.9339,10.7122,15,1,4b9d3371f964a520e09836e3,Larsen Restaurant,59.92970748654096,10.713951514481648,Scandinavian Restaurant
415,415,59.9339,10.7722,14,13,4b9fb599f964a520253737e3,Asian Sushi Garden,59.937638,10.767518877983091,Asian Restaurant
62,62,59.9139,10.7122,44,24,4ba3e942f964a520df6c38e3,House Of Sushi,59.916343000000005,10.714915,Sushi Restaurant
405,405,59.9339,10.7722,14,3,4ba4fed1f964a520d6cd38e3,Never Mind Sushi,59.93701208868148,10.766933974644203,Sushi Restaurant
394,394,59.9339,10.7522,10,2,4ba79057f964a520cd9d39e3,Tandoori Hut,59.93753869651296,10.756098249677224,Indian Restaurant
47,47,59.9139,10.7122,44,9,4ba7aebef964a5205ea939e3,Pizza Da Mimmo,59.916366000000004,10.716581,Pizza Place
556,87,59.91616092933239,10.736679900642836,26,25,4baa32e9f964a52087523ae3,Happy Sushi,59.91709338549482,10.739623243412568,Sushi Restaurant
408,408,59.9339,10.7722,14,6,4bad4e02f964a52033443be3,Som Tam Thai Restaurant,59.936025187256156,10.765217578583565,Thai Restaurant
517,48,59.9116390706676,10.727720099357164,20,6,4bae42d8f964a5200f9a3be3,T.G.I. Friday's,59.909557597062864,10.726580669217707,American Restaurant
388,388,59.9339,10.7322,10,6,4baf7da8f964a52031043ce3,Sushi Adamstuen,59.932749957042226,10.734159704163602,Japanese Restaurant
407,407,59.9339,10.7722,14,5,4bb895b61261d13a38b7e898,Cafe Stamboul,59.93427929999999,10.7641017,Middle Eastern Restaurant
379,379,59.9339,10.7122,15,12,4bbcd512593fef3b93af0256,Oslo Sushi,59.931633597511826,10.716676695301317,Sushi Restaurant
208,208,59.9139,10.7722,28,26,4bbf5c33b083a5936846a3e9,Bangkok Thai Restaurant,59.911426,10.767317,Thai Restaurant
527,58,59.9116390706676,10.727720099357164,20,16,4bc892a92f94d13a6bda137f,Bryggen Sushi,59.90993678894435,10.72496770413404,Sushi Restaurant
529,60,59.9116390706676,10.727720099357164,20,18,4bc895d10050b71363a9ba3b,No. 10,59.910421,10.7255,Tapas Restaurant
965,496,59.9216390706676,10.756681250703606,34,32,4bcb2446fb84c9b6692f1e3e,Mito Sushi & Wok,59.91992276466397,10.759326,Asian Restaurant
343,343,59.9239,10.7722,16,3,4bcd4b07cc8cd13a4e71c2cf,Sechuan Chengdu Restaurant,59.92312375867008,10.771859709813919,Chinese Restaurant
534,65,59.91616092933239,10.736679900642836,26,3,4bcdc4eccc8cd13a610dc3cf,Beijing Palace,59.917717311038295,10.738442715703792,Chinese Restaurant
462,462,59.9539,10.7722,2,1,4bd1608477b29c7417868c82,La Cantina,59.953706999999994,10.764136,African Restaurant
934,465,59.9216390706676,10.756681250703606,34,1,4bd1eaae77b29c74bb8f8d82,Glød,59.920309722956155,10.759415957713085,Bar
796,327,59.9239,10.7322,21,15,4bd726b27b1876b0dabd8d86,Buddha Sushi,59.923554,10.731116,Sushi Restaurant
488,19,59.9139,10.7322,29,19,4bde9c6a89ca76b0269a5d5e,Barolo Enoteca,59.91385890827211,10.730123519897461,Italian Restaurant
716,247,59.9116390706676,10.747720099357164,50,35,4bdf017a6198c9b6aaa015ff,Chens Kina Restaurant,59.911524,10.751625,Chinese Restaurant
5,5,59.8939,10.6722,1,0,4be566302457a5935d66ab15,Huk Strandrestaurant,59.89512,10.674241,Scandinavian Restaurant
964,495,59.9216390706676,10.756681250703606,34,31,4be9b4ba61aca59304e28200,Barcelona Tapasbar,59.921763,10.7573507,Tapas Restaurant
425,425,59.9439,10.7122,8,3,4bec348d415e20a14c3ce7bb,Jonoe,59.94280617130782,10.703864693641664,Sushi Restaurant
393,393,59.9339,10.7522,10,1,4bec411afd60a5936dbb3af1,Sumo Sushi,59.932586,10.759819,Sushi Restaurant
412,412,59.9339,10.7722,14,10,4bed7072bac3c9b6a242fee9,Sun Sushi,59.93543296806714,10.765498909290221,Sushi Restaurant
52,52,59.9139,10.7122,44,14,4bf19f977077952121963e7c,Natraj Tandoori Restaurant,59.91596249963642,10.713240722288491,Indian Restaurant
854,385,59.9216390706676,10.736681250703608,19,16,4bf2cb026a31d13ae2e7932e,Albertine,59.92235697978306,10.738951069957075,Indian Restaurant
413,413,59.9339,10.7722,14,11,4bf6d0aa508c0f4750ec3c31,Tom Sam,59.936149,10.765298,Asian Restaurant
422,422,59.9439,10.7122,8,0,4bfc0a7bda7120a1de7449fd,Dana Bakeri,59.94372734972141,10.72107205717495,Middle Eastern Restaurant
449,449,59.9439,10.7722,20,15,4bfebc50c30a2d7fd0ea0f1d,Ebi Sushi,59.94368900900215,10.775011707173496,Sushi Restaurant
747,278,59.91616092933239,10.756679900642837,31,16,4c138182b7b9c928c79aa937,Nargile Cafe & Grillbar,59.91658096773494,10.75618695165708,Middle Eastern Restaurant
418,418,59.9339,10.7922,4,2,4c18e51f834e2d7fd0802980,Restaurant Fusion,59.930328,10.7935698,Indian Restaurant
605,136,59.9139,10.7522,50,23,4c22245613c00f47c1f886de,Lekkerbisken,59.91480763333334,10.752074549999998,Thai Restaurant
389,389,59.9339,10.7322,10,7,4c28d742fe6e2d7f05e0533c,MM Sushi,59.93090889680085,10.733705114956155,Sushi Restaurant
489,20,59.9139,10.7322,29,20,4c28dfedce3fc92821db6d88,Sushi Of Life,59.91423422230167,10.73140437301541,Asian Restaurant
561,92,59.9116390706676,10.736679900642836,25,4,4c2cc3ef8ef52d7f6a6633ba,Bruno’s Proseccheria,59.910351806849796,10.739681306740156,Italian Restaurant
739,270,59.91616092933239,10.756679900642837,31,8,4c3f998dff711b8dad2e0f05,Caroline's Café & Bar,59.916180000000004,10.760424,African Restaurant
224,224,59.9239,10.7122,17,1,4c4dadfa9efabe9aaa88e568,Gandhi,59.92799125559469,10.715660412590363,Indian Restaurant
353,353,59.9239,10.7722,16,13,4c55947d30f92d7f82b861bc,Mini Sushi,59.92642476998045,10.776311886028047,Sushi Restaurant
908,439,59.9216390706676,10.747718749296393,20,8,4c559a45f5f3d13a427f0ffc,Yum Yum Thai,59.919555,10.747929,Thai Restaurant
831,362,59.9216390706676,10.727718749296391,18,14,4c582930d12a20a14b4a68bd,Soya Sushi,59.920125,10.726275,Asian Restaurant
443,443,59.9439,10.7722,20,9,4c62c066e1621b8da7252453,Bambus Sushi,59.9466037814319,10.774463027474436,Sushi Restaurant
459,459,59.9539,10.6722,1,0,4c6806019cb82d7fa59894d2,The Mother,59.956520999999995,10.674700999999999,Scandinavian Restaurant
625,156,59.9139,10.7522,50,43,4c6955068e7c0f475f47df0f,Nam-Nam,59.91253174879494,10.752369500694964,Asian Restaurant
376,376,59.9339,10.7122,15,9,4c6a9f96c946e21e5d23ed8e,Krishnas Cuisine,59.93025047528381,10.70974175208299,Vegetarian / Vegan Restaurant
758,289,59.91616092933239,10.756679900642837,31,27,4c6c8cf523c1a1cdbe101acf,Cafe & Conditori,59.916737,10.752894,Moroccan Restaurant
580,111,59.9116390706676,10.736679900642836,25,23,4c6eb1dba437224bff9630b1,Resturant Marrakech,59.91171913990684,10.734899851635653,Moroccan Restaurant
420,420,59.9439,10.6722,1,0,4c6fd6379c6d6dcbea93d07a,Club Maccaroni,59.941549759870576,10.672102759957768,Italian Restaurant
6,6,59.8939,10.6922,1,0,4c73e7638efc37049bbc167d,Dyna Fyr,59.89482885729372,10.688389789860992,Scandinavian Restaurant
372,372,59.9339,10.7122,15,5,4c79071fbd346dcb24e7f3ef,Godbit Sushi,59.93016286930275,10.712099846944103,Sushi Restaurant
205,205,59.9139,10.7722,28,23,4c7bd3c9df08a1cd9590e15d,Per Bacco Osteria,59.912378000000004,10.764745,Italian Restaurant
917,448,59.9216390706676,10.747718749296393,20,17,4c7fd0fae4b06dcb873048d7,Jimmy's Sushi Bar,59.9204867309517,10.74955854225607,Sushi Restaurant
743,274,59.91616092933239,10.756679900642837,31,12,4c853942d8086dcb61e98f52,Benny's House,59.917101,10.752704,Asian Restaurant
237,237,59.9239,10.7122,17,14,4c8a682d1eafb1f797fc7935,CurryAndKetchup,59.927712,10.713655000000001,Indian Restaurant
427,427,59.9439,10.7122,8,5,4ca9aac314c3370475e5df3b,PMA Lunsjrom,59.942353000000004,10.7172145,Scandinavian Restaurant
850,381,59.9216390706676,10.736681250703608,19,12,4caddc67bf70236ad64103f9,Bislett Kafe og Sushi,59.92155253887177,10.732435,Sushi Restaurant
363,363,59.9239,10.8522,4,0,4cbc1c474c60a093d76c4fca,Serrano's,59.925757068447396,10.846810088902204,Spanish Restaurant
223,223,59.9239,10.7122,17,0,4cc1e17301fb236ab8679bba,Lofotstua,59.92722163895404,10.71284747391865,Scandinavian Restaurant
350,350,59.9239,10.7722,16,10,4cc308c938aaa09318170a62,Sau & Metall,59.9216138,10.768487140961248,Scandinavian Restaurant
319,319,59.9239,10.7522,50,29,4ccd8605aa25a35de1701b0f,Sushi Number One,59.928128564956104,10.753749781458259,Sushi Restaurant
553,84,59.91616092933239,10.736679900642836,26,22,4ccef0f5aa25a35d4184230f,Asia Huset,59.916412,10.738822,Sushi Restaurant
432,432,59.9439,10.7522,2,0,4ce187ea3644a09377a45d9f,Bjølsen Sushi,59.94236792361927,10.759616136712923,Sushi Restaurant
400,400,59.9339,10.7522,10,8,4cebde27948f224bd813035e,Casa Bovims,59.931253000000005,10.745936,Italian Restaurant
898,429,59.92616092933239,10.747718749296393,9,7,4cf156f41c158cfaad4ad0b5,Marita & Engens,59.92715,10.749381,Italian Restaurant
812,343,59.92616092933239,10.727718749296391,15,10,4cf3facf7bf3b60c50de6d7f,Gino Valente,59.926708999999995,10.728211,Italian Restaurant
182,182,59.9139,10.7722,28,0,4cf7e46f81cd6dcb4656840d,Hagestuen Café,59.913672999999996,10.776224000000001,Café
23,23,59.9039,10.7522,15,11,4cfd5e8b34c1a093e0f74f0e,Argent Fine Dining,59.90813506018278,10.752064875020263,French Restaurant
383,383,59.9339,10.7322,10,1,4d0528a437036dcbf30c15fb,Sjel Vest,59.93171033159447,10.735359191894533,Tapas Restaurant
762,293,59.9116390706676,10.756679900642837,19,0,4d0907270ead8cfac12cf376,Maaemo,59.910431064195976,10.760290770645357,Scandinavian Restaurant
229,229,59.9239,10.7122,17,6,4d28b26277a2a1cdb2e364b7,Thai Take Away,59.92751553576827,10.713214480303202,Thai Restaurant
989,22,59.91050860600141,10.745480301589518,13,8,4d371163db5ba35d1b6e40c7,Mehfel,59.9104,10.743803999999999,Pakistani Restaurant
375,375,59.9339,10.7122,15,8,4d4d7e924aa3a093018343ae,Cafe Leon,59.930370999999994,10.712169,Chinese Restaurant
377,377,59.9339,10.7122,15,10,4d5ab8a3296d5481ac9c66b1,Nippon Sushi,59.930292300210894,10.711748719787439,Sushi Restaurant
231,231,59.9239,10.7122,17,8,4d614ee2d7206ea8cecefef1,Umi Sushi,59.92554796994114,10.714179550711933,Sushi Restaurant
358,358,59.9239,10.7922,3,2,4d668874c8dbec4a2643f0cc,Hasle Sushi,59.923684243862496,10.792733970431854,Sushi Restaurant
465,465,59.9539,10.7922,3,2,4d67dc196d6a236ace2e362a,Tasty Food,59.955260100000004,10.78557550907135,Asian Restaurant
73,73,59.9139,10.7122,44,35,4d7139f4783f8cfaf73ce4d6,Sato,59.916495999999995,10.714964,Japanese Restaurant
659,190,59.91616092933239,10.747720099357164,49,27,4d7d07f87498a1cdb14588fc,Eat Sushi,59.91732432922886,10.74437181642478,Sushi Restaurant
463,463,59.9539,10.7922,3,0,4d860fa702eb54816ee34ff5,Grefsen Sushi,59.955980000000004,10.786403,Sushi Restaurant
75,75,59.9139,10.7122,44,37,4d974e160caaa143ed7e8eb3,Saigon Mat Xpress,59.91425400000001,10.720897,Asian Restaurant
232,232,59.9239,10.7122,17,9,4da3599f9935a0939195c76f,Parken Sushi,59.927397,10.713124,Sushi Restaurant
76,76,59.9139,10.7122,44,38,4dbc478543a1d8504b871af1,Japanese Dining Sato,59.91634615905207,10.714931634219996,Japanese Restaurant
235,235,59.9239,10.7122,17,12,4dcc27f1e4cde609a3a9c0d3,Sakura Sushi,59.92012740523264,10.707890421049921,Sushi Restaurant
455,455,59.9439,10.8122,3,1,4de76cd0887710a065b61a74,Dragens Restaurant,59.94241395888145,10.812029101650698,Asian Restaurant
629,160,59.9139,10.7522,50,47,4df242a418386ecb4e2b9680,Cantina Cortina,59.91414472574112,10.750445529396755,Italian Restaurant
65,65,59.9139,10.7122,44,27,4df50b1245dd4e269346035e,Fuji Japanese Restaurant & Sushi Bar,59.912661990592035,10.710428088054712,Sushi Restaurant
54,54,59.9139,10.7122,44,16,4e061b8ea809495e61905fbf,Japy Thai,59.914702,10.718722999999999,Japanese Restaurant
929,460,59.92616092933239,10.756681250703606,13,9,4e0768d71838eb15af01559b,Vietnamesisk Mathus,59.924236,10.758808,Vietnamese Restaurant
913,444,59.9216390706676,10.747718749296393,20,13,4e0b429e52b1fe83d54b5f6c,Sushiexpressen,59.920327,10.749597,Sushi Restaurant
754,285,59.91616092933239,10.756679900642837,31,23,4e1344a07d8b4d5613eae139,Mama Africa,59.91711395387989,10.75835774667901,African Restaurant
4,4,59.8939,10.6522,1,0,4e15f6ff18a8addae8cefff9,Sult - Bygdøy Sjøbad,59.8939097,10.6508303,Tapas Restaurant
406,406,59.9339,10.7722,14,4,4e25c48ab61ceeea677ed588,Thai Isaan Takeaway,59.93155695276823,10.778281103756433,Thai Restaurant
460,460,59.9539,10.7522,1,0,4e3859aa62e1a8e9cc4ef1da,Dagens Restaurant,59.95370375,10.75228983,Asian Restaurant
450,450,59.9439,10.7722,20,16,4e527ec452b1fa492db72b1b,Sushi,59.941461,10.771124,Sushi Restaurant
430,430,59.9439,10.7322,2,0,4e53c7e122711d4da5c011c8,Japon Sushi,59.94824807466773,10.731849799133109,Sushi Restaurant
409,409,59.9339,10.7722,14,7,4e57ce6914954ed2832ff565,Linlin,59.937706000000006,10.767731,Asian Restaurant
434,434,59.9439,10.7722,20,0,4e63be1ac65b2dc8a02fcc20,Mega Sushi,59.94160597578452,10.770919008764537,Sushi Restaurant
332,332,59.9239,10.7522,50,42,4e74889b45ddd4323f4eaf0e,Bandhan Tandoori,59.92412880516408,10.759097383876565,Indian Restaurant
348,348,59.9239,10.7722,16,8,4e836463be7bdd8e4e7f11e8,Monsoon Restaurant & Takeaway,59.927127,10.771182000000001,Asian Restaurant
467,467,59.9639,10.7322,2,1,4e85ed24f790e8fcff613c9e,Fabio's Kitchen,59.9648309921081,10.729175999999999,Italian Restaurant
35,35,59.9039,10.8322,1,0,4e87437f30f8f98faf836274,Beno Restaurant,59.90070997666411,10.833880876131051,Indian Restaurant
1016,49,59.9139,10.7522,6,5,4e9fe2469a5229904c86503f,The Soup nazi In Oslo,59.913938,10.750697,American Restaurant
439,439,59.9439,10.7722,20,5,4ea2eda0cc2102b34d35db83,Råbbis,59.94395110000001,10.770866,Ethiopian Restaurant
215,215,59.9139,10.7922,7,5,4eaab4e8b803cf1ffb34b029,Helsfyr Sushi,59.914107505663274,10.797543826424489,Sushi Restaurant
424,424,59.9439,10.7122,8,2,4eb3d773d3e3644ca580514e,Fredagsgrøt,59.943059,10.717502,Scandinavian Restaurant
956,487,59.9216390706676,10.756681250703606,34,23,4ed2538df790d0703ac2495f,Focacceria,59.923631539008724,10.75733554437699,Italian Restaurant
855,386,59.9216390706676,10.736681250703608,19,17,4ed28f79b634dd299418f29e,Trans Sushi,59.921620983814584,10.732420890395039,Sushi Restaurant
340,340,59.9239,10.7722,16,0,4ede37d25c5c96a202bce777,Royal Sushi,59.92267006398156,10.77131811336296,Asian Restaurant
9,9,59.9039,10.6922,2,1,4ee261e6490152e4bd220123,Røylen Selskapslokaler,59.902534555151526,10.698804299362637,Scandinavian Restaurant
216,216,59.9139,10.7922,7,6,4ef75b1a490124bf996c4587,Vålerenga Tikka & Grill,59.910131480881475,10.788187980651855,Indian Restaurant
832,363,59.9216390706676,10.727718749296391,18,15,4f37b82b4fc64328d5fdfddd,Yamas,59.92127755592284,10.729984045028688,Greek Restaurant
293,293,59.9239,10.7522,50,3,4f6347a1e4b02ac2c3e58c98,Habsak,59.928268,10.751398,Falafel Restaurant
737,268,59.91616092933239,10.756679900642837,31,6,4f69ff62e4b0e826ebaa9512,Ben Thanh,59.917131999999995,10.752639,Vietnamese Restaurant
759,290,59.91616092933239,10.756679900642837,31,28,4f6df3dbe4b0e3b3bd6c23ab,Café Efesos,59.91748071164258,10.755085082034675,Turkish Restaurant
431,431,59.9439,10.7322,2,1,4f6f7909e4b0d638a2e98f4a,Cin Cin,59.943584303443366,10.74079354163451,Italian Restaurant
220,220,59.9239,10.6722,3,1,4f72d171e4b03ea6fd553f0e,Fazer kantine Skøjen,59.92131805419922,10.67736530303955,Scandinavian Restaurant
516,47,59.9116390706676,10.727720099357164,20,5,4f8a03a3e4b0a95f947bc90a,T.G.I. Friday's,59.909886302067505,10.726982522270967,Bar
410,410,59.9339,10.7722,14,8,4f9d5e2ae4b0ad3856851457,Li Café og Bar,59.93128483612152,10.777993117585137,Indian Restaurant
853,384,59.9216390706676,10.736681250703608,19,15,4fc3cfffe4b05b8503ff3bce,Miki,59.92055892944336,10.733680725097656,Sushi Restaurant
509,40,59.91616092933239,10.727720099357164,13,11,4fcddf5ae4b0349ae2f28944,Slottsparken Café,59.915387677786704,10.728301465139591,Sushi Restaurant
7,7,59.8939,10.8122,1,0,4ff072c7e4b0616aaac2e4af,"Hylla Cafe, Bar og Spiseri",59.89726966261622,10.812930624676977,Asian Restaurant
678,209,59.91616092933239,10.747720099357164,49,46,4ff1c04fe4b0dc347735c5bc,Bento Sushi,59.915827,10.751023,Japanese Restaurant
426,426,59.9439,10.7122,8,4,500172b4e4b0d8ae05d14f72,Jonathan,59.94275875263658,10.703903234522453,Sushi Restaurant
830,361,59.9216390706676,10.727718749296391,18,13,500eea7ae4b0f532f53d2afd,Planet Sushi,59.92007037641779,10.726461802537377,Sushi Restaurant
741,272,59.91616092933239,10.756679900642837,31,10,5018d05de4b024832f2f6c78,Azmar Restaurant,59.91694369494683,10.75796775948597,Turkish Restaurant
453,453,59.9439,10.7722,20,19,503cdfa1e4b0d8e0e7eb6667,Taste of Agra,59.94178593733334,10.770399580352004,Indian Restaurant
664,195,59.91616092933239,10.747720099357164,49,32,50415e2de4b0a105068e628c,Møllers Grill,59.91628026987286,10.749493972653806,Eastern European Restaurant
452,452,59.9439,10.7722,20,18,50437315e4b0dd909c7cb9f1,Megasushi,59.94001007080078,10.77117156982422,Sushi Restaurant
750,281,59.91616092933239,10.756679900642837,31,19,504a10ece4b04f60bc201553,Azadi Klubb,59.916520999999996,10.75378,Middle Eastern Restaurant
71,71,59.9139,10.7122,44,33,504a46a5e4b0b0e066e2ce09,Odissi,59.9140270549992,10.719957895265294,Indian Restaurant
193,193,59.9139,10.7722,28,11,504cde64e4b08a4f69b29daa,Sverresgate,59.910662834765816,10.77648666544152,Greek Restaurant
746,277,59.91616092933239,10.756679900642837,31,15,50618c2de4b07a369b696c6c,Quan an 3 Mien,59.916973,10.753200999999999,Asian Restaurant
129,129,59.9139,10.7322,50,47,5065afd5e4b08bbff8377429,Verdens største fårikålfest,59.9145769274621,10.740150750062485,Scandinavian Restaurant
345,345,59.9239,10.7722,16,5,50672744e4b0cdb22fe4e8c2,Li Li,59.92087953259047,10.778055495709049,Chinese Restaurant
774,305,59.9116390706676,10.756679900642837,19,12,507040e4e4b07ddeb37fcd64,Miza,59.91336281190732,10.758556904571119,Afghan Restaurant
370,370,59.9339,10.7122,15,3,507051d9e4b010c1af083c71,У Косяши,59.92985581053542,10.713473497112767,Eastern European Restaurant
713,244,59.9116390706676,10.747720099357164,50,32,5074a06be4b013b95139a892,Statholderens Mat & Vinkjeller,59.9093728,10.743432,Scandinavian Restaurant
528,59,59.9116390706676,10.727720099357164,20,17,5079a2f0e4b027ceddabe034,candela Resturant,59.91263958802496,10.725241433279887,Spanish Restaurant
876,407,59.9239,10.7522,34,19,5079b4efe4b0df11c991e99f,Atelier,59.92227674397971,10.752257221578407,Asian Restaurant
875,406,59.9239,10.7522,34,18,5081585de4b05249645c8a6d,Kulinarisk Akademi,59.922249,10.752088,Scandinavian Restaurant
466,466,59.9639,10.7322,2,0,508ae655e4b0bfcf9882a4e9,Oksana's Kitchen,59.96459399999999,10.729643,Cajun / Creole Restaurant
756,287,59.91616092933239,10.756679900642837,31,25,509ce75ee4b0912bf1fbb084,Endemol Kantina,59.916798,10.755998,Scandinavian Restaurant
448,448,59.9439,10.7722,20,14,50b89764e4b0e31c403420d0,Eurest Personalrestaurant i Vitaminveien 1,59.945967,10.776494999999999,Scandinavian Restaurant
272,272,59.9239,10.7322,50,32,50cb8424e4b0cc5bb575103c,Østmarkseteren,59.91958236694336,10.734029769897461,Scandinavian Restaurant
445,445,59.9439,10.7722,20,11,50ccc584e4b00957cac7b08e,nevermind,59.939674377441406,10.769174575805664,Japanese Restaurant
464,464,59.9539,10.7922,3,1,50cdd143e4b05e62d0291afa,Platået sushi,59.955876,10.785822,Japanese Restaurant
247,247,59.9239,10.7322,50,7,50e445eae4b0a78b16032466,Agave,59.924374846633405,10.72401677184776,Mexican Restaurant
520,51,59.9116390706676,10.727720099357164,20,9,50e82c4ae4b07ff452d9a1eb,Escalon Tapas,59.91008000000001,10.726531,Tapas Restaurant
544,75,59.91616092933239,10.736679900642836,26,13,5138ed10e4b0cbfaa12c1950,Carl Unger's Loft,59.916313741973354,10.738194759109687,Deli / Bodega
59,59,59.9139,10.7122,44,21,513b45bbe4b04f70216cbd5b,Blue Elephant,59.91673083955803,10.71641206741333,Thai Restaurant
387,387,59.9339,10.7322,10,5,5140c035e4b00ccf379ffcf4,Sushihjørnet,59.932643999999996,10.734542999999999,Sushi Restaurant
58,58,59.9139,10.7122,44,20,51472264e4b02dd333a6b24f,Noodles,59.91481569324864,10.719294635410305,Chinese Restaurant
8,8,59.9039,10.6922,2,0,5155927ce4b023b64ff133bb,Kafe Arkadia,59.907418285629795,10.686834051006695,Scandinavian Restaurant
382,382,59.9339,10.7322,10,0,5159dd75e4b0862f1cc41464,Mr. Sushi,59.93350699999999,10.726814,Sushi Restaurant
456,456,59.9439,10.8122,3,2,5162f8d7e4b09f3a72dabd5d,Panda,59.94207254101785,10.807879827390357,Chinese Restaurant
490,21,59.9139,10.7322,29,21,5163f320e4b06241905d7164,Sushi & Wok,59.91424312275072,10.731518957792924,Sushi Restaurant
184,184,59.9139,10.7722,28,2,5166e567e4b0c1d137cce039,Wasabi Sushi,59.91452907375352,10.775737448230931,Sushi Restaurant
213,213,59.9139,10.7922,7,3,51695ccbe4b06a5bba1f2e69,little italy,59.91180885146199,10.794153703603154,Italian Restaurant
369,369,59.9339,10.7122,15,2,516e6940e4b06d9611c3431e,Mini Sushi,59.929553976854585,10.712698098372949,Sushi Restaurant
767,298,59.9116390706676,10.756679900642837,19,5,51700f9ce4b059af47127628,Pizza Pasta,59.912139006135476,10.760914905965484,Italian Restaurant
212,212,59.9139,10.7922,7,2,5172e77ae4b068d0483f79c4,Tre venner sushi,59.917528000000004,10.792301,Asian Restaurant
349,349,59.9239,10.7722,16,9,518f6fc3498e9b4e0c88bc46,Makboul Cafe,59.924519,10.774417999999999,Moroccan Restaurant
916,447,59.9216390706676,10.747718749296393,20,16,519b9bd8498e3dd71668d928,Wasasushi,59.91953052338874,10.748115855080936,Sushi Restaurant
207,207,59.9139,10.7722,28,25,51a75bdf498e96557cc4443c,Tava Restaurant & Bar,59.913744961139535,10.777522660593062,Mexican Restaurant
419,419,59.9339,10.7922,4,3,51c35020498e0a54a1d5433e,Løren Sushi,59.930862676923425,10.795146601157489,Sushi Restaurant
354,354,59.9239,10.7722,16,14,51c48931498ebaa34b3ee005,Ha Ha Sushi,59.92373856096278,10.763415239001969,Asian Restaurant
416,416,59.9339,10.7922,4,0,51c9bb15498e48d4b4dcda7b,Umai Sushi,59.93067989276516,10.791974255101822,Sushi Restaurant
931,462,59.92616092933239,10.756681250703606,13,11,51d58ad0498e621175c5991f,Ostebutikken,59.926864,10.758968,French Restaurant
2,2,59.8739,10.8122,2,0,51e68f17498efc97c10b5fc1,Sushi Thai,59.873231999999994,10.811247999999999,Japanese Restaurant
211,211,59.9139,10.7922,7,1,5200c342498e3c2c1bbd107c,Ensjø Sushi & Wok,59.917552,10.792736999999999,Asian Restaurant
738,269,59.91616092933239,10.756679900642837,31,7,5216534111d289e0101d2efb,GrillMeny,59.916661,10.752432,Middle Eastern Restaurant
22,22,59.9039,10.7522,15,10,5218c2ae11d2440193105662,Promenaden,59.90280078503299,10.752898121912391,Tapas Restaurant
680,211,59.91616092933239,10.747720099357164,49,48,5220ba8911d2eb3d75a91792,Chicago,59.914366,10.747026,American Restaurant
760,291,59.91616092933239,10.756679900642837,31,29,522f71a411d2126c50d98275,Ringnes,59.91580200195313,10.75316047668457,Vietnamese Restaurant
815,346,59.92616092933239,10.727718749296391,15,13,52371fb211d2f52246b96531,Kims Fast Food,59.9268569946289,10.731496810913086,Chinese Restaurant
50,50,59.9139,10.7122,44,12,524b032811d2ae4d1c3210a6,+39,59.912716,10.710493,Italian Restaurant
386,386,59.9339,10.7322,10,4,524d872a11d28a5189a12c99,Ullevall kebab & pizza,59.93493424745528,10.733376671524693,Middle Eastern Restaurant
852,383,59.9216390706676,10.736681250703608,19,14,5255a550498e97963d49d5df,Bangkok Thai Mat & Take Away,59.922987,10.739298,Thai Restaurant
192,192,59.9139,10.7722,28,10,525975c4498e426b5fc0498e,Indian Cuisine,59.912943999999996,10.764353999999999,Indian Restaurant
396,396,59.9339,10.7522,10,4,526019e3498e6f0b44a271ca,JA! Sushi,59.932612,10.759780000000001,Asian Restaurant
751,282,59.91616092933239,10.756679900642837,31,20,5263a06c11d2eefc7a0b88e3,The Thief Restaurant,59.91760241717884,10.757981964011254,Scandinavian Restaurant
1052,85,59.9150304646662,10.75443995032142,9,7,52692c0311d21cc8fe69b31b,Sushi & Asiatisk Mat,59.914265,10.753943,Asian Restaurant
765,296,59.9116390706676,10.756679900642837,19,3,526a433b11d20594dd2a2a17,Yam Yam,59.910602000000004,10.753279,Asian Restaurant
79,79,59.9139,10.7122,44,41,5270e5e511d2254b15bee5ec,Asia Village,59.916261,10.716105,Sushi Restaurant
201,201,59.9139,10.7722,28,19,5275144811d299e6433b3bad,Restaurant Medina,59.91195297241211,10.766827583312988,Asian Restaurant
219,219,59.9239,10.6722,3,0,5277f3c711d22daea896bc86,QUI Taste of Italy,59.92163308759857,10.679148651746113,Italian Restaurant
421,421,59.9439,10.6922,1,0,528b904411d2bd1c4bfc6315,Chabua Sushi,59.943284999999996,10.699451,Sushi Restaurant
771,302,59.9116390706676,10.756679900642837,19,9,528f4fd211d21a82a45e71cf,YamYam,59.91119614653717,10.753151062734077,Asian Restaurant
81,81,59.9139,10.7122,44,43,5294e1f411d2ca9cf2a37011,Eatalay,59.91114044189453,10.718928337097168,Italian Restaurant
404,404,59.9339,10.7722,14,2,529f58cd498e061b3dc0cf31,Lili China,59.931115000000005,10.778285,Asian Restaurant
549,80,59.91616092933239,10.736679900642836,26,18,52a8b1b4498e2e72d35997da,Dinor Sushi,59.9166197308303,10.740721915837979,Sushi Restaurant
660,191,59.91616092933239,10.747720099357164,49,28,530a4e0c498e6e37f5ed196c,Vietnam house,59.91583631039338,10.749007064847794,Asian Restaurant
672,203,59.91616092933239,10.747720099357164,49,40,530f68cc498ef0976b0e8dd8,Nanda Indian Dining,59.91423034667969,10.74810791015625,Indian Restaurant
579,110,59.9116390706676,10.736679900642836,25,22,5310d85c498e43d4c5f96f5c,Voung,59.91228100000001,10.735499,Vietnamese Restaurant
1,1,59.8639,10.8322,1,0,531b2df511d212fff439a075,Skullerud Sushi AS,59.8663431,10.8391632,Sushi Restaurant
344,344,59.9239,10.7722,16,4,531f3a55498e29e29a0fbe3d,Adriatic Café+,59.923663299999994,10.7649536,Eastern European Restaurant
398,398,59.9339,10.7522,10,6,5324844d498eeed9c56e5e2b,Vann i munn catering,59.934127000000004,10.751971000000001,Tapas Restaurant
384,384,59.9339,10.7322,10,2,534abee4498e654756cf3496,Sushi Factory,59.930983999999995,10.734884,Japanese Restaurant
362,362,59.9239,10.8322,1,0,5367cdc9498ecceea21cfc0a,Grillgas autokjøp,59.926143999999994,10.832002000000001,Austrian Restaurant
228,228,59.9239,10.7122,17,5,536be087498e65cd2a855899,St. Raw,59.926390000000005,10.716906,Sushi Restaurant
37,37,59.9039,10.8522,2,1,536fabed498e60f8280a08bb,Soya & Sushi,59.90314102172852,10.854753494262695,Asian Restaurant
391,391,59.9339,10.7322,10,9,5370d7f511d23942b5057155,Grønn Bambus,59.931084,10.733791,Sushi Restaurant
948,479,59.9216390706676,10.756681250703606,34,15,537fa8f7498e60dfd7a95e6d,Sinnaindern,59.919495,10.756827000000001,Indian Restaurant
468,468,59.9639,10.7722,1,0,538a10de498e33f16c3c03ec,Kjelsås sushi,59.966041564941406,10.776219367980957,Sushi Restaurant
176,176,59.9139,10.7522,50,44,53999e3f498e40a9f66ad721,La Brasserie,59.91370133559857,10.743366867288108,French Restaurant
189,189,59.9139,10.7722,28,7,53f62aa6498ee1bf3be82c39,turkish grill house,59.91204833984375,10.766505241394043,Turkish Restaurant
32,32,59.9039,10.7722,7,5,53fe107a498e016a83da2839,Birusia,59.907578,10.776186000000001,Italian Restaurant
10,10,59.9039,10.7322,2,0,5405e1ba498ebf230f2f9575,Skur 33 - Trattoria da mare,59.9077513289601,10.733429902255883,Italian Restaurant
548,79,59.91616092933239,10.736679900642836,26,17,54085d1d498ebc409a175120,Pizza Crudo,59.914248244465725,10.73747888567434,Italian Restaurant
550,81,59.91616092933239,10.736679900642836,26,19,540dd5c5498e53b9b84f5978,Sabaki,59.91425050159114,10.73751079205101,Sushi Restaurant
947,478,59.9216390706676,10.756681250703606,34,14,54199c0e498e163b3a608b28,Planet Sushi,59.91990661621094,10.75922679901123,Sushi Restaurant
447,447,59.9439,10.7722,20,13,54380b26498e299b6020ee70,Cin Cin,59.94759339999532,10.767560725699585,Italian Restaurant
966,497,59.9216390706676,10.756681250703606,34,33,54382176498e2031cfd5c2de,Agra Indian Cuisine,59.92185168418862,10.75734786557333,Indian Restaurant
779,310,59.9116390706676,10.756679900642837,19,17,543912cd498e1623996ca2c3,4 Gringos,59.91078322357361,10.757029801652264,Food Truck
541,72,59.91616092933239,10.736679900642836,26,10,544aaef0498e7ab794906602,Brasserie Paleo,59.91565181313072,10.740765796838604,Scandinavian Restaurant
807,338,59.92616092933239,10.727718749296391,15,5,54514a6f498ed29905f6ee9e,Boliviar,59.926387,10.723329,Peruvian Restaurant
117,117,59.9139,10.7322,50,35,54527747498e1940a61b38e0,Sakae sushi,59.91379086915836,10.72450183513342,Sushi Restaurant
804,335,59.92616092933239,10.727718749296391,15,2,5454725e498e46628ec30ecb,carls bitchin kitchin,59.926524,10.723546,American Restaurant
214,214,59.9139,10.7922,7,4,545ba46f498ea078c4ec6180,Sushi time,59.914048,10.79769,Sushi Restaurant
417,417,59.9339,10.7922,4,1,54679537498e0cb221e1dc4e,Sanjay's Indian Restaurant & Bar,59.9313675507778,10.789300580868918,Indian Restaurant
185,185,59.9139,10.7722,28,3,546f7756498e591c7c5bef29,Munks,59.91467553782208,10.775642492246016,Thai Restaurant
728,259,59.9116390706676,10.747720099357164,50,47,546f8abc498e96a8900417f7,Cafe de Rosa,59.910424703226425,10.747794398132386,Filipino Restaurant
918,449,59.9216390706676,10.747718749296393,20,18,5481fd27498e760669ffe26b,Zaffran Restauranten,59.92053599169469,10.749607308435584,Persian Restaurant
674,205,59.91616092933239,10.747720099357164,49,42,54822318498e94b4fa21b111,Lille Italiano,59.91433334350586,10.7469482421875,Italian Restaurant
725,256,59.9116390706676,10.747720099357164,50,44,54906885498e2de61c9600d7,mymysushi,59.910278683478936,10.747420118361608,Sushi Restaurant
423,423,59.9439,10.7122,8,1,5493029d498edf459c75f5f9,Jonathans Sushi & Asian Dining Vinderen,59.942693460741424,10.703546179353122,Sushi Restaurant
186,186,59.9139,10.7722,28,4,54aaaf56498e5bb40ae073bb,Anatolia Tyrkisk restaurant,59.914649738956115,10.775707669080939,Turkish Restaurant
893,424,59.92616092933239,10.747718749296393,9,2,54b2a46b498e733590e7b0eb,Sushi Adamstuen,59.9280842430149,10.747054517872872,Sushi Restaurant
31,31,59.9039,10.7722,7,4,54b41db9498ea1f75c5ba1b5,Greentaste,59.903142,10.767529,Vietnamese Restaurant
29,29,59.9039,10.7722,7,2,54b41ddf498e36f244e6af3f,Greentaste,59.90311682379422,10.767809925619847,Vietnamese Restaurant
668,199,59.91616092933239,10.747720099357164,49,36,54b96223498e9a61476b56b1,Brazil Churrasceria,59.91433434256274,10.747399535126348,Brazilian Restaurant
45,45,59.9139,10.7122,44,7,54ca7f85498e99dacf276668,Villa Paradiso Frogner,59.91496749586045,10.717709196381806,Italian Restaurant
433,433,59.9439,10.7522,2,1,54db6bf7498e07625f82fe0a,Tasty Thailand,59.941818000000005,10.759398,Thai Restaurant
813,344,59.92616092933239,10.727718749296391,15,11,54dbc039498e0fc0fc63a047,Tijuana,59.925096999999994,10.725319,Mexican Restaurant
435,435,59.9439,10.7722,20,1,54e22e2f498e57d91627049f,Jewel of India,59.941791099999996,10.770769,Indian Restaurant
925,456,59.92616092933239,10.756681250703606,13,5,54e3aee8498edfbffd8a2b69,Grand Taj,59.927777,10.759182000000001,Indian Restaurant
726,257,59.9116390706676,10.747720099357164,50,45,54edf62e498e7a6fbe46e9e5,Bambus Sushi,59.9119,10.751475,Sushi Restaurant
755,286,59.91616092933239,10.756679900642837,31,24,54f1851f498e53d73df939c8,Mt Everest Restaurant,59.917667,10.755001,Indian Restaurant
44,44,59.9139,10.7122,44,6,551adc0f498e2bb219516e44,El Camino,59.916911569377355,10.714732695456084,Mexican Restaurant
458,458,59.9439,10.8522,1,0,55328dad498ef98dad4810e6,VV Sushi,59.944486,10.847639,Sushi Restaurant
959,490,59.9216390706676,10.756681250703606,34,26,554a4a76498e8dae11066fc4,theNoodleBox,59.92095822302714,10.75735056546275,Asian Restaurant
261,261,59.9239,10.7322,50,21,554a4db7498ebde87bd6f1f0,Indi Spice,59.919683,10.733761999999999,Indian Chinese Restaurant
371,371,59.9339,10.7122,15,4,55636569498ea6a5e111237f,Chili Thai,59.92947196095444,10.713628228959449,Thai Restaurant
20,20,59.9039,10.7522,15,8,55a6d31a498ea472fbe3423c,Cargo Sørenga,59.90301365753323,10.753260907291855,Italian Restaurant
676,207,59.91616092933239,10.747720099357164,49,44,55a9705b498e8f7552ff19eb,Zhong Guo Cheng Restaurant,59.9178352302217,10.747044265435004,Chinese Restaurant
547,78,59.91616092933239,10.736679900642836,26,16,55d1dac9498eecb78703d09a,lille sushi,59.916748,10.734433000000001,Szechuan Restaurant
744,275,59.91616092933239,10.756679900642837,31,13,55e2c788498ebe4564df1e04,Zenzi Asian Deli & Sushi,59.91409782748105,10.75801378117111,Sushi Restaurant
203,203,59.9139,10.7722,28,21,55f0799f498eb44e36c97bd4,Waarabi,59.91210174560547,10.766328811645508,African Restaurant
844,375,59.9216390706676,10.736681250703608,19,6,55fec8fb498ecbc151877283,A-roy Thai Restaurant,59.92014399999999,10.73898,Asian Restaurant
414,414,59.9339,10.7722,14,12,55ffd7ab498e014e86133743,Lille Sumo,59.93356381894196,10.76462734194837,Sushi Restaurant
926,457,59.92616092933239,10.756681250703606,13,6,56043ade498e7a3454cc9de0,The Indus Fine Dining,59.925510735232436,10.756917325497787,Indian Restaurant
355,355,59.9239,10.7722,16,15,560699c1498ec78f88b77e22,Thai Corner,59.92531249932284,10.774864942531533,Asian Restaurant
239,239,59.9239,10.7122,17,16,5606eded498ecac1654e6c7b,Oriental restaurant,59.928087,10.714088,Szechuan Restaurant
677,208,59.91616092933239,10.747720099357164,49,45,5615525f498ed7a5ab9c8a0e,Sushihjørnet,59.916963,10.750568,Vietnamese Restaurant
72,72,59.9139,10.7122,44,34,561e91ff498e5c15e95db5b5,Barcia Bistro Bar,59.91295745931603,10.710382318221553,Tapas Restaurant
924,455,59.92616092933239,10.756681250703606,13,4,561fed60498e8ec2b3782ae5,Riwaj of India,59.927463,10.759260000000001,Indian Restaurant
245,245,59.9239,10.7322,50,5,562f23ea498eec1b21c41103,TUNCO,59.92335442360969,10.740875625697944,Gluten-free Restaurant
200,200,59.9139,10.7722,28,18,563bab94cd10653a03ab440a,Darbar,59.91521783185088,10.7698654973659,Indian Restaurant
551,82,59.91616092933239,10.736679900642836,26,20,5651cd9c498e75847d7aa787,Hereford Steakhouse,59.91488265991211,10.739819526672363,American Restaurant
457,457,59.9439,10.8322,1,0,566af912498eefc0613053a0,Benihana Sushi,59.94246999999999,10.836519000000001,Sushi Restaurant
356,356,59.9239,10.7922,3,0,56913c76498efb17d54e93e0,Hy's Sushi Marienfryd,59.919853,10.791182000000001,Asian Restaurant
55,55,59.9139,10.7122,44,17,569aa43c498e49b6b010a35e,Urban Eatery,59.914784,10.719401,Asian Restaurant
518,49,59.9116390706676,10.727720099357164,20,7,56be39d3498e892d80610913,Sakee Sushi,59.91014499999999,10.7256565,Sushi Restaurant
401,401,59.9339,10.7522,10,9,56c0740ecd10f62cdfbeb4fb,Buenaventura,59.937892733888276,10.754872499369117,Tapas Restaurant
525,56,59.9116390706676,10.727720099357164,20,14,56cc76d3498e223a0e7de6a8,sakee,59.910309999999996,10.72574,Asian Restaurant
21,21,59.9039,10.7522,15,9,56d1bb90cd10e735a482abb2,Le meo sushi,59.902625,10.752755,Sushi Restaurant
558,89,59.9116390706676,10.736679900642836,25,1,56e40621498eb6039ef740b8,Sentralen Restaurant,59.91131226953328,10.740274459151783,Scandinavian Restaurant
526,57,59.9116390706676,10.727720099357164,20,15,56eac29d498ec120acda6ab3,Rice&Spice,59.913183,10.726339,Asian Restaurant
187,187,59.9139,10.7722,28,5,56f420bf498eb469f27b9820,Dinner Tandoori,59.914643000000005,10.768917,Indian Restaurant
217,217,59.9139,10.8122,1,0,56fe0cd2498e67af232fbc73,Østensjøveien 99 987,59.910447,10.812925,Asian Restaurant
34,34,59.9039,10.7922,1,0,570fccd9498ebbb3a87facf2,Konows Sushi,59.901668385105026,10.789424994849718,Sushi Restaurant
816,347,59.92616092933239,10.727718749296391,15,14,57113ff8498ec101064c56cb,Asian Box,59.925015,10.725264,Asian Restaurant
74,74,59.9139,10.7122,44,36,57129ce4498eb520f7095782,Gael,59.916295999999996,10.715276,Modern European Restaurant
56,56,59.9139,10.7122,44,18,57150d33498e21b5d3f9d95a,Sumo Restaurant,59.914715541352436,10.719213470777033,Sushi Restaurant
198,198,59.9139,10.7722,28,16,5721d96b498e605e559c33aa,La Villa,59.912569999999995,10.763645,Italian Restaurant
543,74,59.91616092933239,10.736679900642836,26,12,57448b84498e782238963bab,Red Onion,59.915572999999995,10.740803,Middle Eastern Restaurant
66,66,59.9139,10.7122,44,28,5747e65c498e07ee40e75431,San Leandro,59.91281010738077,10.710189342498778,Spanish Restaurant
19,19,59.9039,10.7522,15,7,574d5fbf498e9eb41a89a3a2,", Restauranthuset Operaen",59.908016,10.750961,Scandinavian Restaurant
399,399,59.9339,10.7522,10,7,5752f8e5498e6ea327f4f36b,Tokyo City,59.937955,10.754787,Asian Restaurant
612,143,59.9139,10.7522,50,30,5756a0a8498e698aebb1b92d,Burrito Project - Oslo City,59.912631999999995,10.752597999999999,Burrito Place
63,63,59.9139,10.7122,44,25,57580075498e995589d0636b,Mediterranean Pit Stop,59.916436,10.715738,Mediterranean Restaurant
218,218,59.9139,10.8322,1,0,57583228498e3c5c6e2c3815,Sushi & Stuff,59.91366800000001,10.841047999999999,Sushi Restaurant
461,461,59.9539,10.7722,2,0,575e72ac498ebb36b9b2f2c3,Telia Kantine,59.952251000000004,10.766822,Scandinavian Restaurant
374,374,59.9339,10.7122,15,7,576556d5498e70081d0feee5,Japan Sushi,59.93011,10.7128,Sushi Restaurant
334,334,59.9239,10.7522,50,44,5776cb0fcd10013c3a2ddb8f,Kamay,59.923908,10.760791000000001,Asian Restaurant
912,443,59.9216390706676,10.747718749296393,20,12,5787db14498ed603b98746e3,Sushi & Thaimat,59.919565000000006,10.748078999999999,Thai Restaurant
226,226,59.9239,10.7122,17,3,579e20ae498e6f60da608e0a,Kirkeveien 48 Thai Takeaway,59.927563,10.7129345,Thai Restaurant
16,16,59.9039,10.7522,15,4,57a9750a498ecd82979da92a,Hakkaiza,59.901644999999995,10.752739,Asian Restaurant
373,373,59.9339,10.7122,15,6,57acaa9f498e3fb014db299f,Diamond Indian Cuisine,59.931004,10.716927,Indian Restaurant
36,36,59.9039,10.8522,2,0,57af6483498e9517ca8b99da,Kokkens Bord,59.901752,10.852992,Scandinavian Restaurant
874,405,59.9239,10.7522,34,17,57d94ad0498e9557710e460d,Inages Mat,59.92321999999999,10.751688,Japanese Restaurant
221,221,59.9239,10.6722,3,2,57da70eb498e1b19c9b7b7bb,Trio Oslo,59.921558,10.678378,Scandinavian Restaurant
881,412,59.9239,10.7522,34,24,57de7a46498e476f02006ff1,Vía Italia,59.922203,10.752104,Italian Restaurant
411,411,59.9339,10.7722,14,9,57e57251498edc223c681c2d,Walima restaurang,59.934877,10.780396000000001,Pakistani Restaurant
884,415,59.9239,10.7522,34,27,57ebe463498efa56a0eee452,Social Eating by Bar,59.92266,10.752373,Tapas Restaurant
227,227,59.9239,10.7122,17,4,57ef9169498e96e114afbcd9,ESTAR SUSHI,59.927329,10.713076,Sushi Restaurant
83,83,59.9139,10.7322,50,1,57ffcf2938fa57a01428c12f,Grand Café,59.91378658937634,10.738923562292417,Scandinavian Restaurant
554,85,59.91616092933239,10.736679900642836,26,23,5801039c38fae017986a4586,Japo sushi,59.915431999999996,10.740921,Sushi Restaurant
24,24,59.9039,10.7522,15,12,580171fbd67ce4fd7655ef23,Castro,59.90306999999999,10.754291,Italian Restaurant
67,67,59.9139,10.7122,44,29,5803b6bd38faa958703fae5b,Avalon,59.916426,10.711505,Italian Restaurant
890,421,59.9239,10.7522,34,33,5816005838faf8004f6f7ca2,Pizza Vino,59.922034,10.752151,Italian Restaurant
508,39,59.91616092933239,10.727720099357164,13,10,581e1db177259217e0dee606,Vikingkjelleren,59.914442,10.725358,Pakistani Restaurant
233,233,59.9239,10.7122,17,10,58309352fbe8ff7800415d0a,fangst,59.922897,10.720031,Asian Restaurant
777,308,59.9116390706676,10.756679900642837,19,15,58384f9c04f4d70f9482213a,saray restaurant,59.9131820117621,10.759759182923244,Turkish Restaurant
238,238,59.9239,10.7122,17,15,58443e8045c3ed1183b0524b,Wu Restaurant,59.921443999999994,10.716130999999999,Asian Restaurant
757,288,59.91616092933239,10.756679900642837,31,26,586550e765e7c70a2f562f3b,Asian Street Food,59.916939,10.75335,Asian Restaurant
770,301,59.9116390706676,10.756679900642837,19,8,586e861aef46945cba15d9e7,Sushi fresh+homemade,59.910467000000004,10.752951,Asian Restaurant
772,303,59.9116390706676,10.756679900642837,19,10,588f29cbc0df762b40ea2fa0,Rak Thai Spicy,59.913382999999996,10.759085,Thai Restaurant
64,64,59.9139,10.7122,44,26,5895da9376b8b24a34988597,Nomads,59.914275,10.720462,Sushi Restaurant
199,199,59.9139,10.7722,28,17,589f0e8cd9705c7b870bbc33,Taytu,59.91279599999999,10.7643,Ethiopian Restaurant
338,338,59.9239,10.7522,50,48,58a9b8e7d7028261725c7393,Smak av Brasil (Pop-up),59.920475,10.752347,Brazilian Restaurant
899,430,59.92616092933239,10.747718749296393,9,8,58d802bf2f91cb5e92d442b0,The Italian Job,59.927647,10.748946,Pizza Place
581,112,59.9116390706676,10.736679900642836,25,24,58e29ee03ef0f619b72ba9e2,Benares,59.912476,10.735903,North Indian Restaurant
545,76,59.91616092933239,10.736679900642836,26,14,591c7f6467e5f24afee79892,Vivaldi,59.916594999999994,10.7383795,Scandinavian Restaurant
403,403,59.9339,10.7722,14,1,59303c9c2b984469543fceb1,Apsorn,59.936092,10.765333,Thai Restaurant
366,366,59.9239,10.8522,4,3,59500e0e724750055873b0bb,Soya Sushi,59.922311,10.856289,Sushi Restaurant
13,13,59.9039,10.7522,15,1,595e1a4381635b657d28e847,Coyo,59.90170751562971,10.751188594022004,Mexican Restaurant
30,30,59.9039,10.7722,7,3,596283582f97ec37cae51211,FCC Real Italian Quality,59.90698193574026,10.776388943195343,Italian Restaurant
204,204,59.9139,10.7722,28,22,5963a4dfb399f759ba06c727,Munk,59.914618000000004,10.775858,Thai Restaurant
49,49,59.9139,10.7122,44,11,597caac1c824ae75171e1427,Blå thai street food,59.916653000000004,10.716223,Thai Restaurant
194,194,59.9139,10.7722,28,12,59807eece7a2373f3ee53cf0,Munks,59.91458000000001,10.775675999999999,Thai Restaurant
38,38,59.9139,10.7122,44,0,5984a7fde96d0c55fc7ff2c6,Kverneriet,59.914515015688686,10.718491399519824,Burger Joint
778,309,59.9116390706676,10.756679900642837,19,16,599ff6e1e1f228209792482e,Baohouse,59.913627000000005,10.757964999999999,Asian Restaurant
78,78,59.9139,10.7122,44,40,59ab064a9ef8ef7b9dd1b258,Topphem,59.91494300000001,10.720373,Scandinavian Restaurant
552,83,59.91616092933239,10.736679900642836,26,21,59c02739d48ec17654150efd,Bar La Taperia,59.917729,10.738227,Tapas Restaurant
202,202,59.9139,10.7722,28,20,59cd3aa389e490561ec6977b,Golden Chimp,59.91411836049998,10.767512805084515,Dumpling Restaurant
190,190,59.9139,10.7722,28,8,59de2cc66eda024b58725d5b,Tacos El Brujo,59.912952000000004,10.764361,Taco Place
364,364,59.9239,10.8522,4,1,59e3735c86bc4957994e97ad,tikkaz,59.923885,10.857687,Indian Restaurant
577,108,59.9116390706676,10.736679900642836,25,20,59eb887e829b0c7a276df4c8,hon san,59.912955000000004,10.737644,Chinese Restaurant
653,184,59.91616092933239,10.747720099357164,49,21,59f4817ebcbf7a6ca4bf2737,Juicy Sushi,59.914212,10.746733,Sushi Restaurant
395,395,59.9339,10.7522,10,3,5a032c4567a9fe7ac8166fb7,Myrens Kjerne,59.93476615603944,10.759182572364807,French Restaurant
740,271,59.91616092933239,10.756679900642837,31,9,5a0ebc45d3cce87e1a523248,Asian Food Kitchen,59.916387,10.754306,Asian Restaurant
33,33,59.9039,10.7722,7,6,5a100d19840fc2618cb7a6a8,Klokka + Sumiya,59.907396999999996,10.774769000000001,Pop-Up Shop
381,381,59.9339,10.7122,15,14,5a26b814fe374071a284d2bb,Majorstuen Sushi,59.929539,10.714171,Sushi Restaurant
887,418,59.9239,10.7522,34,30,5a2a96a55d891b47b45c833e,Jose's Café,59.92283199999999,10.751725,Taco Place
380,380,59.9339,10.7122,15,13,5a31696fa0215b490c4410f7,Il Colosseo,59.930193,10.71294,Italian Restaurant
451,451,59.9439,10.7722,20,17,5a35b919772fbc374b461a6e,la baguette,59.947481999999994,10.775183,Sandwich Place
0,0,59.8639,10.7922,1,0,5a3bbb3e1b0ea52c87f125b9,Hos victoria - cafe & tapas,59.861096999999994,10.795952999999999,Tapas Restaurant
341,341,59.9239,10.7722,16,1,5a48e9e51b0ea523e1322a3c,Umami Sushi,59.923922999999995,10.768138,Sushi Restaurant
888,419,59.9239,10.7522,34,31,5a61ec2118d43b0543e545e8,Bistro Budapest,59.922259,10.752303,Hungarian Restaurant
360,360,59.9239,10.8122,3,1,5a75cd04646e3811656083fc,Benihana sushi,59.925948,10.81246,Sushi Restaurant
60,60,59.9139,10.7122,44,22,5a9aa0b8f96b2c5561187ac0,Å,59.914123,10.717526,Café
196,196,59.9139,10.7722,28,14,5a9af3824c954c3e3f7a5238,Sham,59.910953000000006,10.772119,Syrian Restaurant
440,440,59.9439,10.7722,20,6,5ab647d0037be12b645275c6,Eataly,59.947414,10.774747999999999,Italian Restaurant
53,53,59.9139,10.7122,44,15,5ac12b036dcf04182a09539d,Confusion,59.914795,10.719489,Vietnamese Restaurant
14,14,59.9039,10.7522,15,2,5ac216472c7eb9726c80d418,Mirabel Restaurant Og Bar,59.902390000000004,10.752969,Italian Restaurant
42,42,59.9139,10.7122,44,4,5aca4985772fbc1f5120230a,San Francisco Bread Bowl,59.91636379477439,10.715832710266113,American Restaurant
77,77,59.9139,10.7122,44,39,5ae8662c8194fc002caab71c,TUNCO Frogner,59.915976,10.716351,Noodle House
11,11,59.9039,10.7322,2,1,5af5e24d018cbb002cf6049f,Dyna Fyr,59.902466000000004,10.738892,Scandinavian Restaurant
892,423,59.92616092933239,10.747718749296393,9,1,5b0598d52db4a9002cdbabb9,Go Bento,59.928206,10.749386999999999,Sushi Restaurant
18,18,59.9039,10.7522,15,6,5b2be1e1054e29002c36ba29,Restaurant Edda,59.907931000000005,10.755141,Modern European Restaurant
230,230,59.9239,10.7122,17,7,5b2e34c48d0a53002c9a2b08,El Greco,59.927428000000006,10.712717999999999,Bakery
834,365,59.9216390706676,10.727718749296391,18,17,5b426c593b4e00002c2bcfa4,Øst Sushibar,59.92349399999999,10.725992,Sushi Restaurant
385,385,59.9339,10.7322,10,3,5b757a29a35dce002cdbddcd,Nozomi,59.930980000000005,10.73398,Sushi Restaurant
507,38,59.91616092933239,10.727720099357164,13,9,5b800e97018cbb0039ab0c3c,Vika Grill,59.91455799999999,10.724675,Turkish Restaurant
283,283,59.9239,10.7322,50,43,5b814955588e36002c233c92,Florenze Lunsj,59.922619999999995,10.740749000000001,Italian Restaurant
402,402,59.9339,10.7722,14,0,5b859f9c8fb09e002ce2653c,Sushi & Thai,59.933167000000005,10.763419,Sushi Restaurant
780,311,59.9116390706676,10.756679900642837,19,18,5b9a84c6cb3fd2002ccf33d4,El Burro,59.911981999999995,10.752444,Burrito Place
342,342,59.9239,10.7722,16,2,5b9fd64c6e488e002d706d5a,Vulkani Sushi,59.927214,10.771035000000001,Sushi Restaurant
687,218,59.9116390706676,10.747720099357164,50,6,5bae6acdd48ec10039b89bd8,Einer,59.911226,10.743679,Scandinavian Restaurant
135,135,59.9139,10.7522,50,3,5bb7b98ade3bbf0039b27260,Punjab Tandoori,59.917922999999995,10.753662,Indian Restaurant
197,197,59.9139,10.7722,28,15,5bc33ffc2b274a002cde127e,Kinabolle,59.91293,10.764789,Chinese Restaurant
442,442,59.9439,10.7722,20,8,5bd5d8f11af852002c465e40,Johnny Rockets,59.947555,10.771702000000001,American Restaurant
309,309,59.9239,10.7522,50,19,5bd894cd894eac00399cfe34,Taste of Asia,59.928143999999996,10.753915,Sushi Restaurant
438,438,59.9439,10.7722,20,4,5beefda41af8520039a1e703,Sumo,59.947412,10.77122,Japanese Restaurant
188,188,59.9139,10.7722,28,6,5bf83ff8de3bbf002c4da963,Maiz,59.911556000000004,10.771455,Mexican Restaurant
41,41,59.9139,10.7122,44,3,5c015129780eee002cae04a9,Listen To Baljit,59.915130000000005,10.717637,Indian Restaurant
3,3,59.8739,10.8122,2,1,5c0551b61953f3002c9b2857,Agave,59.87364300000001,10.810614999999999,Mexican Restaurant
444,444,59.9439,10.7722,20,10,5c115b5ab77c77002c525c72,"Little Eataly, Storo Storsenter",59.946743999999995,10.774734,Italian Restaurant
367,367,59.9339,10.7122,15,0,5c28d5d3acc5f5002c8032f9,Grains,59.930039,10.715751,Bakery
446,446,59.9439,10.7722,20,12,5c4853a6cb3fd2002ce10ad3,Brasserie Ferda,59.94725260182579,10.772202014923096,Scandinavian Restaurant
346,346,59.9239,10.7722,16,6,5c8d1b7aa879210039adfcf2,HaMiMo,59.925541,10.776096,Thai Restaurant
70,70,59.9139,10.7122,44,32,5c9790f7fc9e94002c8149c3,pinas,59.916137,10.712743,Filipino Restaurant
195,195,59.9139,10.7722,28,13,5c9a4c16b6eedb002cebc274,AsiaMix Sushi & Wok,59.909925,10.775642,Sushi Restaurant
225,225,59.9239,10.7122,17,2,5cb61e918c35dc002c4276ab,The Indus,59.927917,10.714267,Indian Restaurant
797,328,59.9239,10.7322,21,16,5cceed053092be002cd0ef9d,Royal Tandoori,59.924152,10.730606,Indian Restaurant
675,206,59.91616092933239,10.747720099357164,49,43,5cd6d4e231ac6c002cb41fe0,Meraki,59.915932999999995,10.75101,Greek Restaurant
12,12,59.9039,10.7522,15,0,5ce834b8f0b490002c116dbd,Brasserie Rivoli,59.906780000000005,10.755379,Brasserie
651,182,59.91616092933239,10.747720099357164,49,19,5cfa8c65471d6e002cd6e43a,Damascus Nights,59.915997,10.750567,Middle Eastern Restaurant
365,365,59.9239,10.8522,4,2,5d0262b616ef67003913a943,Soya Sushi Haugerud,59.922196,10.856384,Sushi Restaurant
162,162,59.9139,10.7522,50,30,5d31b995ae3c3b0008791a8d,Afood  marked,59.913738,10.759747,Supermarket
795,326,59.9239,10.7322,21,14,5d4eea07b7591000084079fd,J2,59.923929,10.731131,Korean Restaurant
958,489,59.9216390706676,10.756681250703606,34,25,5d637949228cfc0008398028,Los Tacos,59.92103,10.757539,Taco Place
928,459,59.92616092933239,10.756681250703606,13,8,5d6af24aa27e1a00074da2d8,Los Tacos,59.92546,10.759294,Taco Place
69,69,59.9139,10.7122,44,31,5d700ae1d1d1c90007ac53f9,Le Vin,59.91205,10.718879,French Restaurant
347,347,59.9239,10.7722,16,7,5d7501e3caa8b6000862c770,Gari,59.925578,10.775867,Sushi Restaurant
495,26,59.9139,10.7322,29,26,5d892da0e136100008b336dc,Banh Mi Mot,59.91363199999999,10.733464,Vietnamese Restaurant
454,454,59.9439,10.8122,3,0,5d935fc61855350008b6646f,Bjerke Sushi,59.942409999999995,10.811469,Sushi Restaurant
883,414,59.9239,10.7522,34,26,5da0ad65bc323e00074f8af9,Made in India by Aahar,59.923474,10.751072,South Indian Restaurant
246,246,59.9239,10.7322,50,6,5dbc7aaaa2edfe00075209ff,Stallen,59.92398000000001,10.726306,Scandinavian Restaurant
437,437,59.9439,10.7722,20,3,5dcc6501bf1af40008adc9b5,Los Tacos,59.948288,10.771566,Taco Place
357,357,59.9239,10.7922,3,1,5de7dfbf7b74210008fb583e,Sugar & Spice,59.927119999999995,10.795046000000001,Asian Restaurant
963,494,59.9216390706676,10.756681250703606,34,30,5dea98b591ebb5000890636d,Ezo Ramen,59.921151,10.758257,Ramen Restaurant
441,441,59.9439,10.7722,20,7,5df8f98311ae510008da8b02,Los Tacos,59.947266034247065,10.77195256948471,Taco Place
944,475,59.9216390706676,10.756681250703606,34,11,5e0be2ba5d9ec60008988905,Korsgata 25 Restaurant AS (Korsgata 25 Restaurant),59.92005,10.75812,Asian Restaurant
27,27,59.9039,10.7722,7,0,5e0e33ec27e8d40008466b3e,il professore,59.908248,10.770342,Italian Restaurant
43,43,59.9139,10.7122,44,5,5e1b571c2a9626000843c1cc,Bff Diner,59.915848,10.7139635,American Restaurant
15,15,59.9039,10.7522,15,3,5e21f9c75b863c00082e2d0c,Koie,59.90695699999999,10.755688000000001,Ramen Restaurant
930,461,59.92616092933239,10.756681250703606,13,10,5e248dfac8d7a30008951f0e,Norlaks Sushi,59.92463299999999,10.759522,Sushi Restaurant
57,57,59.9139,10.7122,44,19,5e59489e8180690008b7620b,Skillebekk Sushi,59.912724,10.709837,Sushi Restaurant
436,436,59.9439,10.7722,20,2,5e5a61d632281c0008954c47,Sabi Sushi Storo,59.94565600000001,10.772372,Sushi Restaurant
46,46,59.9139,10.7122,44,8,5ebd803a2e9d4f0008f4b029,Bono,59.91614499999999,10.714141999999999,Italian Restaurant
943,474,59.9216390706676,10.756681250703606,34,10,5ecbb9c3cc34e60007cac43d,Bei Bei,59.920035999999996,10.75817,Asian Restaurant
671,202,59.91616092933239,10.747720099357164,49,39,5ecfec502098c200083baff8,Japanese Street Food - Gohan,59.915904000000005,10.750608,Japanese Restaurant
330,330,59.9239,10.7522,50,40,5eef7383c2d26d000830f488,Habsak,59.928272,10.751362,Middle Eastern Restaurant
48,48,59.9139,10.7122,44,10,5efdd16bab146b0008ce974f,DiVino,59.91494,10.720386999999999,Italian Restaurant
136,136,59.9139,10.7522,50,4,5f2c171c3f3ebf7b1cb68b2e,Bindaas,59.91720409277544,10.752670168876648,Indian Restaurant
26,26,59.9039,10.7522,15,14,5f3a941dc551a43bd09e08db,Salome,59.908154,10.754028,Italian Restaurant
939,470,59.9216390706676,10.756681250703606,34,6,5f47d4de25a6330992e08525,Ching Ching,59.91982900000001,10.758245,Chinese Restaurant
210,210,59.9139,10.7922,7,0,5f491ea866125c5f0350729e,Fresh Asian Fusion,59.913723,10.798975,Asian Restaurant
17,17,59.9039,10.7522,15,5,5f51f5cdcf74b372279f6305,The Vandelay,59.906732,10.757294,Modern European Restaurant
234,234,59.9239,10.7122,17,11,5f55690adcbbc61ecc9f901c,China Games,59.926501,10.71739,Arcade
25,25,59.9039,10.7522,15,13,5f61283b9607377582181d67,Bratva,59.903459,10.743428,German Restaurant
39,39,59.9139,10.7122,44,1,5f620eb00ed4c262cb6c0a05,Frenchie,59.914609999999996,10.718849,French Restaurant
919,450,59.9216390706676,10.747718749296393,20,19,5f64a3ac67477035731d4d35,Tri Ky,59.92140500000001,10.752001,Asian Restaurant
209,209,59.9139,10.7722,28,27,5f673f18ee9ecb31473d0cb1,Wuhan Fried Batwings,59.914021,10.77523,Wings Joint
932,463,59.92616092933239,10.756681250703606,13,12,5f7b5d5bfbafa14fa14e5786,Khushi Indian Cuisine,59.925430000000006,10.757019999999999,Indian Restaurant
361,361,59.9239,10.8122,3,2,5f830b64a5d9a20fe6a9c0cd,Soofi Restaurant,59.925252,10.807386,Persian Restaurant
856,387,59.9216390706676,10.736681250703608,19,18,5fa7de6ee5233359125d7a0d,Vaquera Verde,59.923362,10.739291999999999,Mexican Restaurant
429,429,59.9439,10.7122,8,7,5fb166c59a820137611c5df1,Vinderen Sushi,59.942253,10.704936,Sushi Restaurant
428,428,59.9439,10.7122,8,6,5fc297a59a4df4149362f0e4,Sabi Sushi,59.942781999999994,10.703819000000001,Sushi Restaurant
