,lat_centre,long_centre,num_venues,venue_iter,venue_id,venue_name,lat_venue,long_venue,category
0,59.8639,10.7922,1,0,5a3bbb3e1b0ea52c87f125b9,Hos victoria - cafe & tapas,59.861097,10.795953,Tapas Restaurant
1,59.8639,10.8322,1,0,531b2df511d212fff439a075,Skullerud Sushi AS,59.8663431,10.8391632,Sushi Restaurant
2,59.8739,10.8122,2,0,51e68f17498efc97c10b5fc1,Sushi Thai,59.873232,10.811248,Japanese Restaurant
3,59.8739,10.8122,2,1,5c0551b61953f3002c9b2857,Agave,59.873643,10.810615,Mexican Restaurant
4,59.8939,10.6522,1,0,4e15f6ff18a8addae8cefff9,Sult - Bygdøy Sjøbad,59.893909699999995,10.650830299999999,Tapas Restaurant
5,59.8939,10.6722,1,0,4be566302457a5935d66ab15,Huk Strandrestaurant,59.89512,10.674241,Scandinavian Restaurant
6,59.8939,10.6922,1,0,4c73e7638efc37049bbc167d,Dyna Fyr,59.89482885729372,10.688389789860993,Scandinavian Restaurant
7,59.8939,10.8122,1,0,4ff072c7e4b0616aaac2e4af,"Hylla Cafe, Bar og Spiseri",59.89726966261621,10.812930624676975,Asian Restaurant
8,59.9039,10.6922,2,0,5155927ce4b023b64ff133bb,Kafe Arkadia,59.907418285629795,10.686834051006697,Scandinavian Restaurant
9,59.9039,10.6922,2,1,4ee261e6490152e4bd220123,Røylen Selskapslokaler,59.902534555151526,10.698804299362637,Scandinavian Restaurant
10,59.9039,10.7322,2,0,5405e1ba498ebf230f2f9575,Skur 33 - Trattoria da mare,59.9077513289601,10.733429902255885,Italian Restaurant
11,59.9039,10.7322,2,1,5af5e24d018cbb002cf6049f,Dyna Fyr,59.902466,10.738892,Scandinavian Restaurant
12,59.9039,10.7522,15,0,5ce834b8f0b490002c116dbd,Brasserie Rivoli,59.90678,10.755379,Brasserie
13,59.9039,10.7522,15,1,595e1a4381635b657d28e847,Coyo,59.90170751562971,10.751188594022004,Mexican Restaurant
14,59.9039,10.7522,15,2,5ac216472c7eb9726c80d418,Mirabel Restaurant Og Bar,59.90239,10.752969,Italian Restaurant
15,59.9039,10.7522,15,3,5e21f9c75b863c00082e2d0c,Koie,59.906957,10.755688,Ramen Restaurant
16,59.9039,10.7522,15,4,57a9750a498ecd82979da92a,Hakkaiza,59.901645,10.752739,Asian Restaurant
17,59.9039,10.7522,15,5,5f51f5cdcf74b372279f6305,The Vandelay,59.906732,10.757294,Modern European Restaurant
18,59.9039,10.7522,15,6,5b2be1e1054e29002c36ba29,Restaurant Edda,59.907931,10.755141,Modern European Restaurant
19,59.9039,10.7522,15,7,574d5fbf498e9eb41a89a3a2,", Restauranthuset Operaen",59.908016,10.750961,Scandinavian Restaurant
20,59.9039,10.7522,15,8,55a6d31a498ea472fbe3423c,Cargo Sørenga,59.90301365753323,10.753260907291857,Italian Restaurant
21,59.9039,10.7522,15,9,56d1bb90cd10e735a482abb2,Le meo sushi,59.902625,10.752755,Sushi Restaurant
22,59.9039,10.7522,15,10,5218c2ae11d2440193105662,Promenaden,59.902800785032994,10.75289812191239,Tapas Restaurant
23,59.9039,10.7522,15,11,4cfd5e8b34c1a093e0f74f0e,Argent Fine Dining,59.90813506018278,10.752064875020265,French Restaurant
24,59.9039,10.7522,15,12,580171fbd67ce4fd7655ef23,Castro,59.90307,10.754291,Italian Restaurant
25,59.9039,10.7522,15,13,5f61283b9607377582181d67,Bratva,59.903459,10.743428,German Restaurant
26,59.9039,10.7522,15,14,5f3a941dc551a43bd09e08db,Salome,59.908154,10.754028,Italian Restaurant
27,59.9039,10.7722,7,0,5e0e33ec27e8d40008466b3e,il professore,59.908248,10.770342,Italian Restaurant
28,59.9039,10.7722,7,1,4b0588b7f964a520d4d522e3,Gamlebyen Mat & Vinhus,59.906106,10.767892,French Restaurant
29,59.9039,10.7722,7,2,54b41ddf498e36f244e6af3f,Greentaste,59.90311682379423,10.767809925619849,Vietnamese Restaurant
30,59.9039,10.7722,7,3,596283582f97ec37cae51211,FCC Real Italian Quality,59.90698193574026,10.776388943195343,Italian Restaurant
31,59.9039,10.7722,7,4,54b41db9498ea1f75c5ba1b5,Greentaste,59.903142,10.767529,Vietnamese Restaurant
32,59.9039,10.7722,7,5,53fe107a498e016a83da2839,Birusia,59.907578,10.776186,Italian Restaurant
33,59.9039,10.7722,7,6,5a100d19840fc2618cb7a6a8,Klokka + Sumiya,59.907397,10.774769,Pop-Up Shop
34,59.9039,10.7922,1,0,570fccd9498ebbb3a87facf2,Konows Sushi,59.901668385105026,10.789424994849718,Sushi Restaurant
35,59.9039,10.8322,1,0,4e87437f30f8f98faf836274,Beno Restaurant,59.90070997666412,10.83388087613105,Indian Restaurant
36,59.9039,10.8522,2,0,57af6483498e9517ca8b99da,Kokkens Bord,59.901752,10.852992,Scandinavian Restaurant
37,59.9039,10.8522,2,1,536fabed498e60f8280a08bb,Soya & Sushi,59.903141021728516,10.854753494262695,Asian Restaurant
38,59.9139,10.712200000000001,44,0,5984a7fde96d0c55fc7ff2c6,Kverneriet,59.91451501568869,10.718491399519824,Burger Joint
39,59.9139,10.712200000000001,44,1,5f620eb00ed4c262cb6c0a05,Frenchie,59.91461,10.718849,French Restaurant
40,59.9139,10.712200000000001,44,2,4b05c055f964a5206de222e3,Alex Sushi,59.914645,10.72077,Sushi Restaurant
41,59.9139,10.712200000000001,44,3,5c015129780eee002cae04a9,Listen To Baljit,59.91513,10.717637,Indian Restaurant
42,59.9139,10.712200000000001,44,4,5aca4985772fbc1f5120230a,San Francisco Bread Bowl,59.91636379477439,10.715832710266113,American Restaurant
43,59.9139,10.712200000000001,44,5,5e1b571c2a9626000843c1cc,Bff Diner,59.915848,10.7139635,American Restaurant
44,59.9139,10.712200000000001,44,6,551adc0f498e2bb219516e44,El Camino,59.91691156937736,10.714732695456085,Mexican Restaurant
45,59.9139,10.712200000000001,44,7,54ca7f85498e99dacf276668,Villa Paradiso Frogner,59.914967495860445,10.717709196381806,Italian Restaurant
46,59.9139,10.712200000000001,44,8,5ebd803a2e9d4f0008f4b029,Bono,59.916145,10.714142,Italian Restaurant
47,59.9139,10.712200000000001,44,9,4ba7aebef964a5205ea939e3,Pizza Da Mimmo,59.916366,10.716581,Pizza Place
48,59.9139,10.712200000000001,44,10,5efdd16bab146b0008ce974f,DiVino,59.91494,10.720387,Italian Restaurant
49,59.9139,10.712200000000001,44,11,597caac1c824ae75171e1427,Blå thai street food,59.916653,10.716223,Thai Restaurant
50,59.9139,10.712200000000001,44,12,524b032811d2ae4d1c3210a6,+39,59.912716,10.710493,Italian Restaurant
51,59.9139,10.712200000000001,44,13,4b969fe4f964a5209cd934e3,Japo Sushi,59.915418367568186,10.717118833126014,Sushi Restaurant
52,59.9139,10.712200000000001,44,14,4bf19f977077952121963e7c,Natraj Tandoori Restaurant,59.915962499636414,10.71324072228849,Indian Restaurant
53,59.9139,10.712200000000001,44,15,5ac12b036dcf04182a09539d,Confusion,59.914795,10.719489,Vietnamese Restaurant
54,59.9139,10.712200000000001,44,16,4e061b8ea809495e61905fbf,Japy Thai,59.914702,10.718723,Japanese Restaurant
55,59.9139,10.712200000000001,44,17,569aa43c498e49b6b010a35e,Urban Eatery,59.914784,10.719401,Asian Restaurant
56,59.9139,10.712200000000001,44,18,57150d33498e21b5d3f9d95a,Sumo Restaurant,59.914715541352436,10.719213470777031,Sushi Restaurant
57,59.9139,10.712200000000001,44,19,5e59489e8180690008b7620b,Skillebekk Sushi,59.912724,10.709837,Sushi Restaurant
58,59.9139,10.712200000000001,44,20,51472264e4b02dd333a6b24f,Noodles,59.91481569324865,10.719294635410305,Chinese Restaurant
59,59.9139,10.712200000000001,44,21,513b45bbe4b04f70216cbd5b,Blue Elephant,59.91673083955803,10.71641206741333,Thai Restaurant
60,59.9139,10.712200000000001,44,22,5a9aa0b8f96b2c5561187ac0,Å,59.914123,10.717526,Café
61,59.9139,10.712200000000001,44,23,4b0588b6f964a520add522e3,Hos Thea,59.912766,10.709329,Scandinavian Restaurant
62,59.9139,10.712200000000001,44,24,4ba3e942f964a520df6c38e3,House Of Sushi,59.916343,10.714915,Sushi Restaurant
63,59.9139,10.712200000000001,44,25,57580075498e995589d0636b,Mediterranean Pit Stop,59.916436,10.715738,Mediterranean Restaurant
64,59.9139,10.712200000000001,44,26,5895da9376b8b24a34988597,Nomads,59.914275,10.720462,Sushi Restaurant
65,59.9139,10.712200000000001,44,27,4df50b1245dd4e269346035e,Fuji Japanese Restaurant & Sushi Bar,59.91266199059203,10.710428088054714,Sushi Restaurant
66,59.9139,10.712200000000001,44,28,5747e65c498e07ee40e75431,San Leandro,59.91281010738077,10.710189342498778,Spanish Restaurant
67,59.9139,10.712200000000001,44,29,5803b6bd38faa958703fae5b,Avalon,59.916426,10.711505,Italian Restaurant
68,59.9139,10.712200000000001,44,30,4b0830eff964a520e20523e3,Jewel of India,59.9159528,10.7169835,Indian Restaurant
69,59.9139,10.712200000000001,44,31,5d700ae1d1d1c90007ac53f9,Le Vin,59.91205,10.718879,French Restaurant
70,59.9139,10.712200000000001,44,32,5c9790f7fc9e94002c8149c3,pinas,59.916137,10.712743,Filipino Restaurant
71,59.9139,10.712200000000001,44,33,504a46a5e4b0b0e066e2ce09,Odissi,59.9140270549992,10.719957895265292,Indian Restaurant
72,59.9139,10.712200000000001,44,34,561e91ff498e5c15e95db5b5,Barcia Bistro Bar,59.91295745931604,10.710382318221551,Tapas Restaurant
73,59.9139,10.712200000000001,44,35,4d7139f4783f8cfaf73ce4d6,Sato,59.916496,10.714964,Japanese Restaurant
74,59.9139,10.712200000000001,44,36,57129ce4498eb520f7095782,Gael,59.916296,10.715276,Modern European Restaurant
75,59.9139,10.712200000000001,44,37,4d974e160caaa143ed7e8eb3,Saigon Mat Xpress,59.914254,10.720897,Asian Restaurant
76,59.9139,10.712200000000001,44,38,4dbc478543a1d8504b871af1,Japanese Dining Sato,59.91634615905206,10.714931634219996,Japanese Restaurant
77,59.9139,10.712200000000001,44,39,5ae8662c8194fc002caab71c,TUNCO Frogner,59.915976,10.716351,Noodle House
78,59.9139,10.712200000000001,44,40,59ab064a9ef8ef7b9dd1b258,Topphem,59.914943,10.720373,Scandinavian Restaurant
79,59.9139,10.712200000000001,44,41,5270e5e511d2254b15bee5ec,Asia Village,59.916261,10.716105,Sushi Restaurant
80,59.9139,10.712200000000001,44,42,4b9cefdbf964a5207f8336e3,Star Sushi,59.916187,10.71583,Sushi Restaurant
81,59.9139,10.712200000000001,44,43,5294e1f411d2ca9cf2a37011,Eatalay,59.91114044189453,10.718928337097168,Italian Restaurant
82,59.9139,10.7322,50,0,57484e0d498e0cddb38dfd79,Dim Sum by Taste of China,59.91213442482679,10.73546381244877,Dim Sum Restaurant
83,59.9139,10.7322,50,1,57ffcf2938fa57a01428c12f,Grand Café,59.913786589376336,10.738923562292417,Scandinavian Restaurant
84,59.9139,10.7322,50,2,5915fc9b86f4cc18439e2eb9,Miss Sophie Restaurant & Bar,59.915066,10.72871,Modern European Restaurant
85,59.9139,10.7322,50,3,5f3d3adc4e4ed1230a51c482,Sabi Sushi,59.914447,10.7305,Sushi Restaurant
86,59.9139,10.7322,50,4,5f4947e5ba18ff34e89ae84f,Vino al Vino italiensk,59.917917,10.734463,Italian Restaurant
87,59.9139,10.7322,50,5,4b3a50eff964a5207c6425e3,Olivia,59.910177,10.728052,Pizza Place
88,59.9139,10.7322,50,6,527bc23b498e86f2f53ed3c3,Delicatessen,59.91080701512862,10.727132882039909,Tapas Restaurant
89,59.9139,10.7322,50,7,4c45be732d3ec9b6e8a630ae,Yaya's,59.91180657495384,10.737552385990732,Thai Restaurant
90,59.9139,10.7322,50,8,4cdc1a3ed4ecb1f7c1727d48,Lille Sumo,59.91340335166864,10.732407515613222,Sushi Restaurant
91,59.9139,10.7322,50,9,4b0588b4f964a520ddd422e3,Hard Rock Cafe Oslo,59.91466936880548,10.736697965384565,American Restaurant
92,59.9139,10.7322,50,10,4b894f4df964a520722a32e3,Dinner,59.91395732044485,10.73475657508237,Chinese Restaurant
93,59.9139,10.7322,50,11,4bcc09203740b71353766365,Prima Fila Ristorante,59.913258,10.734679,Italian Restaurant
94,59.9139,10.7322,50,12,518a42cb498eb64d27b86322,Albert Bistro,59.91003641708226,10.727976755807674,French Restaurant
95,59.9139,10.7322,50,13,5503266a498ec719aace61b6,Asia Aker Brygge,59.91035186993424,10.728476431080908,Asian Restaurant
96,59.9139,10.7322,50,14,4b0588b2f964a52068d422e3,Pascal,59.9151783321461,10.726118568352401,French Restaurant
97,59.9139,10.7322,50,15,590b3590a6fe4d70c58eb338,Genki,59.914538,10.729981,Japanese Restaurant
98,59.9139,10.7322,50,16,5d14c033e7e5fc002317f109,Valentes,59.914276,10.729412,Italian Restaurant
99,59.9139,10.7322,50,17,56462518498edc515ac72721,Der Peppern Gror,59.912403,10.735058,Indian Restaurant
100,59.9139,10.7322,50,18,5b805536c62b49002c6f9c94,Katla,59.91647652965733,10.7386071225464,Japanese Restaurant
101,59.9139,10.7322,50,19,58513918e9efba52ab150e47,Ett Bord,59.913993367528384,10.728288888931274,Scandinavian Restaurant
102,59.9139,10.7322,50,20,5dc2b351aff6dc00076e69c1,Glasshuset,59.911118,10.737188,Italian Restaurant
103,59.9139,10.7322,50,21,4b56b059f964a5209e1828e3,Kaffistova,59.9148327969772,10.740107814253587,Scandinavian Restaurant
104,59.9139,10.7322,50,22,4ba2b21af964a5201e1138e3,Cafe Christiania,59.912907,10.739297,Scandinavian Restaurant
105,59.9139,10.7322,50,23,5151e539e4b0a6bb6ac3e2fa,Mahayana,59.913376864417856,10.736785949367519,Asian Restaurant
106,59.9139,10.7322,50,24,4b86d6b8f964a520c4a031e3,Ruffino,59.91517141559196,10.727426293363985,Italian Restaurant
107,59.9139,10.7322,50,25,4b0588b7f964a520e8d522e3,Restaurant Eik Annen Etage,59.91404503342786,10.734135467719879,Scandinavian Restaurant
108,59.9139,10.7322,50,26,5406edb3498e0bfa43516af1,Taqueria,59.914141457423526,10.737469460699117,Mexican Restaurant
109,59.9139,10.7322,50,27,590b377f60255e01fcbaddda,Omakase By Alex Cabiao,59.91459,10.729844,Sushi Restaurant
110,59.9139,10.7322,50,28,50190101e4b0911af4326833,Elias Mat & Sånt,59.91637472215308,10.73876240991956,Scandinavian Restaurant
111,59.9139,10.7322,50,29,579f8571498edee3cc36c53a,Sushi Søstrene,59.914433,10.731755,Sushi Restaurant
112,59.9139,10.7322,50,30,4bbc9c1707809521d979d991,Four Seasons,59.91438016951233,10.73011052338687,Asian Restaurant
113,59.9139,10.7322,50,31,4cc1a57fe310224bb54a316f,Mr. Hong Restaurant,59.913035850181735,10.737545127987067,Asian Restaurant
114,59.9139,10.7322,50,32,51d17444498e00f5195d4902,Olivia Hegdehaugsveien,59.91010125383215,10.728200149085408,Italian Restaurant
115,59.9139,10.7322,50,33,4b0588b6f964a520d2d522e3,Bristol Grill,59.915156,10.740049,French Restaurant
116,59.9139,10.7322,50,34,4baceaebf964a5206d193be3,Steakers,59.913382,10.734875,American Restaurant
117,59.9139,10.7322,50,35,54527747498e1940a61b38e0,Sakae sushi,59.913790869158355,10.72450183513342,Sushi Restaurant
118,59.9139,10.7322,50,36,4bfd5034e529c928b7b7ba8c,Sunt og Godt Sushi,59.91448353983046,10.731831953045754,Sushi Restaurant
119,59.9139,10.7322,50,37,4b0d4c15f964a520d34523e3,Nan & Olive,59.91431733404041,10.737855094924779,Indian Restaurant
120,59.9139,10.7322,50,38,4b0588b6f964a520b4d522e3,Brasserie 45,59.91365494321641,10.735335906622545,Scandinavian Restaurant
121,59.9139,10.7322,50,39,4b0588b7f964a520ebd522e3,Restaurant Eik,59.91656450717518,10.738370068344816,Scandinavian Restaurant
122,59.9139,10.7322,50,40,5af1d53f6bd36b00397b37d2,thai streetfood,59.912211,10.731716,Thai Restaurant
123,59.9139,10.7322,50,41,4c25f146f7ced13a3861256d,Gatsby Brasserie & Bar,59.9143099276076,10.732975459271795,French Restaurant
124,59.9139,10.7322,50,42,55f41207498e33bde8b59f1d,Stangerit,59.91032409667969,10.729769706726074,Scandinavian Restaurant
125,59.9139,10.7322,50,43,4cbaedecadcd548176db25a2,Golden Mountain,59.913032826640695,10.734321413835975,Chinese Restaurant
126,59.9139,10.7322,50,44,518e607a498e36b3951c948d,Qui Taste Of Italy,59.91301337802812,10.726209200393853,Italian Restaurant
127,59.9139,10.7322,50,45,4b585afbf964a5201f5428e3,Agra Restaurant & Bar,59.91225225703243,10.727271649837558,Indian Restaurant
128,59.9139,10.7322,50,46,57a9f17e498ed7b5cf81ca21,Baremas Tapas and Bar,59.912341,10.735802,Tapas Restaurant
129,59.9139,10.7322,50,47,5065afd5e4b08bbff8377429,Verdens største fårikålfest,59.9145769274621,10.740150750062483,Scandinavian Restaurant
130,59.9139,10.7322,50,48,5f47b88600d1663ecf5b0857,Ratskeller,59.911725,10.733777,German Restaurant
131,59.9139,10.7322,50,49,4b9fc9ddf964a520c23e37e3,Lemongrass,59.91639,10.738451,Caribbean Restaurant
132,59.9139,10.7522,50,0,5821b891165d97731723a486,Olivia,59.910349388785235,10.75107748784677,Italian Restaurant
133,59.9139,10.7522,50,1,59b176f3cad1b6095f6688f4,Koie,59.917087291916665,10.752708038171903,Ramen Restaurant
134,59.9139,10.7522,50,2,55aa89a2498ee54a909eb467,Freddy Fuego,59.917783918496795,10.754060448247438,Burrito Place
135,59.9139,10.7522,50,3,5bb7b98ade3bbf0039b27260,Punjab Tandoori,59.917923,10.753662,Indian Restaurant
136,59.9139,10.7522,50,4,5f2c171c3f3ebf7b1cb68b2e,Bindaas,59.917204092775435,10.752670168876648,Indian Restaurant
137,59.9139,10.7522,50,5,5f416678e5287a421fdbb9bd,Issho,59.913888,10.748819,Japanese Restaurant
138,59.9139,10.7522,50,6,4baa39bbf964a5203a553ae3,Thai Orchid,59.91639369846416,10.7545837762846,Thai Restaurant
139,59.9139,10.7522,50,7,56ddc773498e97c6223607ee,Sushi & Wok City,59.911251,10.748329,Sushi Restaurant
140,59.9139,10.7522,50,8,4c0a8dbb7e3fc9281dc9f382,Illegal Burger,59.91567311355424,10.748826981780796,Burger Joint
141,59.9139,10.7522,50,9,5ba54a0089b06a002c7e48a0,Night Pig,59.917125,10.750149,Japanese Restaurant
142,59.9139,10.7522,50,10,4b2b709cf964a52066b624e3,Baltazar Ristorante & Enoteca,59.91212876290938,10.747496942616301,Italian Restaurant
143,59.9139,10.7522,50,11,4e7e07a7b8f700d320a0f798,T.G.I. Friday's,59.91225231694047,10.750674175649095,American Restaurant
144,59.9139,10.7522,50,12,5728ce86498e6257593ef07d,Los Tacos,59.912235,10.749579,Taco Place
145,59.9139,10.7522,50,13,5aecaa49d7627e002c4324f7,Cielito,59.911068,10.747007,Mexican Restaurant
146,59.9139,10.7522,50,14,55656f48498e41543bb1e4ca,O'Learys,59.914267,10.747235,American Restaurant
147,59.9139,10.7522,50,15,4fa7b70de4b0d905273beeb9,Bella Bambina,59.910852427630566,10.75132104074567,Italian Restaurant
148,59.9139,10.7522,50,16,5eb680f9a30d1700080b1257,Döner Bros,59.916727,10.753709,Doner Restaurant
149,59.9139,10.7522,50,17,5c8b88db1acf11002c0608a4,Atlas,59.91074,10.74984,American Restaurant
150,59.9139,10.7522,50,18,4c10bafe81e976b02b8c0feb,Da Lat Cafe,59.91683443380693,10.753164441736137,Vietnamese Restaurant
151,59.9139,10.7522,50,19,4c82336f47cc224b3738839f,Lille Saigon 1,59.91655911345806,10.751238524152988,Vietnamese Restaurant
152,59.9139,10.7522,50,20,4b7712bdf964a520807a2ee3,Arakataka,59.916381,10.750594,Scandinavian Restaurant
153,59.9139,10.7522,50,21,58c02e4614f8f47273019be3,Mela Café,59.91672,10.750512,Middle Eastern Restaurant
154,59.9139,10.7522,50,22,539f1584498eae48dda59c72,Tuk Tuk Thai,59.914160490710756,10.746401317792301,Thai Restaurant
155,59.9139,10.7522,50,23,54cbb286498e95364d8bd56b,Yo! Sushi,59.91079381529045,10.751501959913496,Sushi Restaurant
156,59.9139,10.7522,50,24,4b0588b3f964a52091d422e3,Bacchus Spiseri & Vinhus,59.912824,10.747403,Café
157,59.9139,10.7522,50,25,4e46aa65aeb70e74f4971338,Risbolle Thai Cafe Restaurant,59.911372525111624,10.74707274291128,Thai Restaurant
158,59.9139,10.7522,50,26,5af84ae48c35dc002ccc2939,Johnny Rockets,59.914258,10.752183,Burger Joint
159,59.9139,10.7522,50,27,5e59845f2884f40008c19a4d,Tea Room,59.914983,10.750381,Scandinavian Restaurant
160,59.9139,10.7522,50,28,5a4fe7ea8e886a7c688ac815,Girotondo,59.91514077520399,10.750014620214598,Pizza Place
161,59.9139,10.7522,50,29,4bf2b23f1cd9d13ab5efed76,Dovrehallen,59.91393152181803,10.751443971664603,Scandinavian Restaurant
162,59.9139,10.7522,50,30,5d31b995ae3c3b0008791a8d,Afood  marked,59.913738,10.759747,Supermarket
163,59.9139,10.7522,50,31,52fa7ae6498e42d44e3f7c45,Lalibela,59.91777423609637,10.750465610263921,Ethiopian Restaurant
164,59.9139,10.7522,50,32,5130db5ee4b08f948ef08981,Habibi Mezahrestaurant,59.91394368896589,10.748740138823097,Middle Eastern Restaurant
165,59.9139,10.7522,50,33,5bddcb2f3fcee8002c8cb065,Mantra,59.910988,10.746755,Indian Restaurant
166,59.9139,10.7522,50,34,4b140981f964a520349c23e3,Brunello,59.91315470821485,10.752808898440632,Italian Restaurant
167,59.9139,10.7522,50,35,5ba2243e031320002ce7f318,Shanghai 2018,59.91146,10.745029,Japanese Restaurant
168,59.9139,10.7522,50,36,5debfede9d0cab000798972e,Glør,59.914364,10.750012,Scandinavian Restaurant
169,59.9139,10.7522,50,37,4b86bd61f964a5200e9a31e3,Saigon Lille Café,59.917115593816774,10.750283905418426,Vietnamese Restaurant
170,59.9139,10.7522,50,38,57dc42e3498ee48ce9dbf11f,Tukthuset,59.914875,10.751376,South American Restaurant
171,59.9139,10.7522,50,39,5c55d19da6ec98003927b35c,KAIN Filipino Rice Bar,59.915855,10.750747,Filipino Restaurant
172,59.9139,10.7522,50,40,50e5c839e4b01244ad0e54c8,Konak restaurant,59.911117,10.746954,Turkish Restaurant
173,59.9139,10.7522,50,41,560e53e1498eb70a67412ec7,Bambus Noodles,59.91220897511926,10.752268800272585,Vietnamese Restaurant
174,59.9139,10.7522,50,42,5914a2a16bdee638c53407eb,Saray Restaurant avd. Grønland,59.913158,10.759551,Turkish Restaurant
175,59.9139,10.7522,50,43,5379fc1c498e7975530b7b23,Italian Restaurant,59.91663941486331,10.757412314414978,Italian Restaurant
176,59.9139,10.7522,50,44,53999e3f498e40a9f66ad721,La Brasserie,59.91370133559856,10.743366867288108,French Restaurant
177,59.9139,10.7522,50,45,5f40d529f7f2043fa86d2acc,Deutscher Downstairs,59.914042,10.750796,Speakeasy
178,59.9139,10.7522,50,46,4d69027f4c463704c5059cb3,Viet Nam House,59.915855596854286,10.751940532903912,Vietnamese Restaurant
179,59.9139,10.7522,50,47,4d69650a67a8f04d711e0dbe,Schiller's Tapas,59.91440197624549,10.750019346795929,Tapas Restaurant
180,59.9139,10.7522,50,48,5ecfec10b018390008aca553,Kimchi,59.915955,10.750566,Korean Restaurant
181,59.9139,10.7522,50,49,52cc354a498e209ae098a00c,Taza Taza,59.91191013001027,10.753252754398014,Indian Restaurant
182,59.9139,10.7722,28,0,4cf7e46f81cd6dcb4656840d,Hagestuen Café,59.913673,10.776224,Café
183,59.9139,10.7722,28,1,4b9a93b7f964a520f0c235e3,Lahori Dera Tandoori,59.91316171942033,10.765275304280062,Indian Restaurant
184,59.9139,10.7722,28,2,5166e567e4b0c1d137cce039,Wasabi Sushi,59.91452907375352,10.775737448230931,Sushi Restaurant
185,59.9139,10.7722,28,3,546f7756498e591c7c5bef29,Munks,59.91467553782208,10.775642492246016,Thai Restaurant
186,59.9139,10.7722,28,4,54aaaf56498e5bb40ae073bb,Anatolia Tyrkisk restaurant,59.91464973895612,10.77570766908094,Turkish Restaurant
187,59.9139,10.7722,28,5,56f420bf498eb469f27b9820,Dinner Tandoori,59.914643,10.768917,Indian Restaurant
188,59.9139,10.7722,28,6,5bf83ff8de3bbf002c4da963,Maiz,59.911556,10.771455,Mexican Restaurant
189,59.9139,10.7722,28,7,53f62aa6498ee1bf3be82c39,turkish grill house,59.91204833984375,10.766505241394043,Turkish Restaurant
190,59.9139,10.7722,28,8,59de2cc66eda024b58725d5b,Tacos El Brujo,59.912952,10.764361,Taco Place
191,59.9139,10.7722,28,9,4b5e11f2f964a520f27b29e3,Ali Baba,59.91261093538472,10.763665076997068,Mediterranean Restaurant
192,59.9139,10.7722,28,10,525975c4498e426b5fc0498e,Indian Cuisine,59.912944,10.764354,Indian Restaurant
193,59.9139,10.7722,28,11,504cde64e4b08a4f69b29daa,Sverresgate,59.91066283476582,10.77648666544152,Greek Restaurant
194,59.9139,10.7722,28,12,59807eece7a2373f3ee53cf0,Munks,59.91458,10.775676,Thai Restaurant
195,59.9139,10.7722,28,13,5c9a4c16b6eedb002cebc274,AsiaMix Sushi & Wok,59.909925,10.775642,Sushi Restaurant
196,59.9139,10.7722,28,14,5a9af3824c954c3e3f7a5238,Sham,59.910953,10.772119,Syrian Restaurant
197,59.9139,10.7722,28,15,5bc33ffc2b274a002cde127e,Kinabolle,59.91293,10.764789,Chinese Restaurant
198,59.9139,10.7722,28,16,5721d96b498e605e559c33aa,La Villa,59.91257,10.763645,Italian Restaurant
199,59.9139,10.7722,28,17,589f0e8cd9705c7b870bbc33,Taytu,59.912796,10.7643,Ethiopian Restaurant
200,59.9139,10.7722,28,18,563bab94cd10653a03ab440a,Darbar,59.915217831850875,10.769865497365902,Indian Restaurant
201,59.9139,10.7722,28,19,5275144811d299e6433b3bad,Restaurant Medina,59.91195297241211,10.766827583312988,Asian Restaurant
202,59.9139,10.7722,28,20,59cd3aa389e490561ec6977b,Golden Chimp,59.91411836049998,10.767512805084515,Dumpling Restaurant
203,59.9139,10.7722,28,21,55f0799f498eb44e36c97bd4,Waarabi,59.91210174560547,10.766328811645508,African Restaurant
204,59.9139,10.7722,28,22,5963a4dfb399f759ba06c727,Munk,59.914618,10.775858,Thai Restaurant
205,59.9139,10.7722,28,23,4c7bd3c9df08a1cd9590e15d,Per Bacco Osteria,59.912378,10.764745,Italian Restaurant
206,59.9139,10.7722,28,24,4b07fb90f964a520e40123e3,Olympen,59.91230682126749,10.764540316069697,Bar
207,59.9139,10.7722,28,25,51a75bdf498e96557cc4443c,Tava Restaurant & Bar,59.91374496113953,10.777522660593059,Mexican Restaurant
208,59.9139,10.7722,28,26,4bbf5c33b083a5936846a3e9,Bangkok Thai Restaurant,59.911426,10.767317,Thai Restaurant
209,59.9139,10.7722,28,27,5f673f18ee9ecb31473d0cb1,Wuhan Fried Batwings,59.914021,10.77523,Wings Joint
210,59.9139,10.7922,7,0,5f491ea866125c5f0350729e,Fresh Asian Fusion,59.913723,10.798975,Asian Restaurant
211,59.9139,10.7922,7,1,5200c342498e3c2c1bbd107c,Ensjø Sushi & Wok,59.917552,10.792737,Asian Restaurant
212,59.9139,10.7922,7,2,5172e77ae4b068d0483f79c4,Tre venner sushi,59.917528,10.792301,Asian Restaurant
213,59.9139,10.7922,7,3,51695ccbe4b06a5bba1f2e69,little italy,59.91180885146199,10.794153703603154,Italian Restaurant
214,59.9139,10.7922,7,4,545ba46f498ea078c4ec6180,Sushi time,59.914048,10.79769,Sushi Restaurant
215,59.9139,10.7922,7,5,4eaab4e8b803cf1ffb34b029,Helsfyr Sushi,59.91410750566327,10.797543826424489,Sushi Restaurant
216,59.9139,10.7922,7,6,4ef75b1a490124bf996c4587,Vålerenga Tikka & Grill,59.91013148088147,10.788187980651855,Indian Restaurant
217,59.9139,10.8122,1,0,56fe0cd2498e67af232fbc73,Østensjøveien 99 987,59.910447,10.812925,Asian Restaurant
218,59.9139,10.8322,1,0,57583228498e3c5c6e2c3815,Sushi & Stuff,59.913668,10.841048,Sushi Restaurant
219,59.923899999999996,10.6722,3,0,5277f3c711d22daea896bc86,QUI Taste of Italy,59.92163308759857,10.679148651746114,Italian Restaurant
220,59.923899999999996,10.6722,3,1,4f72d171e4b03ea6fd553f0e,Fazer kantine Skøjen,59.92131805419922,10.67736530303955,Scandinavian Restaurant
221,59.923899999999996,10.6722,3,2,57da70eb498e1b19c9b7b7bb,Trio Oslo,59.921558,10.678378,Scandinavian Restaurant
222,59.923899999999996,10.6922,1,0,4b59e1f3f964a520149e28e3,Da Capo,59.92133629692471,10.688179835310077,Asian Restaurant
223,59.923899999999996,10.712200000000001,17,0,4cc1e17301fb236ab8679bba,Lofotstua,59.92722163895404,10.71284747391865,Scandinavian Restaurant
224,59.923899999999996,10.712200000000001,17,1,4c4dadfa9efabe9aaa88e568,Gandhi,59.927991255594684,10.715660412590365,Indian Restaurant
225,59.923899999999996,10.712200000000001,17,2,5cb61e918c35dc002c4276ab,The Indus,59.927917,10.714267,Indian Restaurant
226,59.923899999999996,10.712200000000001,17,3,579e20ae498e6f60da608e0a,Kirkeveien 48 Thai Takeaway,59.927563,10.7129345,Thai Restaurant
227,59.923899999999996,10.712200000000001,17,4,57ef9169498e96e114afbcd9,ESTAR SUSHI,59.927329,10.713076,Sushi Restaurant
228,59.923899999999996,10.712200000000001,17,5,536be087498e65cd2a855899,St. Raw,59.92639,10.716906,Sushi Restaurant
229,59.923899999999996,10.712200000000001,17,6,4d28b26277a2a1cdb2e364b7,Thai Take Away,59.92751553576827,10.713214480303202,Thai Restaurant
230,59.923899999999996,10.712200000000001,17,7,5b2e34c48d0a53002c9a2b08,El Greco,59.927428,10.712718,Bakery
231,59.923899999999996,10.712200000000001,17,8,4d614ee2d7206ea8cecefef1,Umi Sushi,59.92554796994114,10.714179550711934,Sushi Restaurant
232,59.923899999999996,10.712200000000001,17,9,4da3599f9935a0939195c76f,Parken Sushi,59.927397,10.713124,Sushi Restaurant
233,59.923899999999996,10.712200000000001,17,10,58309352fbe8ff7800415d0a,fangst,59.922897,10.720031,Asian Restaurant
234,59.923899999999996,10.712200000000001,17,11,5f55690adcbbc61ecc9f901c,China Games,59.926501,10.71739,Arcade
235,59.923899999999996,10.712200000000001,17,12,4dcc27f1e4cde609a3a9c0d3,Sakura Sushi,59.920127405232634,10.707890421049921,Sushi Restaurant
236,59.923899999999996,10.712200000000001,17,13,4b102576f964a520fa6923e3,Yaya's,59.92613249222808,10.719584926385505,Thai Restaurant
237,59.923899999999996,10.712200000000001,17,14,4c8a682d1eafb1f797fc7935,CurryAndKetchup,59.927712,10.713655,Indian Restaurant
238,59.923899999999996,10.712200000000001,17,15,58443e8045c3ed1183b0524b,Wu Restaurant,59.921444,10.716131,Asian Restaurant
239,59.923899999999996,10.712200000000001,17,16,5606eded498ecac1654e6c7b,Oriental restaurant,59.928087,10.714088,Szechuan Restaurant
240,59.923899999999996,10.7322,50,0,51fc134f498e6f753775b931,Kolonialen,59.92294156889795,10.735541545748275,Scandinavian Restaurant
241,59.923899999999996,10.7322,50,1,4b1ffb08f964a520a82b24e3,Olivia Hegdehaugsveien,59.92226893444007,10.726514165572523,Pizza Place
242,59.923899999999996,10.7322,50,2,588ce94d7a8f042236ea0917,Eldhuset Bislett,59.923203,10.733107,BBQ Joint
243,59.923899999999996,10.7322,50,3,4b7440aaf964a52019d02de3,Plah Bar & Restaurant,59.9203516401329,10.72996630508937,Thai Restaurant
244,59.923899999999996,10.7322,50,4,597b85f9c21cb10594bf5799,Ahaan,59.92041,10.729401,Thai Restaurant
245,59.923899999999996,10.7322,50,5,562f23ea498eec1b21c41103,TUNCO,59.92335442360969,10.740875625697942,Gluten-free Restaurant
246,59.923899999999996,10.7322,50,6,5dbc7aaaa2edfe00075209ff,Stallen,59.92398,10.726306,Scandinavian Restaurant
247,59.923899999999996,10.7322,50,7,50e445eae4b0a78b16032466,Agave,59.92437484663341,10.72401677184776,Mexican Restaurant
248,59.923899999999996,10.7322,50,8,5a7b49c4a5a3150e844533dd,Campo De Fiori,59.923138,10.726022,Italian Restaurant
249,59.923899999999996,10.7322,50,9,59203364f96b2c5570ffec48,Park 29,59.920277,10.727362,French Restaurant
250,59.923899999999996,10.7322,50,10,4f086efae4b00a2751effbc5,Lille Asia,59.9223169836323,10.727031476307113,Asian Restaurant
251,59.923899999999996,10.7322,50,11,4b16bd1ff964a520bfbc23e3,Arte Pazza,59.92670176027607,10.738488871268073,Italian Restaurant
252,59.923899999999996,10.7322,50,12,5a758e30da5ede14bb698407,Klimataria Taverna,59.921623,10.730564,Greek Restaurant
253,59.923899999999996,10.7322,50,13,4b0ed142f964a520825b23e3,Sofies Mat- og Vinhus,59.922707911098215,10.73567085318752,Scandinavian Restaurant
254,59.923899999999996,10.7322,50,14,4b743f90f964a520cacf2de3,Restaurant Schrøder,59.9234017,10.7393735,Scandinavian Restaurant
255,59.923899999999996,10.7322,50,15,4b78454df964a5200bc12ee3,Brasserie Blanche,59.92331767987805,10.725931156412383,French Restaurant
256,59.923899999999996,10.7322,50,16,5d15de932535920023986556,Baohouse,59.921282,10.729902,Asian Restaurant
257,59.923899999999996,10.7322,50,17,5bf166dbc9a517002b8af059,Miss Gin,59.924581,10.730909,Vietnamese Restaurant
258,59.923899999999996,10.7322,50,18,4b9a85e4f964a5208cbd35e3,Tasty Thai,59.925814744043954,10.730467993438555,Thai Restaurant
259,59.923899999999996,10.7322,50,19,582b39ebd1efa67dc87a42dd,Cafe Nazca,59.919987,10.736192,Peruvian Restaurant
260,59.923899999999996,10.7322,50,20,5134cabae4b0a2e13c4df564,Holbergs Plass Ristorante,59.92133712768555,10.736084938049316,Italian Restaurant
261,59.923899999999996,10.7322,50,21,554a4db7498ebde87bd6f1f0,Indi Spice,59.919683,10.733762,Indian Chinese Restaurant
262,59.923899999999996,10.7322,50,22,4ce815249f776ea8c8e75b22,Vy Sushi,59.92294192314148,10.731984972953796,Sushi Restaurant
263,59.923899999999996,10.7322,50,23,4b9aca48f964a520e9d535e3,Deli Sushi,59.92683941760595,10.735234317295308,Sushi Restaurant
264,59.923899999999996,10.7322,50,24,524aea6c11d2616626111943,Budda Sushi,59.9245370388801,10.731091085952801,Sushi Restaurant
265,59.923899999999996,10.7322,50,25,4eb94cea7ee5024d80a192a4,SushiGodbit,59.92269429035964,10.73233059708835,Sushi Restaurant
266,59.923899999999996,10.7322,50,26,5a4fb79332b61d0da5fe7715,Piccolo Paradiso,59.924666,10.730854,Italian Restaurant
267,59.923899999999996,10.7322,50,27,533979f0498ea5078ddb2ac8,Indian Kitchen,59.920535250143885,10.733641504805076,Indian Restaurant
268,59.923899999999996,10.7322,50,28,55df4fdb498e302fef3e7641,Nam Nams Sushi,59.92448,10.731466,Sushi Restaurant
269,59.923899999999996,10.7322,50,29,520e7f7a11d21a5d9d985961,Agave,59.92639,10.724769,Mexican Restaurant
270,59.923899999999996,10.7322,50,30,4b79843cf964a52042fe2ee3,Sushi & Dinner DA,59.9204470620906,10.733260996440686,Sushi Restaurant
271,59.923899999999996,10.7322,50,31,4c20c19d132f0f47e923a796,Hokkigai Sushi,59.92286039026376,10.738603837991366,Sushi Restaurant
272,59.923899999999996,10.7322,50,32,50cb8424e4b0cc5bb575103c,Østmarkseteren,59.91958236694336,10.734029769897461,Scandinavian Restaurant
273,59.923899999999996,10.7322,50,33,54b6dd60498e7aea12b75092,Briskeby Kafe,59.921759232007645,10.72920296741848,Middle Eastern Restaurant
274,59.923899999999996,10.7322,50,34,4bbc9b1f593fef3bf1560256,Sushi Express,59.92125388107577,10.729874415471075,Asian Restaurant
275,59.923899999999996,10.7322,50,35,4be85109d837c9b6312ca506,Rust,59.9204930696182,10.7296925026881,Tapas Restaurant
276,59.923899999999996,10.7322,50,36,4b0588b2f964a52075d422e3,Horgan's,59.92111300423592,10.72779530610862,Sports Bar
277,59.923899999999996,10.7322,50,37,575e8efb498e0ed92e3adc9c,Mamma Asia,59.926373,10.725879,Asian Restaurant
278,59.923899999999996,10.7322,50,38,4e88751a77c86f75f08d216f,Punjabi Masala,59.92424979992772,10.731131485969577,Indian Restaurant
279,59.923899999999996,10.7322,50,39,4b9b52f5f964a5207d0036e3,Planet Bollywood,59.92312,10.740496,Indian Restaurant
280,59.923899999999996,10.7322,50,40,4d3596b32e56236a4ff238b4,Mio Sushi,59.924347,10.731119,Sushi Restaurant
281,59.923899999999996,10.7322,50,41,57128eaccd10de71b0ef056e,albertine indisk tandoori,59.922526,10.738927,Indian Restaurant
282,59.923899999999996,10.7322,50,42,4b976858f964a520970235e3,Sushi House,59.92566274677209,10.726980893835705,Sushi Restaurant
283,59.923899999999996,10.7322,50,43,5b814955588e36002c233c92,Florenze Lunsj,59.92262,10.740749,Italian Restaurant
284,59.923899999999996,10.7322,50,44,4e4aa07c18a83cda37de8098,A & J Tokyo Sushi,59.92322251913851,10.736443026105318,Sushi Restaurant
285,59.923899999999996,10.7322,50,45,4fc91444e4b0ccf717d8b4e1,cafe afrikaden,59.92642300379262,10.728647725365855,African Restaurant
286,59.923899999999996,10.7322,50,46,4bb4e2aff1b976b0f07c1f20,Kims Fastfood Ni Hao,59.926388,10.731376,Chinese Restaurant
287,59.923899999999996,10.7322,50,47,505762bce4b0244ddfc70fdc,Fusion Food,59.920654296875,10.733903884887695,Indian Restaurant
288,59.923899999999996,10.7322,50,48,509162e1e4b0628fdd73959a,Mezbaan Indian Cuisine,59.927002720053636,10.73269106695324,Indian Restaurant
289,59.923899999999996,10.7322,50,49,4f301ff2e4b0124abb3ca85b,Godbit Sushi,59.92286662380513,10.732238080765176,Sushi Restaurant
290,59.923899999999996,10.7522,50,0,5552449c498e387912e97ec7,Nedre Foss gård,59.92221689392208,10.753728631757197,Scandinavian Restaurant
291,59.923899999999996,10.7522,50,1,54284aac498e2fd8aae842a9,Monsun Noodlebar,59.92468,10.75846,Asian Restaurant
292,59.923899999999996,10.7522,50,2,4bc0a653461576b0f0727a32,East Kitchen,59.920755328292316,10.757421564261673,Asian Restaurant
293,59.923899999999996,10.7522,50,3,4f6347a1e4b02ac2c3e58c98,Habsak,59.928268,10.751398,Falafel Restaurant
294,59.923899999999996,10.7522,50,4,4b0d7253f964a520864823e3,Villa Paradiso,59.923484,10.757412,Italian Restaurant
295,59.923899999999996,10.7522,50,5,571b63a2498e1c38c85fd1d3,Sapporo Ramen Bar,59.92347306962917,10.751494786271605,Noodle House
296,59.923899999999996,10.7522,50,6,4b0588b3f964a52095d422e3,Mucho Mas,59.923984159236845,10.75920486024416,Mexican Restaurant
297,59.923899999999996,10.7522,50,7,55674b33498e10d4e7ceb051,Chez Colin,59.92047572692138,10.749435116057494,French Restaurant
298,59.923899999999996,10.7522,50,8,5c646f51250cab002ccaec86,Hrímnir Ramen,59.921339,10.7515,Restaurant
299,59.923899999999996,10.7522,50,9,52759b6311d2308001f56979,Tijuana,59.92205857139124,10.759345504430353,Mexican Restaurant
300,59.923899999999996,10.7522,50,10,4c5d93127735c9b6b8658f72,Mangiamo,59.92449399390439,10.759131939613164,Italian Restaurant
301,59.923899999999996,10.7522,50,11,5ea59718ae359000076faa70,Jalla Jalla,59.922117,10.757478,Middle Eastern Restaurant
302,59.923899999999996,10.7522,50,12,5321e133498ed806d21dee15,Noodles,59.92209233005507,10.752145044166047,Asian Restaurant
303,59.923899999999996,10.7522,50,13,4b0d7d0cf964a520744923e3,Gutta Fra Calcutta,59.92787936282446,10.749392291939028,Indian Restaurant
304,59.923899999999996,10.7522,50,14,5f4922a05c783a0b4b27818e,Breddos Tacos,59.922377170827744,10.752477049827576,Taco Place
305,59.923899999999996,10.7522,50,15,5f4920d01bae633610359ac8,Aristoslo,59.923473,10.751312,Greek Restaurant
306,59.923899999999996,10.7522,50,16,4b98ba6df964a5202a4d35e3,The Nighthawk Diner,59.92539,10.759107,Diner
307,59.923899999999996,10.7522,50,17,50895d20e4b023ef49a8be57,Barramon,59.92222735892375,10.752002345996063,Tapas Restaurant
308,59.923899999999996,10.7522,50,18,56e9b6de498e52f0709cdd74,New Anarkali Markveien,59.92177337070492,10.757155717005821,North Indian Restaurant
309,59.923899999999996,10.7522,50,19,5bd894cd894eac00399cfe34,Taste of Asia,59.928144,10.753915,Sushi Restaurant
310,59.923899999999996,10.7522,50,20,4b2bc4bcf964a5208fba24e3,Restaurant Delhi Tandoori,59.9196799,10.7511649,Indian Restaurant
311,59.923899999999996,10.7522,50,21,50747477e4b0fe15225a7546,Smelteverket,59.922203,10.752413,Gastropub
312,59.923899999999996,10.7522,50,22,5cc5b9421543c7002cc0ff6d,theka,59.923476,10.758088,Indian Restaurant
313,59.923899999999996,10.7522,50,23,5e1356a64f64620007ff29cb,Nam Fah Thai,59.923329,10.75102,Thai Restaurant
314,59.923899999999996,10.7522,50,24,5b1a6c058c812a002c6467c8,Hongs Bao Bao,59.92210737703135,10.751992376517931,Dim Sum Restaurant
315,59.923899999999996,10.7522,50,25,50797276e4b0258079852c7a,Comer Con Arte,59.92215527359818,10.75210306162121,Tapas Restaurant
316,59.923899999999996,10.7522,50,26,5d726db240d84d000745af1c,Eléa - The Greek Way,59.92326,10.751437,Greek Restaurant
317,59.923899999999996,10.7522,50,27,4bb78615b35776b0ebb5c701,Daqota,59.92316960392568,10.757777875159935,American Restaurant
318,59.923899999999996,10.7522,50,28,4c0bd76dbbc676b0641a4cd5,Sun Saravana,59.9275,10.7476,Indian Restaurant
319,59.923899999999996,10.7522,50,29,4ccd8605aa25a35de1701b0f,Sushi Number One,59.928128564956104,10.75374978145826,Sushi Restaurant
320,59.923899999999996,10.7522,50,30,4d544823d4a6721ee78893ac,Pompoi Thai Take Away,59.92770610114436,10.749449925930152,Thai Restaurant
321,59.923899999999996,10.7522,50,31,4e8f54945c5c4562ef8b8095,Gastronomia Italiano,59.927809460000006,10.749100330000001,Italian Restaurant
322,59.923899999999996,10.7522,50,32,4c502c9e2a73c9282e200dd2,Star Sushi,59.925824,10.745499,Sushi Restaurant
323,59.923899999999996,10.7522,50,33,50b5f584e4b0d4ffa6bcd693,Atelier Asian Tapas,59.92234220936105,10.752358064126799,Tapas Restaurant
324,59.923899999999996,10.7522,50,34,5c696340f427de002c4aec7e,Himnir,59.921297,10.751219,Ramen Restaurant
325,59.923899999999996,10.7522,50,35,569f76a6498e477419ad9570,Mazedar,59.922043,10.752111,Indian Restaurant
326,59.923899999999996,10.7522,50,36,582d9b038af0d43493fff29c,Tacos El Brujo,59.922028,10.751999,Taco Place
327,59.923899999999996,10.7522,50,37,4f72f76de4b0171950217e71,Ryes (mat),59.922502,10.759261,American Restaurant
328,59.923899999999996,10.7522,50,38,58b9cfac4e31c53af57013b5,Quesadilla,59.923448,10.758518,Mexican Restaurant
329,59.923899999999996,10.7522,50,39,5871404df63c545017c3a8de,Ristorante Ferro,59.922237,10.751372,Italian Restaurant
330,59.923899999999996,10.7522,50,40,5eef7383c2d26d000830f488,Habsak,59.928272,10.751362,Middle Eastern Restaurant
331,59.923899999999996,10.7522,50,41,506d9299e4b08206c61fe67d,Champagneria Bodega,59.922325546036824,10.7523096051578,Wine Bar
332,59.923899999999996,10.7522,50,42,4e74889b45ddd4323f4eaf0e,Bandhan Tandoori,59.924128805164074,10.759097383876563,Indian Restaurant
333,59.923899999999996,10.7522,50,43,4bca1383937ca593cd0ca792,Lille Asia,59.92186649073466,10.757326518103442,Sushi Restaurant
334,59.923899999999996,10.7522,50,44,5776cb0fcd10013c3a2ddb8f,Kamay,59.923908,10.760791,Asian Restaurant
335,59.923899999999996,10.7522,50,45,51741cdee4b0f71f75d3f37a,Tammy Sushi Markveien,59.92091369628906,10.75779914855957,Sushi Restaurant
336,59.923899999999996,10.7522,50,46,5b72daef911fc4002cf7e80d,Wu sushi box,59.920772,10.757577,Sushi Restaurant
337,59.923899999999996,10.7522,50,47,5a19ebe6dab4b1750a3578a4,Al Pastor,59.92215,10.757486,Taco Place
338,59.923899999999996,10.7522,50,48,58a9b8e7d7028261725c7393,Smak av Brasil (Pop-up),59.920475,10.752347,Brazilian Restaurant
339,59.923899999999996,10.7522,50,49,551d4faf498ec13114bfd4dd,Asia Fast Food,59.92207,10.752344,Asian Restaurant
340,59.923899999999996,10.7722,16,0,4ede37d25c5c96a202bce777,Royal Sushi,59.922670063981556,10.77131811336296,Asian Restaurant
341,59.923899999999996,10.7722,16,1,5a48e9e51b0ea523e1322a3c,Umami Sushi,59.923923,10.768138,Sushi Restaurant
342,59.923899999999996,10.7722,16,2,5b9fd64c6e488e002d706d5a,Vulkani Sushi,59.927214,10.771035,Sushi Restaurant
343,59.923899999999996,10.7722,16,3,4bcd4b07cc8cd13a4e71c2cf,Sechuan Chengdu Restaurant,59.92312375867008,10.77185970981392,Chinese Restaurant
344,59.923899999999996,10.7722,16,4,531f3a55498e29e29a0fbe3d,Adriatic Café+,59.9236633,10.7649536,Eastern European Restaurant
345,59.923899999999996,10.7722,16,5,50672744e4b0cdb22fe4e8c2,Li Li,59.92087953259046,10.77805549570905,Chinese Restaurant
346,59.923899999999996,10.7722,16,6,5c8d1b7aa879210039adfcf2,HaMiMo,59.925541,10.776096,Thai Restaurant
347,59.923899999999996,10.7722,16,7,5d7501e3caa8b6000862c770,Gari,59.925578,10.775867,Sushi Restaurant
348,59.923899999999996,10.7722,16,8,4e836463be7bdd8e4e7f11e8,Monsoon Restaurant & Takeaway,59.927127,10.771182,Asian Restaurant
349,59.923899999999996,10.7722,16,9,518f6fc3498e9b4e0c88bc46,Makboul Cafe,59.924519,10.774418,Moroccan Restaurant
350,59.923899999999996,10.7722,16,10,4cc308c938aaa09318170a62,Sau & Metall,59.921613799999996,10.76848714096125,Scandinavian Restaurant
351,59.923899999999996,10.7722,16,11,4b119cb5f964a520918023e3,Sushihuset,59.92555792783789,10.775752143840945,Sushi Restaurant
352,59.923899999999996,10.7722,16,12,4b0588b7f964a520dbd522e3,Petrus,59.92334228543476,10.76599909726434,Dive Bar
353,59.923899999999996,10.7722,16,13,4c55947d30f92d7f82b861bc,Mini Sushi,59.92642476998045,10.776311886028049,Sushi Restaurant
354,59.923899999999996,10.7722,16,14,51c48931498ebaa34b3ee005,Ha Ha Sushi,59.923738560962775,10.763415239001967,Asian Restaurant
355,59.923899999999996,10.7722,16,15,560699c1498ec78f88b77e22,Thai Corner,59.925312499322835,10.774864942531533,Asian Restaurant
356,59.923899999999996,10.7922,3,0,56913c76498efb17d54e93e0,Hy's Sushi Marienfryd,59.919853,10.791182,Asian Restaurant
357,59.923899999999996,10.7922,3,1,5de7dfbf7b74210008fb583e,Sugar & Spice,59.92712,10.795046,Asian Restaurant
358,59.923899999999996,10.7922,3,2,4d668874c8dbec4a2643f0cc,Hasle Sushi,59.92368424386249,10.792733970431856,Sushi Restaurant
359,59.923899999999996,10.8122,3,0,4b65b98af964a520effb2ae3,Økern Sushi,59.925679,10.812063,Sushi Restaurant
360,59.923899999999996,10.8122,3,1,5a75cd04646e3811656083fc,Benihana sushi,59.925948,10.81246,Sushi Restaurant
361,59.923899999999996,10.8122,3,2,5f830b64a5d9a20fe6a9c0cd,Soofi Restaurant,59.925252,10.807386,Persian Restaurant
362,59.923899999999996,10.8322,1,0,5367cdc9498ecceea21cfc0a,Grillgas autokjøp,59.926144,10.832002,Austrian Restaurant
363,59.923899999999996,10.8522,4,0,4cbc1c474c60a093d76c4fca,Serrano's,59.925757068447396,10.846810088902204,Spanish Restaurant
364,59.923899999999996,10.8522,4,1,59e3735c86bc4957994e97ad,tikkaz,59.923885,10.857687,Indian Restaurant
365,59.923899999999996,10.8522,4,2,5d0262b616ef67003913a943,Soya Sushi Haugerud,59.922196,10.856384,Sushi Restaurant
366,59.923899999999996,10.8522,4,3,59500e0e724750055873b0bb,Soya Sushi,59.922311,10.856289,Sushi Restaurant
367,59.933899999999994,10.712200000000001,15,0,5c28d5d3acc5f5002c8032f9,Grains,59.930039,10.715751,Bakery
368,59.933899999999994,10.712200000000001,15,1,4b9d3371f964a520e09836e3,Larsen Restaurant,59.92970748654097,10.713951514481648,Scandinavian Restaurant
369,59.933899999999994,10.712200000000001,15,2,516e6940e4b06d9611c3431e,Mini Sushi,59.92955397685458,10.71269809837295,Sushi Restaurant
370,59.933899999999994,10.712200000000001,15,3,507051d9e4b010c1af083c71,У Косяши,59.929855810535415,10.713473497112767,Eastern European Restaurant
371,59.933899999999994,10.712200000000001,15,4,55636569498ea6a5e111237f,Chili Thai,59.92947196095444,10.71362822895945,Thai Restaurant
372,59.933899999999994,10.712200000000001,15,5,4c79071fbd346dcb24e7f3ef,Godbit Sushi,59.93016286930275,10.712099846944103,Sushi Restaurant
373,59.933899999999994,10.712200000000001,15,6,57acaa9f498e3fb014db299f,Diamond Indian Cuisine,59.931004,10.716927,Indian Restaurant
374,59.933899999999994,10.712200000000001,15,7,576556d5498e70081d0feee5,Japan Sushi,59.93011,10.7128,Sushi Restaurant
375,59.933899999999994,10.712200000000001,15,8,4d4d7e924aa3a093018343ae,Cafe Leon,59.930371,10.712169,Chinese Restaurant
376,59.933899999999994,10.712200000000001,15,9,4c6a9f96c946e21e5d23ed8e,Krishnas Cuisine,59.93025047528381,10.709741752082993,Vegetarian / Vegan Restaurant
377,59.933899999999994,10.712200000000001,15,10,4d5ab8a3296d5481ac9c66b1,Nippon Sushi,59.9302923002109,10.71174871978744,Sushi Restaurant
378,59.933899999999994,10.712200000000001,15,11,4b291c14f964a520e29824e3,Sushi & Wok,59.92980794975029,10.711668813283355,Asian Restaurant
379,59.933899999999994,10.712200000000001,15,12,4bbcd512593fef3b93af0256,Oslo Sushi,59.93163359751183,10.716676695301315,Sushi Restaurant
380,59.933899999999994,10.712200000000001,15,13,5a31696fa0215b490c4410f7,Il Colosseo,59.930193,10.71294,Italian Restaurant
381,59.933899999999994,10.712200000000001,15,14,5a26b814fe374071a284d2bb,Majorstuen Sushi,59.929539,10.714171,Sushi Restaurant
382,59.933899999999994,10.7322,10,0,5159dd75e4b0862f1cc41464,Mr. Sushi,59.933507,10.726814,Sushi Restaurant
383,59.933899999999994,10.7322,10,1,4d0528a437036dcbf30c15fb,Sjel Vest,59.93171033159448,10.735359191894531,Tapas Restaurant
384,59.933899999999994,10.7322,10,2,534abee4498e654756cf3496,Sushi Factory,59.930984,10.734884,Japanese Restaurant
385,59.933899999999994,10.7322,10,3,5b757a29a35dce002cdbddcd,Nozomi,59.93098,10.73398,Sushi Restaurant
386,59.933899999999994,10.7322,10,4,524d872a11d28a5189a12c99,Ullevall kebab & pizza,59.934934247455274,10.733376671524692,Middle Eastern Restaurant
387,59.933899999999994,10.7322,10,5,5140c035e4b00ccf379ffcf4,Sushihjørnet,59.932644,10.734543,Sushi Restaurant
388,59.933899999999994,10.7322,10,6,4baf7da8f964a52031043ce3,Sushi Adamstuen,59.93274995704223,10.734159704163602,Japanese Restaurant
389,59.933899999999994,10.7322,10,7,4c28d742fe6e2d7f05e0533c,MM Sushi,59.93090889680085,10.733705114956155,Sushi Restaurant
390,59.933899999999994,10.7322,10,8,4b7fe26df964a5206b4230e3,La Sosta,59.93098956342752,10.734853076823585,Chinese Restaurant
391,59.933899999999994,10.7322,10,9,5370d7f511d23942b5057155,Grønn Bambus,59.931084,10.733791,Sushi Restaurant
392,59.933899999999994,10.7522,10,0,4b72c0dbf964a520f2862de3,Bamboo,59.93689170467117,10.752141887481883,Sushi Restaurant
393,59.933899999999994,10.7522,10,1,4bec411afd60a5936dbb3af1,Sumo Sushi,59.932586,10.759819,Sushi Restaurant
394,59.933899999999994,10.7522,10,2,4ba79057f964a520cd9d39e3,Tandoori Hut,59.93753869651295,10.756098249677223,Indian Restaurant
395,59.933899999999994,10.7522,10,3,5a032c4567a9fe7ac8166fb7,Myrens Kjerne,59.93476615603944,10.759182572364807,French Restaurant
396,59.933899999999994,10.7522,10,4,526019e3498e6f0b44a271ca,JA! Sushi,59.932612,10.75978,Asian Restaurant
397,59.933899999999994,10.7522,10,5,4b9cf26df964a5201f8436e3,Helt Rått,59.936256696165835,10.752192140587592,Sushi Restaurant
398,59.933899999999994,10.7522,10,6,5324844d498eeed9c56e5e2b,Vann i munn catering,59.934127,10.751971,Tapas Restaurant
399,59.933899999999994,10.7522,10,7,5752f8e5498e6ea327f4f36b,Tokyo City,59.937955,10.754787,Asian Restaurant
400,59.933899999999994,10.7522,10,8,4cebde27948f224bd813035e,Casa Bovims,59.931253,10.745936,Italian Restaurant
401,59.933899999999994,10.7522,10,9,56c0740ecd10f62cdfbeb4fb,Buenaventura,59.93789273388827,10.754872499369121,Tapas Restaurant
402,59.933899999999994,10.7722,14,0,5b859f9c8fb09e002ce2653c,Sushi & Thai,59.933167,10.763419,Sushi Restaurant
403,59.933899999999994,10.7722,14,1,59303c9c2b984469543fceb1,Apsorn,59.936092,10.765333,Thai Restaurant
404,59.933899999999994,10.7722,14,2,529f58cd498e061b3dc0cf31,Lili China,59.931115,10.778285,Asian Restaurant
405,59.933899999999994,10.7722,14,3,4ba4fed1f964a520d6cd38e3,Never Mind Sushi,59.93701208868148,10.766933974644203,Sushi Restaurant
406,59.933899999999994,10.7722,14,4,4e25c48ab61ceeea677ed588,Thai Isaan Takeaway,59.931556952768226,10.778281103756434,Thai Restaurant
407,59.933899999999994,10.7722,14,5,4bb895b61261d13a38b7e898,Cafe Stamboul,59.93427929999999,10.7641017,Middle Eastern Restaurant
408,59.933899999999994,10.7722,14,6,4bad4e02f964a52033443be3,Som Tam Thai Restaurant,59.93602518725616,10.765217578583565,Thai Restaurant
409,59.933899999999994,10.7722,14,7,4e57ce6914954ed2832ff565,Linlin,59.937706,10.767731,Asian Restaurant
410,59.933899999999994,10.7722,14,8,4f9d5e2ae4b0ad3856851457,Li Café og Bar,59.93128483612152,10.777993117585135,Indian Restaurant
411,59.933899999999994,10.7722,14,9,57e57251498edc223c681c2d,Walima restaurang,59.934877,10.780396,Pakistani Restaurant
412,59.933899999999994,10.7722,14,10,4bed7072bac3c9b6a242fee9,Sun Sushi,59.93543296806714,10.76549890929022,Sushi Restaurant
413,59.933899999999994,10.7722,14,11,4bf6d0aa508c0f4750ec3c31,Tom Sam,59.936149,10.765298,Asian Restaurant
414,59.933899999999994,10.7722,14,12,55ffd7ab498e014e86133743,Lille Sumo,59.93356381894197,10.76462734194837,Sushi Restaurant
415,59.933899999999994,10.7722,14,13,4b9fb599f964a520253737e3,Asian Sushi Garden,59.937638,10.767518877983093,Asian Restaurant
416,59.933899999999994,10.7922,4,0,51c9bb15498e48d4b4dcda7b,Umai Sushi,59.93067989276516,10.791974255101822,Sushi Restaurant
417,59.933899999999994,10.7922,4,1,54679537498e0cb221e1dc4e,Sanjay's Indian Restaurant & Bar,59.9313675507778,10.78930058086892,Indian Restaurant
418,59.933899999999994,10.7922,4,2,4c18e51f834e2d7fd0802980,Restaurant Fusion,59.930328,10.7935698,Indian Restaurant
419,59.933899999999994,10.7922,4,3,51c35020498e0a54a1d5433e,Løren Sushi,59.93086267692343,10.795146601157489,Sushi Restaurant
420,59.9439,10.6722,1,0,4c6fd6379c6d6dcbea93d07a,Club Maccaroni,59.941549759870576,10.672102759957767,Italian Restaurant
421,59.9439,10.6922,1,0,528b904411d2bd1c4bfc6315,Chabua Sushi,59.943285,10.699451,Sushi Restaurant
422,59.9439,10.712200000000001,8,0,4bfc0a7bda7120a1de7449fd,Dana Bakeri,59.94372734972141,10.72107205717495,Middle Eastern Restaurant
423,59.9439,10.712200000000001,8,1,5493029d498edf459c75f5f9,Jonathans Sushi & Asian Dining Vinderen,59.942693460741424,10.703546179353122,Sushi Restaurant
424,59.9439,10.712200000000001,8,2,4eb3d773d3e3644ca580514e,Fredagsgrøt,59.943059,10.717502,Scandinavian Restaurant
425,59.9439,10.712200000000001,8,3,4bec348d415e20a14c3ce7bb,Jonoe,59.942806171307815,10.703864693641663,Sushi Restaurant
426,59.9439,10.712200000000001,8,4,500172b4e4b0d8ae05d14f72,Jonathan,59.942758752636585,10.703903234522452,Sushi Restaurant
427,59.9439,10.712200000000001,8,5,4ca9aac314c3370475e5df3b,PMA Lunsjrom,59.942353,10.717214499999999,Scandinavian Restaurant
428,59.9439,10.712200000000001,8,6,5fc297a59a4df4149362f0e4,Sabi Sushi,59.942782,10.703819,Sushi Restaurant
429,59.9439,10.712200000000001,8,7,5fb166c59a820137611c5df1,Vinderen Sushi,59.942253,10.704936,Sushi Restaurant
430,59.9439,10.7322,2,0,4e53c7e122711d4da5c011c8,Japon Sushi,59.948248074667724,10.73184979913311,Sushi Restaurant
431,59.9439,10.7322,2,1,4f6f7909e4b0d638a2e98f4a,Cin Cin,59.94358430344337,10.74079354163451,Italian Restaurant
432,59.9439,10.7522,2,0,4ce187ea3644a09377a45d9f,Bjølsen Sushi,59.942367923619265,10.759616136712923,Sushi Restaurant
433,59.9439,10.7522,2,1,54db6bf7498e07625f82fe0a,Tasty Thailand,59.941818,10.759398,Thai Restaurant
434,59.9439,10.7722,20,0,4e63be1ac65b2dc8a02fcc20,Mega Sushi,59.94160597578452,10.770919008764535,Sushi Restaurant
435,59.9439,10.7722,20,1,54e22e2f498e57d91627049f,Jewel of India,59.9417911,10.770769,Indian Restaurant
436,59.9439,10.7722,20,2,5e5a61d632281c0008954c47,Sabi Sushi Storo,59.945656,10.772372,Sushi Restaurant
437,59.9439,10.7722,20,3,5dcc6501bf1af40008adc9b5,Los Tacos,59.948288,10.771566,Taco Place
438,59.9439,10.7722,20,4,5beefda41af8520039a1e703,Sumo,59.947412,10.77122,Japanese Restaurant
439,59.9439,10.7722,20,5,4ea2eda0cc2102b34d35db83,Råbbis,59.9439511,10.770866,Ethiopian Restaurant
440,59.9439,10.7722,20,6,5ab647d0037be12b645275c6,Eataly,59.947414,10.774748,Italian Restaurant
441,59.9439,10.7722,20,7,5df8f98311ae510008da8b02,Los Tacos,59.94726603424706,10.77195256948471,Taco Place
442,59.9439,10.7722,20,8,5bd5d8f11af852002c465e40,Johnny Rockets,59.947555,10.771702,American Restaurant
443,59.9439,10.7722,20,9,4c62c066e1621b8da7252453,Bambus Sushi,59.9466037814319,10.774463027474438,Sushi Restaurant
444,59.9439,10.7722,20,10,5c115b5ab77c77002c525c72,"Little Eataly, Storo Storsenter",59.946744,10.774734,Italian Restaurant
445,59.9439,10.7722,20,11,50ccc584e4b00957cac7b08e,nevermind,59.939674377441406,10.769174575805664,Japanese Restaurant
446,59.9439,10.7722,20,12,5c4853a6cb3fd2002ce10ad3,Brasserie Ferda,59.94725260182579,10.772202014923096,Scandinavian Restaurant
447,59.9439,10.7722,20,13,54380b26498e299b6020ee70,Cin Cin,59.94759339999532,10.767560725699585,Italian Restaurant
448,59.9439,10.7722,20,14,50b89764e4b0e31c403420d0,Eurest Personalrestaurant i Vitaminveien 1,59.945967,10.776495,Scandinavian Restaurant
449,59.9439,10.7722,20,15,4bfebc50c30a2d7fd0ea0f1d,Ebi Sushi,59.94368900900216,10.775011707173496,Sushi Restaurant
450,59.9439,10.7722,20,16,4e527ec452b1fa492db72b1b,Sushi,59.941461,10.771124,Sushi Restaurant
451,59.9439,10.7722,20,17,5a35b919772fbc374b461a6e,la baguette,59.947482,10.775183,Sandwich Place
452,59.9439,10.7722,20,18,50437315e4b0dd909c7cb9f1,Megasushi,59.94001007080078,10.771171569824219,Sushi Restaurant
453,59.9439,10.7722,20,19,503cdfa1e4b0d8e0e7eb6667,Taste of Agra,59.94178593733334,10.770399580352004,Indian Restaurant
454,59.9439,10.8122,3,0,5d935fc61855350008b6646f,Bjerke Sushi,59.94241,10.811469,Sushi Restaurant
455,59.9439,10.8122,3,1,4de76cd0887710a065b61a74,Dragens Restaurant,59.942413958881446,10.812029101650701,Asian Restaurant
456,59.9439,10.8122,3,2,5162f8d7e4b09f3a72dabd5d,Panda,59.94207254101784,10.807879827390355,Chinese Restaurant
457,59.9439,10.8322,1,0,566af912498eefc0613053a0,Benihana Sushi,59.94247,10.836519,Sushi Restaurant
458,59.9439,10.8522,1,0,55328dad498ef98dad4810e6,VV Sushi,59.944486,10.847639,Sushi Restaurant
459,59.9539,10.6722,1,0,4c6806019cb82d7fa59894d2,The Mother,59.956521,10.674701,Scandinavian Restaurant
460,59.9539,10.7522,1,0,4e3859aa62e1a8e9cc4ef1da,Dagens Restaurant,59.95370375,10.75228983,Asian Restaurant
461,59.9539,10.7722,2,0,575e72ac498ebb36b9b2f2c3,Telia Kantine,59.952251,10.766822,Scandinavian Restaurant
462,59.9539,10.7722,2,1,4bd1608477b29c7417868c82,La Cantina,59.953707,10.764136,African Restaurant
463,59.9539,10.7922,3,0,4d860fa702eb54816ee34ff5,Grefsen Sushi,59.95598,10.786403,Sushi Restaurant
464,59.9539,10.7922,3,1,50cdd143e4b05e62d0291afa,Platået sushi,59.955876,10.785822,Japanese Restaurant
465,59.9539,10.7922,3,2,4d67dc196d6a236ace2e362a,Tasty Food,59.9552601,10.78557550907135,Asian Restaurant
466,59.963899999999995,10.7322,2,0,508ae655e4b0bfcf9882a4e9,Oksana's Kitchen,59.964594,10.729643,Cajun / Creole Restaurant
467,59.963899999999995,10.7322,2,1,4e85ed24f790e8fcff613c9e,Fabio's Kitchen,59.964830992108105,10.729176,Italian Restaurant
468,59.963899999999995,10.7722,1,0,538a10de498e33f16c3c03ec,Kjelsås sushi,59.966041564941406,10.776219367980957,Sushi Restaurant
