,lat_centre,long_centre,num_venues,venue_iter,venue_id,venue_name,lat_venue,long_venue,category
0,59.9139,10.7322,29,0,5915fc9b86f4cc18439e2eb9,Miss Sophie Restaurant & Bar,59.915066,10.72871,Modern European Restaurant
1,59.9139,10.7322,29,1,5f3d3adc4e4ed1230a51c482,Sabi Sushi,59.914447,10.7305,Sushi Restaurant
2,59.9139,10.7322,29,2,4cdc1a3ed4ecb1f7c1727d48,Lille Sumo,59.91340335166864,10.732407515613222,Sushi Restaurant
3,59.9139,10.7322,29,3,4b894f4df964a520722a32e3,Dinner,59.91395732044485,10.73475657508237,Chinese Restaurant
4,59.9139,10.7322,29,4,4bcc09203740b71353766365,Prima Fila Ristorante,59.913258,10.734679,Italian Restaurant
5,59.9139,10.7322,29,5,590b3590a6fe4d70c58eb338,Genki,59.914538,10.729981,Japanese Restaurant
6,59.9139,10.7322,29,6,5d14c033e7e5fc002317f109,Valentes,59.914276,10.729412,Italian Restaurant
7,59.9139,10.7322,29,7,56462518498edc515ac72721,Der Peppern Gror,59.912403,10.735058,Indian Restaurant
8,59.9139,10.7322,29,8,58513918e9efba52ab150e47,Ett Bord,59.913993367528384,10.728288888931274,Scandinavian Restaurant
9,59.9139,10.7322,29,9,4b0588b7f964a520e8d522e3,Restaurant Eik Annen Etage,59.91404503342786,10.734135467719879,Scandinavian Restaurant
10,59.9139,10.7322,29,10,590b377f60255e01fcbaddda,Omakase By Alex Cabiao,59.91459,10.729844,Sushi Restaurant
11,59.9139,10.7322,29,11,579f8571498edee3cc36c53a,Sushi Søstrene,59.914433,10.731755,Sushi Restaurant
12,59.9139,10.7322,29,12,4bbc9c1707809521d979d991,Four Seasons,59.91438016951233,10.73011052338687,Asian Restaurant
13,59.9139,10.7322,29,13,4baceaebf964a5206d193be3,Steakers,59.913382,10.734875,American Restaurant
14,59.9139,10.7322,29,14,4bfd5034e529c928b7b7ba8c,Sunt og Godt Sushi,59.91448353983046,10.731831953045754,Sushi Restaurant
15,59.9139,10.7322,29,15,4b0588b6f964a520b4d522e3,Brasserie 45,59.91365494321641,10.735335906622545,Scandinavian Restaurant
16,59.9139,10.7322,29,16,5af1d53f6bd36b00397b37d2,thai streetfood,59.912211,10.731716,Thai Restaurant
17,59.9139,10.7322,29,17,4c25f146f7ced13a3861256d,Gatsby Brasserie & Bar,59.9143099276076,10.732975459271795,French Restaurant
18,59.9139,10.7322,29,18,4cbaedecadcd548176db25a2,Golden Mountain,59.913032826640695,10.734321413835975,Chinese Restaurant
19,59.9139,10.7322,29,19,4bde9c6a89ca76b0269a5d5e,Barolo Enoteca,59.91385890827212,10.730123519897461,Italian Restaurant
20,59.9139,10.7322,29,20,4c28dfedce3fc92821db6d88,Sushi Of Life,59.91423422230167,10.73140437301541,Asian Restaurant
21,59.9139,10.7322,29,21,5163f320e4b06241905d7164,Sushi & Wok,59.91424312275072,10.731518957792925,Sushi Restaurant
22,59.9139,10.7322,29,22,5038f452e4b0c09dea380750,Tabibito,59.912129923837014,10.734359416897622,Asian Restaurant
23,59.9139,10.7322,29,23,4b3b46f0f964a520117225e3,Bocata,59.914042896124876,10.734481851771262,Tapas Restaurant
24,59.9139,10.7322,29,24,5baa654d2db4a9002cd02a3c,Wok & Go,59.912667,10.735578,Noodle House
25,59.9139,10.7322,29,25,5406ea02498eed80aafd36bf,Taqueria,59.91317572962045,10.734209049198888,Mexican Restaurant
26,59.9139,10.7322,29,26,5d892da0e136100008b336dc,Banh Mi Mot,59.913632,10.733464,Vietnamese Restaurant
27,59.9139,10.7322,29,27,5839addb00841a1ae37a09e4,Xich lo,59.914331,10.72956,Asian Restaurant
28,59.9139,10.7322,29,28,5a7c605ad807ee6bad65ec87,Smokestack,59.913266,10.729032,New American Restaurant
29,59.91616092933239,10.727720099357164,13,0,5915fc9b86f4cc18439e2eb9,Miss Sophie Restaurant & Bar,59.915066,10.72871,Modern European Restaurant
30,59.91616092933239,10.727720099357164,13,1,5f3d3adc4e4ed1230a51c482,Sabi Sushi,59.914447,10.7305,Sushi Restaurant
31,59.91616092933239,10.727720099357164,13,2,4b0588b2f964a52068d422e3,Pascal,59.9151783321461,10.726118568352401,French Restaurant
32,59.91616092933239,10.727720099357164,13,3,590b3590a6fe4d70c58eb338,Genki,59.914538,10.729981,Japanese Restaurant
33,59.91616092933239,10.727720099357164,13,4,5d14c033e7e5fc002317f109,Valentes,59.914276,10.729412,Italian Restaurant
34,59.91616092933239,10.727720099357164,13,5,58513918e9efba52ab150e47,Ett Bord,59.913993367528384,10.728288888931274,Scandinavian Restaurant
35,59.91616092933239,10.727720099357164,13,6,4b86d6b8f964a520c4a031e3,Ruffino,59.91517141559196,10.727426293363985,Italian Restaurant
36,59.91616092933239,10.727720099357164,13,7,590b377f60255e01fcbaddda,Omakase By Alex Cabiao,59.91459,10.729844,Sushi Restaurant
37,59.91616092933239,10.727720099357164,13,8,4bbc9c1707809521d979d991,Four Seasons,59.91438016951233,10.73011052338687,Asian Restaurant
38,59.91616092933239,10.727720099357164,13,9,5b800e97018cbb0039ab0c3c,Vika Grill,59.914558,10.724675,Turkish Restaurant
39,59.91616092933239,10.727720099357164,13,10,581e1db177259217e0dee606,Vikingkjelleren,59.914442,10.725358,Pakistani Restaurant
40,59.91616092933239,10.727720099357164,13,11,4fcddf5ae4b0349ae2f28944,Slottsparken Café,59.915387677786704,10.728301465139591,Sushi Restaurant
41,59.91616092933239,10.727720099357164,13,12,5839addb00841a1ae37a09e4,Xich lo,59.914331,10.72956,Asian Restaurant
42,59.911639070667604,10.727720099357164,20,0,4b0588b4f964a520ded422e3,Louise Restaurant & Bar,59.909934,10.727385,Scandinavian Restaurant
43,59.911639070667604,10.727720099357164,20,1,4b3a50eff964a5207c6425e3,Olivia,59.910177,10.728052,Pizza Place
44,59.911639070667604,10.727720099357164,20,2,527bc23b498e86f2f53ed3c3,Delicatessen,59.91080701512862,10.727132882039909,Tapas Restaurant
45,59.911639070667604,10.727720099357164,20,3,518a42cb498eb64d27b86322,Albert Bistro,59.91003641708226,10.727976755807674,French Restaurant
46,59.911639070667604,10.727720099357164,20,4,5503266a498ec719aace61b6,Asia Aker Brygge,59.91035186993424,10.728476431080908,Asian Restaurant
47,59.911639070667604,10.727720099357164,20,5,4f8a03a3e4b0a95f947bc90a,T.G.I. Friday's,59.909886302067505,10.726982522270967,Bar
48,59.911639070667604,10.727720099357164,20,6,4bae42d8f964a5200f9a3be3,T.G.I. Friday's,59.90955759706287,10.726580669217709,American Restaurant
49,59.911639070667604,10.727720099357164,20,7,56be39d3498e892d80610913,Sakee Sushi,59.910145,10.7256565,Sushi Restaurant
50,59.911639070667604,10.727720099357164,20,8,51d17444498e00f5195d4902,Olivia Hegdehaugsveien,59.91010125383215,10.728200149085408,Italian Restaurant
51,59.911639070667604,10.727720099357164,20,9,50e82c4ae4b07ff452d9a1eb,Escalon Tapas,59.91008,10.726531,Tapas Restaurant
52,59.911639070667604,10.727720099357164,20,10,5af1d53f6bd36b00397b37d2,thai streetfood,59.912211,10.731716,Thai Restaurant
53,59.911639070667604,10.727720099357164,20,11,55f41207498e33bde8b59f1d,Stangerit,59.91032409667969,10.729769706726074,Scandinavian Restaurant
54,59.911639070667604,10.727720099357164,20,12,518e607a498e36b3951c948d,Qui Taste Of Italy,59.91301337802812,10.726209200393853,Italian Restaurant
55,59.911639070667604,10.727720099357164,20,13,4b585afbf964a5201f5428e3,Agra Restaurant & Bar,59.91225225703243,10.727271649837558,Indian Restaurant
56,59.911639070667604,10.727720099357164,20,14,56cc76d3498e223a0e7de6a8,sakee,59.91031,10.72574,Asian Restaurant
57,59.911639070667604,10.727720099357164,20,15,56eac29d498ec120acda6ab3,Rice&Spice,59.913183,10.726339,Asian Restaurant
58,59.911639070667604,10.727720099357164,20,16,4bc892a92f94d13a6bda137f,Bryggen Sushi,59.90993678894435,10.72496770413404,Sushi Restaurant
59,59.911639070667604,10.727720099357164,20,17,5079a2f0e4b027ceddabe034,candela Resturant,59.91263958802496,10.725241433279887,Spanish Restaurant
60,59.911639070667604,10.727720099357164,20,18,4bc895d10050b71363a9ba3b,No. 10,59.910421,10.7255,Tapas Restaurant
61,59.911639070667604,10.727720099357164,20,19,5a7c605ad807ee6bad65ec87,Smokestack,59.913266,10.729032,New American Restaurant
62,59.91616092933239,10.736679900642837,26,0,5f4947e5ba18ff34e89ae84f,Vino al Vino italiensk,59.917917,10.734463,Italian Restaurant
63,59.91616092933239,10.736679900642837,26,1,4b0588b4f964a520ddd422e3,Hard Rock Cafe Oslo,59.91466936880548,10.736697965384565,American Restaurant
64,59.91616092933239,10.736679900642837,26,2,5b805536c62b49002c6f9c94,Katla,59.91647652965733,10.7386071225464,Japanese Restaurant
65,59.91616092933239,10.736679900642837,26,3,4bcdc4eccc8cd13a610dc3cf,Beijing Palace,59.9177173110383,10.738442715703794,Chinese Restaurant
66,59.91616092933239,10.736679900642837,26,4,4b56b059f964a5209e1828e3,Kaffistova,59.9148327969772,10.740107814253587,Scandinavian Restaurant
67,59.91616092933239,10.736679900642837,26,5,5406edb3498e0bfa43516af1,Taqueria,59.914141457423526,10.737469460699117,Mexican Restaurant
68,59.91616092933239,10.736679900642837,26,6,50190101e4b0911af4326833,Elias Mat & Sånt,59.91637472215308,10.73876240991956,Scandinavian Restaurant
69,59.91616092933239,10.736679900642837,26,7,4b0588b6f964a520d2d522e3,Bristol Grill,59.915156,10.740049,French Restaurant
70,59.91616092933239,10.736679900642837,26,8,4b0d4c15f964a520d34523e3,Nan & Olive,59.91431733404041,10.737855094924779,Indian Restaurant
71,59.91616092933239,10.736679900642837,26,9,4b0588b7f964a520ebd522e3,Restaurant Eik,59.91656450717518,10.738370068344816,Scandinavian Restaurant
72,59.91616092933239,10.736679900642837,26,10,544aaef0498e7ab794906602,Brasserie Paleo,59.91565181313072,10.740765796838604,Scandinavian Restaurant
73,59.91616092933239,10.736679900642837,26,11,4b9fc9ddf964a520c23e37e3,Lemongrass,59.91639,10.738451,Caribbean Restaurant
74,59.91616092933239,10.736679900642837,26,12,57448b84498e782238963bab,Red Onion,59.915573,10.740803,Middle Eastern Restaurant
75,59.91616092933239,10.736679900642837,26,13,5138ed10e4b0cbfaa12c1950,Carl Unger's Loft,59.91631374197335,10.738194759109687,Deli / Bodega
76,59.91616092933239,10.736679900642837,26,14,591c7f6467e5f24afee79892,Vivaldi,59.916595,10.7383795,Scandinavian Restaurant
77,59.91616092933239,10.736679900642837,26,15,4b0588b7f964a520d9d522e3,Jaipur,59.91799671866353,10.737448545517335,Indian Restaurant
78,59.91616092933239,10.736679900642837,26,16,55d1dac9498eecb78703d09a,lille sushi,59.916748,10.734433,Szechuan Restaurant
79,59.91616092933239,10.736679900642837,26,17,54085d1d498ebc409a175120,Pizza Crudo,59.914248244465725,10.737478885674342,Italian Restaurant
80,59.91616092933239,10.736679900642837,26,18,52a8b1b4498e2e72d35997da,Dinor Sushi,59.9166197308303,10.740721915837979,Sushi Restaurant
81,59.91616092933239,10.736679900642837,26,19,540dd5c5498e53b9b84f5978,Sabaki,59.91425050159114,10.73751079205101,Sushi Restaurant
82,59.91616092933239,10.736679900642837,26,20,5651cd9c498e75847d7aa787,Hereford Steakhouse,59.91488265991211,10.739819526672363,American Restaurant
83,59.91616092933239,10.736679900642837,26,21,59c02739d48ec17654150efd,Bar La Taperia,59.917729,10.738227,Tapas Restaurant
84,59.91616092933239,10.736679900642837,26,22,4ccef0f5aa25a35d4184230f,Asia Huset,59.916412,10.738822,Sushi Restaurant
85,59.91616092933239,10.736679900642837,26,23,5801039c38fae017986a4586,Japo sushi,59.915432,10.740921,Sushi Restaurant
86,59.91616092933239,10.736679900642837,26,24,4b4e03d0f964a52031de26e3,The Great India,59.91640692194528,10.738182174267832,Indian Restaurant
87,59.91616092933239,10.736679900642837,26,25,4baa32e9f964a52087523ae3,Happy Sushi,59.91709338549482,10.739623243412568,Sushi Restaurant
88,59.911639070667604,10.736679900642837,25,0,57484e0d498e0cddb38dfd79,Dim Sum by Taste of China,59.91213442482679,10.73546381244877,Dim Sum Restaurant
89,59.911639070667604,10.736679900642837,25,1,56e40621498eb6039ef740b8,Sentralen Restaurant,59.911312269533276,10.740274459151783,Scandinavian Restaurant
90,59.911639070667604,10.736679900642837,25,2,4c45be732d3ec9b6e8a630ae,Yaya's,59.91180657495384,10.737552385990732,Thai Restaurant
91,59.911639070667604,10.736679900642837,25,3,4bcc09203740b71353766365,Prima Fila Ristorante,59.913258,10.734679,Italian Restaurant
92,59.911639070667604,10.736679900642837,25,4,4c2cc3ef8ef52d7f6a6633ba,Bruno’s Proseccheria,59.910351806849796,10.739681306740154,Italian Restaurant
93,59.911639070667604,10.736679900642837,25,5,56462518498edc515ac72721,Der Peppern Gror,59.912403,10.735058,Indian Restaurant
94,59.911639070667604,10.736679900642837,25,6,5dc2b351aff6dc00076e69c1,Glasshuset,59.911118,10.737188,Italian Restaurant
95,59.911639070667604,10.736679900642837,25,7,4ba2b21af964a5201e1138e3,Cafe Christiania,59.912907,10.739297,Scandinavian Restaurant
96,59.911639070667604,10.736679900642837,25,8,5151e539e4b0a6bb6ac3e2fa,Mahayana,59.913376864417856,10.736785949367519,Asian Restaurant
97,59.911639070667604,10.736679900642837,25,9,4b0588b6f964a520bbd522e3,Brasserie Hansken,59.91039037721781,10.739528003734318,French Restaurant
98,59.911639070667604,10.736679900642837,25,10,4cc1a57fe310224bb54a316f,Mr. Hong Restaurant,59.913035850181735,10.737545127987067,Asian Restaurant
99,59.911639070667604,10.736679900642837,25,11,4baceaebf964a5206d193be3,Steakers,59.913382,10.734875,American Restaurant
100,59.911639070667604,10.736679900642837,25,12,4b9784b2f964a520fc0635e3,Chiba Sushi,59.91132752155533,10.740406057807093,Sushi Restaurant
101,59.911639070667604,10.736679900642837,25,13,4b0588b6f964a520b4d522e3,Brasserie 45,59.91365494321641,10.735335906622545,Scandinavian Restaurant
102,59.911639070667604,10.736679900642837,25,14,4cbaedecadcd548176db25a2,Golden Mountain,59.913032826640695,10.734321413835975,Chinese Restaurant
103,59.911639070667604,10.736679900642837,25,15,57a9f17e498ed7b5cf81ca21,Baremas Tapas and Bar,59.912341,10.735802,Tapas Restaurant
104,59.911639070667604,10.736679900642837,25,16,5f47b88600d1663ecf5b0857,Ratskeller,59.911725,10.733777,German Restaurant
105,59.911639070667604,10.736679900642837,25,17,5038f452e4b0c09dea380750,Tabibito,59.912129923837014,10.734359416897622,Asian Restaurant
106,59.911639070667604,10.736679900642837,25,18,5baa654d2db4a9002cd02a3c,Wok & Go,59.912667,10.735578,Noodle House
107,59.911639070667604,10.736679900642837,25,19,5406ea02498eed80aafd36bf,Taqueria,59.91317572962045,10.734209049198888,Mexican Restaurant
108,59.911639070667604,10.736679900642837,25,20,59eb887e829b0c7a276df4c8,hon san,59.912955,10.737644,Chinese Restaurant
109,59.911639070667604,10.736679900642837,25,21,4b4e03cef964a52030de26e3,Sushi Asia,59.912039104002695,10.734969466718905,Sushi Restaurant
110,59.911639070667604,10.736679900642837,25,22,5310d85c498e43d4c5f96f5c,Voung,59.912281,10.735499,Vietnamese Restaurant
111,59.911639070667604,10.736679900642837,25,23,4c6eb1dba437224bff9630b1,Resturant Marrakech,59.91171913990684,10.734899851635653,Moroccan Restaurant
112,59.911639070667604,10.736679900642837,25,24,58e29ee03ef0f619b72ba9e2,Benares,59.912476,10.735903,North Indian Restaurant
113,59.9139,10.7522,50,0,5f416678e5287a421fdbb9bd,Issho,59.913888,10.748819,Japanese Restaurant
114,59.9139,10.7522,50,1,4e7e07a7b8f700d320a0f798,T.G.I. Friday's,59.91225231694047,10.750674175649095,American Restaurant
115,59.9139,10.7522,50,2,5728ce86498e6257593ef07d,Los Tacos,59.912235,10.749579,Taco Place
116,59.9139,10.7522,50,3,5af84ae48c35dc002ccc2939,Johnny Rockets,59.914258,10.752183,Burger Joint
117,59.9139,10.7522,50,4,5e59845f2884f40008c19a4d,Tea Room,59.914983,10.750381,Scandinavian Restaurant
118,59.9139,10.7522,50,5,5a4fe7ea8e886a7c688ac815,Girotondo,59.91514077520399,10.750014620214598,Pizza Place
119,59.9139,10.7522,50,6,4bf2b23f1cd9d13ab5efed76,Dovrehallen,59.91393152181803,10.751443971664603,Scandinavian Restaurant
120,59.9139,10.7522,50,7,5130db5ee4b08f948ef08981,Habibi Mezahrestaurant,59.91394368896589,10.748740138823097,Middle Eastern Restaurant
121,59.9139,10.7522,50,8,4b140981f964a520349c23e3,Brunello,59.91315470821485,10.752808898440632,Italian Restaurant
122,59.9139,10.7522,50,9,5debfede9d0cab000798972e,Glør,59.914364,10.750012,Scandinavian Restaurant
123,59.9139,10.7522,50,10,57dc42e3498ee48ce9dbf11f,Tukthuset,59.914875,10.751376,South American Restaurant
124,59.9139,10.7522,50,11,5c55d19da6ec98003927b35c,KAIN Filipino Rice Bar,59.915855,10.750747,Filipino Restaurant
125,59.9139,10.7522,50,12,560e53e1498eb70a67412ec7,Bambus Noodles,59.91220897511926,10.752268800272585,Vietnamese Restaurant
126,59.9139,10.7522,50,13,5f40d529f7f2043fa86d2acc,Deutscher Downstairs,59.914042,10.750796,Speakeasy
127,59.9139,10.7522,50,14,4d69027f4c463704c5059cb3,Viet Nam House,59.915855596854286,10.751940532903912,Vietnamese Restaurant
128,59.9139,10.7522,50,15,4d69650a67a8f04d711e0dbe,Schiller's Tapas,59.91440197624549,10.750019346795929,Tapas Restaurant
129,59.9139,10.7522,50,16,5ecfec10b018390008aca553,Kimchi,59.915955,10.750566,Korean Restaurant
130,59.9139,10.7522,50,17,52cc354a498e209ae098a00c,Taza Taza,59.91191013001027,10.753252754398014,Indian Restaurant
131,59.9139,10.7522,50,18,5bc1f90659c4230039b0f310,Det Indonesiske Kjøkken,59.913433,10.749336,Indonesian Restaurant
132,59.9139,10.7522,50,19,5c8fec71f1936e002c320f0e,Peppern,59.91576,10.750742,Indian Restaurant
133,59.9139,10.7522,50,20,4c56e4a830d82d7f3a83d862,Tika Tika,59.91187254044465,10.75348257738288,Indian Restaurant
134,59.9139,10.7522,50,21,5ce27848c5b11c002c4ce2a0,Tunco,59.915917,10.750814,Noodle House
135,59.9139,10.7522,50,22,4b617cc5f964a52047152ae3,Folk restaurant & bar,59.91424238371455,10.750030566070148,Scandinavian Restaurant
136,59.9139,10.7522,50,23,4c22245613c00f47c1f886de,Lekkerbisken,59.91480763333334,10.752074549999998,Thai Restaurant
137,59.9139,10.7522,50,24,5a0cf9026dcf0435cc14abb8,Lulu,59.914837,10.750802,Japanese Restaurant
138,59.9139,10.7522,50,25,4b703cc5f964a520360d2de3,Ha Longi,59.91583808,10.750741499999998,Vietnamese Restaurant
139,59.9139,10.7522,50,26,4bf1788a684ca593a4cfe0b3,Ma Raja,59.9141306210685,10.748004761839097,Indian Restaurant
140,59.9139,10.7522,50,27,4c8f93484e95236a192e85ca,Gaia Kitchen,59.915707,10.750673,Asian Restaurant
141,59.9139,10.7522,50,28,4b0588b6f964a520b9d522e3,Mesob,59.912884,10.751442,African Restaurant
142,59.9139,10.7522,50,29,4b150ba0f964a52003a823e3,Habibi Junior,59.91334082646034,10.750464437382206,Middle Eastern Restaurant
143,59.9139,10.7522,50,30,5756a0a8498e698aebb1b92d,Burrito Project - Oslo City,59.912632,10.752598,Burrito Place
144,59.9139,10.7522,50,31,5c6860eb89b06a002c81f0e4,Hot Hot Harmonica,59.915806,10.750783,Taco Place
145,59.9139,10.7522,50,32,5cc2cfb5c876c8002cf004b4,Gohan,59.915769,10.750766,Japanese Restaurant
146,59.9139,10.7522,50,33,5240869d11d21ef9ea3ed3de,Sea Sushi & Thai Restaurant,59.91427683538964,10.75400729623325,Sushi Restaurant
147,59.9139,10.7522,50,34,4b4f74bef964a520630727e3,Italo's Pizza & Pasta,59.9120247073075,10.752001722323081,Italian Restaurant
148,59.9139,10.7522,50,35,532c1980498ec4430193bf56,Sushi Thai,59.912465156071995,10.75269294642993,Sushi Restaurant
149,59.9139,10.7522,50,36,52e025f0498e890fb9c77523,Café Saba,59.915206410859426,10.755094579492635,African Restaurant
150,59.9139,10.7522,50,37,54f1e7f9498e00ad2f62a6f3,Sushi Bowl,59.91483972034439,10.751218290836132,Thai Restaurant
151,59.9139,10.7522,50,38,510ba2e7e4b0eaed0ba0ee0e,Sushi & Thai,59.912606,10.752855,Sushi Restaurant
152,59.9139,10.7522,50,39,5441473b498e8a0187b96ece,4gringos,59.914847,10.749603,Mexican Restaurant
153,59.9139,10.7522,50,40,5bca23d067f62b002cf410a9,Mangelsgården,59.91517,10.755726,Scandinavian Restaurant
154,59.9139,10.7522,50,41,4f0b2741e4b05dd3a5df07db,Dunia Grill,59.91420175595246,10.75420918494393,Falafel Restaurant
155,59.9139,10.7522,50,42,544147eb498e8f7dae0fbf4b,4GRINGOS,59.91493496683087,10.74946673059644,Mexican Restaurant
156,59.9139,10.7522,50,43,4c6955068e7c0f475f47df0f,Nam-Nam,59.91253174879494,10.752369500694964,Asian Restaurant
157,59.9139,10.7522,50,44,59908d24f870fd448cbeedb6,Sushi Wok City,59.9151,10.753124,Sushi Restaurant
158,59.9139,10.7522,50,45,5910954a12f0a95ea957b006,Silver Chopsticks & Sushi,59.914192,10.753381,Asian Restaurant
159,59.9139,10.7522,50,46,4dc04ade81545e1cc7e16550,Dahlak - Eritrea Restaurant,59.915044675,10.75444005,African Restaurant
160,59.9139,10.7522,50,47,4df242a418386ecb4e2b9680,Cantina Cortina,59.91414472574112,10.750445529396757,Italian Restaurant
161,59.9139,10.7522,50,48,5c8543d235f983002c78ddb0,Ti Punch,59.915752,10.750635,Caribbean Restaurant
162,59.9139,10.7522,50,49,4bc355d9f8219c74b4ecb510,Far East,59.91509356500285,10.753241838885105,Asian Restaurant
163,59.91616092933239,10.747720099357164,49,0,4c0a8dbb7e3fc9281dc9f382,Illegal Burger,59.91567311355424,10.748826981780796,Burger Joint
164,59.91616092933239,10.747720099357164,49,1,5ba54a0089b06a002c7e48a0,Night Pig,59.917125,10.750149,Japanese Restaurant
165,59.91616092933239,10.747720099357164,49,2,55656f48498e41543bb1e4ca,O'Learys,59.914267,10.747235,American Restaurant
166,59.91616092933239,10.747720099357164,49,3,4c82336f47cc224b3738839f,Lille Saigon 1,59.91655911345806,10.751238524152988,Vietnamese Restaurant
167,59.91616092933239,10.747720099357164,49,4,4b7712bdf964a520807a2ee3,Arakataka,59.916381,10.750594,Scandinavian Restaurant
168,59.91616092933239,10.747720099357164,49,5,58c02e4614f8f47273019be3,Mela Café,59.91672,10.750512,Middle Eastern Restaurant
169,59.91616092933239,10.747720099357164,49,6,539f1584498eae48dda59c72,Tuk Tuk Thai,59.914160490710756,10.746401317792301,Thai Restaurant
170,59.91616092933239,10.747720099357164,49,7,5e59845f2884f40008c19a4d,Tea Room,59.914983,10.750381,Scandinavian Restaurant
171,59.91616092933239,10.747720099357164,49,8,5a4fe7ea8e886a7c688ac815,Girotondo,59.91514077520399,10.750014620214598,Pizza Place
172,59.91616092933239,10.747720099357164,49,9,52fa7ae6498e42d44e3f7c45,Lalibela,59.91777423609637,10.750465610263921,Ethiopian Restaurant
173,59.91616092933239,10.747720099357164,49,10,5debfede9d0cab000798972e,Glør,59.914364,10.750012,Scandinavian Restaurant
174,59.91616092933239,10.747720099357164,49,11,4b0588b6f964a520b8d522e3,Klosteret,59.918027025210144,10.747862379670815,French Restaurant
175,59.91616092933239,10.747720099357164,49,12,4b86bd61f964a5200e9a31e3,Saigon Lille Café,59.917115593816774,10.750283905418426,Vietnamese Restaurant
176,59.91616092933239,10.747720099357164,49,13,57dc42e3498ee48ce9dbf11f,Tukthuset,59.914875,10.751376,South American Restaurant
177,59.91616092933239,10.747720099357164,49,14,5c55d19da6ec98003927b35c,KAIN Filipino Rice Bar,59.915855,10.750747,Filipino Restaurant
178,59.91616092933239,10.747720099357164,49,15,4d69027f4c463704c5059cb3,Viet Nam House,59.915855596854286,10.751940532903912,Vietnamese Restaurant
179,59.91616092933239,10.747720099357164,49,16,4d69650a67a8f04d711e0dbe,Schiller's Tapas,59.91440197624549,10.750019346795929,Tapas Restaurant
180,59.91616092933239,10.747720099357164,49,17,5ecfec10b018390008aca553,Kimchi,59.915955,10.750566,Korean Restaurant
181,59.91616092933239,10.747720099357164,49,18,5c8fec71f1936e002c320f0e,Peppern,59.91576,10.750742,Indian Restaurant
182,59.91616092933239,10.747720099357164,49,19,5cfa8c65471d6e002cd6e43a,Damascus Nights,59.915997,10.750567,Middle Eastern Restaurant
183,59.91616092933239,10.747720099357164,49,20,5ce27848c5b11c002c4ce2a0,Tunco,59.915917,10.750814,Noodle House
184,59.91616092933239,10.747720099357164,49,21,59f4817ebcbf7a6ca4bf2737,Juicy Sushi,59.914212,10.746733,Sushi Restaurant
185,59.91616092933239,10.747720099357164,49,22,4b617cc5f964a52047152ae3,Folk restaurant & bar,59.91424238371455,10.750030566070148,Scandinavian Restaurant
186,59.91616092933239,10.747720099357164,49,23,5a0cf9026dcf0435cc14abb8,Lulu,59.914837,10.750802,Japanese Restaurant
187,59.91616092933239,10.747720099357164,49,24,4b703cc5f964a520360d2de3,Ha Longi,59.91583808,10.750741499999998,Vietnamese Restaurant
188,59.91616092933239,10.747720099357164,49,25,4bf1788a684ca593a4cfe0b3,Ma Raja,59.9141306210685,10.748004761839097,Indian Restaurant
189,59.91616092933239,10.747720099357164,49,26,4c8f93484e95236a192e85ca,Gaia Kitchen,59.915707,10.750673,Asian Restaurant
190,59.91616092933239,10.747720099357164,49,27,4d7d07f87498a1cdb14588fc,Eat Sushi,59.91732432922886,10.74437181642478,Sushi Restaurant
191,59.91616092933239,10.747720099357164,49,28,530a4e0c498e6e37f5ed196c,Vietnam house,59.91583631039338,10.749007064847794,Asian Restaurant
192,59.91616092933239,10.747720099357164,49,29,5c6860eb89b06a002c81f0e4,Hot Hot Harmonica,59.915806,10.750783,Taco Place
193,59.91616092933239,10.747720099357164,49,30,5cc2cfb5c876c8002cf004b4,Gohan,59.915769,10.750766,Japanese Restaurant
194,59.91616092933239,10.747720099357164,49,31,4b2bb21cf964a5204ab924e3,Eat Sushi & More,59.91685434073439,10.744498365503725,Sushi Restaurant
195,59.91616092933239,10.747720099357164,49,32,50415e2de4b0a105068e628c,Møllers Grill,59.916280269872864,10.749493972653806,Eastern European Restaurant
196,59.91616092933239,10.747720099357164,49,33,54f1e7f9498e00ad2f62a6f3,Sushi Bowl,59.91483972034439,10.751218290836132,Thai Restaurant
197,59.91616092933239,10.747720099357164,49,34,5441473b498e8a0187b96ece,4gringos,59.914847,10.749603,Mexican Restaurant
198,59.91616092933239,10.747720099357164,49,35,544147eb498e8f7dae0fbf4b,4GRINGOS,59.91493496683087,10.74946673059644,Mexican Restaurant
199,59.91616092933239,10.747720099357164,49,36,54b96223498e9a61476b56b1,Brazil Churrasceria,59.914334342562746,10.747399535126348,Brazilian Restaurant
200,59.91616092933239,10.747720099357164,49,37,5c8543d235f983002c78ddb0,Ti Punch,59.915752,10.750635,Caribbean Restaurant
201,59.91616092933239,10.747720099357164,49,38,4c705838d97fa143f3e3f5ca,Café Brasil,59.91461054172291,10.749107343096254,Brazilian Restaurant
202,59.91616092933239,10.747720099357164,49,39,5ecfec502098c200083baff8,Japanese Street Food - Gohan,59.915904,10.750608,Japanese Restaurant
203,59.91616092933239,10.747720099357164,49,40,530f68cc498ef0976b0e8dd8,Nanda Indian Dining,59.91423034667969,10.74810791015625,Indian Restaurant
204,59.91616092933239,10.747720099357164,49,41,4f8054e5e4b09a1476a79748,Best Friend,59.91572879360004,10.750967519064615,Asian Restaurant
205,59.91616092933239,10.747720099357164,49,42,54822318498e94b4fa21b111,Lille Italiano,59.91433334350586,10.7469482421875,Italian Restaurant
206,59.91616092933239,10.747720099357164,49,43,5cd6d4e231ac6c002cb41fe0,Meraki,59.915933,10.75101,Greek Restaurant
207,59.91616092933239,10.747720099357164,49,44,55a9705b498e8f7552ff19eb,Zhong Guo Cheng Restaurant,59.917835230221705,10.747044265435003,Chinese Restaurant
208,59.91616092933239,10.747720099357164,49,45,5615525f498ed7a5ab9c8a0e,Sushihjørnet,59.916963,10.750568,Vietnamese Restaurant
209,59.91616092933239,10.747720099357164,49,46,4ff1c04fe4b0dc347735c5bc,Bento Sushi,59.915827,10.751023,Japanese Restaurant
210,59.91616092933239,10.747720099357164,49,47,57d17c8f498eeee4ce9e6818,Nikay,59.914277,10.749957,Japanese Restaurant
211,59.91616092933239,10.747720099357164,49,48,5220ba8911d2eb3d75a91792,Chicago,59.914366,10.747026,American Restaurant
212,59.911639070667604,10.747720099357164,50,0,5821b891165d97731723a486,Olivia,59.910349388785235,10.75107748784677,Italian Restaurant
213,59.911639070667604,10.747720099357164,50,1,56ddc773498e97c6223607ee,Sushi & Wok City,59.911251,10.748329,Sushi Restaurant
214,59.911639070667604,10.747720099357164,50,2,4b2b709cf964a52066b624e3,Baltazar Ristorante & Enoteca,59.91212876290938,10.747496942616301,Italian Restaurant
215,59.911639070667604,10.747720099357164,50,3,5ede8922638314637f027f35,sushibar + wine,59.910749,10.745697,Sushi Restaurant
216,59.911639070667604,10.747720099357164,50,4,4e7e07a7b8f700d320a0f798,T.G.I. Friday's,59.91225231694047,10.750674175649095,American Restaurant
217,59.911639070667604,10.747720099357164,50,5,5728ce86498e6257593ef07d,Los Tacos,59.912235,10.749579,Taco Place
218,59.911639070667604,10.747720099357164,50,6,5bae6acdd48ec10039b89bd8,Einer,59.911226,10.743679,Scandinavian Restaurant
219,59.911639070667604,10.747720099357164,50,7,5aecaa49d7627e002c4324f7,Cielito,59.911068,10.747007,Mexican Restaurant
220,59.911639070667604,10.747720099357164,50,8,4fa7b70de4b0d905273beeb9,Bella Bambina,59.910852427630566,10.75132104074567,Italian Restaurant
221,59.911639070667604,10.747720099357164,50,9,5d08b1f79d7468002c7a824d,Thai City,59.91017,10.745553,Thai Restaurant
222,59.911639070667604,10.747720099357164,50,10,5c8b88db1acf11002c0608a4,Atlas,59.91074,10.74984,American Restaurant
223,59.911639070667604,10.747720099357164,50,11,54cbb286498e95364d8bd56b,Yo! Sushi,59.91079381529045,10.751501959913496,Sushi Restaurant
224,59.911639070667604,10.747720099357164,50,12,4b0588b3f964a52091d422e3,Bacchus Spiseri & Vinhus,59.912824,10.747403,Café
225,59.911639070667604,10.747720099357164,50,13,4e46aa65aeb70e74f4971338,Risbolle Thai Cafe Restaurant,59.911372525111624,10.74707274291128,Thai Restaurant
226,59.911639070667604,10.747720099357164,50,14,5de3ea0e29a35700084d5e82,Rice Bowl,59.910633,10.744298,Thai Restaurant
227,59.911639070667604,10.747720099357164,50,15,5bddcb2f3fcee8002c8cb065,Mantra,59.910988,10.746755,Indian Restaurant
228,59.911639070667604,10.747720099357164,50,16,5ba2243e031320002ce7f318,Shanghai 2018,59.91146,10.745029,Japanese Restaurant
229,59.911639070667604,10.747720099357164,50,17,5da20216bbc0df0008fc8b65,Mama Pho,59.91061558600825,10.744972229003906,Asian Restaurant
230,59.911639070667604,10.747720099357164,50,18,50e5c839e4b01244ad0e54c8,Konak restaurant,59.911117,10.746954,Turkish Restaurant
231,59.911639070667604,10.747720099357164,50,19,5012ad22e4b0ad6ab1f4ab66,Davids Swahili Cuisine,59.910552978515625,10.745271682739258,African Restaurant
232,59.911639070667604,10.747720099357164,50,20,4b9fa933f964a520983237e3,Dennis kebab,59.911601,10.747474,Middle Eastern Restaurant
233,59.911639070667604,10.747720099357164,50,21,5bc1f90659c4230039b0f310,Det Indonesiske Kjøkken,59.913433,10.749336,Indonesian Restaurant
234,59.911639070667604,10.747720099357164,50,22,4c2f8634213c2d7f2b03315d,Brunello,59.911026,10.746924,Italian Restaurant
235,59.911639070667604,10.747720099357164,50,23,4bca01ec68f976b082605e83,Hereford Steakhouse,59.910825362704266,10.74962854385376,Steakhouse
236,59.911639070667604,10.747720099357164,50,24,54b8e2cc498e57a337030bb5,Asian Mini Kitchen,59.91039127118659,10.74574890598484,Sushi Restaurant
237,59.911639070667604,10.747720099357164,50,25,4b0588b6f964a520b9d522e3,Mesob,59.912884,10.751442,African Restaurant
238,59.911639070667604,10.747720099357164,50,26,55a99c88498ec31d5be6336d,Stortorvets Kebab,59.912888,10.744911,Middle Eastern Restaurant
239,59.911639070667604,10.747720099357164,50,27,4b150ba0f964a52003a823e3,Habibi Junior,59.91334082646034,10.750464437382206,Middle Eastern Restaurant
240,59.911639070667604,10.747720099357164,50,28,5be0419e89e490002cf5863e,NoFo - Nordic Footprint,59.910556,10.745153,Modern European Restaurant
241,59.911639070667604,10.747720099357164,50,29,4b4f74bef964a520630727e3,Italo's Pizza & Pasta,59.9120247073075,10.752001722323081,Italian Restaurant
242,59.911639070667604,10.747720099357164,50,30,4f38f470e4b0a8274067b66d,Japan Sushi,59.9102685625663,10.745591511461903,Sushi Restaurant
243,59.911639070667604,10.747720099357164,50,31,4bd2e28c9854d13a816efc4d,Oishi Sushi,59.911522,10.74838,Sushi Restaurant
244,59.911639070667604,10.747720099357164,50,32,5074a06be4b013b95139a892,Statholderens Mat & Vinkjeller,59.9093728,10.743432,Scandinavian Restaurant
245,59.911639070667604,10.747720099357164,50,33,4b2a765ff964a520a5a924e3,Sahara beduin restaurant,59.911121,10.746925,African Restaurant
246,59.911639070667604,10.747720099357164,50,34,54d39171498e2464ebce1301,Spuntino Foccaceria og Bar,59.910828532859846,10.751568705701809,Italian Restaurant
247,59.911639070667604,10.747720099357164,50,35,4bdf017a6198c9b6aaa015ff,Chens Kina Restaurant,59.911524,10.751625,Chinese Restaurant
248,59.911639070667604,10.747720099357164,50,36,4ba663a1f964a520234d39e3,Jambo Restaurant,59.91238477575628,10.744639403412288,Chinese Restaurant
249,59.911639070667604,10.747720099357164,50,37,4bdaf6cf3904a593f20a489e,Indian House,59.91072941893205,10.749118301711992,Indian Restaurant
250,59.911639070667604,10.747720099357164,50,38,51cef2c8498e11f85c3001f1,Mr. India,59.91103796356111,10.746846462673664,Indian Restaurant
251,59.911639070667604,10.747720099357164,50,39,4e25b3a6aeb7df1e0f4bd496,Rasooi,59.911277770996094,10.749556541442871,Indian Restaurant
252,59.911639070667604,10.747720099357164,50,40,4b4e1dc5f964a520c7e126e3,Nilsen Spiseri,59.90982511981998,10.746790000657123,Scandinavian Restaurant
253,59.911639070667604,10.747720099357164,50,41,5ed00cbd131f4c0008d44b7f,Sorriso Ristorante e Bar,59.913467,10.749493,Italian Restaurant
254,59.911639070667604,10.747720099357164,50,42,4bc5d70b4a9aa5935ffc067b,MyMy Sushi,59.910257388696124,10.748255569765345,Sushi Restaurant
255,59.911639070667604,10.747720099357164,50,43,5d7bf17cb94edf0008128d29,Who Stepped On My Grapes?,59.913282,10.749044,Middle Eastern Restaurant
256,59.911639070667604,10.747720099357164,50,44,54906885498e2de61c9600d7,mymysushi,59.91027868347894,10.74742011836161,Sushi Restaurant
257,59.911639070667604,10.747720099357164,50,45,54edf62e498e7a6fbe46e9e5,Bambus Sushi,59.9119,10.751475,Sushi Restaurant
258,59.911639070667604,10.747720099357164,50,46,4c8a2d936418a1439347ddce,Carmel Grill,59.91235,10.747809,Asian Restaurant
259,59.911639070667604,10.747720099357164,50,47,546f8abc498e96a8900417f7,Cafe de Rosa,59.910424703226425,10.747794398132386,Filipino Restaurant
260,59.911639070667604,10.747720099357164,50,48,59ea5c8b23a2e64a5cd9b91b,Kinakål,59.91337,10.748838,Chinese Restaurant
261,59.911639070667604,10.747720099357164,50,49,5f60ec4c24ae6f671d37de91,Sushi Bowl,59.910503,10.744321,Sushi Restaurant
262,59.91616092933239,10.756679900642837,31,0,59b176f3cad1b6095f6688f4,Koie,59.917087291916665,10.752708038171903,Ramen Restaurant
263,59.91616092933239,10.756679900642837,31,1,55aa89a2498ee54a909eb467,Freddy Fuego,59.917783918496795,10.754060448247438,Burrito Place
264,59.91616092933239,10.756679900642837,31,2,4baa39bbf964a5203a553ae3,Thai Orchid,59.91639369846416,10.7545837762846,Thai Restaurant
265,59.91616092933239,10.756679900642837,31,3,5eb680f9a30d1700080b1257,Döner Bros,59.916727,10.753709,Doner Restaurant
266,59.91616092933239,10.756679900642837,31,4,4c10bafe81e976b02b8c0feb,Da Lat Cafe,59.91683443380693,10.753164441736137,Vietnamese Restaurant
267,59.91616092933239,10.756679900642837,31,5,5379fc1c498e7975530b7b23,Italian Restaurant,59.91663941486331,10.757412314414978,Italian Restaurant
268,59.91616092933239,10.756679900642837,31,6,4f69ff62e4b0e826ebaa9512,Ben Thanh,59.917132,10.752639,Vietnamese Restaurant
269,59.91616092933239,10.756679900642837,31,7,5216534111d289e0101d2efb,GrillMeny,59.916661,10.752432,Middle Eastern Restaurant
270,59.91616092933239,10.756679900642837,31,8,4c3f998dff711b8dad2e0f05,Caroline's Café & Bar,59.91618,10.760424,African Restaurant
271,59.91616092933239,10.756679900642837,31,9,5a0ebc45d3cce87e1a523248,Asian Food Kitchen,59.916387,10.754306,Asian Restaurant
272,59.91616092933239,10.756679900642837,31,10,5018d05de4b024832f2f6c78,Azmar Restaurant,59.91694369494683,10.75796775948597,Turkish Restaurant
273,59.91616092933239,10.756679900642837,31,11,52e025f0498e890fb9c77523,Café Saba,59.915206410859426,10.755094579492635,African Restaurant
274,59.91616092933239,10.756679900642837,31,12,4c853942d8086dcb61e98f52,Benny's House,59.917101,10.752704,Asian Restaurant
275,59.91616092933239,10.756679900642837,31,13,55e2c788498ebe4564df1e04,Zenzi Asian Deli & Sushi,59.91409782748105,10.75801378117111,Sushi Restaurant
276,59.91616092933239,10.756679900642837,31,14,5bca23d067f62b002cf410a9,Mangelsgården,59.91517,10.755726,Scandinavian Restaurant
277,59.91616092933239,10.756679900642837,31,15,50618c2de4b07a369b696c6c,Quan an 3 Mien,59.916973,10.753201,Asian Restaurant
278,59.91616092933239,10.756679900642837,31,16,4c138182b7b9c928c79aa937,Nargile Cafe & Grillbar,59.916580967734944,10.75618695165708,Middle Eastern Restaurant
279,59.91616092933239,10.756679900642837,31,17,59908d24f870fd448cbeedb6,Sushi Wok City,59.9151,10.753124,Sushi Restaurant
280,59.91616092933239,10.756679900642837,31,18,4dc04ade81545e1cc7e16550,Dahlak - Eritrea Restaurant,59.915044675,10.75444005,African Restaurant
281,59.91616092933239,10.756679900642837,31,19,504a10ece4b04f60bc201553,Azadi Klubb,59.916521,10.75378,Middle Eastern Restaurant
282,59.91616092933239,10.756679900642837,31,20,5263a06c11d2eefc7a0b88e3,The Thief Restaurant,59.91760241717884,10.757981964011254,Scandinavian Restaurant
283,59.91616092933239,10.756679900642837,31,21,4bc355d9f8219c74b4ecb510,Far East,59.91509356500285,10.753241838885105,Asian Restaurant
284,59.91616092933239,10.756679900642837,31,22,4b7054b4f964a5203a132de3,Restaurant Øst,59.91627401260992,10.754364827678266,Thai Restaurant
285,59.91616092933239,10.756679900642837,31,23,4e1344a07d8b4d5613eae139,Mama Africa,59.917113953879884,10.75835774667901,African Restaurant
286,59.91616092933239,10.756679900642837,31,24,54f1851f498e53d73df939c8,Mt Everest Restaurant,59.917667,10.755001,Indian Restaurant
287,59.91616092933239,10.756679900642837,31,25,509ce75ee4b0912bf1fbb084,Endemol Kantina,59.916798,10.755998,Scandinavian Restaurant
288,59.91616092933239,10.756679900642837,31,26,586550e765e7c70a2f562f3b,Asian Street Food,59.916939,10.75335,Asian Restaurant
289,59.91616092933239,10.756679900642837,31,27,4c6c8cf523c1a1cdbe101acf,Cafe & Conditori,59.916737,10.752894,Moroccan Restaurant
290,59.91616092933239,10.756679900642837,31,28,4f6df3dbe4b0e3b3bd6c23ab,Café Efesos,59.91748071164258,10.755085082034675,Turkish Restaurant
291,59.91616092933239,10.756679900642837,31,29,522f71a411d2126c50d98275,Ringnes,59.915802001953125,10.75316047668457,Vietnamese Restaurant
292,59.91616092933239,10.756679900642837,31,30,51ae1a46498e1d446951b450,OBENTO,59.91527,10.753256,Japanese Restaurant
293,59.911639070667604,10.756679900642837,19,0,4d0907270ead8cfac12cf376,Maaemo,59.910431064195976,10.760290770645357,Scandinavian Restaurant
294,59.911639070667604,10.756679900642837,19,1,5914a2a16bdee638c53407eb,Saray Restaurant avd. Grønland,59.913158,10.759551,Turkish Restaurant
295,59.911639070667604,10.756679900642837,19,2,52cc354a498e209ae098a00c,Taza Taza,59.91191013001027,10.753252754398014,Indian Restaurant
296,59.911639070667604,10.756679900642837,19,3,526a433b11d20594dd2a2a17,Yam Yam,59.910602,10.753279,Asian Restaurant
297,59.911639070667604,10.756679900642837,19,4,4c56e4a830d82d7f3a83d862,Tika Tika,59.91187254044465,10.75348257738288,Indian Restaurant
298,59.911639070667604,10.756679900642837,19,5,51700f9ce4b059af47127628,Pizza Pasta,59.91213900613547,10.760914905965482,Italian Restaurant
299,59.911639070667604,10.756679900642837,19,6,532c1980498ec4430193bf56,Sushi Thai,59.912465156071995,10.75269294642993,Sushi Restaurant
300,59.911639070667604,10.756679900642837,19,7,510ba2e7e4b0eaed0ba0ee0e,Sushi & Thai,59.912606,10.752855,Sushi Restaurant
301,59.911639070667604,10.756679900642837,19,8,586e861aef46945cba15d9e7,Sushi fresh+homemade,59.910467,10.752951,Asian Restaurant
302,59.911639070667604,10.756679900642837,19,9,528f4fd211d21a82a45e71cf,YamYam,59.91119614653717,10.753151062734077,Asian Restaurant
303,59.911639070667604,10.756679900642837,19,10,588f29cbc0df762b40ea2fa0,Rak Thai Spicy,59.913383,10.759085,Thai Restaurant
304,59.911639070667604,10.756679900642837,19,11,4b71a848f964a5201e542de3,Den Røde Mølle,59.913654782166546,10.756047679712646,Indian Restaurant
305,59.911639070667604,10.756679900642837,19,12,507040e4e4b07ddeb37fcd64,Miza,59.91336281190732,10.758556904571119,Afghan Restaurant
306,59.911639070667604,10.756679900642837,19,13,51948eb5498e69dba3ec25b3,Frukost,59.912395,10.755561,Eastern European Restaurant
307,59.911639070667604,10.756679900642837,19,14,4bd85d720b779c74cdef06a0,Chopsticks,59.91238548502049,10.753079707178822,Chinese Restaurant
308,59.911639070667604,10.756679900642837,19,15,58384f9c04f4d70f9482213a,saray restaurant,59.913182011762096,10.759759182923245,Turkish Restaurant
309,59.911639070667604,10.756679900642837,19,16,599ff6e1e1f228209792482e,Baohouse,59.913627,10.757965,Asian Restaurant
310,59.911639070667604,10.756679900642837,19,17,543912cd498e1623996ca2c3,4 Gringos,59.91078322357361,10.757029801652266,Food Truck
311,59.911639070667604,10.756679900642837,19,18,5b9a84c6cb3fd2002ccf33d4,El Burro,59.911982,10.752444,Burrito Place
312,59.923899999999996,10.7322,21,0,51fc134f498e6f753775b931,Kolonialen,59.92294156889795,10.735541545748275,Scandinavian Restaurant
313,59.923899999999996,10.7322,21,1,588ce94d7a8f042236ea0917,Eldhuset Bislett,59.923203,10.733107,BBQ Joint
314,59.923899999999996,10.7322,21,2,4b0ed142f964a520825b23e3,Sofies Mat- og Vinhus,59.922707911098215,10.73567085318752,Scandinavian Restaurant
315,59.923899999999996,10.7322,21,3,5bf166dbc9a517002b8af059,Miss Gin,59.924581,10.730909,Vietnamese Restaurant
316,59.923899999999996,10.7322,21,4,4b9a85e4f964a5208cbd35e3,Tasty Thai,59.925814744043954,10.730467993438555,Thai Restaurant
317,59.923899999999996,10.7322,21,5,4ce815249f776ea8c8e75b22,Vy Sushi,59.92294192314148,10.731984972953796,Sushi Restaurant
318,59.923899999999996,10.7322,21,6,524aea6c11d2616626111943,Budda Sushi,59.9245370388801,10.731091085952801,Sushi Restaurant
319,59.923899999999996,10.7322,21,7,4eb94cea7ee5024d80a192a4,SushiGodbit,59.92269429035964,10.73233059708835,Sushi Restaurant
320,59.923899999999996,10.7322,21,8,5a4fb79332b61d0da5fe7715,Piccolo Paradiso,59.924666,10.730854,Italian Restaurant
321,59.923899999999996,10.7322,21,9,55df4fdb498e302fef3e7641,Nam Nams Sushi,59.92448,10.731466,Sushi Restaurant
322,59.923899999999996,10.7322,21,10,4e88751a77c86f75f08d216f,Punjabi Masala,59.92424979992772,10.731131485969577,Indian Restaurant
323,59.923899999999996,10.7322,21,11,4d3596b32e56236a4ff238b4,Mio Sushi,59.924347,10.731119,Sushi Restaurant
324,59.923899999999996,10.7322,21,12,4e4aa07c18a83cda37de8098,A & J Tokyo Sushi,59.92322251913851,10.736443026105318,Sushi Restaurant
325,59.923899999999996,10.7322,21,13,4f301ff2e4b0124abb3ca85b,Godbit Sushi,59.92286662380513,10.732238080765176,Sushi Restaurant
326,59.923899999999996,10.7322,21,14,5d4eea07b7591000084079fd,J2,59.923929,10.731131,Korean Restaurant
327,59.923899999999996,10.7322,21,15,4bd726b27b1876b0dabd8d86,Buddha Sushi,59.923554,10.731116,Sushi Restaurant
328,59.923899999999996,10.7322,21,16,5cceed053092be002cd0ef9d,Royal Tandoori,59.924152,10.730606,Indian Restaurant
329,59.923899999999996,10.7322,21,17,59f20f86356b494fe546eaca,Pacific Pokè,59.925862,10.731243,Hawaiian Restaurant
330,59.923899999999996,10.7322,21,18,555b6e57498e2f2bcc455a81,Ikura Sushi & Asian,59.922828,10.733203,Asian Restaurant
331,59.923899999999996,10.7322,21,19,5babb8fa3b8307002c51409e,Cantina,59.922411,10.731726,Mexican Restaurant
332,59.923899999999996,10.7322,21,20,4b0ef72df964a5205a5d23e3,Mother India,59.92389500769916,10.731419382320007,Indian Restaurant
333,59.92616092933239,10.727718749296393,15,0,5bf166dbc9a517002b8af059,Miss Gin,59.924581,10.730909,Vietnamese Restaurant
334,59.92616092933239,10.727718749296393,15,1,4b9a85e4f964a5208cbd35e3,Tasty Thai,59.925814744043954,10.730467993438555,Thai Restaurant
335,59.92616092933239,10.727718749296393,15,2,5454725e498e46628ec30ecb,carls bitchin kitchin,59.926524,10.723546,American Restaurant
336,59.92616092933239,10.727718749296393,15,3,5a4fb79332b61d0da5fe7715,Piccolo Paradiso,59.924666,10.730854,Italian Restaurant
337,59.92616092933239,10.727718749296393,15,4,520e7f7a11d21a5d9d985961,Agave,59.92639,10.724769,Mexican Restaurant
338,59.92616092933239,10.727718749296393,15,5,54514a6f498ed29905f6ee9e,Boliviar,59.926387,10.723329,Peruvian Restaurant
339,59.92616092933239,10.727718749296393,15,6,575e8efb498e0ed92e3adc9c,Mamma Asia,59.926373,10.725879,Asian Restaurant
340,59.92616092933239,10.727718749296393,15,7,4b976858f964a520970235e3,Sushi House,59.92566274677209,10.726980893835705,Sushi Restaurant
341,59.92616092933239,10.727718749296393,15,8,4fc91444e4b0ccf717d8b4e1,cafe afrikaden,59.92642300379262,10.728647725365855,African Restaurant
342,59.92616092933239,10.727718749296393,15,9,4bb4e2aff1b976b0f07c1f20,Kims Fastfood Ni Hao,59.926388,10.731376,Chinese Restaurant
343,59.92616092933239,10.727718749296393,15,10,4cf3facf7bf3b60c50de6d7f,Gino Valente,59.926709,10.728211,Italian Restaurant
344,59.92616092933239,10.727718749296393,15,11,54dbc039498e0fc0fc63a047,Tijuana,59.925097,10.725319,Mexican Restaurant
345,59.92616092933239,10.727718749296393,15,12,59f20f86356b494fe546eaca,Pacific Pokè,59.925862,10.731243,Hawaiian Restaurant
346,59.92616092933239,10.727718749296393,15,13,52371fb211d2f52246b96531,Kims Fast Food,59.926856994628906,10.731496810913086,Chinese Restaurant
347,59.92616092933239,10.727718749296393,15,14,57113ff8498ec101064c56cb,Asian Box,59.925015,10.725264,Asian Restaurant
348,59.9216390706676,10.727718749296393,18,0,4b1ffb08f964a520a82b24e3,Olivia Hegdehaugsveien,59.92226893444007,10.726514165572523,Pizza Place
349,59.9216390706676,10.727718749296393,18,1,4b7440aaf964a52019d02de3,Plah Bar & Restaurant,59.9203516401329,10.72996630508937,Thai Restaurant
350,59.9216390706676,10.727718749296393,18,2,597b85f9c21cb10594bf5799,Ahaan,59.92041,10.729401,Thai Restaurant
351,59.9216390706676,10.727718749296393,18,3,5a7b49c4a5a3150e844533dd,Campo De Fiori,59.923138,10.726022,Italian Restaurant
352,59.9216390706676,10.727718749296393,18,4,59203364f96b2c5570ffec48,Park 29,59.920277,10.727362,French Restaurant
353,59.9216390706676,10.727718749296393,18,5,4f086efae4b00a2751effbc5,Lille Asia,59.9223169836323,10.727031476307113,Asian Restaurant
354,59.9216390706676,10.727718749296393,18,6,5a758e30da5ede14bb698407,Klimataria Taverna,59.921623,10.730564,Greek Restaurant
355,59.9216390706676,10.727718749296393,18,7,4b78454df964a5200bc12ee3,Brasserie Blanche,59.92331767987805,10.725931156412383,French Restaurant
356,59.9216390706676,10.727718749296393,18,8,5d15de932535920023986556,Baohouse,59.921282,10.729902,Asian Restaurant
357,59.9216390706676,10.727718749296393,18,9,54b6dd60498e7aea12b75092,Briskeby Kafe,59.921759232007645,10.72920296741848,Middle Eastern Restaurant
358,59.9216390706676,10.727718749296393,18,10,4bbc9b1f593fef3bf1560256,Sushi Express,59.92125388107577,10.729874415471075,Asian Restaurant
359,59.9216390706676,10.727718749296393,18,11,4be85109d837c9b6312ca506,Rust,59.9204930696182,10.7296925026881,Tapas Restaurant
360,59.9216390706676,10.727718749296393,18,12,4b0588b2f964a52075d422e3,Horgan's,59.92111300423592,10.72779530610862,Sports Bar
361,59.9216390706676,10.727718749296393,18,13,500eea7ae4b0f532f53d2afd,Planet Sushi,59.92007037641779,10.726461802537377,Sushi Restaurant
362,59.9216390706676,10.727718749296393,18,14,4c582930d12a20a14b4a68bd,Soya Sushi,59.920125,10.726275,Asian Restaurant
363,59.9216390706676,10.727718749296393,18,15,4f37b82b4fc64328d5fdfddd,Yamas,59.92127755592284,10.729984045028687,Greek Restaurant
364,59.9216390706676,10.727718749296393,18,16,5babb8fa3b8307002c51409e,Cantina,59.922411,10.731726,Mexican Restaurant
365,59.9216390706676,10.727718749296393,18,17,5b426c593b4e00002c2bcfa4,Øst Sushibar,59.923494,10.725992,Sushi Restaurant
366,59.92616092933239,10.736681250703608,3,0,4b16bd1ff964a520bfbc23e3,Arte Pazza,59.92670176027607,10.738488871268073,Italian Restaurant
367,59.92616092933239,10.736681250703608,3,1,4b9aca48f964a520e9d535e3,Deli Sushi,59.92683941760595,10.735234317295308,Sushi Restaurant
368,59.92616092933239,10.736681250703608,3,2,509162e1e4b0628fdd73959a,Mezbaan Indian Cuisine,59.927002720053636,10.73269106695324,Indian Restaurant
369,59.9216390706676,10.736681250703608,19,0,51fc134f498e6f753775b931,Kolonialen,59.92294156889795,10.735541545748275,Scandinavian Restaurant
370,59.9216390706676,10.736681250703608,19,1,4b0ed142f964a520825b23e3,Sofies Mat- og Vinhus,59.922707911098215,10.73567085318752,Scandinavian Restaurant
371,59.9216390706676,10.736681250703608,19,2,4b743f90f964a520cacf2de3,Restaurant Schrøder,59.9234017,10.7393735,Scandinavian Restaurant
372,59.9216390706676,10.736681250703608,19,3,582b39ebd1efa67dc87a42dd,Cafe Nazca,59.919987,10.736192,Peruvian Restaurant
373,59.9216390706676,10.736681250703608,19,4,5134cabae4b0a2e13c4df564,Holbergs Plass Ristorante,59.92133712768555,10.736084938049316,Italian Restaurant
374,59.9216390706676,10.736681250703608,19,5,533979f0498ea5078ddb2ac8,Indian Kitchen,59.920535250143885,10.733641504805076,Indian Restaurant
375,59.9216390706676,10.736681250703608,19,6,55fec8fb498ecbc151877283,A-roy Thai Restaurant,59.920144,10.73898,Asian Restaurant
376,59.9216390706676,10.736681250703608,19,7,4b79843cf964a52042fe2ee3,Sushi & Dinner DA,59.9204470620906,10.733260996440686,Sushi Restaurant
377,59.9216390706676,10.736681250703608,19,8,4c20c19d132f0f47e923a796,Hokkigai Sushi,59.92286039026376,10.738603837991366,Sushi Restaurant
378,59.9216390706676,10.736681250703608,19,9,57128eaccd10de71b0ef056e,albertine indisk tandoori,59.922526,10.738927,Indian Restaurant
379,59.9216390706676,10.736681250703608,19,10,4e4aa07c18a83cda37de8098,A & J Tokyo Sushi,59.92322251913851,10.736443026105318,Sushi Restaurant
380,59.9216390706676,10.736681250703608,19,11,505762bce4b0244ddfc70fdc,Fusion Food,59.920654296875,10.733903884887695,Indian Restaurant
381,59.9216390706676,10.736681250703608,19,12,4caddc67bf70236ad64103f9,Bislett Kafe og Sushi,59.921552538871765,10.732435,Sushi Restaurant
382,59.9216390706676,10.736681250703608,19,13,555b6e57498e2f2bcc455a81,Ikura Sushi & Asian,59.922828,10.733203,Asian Restaurant
383,59.9216390706676,10.736681250703608,19,14,5255a550498e97963d49d5df,Bangkok Thai Mat & Take Away,59.922987,10.739298,Thai Restaurant
384,59.9216390706676,10.736681250703608,19,15,4fc3cfffe4b05b8503ff3bce,Miki,59.92055892944336,10.733680725097656,Sushi Restaurant
385,59.9216390706676,10.736681250703608,19,16,4bf2cb026a31d13ae2e7932e,Albertine,59.92235697978306,10.738951069957075,Indian Restaurant
386,59.9216390706676,10.736681250703608,19,17,4ed28f79b634dd299418f29e,Trans Sushi,59.921620983814584,10.73242089039504,Sushi Restaurant
387,59.9216390706676,10.736681250703608,19,18,5fa7de6ee5233359125d7a0d,Vaquera Verde,59.923362,10.739292,Mexican Restaurant
388,59.923899999999996,10.7522,34,0,5552449c498e387912e97ec7,Nedre Foss gård,59.92221689392208,10.753728631757197,Scandinavian Restaurant
389,59.923899999999996,10.7522,34,1,571b63a2498e1c38c85fd1d3,Sapporo Ramen Bar,59.92347306962917,10.751494786271605,Noodle House
390,59.923899999999996,10.7522,34,2,5321e133498ed806d21dee15,Noodles,59.92209233005507,10.752145044166047,Asian Restaurant
391,59.923899999999996,10.7522,34,3,5f4922a05c783a0b4b27818e,Breddos Tacos,59.922377170827744,10.752477049827576,Taco Place
392,59.923899999999996,10.7522,34,4,5f4920d01bae633610359ac8,Aristoslo,59.923473,10.751312,Greek Restaurant
393,59.923899999999996,10.7522,34,5,50895d20e4b023ef49a8be57,Barramon,59.92222735892375,10.752002345996063,Tapas Restaurant
394,59.923899999999996,10.7522,34,6,50747477e4b0fe15225a7546,Smelteverket,59.922203,10.752413,Gastropub
395,59.923899999999996,10.7522,34,7,5e1356a64f64620007ff29cb,Nam Fah Thai,59.923329,10.75102,Thai Restaurant
396,59.923899999999996,10.7522,34,8,5b1a6c058c812a002c6467c8,Hongs Bao Bao,59.92210737703135,10.751992376517931,Dim Sum Restaurant
397,59.923899999999996,10.7522,34,9,50797276e4b0258079852c7a,Comer Con Arte,59.92215527359818,10.75210306162121,Tapas Restaurant
398,59.923899999999996,10.7522,34,10,5d726db240d84d000745af1c,Eléa - The Greek Way,59.92326,10.751437,Greek Restaurant
399,59.923899999999996,10.7522,34,11,50b5f584e4b0d4ffa6bcd693,Atelier Asian Tapas,59.92234220936105,10.752358064126799,Tapas Restaurant
400,59.923899999999996,10.7522,34,12,569f76a6498e477419ad9570,Mazedar,59.922043,10.752111,Indian Restaurant
401,59.923899999999996,10.7522,34,13,582d9b038af0d43493fff29c,Tacos El Brujo,59.922028,10.751999,Taco Place
402,59.923899999999996,10.7522,34,14,5871404df63c545017c3a8de,Ristorante Ferro,59.922237,10.751372,Italian Restaurant
403,59.923899999999996,10.7522,34,15,506d9299e4b08206c61fe67d,Champagneria Bodega,59.922325546036824,10.7523096051578,Wine Bar
404,59.923899999999996,10.7522,34,16,551d4faf498ec13114bfd4dd,Asia Fast Food,59.92207,10.752344,Asian Restaurant
405,59.923899999999996,10.7522,34,17,57d94ad0498e9557710e460d,Inages Mat,59.92322,10.751688,Japanese Restaurant
406,59.923899999999996,10.7522,34,18,5081585de4b05249645c8a6d,Kulinarisk Akademi,59.922249,10.752088,Scandinavian Restaurant
407,59.923899999999996,10.7522,34,19,5079b4efe4b0df11c991e99f,Atelier,59.92227674397971,10.752257221578407,Asian Restaurant
408,59.923899999999996,10.7522,34,20,55255466498e1c16e045a989,Kontrast,59.92272528174239,10.751026697387159,Scandinavian Restaurant
409,59.923899999999996,10.7522,34,21,51852008498e67376325f907,Food Republic,59.9221660367285,10.75304675040799,Italian Restaurant
410,59.923899999999996,10.7522,34,22,542591de498e84dd87c0deee,Obento Box,59.922245052618244,10.75194866407172,Japanese Restaurant
411,59.923899999999996,10.7522,34,23,58245514fed5356124bb199c,Mixto,59.92228,10.751945,Latin American Restaurant
412,59.923899999999996,10.7522,34,24,57de7a46498e476f02006ff1,Vía Italia,59.922203,10.752104,Italian Restaurant
413,59.923899999999996,10.7522,34,25,50967418e4b08c7bec4b725d,Stangeriet,59.922152044176265,10.752041288863062,Gourmet Shop
414,59.923899999999996,10.7522,34,26,5da0ad65bc323e00074f8af9,Made in India by Aahar,59.923474,10.751072,South Indian Restaurant
415,59.923899999999996,10.7522,34,27,57ebe463498efa56a0eee452,Social Eating by Bar,59.92266,10.752373,Tapas Restaurant
416,59.923899999999996,10.7522,34,28,5e98da1fbd96fa0008a463a3,Lan Marie Sushi,59.922896,10.756109,Comedy Club
417,59.923899999999996,10.7522,34,29,5a71d0e03b4e0058325c8ff1,Andorinha,59.92210737703135,10.751992376517931,Portuguese Restaurant
418,59.923899999999996,10.7522,34,30,5a2a96a55d891b47b45c833e,Jose's Café,59.922832,10.751725,Taco Place
419,59.923899999999996,10.7522,34,31,5a61ec2118d43b0543e545e8,Bistro Budapest,59.922259,10.752303,Hungarian Restaurant
420,59.923899999999996,10.7522,34,32,525a952011d25c88ef6559ed,Hotel Havana,59.922046,10.752343,Spanish Restaurant
421,59.923899999999996,10.7522,34,33,5816005838faf8004f6f7ca2,Pizza Vino,59.922034,10.752151,Italian Restaurant
422,59.92616092933239,10.747718749296393,9,0,4b0d7d0cf964a520744923e3,Gutta Fra Calcutta,59.92787936282446,10.749392291939028,Indian Restaurant
423,59.92616092933239,10.747718749296393,9,1,5b0598d52db4a9002cdbabb9,Go Bento,59.928206,10.749387,Sushi Restaurant
424,59.92616092933239,10.747718749296393,9,2,54b2a46b498e733590e7b0eb,Sushi Adamstuen,59.928084243014894,10.747054517872874,Sushi Restaurant
425,59.92616092933239,10.747718749296393,9,3,4c0bd76dbbc676b0641a4cd5,Sun Saravana,59.9275,10.7476,Indian Restaurant
426,59.92616092933239,10.747718749296393,9,4,4d544823d4a6721ee78893ac,Pompoi Thai Take Away,59.92770610114436,10.749449925930152,Thai Restaurant
427,59.92616092933239,10.747718749296393,9,5,4e8f54945c5c4562ef8b8095,Gastronomia Italiano,59.927809460000006,10.749100330000001,Italian Restaurant
428,59.92616092933239,10.747718749296393,9,6,4c502c9e2a73c9282e200dd2,Star Sushi,59.925824,10.745499,Sushi Restaurant
429,59.92616092933239,10.747718749296393,9,7,4cf156f41c158cfaad4ad0b5,Marita & Engens,59.92715,10.749381,Italian Restaurant
430,59.92616092933239,10.747718749296393,9,8,58d802bf2f91cb5e92d442b0,The Italian Job,59.927647,10.748946,Pizza Place
431,59.9216390706676,10.747718749296393,20,0,55674b33498e10d4e7ceb051,Chez Colin,59.92047572692138,10.749435116057494,French Restaurant
432,59.9216390706676,10.747718749296393,20,1,5c646f51250cab002ccaec86,Hrímnir Ramen,59.921339,10.7515,Restaurant
433,59.9216390706676,10.747718749296393,20,2,50895d20e4b023ef49a8be57,Barramon,59.92222735892375,10.752002345996063,Tapas Restaurant
434,59.9216390706676,10.747718749296393,20,3,5b1a6c058c812a002c6467c8,Hongs Bao Bao,59.92210737703135,10.751992376517931,Dim Sum Restaurant
435,59.9216390706676,10.747718749296393,20,4,5c696340f427de002c4aec7e,Himnir,59.921297,10.751219,Ramen Restaurant
436,59.9216390706676,10.747718749296393,20,5,569f76a6498e477419ad9570,Mazedar,59.922043,10.752111,Indian Restaurant
437,59.9216390706676,10.747718749296393,20,6,582d9b038af0d43493fff29c,Tacos El Brujo,59.922028,10.751999,Taco Place
438,59.9216390706676,10.747718749296393,20,7,5871404df63c545017c3a8de,Ristorante Ferro,59.922237,10.751372,Italian Restaurant
439,59.9216390706676,10.747718749296393,20,8,4c559a45f5f3d13a427f0ffc,Yum Yum Thai,59.919555,10.747929,Thai Restaurant
440,59.9216390706676,10.747718749296393,20,9,55255466498e1c16e045a989,Kontrast,59.92272528174239,10.751026697387159,Scandinavian Restaurant
441,59.9216390706676,10.747718749296393,20,10,542591de498e84dd87c0deee,Obento Box,59.922245052618244,10.75194866407172,Japanese Restaurant
442,59.9216390706676,10.747718749296393,20,11,58245514fed5356124bb199c,Mixto,59.92228,10.751945,Latin American Restaurant
443,59.9216390706676,10.747718749296393,20,12,5787db14498ed603b98746e3,Sushi & Thaimat,59.919565,10.748079,Thai Restaurant
444,59.9216390706676,10.747718749296393,20,13,4e0b429e52b1fe83d54b5f6c,Sushiexpressen,59.920327,10.749597,Sushi Restaurant
445,59.9216390706676,10.747718749296393,20,14,50967418e4b08c7bec4b725d,Stangeriet,59.922152044176265,10.752041288863062,Gourmet Shop
446,59.9216390706676,10.747718749296393,20,15,5a71d0e03b4e0058325c8ff1,Andorinha,59.92210737703135,10.751992376517931,Portuguese Restaurant
447,59.9216390706676,10.747718749296393,20,16,519b9bd8498e3dd71668d928,Wasasushi,59.919530523388744,10.748115855080936,Sushi Restaurant
448,59.9216390706676,10.747718749296393,20,17,4c7fd0fae4b06dcb873048d7,Jimmy's Sushi Bar,59.920486730951694,10.74955854225607,Sushi Restaurant
449,59.9216390706676,10.747718749296393,20,18,5481fd27498e760669ffe26b,Zaffran Restauranten,59.92053599169469,10.749607308435584,Persian Restaurant
450,59.9216390706676,10.747718749296393,20,19,5f64a3ac67477035731d4d35,Tri Ky,59.921405,10.752001,Asian Restaurant
451,59.92616092933239,10.756681250703608,13,0,54284aac498e2fd8aae842a9,Monsun Noodlebar,59.92468,10.75846,Asian Restaurant
452,59.92616092933239,10.756681250703608,13,1,4b0db073f964a520ee4d23e3,Noahs Ark,59.92719471937547,10.75900278682159,Pub
453,59.92616092933239,10.756681250703608,13,2,4c5d93127735c9b6b8658f72,Mangiamo,59.92449399390439,10.759131939613164,Italian Restaurant
454,59.92616092933239,10.756681250703608,13,3,4b98ba6df964a5202a4d35e3,The Nighthawk Diner,59.92539,10.759107,Diner
455,59.92616092933239,10.756681250703608,13,4,561fed60498e8ec2b3782ae5,Riwaj of India,59.927463,10.75926,Indian Restaurant
456,59.92616092933239,10.756681250703608,13,5,54e3aee8498edfbffd8a2b69,Grand Taj,59.927777,10.759182,Indian Restaurant
457,59.92616092933239,10.756681250703608,13,6,56043ade498e7a3454cc9de0,The Indus Fine Dining,59.925510735232436,10.756917325497788,Indian Restaurant
458,59.92616092933239,10.756681250703608,13,7,4b97eb77f964a520671f35e3,Fuji House,59.925473,10.757024,Asian Restaurant
459,59.92616092933239,10.756681250703608,13,8,5d6af24aa27e1a00074da2d8,Los Tacos,59.92546,10.759294,Taco Place
460,59.92616092933239,10.756681250703608,13,9,4e0768d71838eb15af01559b,Vietnamesisk Mathus,59.924236,10.758808,Vietnamese Restaurant
461,59.92616092933239,10.756681250703608,13,10,5e248dfac8d7a30008951f0e,Norlaks Sushi,59.924633,10.759522,Sushi Restaurant
462,59.92616092933239,10.756681250703608,13,11,51d58ad0498e621175c5991f,Ostebutikken,59.926864,10.758968,French Restaurant
463,59.92616092933239,10.756681250703608,13,12,5f7b5d5bfbafa14fa14e5786,Khushi Indian Cuisine,59.92543,10.75702,Indian Restaurant
464,59.9216390706676,10.756681250703608,34,0,5552449c498e387912e97ec7,Nedre Foss gård,59.92221689392208,10.753728631757197,Scandinavian Restaurant
465,59.9216390706676,10.756681250703608,34,1,4bd1eaae77b29c74bb8f8d82,Glød,59.92030972295615,10.759415957713083,Bar
466,59.9216390706676,10.756681250703608,34,2,4bc0a653461576b0f0727a32,East Kitchen,59.920755328292316,10.757421564261673,Asian Restaurant
467,59.9216390706676,10.756681250703608,34,3,4b0d7253f964a520864823e3,Villa Paradiso,59.923484,10.757412,Italian Restaurant
468,59.9216390706676,10.756681250703608,34,4,52759b6311d2308001f56979,Tijuana,59.92205857139124,10.759345504430353,Mexican Restaurant
469,59.9216390706676,10.756681250703608,34,5,5ea59718ae359000076faa70,Jalla Jalla,59.922117,10.757478,Middle Eastern Restaurant
470,59.9216390706676,10.756681250703608,34,6,5f47d4de25a6330992e08525,Ching Ching,59.919829,10.758245,Chinese Restaurant
471,59.9216390706676,10.756681250703608,34,7,5f4922a05c783a0b4b27818e,Breddos Tacos,59.922377170827744,10.752477049827576,Taco Place
472,59.9216390706676,10.756681250703608,34,8,56e9b6de498e52f0709cdd74,New Anarkali Markveien,59.92177337070492,10.757155717005821,North Indian Restaurant
473,59.9216390706676,10.756681250703608,34,9,50747477e4b0fe15225a7546,Smelteverket,59.922203,10.752413,Gastropub
474,59.9216390706676,10.756681250703608,34,10,5ecbb9c3cc34e60007cac43d,Bei Bei,59.920036,10.75817,Asian Restaurant
475,59.9216390706676,10.756681250703608,34,11,5e0be2ba5d9ec60008988905,Korsgata 25 Restaurant AS (Korsgata 25 Restaurant),59.92005,10.75812,Asian Restaurant
476,59.9216390706676,10.756681250703608,34,12,5cc5b9421543c7002cc0ff6d,theka,59.923476,10.758088,Indian Restaurant
477,59.9216390706676,10.756681250703608,34,13,4bb78615b35776b0ebb5c701,Daqota,59.92316960392568,10.757777875159935,American Restaurant
478,59.9216390706676,10.756681250703608,34,14,54199c0e498e163b3a608b28,Planet Sushi,59.91990661621094,10.75922679901123,Sushi Restaurant
479,59.9216390706676,10.756681250703608,34,15,537fa8f7498e60dfd7a95e6d,Sinnaindern,59.919495,10.756827,Indian Restaurant
480,59.9216390706676,10.756681250703608,34,16,4f72f76de4b0171950217e71,Ryes (mat),59.922502,10.759261,American Restaurant
481,59.9216390706676,10.756681250703608,34,17,58b9cfac4e31c53af57013b5,Quesadilla,59.923448,10.758518,Mexican Restaurant
482,59.9216390706676,10.756681250703608,34,18,4bca1383937ca593cd0ca792,Lille Asia,59.92186649073466,10.757326518103442,Sushi Restaurant
483,59.9216390706676,10.756681250703608,34,19,51741cdee4b0f71f75d3f37a,Tammy Sushi Markveien,59.92091369628906,10.75779914855957,Sushi Restaurant
484,59.9216390706676,10.756681250703608,34,20,5b72daef911fc4002cf7e80d,Wu sushi box,59.920772,10.757577,Sushi Restaurant
485,59.9216390706676,10.756681250703608,34,21,5a19ebe6dab4b1750a3578a4,Al Pastor,59.92215,10.757486,Taco Place
486,59.9216390706676,10.756681250703608,34,22,551d4faf498ec13114bfd4dd,Asia Fast Food,59.92207,10.752344,Asian Restaurant
487,59.9216390706676,10.756681250703608,34,23,4ed2538df790d0703ac2495f,Focacceria,59.92363153900872,10.757335544376987,Italian Restaurant
488,59.9216390706676,10.756681250703608,34,24,51852008498e67376325f907,Food Republic,59.9221660367285,10.75304675040799,Italian Restaurant
489,59.9216390706676,10.756681250703608,34,25,5d637949228cfc0008398028,Los Tacos,59.92103,10.757539,Taco Place
490,59.9216390706676,10.756681250703608,34,26,554a4a76498e8dae11066fc4,theNoodleBox,59.920958223027135,10.757350565462747,Asian Restaurant
491,59.9216390706676,10.756681250703608,34,27,4b81272ff964a5208d9830e3,Nam Fah Thai Resturaunt,59.92114923291599,10.756691448036927,Thai Restaurant
492,59.9216390706676,10.756681250703608,34,28,5e98da1fbd96fa0008a463a3,Lan Marie Sushi,59.922896,10.756109,Comedy Club
493,59.9216390706676,10.756681250703608,34,29,525a952011d25c88ef6559ed,Hotel Havana,59.922046,10.752343,Spanish Restaurant
494,59.9216390706676,10.756681250703608,34,30,5dea98b591ebb5000890636d,Ezo Ramen,59.921151,10.758257,Ramen Restaurant
495,59.9216390706676,10.756681250703608,34,31,4be9b4ba61aca59304e28200,Barcelona Tapasbar,59.921763,10.7573507,Tapas Restaurant
496,59.9216390706676,10.756681250703608,34,32,4bcb2446fb84c9b6692f1e3e,Mito Sushi & Wok,59.91992276466398,10.759326,Asian Restaurant
497,59.9216390706676,10.756681250703608,34,33,54382176498e2031cfd5c2de,Agra Indian Cuisine,59.92185168418861,10.75734786557333,Indian Restaurant
