,lat_centre,long_centre,num_venues,venue_iter,venue_id,venue_name,lat_venue,long_venue,category
0,44.3568,26.195833333333333,1,0,4e68ed2dd22df5c11f8623eb,Restaurant Pluto Tat'ane,44.35532519243034,26.19274278585099,Middle Eastern Restaurant
1,44.366800000000005,26.089166666666667,1,0,57c80653498ebea6ac9903f1,La Oltina,44.367679,26.088816,Romanian Restaurant
2,44.366800000000005,26.129166666666666,2,0,4f919ebce4b08995a424457a,RESTAURANat Valahia,44.36425431150234,26.125388637285027,Latin American Restaurant
3,44.366800000000005,26.129166666666666,2,1,5b3ba3588ad62e002c7f1411,Bistro lemon,44.369212,26.134144,Greek Restaurant
4,44.366800000000005,26.1425,1,0,5caf6349da7080002c604fd7,Bistro Lemon,44.364461,26.147826,Bistro
5,44.366800000000005,26.155833333333334,1,0,56700085498e1e380185b175,4 Friends,44.370664812283216,26.1532596062801,Eastern European Restaurant
6,44.3768,25.982499999999998,1,0,57c2c03f498e444ba03896db,Restaurant Belluno,44.374888,25.980994,Romanian Restaurant
7,44.3768,26.089166666666667,1,0,51a786d7498e471b1506d6ec,Shaorma Progresul,44.374645050947414,26.090592429703904,Turkish Restaurant
8,44.3768,26.11583333333333,3,0,4f96e8d4e4b0b6acb2772ab3,spaghettiiiiii,44.380688,26.114872,Italian Restaurant
9,44.3768,26.11583333333333,3,1,5377d9a5498ec151669b3a98,Restaurant Infinit,44.37737660157783,26.1220595213925,Romanian Restaurant
10,44.3768,26.11583333333333,3,2,533ac020498ebb708d2b9fd2,terasa castel,44.37782509343734,26.116392728665875,Romanian Restaurant
11,44.3768,26.155833333333334,1,0,51654026e4b068ba3177ded2,"Restaurantul PÃ¢rÃ¢ul Rece ""La Florin""",44.38003017984679,26.159523654736702,Romanian Restaurant
12,44.3768,26.169166666666666,1,0,5f7c4c80e7bb3d7605238847,Il Bocconcino,44.37773935745326,26.16458147764206,Italian Restaurant
13,44.3768,26.20916666666667,1,0,58fc7b9e6bd36b7adc04e323,Restaurant Pizzerie Big Mic,44.37765,26.204458,Italian Restaurant
14,44.3868,25.99583333333333,1,0,4f496399e4b0605e4376f65d,La Jupanu',44.383471,25.992845,Eastern European Restaurant
15,44.3868,26.022499999999997,1,0,5269580a11d2aaf34e8c51ab,Green Pool Restaurant,44.38742655681837,26.02615140473829,Eastern European Restaurant
16,44.3868,26.1025,1,0,503a2b47e4b0105c0ed57e80,K's Cuisine,44.385797,26.108381,American Restaurant
17,44.3868,26.11583333333333,10,0,4cf259166195721e5b0647c1,L'Incontro,44.385493891839836,26.116141852676865,Italian Restaurant
18,44.3868,26.11583333333333,10,1,4c7bde0d93ef236a5f92b60f,Ana Saray Cafe,44.390062400603185,26.11917694946456,Eastern European Restaurant
19,44.3868,26.11583333333333,10,2,4cb474a2db32f04ddfbedd4d,Restaurant TerasÄƒ Geo,44.389374,26.118902,Lebanese Restaurant
20,44.3868,26.11583333333333,10,3,537e00d5498e4aedc81b06a5,Trattoria di Parma,44.387918241880875,26.114888191223145,Italian Restaurant
21,44.3868,26.11583333333333,10,4,4d3f58e5cb84b60cb14a7cab,Terasa cu flori,44.39021392258895,26.119171608971307,Romanian Restaurant
22,44.3868,26.11583333333333,10,5,51460243e4b019affc6e645e,Yang Wu,44.38774391618286,26.111950792024473,Asian Restaurant
23,44.3868,26.11583333333333,10,6,597246466f706a5bcd403639,Shaorma Turceasca El Emir,44.38753,26.109701,Turkish Restaurant
24,44.3868,26.11583333333333,10,7,4dd6b42cd22d38ef42d636a9,Restaurant Rond,44.38996680790905,26.119046173870615,Romanian Restaurant
25,44.3868,26.11583333333333,10,8,4d09458600e6b1f792da11d7,Bio Mediteraneo,44.387857,26.111306,Greek Restaurant
26,44.3868,26.11583333333333,10,9,53f8e24c498ef2ad1a77d7c1,Niko Palace,44.390082,26.119246,Eastern European Restaurant
27,44.3868,26.129166666666666,5,0,4e9c12fb2c5b4d6405fb1c47,Restaurant Agnes,44.389199103235846,26.131994920095803,Romanian Restaurant
28,44.3868,26.129166666666666,5,1,540f5368498ebc69f8cb2efa,Terasa Nicol-Cherry,44.388227,26.134887,Romanian Restaurant
29,44.3868,26.129166666666666,5,2,55a60f4e498edab2c84142d7,Casa Iordan,44.3892700126216,26.125634258500362,Italian Restaurant
30,44.3868,26.129166666666666,5,3,549c8814498ef4e379c3655e,Casa Anghel,44.3860660833243,26.12951898718726,Romanian Restaurant
31,44.3868,26.129166666666666,5,4,4effb94877c885c335a4b91e,Aubert,44.38883712007709,26.127011528533195,Eastern European Restaurant
32,44.3868,26.1425,1,0,4d381fa5b9e5224b04c85090,No Name Pizza & Grill,44.386918222660604,26.136574914614787,Pizza Place
33,44.3968,25.982499999999998,1,0,52471aa111d2c88acd955394,Restaurant Select,44.39290244536786,25.984063267395463,American Restaurant
34,44.3968,26.035833333333333,1,0,5001aa52e4b0a4b26cf1cad4,Pisica SÄƒlbaticÄƒ,44.395371,26.036953,Cuban Restaurant
35,44.3968,26.049166666666665,2,0,5378811a498e2945af78b363,Sport Bar&Grill,44.39665994080571,26.048411378369625,Romanian Restaurant
36,44.3968,26.049166666666665,2,1,5cefb8611fa7630039a95e42,Dominum grill & bar,44.398384,26.048295,Romanian Restaurant
37,44.3968,26.089166666666667,2,0,576ae331498e0e8484fed18e,OBY fast food Ferentari,44.398572,26.084921,Doner Restaurant
38,44.3968,26.089166666666667,2,1,536a1688498e6d1b26a6fe0b,Oby Autoservire,44.398573,26.084818,Romanian Restaurant
39,44.3968,26.1025,4,0,4d7e2399f635236a7d256216,La Collina,44.39972,26.098099,Italian Restaurant
40,44.3968,26.1025,4,1,573cd6bd498e3b8f5703b155,bistro 47,44.396597,26.106794,Italian Restaurant
41,44.3968,26.1025,4,2,4dfe1dd61f6e05048d8b7fb9,Templul lui Dionysos,44.39790178423186,26.0986513070737,Greek Restaurant
42,44.3968,26.1025,4,3,4dccf9ec8877851243d2ac5f,Restaurant Casa Nica,44.39498271778984,26.103119839274605,Romanian Restaurant
43,44.3968,26.11583333333333,6,0,583095a276f2ca684ce6c234,Trattoria Primavera,44.393234,26.119085,Modern European Restaurant
44,44.3968,26.11583333333333,6,1,502c3b56e4b0b2dbe9408e15,Sushi a la Khand,44.39666701112068,26.115310729078878,Sushi Restaurant
45,44.3968,26.11583333333333,6,2,506c6b34e4b04f733d80ea22,Dante's,44.399958,26.119067,Eastern European Restaurant
46,44.3968,26.11583333333333,6,3,518137b2498e4cc02b26ba94,Sultan Suleyman,44.39660295550545,26.114055731982614,Turkish Restaurant
47,44.3968,26.11583333333333,6,4,5cb1f754de3bbf002cc0cbff,Pinar 63,44.396362,26.113755,Turkish Restaurant
48,44.3968,26.11583333333333,6,5,52558b98498ecd6b8137a617,Scandia Sibiu,44.39439833705515,26.120715966970117,Romanian Restaurant
49,44.3968,26.129166666666666,4,0,5cceb58e4aa3f8002cb052f6,Istanbul Taksim,44.395739,26.123118,Turkish Restaurant
50,44.3968,26.129166666666666,4,1,4c62d561e1621b8d91632453,B-Back Lebanese Food,44.39562295176147,26.12310735267033,Lebanese Restaurant
51,44.3968,26.129166666666666,4,2,5114d269e4b07a47310f4a2f,Osteria di David,44.39563183252401,26.123240753978255,Italian Restaurant
52,44.3968,26.129166666666666,4,3,4eb914b49adfc68713eb8b96,Wienerwald,44.39598341535813,26.123042106628418,Fried Chicken Joint
53,44.3968,26.1425,1,0,4cb6dd6d8db0a143e1ff6c16,CantinÄƒ Restaurant,44.398086945104424,26.146141011663442,Eastern European Restaurant
54,44.406800000000004,25.99583333333333,1,0,5a257b48c824ae4a318aa31f,Burger Grill House,44.409539,25.995768,American Restaurant
55,44.406800000000004,26.009166666666665,1,0,4d440e5fe198721e8584b78b,Doricom,44.41106889672795,26.01005332611357,Eastern European Restaurant
56,44.406800000000004,26.0625,3,0,4e2c5b9fa809f1b16419583b,Presto Grill,44.41072263560084,26.064332166150464,Chinese Restaurant
57,44.406800000000004,26.0625,3,1,513dae65e4b0ab90c891a114,Brittania,44.407997625160135,26.066423277183553,Eastern European Restaurant
58,44.406800000000004,26.0625,3,2,537cb25b498eed2021c284cc,È˜aorma â€La TeiuÈ™â€,44.403662906958644,26.058208682114252,Eastern European Restaurant
59,44.406800000000004,26.075833333333332,1,0,538c7c01498e382b6fa411e5,BucÄƒtÄƒrieğŸ,44.407703,26.072363,Romanian Restaurant
60,44.406800000000004,26.089166666666667,2,0,4f1016e8e4b0865b0611a931,Trattoria La Piazza,44.40714450547636,26.092204795882463,Italian Restaurant
61,44.406800000000004,26.089166666666667,2,1,539200fe498e12427cca8fb6,Taverna Viilor,44.40754215212143,26.09267974621425,Romanian Restaurant
62,44.406800000000004,26.11583333333333,10,0,4badf4c5f964a5207d753be3,Cafeneaua Actorilor de VarÄƒ,44.408326689721676,26.110506977072177,Italian Restaurant
63,44.406800000000004,26.11583333333333,10,1,4c2646a4db5195213c5e2c3a,"Taverna ""La CÄƒlinescu""",44.41061735376913,26.112731509931237,Romanian Restaurant
64,44.406800000000004,26.11583333333333,10,2,4cd9937e145fa1cddb5a0cbd,Trattoria Piccola,44.40672306535171,26.114535147336866,Italian Restaurant
65,44.406800000000004,26.11583333333333,10,3,5c7a81d266fc6500391741e9,Mahalaua Caramidarilor,44.409837,26.115049,Romanian Restaurant
66,44.406800000000004,26.11583333333333,10,4,4e15ebbaae60a0ac0637373b,"Restaurant ""Casa Oprescu""",44.40682475521719,26.112093686107524,Romanian Restaurant
67,44.406800000000004,26.11583333333333,10,5,4e00d3bb88776240d3f31341,Trattoria Verdi,44.404769306987,26.111693580059807,Italian Restaurant
68,44.406800000000004,26.11583333333333,10,6,56439b3b498ed6a787d7e5f5,Trattoria Rossini,44.40441539287228,26.112957000732422,Italian Restaurant
69,44.406800000000004,26.11583333333333,10,7,5800778138faf0b904b82d29,Chen Za,44.405438,26.119882,Noodle House
70,44.406800000000004,26.11583333333333,10,8,580076fc38fa3dc50d847f5f,Ji Tsu,44.404918,26.119975,Ramen Restaurant
71,44.406800000000004,26.11583333333333,10,9,580077e1d67cbc46e35a7677,Hermesa,44.406716,26.121104,Taco Place
72,44.406800000000004,26.129166666666666,3,0,5c49993e75dcb7002c09d544,Montefiore Restaurant,44.406956,26.124474,Italian Restaurant
73,44.406800000000004,26.129166666666666,3,1,51eaa037498ee519bb0d07ad,Beni's Mansion,44.40796,26.133086,Asian Restaurant
74,44.406800000000004,26.129166666666666,3,2,5c49996e835c9a002c1d6279,Montefiore Restaurant,44.407024,26.124678,Italian Restaurant
75,44.406800000000004,26.1425,2,0,5200c7e2498eeffb69f77deb,Resedinta Radu,44.409291,26.147081,Asian Restaurant
76,44.406800000000004,26.1425,2,1,4ee7a075a69d839db09031e4,Rustic MÃ¢ncare RomÃ¢neascÄƒ,44.408236780147455,26.139858525938738,Romanian Restaurant
77,44.406800000000004,26.169166666666666,1,0,5449402f498ebf9ab6f9e648,Bistro Burghez,44.405653835248486,26.17251867680895,Romanian Restaurant
78,44.406800000000004,26.1825,2,0,4c2d965511cb9c7444e072b3,Terasa de pe Aleea Mizil,44.406898761844815,26.17818832397461,Beer Garden
79,44.406800000000004,26.1825,2,1,4f5256d4e4b07de37b6e82f9,Australian Restaurant,44.407191757349665,26.17798572273358,Australian Restaurant
80,44.406800000000004,26.195833333333333,1,0,4eaff44649010398c8c47128,Cruzztos Bistro,44.4069726406561,26.201156190253723,American Restaurant
81,44.406800000000004,26.20916666666667,1,0,5e1998d7bd8b5a000829a363,Restaurant Ikea,44.407651,26.205828,Scandinavian Restaurant
82,44.4168,26.009166666666665,3,0,4dc822deae608779d17b3b62,Passion - Restaurant & Pensiune,44.41790092870329,26.01316758185312,Bed & Breakfast
83,44.4168,26.009166666666665,3,1,4fd4c1a3e4b0352ac4becdc7,Premium Events Restaurant&Ballroom,44.41854,26.007986,Eastern European Restaurant
84,44.4168,26.009166666666665,3,2,5ca8e6f965cdf8002c42c6d9,Restaurant Basilico,44.41508,26.014399,Italian Restaurant
85,44.4168,26.022499999999997,1,0,4bbb75778a0d95216360d930,Azzurro,44.41683550946239,26.026922211451236,Italian Restaurant
86,44.4168,26.035833333333333,6,0,5be875e486f4cc002c447821,Mesopotamia,44.417358,26.035773,Turkish Restaurant
87,44.4168,26.035833333333333,6,1,54bbc109498e98618bac2a59,Sky Bar Premier Palace,44.416134,26.03974,Italian Restaurant
88,44.4168,26.035833333333333,6,2,4fbe9d1be4b0b0419aa07f07,Desert,44.41499328613281,26.038509368896484,Australian Restaurant
89,44.4168,26.035833333333333,6,3,4f7e9451e4b0fdf5ffa0a364,la han,44.420828892764135,26.036589447850382,American Restaurant
90,44.4168,26.035833333333333,6,4,50c1f4f3e4b06538210edf87,La terasa de la case,44.416902849615774,26.041305760500414,Eastern European Restaurant
91,44.4168,26.035833333333333,6,5,5011b12de4b035d9f37a90d6,Restaurant,44.41881826891928,26.030587923239025,Eastern European Restaurant
92,44.4168,26.049166666666665,3,0,537ce7eb498e08214a86ea67,Restaurant vanity,44.41913601996332,26.054282756876873,Romanian Restaurant
93,44.4168,26.049166666666665,3,1,4f8eb1a0e4b0d7a4418fdbe5,Little Italy,44.41580675728327,26.044599193310408,Italian Restaurant
94,44.4168,26.049166666666665,3,2,4f2e5adae4b062ad2bfe5820,Mirodeniii,44.41754899303639,26.047226978432505,Indian Restaurant
95,44.4168,26.0625,10,0,550ff1a1498ed3ea209227de,la bodega din cartier,44.416519,26.06394,Romanian Restaurant
96,44.4168,26.0625,10,1,50fa9ba3e4b0a8cc96145db3,Del Arte,44.41557408818052,26.06014981351566,Eastern European Restaurant
97,44.4168,26.0625,10,2,501a4e82e4b03c99d12fadb1,Restaurant Atlantic,44.42051467809799,26.05955789084324,Middle Eastern Restaurant
98,44.4168,26.0625,10,3,550ff204498e2a7e90689f73,La bodega din cartier ğŸ»ğŸ·,44.416335,26.063905,Romanian Restaurant
99,44.4168,26.0625,10,4,5718774ccd103c88ed1d5ad8,Restaurant Excellence,44.41658595880118,26.05969101190567,Romanian Restaurant
100,44.4168,26.0625,10,5,51973c38498e336c7d127703,Casa Elena,44.41836833485252,26.05986407243601,Romanian Restaurant
101,44.4168,26.0625,10,6,511ff2ede4b0d606128877d0,Mango Meets Salmon,44.420399,26.065188,Sushi Restaurant
102,44.4168,26.0625,10,7,4f26d381e4b0e12083fd61f1,Panorama Kebab,44.41416982742493,26.061408348711943,Fast Food Restaurant
103,44.4168,26.0625,10,8,4ff82124e4b01ead02881472,Shaorma Jenin,44.41793254511678,26.059148743476232,Burrito Place
104,44.4168,26.0625,10,9,581f48535d0a1a25ca905bb1,Restaurant Ã‡eÅŸme,44.41863,26.058872,Turkish Restaurant
105,44.4168,26.075833333333332,7,0,5415dbc3498efe97bd5e2f89,Mesopotamia,44.41788969827047,26.07214534732464,Doner Restaurant
106,44.4168,26.075833333333332,7,1,4e4cfda8ae60bb50126b3514,Melissa Kebab,44.41318399224007,26.074120845280042,Doner Restaurant
107,44.4168,26.075833333333332,7,2,4c85ff522f1c236a8b375943,West Gate Restaurant,44.415114589199796,26.08004093170166,Eastern European Restaurant
108,44.4168,26.075833333333332,7,3,5656df55498e56a22384f196,GGLunch,44.4193220291206,26.07975626032298,Eastern European Restaurant
109,44.4168,26.075833333333332,7,4,5218b41011d2b7791ae005be,Wok,44.415243,26.080005,Asian Restaurant
110,44.4168,26.075833333333332,7,5,5d7e18c006e8640008829500,Lee Ho Food,44.415415,26.079723,Chinese Restaurant
111,44.4168,26.075833333333332,7,6,4f131365e4b0253d4e63c631,Wok Away,44.415310796594866,26.07998668360902,Chinese Restaurant
112,44.4168,26.089166666666667,8,0,4d9859f29079b1f7944a290a,Clasis,44.41493821742656,26.08529824241036,Turkish Restaurant
113,44.4168,26.089166666666667,8,1,4daac7e00437dccbd80d8ac6,DineÈ™,44.41409987994842,26.094200894342038,Eastern European Restaurant
114,44.4168,26.089166666666667,8,2,4b62c590f964a52009522ae3,Il Cantuccio,44.416645805957536,26.092979938948215,Italian Restaurant
115,44.4168,26.089166666666667,8,3,4e946dbeb803d7c29325e711,Dragonul De Aur,44.41966894484054,26.09283295434095,Japanese Restaurant
116,44.4168,26.089166666666667,8,4,4ddea20b88779c82bec92f7d,La Radu,44.415509,26.094419,Eastern European Restaurant
117,44.4168,26.089166666666667,8,5,524178562fc68c8b4509bd19,Kyklades2010,44.41903815919803,26.08540534973144,Greek Restaurant
118,44.4168,26.089166666666667,8,6,4e09b6e56284d9ee92e3cd80,Trattoria la Nave,44.418843998891056,26.09473178842677,Italian Restaurant
119,44.4168,26.089166666666667,8,7,526c10ff11d2a48aa4c36016,Kyklades,44.41801,26.083268,Greek Restaurant
120,44.4168,26.1025,12,0,4c44216cf0bdd13a171cc9cc,DRISTOR Doner KEBAP,44.416985168885674,26.1042255516,Doner Restaurant
121,44.4168,26.1025,12,1,4b855f5ef964a520b45931e3,Sushi Garden,44.42007727828142,26.10201985616044,Sushi Restaurant
122,44.4168,26.1025,12,2,4bf8f5598d30d13a028f0118,Restaurant La Bucur,44.41502906920553,26.104710792944477,Romanian Restaurant
123,44.4168,26.1025,12,3,59a0744458002c3c1fc50f6e,La Papile,44.417673,26.096429,Mediterranean Restaurant
124,44.4168,26.1025,12,4,4f551390e4b063296ff326ab,La Grasi,44.41444026331339,26.10498013646131,Eastern European Restaurant
125,44.4168,26.1025,12,5,4f0c3822e4b05a3e7f4aae72,Maia Catering,44.41762924194336,26.10289764404297,Eastern European Restaurant
126,44.4168,26.1025,12,6,51dbf4e1498e2d5eb21467a4,Costelaria,44.419504578369235,26.098740534109893,Brazilian Restaurant
127,44.4168,26.1025,12,7,5eff695d86b46d000722998f,Bouzouki Greek & Tacerna,44.415016,26.105459,Greek Restaurant
128,44.4168,26.1025,12,8,4d74cbb71a8aa35d425914a7,Eurest Central Business Park,44.416578538555,26.102222817607288,Eastern European Restaurant
129,44.4168,26.1025,12,9,58ea24b1964d7842031427e6,Zen Sushi Take Away,44.415210382618234,26.10480308532715,Sushi Restaurant
130,44.4168,26.1025,12,10,4dd8df66e4cd37c893cf252f,La Vieille Marmite,44.420494104525346,26.101069450378418,Middle Eastern Restaurant
131,44.4168,26.1025,12,11,515b18ede4b03a472a05465c,Maison Du Jour-Fixe,44.42042811786466,26.10370732780829,Eastern European Restaurant
132,44.4168,26.11583333333333,15,0,58b2dc009435a903b9762e96,Sardin,44.41997595847805,26.112853643920037,Mediterranean Restaurant
133,44.4168,26.11583333333333,15,1,4f044c31f79000b5dd2382a5,"Trattoria ""Pane e Vino""",44.419785,26.115797,Italian Restaurant
134,44.4168,26.11583333333333,15,2,4dda7c57d22d38ef4330051b,Efes Restaurant,44.42042817562856,26.116038180312213,Turkish Restaurant
135,44.4168,26.11583333333333,15,3,4c409960af052d7f340a7c79,Sare È™i piper,44.414983773863334,26.112461220409067,Italian Restaurant
136,44.4168,26.11583333333333,15,4,4d302565f986a0930da2f966,Art Caffe and Lounge,44.41858693528038,26.11222516326357,Italian Restaurant
137,44.4168,26.11583333333333,15,5,5762f2c7498e4316b37c00c1,Sehzade,44.418095606838065,26.114619970321655,Steakhouse
138,44.4168,26.11583333333333,15,6,5d304dc99a169c0008a5095b,Tarab,44.417946,26.114555,Lebanese Restaurant
139,44.4168,26.11583333333333,15,7,590714f6646e387f2b923c79,Adress Turkish Restorant,44.416418,26.112233,Turkish Restaurant
140,44.4168,26.11583333333333,15,8,58ebfd5a6d349d30aeaa528a,Acess,44.416492849779154,26.11252650618553,Doner Restaurant
141,44.4168,26.11583333333333,15,9,5288e2c011d2c5c251bbe3af,New Times,44.41724464788362,26.119895454188004,Eastern European Restaurant
142,44.4168,26.11583333333333,15,10,534a550e498e380e614f8e3c,Sale Dolce,44.418639884662795,26.112091998104887,Italian Restaurant
143,44.4168,26.11583333333333,15,11,4e6cf495483b1f5ebe4d0383,Al Melook Sweets,44.41947801885154,26.115332501600935,Dessert Shop
144,44.4168,26.11583333333333,15,12,5308d576498eea12f3393a15,ADRESS Turkish Cuisine,44.419116544825854,26.11498621583239,Turkish Restaurant
145,44.4168,26.11583333333333,15,13,4d3c1af73ec9a35dae9d4581,Restaurant Contesa,44.41313049611429,26.1128409715235,Eastern European Restaurant
146,44.4168,26.11583333333333,15,14,4f5cecafe4b0c5418c114a4b,trattoria di centro,44.4164378,26.1205392,Italian Restaurant
147,44.4168,26.129166666666666,20,0,59297df80ff4f9137e4c3896,Resto Aperto,44.41945083154541,26.126650444643676,Italian Restaurant
148,44.4168,26.129166666666666,20,1,4d518ac13626a093ef7b25bd,Restaurantul AncuÈ›a,44.42024823000001,26.126571,Romanian Restaurant
149,44.4168,26.129166666666666,20,2,51934056498e9773719608e3,DRISTOR Doner,44.42029636744651,26.126582382702942,Doner Restaurant
150,44.4168,26.129166666666666,20,3,4f845168e4b02ab9456994fc,Soprano,44.419660051902376,26.125798258646274,Italian Restaurant
151,44.4168,26.129166666666666,20,4,5096975ce4b024b7d8a833d0,Wok Away,44.420218742978285,26.126604003617896,Chinese Restaurant
152,44.4168,26.129166666666666,20,5,4bb0aeb2f964a520a1543ce3,Chopstix,44.42026216074825,26.126591372019657,Chinese Restaurant
153,44.4168,26.129166666666666,20,6,4cda82153f6a8cfa60b9e4ea,Onyx Restaurant,44.4194289691351,26.12549901008606,Eastern European Restaurant
154,44.4168,26.129166666666666,20,7,4bd42ee7462cb71310d1df07,Palmie Bistro,44.420229,26.12656,Greek Restaurant
155,44.4168,26.129166666666666,20,8,4d6e307c2427224bd873c94d,Ristorante Da Renzo,44.41964507102966,26.133693,Italian Restaurant
156,44.4168,26.129166666666666,20,9,51cb2864498e9a51858c5d08,Wok Away,44.42021030071204,26.126549617266036,Chinese Restaurant
157,44.4168,26.129166666666666,20,10,5254276b498e639f728adbe1,ERRA,44.419606,26.133792,Mediterranean Restaurant
158,44.4168,26.129166666666666,20,11,4d2a06c3c406721e1b3e80b6,Dynasty,44.420249,26.126584,Chinese Restaurant
159,44.4168,26.129166666666666,20,12,4f7eb324e4b0878749e87f96,Scandia Sibiu,44.42026147525408,26.126607199572398,Romanian Restaurant
160,44.4168,26.129166666666666,20,13,4f64e768e4b0ea77cdeb8917,Magazin Mariposa,44.41804467469069,26.13483753900408,Korean Restaurant
161,44.4168,26.129166666666666,20,14,5c20c345f05ca8002d0fd713,Mesopotamia,44.41991,26.126938,Turkish Restaurant
162,44.4168,26.129166666666666,20,15,510abd25e4b03676f3ce9131,Shish DÃ¶ner & Kebab,44.420176,26.126537,Doner Restaurant
163,44.4168,26.129166666666666,20,16,597626fb0313203e5c69a537,Istanbul Taksim,44.42004,26.126768,Turkish Restaurant
164,44.4168,26.129166666666666,20,17,4d8c49583200a093484a9791,Koksallar Cuptor,44.417555019746764,26.130054112020368,Taco Place
165,44.4168,26.129166666666666,20,18,51bf9cde498e3425abac1a0e,"Restaurant ""Casa Enache""",44.41962599856595,26.12578867266652,Romanian Restaurant
166,44.4168,26.129166666666666,20,19,4d9c7553a695721e69e3fa0c,Olive's,44.42009563888131,26.126883029937744,Middle Eastern Restaurant
167,44.4168,26.1425,5,0,5cd81f7e8194fc002ce58224,Veranda Ristorante & Pizza,44.416935,26.140297,Italian Restaurant
168,44.4168,26.1425,5,1,50b3b95de4b0aebed5046fc1,Long Xuan,44.42013352324187,26.14043823600473,Chinese Restaurant
169,44.4168,26.1425,5,2,5269416b11d26b0a58c70408,Entre Aromas,44.42051267046235,26.142798148109712,Spanish Restaurant
170,44.4168,26.1425,5,3,4eb91922991165b763e7fc25,Trattoria Verdi Pizzerie,44.41710566877553,26.143119134550805,Italian Restaurant
171,44.4168,26.1425,5,4,5e5d3ff923d4180008a137f5,Papaciu,44.420777,26.14181,Eastern European Restaurant
172,44.4168,26.155833333333334,3,0,4dc53827b0fb5556ccea1e81,Casa Di Angelo,44.41322092093373,26.159614016525506,Italian Restaurant
173,44.4168,26.155833333333334,3,1,50d2fc30e4b0bf2ab45cbbd4,Trattoria Cappuccini,44.41327219199932,26.15682707855549,Italian Restaurant
174,44.4168,26.155833333333334,3,2,5b389773fe3740002c0ed144,@ The Lake,44.42086,26.158482,Modern European Restaurant
175,44.4168,26.169166666666666,7,0,4c376a1e1e06d13ab7e4753e,Restaurant Casa Anca,44.41667553073844,26.175419271166245,Romanian Restaurant
176,44.4168,26.169166666666666,7,1,4d1b24232a52b60c5df0f4ff,Trattoria Venti,44.417168538705475,26.17270865941067,Italian Restaurant
177,44.4168,26.169166666666666,7,2,4c9b1e5078ffa093941a7275,L'Incontro,44.41715,26.173153,Italian Restaurant
178,44.4168,26.169166666666666,7,3,594fa4ea491be717e5557d70,Bodrum Kebap,44.41417,26.164491,Doner Restaurant
179,44.4168,26.169166666666666,7,4,59244f72f0ca95470271eb10,Eleven,44.417267,26.172852,Romanian Restaurant
180,44.4168,26.169166666666666,7,5,4c94c3fdf7cfa1cdd393b615,Trattoria Xanadu,44.4172384337992,26.17390862851124,Italian Restaurant
181,44.4168,26.169166666666666,7,6,4e08d6ca18a8382643bd39e4,Terasa CARA,44.41585561009841,26.164416895750712,Eastern European Restaurant
182,44.4168,26.1825,3,0,4de60c79d22d7fddb9cd0806,StarWok,44.4202029183603,26.17971181869507,Asian Restaurant
183,44.4168,26.1825,3,1,57e78553498e2d323ab79f06,Istanbul Taksim,44.420696,26.179472,Turkish Restaurant
184,44.4168,26.1825,3,2,59a52e738b98fd13d0680dc2,Kungfu King,44.420555,26.179621,Chinese Restaurant
185,44.4268,25.982499999999998,2,0,4cee367ced62721e7e6f5afd,Cantina Preciziei,44.43006670334623,25.981415940080108,Cafeteria
186,44.4268,25.982499999999998,2,1,4cb8294f90c9a143d2157dd6,Macarale Grill And More,44.430087,25.98152516555307,Eastern European Restaurant
187,44.4268,25.99583333333333,3,0,535a0c5a498e8a16c1f2ba6f,vio' s taverna,44.42317266111026,25.99443120232683,Romanian Restaurant
188,44.4268,25.99583333333333,3,1,515ee069e4b004910c533189,TatlÄ±ses Ã‡iÄŸ KÃ¶fte,44.42439782914565,25.998240037227536,Turkish Restaurant
189,44.4268,25.99583333333333,3,2,52848c9811d24bf0d25bb127,Cuptorul De Aur,44.424409,25.997106,Eastern European Restaurant
190,44.4268,26.009166666666665,5,0,51588847e4b079b32956777d,Ioana's placeîŒ¨îŒ”,44.4224979,26.0088444,Japanese Restaurant
191,44.4268,26.009166666666665,5,1,4dd8d88d8877f115100c9bcf,Capri Pizza,44.42517964052043,26.013293906382383,Italian Restaurant
192,44.4268,26.009166666666665,5,2,52d3bcd211d28ab79901e934,Restaurant La CabanÄƒ,44.43065430933301,26.009645025856447,Romanian Restaurant
193,44.4268,26.009166666666665,5,3,4d5454f8ba5b224b890a0214,Restaurant BÃ¢rlogul Lupilor,44.42340825958476,26.012147312085112,Romanian Restaurant
194,44.4268,26.009166666666665,5,4,5ce5314151950e00396d02e1,Le Blanc,44.42339,26.012247,French Restaurant
195,44.4268,26.022499999999997,3,0,4c167dd074fb20a190305012,Piatra AlbÄƒ,44.42341475296498,26.025541105675718,Romanian Restaurant
196,44.4268,26.022499999999997,3,1,5561d5f3498e6f5b451fd97c,FraTer,44.42345998696905,26.02566519670039,Modern European Restaurant
197,44.4268,26.022499999999997,3,2,4c6315f0e1621b8d7d132553,Primo Fast Food,44.423255674837755,26.02507575831896,Eastern European Restaurant
198,44.4268,26.035833333333333,21,0,4e7087a4b61c17d19ace3094,Ultimul Don,44.42885454673999,26.036841109412325,Eastern European Restaurant
199,44.4268,26.035833333333333,21,1,5169955ee4b078ea5d340aa5,Trattoria Vivaldi,44.42883834884556,26.036967274500697,Italian Restaurant
200,44.4268,26.035833333333333,21,2,4fe1bd41e4b050b31e053a81,graffiti,44.42575611062283,26.032539320527285,CafÃ©
201,44.4268,26.035833333333333,21,3,4ca63fcab7106dcbab2a5ca5,Trattoria Rock'n Pasta,44.42891526361653,26.032642413542575,Italian Restaurant
202,44.4268,26.035833333333333,21,4,5aa64a3a6adbf501d41f0f00,Casa Cozara,44.42788,26.037098,Romanian Restaurant
203,44.4268,26.035833333333333,21,5,595a1dcd0d2be7672eaba9c8,Mesopotamia,44.42900231726782,26.03478295236988,Turkish Restaurant
204,44.4268,26.035833333333333,21,6,4e3aa3d145dd8baba0009d07,La Zamfir,44.4290130131552,26.034876070658452,Eastern European Restaurant
205,44.4268,26.035833333333333,21,7,4bdc0b05c79cc928961285e9,Ruby Tuesday,44.428558331103694,26.034748876408468,American Restaurant
206,44.4268,26.035833333333333,21,8,544fcde2498e7fbd05fa7608,taverna Adonis,44.42893902387077,26.036750925687212,Greek Restaurant
207,44.4268,26.035833333333333,21,9,537277ca498eeac46944f3b6,Fomica,44.425698,26.031287,Taco Place
208,44.4268,26.035833333333333,21,10,4c12154b7f7f2d7fbd98dc68,Dristor Kebap,44.428528076146264,26.034880204884516,Doner Restaurant
209,44.4268,26.035833333333333,21,11,4d39addb325ff04dadc11445,Chopstix,44.42881794221534,26.034849554533988,Chinese Restaurant
210,44.4268,26.035833333333333,21,12,4c08e3135214ef3b25455e69,Bella Pizza,44.42754338146379,26.02994653702192,Pizza Place
211,44.4268,26.035833333333333,21,13,51dfe218498e1c2c1dadfea1,Restaurant TerasÄƒ DaniCosti,44.42791886174348,26.037206053733826,Romanian Restaurant
212,44.4268,26.035833333333333,21,14,5a310b79a92d981376adc15a,Istanbul Taksim,44.428936,26.034538,Turkish Restaurant
213,44.4268,26.035833333333333,21,15,50365aebe4b090fae02afbe2,Dinasty,44.429045071305225,26.0348627520812,Asian Restaurant
214,44.4268,26.035833333333333,21,16,534d04d0498e033ec3968190,Lunch & Dinner,44.42835268842234,26.034867766697158,Romanian Restaurant
215,44.4268,26.035833333333333,21,17,5b2909d75a2c91003984c10c,Lunch,44.428375,26.034813,Romanian Restaurant
216,44.4268,26.035833333333333,21,18,4ce7a396e1eeb60cfc499eae,Dynasty Chinese Restaurant,44.42917664827922,26.034895813340917,Chinese Restaurant
217,44.4268,26.035833333333333,21,19,5e4bd7bb30eab9000874866f,ChanhÂ® Miam Miam,44.427193,26.034582,Vietnamese Restaurant
218,44.4268,26.035833333333333,21,20,5394bb74498e82b504ad4e38,Casa Hugo,44.4227206729869,26.03743541016268,Romanian Restaurant
219,44.4268,26.049166666666665,11,0,4bf506bb98ac0f47ea9c64a8,Trattoria Roma,44.42433856907366,26.044523758833495,Italian Restaurant
220,44.4268,26.049166666666665,11,1,5d31cce7c46dcb00083edc49,noodle pack,44.430182,26.053006,Noodle House
221,44.4268,26.049166666666665,11,2,5c13a92941b6c9002526cb3f,Taco Bell,44.4306,26.05246,Taco Place
222,44.4268,26.049166666666665,11,3,53552d28498ed3fdf114ff58,AFC - Asia Food Company,44.43059,26.052052,Chinese Restaurant
223,44.4268,26.049166666666665,11,4,5741bbb2cd10a3bfcad80a02,Trattoria UNO,44.428822620004816,26.05160383314479,Italian Restaurant
224,44.4268,26.049166666666665,11,5,4c14e8a177cea593c642d160,Navy's,44.43028631048114,26.052017211914062,Greek Restaurant
225,44.4268,26.049166666666665,11,6,4fa0d930e4b0ee815c9df8b4,Louisiana Bistro,44.425925012828095,26.052105857076377,Bistro
226,44.4268,26.049166666666665,11,7,50b35123e4b07a713e2945da,Quasi Pronti,44.43060459111511,26.052496339436985,Italian Restaurant
227,44.4268,26.049166666666665,11,8,4cc1bc595684a35d0ab4ba0d,Ai Sapori,44.42747675973288,26.04756399558896,Italian Restaurant
228,44.4268,26.049166666666665,11,9,4f0ecd33e4b0354498ca2f1a,Schmankerl Treff,44.42997985002828,26.051158905029297,German Restaurant
229,44.4268,26.049166666666665,11,10,5e331891549d49000796aa03,Rigatoni,44.43048,26.052769,Italian Restaurant
230,44.4268,26.0625,7,0,4ed4e26530f803fae797c32d,Tortilla Max,44.42892509616311,26.06099905705019,Mexican Restaurant
231,44.4268,26.0625,7,1,4c10aa743ce120a1196a081c,Hanul Voievozilor,44.4261232791918,26.067317146548113,Eastern European Restaurant
232,44.4268,26.0625,7,2,4da5d73b0cb6d75e2a0042de,Crama Pandurilor,44.42875114096952,26.064016698078557,Eastern European Restaurant
233,44.4268,26.0625,7,3,4e776552483b0cf5ed994907,Little Dragon,44.4261947202094,26.05920235664578,Chinese Restaurant
234,44.4268,26.0625,7,4,4e24020c1838712abe8c92f6,GrÄƒdina de varÄƒ,44.42780303955078,26.065113067626953,Eastern European Restaurant
235,44.4268,26.0625,7,5,500c4475e4b0546b296130b4,Restaurant La Rosu,44.426307,26.057769,Eastern European Restaurant
236,44.4268,26.0625,7,6,5e04c8993953e100080c902e,Ustam Wok DÃ¶ner,44.42645,26.060175,Turkish Restaurant
237,44.4268,26.075833333333332,13,0,4daeed0b4df0f639f255aa92,TAJ,44.422937537468044,26.073669084134753,Indian Restaurant
238,44.4268,26.075833333333332,13,1,4d9eb916c7ee14565d8a517b,The Garden,44.42607490036584,26.07769125566774,Romanian Restaurant
239,44.4268,26.075833333333332,13,2,5920a1976bdee630c37566a3,La Tartine,44.4305459834357,26.074298631514797,French Restaurant
240,44.4268,26.075833333333332,13,3,556f1ad5498e1b61f8562172,Shaorma 13 septembrie,44.425409425163174,26.077892738784087,Turkish Restaurant
241,44.4268,26.075833333333332,13,4,5054afdde4b0719d67dfcb25,Club BNR,44.430545596293804,26.07429701998284,Italian Restaurant
242,44.4268,26.075833333333332,13,5,5af6c695b23dfa002c7088ac,Restaurant Casa Hangiului,44.423306,26.076999,Romanian Restaurant
243,44.4268,26.075833333333332,13,6,4bca2a850687ef3b2973dbcc,La cucina,44.42612660478723,26.07618106470354,Italian Restaurant
244,44.4268,26.075833333333332,13,7,4f4227bce4b0f96037b9ef81,Homemade Pasta,44.42962646484375,26.074234008789062,Italian Restaurant
245,44.4268,26.075833333333332,13,8,4bd488217b1876b084368986,Champions,44.425589314902254,26.07723043431738,Pub
246,44.4268,26.075833333333332,13,9,4bcb313cb6c49c74d1a19191,Yoko,44.42559242031237,26.077726256644162,Japanese Restaurant
247,44.4268,26.075833333333332,13,10,5cefa5730d173f002c3d68b3,Allucinante by patrizia,44.424731,26.079567,Italian Restaurant
248,44.4268,26.075833333333332,13,11,52cd902711d288c2c0e7d903,La Familia Restaurant & Bistro,44.42513656616211,26.080032348632812,Mediterranean Restaurant
249,44.4268,26.075833333333332,13,12,4fc11a67e4b0bb0732537276,Capsiuni :xx,44.43055981498784,26.073551470045988,Dessert Shop
250,44.4268,26.089166666666667,6,0,599498d7065ef51988fd5d99,El Torito,44.428528068747774,26.09461093471516,Taco Place
251,44.4268,26.089166666666667,6,1,4bb66269941ad13a7c571fe3,Elmir,44.42823587830836,26.091087876205453,Mediterranean Restaurant
252,44.4268,26.089166666666667,6,2,56195435498eac6e8090fc66,wedine classic,44.428678,26.094261,French Restaurant
253,44.4268,26.089166666666667,6,3,4c4c429cc668e21edfaf3efb,Locanta JariÈ™tea,44.4236228348206,26.09205396605465,Romanian Restaurant
254,44.4268,26.089166666666667,6,4,542a9995498e2fd8ab26f2df,Bistro Italiano,44.429085,26.094212,Italian Restaurant
255,44.4268,26.089166666666667,6,5,553b5394498e5acdfae30ce3,Il Vero Gusto,44.429197,26.094345,Italian Restaurant
256,44.4268,26.1025,50,0,5baa53b05a2c91002c214310,Moon Brasserie,44.426323,26.10638,Brasserie
257,44.4268,26.1025,50,1,4dc58dd7887717c8802694a1,Dristor Kebap,44.43005359222156,26.100384145975113,Doner Restaurant
258,44.4268,26.1025,50,2,51a3aa5a498e75bcbfbc1a02,Li-Wu,44.43122250994345,26.103541738503296,Vietnamese Restaurant
259,44.4268,26.1025,50,3,4cb1d739cbab236ad8e6ab73,Red Angus Steakhouse,44.42993247971976,26.101065221180175,Steakhouse
260,44.4268,26.1025,50,4,55e9e4c3498e4b1041933cd0,Lacrimi È™i SfinÈ›i,44.43057744642294,26.102887988090515,Romanian Restaurant
261,44.4268,26.1025,50,5,5f3d3d6aab4e4540b1b34984,Sushi Master,44.429289,26.102923,Sushi Restaurant
262,44.4268,26.1025,50,6,591aaec1efa82a1833586d52,"Restaurant ""Hanu' lui Manuc""",44.42972017,26.1023053,Romanian Restaurant
263,44.4268,26.1025,50,7,544e6bcb498e062a2230254c,Alouette,44.425145777407565,26.102585709543632,Mediterranean Restaurant
264,44.4268,26.1025,50,8,5e5abc12dcae4900087a1c1e,nori sushi,44.42561,26.106516,Japanese Restaurant
265,44.4268,26.1025,50,9,554d0b45498e2d8a98c0e59c,"Bodega ""La Mahala""",44.43050466257345,26.101632714271545,Romanian Restaurant
266,44.4268,26.1025,50,10,4ba85ceef964a5201ad839e3,City Grill,44.4304028,26.1026109,Romanian Restaurant
267,44.4268,26.1025,50,11,4bed9cd46e8c20a185a27061,"Restaurant Voievodal ""Crama DomneascÄƒ""",44.43029853989931,26.10099065657808,Romanian Restaurant
268,44.4268,26.1025,50,12,4c2d953f11cb9c74cfdf72b3,Manuc Bistro,44.42913642039807,26.101481785121656,Romanian Restaurant
269,44.4268,26.1025,50,13,584af782d702824c5185a551,PepeRosso,44.431013358487796,26.101439053406917,Italian Restaurant
270,44.4268,26.1025,50,14,56f94399498e6c279c7e75a2,Haplea Fast Cuisine,44.43009,26.104325,Turkish Restaurant
271,44.4268,26.1025,50,15,5d3f4d7861e5120008a82977,Mexicani,44.430058,26.100172,Mexican Restaurant
272,44.4268,26.1025,50,16,5a1d4a4d1ffed71aa6a4e0ad,Wok pe loc,44.429555,26.103563,Asian Restaurant
273,44.4268,26.1025,50,17,4b59efdbf964a52041a228e3,Las Tapas,44.430561661720276,26.102394461631775,Tapas Restaurant
274,44.4268,26.1025,50,18,4c642b2eeb82d13a48a209d6,Marmarita,44.428144097320036,26.104431380012173,Mediterranean Restaurant
275,44.4268,26.1025,50,19,4c813a90d8086dcb21e56a52,Hanul Hangitei,44.431082933453894,26.10275588964317,Eastern European Restaurant
276,44.4268,26.1025,50,20,54e09d80498eee7bd06b185e,Pilleria,44.42751038198825,26.10456029162988,American Restaurant
277,44.4268,26.1025,50,21,5bba369df00a70002cea431f,Adliye SarayÄ±,44.42677,26.10254,Romanian Restaurant
278,44.4268,26.1025,50,22,4d494c499544a09389c726e7,Restaurant Jardiniere,44.42789985294186,26.098904340683976,French Restaurant
279,44.4268,26.1025,50,23,539ad711498e1b0751d59569,Il Portofino,44.4268,26.098299,Italian Restaurant
280,44.4268,26.1025,50,24,516ec333e4b01c12b4394793,Restaurant Izvorul Rece,44.42681546525422,26.099133072879987,Eastern European Restaurant
281,44.4268,26.1025,50,25,4cc1c7bb53f6b713f8417df8,Buddha Chinese Restaurant,44.43005695698256,26.100173114698848,Chinese Restaurant
282,44.4268,26.1025,50,26,4e57ffb6fa76435f0bd7338b,Emerald,44.430348,26.100327,American Restaurant
283,44.4268,26.1025,50,27,50368080e4b0aae9b35e0d2b,Mica ElveÈ›ie,44.42961993486568,26.10167071499159,Swiss Restaurant
284,44.4268,26.1025,50,28,4d80c048551ea1cd4ae91fc5,Pizzeria Classic,44.426886878400865,26.105763125363072,Pizza Place
285,44.4268,26.1025,50,29,547a0c42498ecfcbffe8f85d,Borsalino,44.42957175256823,26.103557601172533,Pizza Place
286,44.4268,26.1025,50,30,5c8a7c79a795bd002ca77416,Emre Baklava 2,44.4291,26.102861,Turkish Restaurant
287,44.4268,26.1025,50,31,5e485b5ca95a54000821f0f8,Romanya,44.425453,26.10368,Italian Restaurant
288,44.4268,26.1025,50,32,51caefd6498e3d72ab32a9fb,Ipanema Caffe,44.426614,26.104594,Greek Restaurant
289,44.4268,26.1025,50,33,4bfd75fab68d0f471bd2e857,Finikia,44.43006344459431,26.100035288933082,Lebanese Restaurant
290,44.4268,26.1025,50,34,4ffc4988e4b0348e445d5650,Chopstix,44.42802329490824,26.104038315666987,Chinese Restaurant
291,44.4268,26.1025,50,35,59d22603c97f2832b9548712,Osteria Bella Toscana,44.430208,26.099566,Italian Restaurant
292,44.4268,26.1025,50,36,4c6bc07d0c3ac9b6a39ad238,Grand Bistro,44.427957170738765,26.104588508605957,Eastern European Restaurant
293,44.4268,26.1025,50,37,5aca4de4f62f2b1524c3bda1,Greek House Taverna,44.43076,26.100836,Greek Restaurant
294,44.4268,26.1025,50,38,5db32368c50dce0008ceb18c,Nikos Greek Taverna,44.43085,26.100729,Greek Restaurant
295,44.4268,26.1025,50,39,54a7c880498e8bfa13c1ba1c,Taverna Covaci,44.43103840393872,26.101127690230616,Romanian Restaurant
296,44.4268,26.1025,50,40,4b9be0c1f964a5206c3036e3,Restaurant Horoscop,44.425351448070224,26.104101410396776,Italian Restaurant
297,44.4268,26.1025,50,41,4b783f31f964a52051bf2ee3,Arcade CafÃ©,44.43051286567797,26.10012306221476,CafÃ©
298,44.4268,26.1025,50,42,55a93ece498e6e43c1fb62c5,Habibi Kebab,44.43019820326551,26.100640296936035,Doner Restaurant
299,44.4268,26.1025,50,43,557aee04498e1b84b37e202b,Chineserestaurant,44.42733383178711,26.105741500854492,Chinese Restaurant
300,44.4268,26.1025,50,44,557dacf8498e3a9a0fdb8fb3,Burrito,44.426639556884766,26.10297393798828,Burrito Place
301,44.4268,26.1025,50,45,54023090498e9e7e7e9bb462,Bella Vita,44.4304945931173,26.102419773415157,Argentinian Restaurant
302,44.4268,26.1025,50,46,5731e3a0cd1024323509da50,Humusia & Fusion,44.428057,26.104377,Turkish Restaurant
303,44.4268,26.1025,50,47,5dbc7f62a540b90008b36a3a,La Ciorbe,44.429582,26.10344,Soup Place
304,44.4268,26.1025,50,48,51e7c90e498ecdc6c7b38d0f,Sofi,44.42745590209961,26.102251052856445,Italian Restaurant
305,44.4268,26.1025,50,49,5d8cb50e529c5c00072a1277,Chimichanga,44.430595,26.102125,Mexican Restaurant
306,44.4268,26.11583333333333,4,0,583acc0f6d349d057480d7f4,Zexe Zahana Matei Basarab,44.430658,26.11873,Romanian Restaurant
307,44.4268,26.11583333333333,4,1,53a71e4c498ea5554f7bb771,Restaurant Magnolia,44.43091748841626,26.117267009949803,Mediterranean Restaurant
308,44.4268,26.11583333333333,4,2,5f2858afe8a8df596bd2c009,La Placinte,44.427207,26.112056,Romanian Restaurant
309,44.4268,26.11583333333333,4,3,4c540ebe1b46c9b69266f4cd,La Cena 2,44.43087573283082,26.11803437448686,Eastern European Restaurant
310,44.4268,26.129166666666666,33,0,5abfbdee97cf5a3708d40375,Duman,44.429276,26.134375,Turkish Restaurant
311,44.4268,26.129166666666666,33,1,59f70746b1ec131141b007b2,Nikos Greek Taverna,44.42421866840121,26.12970681576361,Greek Restaurant
312,44.4268,26.129166666666666,33,2,4c8caed15e048cfa0103cfcd,El Bacha,44.42469870745253,26.129470331666838,Lebanese Restaurant
313,44.4268,26.129166666666666,33,3,576d7590498e21f501394f52,Turquoise Restaurant,44.42784549158564,26.130376382428754,Turkish Restaurant
314,44.4268,26.129166666666666,33,4,54ca15c4498e4d90fc68a912,La MasÄƒ,44.430697007116216,26.132018716447643,Romanian Restaurant
315,44.4268,26.129166666666666,33,5,4f8553b8e4b0ce7175325754,Japanika,44.427315105524364,26.13065887520246,Sushi Restaurant
316,44.4268,26.129166666666666,33,6,4f043a6c46905a3984410545,DavCafe,44.42893728769696,26.133363080744356,Italian Restaurant
317,44.4268,26.129166666666666,33,7,5127b43de4b0ca65e97772eb,Mega Catering,44.42416694426531,26.125878866342138,Eastern European Restaurant
318,44.4268,26.129166666666666,33,8,53ce353b498e6baf0b249fd0,Trattoria Fresca,44.42947072128189,26.12623879616679,Italian Restaurant
319,44.4268,26.129166666666666,33,9,4c14a87d1b5cef3ba427eec4,Rasputin,44.427092513160034,26.130381075711036,Eastern European Restaurant
320,44.4268,26.129166666666666,33,10,502be080e4b0661ae3caa11e,TAO Restaurant Chinezesc,44.429208677511255,26.131244338280293,Chinese Restaurant
321,44.4268,26.129166666666666,33,11,4d8c93f1c479a35daa011997,Restaurant Delea NouÄƒ,44.42960687057299,26.13065875132517,Romanian Restaurant
322,44.4268,26.129166666666666,33,12,56e815d6498e0e8c638fa3e3,Rookies Lounge,44.429252,26.132126,Romanian Restaurant
323,44.4268,26.129166666666666,33,13,4b6c4105f964a520e12b2ce3,Ruby Tuesday,44.42732063107333,26.13110565681153,American Restaurant
324,44.4268,26.129166666666666,33,14,56829f0f498e142bea53b9c9,Restaurant Gardinia,44.429023,26.132042,Persian Restaurant
325,44.4268,26.129166666666666,33,15,4d2b240bf7a9224b9c230da0,Ganesh,44.42860202007121,26.132298454061416,Indian Restaurant
326,44.4268,26.129166666666666,33,16,56bf1ecfcd107f5cf3093f67,Monna Lisa Ristorante,44.428618,26.13221,Italian Restaurant
327,44.4268,26.129166666666666,33,17,4b85832ef964a520a26231e3,La Mama,44.426421970826745,26.130327625200042,Romanian Restaurant
328,44.4268,26.129166666666666,33,18,53d69b5e498e67ffa9cf9098,Trattoria Verdi,44.42957812541896,26.126272479625793,Italian Restaurant
329,44.4268,26.129166666666666,33,19,4dd90f0e1f6ee146834a257b,Restaurant  Roma,44.428805,26.132839,Italian Restaurant
330,44.4268,26.129166666666666,33,20,5673e136498e9f5287621fdf,La FiÈ™ic,44.42528,26.125646,Modern European Restaurant
331,44.4268,26.129166666666666,33,21,55f1f0bf498ebb88c2f89152,lincontro floreasca,44.427737,26.13147,Italian Restaurant
332,44.4268,26.129166666666666,33,22,5dd279978caaba00087b7600,Rainbow,44.424916,26.130624,Romanian Restaurant
333,44.4268,26.129166666666666,33,23,59cfb644f62f2b7597519caf,PadThai,44.42767,26.130663,Thai Restaurant
334,44.4268,26.129166666666666,33,24,4d82034b2ad9a143b2117e28,Restaurant Chinezesc 2,44.428709,26.133228,Chinese Restaurant
335,44.4268,26.129166666666666,33,25,55718b32498e7431cd1e69c6,Phoenicia Restaurant,44.42786010065404,26.1251987177826,Eastern European Restaurant
336,44.4268,26.129166666666666,33,26,5661f54b498eac2dc332568a,Le Grenier Ã  Pain,44.42493796598047,26.128617090522347,Bakery
337,44.4268,26.129166666666666,33,27,525916c211d2900f9fd940e3,Simo's Kitchen,44.43065481124882,26.13239099777898,French Restaurant
338,44.4268,26.129166666666666,33,28,4fca2723e4b04ba0d0da0568,Medina Cafe & Restaurant,44.42847757092346,26.13229482735997,Moroccan Restaurant
339,44.4268,26.129166666666666,33,29,4db1df7ccda14b702a4fc8d5,PETRA,44.42647076331022,26.130434274673462,Falafel Restaurant
340,44.4268,26.129166666666666,33,30,5033b7f8e4b030b311b53d92,La Grasi Outlet,44.42909622192383,26.124778747558594,Eastern European Restaurant
341,44.4268,26.129166666666666,33,31,5230a96e498e5a070f3df89b,Trattoria Toscana,44.424905,26.128773,Italian Restaurant
342,44.4268,26.129166666666666,33,32,4bcece38b6c49c74a9a99791,Restaurant Asia,44.4284781705818,26.133320331573486,Asian Restaurant
343,44.4268,26.1425,6,0,5e1d9023e7117a0008d87ca1,Pita Van,44.42569,26.145023,Lebanese Restaurant
344,44.4268,26.1425,6,1,54819441498e3ac9d0e9be41,La PlÄƒcinte Expres,44.427954845393074,26.138211847273286,Pie Shop
345,44.4268,26.1425,6,2,5438f22d498ed351144f3f29,Sultan,44.42968984080282,26.139335018140223,Turkish Restaurant
346,44.4268,26.1425,6,3,51320316e4b0211830a20530,Master Chief Pregateste Spaghete,44.427777,26.14373,Italian Restaurant
347,44.4268,26.1425,6,4,5550abba498ece2b657e1c3e,Trattoria Felicita,44.423572758611215,26.13830609981577,Italian Restaurant
348,44.4268,26.1425,6,5,521274a911d2520c2b86c795,Genin,44.4285745750636,26.147628681505292,Turkish Restaurant
349,44.4268,26.155833333333334,7,0,518e8858498e8b592e090161,Trattoria Monza,44.4278600710196,26.153902470547102,Italian Restaurant
350,44.4268,26.155833333333334,7,1,515861b5e4b09dec143e1c75,Restaurant Arena Titan,44.42495928289997,26.1576687460679,American Restaurant
351,44.4268,26.155833333333334,7,2,59c7a61491eaca5a759b1d94,Najee,44.427164,26.152844,Asian Restaurant
352,44.4268,26.155833333333334,7,3,4be5ab44cf200f472086133c,Restaurant Jade,44.42881528565267,26.153104305267334,Eastern European Restaurant
353,44.4268,26.155833333333334,7,4,4f8316a5e4b02f4582741c9f,Trattoria Di Firenze,44.42739127552062,26.1527058169121,Italian Restaurant
354,44.4268,26.155833333333334,7,5,59bab6e66adbf54afd32cac2,Oriental Cuisine,44.427122,26.152832,Turkish Restaurant
355,44.4268,26.155833333333334,7,6,54327dd8498e412bc3e242fd,ilMatterello,44.42844026267377,26.154328438346464,Italian Restaurant
356,44.4268,26.169166666666666,3,0,55f70dc8498edb711faa8bbc,Trattoria Verdi,44.42468925734927,26.166096239832406,Italian Restaurant
357,44.4268,26.169166666666666,3,1,538f062e498e254777dd4a9c,cosmin rezidence,44.42778778076172,26.16765022277832,American Restaurant
358,44.4268,26.169166666666666,3,2,4d94c049af673704d8d08309,Restaurant PÄƒuniÈ›a,44.425907181795075,26.163777373034726,Romanian Restaurant
359,44.4268,26.1825,1,0,585c4c25cf4451174ce0cf8e,Hanul Cristianului,44.424473,26.179059,Turkish Restaurant
360,44.4268,26.20916666666667,2,0,57836f8e498e7519beddbcda,Hell's Kitchen,44.424824,26.206709,African Restaurant
361,44.4268,26.20916666666667,2,1,526003b1498edd3e8aaaf1b4,Trattoria di Napoli,44.427719180243116,26.210794143674853,Italian Restaurant
362,44.436800000000005,25.982499999999998,4,0,57541367498eeb535d6eb7a4,Tava Cu De Toate,44.44024,25.980717,Romanian Restaurant
363,44.436800000000005,25.982499999999998,4,1,4d81db70d95df04d1bfd4abc,Hang Zhou,44.44009219653099,25.982215404510498,Asian Restaurant
364,44.436800000000005,25.982499999999998,4,2,4d05f778e350b60c6efc8a42,Swiss Grill,44.4398930308429,25.98219394683838,Swiss Restaurant
365,44.436800000000005,25.982499999999998,4,3,4d81e9bf1ec4224b620fd092,Restaurant Rustic,44.43962441199728,25.982468217727313,Eastern European Restaurant
366,44.436800000000005,25.99583333333333,2,0,570d59e8498e49597e68b1ff,Thessalonikis Gyros,44.43387091391281,25.997825074901623,Greek Restaurant
367,44.436800000000005,25.99583333333333,2,1,4bdf03a4e75c0f473c9bc903,Restaurant Vulturul,44.43443925764358,25.994705868990856,Eastern European Restaurant
368,44.436800000000005,26.009166666666665,2,0,4fa0067ae4b097256ebbbf6e,Restaurant Parc,44.43440179938051,26.00776280885601,Eastern European Restaurant
369,44.436800000000005,26.009166666666665,2,1,4e5044ec483bb770491c7d34,Restaurant AS,44.4332072170999,26.010034285889198,Eastern European Restaurant
370,44.436800000000005,26.022499999999997,8,0,4e70d79988773f007b6fb981,Shaorma Gorjului,44.43431725979845,26.01875072763255,Middle Eastern Restaurant
371,44.436800000000005,26.022499999999997,8,1,4e708743b61c17d19ace048f,Mmahsgh,44.434017,26.024045,American Restaurant
372,44.436800000000005,26.022499999999997,8,2,527391ea11d21811bfc6bc97,La 1 Leu,44.43425,26.0199,Argentinian Restaurant
373,44.436800000000005,26.022499999999997,8,3,4ef5d1f1775b54cdb31d5e6c,Restaurant Cerbul,44.43633974679411,26.022400220758556,African Restaurant
374,44.436800000000005,26.022499999999997,8,4,53db600a498e9230e3f99114,KebaBoss,44.43408705418055,26.021370699573882,French Restaurant
375,44.436800000000005,26.022499999999997,8,5,5b9fdca8029a55002cc2a7d0,Poli Chinese Street Food,44.434414,26.020164,Chinese Restaurant
376,44.436800000000005,26.022499999999997,8,6,591df9839ba3e537854c5d29,Nassar,44.44045,26.026056,Lebanese Restaurant
377,44.436800000000005,26.022499999999997,8,7,5cd2fd0979f6c7002c76fb60,NASSAR Restaurant Libanez,44.4404807803768,26.025821513871957,Lebanese Restaurant
378,44.436800000000005,26.035833333333333,8,0,51e1528b498ef13d2942e24a,Casa NaÈ™ului,44.43687326379434,26.038840480965618,Romanian Restaurant
379,44.436800000000005,26.035833333333333,8,1,5679796b498ed7a3857447d7,Mesopotamia,44.43336574816157,26.036757625280295,Turkish Restaurant
380,44.436800000000005,26.035833333333333,8,2,4e0f1c7ee4cd27fc7d35f538,Rustic,44.43326188207113,26.036901704722453,Eastern European Restaurant
381,44.436800000000005,26.035833333333333,8,3,5676873a498e57627745d444,Calif - Califatul Militari,44.434201971588756,26.033300776305747,Turkish Restaurant
382,44.436800000000005,26.035833333333333,8,4,5cf321de60d11b002c3953be,La Giovani,44.435548,26.034601,Doner Restaurant
383,44.436800000000005,26.035833333333333,8,5,5510528f498e55729382ff09,russian house restaurant,44.43544691421024,26.04092567985925,Russian Restaurant
384,44.436800000000005,26.035833333333333,8,6,5e1edd20bd16620008cc59e3,Davidâ€™s Original Food,44.43603,26.034825,Fast Food Restaurant
385,44.436800000000005,26.035833333333333,8,7,52794845498eb4005116763c,Golden Kebab Shaorma,44.43637174919341,26.034799140313968,Turkish Restaurant
386,44.436800000000005,26.049166666666665,4,0,5e494e036365da0008171ba1,Dristor Doner Politehnica,44.434353,26.053398,Turkish Restaurant
387,44.436800000000005,26.049166666666665,4,1,4dac466df7b145b3703735fe,Cantina Imst,44.44114701614873,26.049523680517527,Eastern European Restaurant
388,44.436800000000005,26.049166666666665,4,2,4e9905296da1ff617208ba69,Doner Kebab,44.434461948371904,26.053362507376296,Middle Eastern Restaurant
389,44.436800000000005,26.049166666666665,4,3,4f963795e4b07ffbb1ec0ab6,bn 317,44.43965530395508,26.04651641845703,Burrito Place
390,44.436800000000005,26.0625,2,0,5c35d88c894eac002c672f0d,La Bottega Dei Sapori,44.438701,26.067061,Italian Restaurant
391,44.436800000000005,26.0625,2,1,58d8de4e5e56b471a61774da,La Campana,44.436873,26.067118,Italian Restaurant
392,44.436800000000005,26.075833333333332,8,0,53f1d4d3498e9505bd59eb19,Bocca Lupo,44.43377218503446,26.077879071235657,Italian Restaurant
393,44.436800000000005,26.075833333333332,8,1,4ba38577f964a520064438e3,Derby,44.43409126844138,26.072458423822404,Australian Restaurant
394,44.436800000000005,26.075833333333332,8,2,4e75e788c65bb91db48f6655,Marcon,44.43971461727559,26.071917743555407,Eastern European Restaurant
395,44.436800000000005,26.075833333333332,8,3,54410627498e9e2eb26bca21,El FogÃ³n de Barcelona,44.43682119713219,26.069902181625366,Spanish Restaurant
396,44.436800000000005,26.075833333333332,8,4,51f38202498efc022c8a8eb0,Ferrari Restaurant,44.440048411582126,26.079473121063437,Italian Restaurant
397,44.436800000000005,26.075833333333332,8,5,4d6f79a87e16a35d793e94f9,Codrul Cosminului,44.44011551473671,26.07958703264047,Eastern European Restaurant
398,44.436800000000005,26.075833333333332,8,6,4c4d691592b6a5935dfa336e,Trattoria Roma,44.434052094628306,26.07806952324201,Italian Restaurant
399,44.436800000000005,26.075833333333332,8,7,4dd67d49c65bee535a99d283,Trattoria Del Vecchio,44.433461624826734,26.079708860081283,Italian Restaurant
400,44.436800000000005,26.089166666666667,21,0,4c32216616adc928679cc19c,Monte Carlo,44.43785894843405,26.08957534463417,Eastern European Restaurant
401,44.436800000000005,26.089166666666667,21,1,57793b52498ec8fcaa4849bb,Edo Garden,44.44021278425552,26.08696845470357,Sushi Restaurant
402,44.436800000000005,26.089166666666667,21,2,4cfe12e07945224bf79f93e7,Trattoria Adagio,44.43989334781594,26.089519891626384,Italian Restaurant
403,44.436800000000005,26.089166666666667,21,3,4fa547c8e4b09571df071f4a,"Club ""Excelsior""",44.440351483735625,26.092310958088316,Eastern European Restaurant
404,44.436800000000005,26.089166666666667,21,4,4c41e396d7fad13a343408da,Restaurant Vatra,44.43523210783971,26.09468766899773,Romanian Restaurant
405,44.436800000000005,26.089166666666667,21,5,588261fb16f0007b205f1211,La Ciurucuri Restaurant - Like a Museum,44.43723742660711,26.09320610674331,Romanian Restaurant
406,44.436800000000005,26.089166666666667,21,6,4c0f6b60d64c0f47a9b1295d,Alioli,44.440171811543976,26.086396746238854,Spanish Restaurant
407,44.436800000000005,26.089166666666667,21,7,4c5065438edf0f470d1837af,Ici et LÃ ,44.43473746738079,26.09475016593933,French Restaurant
408,44.436800000000005,26.089166666666667,21,8,564f433a498e64fa009ef9dd,Restaurant L'Atelier,44.43684697126562,26.087098437843768,French Restaurant
409,44.436800000000005,26.089166666666667,21,9,4d37388676b3236a95a6b879,Shaorma KogÄƒlniceanu,44.43462549947434,26.088010863266973,Fast Food Restaurant
410,44.436800000000005,26.089166666666667,21,10,4bd04002046076b0ce906f71,La BibliotecÄƒ,44.43882202889353,26.089778286245885,CafÃ©
411,44.436800000000005,26.089166666666667,21,11,5521357e498eeee00912b902,Izvor Kebab,44.43470026792183,26.08947928082805,Middle Eastern Restaurant
412,44.436800000000005,26.089166666666667,21,12,535ea121498e83e245ff84ca,Edo Sushi,44.439983,26.089853,Sushi Restaurant
413,44.436800000000005,26.089166666666667,21,13,55569560498e3f77c9e4efa3,palandÃ¶ken corba,44.4381103515625,26.088260650634766,Asian Restaurant
414,44.436800000000005,26.089166666666667,21,14,4ca5be5ed971b1f7aa06f9e0,Restaurant Libanez Tulin,44.43936776255577,26.086887038819413,Middle Eastern Restaurant
415,44.436800000000005,26.089166666666667,21,15,522322398bbd936a691783af,BÃ¶rek Salonu,44.438659720502045,26.09402596950531,Turkish Restaurant
416,44.436800000000005,26.089166666666667,21,16,566ffcf4498e3924a0f9031f,La Nea Mitica,44.43606606578021,26.094780900062275,Romanian Restaurant
417,44.436800000000005,26.089166666666667,21,17,517f9334e4b0822248c7a3e6,Campus Corner,44.4345817565918,26.08720588684082,American Restaurant
418,44.436800000000005,26.089166666666667,21,18,58317f729b615c4920d5ca8f,Osteria Romana,44.438164,26.087646,Italian Restaurant
419,44.436800000000005,26.089166666666667,21,19,5443a336498eb68f7c3f81b8,Restaurant M.A.I.,44.44009248072089,26.092568568132187,Romanian Restaurant
420,44.436800000000005,26.089166666666667,21,20,5f15dcc0978e663e91049ee5,Addagio,44.438355,26.087768,Italian Restaurant
421,44.436800000000005,26.1025,50,0,5cd33578fd9d73002ce4ba9e,Angelo Grasso,44.437664,26.103972,Italian Restaurant
422,44.436800000000005,26.1025,50,1,4db2d15d6a23c31a02f32f6b,Stadio,44.43719776859807,26.099244474946985,Italian Restaurant
423,44.436800000000005,26.1025,50,2,5c829cd667af3a002c0928f8,Treevi Pizza al Taglio,44.437996,26.102581,Pizza Place
424,44.436800000000005,26.1025,50,3,5d8e6862705b6d0008c41806,Dragomir Niculescu,44.438035,26.097295,Brasserie
425,44.436800000000005,26.1025,50,4,5082f1f3e4b0e5b15267ce91,La Mama,44.43499681851827,26.09974459835622,Romanian Restaurant
426,44.436800000000005,26.1025,50,5,4cd1404d5b5ca35d285480f0,Restaurant Batistei,44.438972145714864,26.10437705930829,Romanian Restaurant
427,44.436800000000005,26.1025,50,6,504642e3e4b0c56f09afa065,Amada,44.43559167679119,26.106922131812116,Mediterranean Restaurant
428,44.436800000000005,26.1025,50,7,4be04bad4f15c928c8a2ca0b,Argentin,44.432461919447995,26.10177865782156,Romanian Restaurant
429,44.436800000000005,26.1025,50,8,55096e86498ed7bed36a4740,La PlÄƒcinte,44.433538523021966,26.102930903434753,Pie Shop
430,44.436800000000005,26.1025,50,9,4e73d279b0fb968032770aa9,ColÈ›ea Kebab,44.433327,26.103596,Doner Restaurant
431,44.436800000000005,26.1025,50,10,5537761e498e04e73d5a5dce,Osteria Zucca,44.440034622859386,26.10479930737987,Italian Restaurant
432,44.436800000000005,26.1025,50,11,4c247fe6b7b8a5933f883ce8,Trattoria Bocca,44.44012260188563,26.10479101254251,Italian Restaurant
433,44.436800000000005,26.1025,50,12,506ae3bfe4b0ec7b6933285e,Palmier Shaworma,44.433998,26.107408,Eastern European Restaurant
434,44.436800000000005,26.1025,50,13,4b6c7f08f964a520c53e2ce3,Bellini,44.43423966109889,26.101828898200008,Italian Restaurant
435,44.436800000000005,26.1025,50,14,4c2338449a67a5935ca3dd87,Rossetya,44.43527321380534,26.10665678135818,Eastern European Restaurant
436,44.436800000000005,26.1025,50,15,4fc34da3e4b05c2ab9994b06,Libanez to go/take away,44.44098393280774,26.104692614002744,Middle Eastern Restaurant
437,44.436800000000005,26.1025,50,16,5217cb6211d2a6c153b6cad9,Hanul Negustorilor,44.434472032321295,26.0996121049474,Romanian Restaurant
438,44.436800000000005,26.1025,50,17,4db7de5d7aba7f8240dd2190,Rodon,44.43751448044696,26.105918884277344,Greek Restaurant
439,44.436800000000005,26.1025,50,18,4eee0264f790c40a8aab7632,Al Wady,44.44037922335967,26.10041994341529,Lebanese Restaurant
440,44.436800000000005,26.1025,50,19,51baffc6498e713d2944194d,Biomediterraneo Bistro & MarchÃ©,44.437730367797116,26.10039055209804,Mediterranean Restaurant
441,44.436800000000005,26.1025,50,20,4f0add99a17c067e500f66a3,Balkan Bistro,44.43708931872659,26.098086833953857,Eastern European Restaurant
442,44.436800000000005,26.1025,50,21,4be3e58efe299521eaa4966c,Concerto Fine Dining,44.4370165429869,26.098178029060364,French Restaurant
443,44.436800000000005,26.1025,50,22,4c77755c947ca1cd5d834737,Nana Natural Food,44.4370928457455,26.09705931117928,Eastern European Restaurant
444,44.436800000000005,26.1025,50,23,4d46f5be1ed56dcb9497cb54,Silk Panoramic Bar & Restaurant,44.43470360040419,26.102042489247502,Cocktail Bar
445,44.436800000000005,26.1025,50,24,58f730e0e1f0aa5e91692d54,La ColÈ›ea,44.434367247666515,26.105569854984655,Romanian Restaurant
446,44.436800000000005,26.1025,50,25,52ea164411d2cd4e5a7fdcde,Mc Moni's,44.436731,26.106615,Romanian Restaurant
447,44.436800000000005,26.1025,50,26,5641c7f7498e77e3e45e06aa,Restaurant Casa Petrus,44.43895847508567,26.107844710350037,Romanian Restaurant
448,44.436800000000005,26.1025,50,27,5270438d11d2db2dc3a14119,Subscena,44.432442,26.101812,African Restaurant
449,44.436800000000005,26.1025,50,28,52c8832d498ef93de2f24182,Restaurant È™i CramÄƒ â€La Rosettiâ€œ,44.441181,26.102195,Romanian Restaurant
450,44.436800000000005,26.1025,50,29,4de27efdd164df8574fc3b1b,Mezze,44.43790300207913,26.099076269907044,Mediterranean Restaurant
451,44.436800000000005,26.1025,50,30,4fe77808e4b03c981be0a28b,Bistro Silva,44.434689,26.106954,Eastern European Restaurant
452,44.436800000000005,26.1025,50,31,565776af498e846ddba9ffa7,Pasta Restaurant,44.433823565593386,26.09804197039792,Italian Restaurant
453,44.436800000000005,26.1025,50,32,507bf62ce4b03d49e5f9df93,Wienerwald,44.43926488845642,26.10001802444458,Fried Chicken Joint
454,44.436800000000005,26.1025,50,33,5523b398498ec153972c10e6,bistrot de l'academie,44.437877580242485,26.09853199514333,Romanian Restaurant
455,44.436800000000005,26.1025,50,34,4f9d0b68e5e8aa31b532ba6c,Corso Brasserie,44.437256722600544,26.10207059052201,Mediterranean Restaurant
456,44.436800000000005,26.1025,50,35,5be80db7b37e2b002c9193fe,ToÃ n's,44.433372,26.100721,Vietnamese Restaurant
457,44.436800000000005,26.1025,50,36,4e568302aeb7a82688042727,Persian cuisine,44.440193,26.105033,Middle Eastern Restaurant
458,44.436800000000005,26.1025,50,37,54b26201498ee334f9c4831a,Crama DunÄƒrea,44.43681,26.101364,Romanian Restaurant
459,44.436800000000005,26.1025,50,38,4e5a747e8877c8a76df2e494,Excalibur,44.43261921046303,26.10194391352617,Eastern European Restaurant
460,44.436800000000005,26.1025,50,39,56560493498edfd40a21d95f,Casa di Peroni,44.43578004937449,26.097927241837123,Italian Restaurant
461,44.436800000000005,26.1025,50,40,509bc616e4b0a49188977276,Pescarie Mediteraneana,44.43771100000001,26.0973669,Mediterranean Restaurant
462,44.436800000000005,26.1025,50,41,51c09ad8498e3452087c62f2,Tareasa Greceasca,44.435556,26.107109,Greek Restaurant
463,44.436800000000005,26.1025,50,42,55700d6e498eedc13c1c8646,Coana Mitza,44.43790597390856,26.1028168687605,Romanian Restaurant
464,44.436800000000005,26.1025,50,43,4da8888343a12d0c265419d4,Modigliani - pasta e carne Restaurant,44.43716063515634,26.102445920177004,Italian Restaurant
465,44.436800000000005,26.1025,50,44,59a3f583e96d0c5e5c29cff0,Restaurant Athos grecesc,44.432632,26.100186,Greek Restaurant
466,44.436800000000005,26.1025,50,45,4d6948d767a8f04d049e0bbe,Restaurant Pescarul,44.437100537618186,26.10119513333302,Seafood Restaurant
467,44.436800000000005,26.1025,50,46,5b83f27b97cf5a002c45f725,CÃ¢mpineanu,44.438633,26.104111,Romanian Restaurant
468,44.436800000000005,26.1025,50,47,4b9670fff964a52071cc34e3,Pizza Colosseum,44.43648364959026,26.098826670470267,Pizza Place
469,44.436800000000005,26.1025,50,48,5b9ff70f9ef8ef002c4e9a31,Mr. Ã‡igkÃ¶fte,44.437973,26.101372,Vegetarian / Vegan Restaurant
470,44.436800000000005,26.1025,50,49,550495c1498e40f36d0c33d7,Restaurant La Sarpe,44.433603,26.09967,Romanian Restaurant
471,44.436800000000005,26.11583333333333,27,0,4ccc559fba0a548164983c59,Burebista,44.439455379114115,26.11552467205839,Romanian Restaurant
472,44.436800000000005,26.11583333333333,27,1,5496e087498e91080c421759,Trattoria Roma,44.436926497301954,26.11397853007442,Italian Restaurant
473,44.436800000000005,26.11583333333333,27,2,509573ace4b076702cc24b24,Nonna Mia,44.43686,26.116878,Italian Restaurant
474,44.436800000000005,26.11583333333333,27,3,5d612f76e1e6440008771c7a,Borgo Margherita,44.433212,26.116299,Italian Restaurant
475,44.436800000000005,26.11583333333333,27,4,4c08d0eb1244b7131614a872,Xanadu,44.43626195450264,26.116923926700302,Mediterranean Restaurant
476,44.436800000000005,26.11583333333333,27,5,549870f8498e361ed60a984c,Tratoria D'oro,44.436374765385494,26.121378588183394,Italian Restaurant
477,44.436800000000005,26.11583333333333,27,6,4bbf6c6582a2ef3bbbc32cd2,Restaurant Lascar,44.43750603477732,26.116624955027486,Romanian Restaurant
478,44.436800000000005,26.11583333333333,27,7,59287ea816fa0415c7917ec0,La Han La Traian,44.433632,26.12011,Romanian Restaurant
479,44.436800000000005,26.11583333333333,27,8,4c7a3b2ba86837042b18134d,Restaurant CASA,44.43816948152605,26.112727493961064,Romanian Restaurant
480,44.436800000000005,26.11583333333333,27,9,4d693eaa30a7236adff372ac,Chong Qing,44.43820403661767,26.12067444108399,Chinese Restaurant
481,44.436800000000005,26.11583333333333,27,10,5306a998498ed80cc5b96a36,"Restaurant ""La CONAC""",44.43890951666082,26.121249917558888,Romanian Restaurant
482,44.436800000000005,26.11583333333333,27,11,4b9a9c67f964a5202fc635e3,Restaurant Etiquette,44.436001503485265,26.121411323547363,Eastern European Restaurant
483,44.436800000000005,26.11583333333333,27,12,578e5430498e51fe1770bc68,Food,44.43770982398397,26.117430925369263,French Restaurant
484,44.436800000000005,26.11583333333333,27,13,502d3c4ae4b00d67ed8e28dc,Neptunus Ristorante,44.4342670197764,26.116476686727292,Mediterranean Restaurant
485,44.436800000000005,26.11583333333333,27,14,513787a6e4b07b01b00eebcf,Restaurat Carol,44.43695444512326,26.109980379703202,Eastern European Restaurant
486,44.436800000000005,26.11583333333333,27,15,53dbbae8498ec60b091bf1ac,Garlic,44.436761,26.11408,Romanian Restaurant
487,44.436800000000005,26.11583333333333,27,16,54259578498edaf275bdb0ba,Epoca de Aur,44.436437,26.121244,Romanian Restaurant
488,44.436800000000005,26.11583333333333,27,17,4cf7a33a1cfea093e2d6e539,Restaurant Izvorul Rece,44.438005099420664,26.116677994229097,Eastern European Restaurant
489,44.436800000000005,26.11583333333333,27,18,5c5df74b1ffe97002cc396b3,Sushi Time,44.438468210350116,26.11649751663208,Sushi Restaurant
490,44.436800000000005,26.11583333333333,27,19,542f07a1498ec001c607c751,Bistro Guxt,44.437681097034194,26.117414832115173,Mediterranean Restaurant
491,44.436800000000005,26.11583333333333,27,20,523c750811d2984d1eb1d226,Kumar's Agra Palace,44.433340041292084,26.112029622706547,Indian Restaurant
492,44.436800000000005,26.11583333333333,27,21,549870e5498e887610ad1293,Tratoria D'oro,44.43708801269531,26.121543884277344,Italian Restaurant
493,44.436800000000005,26.11583333333333,27,22,4be86595d837c9b6f145a506,Louisenhof,44.4367235548898,26.119318467177017,German Restaurant
494,44.436800000000005,26.11583333333333,27,23,4f69d39ee4b0656e872dae6b,Cucina Di Michelle,44.437541,26.11352,Italian Restaurant
495,44.436800000000005,26.11583333333333,27,24,4bb4c2e2613fb713a82294e6,OraÈ™ul Interzis,44.440408934295576,26.112335163843397,Chinese Restaurant
496,44.436800000000005,26.11583333333333,27,25,5d5ee7f4af156d000876ea33,Zen Garden,44.440318,26.112188,Chinese Restaurant
497,44.436800000000005,26.11583333333333,27,26,525d8b0a498eee7d7cd978e9,Naser 2,44.43691677710248,26.109982195355173,Lebanese Restaurant
498,44.436800000000005,26.129166666666666,19,0,4be2a0eff07b0f4743c7f543,"Trattoria ""Il Calcio""",44.43316814573132,26.128144105237,Italian Restaurant
499,44.436800000000005,26.129166666666666,19,1,4b857dacf964a520516131e3,Casa Jienilor,44.43910220769126,26.129867487926326,Romanian Restaurant
500,44.436800000000005,26.129166666666666,19,2,55ce0774498ee6d37f6d1349,Belli Siciliani,44.44092936796204,26.128435663418323,Italian Restaurant
501,44.436800000000005,26.129166666666666,19,3,4b7813caf964a520c6b42ee3,Cuptorul cu Lemne,44.439836959970386,26.125213893352253,Pizza Place
502,44.436800000000005,26.129166666666666,19,4,4d5975869b302d43720e2434,Club Art Papillon,44.437236177323456,26.13008132102002,Romanian Restaurant
503,44.436800000000005,26.129166666666666,19,5,4c13e18c77cea59325a8cf60,Bistro HB,44.44112718382724,26.128306088978505,Italian Restaurant
504,44.436800000000005,26.129166666666666,19,6,59a03e67c0f1635ccf62f34f,NOUA BucÄƒtÄƒrie RomÃ¢neascÄƒ (NOUA bucÄƒtÄƒrie romÃ¢neascÄƒ),44.438205,26.123381,Romanian Restaurant
505,44.436800000000005,26.129166666666666,19,7,4eb12fc39a52c49f4cdfe2a8,Noodles Bar,44.4329027959922,26.130361764043876,Noodle House
506,44.436800000000005,26.129166666666666,19,8,4fa3fcd7e4b063f121083e35,Taverna La Zavat,44.43805949901314,26.12327990352948,Greek Restaurant
507,44.436800000000005,26.129166666666666,19,9,4e8c14f69adf4a7ef2f63078,Ristorante Pasha Caraibe,44.432853,26.126322,Italian Restaurant
508,44.436800000000005,26.129166666666666,19,10,545e7a8a498ecc555742b5ef,restaurant artezian,44.43707383237677,26.130474528665648,Afghan Restaurant
509,44.436800000000005,26.129166666666666,19,11,4dd9593b1f6ee1468351d054,Restaurant Casa NoastrÄƒ,44.43764780766388,26.129139575544762,Eastern European Restaurant
510,44.436800000000005,26.129166666666666,19,12,4d77b3be8963f04de339f037,La Birlic,44.44090554197306,26.131306951809595,Eastern European Restaurant
511,44.436800000000005,26.129166666666666,19,13,4f0c8456e4b02a8da673bbbf,Restaurant Iberico,44.43277193768589,26.13032285861616,Spanish Restaurant
512,44.436800000000005,26.129166666666666,19,14,523f33bd11d2076f28bdea2a,35 Bistro,44.43804804520016,26.132826137958617,Italian Restaurant
513,44.436800000000005,26.129166666666666,19,15,4f147866e4b09e58a40639d0,Trattoria Pascu,44.43294527830379,26.132335577726018,Italian Restaurant
514,44.436800000000005,26.129166666666666,19,16,4f16c0b5e4b03f4c04ed1906,Sandvis,44.44001007080078,26.127595901489258,Cajun / Creole Restaurant
515,44.436800000000005,26.129166666666666,19,17,554c889b498e50850e2cfa1f,La PopotÄƒ,44.440571474458,26.131544712224947,Romanian Restaurant
516,44.436800000000005,26.129166666666666,19,18,4fd4f5cfe4b098b082fc2812,cucina fresca,44.43243628791095,26.130161099571122,Italian Restaurant
517,44.436800000000005,26.1425,7,0,4bd4a20e6798ef3b410f628d,Da'Mask Caffe (Caffe DaMask),44.439173,26.140809,CafÃ©
518,44.436800000000005,26.1425,7,1,5873cde60a3d541770dff622,Santorini,44.43336836346328,26.138566386287817,Greek Restaurant
519,44.436800000000005,26.1425,7,2,4cd71b197da9a35d3a25f3b9,Perche No,44.433298374380854,26.1438387013383,Italian Restaurant
520,44.436800000000005,26.1425,7,3,59441408340a5849a8775616,San Torini,44.43351,26.138374,Greek Restaurant
521,44.436800000000005,26.1425,7,4,55732504498e17b86369936f,DuGeS,44.434366,26.137969,Romanian Restaurant
522,44.436800000000005,26.1425,7,5,4e61dda8fa76cd64cdfc7f37,Baclava shop,44.437088738614,26.136632617754984,Dessert Shop
523,44.436800000000005,26.1425,7,6,4cf6a1f6d3a8a1cdfc6ad243,Sushi,44.43864203111585,26.138317,Sushi Restaurant
524,44.436800000000005,26.155833333333334,12,0,4f16fa3ee4b019e996aa7718,Socului Kebap,44.433670611949935,26.154155146589307,Fast Food Restaurant
525,44.436800000000005,26.155833333333334,12,1,4dd7b2e4ae60680f150c8c85,Restaurant Sabatini,44.43355092647428,26.155412951729925,Italian Restaurant
526,44.436800000000005,26.155833333333334,12,2,4e7644e18998ed82a505ae7c,Terasa Monica,44.434021,26.160605,Eastern European Restaurant
527,44.436800000000005,26.155833333333334,12,3,556f4db0498e8f2078599b7a,Taverna Fierarilor,44.433920969226314,26.16044905980078,Romanian Restaurant
528,44.436800000000005,26.155833333333334,12,4,5001e7a8e4b05e79b0cc604b,RWP Pub,44.43459330954853,26.156848350730662,South American Restaurant
529,44.436800000000005,26.155833333333334,12,5,597bb3393b830715fc5a95fa,Santorini Gyros,44.433468,26.1527,Greek Restaurant
530,44.436800000000005,26.155833333333334,12,6,59c7a2d314994611ed518124,Trattoria Buongiorno Arena,44.433783,26.153842,Italian Restaurant
531,44.436800000000005,26.155833333333334,12,7,4fab89b3e4b024d200704adb,la parjolute,44.43375778198242,26.151626586914062,Eastern European Restaurant
532,44.436800000000005,26.155833333333334,12,8,4e552d687d8b96cd06168929,Arena,44.43383550826982,26.153593535749337,Eastern European Restaurant
533,44.436800000000005,26.155833333333334,12,9,4dd2cfa21f6e1eb5a59916f4,Shef Sante,44.43337685368008,26.153226364098924,Italian Restaurant
534,44.436800000000005,26.155833333333334,12,10,4e15b3eba809f31f66a8a05e,La Bulgaru,44.436455563492736,26.158593719421688,Eastern European Restaurant
535,44.436800000000005,26.155833333333334,12,11,4ba27736f964a5206ffb37e3,Casa Diham,44.43445127439163,26.16034124958941,Romanian Restaurant
536,44.436800000000005,26.169166666666666,3,0,4dde35cb1f6e0369473d7b8f,Restaurant Est,44.439846430186705,26.167596442511897,Eastern European Restaurant
537,44.436800000000005,26.169166666666666,3,1,527a82f9498e15a930e7e4f5,Kashima,44.43887991978904,26.173885694835036,Indian Restaurant
538,44.436800000000005,26.169166666666666,3,2,4fd9e2fae4b04a33846ebddc,Laboratorul Bucate pe Roate,44.43483037755586,26.165823340415955,Eastern European Restaurant
539,44.436800000000005,26.1825,7,0,5f22a830d61fc2048922d126,Restaurant Gratar,44.434566,26.185684,Romanian Restaurant
540,44.436800000000005,26.1825,7,1,550ab88f498ef718e669d284,Republica Kebab,44.43429601385965,26.183685038846587,Eastern European Restaurant
541,44.436800000000005,26.1825,7,2,513b340be4b0e5f9d93b59d9,Toni's,44.433323,26.182291,Romanian Restaurant
542,44.436800000000005,26.1825,7,3,55489e44498e5a453a6b37a8,Sarai Kebap,44.43811452081952,26.18561820955513,Turkish Restaurant
543,44.436800000000005,26.1825,7,4,53d91910498ed7845389f3d1,American Ballroom,44.43271921553432,26.179900768799545,Modern European Restaurant
544,44.436800000000005,26.1825,7,5,5f22a74d3a53b2468dc2d50d,Restaurant Gratar,44.43466,26.185549,Romanian Restaurant
545,44.436800000000005,26.1825,7,6,56ec4fca498e574e067159af,Sultan Kebab,44.437936343526054,26.18634300469292,Turkish Restaurant
546,44.436800000000005,26.2225,1,0,4eb406b777c897273669657e,"Trattoria ""La Strada""",44.44008545425725,26.218274554715542,Italian Restaurant
547,44.4468,25.982499999999998,1,0,5ba61bea6336be0039a46778,Fu Long,44.448451,25.981619,Asian Restaurant
548,44.4468,26.035833333333333,2,0,4c6990071a6620a1fce4638c,McDonald's,44.44436015729356,26.03653625540971,Burger Joint
549,44.4468,26.035833333333333,2,1,4ef5d21e9911b01dda345b9e,Restaurant Cerbul,44.44582083424564,26.03823473364869,American Restaurant
550,44.4468,26.049166666666665,5,0,4be69537bcef2d7f2f4805e5,Trattoria 20,44.44537233447951,26.054474840100628,Italian Restaurant
551,44.4468,26.049166666666665,5,1,533d43c5498e244ddfe3efb0,Snitel urias,44.444175720214844,26.050321578979492,Romanian Restaurant
552,44.4468,26.049166666666665,5,2,542c4a28498e9d40385a3ea1,Trattoria,44.44521892595932,26.05446250832904,Italian Restaurant
553,44.4468,26.049166666666665,5,3,4e8f39bd2c5b7295bb5aea57,Shaorma Regie,44.445403115910025,26.053273340642292,Middle Eastern Restaurant
554,44.4468,26.049166666666665,5,4,52a4dbc311d2b4163fcb095b,La Ã®nÄƒlÈ›imeğŸ˜±,44.44756284021441,26.05120502288657,French Restaurant
555,44.4468,26.0625,12,0,4e0c77e4e4cdc8c1cde8e6f7,Azzurro Pizza,44.44526558886926,26.062530279211416,Pizza Place
556,44.4468,26.0625,12,1,527cfee9498e8cfd4888fb5e,Tortilla Express,44.4487879006606,26.0668247659002,Mexican Restaurant
557,44.4468,26.0625,12,2,574b50cb498e644b6741b268,La Mia Musica Ristorante,44.445637,26.059526,Italian Restaurant
558,44.4468,26.0625,12,3,4d2655b36e27a1431b2f0424,Blida,44.44306428075228,26.062488555908203,Middle Eastern Restaurant
559,44.4468,26.0625,12,4,52af4a53498eba412adcc2a2,La Mia Musica,44.44557755684878,26.05986587486651,Italian Restaurant
560,44.4468,26.0625,12,5,52224210498e69ee4881bc12,Princess Ballroom,44.4452953774735,26.058578490851037,Swiss Restaurant
561,44.4468,26.0625,12,6,515ea30ae4b0ef09639e2e7f,Chopstix,44.44538406693485,26.062563661753853,Asian Restaurant
562,44.4468,26.0625,12,7,532fe45e498e6f7a12121ee8,Siegfried Privatbrauerei,44.446884523444915,26.060506119161026,German Restaurant
563,44.4468,26.0625,12,8,4e63f91c1838ad3d0f78ed5a,Baboulos Kebab,44.44367712129485,26.059586105117575,Fast Food Restaurant
564,44.4468,26.0625,12,9,5b98e3729b0473002cfb30ec,Spartan,44.44513,26.062857,Doner Restaurant
565,44.4468,26.0625,12,10,535e1ead498e1db61ffcaf8d,Restaurant Barmi,44.449474837892495,26.06519515265443,Romanian Restaurant
566,44.4468,26.0625,12,11,4bc99b68937ca5935605a692,La Mama,44.44517023945778,26.06252346887746,Romanian Restaurant
567,44.4468,26.075833333333332,13,0,5f53ae62b511c83bbf4a5b1c,Hala Mahala,44.445274,26.081068,American Restaurant
568,44.4468,26.075833333333332,13,1,4bc9d472b6c49c74d6068f91,La HalealÄƒ,44.448368034176035,26.076771338307395,Middle Eastern Restaurant
569,44.4468,26.075833333333332,13,2,4f4ca8c7e4b0629e79915f7d,Sushi,44.45041710033756,26.07928838959831,Sushi Restaurant
570,44.4468,26.075833333333332,13,3,547da4af498e02f12dee9832,Bicicleta bio,44.44794761952234,26.081910870925014,Indian Chinese Restaurant
571,44.4468,26.075833333333332,13,4,5d279a4fa8da67002dbc5cf0,PÄƒ Gang,44.445447,26.079768,Romanian Restaurant
572,44.4468,26.075833333333332,13,5,50f562f7e4b08fd107a67dcf,IBM Cafeteria,44.447830847797846,26.0818470135885,American Restaurant
573,44.4468,26.075833333333332,13,6,5c19163d56c89f002cf3c4c2,Blessing Asian Food,44.444637,26.078333,Asian Restaurant
574,44.4468,26.075833333333332,13,7,5d895efe85aecf000880c94b,Shaormeria BNC,44.447959,26.075185,Shawarma Place
575,44.4468,26.075833333333332,13,8,4db081ab90a09a9a85312fb1,La botu' calului,44.45099931120696,26.075711846351624,Fast Food Restaurant
576,44.4468,26.075833333333332,13,9,515bf935e4b0e97c4c31d94c,Bucataria LTN,44.44622,26.081407,Chinese Restaurant
577,44.4468,26.075833333333332,13,10,4e5fbcfd52b16adb6c1d5bfa,Restaurant Arpege (la Hotel Elizeu),44.447662353515625,26.070764541625977,Eastern European Restaurant
578,44.4468,26.075833333333332,13,11,4daf0ebdfc6063dbfa8666f5,Bavaria,44.450884429460444,26.075245141983032,German Restaurant
579,44.4468,26.075833333333332,13,12,4e7790d381dc463907b0c49a,Cafe Fresca,44.45096484670674,26.075674295425415,Fast Food Restaurant
580,44.4468,26.089166666666667,25,0,4c96633894a0236ad0839e12,Restaurant Thalia,44.4492727307564,26.08419904033997,Italian Restaurant
581,44.4468,26.089166666666667,25,1,5d075f43bb8d36002cc5b8d5,CoclintÄƒ Brasserie,44.450396,26.087014,Romanian Restaurant
582,44.4468,26.089166666666667,25,2,5a64d0fcf8cbd43a19c6a01a,Pizza Mania,44.45097716358716,26.088501742251815,Italian Restaurant
583,44.4468,26.089166666666667,25,3,58bedba6a36ecd71ecdae0c3,Galli,44.44456,26.094322,French Restaurant
584,44.4468,26.089166666666667,25,4,577b932bcd102e638c7dd98e,PengYou,44.447882,26.083622,Chinese Restaurant
585,44.4468,26.089166666666667,25,5,4ca22096d3c2b60ce887ebbc,Old Kitchen,44.44618684211667,26.084501873259125,Romanian Restaurant
586,44.4468,26.089166666666667,25,6,51963998498e00c7125df4a5,Voila - Le Bistrot,44.44323696174812,26.08982386939122,French Restaurant
587,44.4468,26.089166666666667,25,7,4d5c218dff226a31cae47469,Bella Venezia Restaurant,44.44748773333333,26.0840642,Italian Restaurant
588,44.4468,26.089166666666667,25,8,4f2e77f9754a04896be27c26,Buon Cibo,44.44672147814124,26.09438258170462,Italian Restaurant
589,44.4468,26.089166666666667,25,9,516540d5e4b08d483294fb53,Victoria Cafe,44.44545337043623,26.09128520378057,CafÃ©
590,44.4468,26.089166666666667,25,10,4cc6cc1ab2beb1f783492a4c,La Cantine de Nicolai,44.44954848418933,26.09244287554147,French Restaurant
591,44.4468,26.089166666666667,25,11,4e0dd024d164fff335a493dc,Red Onion,44.45083628672066,26.09071112897859,Eastern European Restaurant
592,44.4468,26.089166666666667,25,12,523c82d611d20265fc740a75,La PlÄƒcinte,44.44666212421221,26.09544579984491,Pie Shop
593,44.4468,26.089166666666667,25,13,5a74aa76c4df1d3b10a17d38,Restaurant Kos,44.450714,26.086227,Greek Restaurant
594,44.4468,26.089166666666667,25,14,53d0fb91498e89458e2b9405,Ristorante Grazie,44.448033,26.083221,Italian Restaurant
595,44.4468,26.089166666666667,25,15,4c3c3b747f49c9b6888f6be3,Cosmopolitan Downtown,44.446689,26.094218,Italian Restaurant
596,44.4468,26.089166666666667,25,16,515a77b9e4b0296b5846cfb0,restaurant levor,44.44773699250644,26.089472643787367,French Restaurant
597,44.4468,26.089166666666667,25,17,50b1243de4b045752bc93d03,Tirebouchon,44.44904982999682,26.09246467443596,French Restaurant
598,44.4468,26.089166666666667,25,18,4d138923d1848cfadfc7c471,La Dolce Vita,44.4472489036217,26.086411405014776,Italian Restaurant
599,44.4468,26.089166666666667,25,19,4c10d3a7b93cc9b64c4557e0,Restaurant Hong Kong,44.445375317459764,26.08407778627725,Chinese Restaurant
600,44.4468,26.089166666666667,25,20,4b9d15c6f964a5203b8e36e3,Nan Jing,44.44952977948199,26.091463062738598,Chinese Restaurant
601,44.4468,26.089166666666667,25,21,5517ceba498ead17c7f453da,Restaurant Domeniile Samburesti,44.44928,26.084029,Eastern European Restaurant
602,44.4468,26.089166666666667,25,22,56a3dd74498e9d4030405627,Chabad House,44.44654861927358,26.094149931184408,Kosher Restaurant
603,44.4468,26.089166666666667,25,23,51c087d9498e3b4dd2a9e8fc,Boema 33,44.446718,26.09524,Eastern European Restaurant
604,44.4468,26.089166666666667,25,24,506f1edfe4b04a8a46c93125,The Artist Restaurant,44.449672413267166,26.087966859340668,Romanian Restaurant
605,44.4468,26.1025,40,0,4b6c66f0f964a52014372ce3,Embassy,44.44542239244092,26.099204851439158,Mediterranean Restaurant
606,44.4468,26.1025,40,1,5411ac69498e6ec0ab59691e,La PlÄƒcinte,44.4447498424725,26.098096101328476,Pie Shop
607,44.4468,26.1025,40,2,4e341d897d8b6946c1f5bb06,Torna Fratre,44.44975587087335,26.106951035385737,Eastern European Restaurant
608,44.4468,26.1025,40,3,4d39e993bf6d54817bedc7e1,Home Cafe,44.44280565117211,26.102150406697845,CafÃ©
609,44.4468,26.1025,40,4,53a9a4de498e3fb31bbdd7ef,Trattoria Romana,44.44488234624577,26.099172334234026,Italian Restaurant
610,44.4468,26.1025,40,5,55e58fbf498e88af48c684b8,Osteria Ciao Niki,44.44790661549942,26.104930673761363,Italian Restaurant
611,44.4468,26.1025,40,6,4c5b2d89b014ef3b5f711c97,Restaurant Gargantua,44.443026,26.10444,Mediterranean Restaurant
612,44.4468,26.1025,40,7,5a522c79772fbc5e9fbf675e,Maison des CrÃªpes RomanÄƒ,44.447150824525906,26.100735245757416,Creperie
613,44.4468,26.1025,40,8,58d53f6c92ca4c5b4f61cab7,Trattoria Mezzaluna,44.450404,26.098921,Italian Restaurant
614,44.4468,26.1025,40,9,592c46c75455b230d39225b6,Portobello,44.45023,26.102107,Italian Restaurant
615,44.4468,26.1025,40,10,4d760b9abd7354810abc0fb3,Benihana,44.446277130555764,26.09930174342723,Japanese Restaurant
616,44.4468,26.1025,40,11,5363f3c3498e84d5095b338b,Ca la Mama Acasa,44.4447021484375,26.096939086914062,Romanian Restaurant
617,44.4468,26.1025,40,12,4dc82c8818387d1bd5811b55,Delfin Placintarie Turcesc,44.446697,26.099241,Turkish Restaurant
618,44.4468,26.1025,40,13,5300a03c498e19603ad04901,Food Factory Mon cher,44.448018599208375,26.099469722963164,American Restaurant
619,44.4468,26.1025,40,14,4b632a7ff964a520b6672ae3,Mon Cher,44.448109966657675,26.09961837530136,Bistro
620,44.4468,26.1025,40,15,58a370399ab6630ebc766b45,Arkuda Taverna,44.447033,26.100708,Greek Restaurant
621,44.4468,26.1025,40,16,58d53ff6326c5a4a01bcd529,Mezzaluna di Laura,44.450405,26.099034,Italian Restaurant
622,44.4468,26.1025,40,17,4d4516fc1ed56dcb8499b754,SOTOS GYROS,44.44797842304021,26.106912180633827,Greek Restaurant
623,44.4468,26.1025,40,18,5284bb5511d229f88b2db6a9,Alta Marea,44.44498195694823,26.098936467374894,Italian Restaurant
624,44.4468,26.1025,40,19,535ceb7f498e51ccd227f349,Fazz's,44.447212,26.100644,Indian Restaurant
625,44.4468,26.1025,40,20,50a683b8e4b06baebe31654e,Siam,44.44693636904611,26.09740124527011,Thai Restaurant
626,44.4468,26.1025,40,21,54305056498e1eab1cea0c53,Casa Oamenilor de Stiinta,44.444942,26.098808,Eastern European Restaurant
627,44.4468,26.1025,40,22,558455b6498e24a49f2d2b8c,villa romana,44.448475,26.096774,Italian Restaurant
628,44.4468,26.1025,40,23,51597d51e4b03e8df7f09e6f,Da Lorenzo,44.447092,26.100749,Italian Restaurant
629,44.4468,26.1025,40,24,4ecf653299114b4886ea614f,Ferrari Caffe,44.44511425746205,26.100597073178662,Australian Restaurant
630,44.4468,26.1025,40,25,5026e981e4b08c739ba4c732,Cantina saracilor Balta Alba,44.4468314,26.0964273,Chinese Restaurant
631,44.4468,26.1025,40,26,4ea19bc077c8d0ce5d94aca7,Mek Oriental Lounge,44.44860972434744,26.107120513916016,Middle Eastern Restaurant
632,44.4468,26.1025,40,27,4d39bd80325ff04dd85f1545,Il Peperoncino,44.445437,26.101149,Italian Restaurant
633,44.4468,26.1025,40,28,56a4923c498e0170b9de99dd,Heritage,44.445002,26.103556,French Restaurant
634,44.4468,26.1025,40,29,4c8688e02f1c236ab0175e43,Trattoria Roma,44.4479962201043,26.10696088020158,Italian Restaurant
635,44.4468,26.1025,40,30,508888ac498eeaf8ab057c97,Repertorium Gourmet Restaurant,44.44271568356795,26.101469737124567,Eastern European Restaurant
636,44.4468,26.1025,40,31,542d85d6498e27ad97457fcb,Divan Express,44.44692221216456,26.09773825273435,Doner Restaurant
637,44.4468,26.1025,40,32,5ca75997f193c0002c5ce915,Artemis,44.448025,26.105332,Greek Restaurant
638,44.4468,26.1025,40,33,4c4338a93735be9ada191ba4,La Calderon 80,44.443993402859284,26.104357492225027,Eastern European Restaurant
639,44.4468,26.1025,40,34,50f53fbae4b080297777a1c9,Restaurant La Massa,44.447368,26.106231,Eastern European Restaurant
640,44.4468,26.1025,40,35,559d70ae498ef4e9145c4879,Il Villagio,44.44379043293934,26.103399942156425,Italian Restaurant
641,44.4468,26.1025,40,36,4fba3bc0e4b0cd033405ab4f,"Trattoria ""Don Antonio""",44.44701669809473,26.100610530166822,Italian Restaurant
642,44.4468,26.1025,40,37,566c2018498ed2e93af6fa72,Ozosep TÃ¢rg Gastro-Cultural,44.4431246390694,26.0995841281143,Hungarian Restaurant
643,44.4468,26.1025,40,38,558ea39b498e96eb52001e6b,Restaurant Barcelona,44.447882,26.107239,Spanish Restaurant
644,44.4468,26.1025,40,39,51f6a8cf498e8fc2d4e43ff6,Emre Baklava,44.44333211921722,26.098494187706187,Turkish Restaurant
645,44.4468,26.11583333333333,36,0,5b12e5e4588e36002c962f80,Suento by Gram,44.44717525143827,26.115478922506977,Modern European Restaurant
646,44.4468,26.11583333333333,36,1,54eb216b498e86b4ef4dc67e,Fatafit,44.44503,26.120274,Lebanese Restaurant
647,44.4468,26.11583333333333,36,2,4c583ca5cc96c9b6a3b57a2e,Templul Soarelui,44.44646676127757,26.114831035993635,Chinese Restaurant
648,44.4468,26.11583333333333,36,3,585987e9d8b0ed132a812522,Bonoro,44.44605,26.115316,Italian Restaurant
649,44.4468,26.11583333333333,36,4,4fb3ae65e4b0643f9b7bd0bb,Amore Trattoria,44.44660452395272,26.114969013659433,Italian Restaurant
650,44.4468,26.11583333333333,36,5,51543faee4b092fc54e00397,Restaurant Odobesti,44.44479628615673,26.115429661970946,Eastern European Restaurant
651,44.4468,26.11583333333333,36,6,5497fbba498eb35d95381932,Symphony - Romanian Fusion Restaurant,44.44649712569881,26.11385955300987,Romanian Restaurant
652,44.4468,26.11583333333333,36,7,4b8bd7aff964a5202aae32e3,Trattoria Il Saraceno,44.44653185779249,26.115047055464476,Italian Restaurant
653,44.4468,26.11583333333333,36,8,55017cb9498ee31c16db34f5,Restaurant Casa Fluturilor,44.444943,26.115622,Modern European Restaurant
654,44.4468,26.11583333333333,36,9,4eeb6907a69dd7c5b4da8543,Trattoria Ristorante â€œBella Notteâ€œ,44.44523456712611,26.11153964587272,Italian Restaurant
655,44.4468,26.11583333333333,36,10,4c91178c2626a1cd16532f6b,Discret,44.44691913618949,26.11095592143624,Greek Restaurant
656,44.4468,26.11583333333333,36,11,4daf0c0bfc6063dbfa865885,Bolivar,44.4437613198538,26.11321449279785,South American Restaurant
657,44.4468,26.11583333333333,36,12,542bd7f5498e49233960cc09,Old House No. 10,44.44475765034513,26.118865128956873,Romanian Restaurant
658,44.4468,26.11583333333333,36,13,4bed9df0e3562d7fd74afff8,Habibi,44.444935,26.110844,Middle Eastern Restaurant
659,44.4468,26.11583333333333,36,14,569bd270498e9972e055d888,GAMA FUSION,44.444702,26.115473,Eastern European Restaurant
660,44.4468,26.11583333333333,36,15,4ffea1cbe4b0d8fae14a7d68,authentic GRILL,44.44555,26.110404,Argentinian Restaurant
661,44.4468,26.11583333333333,36,16,518f8e97498ecd7fee2480d0,Il Destino,44.44324436257645,26.11520775286382,Italian Restaurant
662,44.4468,26.11583333333333,36,17,57dabfed498e36f0a24af49e,Cucina da Pietro,44.444829765058074,26.119171679019928,Italian Restaurant
663,44.4468,26.11583333333333,36,18,4d760236004b3704dc61fc93,Casa Cristian Restaurant,44.445583,26.110999,Eastern European Restaurant
664,44.4468,26.11583333333333,36,19,58af1c0a964d780b386115b0,Pizzeria da Michele,44.44891,26.11618,Italian Restaurant
665,44.4468,26.11583333333333,36,20,5040f088e4b00a5803edfc3a,Luna Cafe & Bistro,44.443756781158335,26.11178099308123,CafÃ©
666,44.4468,26.11583333333333,36,21,4c6c5b4569b4ef3b56b24c4e,Sis Kebab,44.44474372774751,26.115303075295824,Middle Eastern Restaurant
667,44.4468,26.11583333333333,36,22,504788dbe4b03314a4688c7b,Restaurant D&D,44.44500638888888,26.11565122862047,Mexican Restaurant
668,44.4468,26.11583333333333,36,23,5247007511d2f933a80ce8b8,Fleur De Lys,44.448791,26.11084,Eastern European Restaurant
669,44.4468,26.11583333333333,36,24,4bb08780f964a520ff493ce3,El Vino,44.4460055760663,26.115145683288574,Tapas Restaurant
670,44.4468,26.11583333333333,36,25,4bf12f09b315c9b631af93ff,China Town,44.44774299046649,26.114662036277455,Chinese Restaurant
671,44.4468,26.11583333333333,36,26,55313b22498ef7e26741709e,Egesta,44.443975,26.111061,Mediterranean Restaurant
672,44.4468,26.11583333333333,36,27,556a0381498e26c04a2e75e5,Indian Courtyard,44.44851294729453,26.114777093056695,Indian Restaurant
673,44.4468,26.11583333333333,36,28,4c0e0f15b1b676b07571e186,damatti,44.444315540000005,26.119914819999998,Italian Restaurant
674,44.4468,26.11583333333333,36,29,4d2f33f194013704a32eedda,Zexe Zahana,44.44859686097915,26.110806738284882,Romanian Restaurant
675,44.4468,26.11583333333333,36,30,59ce8dd34aa3f839f8689176,Blue Margarita,44.446508,26.113826,Mexican Restaurant
676,44.4468,26.11583333333333,36,31,4d90c8a9d265236a5b8c3d17,Il Toscanino,44.44845,26.110244,Italian Restaurant
677,44.4468,26.11583333333333,36,32,4ec500d80aaf9233ed9f9520,SK Restaurant,44.44480421532637,26.115530554491258,Moroccan Restaurant
678,44.4468,26.11583333333333,36,33,4f5b508ce4b05cd7692ee2a5,Trattoria di Venezia,44.448606,26.110136,Italian Restaurant
679,44.4468,26.11583333333333,36,34,4ed92477775bcc53f900dbf6,Restaurant Varr,44.44339984897456,26.11508941706279,Eastern European Restaurant
680,44.4468,26.11583333333333,36,35,4d72335fd976236ad79b0279,Haveli,44.444909529408086,26.11776173905182,Indian Restaurant
681,44.4468,26.129166666666666,14,0,4c2d007ce307d13a6a130dda,Iskender Kebap,44.44394354428642,26.1289272413934,Middle Eastern Restaurant
682,44.4468,26.129166666666666,14,1,4f9941a3e4b05cf26c139646,Covrigarie Mosilor,44.44879471968696,26.124781061125592,Bakery
683,44.4468,26.129166666666666,14,2,52f3616e498e85fd6402d78b,Art Food,44.44660892828369,26.131594817597858,Romanian Restaurant
684,44.4468,26.129166666666666,14,3,5d27578b69ee000023b93ed3,La Teu,44.44607,26.124786,Tapas Restaurant
685,44.4468,26.129166666666666,14,4,502e213ae4b0836214ddb385,paradise shirin,44.447302377333905,26.123417254776932,Turkish Restaurant
686,44.4468,26.129166666666666,14,5,4de1154318380dc4dd3f93d0,Caramel Restaurant - Pizzarie,44.4491893994618,26.123871651964404,Pizza Place
687,44.4468,26.129166666666666,14,6,55eda609498ed46db937c33c,Hanul Negustorilor,44.4460711206425,26.134847383408562,Romanian Restaurant
688,44.4468,26.129166666666666,14,7,4d5d39ea9895b1f7fbd3ed0f,Pizzeria David Obor,44.449865767033266,26.126953106044198,Italian Restaurant
689,44.4468,26.129166666666666,14,8,5784bcb8498e0c74bdc5a7c6,Chinese Food,44.44983,26.12888,Chinese Restaurant
690,44.4468,26.129166666666666,14,9,4dbdcc6e34dc0fa63f2a9e40,BunDeTot,44.448579087983745,26.12425446510315,Pizza Place
691,44.4468,26.129166666666666,14,10,528269b4498e0679eba3316f,Zafran Kebab,44.447475,26.123263,American Restaurant
692,44.4468,26.129166666666666,14,11,4b7991e8f964a52028022fe3,Bistro Caffe Tabiet,44.44505424732465,26.13128522178425,Bistro
693,44.4468,26.129166666666666,14,12,548abfc2498e796e10f46e8a,Buono,44.44828229737854,26.12519323825836,Fast Food Restaurant
694,44.4468,26.129166666666666,14,13,50475774e4b09309f7199c6d,Peking Duck,44.44516007866307,26.12709111794768,Chinese Restaurant
695,44.4468,26.1425,4,0,4c8a56c62e333704da9fc241,I'Ladrino,44.44238638309952,26.14193558692932,Italian Restaurant
696,44.4468,26.1425,4,1,4eafca3a49010398c8b35c06,La Turcu,44.4467389619218,26.143638789653778,Fast Food Restaurant
697,44.4468,26.1425,4,2,54f875d4498e9f2bbf497e07,Serai Kebab,44.44495186676433,26.137160331533263,Middle Eastern Restaurant
698,44.4468,26.1425,4,3,4cc951eab127bfb76f34aa31,Jin Ding,44.44836463298791,26.147031784057617,Chinese Restaurant
699,44.4468,26.155833333333334,7,0,54218c26498e0790439a1050,Dristor Doner,44.44305297585942,26.155606006576864,Doner Restaurant
700,44.4468,26.155833333333334,7,1,523af66111d23b3117573586,BBQ Kebab,44.44308304998671,26.15540006887374,Turkish Restaurant
701,44.4468,26.155833333333334,7,2,4c4b15fc9e6dbe9a66d5850b,Acapulco,44.44600280083213,26.157032394356364,Eastern European Restaurant
702,44.4468,26.155833333333334,7,3,5288a1fc11d2eaeafd24d8a5,Bbq And Grill,44.443145756005265,26.155662028039924,Turkish Restaurant
703,44.4468,26.155833333333334,7,4,5224eb6411d253816143d038,Genin,44.44298977367785,26.157127044160692,Fast Food Restaurant
704,44.4468,26.155833333333334,7,5,53246f6c498e24615243a6ad,Firenze Restaurant,44.448158264160156,26.160062789916992,Italian Restaurant
705,44.4468,26.155833333333334,7,6,4e1455e27d8b4c0d630d5325,Ramsis,44.443309394351445,26.156880855560303,Middle Eastern Restaurant
706,44.4468,26.169166666666666,1,0,5dd0f33bc757430007e4574a,Restaurant cu specific chinezesc,44.444044,26.166026,Chinese Restaurant
707,44.4468,26.1825,1,0,513f81a9e4b0bb156ebf7a52,Doner King Kebab,44.443335564438605,26.183903903691924,Turkish Restaurant
708,44.4468,26.20916666666667,2,0,4e4e7167ae6051db8dbcfb04,Restaurant Teo's,44.448314914311524,26.210469655362942,Italian Restaurant
709,44.4468,26.20916666666667,2,1,53af1293498e09297473552d,salon venetian,44.44707097961026,26.214663453414122,Romanian Restaurant
710,44.4568,26.009166666666665,1,0,54492b8b498e175d6fe8a9fb,Al 9lea Cer,44.45299961504975,26.010353501775803,Romanian Restaurant
711,44.4568,26.049166666666665,8,0,4bfeb06005672d7fbd880a04,Restaurant Potcoava,44.45650637228619,26.05470564789976,Romanian Restaurant
712,44.4568,26.049166666666665,8,1,4d655bb6801854818bfd5468,Le Parisien,44.45260602244394,26.04961574988634,French Restaurant
713,44.4568,26.049166666666665,8,2,55b8ab4d498e590946acd29f,Restaurant Rapid,44.456336975097656,26.055431365966797,American Restaurant
714,44.4568,26.049166666666665,8,3,534d3b3b498e5465756057e8,BucatarieâœŒ,44.454010009765625,26.053848266601562,Romanian Restaurant
715,44.4568,26.049166666666665,8,4,507796d1e4b0eb8b8297d3cc,S.C.Ada Pan import export.S.R.L,44.45656233458314,26.054710242260132,Turkish Restaurant
716,44.4568,26.049166666666665,8,5,52c2d014498e79ee50c2f8cb,El Marianos(el grecos),44.455923123140174,26.050020321417332,Greek Restaurant
717,44.4568,26.049166666666665,8,6,58d04930e309e12fbd7dc15d,Verbun Shaorma,44.45343,26.045967,Turkish Restaurant
718,44.4568,26.049166666666665,8,7,4ebed1db775b98876e43bc33,La NaÈ™u',44.45300429101469,26.050290610767004,Eastern European Restaurant
719,44.4568,26.0625,3,0,4f567f51e4b03aa91d1884d3,Sushi,44.453935180687566,26.064434887506682,Sushi Restaurant
720,44.4568,26.0625,3,1,503d0568e4b018a97e79ddde,Wu Xing,44.4533283180512,26.06519097301616,Chinese Restaurant
721,44.4568,26.0625,3,2,4f5dee8ce4b053fd69f32921,La Taverna Grant,44.45668611861988,26.06379338896974,American Restaurant
722,44.4568,26.075833333333332,17,0,4c3370e416adc92866a0c39c,Shaorma Orient,44.45831892067057,26.077610384114084,Middle Eastern Restaurant
723,44.4568,26.075833333333332,17,1,4bc60b56b387d13a4a32c1e8,Ristorante Il Calcio,44.45985756378507,26.07776268025533,Italian Restaurant
724,44.4568,26.075833333333332,17,2,4bd01e8db221c9b60a1dd3d0,Piccolo Mondo,44.459956134309515,26.077662064470058,Middle Eastern Restaurant
725,44.4568,26.075833333333332,17,3,5817699e38faa541c8baa804,Gastronomika,44.458004,26.074718,Romanian Restaurant
726,44.4568,26.075833333333332,17,4,57fcff7c498ebaa84540504b,Quesadilla Mexican Food,44.453625,26.07478,Mexican Restaurant
727,44.4568,26.075833333333332,17,5,4f5f7fdee4b00373719e0050,Pasta Box,44.458834,26.078115,American Restaurant
728,44.4568,26.075833333333332,17,6,4f6735ece4b04103a020f069,Zapata Cafe Bar,44.45543,26.080929,Mexican Restaurant
729,44.4568,26.075833333333332,17,7,5295d28e11d280101cb37a96,Casa Mihalache,44.45554896946626,26.08067580203847,Romanian Restaurant
730,44.4568,26.075833333333332,17,8,592bf7cba0215b391773f041,Fior D'italia,44.455142,26.081259,Cafeteria
731,44.4568,26.075833333333332,17,9,4f53c61ce4b002a743bfd115,Yangjing,44.45801328323422,26.070664368670798,Chinese Restaurant
732,44.4568,26.075833333333332,17,10,5188da05498eb6d95f75dd7b,Restaurant Irisa,44.45566940307617,26.078731536865234,Eastern European Restaurant
733,44.4568,26.075833333333332,17,11,4d9307817ac3a35ddb86cc25,Oliviers,44.46062074813948,26.07734139047657,Mediterranean Restaurant
734,44.4568,26.075833333333332,17,12,57ce8ccd498eb312cf0866e7,DineÈ™,44.45560610029472,26.080442104530153,Romanian Restaurant
735,44.4568,26.075833333333332,17,13,5a79ffc735811b7011f2b2f2,Frank Dessert Bar,44.45941761346253,26.07726350426674,Bistro
736,44.4568,26.075833333333332,17,14,4bdf111b7ea362b5674d43c4,Restaurant,44.46060073377163,26.077496982623728,Mediterranean Restaurant
737,44.4568,26.075833333333332,17,15,583eb496d0bb3e75503129fb,laTortilla,44.453504,26.074376,Mexican Restaurant
738,44.4568,26.075833333333332,17,16,576a9a05498e65ffd618f6e3,La PlÄƒcinte,44.460903,26.074476,Pie Shop
739,44.4568,26.089166666666667,18,0,5a055a2569e77b14617c5dbd,Maize Farm To Table,44.45884286474257,26.093136827079913,Romanian Restaurant
740,44.4568,26.089166666666667,18,1,5be727989d7468002c5e5727,GastroLab,44.453961,26.086621,Romanian Restaurant
741,44.4568,26.089166666666667,18,2,56db1ab9cd108c3b2001b1f8,Ai,44.45931431470887,26.09402175344567,Sushi Restaurant
742,44.4568,26.089166666666667,18,3,56583f0c498e8673e6fa38d8,Zexe Zahana,44.459730647687195,26.08941334382133,Romanian Restaurant
743,44.4568,26.089166666666667,18,4,5aede5cb0fe7a0002cf90cd5,Restaurant Spaniol Pata Negra,44.455384,26.091623,Spanish Restaurant
744,44.4568,26.089166666666667,18,5,53728642498e0631bde2ec16,Pata Negra,44.455612,26.091555,Spanish Restaurant
745,44.4568,26.089166666666667,18,6,5284ad1e11d2e6ccc0132d7a,Papa Bun,44.454097201930814,26.086955715882205,Eastern European Restaurant
746,44.4568,26.089166666666667,18,7,4c1e01dceac020a1250949c2,Restaurant Exile,44.4597148850197,26.09230724913314,Eastern European Restaurant
747,44.4568,26.089166666666667,18,8,54bbad48498e4c1d0fb986ab,Yukon,44.458533,26.094222,Japanese Restaurant
748,44.4568,26.089166666666667,18,9,4d6a550e342b8cfa2e8cd52c,Casa Boiereasca,44.45986001996134,26.08937112475778,Eastern European Restaurant
749,44.4568,26.089166666666667,18,10,4ee0fc9e0aafbb3dbb3063f7,Bogdani,44.458958509372565,26.087861328941713,Eastern European Restaurant
750,44.4568,26.089166666666667,18,11,59d608db09e283696708c3f5,Japanos,44.454085542608716,26.08646805817631,Ramen Restaurant
751,44.4568,26.089166666666667,18,12,54301e4b498ecc238f8fcdbb,PB Maison Tradition Francaise,44.45923513075098,26.093621854163842,French Restaurant
752,44.4568,26.089166666666667,18,13,569cce49498e3013cc4bd6e5,Jammo Bar,44.459162995327844,26.09351634979248,Italian Restaurant
753,44.4568,26.089166666666667,18,14,5810fa4d38fa3ea3b4bac7cf,consul haute cuisine,44.455606,26.087544,Belgian Restaurant
754,44.4568,26.089166666666667,18,15,4f280345e4b0c48621379899,bufixxî„ ,44.45511021339186,26.084005614232236,Asian Restaurant
755,44.4568,26.089166666666667,18,16,580ce7f438fa67f3bfe1e951,Uptown,44.45887291182487,26.08866744424509,Modern European Restaurant
756,44.4568,26.089166666666667,18,17,5a5a43ff08f5216e43580157,AV8,44.45421,26.087261,Modern European Restaurant
757,44.4568,26.1025,28,0,4dda3f961850807ea4640d4d,Genin,44.454886386673564,26.10066581599143,Middle Eastern Restaurant
758,44.4568,26.1025,28,1,5c62c8dccb3fd2002c44e00a,SARA Restaurant ÏÏÎ±,44.460544,26.100874,Italian Restaurant
759,44.4568,26.1025,28,2,55a0149e498e48e8710e332b,Chefs Experience,44.45713748046919,26.10054163770253,Modern European Restaurant
760,44.4568,26.1025,28,3,5bb11f572b9844002cf8c6dd,Cucinetta,44.459557,26.097778,Italian Restaurant
761,44.4568,26.1025,28,4,4e2a12d3227197a112caffc5,ADDA Cuisine,44.456697,26.100634,Fast Food Restaurant
762,44.4568,26.1025,28,5,51e67f84498ef60e2914f609,SELECT,44.45600096129883,26.099712300404647,Eastern European Restaurant
763,44.4568,26.1025,28,6,4b9b83b2f964a5203c0c36e3,Genin,44.45986218177701,26.10049091266287,Middle Eastern Restaurant
764,44.4568,26.1025,28,7,568a2d11498eea557801a83b,Die Deutsche Kneipe,44.456231,26.096596,German Restaurant
765,44.4568,26.1025,28,8,588256054ca49b16cd10ce10,Sushi Terra,44.457140274465495,26.09653604872291,Sushi Restaurant
766,44.4568,26.1025,28,9,5c0d115f5d891b002c7f3287,Yasou,44.460534,26.100723,Greek Restaurant
767,44.4568,26.1025,28,10,4c3362b3a0ced13adf86166e,Decebal Steak House,44.45598829750842,26.10557245943902,Steakhouse
768,44.4568,26.1025,28,11,50535569e4b0150f2db8bb0f,Pizza Sorrento,44.45952838494766,26.098518609820403,Pizza Place
769,44.4568,26.1025,28,12,56753195498e9abd692c7596,Degusteria Francesca,44.453023935410535,26.105363125174726,Italian Restaurant
770,44.4568,26.1025,28,13,4f50a78ae4b020de97110f95,Dristor Doner,44.457225911637465,26.104031621491558,Doner Restaurant
771,44.4568,26.1025,28,14,4c4210f2ff711b8d59f31205,La Mama,44.453275151334765,26.104848471574005,Romanian Restaurant
772,44.4568,26.1025,28,15,5b904b9c25fb7b002c58df3e,Graffiti Restaurant,44.455669,26.099977,Romanian Restaurant
773,44.4568,26.1025,28,16,5924abb1f62e096b7810dd73,Pasta Restaurant - Floreasca,44.459622455817545,26.097679138183594,Italian Restaurant
774,44.4568,26.1025,28,17,4f6c7278e4b03cbd0f458745,Bucatarie Turceasca !,44.456719,26.100746,Turkish Restaurant
775,44.4568,26.1025,28,18,54d224be498ec505d9d39407,Buffalo Baz,44.456911208051636,26.10065494229896,American Restaurant
776,44.4568,26.1025,28,19,527bc16c11d2bd4b7e3fcaba,Sultan Turkish Food,44.456924,26.100598,Turkish Restaurant
777,44.4568,26.1025,28,20,5957e0c3f79faa6187885bfb,Pasterra - Pasta Bar,44.45994,26.099714,Italian Restaurant
778,44.4568,26.1025,28,21,4f85a475a17c3c408ca5156e,Taormina Ristorante Caffe`,44.4596530863883,26.09830141067505,Italian Restaurant
779,44.4568,26.1025,28,22,4f817778e4b0fdf5024deb06,Bistro Pastis,44.45600580447412,26.10568778657717,Mediterranean Restaurant
780,44.4568,26.1025,28,23,52769b4d498edfe3334806ae,Zakisha,44.4549265969959,26.1057450436299,Indian Restaurant
781,44.4568,26.1025,28,24,4f86aeb7e4b04a6adb0b6607,Locanta Floreasca,44.45689526607405,26.100326938343535,Turkish Restaurant
782,44.4568,26.1025,28,25,545e1819498ed5438aec7a21,Divini,44.456818,26.100535,Italian Restaurant
783,44.4568,26.1025,28,26,4d34c3495c2db60c1390d66c,Restaurant Habibi,44.456584564712294,26.106248661272097,Middle Eastern Restaurant
784,44.4568,26.1025,28,27,51658453e4b090d0550ce715,The Lounge Bucharest,44.460422363582474,26.100908070144094,Italian Restaurant
785,44.4568,26.11583333333333,9,0,51420a26e4b096dcf9ab15d7,Kebab Mania,44.454759600017795,26.120949176317872,Doner Restaurant
786,44.4568,26.11583333333333,9,1,4fa398c3e4b05483057f4bb4,Casa Balbeck,44.45911345842838,26.11383797401146,Eastern European Restaurant
787,44.4568,26.11583333333333,9,2,5328654011d268d02580fc74,Restaurant RATB,44.452962,26.116765,American Restaurant
788,44.4568,26.11583333333333,9,3,4e135082d1647a0fff9173d8,Baraca,44.45604859085066,26.1156384268185,Eastern European Restaurant
789,44.4568,26.11583333333333,9,4,5a147b076f706a2ca6c6bf17,Naser 2,44.45652,26.120676,Lebanese Restaurant
790,44.4568,26.11583333333333,9,5,52c99e95498eefa37ea4c56f,Italiano a Bucharest,44.457205,26.120358,Italian Restaurant
791,44.4568,26.11583333333333,9,6,575c3610498ea83973582d74,WOK pe loc,44.455868,26.121195,Asian Restaurant
792,44.4568,26.11583333333333,9,7,4dc7c2d3b0fb5556cd275237,RATB ( Restaurant & Offices ),44.454510709695825,26.112870735455942,Eastern European Restaurant
793,44.4568,26.11583333333333,9,8,4d42b3f67fb054813b816d79,Trattoria Alto,44.45808211967273,26.1214566707802,Italian Restaurant
794,44.4568,26.129166666666666,8,0,4fe432afe4b0e522149b9605,Dristor Kebap,44.457232264663716,26.13032810696204,Doner Restaurant
795,44.4568,26.129166666666666,8,1,4c4c1ea09c8d2d7f6bc4f36b,Restaurant Turcesc Obor,44.45477848487867,26.12656410997749,Middle Eastern Restaurant
796,44.4568,26.129166666666666,8,2,50acf4c1e4b02888e5b00e12,Al Melook Sweets,44.458400303637916,26.13180706282548,Dessert Shop
797,44.4568,26.129166666666666,8,3,51b466a6498e7748961caa90,Tropicana Saloon & Bar,44.459437,26.125342,Eastern European Restaurant
798,44.4568,26.129166666666666,8,4,4cbca1a04352a1cdef559ff5,Gallienus,44.4604877215232,26.13082786501791,Eastern European Restaurant
799,44.4568,26.129166666666666,8,5,4f6a3492e4b05d6ec21ac8d1,Family Dinner,44.46050907268213,26.130807611568372,American Restaurant
800,44.4568,26.129166666666666,8,6,53dd242f498e413b46d51539,Magic Wok,44.45648783893094,26.130099397726795,Chinese Restaurant
801,44.4568,26.129166666666666,8,7,53d936b9498e08f804b652a7,Cooking ğŸ›,44.459381,26.130844,Eastern European Restaurant
802,44.4568,26.1425,10,0,4fce69d8e4b01ca7e3f72caf,Ã®nceputul,44.453672,26.139609,Korean Restaurant
803,44.4568,26.1425,10,1,4fce71c1e4b0ef380fef936e,hÄƒum,44.453658,26.139394,Peruvian Restaurant
804,44.4568,26.1425,10,2,4fc8fdeae4b0e92d606bfbed,Sushi,44.453685,26.139616,Sushi Restaurant
805,44.4568,26.1425,10,3,4fce5d51e4b0d4988250bbca,mastÄƒrÈ™ef,44.453846,26.139513,Ethiopian Restaurant
806,44.4568,26.1425,10,4,4fc8fe1ee4b048cbd282547b,gustare,44.453614,26.139572,Sushi Restaurant
807,44.4568,26.1425,10,5,4fce46b9e4b0c9b32188ad87,cartofiori,44.45387,26.139663,Korean Restaurant
808,44.4568,26.1425,10,6,57053602498e5cbcb7e3fb86,Chinese Restaurant Colentina,44.45542,26.137429,Chinese Restaurant
809,44.4568,26.1425,10,7,4fcf9a15e4b0f6d52815a37c,chipotle,44.453728,26.139508,French Restaurant
810,44.4568,26.1425,10,8,4fce48dde4b0c9b32189a573,nuu,44.453733,26.139533,Dim Sum Restaurant
811,44.4568,26.1425,10,9,504454b2e4b043734c0551d4,Mananc Cereale,44.456397,26.138621,American Restaurant
812,44.4568,26.169166666666666,2,0,5026c4ffe4b0f23b0190fadb,casa fundeni,44.455693856164494,26.163485096799082,Eastern European Restaurant
813,44.4568,26.169166666666666,2,1,4d72076c2804cbff9a6eaade,tratoria belucii,44.454277175162126,26.164026260375977,Italian Restaurant
814,44.4668,26.009166666666665,1,0,54d30f4a498e77571198818f,Andrada's kitchen,44.466535,26.013443,Romanian Restaurant
815,44.4668,26.049166666666665,1,0,518ea1d0498e20470c5654f9,Lebanese Station,44.47112076122025,26.050583717148374,Lebanese Restaurant
816,44.4668,26.0625,10,0,58fc9db5f0ca9540b1cb057b,Sabatini Pizza & Restaurant,44.46662098475559,26.067839463763985,Italian Restaurant
817,44.4668,26.0625,10,1,5708ea75498e581475f884ff,Murad,44.465168490176396,26.06696178258412,Lebanese Restaurant
818,44.4668,26.0625,10,2,519dddf1498ef865ae199c3d,La Domenii - DÃ–NER Kebab È™i MÃ¢ncare GÄƒtitÄƒ,44.46547317504883,26.066926956176758,Turkish Restaurant
819,44.4668,26.0625,10,3,4b5b2eb0f964a52040e928e3,Barka Saffron,44.465725731572384,26.068011493039798,Indian Restaurant
820,44.4668,26.0625,10,4,509bf2b3e4b0a49188b57ca5,Kunnai,44.46491179718613,26.06080676213115,Thai Restaurant
821,44.4668,26.0625,10,5,4dce76cd45ddbe15f888ca25,Mica Elvetie,44.467233216399464,26.063801149657127,Swiss Restaurant
822,44.4668,26.0625,10,6,4fbbca7fe4b0b68bda410a48,AdinuÈ™ MÄƒnÃ¢nca,44.46426198393726,26.063810491409544,Taco Place
823,44.4668,26.0625,10,7,53ceb058498e247c5653b7ab,Zucchero,44.46661468744933,26.06793445257511,Italian Restaurant
824,44.4668,26.0625,10,8,4ed3be58b634dd2995650aa1,Restaurant La Domenii,44.46573024399166,26.066614915553963,Eastern European Restaurant
825,44.4668,26.0625,10,9,52cafcdb498e1a2182a7810a,Taverna Marelui Paharnic,44.46578874190014,26.06651540962325,Greek Restaurant
826,44.4668,26.075833333333332,15,0,4f4a7f40e4b0a34d39aca4d5,Restaurant Seoul,44.46933965688425,26.071443649640855,Korean Restaurant
827,44.4668,26.075833333333332,15,1,4c4f34e9a7351b8d330ebb92,Jadoo,44.46243726171872,26.07626907955946,Mediterranean Restaurant
828,44.4668,26.075833333333332,15,2,5dfcc64a898a6a00084a6515,La Cocosatuâ€™,44.462729,26.076512,Romanian Restaurant
829,44.4668,26.075833333333332,15,3,4d59766624466ea855cd779f,Restaurant Il Corso,44.46753617744362,26.077406849633565,Italian Restaurant
830,44.4668,26.075833333333332,15,4,4dbe8fa7815439392fc05885,Thai Moods,44.468312,26.071479,Thai Restaurant
831,44.4668,26.075833333333332,15,5,5c88f1bf97cf5a002c3f59d4,La Piovra,44.46276,26.076547,Italian Restaurant
832,44.4668,26.075833333333332,15,6,58297a95ab81e23c073562f0,Restaurant Chance,44.463811037215585,26.074759662151333,Romanian Restaurant
833,44.4668,26.075833333333332,15,7,4c9f18a47c096dcb5386dbd1,Restaurant Beirut,44.462567624763786,26.076328902083876,Middle Eastern Restaurant
834,44.4668,26.075833333333332,15,8,5008360ae4b0d9d6f9879527,Cerisiers,44.467239393008285,26.06969894809695,Mediterranean Restaurant
835,44.4668,26.075833333333332,15,9,4d8ddd3d3bfef04d86ed8986,L'esperance,44.46457738869892,26.07619917453127,Pizza Place
836,44.4668,26.075833333333332,15,10,5200b6b1498e67dae56ff708,Gorjeanca Bufet,44.46556032098727,26.073424816031668,Romanian Restaurant
837,44.4668,26.075833333333332,15,11,5aec8ec331ac6c002c39dc5f,Arco - Giro di Gusto,44.46615406136599,26.076468229293823,Italian Restaurant
838,44.4668,26.075833333333332,15,12,4fd5c61be4b0abd665e3b46d,Peru Bistro,44.468473048350994,26.07148728567495,Peruvian Restaurant
839,44.4668,26.075833333333332,15,13,52f8b6df498ed300dba1b8bf,olio,44.46275075779409,26.07646060298033,Italian Restaurant
840,44.4668,26.075833333333332,15,14,5a69b2095ba046020eb71923,Osteria Bella Toscana,44.46449,26.076421,Italian Restaurant
841,44.4668,26.089166666666667,19,0,4bb5b9b61344b713be8f9c04,City Grill,44.46705920498627,26.08772187740169,Romanian Restaurant
842,44.4668,26.089166666666667,19,1,55fbe10c498eb466ef037495,La Samuelle,44.466113460076045,26.08524707026638,Mediterranean Restaurant
843,44.4668,26.089166666666667,19,2,55c0ecec498eb3d6d7b427de,Fior di Poesia,44.46725481628996,26.087214589157153,Italian Restaurant
844,44.4668,26.089166666666667,19,3,4c6d5e9065eda0936d614ed0,Baraka Bar & Lounge,44.46765026193271,26.083808796368096,Beer Garden
845,44.4668,26.089166666666667,19,4,50b74ad8e4b055e6a36f2800,Trattoria Buongiorno,44.4672731,26.08815909999999,Italian Restaurant
846,44.4668,26.089166666666667,19,5,58cda57df5bfab63043c2965,Mesogios,44.470608,26.089499,Greek Restaurant
847,44.4668,26.089166666666667,19,6,5904e084a6fe4d0aa5451583,Maison des CrÃªpes Aviatorilor,44.46552477537304,26.084020970771274,Creperie
848,44.4668,26.089166666666667,19,7,4d9c6844a3cf1456e8568b80,Bolta Rece,44.46405762784893,26.08485315734182,Eastern European Restaurant
849,44.4668,26.089166666666667,19,8,4bbef3b5006dc9b646d9fb3f,Quattro Stagioni Ristorante,44.466787787710565,26.084533040400473,Italian Restaurant
850,44.4668,26.089166666666667,19,9,5479cb64498e321dddad138e,Ellinikon,44.47060738240999,26.08964112987936,Greek Restaurant
851,44.4668,26.089166666666667,19,10,4bc2f014abf49521a310c393,City CafÃ©,44.46536936072301,26.08695327885665,CafÃ©
852,44.4668,26.089166666666667,19,11,59a7e1064420d853d9df8f2b,La Estancia,44.46734,26.088458,Argentinian Restaurant
853,44.4668,26.089166666666667,19,12,508a5d7de4b0ca23f502f030,Shaorma Autobuz Ch De Gaulle,44.46538718188217,26.087290657024052,Turkish Restaurant
854,44.4668,26.089166666666667,19,13,4be2a37c660ec92859d4c93b,La Mangerie,44.46808354005379,26.089396476745605,French Restaurant
855,44.4668,26.089166666666667,19,14,4ea1ad377ee52a35dc90de61,Ying Yang,44.4653702,26.0948193,Chinese Restaurant
856,44.4668,26.089166666666667,19,15,4daebd264df0f639f2513290,OK Deli,44.46483537602721,26.094463851008623,Eastern European Restaurant
857,44.4668,26.089166666666667,19,16,4f7b1a2ae4b0747c65edfe2f,J's Kitchen,44.468441,26.093921,Italian Restaurant
858,44.4668,26.089166666666667,19,17,4f17c986e4b0e5837b7c7188,OsteriA gorgia,44.46719408058438,26.088200783427272,Italian Restaurant
859,44.4668,26.089166666666667,19,18,5f60ac52a1a3aa4e5e68289a,Porto - Gallo,44.465286,26.088291,Portuguese Restaurant
860,44.4668,26.1025,9,0,5dd3beb9129bfb0008d74760,CentocittÃ ,44.462879,26.101554,Italian Restaurant
861,44.4668,26.1025,9,1,4bcae73b68f976b0f5216083,Trattoria Il Calcio,44.46267163858783,26.1014767784027,Italian Restaurant
862,44.4668,26.1025,9,2,586e54edf697e05a608a2f4e,AGAPE Cuisine,44.46858,26.103216,French Restaurant
863,44.4668,26.1025,9,3,4c85395ad8086dcb65ea8f52,Restaurant Diesel,44.467055793090516,26.100765612009358,Eastern European Restaurant
864,44.4668,26.1025,9,4,58cae47645005e58343baa90,Trattoria ROMA,44.465519,26.105481,Italian Restaurant
865,44.4668,26.1025,9,5,54d7797b498ee4139d8d7c1d,Turkish Kebap,44.47061191757434,26.100027059644837,Turkish Restaurant
866,44.4668,26.1025,9,6,4df8a13be4cd2129701a8b3d,Trattoria Il Lago,44.46947579414778,26.098242515564337,Italian Restaurant
867,44.4668,26.1025,9,7,529e38c5498e5391da74b379,Antik,44.46249796046288,26.103219469168746,Turkish Restaurant
868,44.4668,26.1025,9,8,5e26efd816c1750008974025,Souk,44.462686,26.101398,Lebanese Restaurant
869,44.4668,26.11583333333333,4,0,536f7219498ec24b88f9440c,"Restaurant ""LuminiÈ›a""",44.47009787582988,26.115852684710426,Eastern European Restaurant
870,44.4668,26.11583333333333,4,1,4baa6761f964a520ea663ae3,LaMisto,44.47060549255889,26.11574509146528,Italian Restaurant
871,44.4668,26.11583333333333,4,2,509a8580e4b095fae6e4e2ea,Victoria Palace,44.46728673678274,26.116649057481474,Noodle House
872,44.4668,26.11583333333333,4,3,5a98f54bdff815665e478520,Gustosi Momenti,44.469417,26.111013,Italian Restaurant
873,44.4668,26.129166666666666,1,0,53120557498e66f704775a9c,tratoria president,44.46563946028413,26.124547750412628,Italian Restaurant
874,44.4668,26.1425,16,0,4dbd78a41e72b351cacaa7ab,Edessa 63,44.4700458300223,26.146851041682527,Turkish Restaurant
875,44.4668,26.1425,16,1,4f6de886e4b03b575c999ca0,Ä°negol Kofte,44.469955,26.144821,Turkish Restaurant
876,44.4668,26.1425,16,2,50d208f5e4b06b9f187b2cbf,Urfa Bereket DÃ¶nner,44.46935527139235,26.144483628488715,Turkish Restaurant
877,44.4668,26.1425,16,3,5310e295498e8634b497438f,Cherhana VictoriÈ›a PescÄƒriÈ›a,44.47019802478217,26.144888911034784,Seafood Restaurant
878,44.4668,26.1425,16,4,55afd33e498e44ca09b8689e,Layalina,44.469574,26.144598,Afghan Restaurant
879,44.4668,26.1425,16,5,533c42f1498e73acd0177ff1,Alladin Food,44.465071307652906,26.146005308292235,Turkish Restaurant
880,44.4668,26.1425,16,6,51bd94c3498ef4bee7420010,Seby's Chinese Restaurant,44.469261897619326,26.1427443938026,Chinese Restaurant
881,44.4668,26.1425,16,7,54958dee498e8912e79c7740,KÃ¶fteci HÃ¼seyin,44.469878,26.144844,Turkish Restaurant
882,44.4668,26.1425,16,8,5d66f696a9fbd90008916841,Don Kebap,44.469306,26.14552,Doner Restaurant
883,44.4668,26.1425,16,9,4df510ae091aacc4e85c47bd,Colentina-Fundeni Corner,44.46855899564412,26.142781179820638,Middle Eastern Restaurant
884,44.4668,26.1425,16,10,54958e0f498e3c926e7e8f9d,KÃ¶fteci HÃ¼seyin,44.47014631655667,26.144871331602676,Turkish Restaurant
885,44.4668,26.1425,16,11,4f6dd2d6e4b01d94fcf8e35a,Yildizali,44.46975658981123,26.145844879110793,Turkish Restaurant
886,44.4668,26.1425,16,12,56687762498e567aa201dec2,CNM Kebap Express,44.469559370609026,26.145751930365993,Turkish Restaurant
887,44.4668,26.1425,16,13,4e54cada22710ebb5a8e0ad9,YEÈ˜IL BURSA,44.47002687963663,26.14661297076265,Asian Restaurant
888,44.4668,26.1425,16,14,5493fb1f498ed496ec2b7202,doruk shop market,44.469669736288225,26.145616208732193,Eastern European Restaurant
889,44.4668,26.1425,16,15,571128fb498e3b954cdccee0,Fast Food È™iv Colentina,44.468682,26.143299,Turkish Restaurant
890,44.4668,26.155833333333334,2,0,4f48d219e4b08df2fbf5c397,mec colentina,44.466717,26.151051,American Restaurant
891,44.4668,26.155833333333334,2,1,51b99546498e0ea73d500c4e,Gorjeanca,44.46600031669746,26.155621165227583,Eastern European Restaurant
892,44.4668,26.1825,1,0,514d834de4b05bcb1f07d746,Restaurant LuminiÅ£a,44.46982723385662,26.182508885164584,Eastern European Restaurant
893,44.476800000000004,26.035833333333333,2,0,520f5738498eccb7407056a5,shaorma la Paul Campionul,44.480492,26.037511,American Restaurant
894,44.476800000000004,26.035833333333333,2,1,4e79c1fed22d391717b9d43d,Dolce Vita,44.47850430877524,26.039610167816843,Italian Restaurant
895,44.476800000000004,26.049166666666665,1,0,55aa8034498e57df012f9c02,laTortilla,44.472521,26.050431,Taco Place
896,44.476800000000004,26.0625,6,0,578d0637498e672662481e92,Citronelle,44.479798,26.064717,Modern European Restaurant
897,44.476800000000004,26.0625,6,1,56406fd9cd100e6ce2580c5b,Cantina URA,44.4740532397506,26.065446777220284,American Restaurant
898,44.476800000000004,26.0625,6,2,52df9a3711d21fef2e83ae1c,American Point,44.47404116567299,26.06555547278597,American Restaurant
899,44.476800000000004,26.0625,6,3,54733114498e94529d6923d4,La Veranda,44.479618860539546,26.064553192179805,Modern European Restaurant
900,44.476800000000004,26.0625,6,4,4cd2c0994aa9f04dfeef58cb,Casa Doina La Parc,44.48019854407073,26.06325627631367,Eastern European Restaurant
901,44.476800000000004,26.0625,6,5,4e3325231495fa2def5035a5,Calipso 96,44.47328209574051,26.06429100036621,Eastern European Restaurant
902,44.476800000000004,26.075833333333332,11,0,4bd07a13046076b0f9027071,Hard Rock Cafe BucureÈ™ti,44.4767482796823,26.075947209839043,American Restaurant
903,44.476800000000004,26.075833333333332,11,1,5d593ed59ccd2d00085705a1,Meadows,44.47635,26.074792,Italian Restaurant
904,44.476800000000004,26.075833333333332,11,2,5d274637be636e00237d9fef,Trattoria Il Calcio,44.47579,26.075864,Italian Restaurant
905,44.476800000000004,26.075833333333332,11,3,546ca778498e70143cbe7b22,Saya,44.4762461375945,26.074620779646594,Middle Eastern Restaurant
906,44.476800000000004,26.075833333333332,11,4,52d6c4e6498e2ee5b8c92fbd,Restaurant MioriÈ›a,44.475674,26.075789,Eastern European Restaurant
907,44.476800000000004,26.075833333333332,11,5,4f9eae47e4b0e1cb00b7f05a,La Cartofi,44.47750784714158,26.07184991849603,American Restaurant
908,44.476800000000004,26.075833333333332,11,6,52c72ab6498e9924fa9e4673,Restaurant Yara,44.47608472690786,26.074700377759537,Middle Eastern Restaurant
909,44.476800000000004,26.075833333333332,11,7,51a1ec9f498e3b4c636f2f7b,"Terasa ""La RÄƒÈ›oi""",44.48055668216272,26.078249828401933,Romanian Restaurant
910,44.476800000000004,26.075833333333332,11,8,52ab812011d249969925fa0e,La È˜ipote,44.47596541051509,26.069864630699158,Romanian Restaurant
911,44.476800000000004,26.075833333333332,11,9,4e4943ea887781a619cea8b3,La Radu,44.47754626876375,26.071997565603006,Romanian Restaurant
912,44.476800000000004,26.075833333333332,11,10,5f6e35461ce13b29fe1ffd18,Wurstaholics,44.42657,26.115065,Food Truck
913,44.476800000000004,26.089166666666667,23,0,52a34c5511d2996eb5715348,Zaitoone,44.47573768303513,26.092644171173866,Middle Eastern Restaurant
914,44.476800000000004,26.089166666666667,23,1,4c66aed8e1da1b8d8f899bc3,Isoletta,44.47778100646117,26.08499055157013,Italian Restaurant
915,44.476800000000004,26.089166666666667,23,2,5748902e498ee05234c4a495,Il Locale,44.477365860678496,26.086764265557928,Italian Restaurant
916,44.476800000000004,26.089166666666667,23,3,4b901362f964a520137433e3,Casa di David,44.475741215906346,26.089064703742086,Mediterranean Restaurant
917,44.476800000000004,26.089166666666667,23,4,5385d4b8498ebd908cc7592f,Argentine Steak & Sushi,44.47711228412296,26.088355438339388,Steakhouse
918,44.476800000000004,26.089166666666667,23,5,514dc8a2e4b06ae755e2ed5d,French Bakery,44.477890954545444,26.089619469783717,Bakery
919,44.476800000000004,26.089166666666667,23,6,5c9e81b4b04056003951c4a7,It Cucina,44.476746,26.088194,Italian Restaurant
920,44.476800000000004,26.089166666666667,23,7,51f2b544498e0c6c73fccfb8,El Bacha,44.47352442834327,26.087092169208333,Middle Eastern Restaurant
921,44.476800000000004,26.089166666666667,23,8,539c9a5b498ea14ee55514c8,Chicca,44.477027893066406,26.088319778442383,Italian Restaurant
922,44.476800000000004,26.089166666666667,23,9,53bae6ef498e266e5610e4ae,Chicca-Ristorante in Bucarest,44.47681,26.088109,Italian Restaurant
923,44.476800000000004,26.089166666666667,23,10,4ec79f3d5c5ce271bdb33892,Just Sushi,44.48110046983851,26.089209502120696,Sushi Restaurant
924,44.476800000000004,26.089166666666667,23,11,574f0b68498eed72ce61e02e,Pomo D'oro,44.479594088602894,26.085350109320576,Italian Restaurant
925,44.476800000000004,26.089166666666667,23,12,541afa93498e11da4a32b98f,La PlÄƒcinte,44.480015,26.092201,Pie Shop
926,44.476800000000004,26.089166666666667,23,13,56812c3a498ea638fd1b45b3,dakota,44.47805395964926,26.093698460240365,American Restaurant
927,44.476800000000004,26.089166666666667,23,14,55bcb798498e726de1b5d0f1,"Ristorante ""Il Calcio"" Herastrau",44.477781,26.085317,Italian Restaurant
928,44.476800000000004,26.089166666666667,23,15,4fe457c6e4b03df94ca49502,Sushi ko,44.47715792224354,26.088230681744683,Sushi Restaurant
929,44.476800000000004,26.089166666666667,23,16,4e7f2476d22dc3a88de77214,Restaurant Neptunus,44.47907609086153,26.08581542896807,Mediterranean Restaurant
930,44.476800000000004,26.089166666666667,23,17,4c1d0367fcf8c9b6fefdaa0b,Restaurant La Gondola,44.47511367127582,26.092808006995373,Italian Restaurant
931,44.476800000000004,26.089166666666667,23,18,5e259689c8915e0007978038,Del Popolo,44.479027,26.093795,Italian Restaurant
932,44.476800000000004,26.089166666666667,23,19,4dd8d228d4c05d50970c1c69,GrÄƒdiniÈ›a by Isoletta,44.47812887500492,26.08497515799948,Italian Restaurant
933,44.476800000000004,26.089166666666667,23,20,4cf6abd964e3721edf8522c8,Patru Anotimpuri,44.478284421744185,26.086365719259483,Eastern European Restaurant
934,44.476800000000004,26.089166666666667,23,21,592db9a804d1ae4b86e2ee89,Octopus Eat Greek,44.476873,26.08828,Greek Restaurant
935,44.476800000000004,26.089166666666667,23,22,4e80aa6561af5042744f165e,Ristorante Il Calcio,44.4777186506032,26.085304009404187,Italian Restaurant
936,44.476800000000004,26.1025,26,0,5f9c43e40f4d677b7c2ccfaf,Turkish Kitchen,44.479442,26.10322,Turkish Restaurant
937,44.476800000000004,26.1025,26,1,5b053fd0c9f907002ce31c02,K-Food,44.479331,26.09729,Korean Restaurant
938,44.476800000000004,26.1025,26,2,5e5bcf8b5bb431000830478a,Nikos,44.478657,26.103346,Greek Restaurant
939,44.476800000000004,26.1025,26,3,5284b2d011d2daf8e27a7dc4,Entre Aromas,44.47810683515321,26.105151870140265,Spanish Restaurant
940,44.476800000000004,26.1025,26,4,5b4c69ce67f62b002ca55db1,Restaurant Joy,44.480282,26.103572,Romanian Restaurant
941,44.476800000000004,26.1025,26,5,5a1f08fb6c08d123e448b976,SUSHI TERRA express,44.478161661680296,26.103680318578494,Sushi Restaurant
942,44.476800000000004,26.1025,26,6,55b8a459498efbbb6ca3526d,ToÃ n's,44.47836960514246,26.103411410789764,Vietnamese Restaurant
943,44.476800000000004,26.1025,26,7,5beea6ec1822230025bdb638,Pagaia,44.479473,26.101751,Modern European Restaurant
944,44.476800000000004,26.1025,26,8,559693b9498e2bb710d928e0,"Dawn, American Bakery",44.47821044921875,26.101694107055664,American Restaurant
945,44.476800000000004,26.1025,26,9,5265330a498e826eb0ce8bf2,Deliciul Cartofilor,44.478347340332355,26.10348033448901,Fast Food Restaurant
946,44.476800000000004,26.1025,26,10,5289f783498ea6c4980b54df,Quanquan,44.47830912292349,26.10354893012595,Mongolian Restaurant
947,44.476800000000004,26.1025,26,11,5a5e0ce8d69ed06624c8755a,Say,44.478086,26.103638,Italian Restaurant
948,44.476800000000004,26.1025,26,12,55acc94f498e0a64af6b19af,Istanbul Taksim,44.47856003077512,26.103505450316575,Turkish Restaurant
949,44.476800000000004,26.1025,26,13,551a7516498e557901568046,Best Chef,44.47905349731445,26.105226516723633,Romanian Restaurant
950,44.476800000000004,26.1025,26,14,52aee41511d232124f9635ea,Scandia Sibiu,44.47838272812506,26.103447171640642,Romanian Restaurant
951,44.476800000000004,26.1025,26,15,5114d28ae4b0d82aaa69a5fb,Catering,44.476583,26.105774,American Restaurant
952,44.476800000000004,26.1025,26,16,5290cd1211d216c8e3c775cc,al Safir,44.47835966555172,26.103466024644977,Lebanese Restaurant
953,44.476800000000004,26.1025,26,17,53ff0645498e6fc65bb5ddc6,Sole Lounge,44.48091099665208,26.104756595629098,Romanian Restaurant
954,44.476800000000004,26.1025,26,18,52af3695498ecd8beb8ea751,imbiss grill,44.47815509511792,26.10341762716056,German Restaurant
955,44.476800000000004,26.1025,26,19,54885dbb498ea5c58f98761d,Al Wady,44.47838351440224,26.103450974747403,Middle Eastern Restaurant
956,44.476800000000004,26.1025,26,20,519f44c3498ed272d7dcad1e,Vera Bufet Expres,44.47561011044373,26.10608671466102,Eastern European Restaurant
957,44.476800000000004,26.1025,26,21,4bf260ff77b4c9281b326a1c,City Grill,44.47937373496823,26.10163473423403,Romanian Restaurant
958,44.476800000000004,26.1025,26,22,5260fcbc498eb25d66f87243,Chopstix,44.478341526704014,26.103489032520557,Chinese Restaurant
959,44.476800000000004,26.1025,26,23,59a93ef4492814045b350024,Japanos,44.48047,26.104708,Ramen Restaurant
960,44.476800000000004,26.1025,26,24,53482cc9498e0900daab7ba7,Mongol,44.47828072226046,26.103520385325726,Mongolian Restaurant
961,44.476800000000004,26.1025,26,25,5f81e358a479ca535eed31d7,GODAI,44.475883,26.107542,Asian Restaurant
962,44.476800000000004,26.11583333333333,13,0,585bb45c158b9617884f5d92,Pagaia,44.47868131605193,26.11630104527348,Modern European Restaurant
963,44.476800000000004,26.11583333333333,13,1,5718a119498ee2ee193ed892,Japanos,44.477764,26.115414,Ramen Restaurant
964,44.476800000000004,26.11583333333333,13,2,5a63cc75791871187bf0d210,Kaufland PopUp! restaurant,44.479477,26.117554,Modern European Restaurant
965,44.476800000000004,26.11583333333333,13,3,53073fe6498e5159650fbb79,Barbeque Express,44.480987,26.116409,Greek Restaurant
966,44.476800000000004,26.11583333333333,13,4,51434553e4b0df06d5084c59,La Covrigi,44.478853,26.112859,German Restaurant
967,44.476800000000004,26.11583333333333,13,5,53317147498e65bc3460101c,Hong Long,44.48104476928711,26.116493225097656,Chinese Restaurant
968,44.476800000000004,26.11583333333333,13,6,56a20d7b498e1e86c9d69d2d,Gyros Mania,44.48094316775467,26.116301954007902,Souvlaki Shop
969,44.476800000000004,26.11583333333333,13,7,52a5d2c8498ef5c57a32b787,Novo Park Restaurant by ESS,44.47934465673775,26.112369400722216,Eastern European Restaurant
970,44.476800000000004,26.11583333333333,13,8,4fb0e666e4b03338fbaf0eed,Novo Park Restaurant,44.47928420534039,26.11254832138853,Eastern European Restaurant
971,44.476800000000004,26.11583333333333,13,9,5d567b9ff9735e0008709624,Dabo DÃ¶ner,44.480892,26.117105,Doner Restaurant
972,44.476800000000004,26.11583333333333,13,10,57c7ffb4498e20b3ff0bda4e,La Culae,44.48109,26.117174,Mexican Restaurant
973,44.476800000000004,26.11583333333333,13,11,56bdc273498e5b9e3bda72d9,È˜iÈ™ Kebap,44.481087,26.116451,Turkish Restaurant
974,44.476800000000004,26.11583333333333,13,12,532c1e04498eabca341deefb,Gyros Barbeque,44.481148010658714,26.117234930838162,Greek Restaurant
975,44.476800000000004,26.155833333333334,8,0,580c85d638faf41632adb929,Cetatea din Alep,44.47306773146366,26.153372526168823,Middle Eastern Restaurant
976,44.476800000000004,26.155833333333334,8,1,53f9e682498e47b1dc54c0c3,Sultan Suleyman Oriental Restaurant,44.47255668716299,26.154066330691357,Middle Eastern Restaurant
977,44.476800000000004,26.155833333333334,8,2,4f3fb36be4b0c473575180fa,Chinese Dining,44.47411251118598,26.159574510035828,Chinese Restaurant
978,44.476800000000004,26.155833333333334,8,3,5083f561e4b094820aec12e2,Can Restaurant,44.47641388815862,26.16002089147289,Cuban Restaurant
979,44.476800000000004,26.155833333333334,8,4,50a7df17e4b0a68d84908a6a,El Padrino,44.476373,26.155302,Spanish Restaurant
980,44.476800000000004,26.155833333333334,8,5,517d0388e4b0478d15bcbb8e,Kasap Halal Zino,44.474415008669446,26.15631789224357,Turkish Restaurant
981,44.476800000000004,26.155833333333334,8,6,4d8392caf9f3a1cdf276a364,Sumer Turkish Restaurant,44.473337174116544,26.153764240416763,Turkish Restaurant
982,44.476800000000004,26.155833333333334,8,7,519f39f8498ed82144b58713,Murat Restaurant Turcesc,44.47652681854553,26.16068409183304,Turkish Restaurant
983,44.476800000000004,26.169166666666666,1,0,521e4c5d11d2b47454c75001,slow food 4 love,44.476655296436796,26.169248594042173,Japanese Restaurant
984,44.476800000000004,26.1825,4,0,50f79a83e4b0cfe7192fb012,Zuzuman,44.474573,26.181693,German Restaurant
985,44.476800000000004,26.1825,4,1,4d7b3f83da568cfa6a3c4dff,ChinaTown Cantina,44.476535183802596,26.179001728397843,Asian Restaurant
986,44.476800000000004,26.1825,4,2,507927e1498e98df0e7d79af,Hongtai,44.477468,26.181678,Chinese Restaurant
987,44.476800000000004,26.1825,4,3,4e16db86fa76a474496f26f8,Dragonul Rosu Restaurant Chinezesc,44.47752734001673,26.181663456969922,Chinese Restaurant
988,44.4868,26.009166666666665,2,0,5dfe1b852cf03a00070c916e,Gyros Thessalonikis,44.489403,26.011751,Greek Restaurant
989,44.4868,26.009166666666665,2,1,533d6a3f498e88566c77d348,"Restaurant ""La Soare""",44.4877510361628,26.014683127517138,Romanian Restaurant
990,44.4868,26.035833333333333,2,0,58d28de02e9fde5e8b000deb,Hot Woks,44.48553,26.038532,Chinese Restaurant
991,44.4868,26.035833333333333,2,1,4fd98108e4b04a083d1b0d8a,L,44.491182,26.037138,Turkish Restaurant
992,44.4868,26.049166666666665,2,0,4d7fa588cd09224b482e6030,Korea House,44.48450431283211,26.045824464989153,Korean Restaurant
993,44.4868,26.049166666666665,2,1,4eef892577c82b92fa638bdb,Kebap Jiului,44.48455148233459,26.04554391878119,Middle Eastern Restaurant
994,44.4868,26.0625,1,0,5b1997a9012358002c4aca2e,Hora,44.483922,26.058695,Romanian Restaurant
995,44.4868,26.075833333333332,2,0,4bf1283624f020a167c0684f,Restaurant Voievodal BÄƒneasa,44.490284522579564,26.079389780297134,Romanian Restaurant
996,44.4868,26.075833333333332,2,1,4daf08eefc6063dbfa8646ff,Churrascaria Carnivore,44.49035980423602,26.075207591056824,Brazilian Restaurant
997,44.4868,26.089166666666667,15,0,58495a69730a921d11dcac6a,The Grill,44.48550679360485,26.08763426542282,Modern European Restaurant
998,44.4868,26.089166666666667,15,1,55859bef498eca16beae6deb,Il Capo,44.4845,26.09015,Italian Restaurant
999,44.4868,26.089166666666667,15,2,5bd75d1b8fb09e0039b330e6,Mandaloun,44.48391050203551,26.091711223125458,Lebanese Restaurant
1000,44.4868,26.089166666666667,15,3,568d7226498e6c7e2874d894,Crudo e Cotto,44.484548,26.089098,Italian Restaurant
1001,44.4868,26.089166666666667,15,4,52363af18bbdf0ebe440311b,Oala cu BunÄƒtÄƒÅ£i,44.49056645140163,26.092325448989868,Romanian Restaurant
1002,44.4868,26.089166666666667,15,5,533c1dcd498eab026d442fe9,cu hugo,44.485358,26.090139,Afghan Restaurant
1003,44.4868,26.089166666666667,15,6,4f92f14ae4b04b1ee1ce4901,Bunny,44.487795,26.087649,Noodle House
1004,44.4868,26.089166666666667,15,7,5496cbe5498ee4527f8f71d4,Osteria Romana,44.48449935931871,26.089147938784755,Italian Restaurant
1005,44.4868,26.089166666666667,15,8,507550a0e4b070d8a9b304cf,La Vito Resturant,44.48749037583859,26.08795853735368,Italian Restaurant
1006,44.4868,26.089166666666667,15,9,575de74e498eb2216775f262,Pippo's,44.484716,26.088681,Italian Restaurant
1007,44.4868,26.089166666666667,15,10,5221093b11d2ac1202c80d3f,nicky's,44.48923332432837,26.083880984610314,Australian Restaurant
1008,44.4868,26.089166666666667,15,11,57ac72e4498e8ede02644aef,Bocca Lupo,44.491073,26.087955,Italian Restaurant
1009,44.4868,26.089166666666667,15,12,4fb69c93e4b0a090d02cee38,Les Colonnes,44.48458482737025,26.089183304256498,Italian Restaurant
1010,44.4868,26.089166666666667,15,13,5da75533dfe54400089ce13e,Zarada Restaurant,44.491019,26.087323,Romanian Restaurant
1011,44.4868,26.089166666666667,15,14,4dfb577bfa7641d78dd79b39,Trattoria Don Vito,44.49056336919197,26.087403673114128,Italian Restaurant
1012,44.4868,26.11583333333333,3,0,5235a12c11d21b2af4324420,Alexander Events Plaza,44.490296818831624,26.118280830041208,Eastern European Restaurant
1013,44.4868,26.11583333333333,3,1,4d34101e62a22d43507b039b,Silva Catering,44.48409115893756,26.119437217712402,Eastern European Restaurant
1014,44.4868,26.11583333333333,3,2,4f23f6e1e4b01b0c5eed5639,Arisocrat Ballroom,44.48624000564403,26.11430455656495,American Restaurant
1015,44.4868,26.129166666666666,6,0,5ce27fea6336be002c90612c,Porto - Gallo,44.490532,26.12871,Portuguese Restaurant
1016,44.4868,26.129166666666666,6,1,5a2a6845d3cce86fa10d03ae,Beijing Garden,44.490701,26.128453,Chinese Restaurant
1017,44.4868,26.129166666666666,6,2,58456f098ee5607859834054,Toan's,44.49017842445507,26.12728172177841,Vietnamese Restaurant
1018,44.4868,26.129166666666666,6,3,565c423f498e983dd1e254fd,Don Quijote,44.490435,26.126921,Spanish Restaurant
1019,44.4868,26.129166666666666,6,4,56e7e6c4498e78e815440ffa,Sheikh,44.49015427680181,26.12716763560526,Middle Eastern Restaurant
1020,44.4868,26.129166666666666,6,5,59c4da3b35f9830719470a90,Hot Woks,44.490208,26.127287,Chinese Restaurant
1021,44.4868,26.169166666666666,2,0,4fbcf4efe4b0c3466b98909d,Ekko,44.49082633462552,26.170488275749403,Restaurant
1022,44.4868,26.169166666666666,2,1,5396cb3f498e10da32ef680d,Casa Vetu,44.48897171020508,26.168554306030273,Romanian Restaurant
1023,44.4868,26.195833333333333,1,0,52a86baa498e745c21eab489,Restaurant Shiraz,44.489997,26.193154,Turkish Home Cooking Restaurant
1024,44.4968,26.0625,2,0,55e08cad498e8cb6d0513f68,Shaormeria BÄƒneasa,44.49903466051999,26.064152686260538,Fast Food Restaurant
1025,44.4968,26.0625,2,1,4f4498f8e4b061ee97d0da7a,here and there,44.498956359347986,26.063281012433304,Asian Restaurant
1026,44.4968,26.075833333333332,5,0,5137a298e4b0523475c45b54,Shaormeria BÄƒneasa,44.494460029278564,26.080461963374546,Doner Restaurant
1027,44.4968,26.075833333333332,5,1,4be29cbbb02ec9b66f3c4dc0,Pizzeria Capricciosa,44.49573833117278,26.077085839604617,Pizza Place
1028,44.4968,26.075833333333332,5,2,594a555ed48ec17dbab27902,Wow Events&Restaurant,44.49694919214006,26.07980489730835,Romanian Restaurant
1029,44.4968,26.075833333333332,5,3,51ae4d16498e673888f7771c,Restaurant Isoletta,44.49403812567814,26.079291908637067,Italian Restaurant
1030,44.4968,26.075833333333332,5,4,4bb1bd95f964a52019a13ce3,The Bistro,44.495893103416215,26.081671714782715,Eastern European Restaurant
1031,44.4968,26.089166666666667,3,0,4f19c27be4b09594f9418f5a,Dami,44.493835793796706,26.086732609667028,Asian Restaurant
1032,44.4968,26.089166666666667,3,1,4d6f866a7e16a35dbafe94f9,Bosch,44.495288,26.09343,Eastern European Restaurant
1033,44.4968,26.089166666666667,3,2,589cbcc1f595726efd494e51,Premiata,44.493836072890254,26.085515921886543,Italian Restaurant
1034,44.4968,26.11583333333333,1,0,500a7bd8e4b008129683f4d4,Capricciosa,44.495541765287534,26.118288935005758,Italian Restaurant
1035,44.4968,26.129166666666666,8,0,4dc3c97052b1e8f9f7a96a01,Shanghai Garden,44.49581642366803,26.131069137781164,Asian Restaurant
1036,44.4968,26.129166666666666,8,1,53b83cbe498efa33b14af521,Amvrosia Restaurant Grecesc,44.499089,26.132325,Greek Restaurant
1037,44.4968,26.129166666666666,8,2,4d0b992127f8a35d0eeb2c13,El Bacha,44.49893791899507,26.133292219973523,Falafel Restaurant
1038,44.4968,26.129166666666666,8,3,55b51fe1498ef70592db5064,Restaurant Ikaria,44.49396149426086,26.12830441982585,Greek Restaurant
1039,44.4968,26.129166666666666,8,4,4ed65b29f5b93be4f34f784f,Asteria,44.494010785228596,26.128068870519286,Greek Restaurant
1040,44.4968,26.129166666666666,8,5,53690da8498ec41fab8b4f17,Amvrosia,44.49805085281978,26.132454925052397,Greek Restaurant
1041,44.4968,26.129166666666666,8,6,53946548498e12427ce26609,æ±Ÿå—æ˜¥é¥­åº—,44.49602508544922,26.13089942932129,Chinese Restaurant
1042,44.4968,26.129166666666666,8,7,59d47117d0a1497f77143fbc,THE one zero LOUNGE,44.49766,26.132832,Tapas Restaurant
1043,44.4968,26.1425,1,0,4ffeb85ee4b0f1ba2894265e,Sushiï’™,44.496354,26.142621,Sushi Restaurant
1044,44.4968,26.20916666666667,1,0,4efddb12d3e364d5fa7536d8,Restaurant Chinezesc å¤§å¯Œè±ªé¥­åº—,44.49925411274862,26.210861308773268,Chinese Restaurant
1045,44.5068,25.982499999999998,1,0,513f89a4e4b02e8b0457b154,Masterchef,44.5063050801166,25.97735570689783,French Restaurant
1046,44.5068,26.022499999999997,1,0,4d60f525338bb60cccc42ebd,Doi CocoÈ™i,44.50649699573637,26.02593180815242,Romanian Restaurant
1047,44.5068,26.035833333333333,2,0,51bf4aae498ecb1f40ca4179,Casale Ristorante,44.50607770838628,26.030281113309982,Italian Restaurant
1048,44.5068,26.035833333333333,2,1,5245cbf111d2b4d0dc0e8aff,iosif restaurant,44.50587177905328,26.030029161498263,Afghan Restaurant
1049,44.5068,26.089166666666667,31,0,59d7da8e851de5649a8d3ec3,Taco Bell,44.506136065275534,26.088735467865153,Taco Place
1050,44.5068,26.089166666666667,31,1,4f17fc98e4b0094a0388ea61,Restaurantul IKEA,44.506450962943084,26.085314152884877,Scandinavian Restaurant
1051,44.5068,26.089166666666667,31,2,4dcd112e8877851243d48cd4,Tosca Blu Baneasa,44.508996,26.088884,Italian Restaurant
1052,44.5068,26.089166666666667,31,3,4d1b7f2470d76ea871964e73,Trattoria Buongiorno,44.50967215,26.08870893,Italian Restaurant
1053,44.5068,26.089166666666667,31,4,4f3fa699e4b0a10c44b62e8a,Teppanyaki,44.506154,26.088926,Asian Restaurant
1054,44.5068,26.089166666666667,31,5,50927219e4b02b4644636eb0,Mille Sapori,44.5064804860039,26.08949392595906,CafÃ©
1055,44.5068,26.089166666666667,31,6,543ab10a498e299b6068041a,Istanbul Taksim,44.5061993901143,26.088770168622393,Turkish Restaurant
1056,44.5068,26.089166666666667,31,7,4d1cc310c17ff04df362c941,Shish DÃ¶ner & Kebab,44.50616524130235,26.08896427506836,Middle Eastern Restaurant
1057,44.5068,26.089166666666667,31,8,53a5b1cc498ebd730dbe87ba,ToÃ n's,44.51043,26.086636,Vietnamese Restaurant
1058,44.5068,26.089166666666667,31,9,4d7b9f4fcf3f3704c74e3f40,Chopstix,44.50618138508269,26.088821120065106,Chinese Restaurant
1059,44.5068,26.089166666666667,31,10,5228853d11d23b54ce2a2f49,Lemoni,44.50617881058637,26.088812426401326,Greek Restaurant
1060,44.5068,26.089166666666667,31,11,4d860e515ad3a0939509f1fd,La Mama,44.50877715471409,26.088984350845596,Romanian Restaurant
1061,44.5068,26.089166666666667,31,12,4d0b59cadd5fa1cd926b5889,La Safi,44.50616055022602,26.088925660458592,Lebanese Restaurant
1062,44.5068,26.089166666666667,31,13,4fc0df68e4b00dd50e322e45,masaaa #criticand oameni,44.50612,26.08889,French Restaurant
1063,44.5068,26.089166666666667,31,14,4fe1a638e4b0e1ec51d9a9e2,Ristorante Il Giardino,44.51046629733309,26.08849340998725,Italian Restaurant
1064,44.5068,26.089166666666667,31,15,5af312a4646e38002cb92e5c,noodle pack,44.506299,26.088593,Noodle House
1065,44.5068,26.089166666666667,31,16,4c04e48e0d0e0f47857c049a,City Grill,44.51030410437229,26.086991291510394,Eastern European Restaurant
1066,44.5068,26.089166666666667,31,17,546097ae498ea3c6bbdcbbc6,Quattro Stagioni,44.50609328832735,26.08844336288514,Italian Restaurant
1067,44.5068,26.089166666666667,31,18,4f70a38ee4b032eb65e3c195,Haru Teppanyaki & Sushi,44.50619297835912,26.089096069335938,Asian Restaurant
1068,44.5068,26.089166666666667,31,19,57f9029e498eacf29c3489e7,City Grill,44.5060418,26.0895102,Romanian Restaurant
1069,44.5068,26.089166666666667,31,20,50cf603ae4b04e1f52bf7124,Mandarin Asian Barbeque,44.506166965718776,26.088882385842645,Chinese Restaurant
1070,44.5068,26.089166666666667,31,21,4d9841e9b188721e03e42337,Risaka,44.506153890996536,26.088668026693142,Italian Restaurant
1071,44.5068,26.089166666666667,31,22,4def4c3ab0fbe76bc3bfb2d8,Scandia Sibiu,44.50616426347086,26.089029631552908,Romanian Restaurant
1072,44.5068,26.089166666666667,31,23,4d1f2d5f86e15481742cb03a,Restaurant Sheherezade,44.50596343187879,26.089181900024414,Lebanese Restaurant
1073,44.5068,26.089166666666667,31,24,5d7a7d97cd95ad00084ec371,Japanos,44.505978,26.08903,Ramen Restaurant
1074,44.5068,26.089166666666667,31,25,50670b87e4b05564fb75af1f,Greek Taverna,44.50618790655592,26.088726195460378,Greek Restaurant
1075,44.5068,26.089166666666667,31,26,5a5b78affc9e94066532d02a,Black - American Dinner,44.506195,26.089554,American Restaurant
1076,44.5068,26.089166666666667,31,27,4e6e4d5b8998a706cde491fb,Adana Kebab,44.50599306571437,26.088823256290315,Middle Eastern Restaurant
1077,44.5068,26.089166666666667,31,28,5f81aadad1f2fd3b2f203318,Rigatoni,44.51031,26.086891,Italian Restaurant
1078,44.5068,26.089166666666667,31,29,5f81ab1fa5d9a20fe64abc9f,Sushi Vo,44.51023,26.086943,Sushi Restaurant
1079,44.5068,26.089166666666667,31,30,4bcc41ba68f976b070406283,Argentine,44.50620638438024,26.088648764099176,Argentinian Restaurant
1080,44.5068,26.1025,1,0,5556bda2498e7ac8232c888d,Ms Beryani,44.502906799316406,26.09990692138672,Asian Restaurant
1081,44.5068,26.129166666666666,1,0,4e4baa8cc65b851d5ec8750d,Jerusalem Shaorma,44.511005,26.13094,Middle Eastern Restaurant
1082,44.5068,26.1425,1,0,53565c39498ed5719add0c27,La Hong Kong,44.509607,26.138935,Asian Restaurant
1083,44.5068,26.20916666666667,1,0,53f8811e498ee716056f65d8,urfa zaman,44.50268253606573,26.210996699530543,Modern European Restaurant
1084,44.5068,26.2225,1,0,523dff48498e54212585e8c5,Grande Ballroom,44.503146,26.221542,Eastern European Restaurant
1085,44.5168,25.99583333333333,1,0,4c2fb459ed37a5931cc66703,Casa VÃ¢nÄƒtoreascÄƒ,44.52038224656943,25.994658432242705,Romanian Restaurant
1086,44.5168,26.075833333333332,1,0,52d5135b498e27e56c0cc2b0,The Table,44.515009001125826,26.081292124451593,Italian Restaurant
1087,44.5168,26.089166666666667,2,0,4d8de7fe5091a1cd223c8201,Casa AlbÄƒ,44.518894975558155,26.09062114754986,Eastern European Restaurant
1088,44.5168,26.089166666666667,2,1,501e284ae4b0d7d7022bfbeb,Al Wady,44.512706,26.087087,Moroccan Restaurant
1089,44.5168,26.1025,1,0,4e00942962843b639cf8b22b,Studio 80,44.515277276107604,26.10247648701033,Mediterranean Restaurant
1090,44.5168,26.11583333333333,4,0,5773cf45498e31815ca67b00,Ligolini,44.514515,26.115364,Italian Restaurant
1091,44.5168,26.11583333333333,4,1,4f91a8aae4b0d7edb4f52881,Furculita,44.514487022483706,26.1155133009949,Brewery
1092,44.5168,26.11583333333333,4,2,4d9362ca14228cfafe65627b,Mandarin,44.51463584644365,26.115241031109463,Asian Restaurant
1093,44.5168,26.11583333333333,4,3,593550e39ec39910e41d67bd,Zigolini,44.514825,26.115308,Italian Restaurant
1094,44.5168,26.129166666666666,3,0,4edfa74f4690cf9d22f71cd6,French Bakery / La Ferma,44.51349897127146,26.132576217594256,French Restaurant
1095,44.5168,26.129166666666666,3,1,54f6ecb4498e746043199abd,La Suite,44.51391476946116,26.126493597728334,Italian Restaurant
1096,44.5168,26.129166666666666,3,2,5c2e39e041b6c9002536669e,Brasserie 41,44.513792,26.131855,Brasserie
1097,44.5168,26.1425,1,0,4f86b3a9e4b0eb20545a2071,Amore Nello Sport,44.51689804947163,26.139430494260314,Italian Restaurant
1098,44.5268,25.99583333333333,2,0,517d4ce1e4b0fb649979ebee,Restaurant Palatul MogoÈ™oaia,44.52752304894414,25.99339760960386,Romanian Restaurant
1099,44.5268,25.99583333333333,2,1,5e259f2ca292720008663905,Restaurant Royal Palatul Mogosoaia,44.52750625503831,25.993445813655853,Romanian Restaurant
1100,44.5268,26.009166666666665,1,0,4e3e9d3752b1a04aff272434,Terasa Carbone,44.52414,26.004713,Eastern European Restaurant
1101,44.5268,26.075833333333332,2,0,4d9720af0caaa143b34089b3,Trattoria,44.52529174486109,26.07238081809705,Italian Restaurant
1102,44.5268,26.075833333333332,2,1,513cc462e4b03c3b1253bfd4,Danke Bavaria,44.525361364356975,26.07233878157267,German Restaurant
1103,44.5268,26.1425,2,0,4f55b93be4b0cddfc124c159,chjjfyk,44.52850341796875,26.14328956604004,Indian Restaurant
1104,44.5268,26.1425,2,1,4f6b5a2ae4b0b8a88346c4e9,tate's,44.52850341796875,26.14334487915039,Portuguese Restaurant
1105,44.5268,26.195833333333333,1,0,50c86a7de4b04d9587b51fab,Tek Fruits,44.52720674491971,26.19037436454261,Turkish Restaurant
