,Unnamed: 0,lat_centre,long_centre,num_venues,venue_iter,venue_id,venue_name,lat_venue,long_venue,category
436,273,44.4268,26.1025,50,17,4b59efdbf964a52041a228e3,Las Tapas,44.43056166172028,26.10239446163177,Tapas Restaurant
982,819,44.4668,26.0625,10,3,4b5b2eb0f964a52040e928e3,Barka Saffron,44.46572573157238,26.068011493039798,Indian Restaurant
277,114,44.4168,26.08916666666667,8,2,4b62c590f964a52009522ae3,Il Cantuccio,44.41664580595753,26.09297993894821,Italian Restaurant
782,619,44.4468,26.1025,40,14,4b632a7ff964a520b6672ae3,Mon Cher,44.448109966657675,26.09961837530136,Bistro
118,118,44.4390609293324,26.09935475473435,18,14,4b6c3635f964a520af292ce3,Excalibur,44.43806604797235,26.09802926838421,Romanian Restaurant
486,323,44.4268,26.129166666666666,33,13,4b6c4105f964a520e12b2ce3,Ruby Tuesday,44.42732063107333,26.131105656811535,American Restaurant
768,605,44.4468,26.1025,40,0,4b6c66f0f964a52014372ce3,Embassy,44.44542239244092,26.09920485143916,Mediterranean Restaurant
664,501,44.43680000000001,26.129166666666666,19,3,4b7813caf964a520c6b42ee3,Cuptorul cu Lemne,44.439836959970386,26.12521389335225,Pizza Place
855,692,44.4468,26.129166666666666,14,11,4b7991e8f964a52028022fe3,Bistro Caffe Tabiet,44.44505424732465,26.13128522178425,Bistro
284,121,44.4168,26.1025,12,1,4b855f5ef964a520b45931e3,Sushi Garden,44.42007727828142,26.10201985616044,Sushi Restaurant
662,499,44.43680000000001,26.129166666666666,19,1,4b857dacf964a520516131e3,Casa Jienilor,44.439102207691256,26.129867487926326,Romanian Restaurant
490,327,44.4268,26.129166666666666,33,17,4b85832ef964a520a26231e3,La Mama,44.42642197082674,26.13032762520004,Romanian Restaurant
815,652,44.4468,26.11583333333333,36,7,4b8bd7aff964a5202aae32e3,Trattoria Il Saraceno,44.44653185779249,26.115047055464483,Italian Restaurant
1079,916,44.4768,26.08916666666667,23,3,4b901362f964a520137433e3,Casa di David,44.475741215906346,26.08906470374209,Mediterranean Restaurant
645,482,44.43680000000001,26.11583333333333,27,11,4b9a9c67f964a5202fc635e3,Restaurant Etiquette,44.43600150348527,26.121411323547363,Eastern European Restaurant
926,763,44.4568,26.1025,28,6,4b9b83b2f964a5203c0c36e3,Genin,44.45986218177701,26.100490912662874,Middle Eastern Restaurant
763,600,44.4468,26.08916666666667,25,20,4b9d15c6f964a5203b8e36e3,Nan Jing,44.44952977948199,26.0914630627386,Chinese Restaurant
698,535,44.43680000000001,26.15583333333333,12,11,4ba27736f964a5206ffb37e3,Casa Diham,44.434451274391634,26.16034124958941,Romanian Restaurant
556,393,44.43680000000001,26.075833333333332,8,1,4ba38577f964a520064438e3,Derby,44.43409126844138,26.072458423822408,Australian Restaurant
429,266,44.4268,26.1025,50,10,4ba85ceef964a5201ad839e3,City Grill,44.430402799999996,26.1026109,Romanian Restaurant
1033,870,44.4668,26.11583333333333,4,1,4baa6761f964a520ea663ae3,LaMisto,44.47060549255889,26.115745091465282,Italian Restaurant
225,62,44.4068,26.11583333333333,10,0,4badf4c5f964a5207d753be3,Cafeneaua Actorilor de Vară,44.40832668972168,26.110506977072177,Italian Restaurant
832,669,44.4468,26.11583333333333,36,24,4bb08780f964a520ff493ce3,El Vino,44.44600557606629,26.11514568328857,Tapas Restaurant
315,152,44.4168,26.129166666666666,20,5,4bb0aeb2f964a520a1543ce3,Chopstix,44.42026216074825,26.126591372019657,Chinese Restaurant
1193,1030,44.4968,26.075833333333332,5,4,4bb1bd95f964a52019a13ce3,The Bistro,44.495893103416215,26.081671714782715,Eastern European Restaurant
50,50,44.4290609293324,26.099355292855925,37,31,4bb22f50eb3e9521daabc90a,St. George,44.43013199684629,26.099901817904865,Hungarian Restaurant
658,495,44.43680000000001,26.11583333333333,27,24,4bb4c2e2613fb713a82294e6,Orașul Interzis,44.440408934295576,26.112335163843397,Chinese Restaurant
1004,841,44.4668,26.08916666666667,19,0,4bb5b9b61344b713be8f9c04,City Grill,44.46705920498628,26.08772187740169,Romanian Restaurant
414,251,44.4268,26.08916666666667,6,1,4bb66269941ad13a7c571fe3,Elmir,44.428235878308364,26.09108787620545,Mediterranean Restaurant
248,85,44.4168,26.0225,1,0,4bbb75778a0d95216360d930,Azzurro,44.416835509462395,26.02692221145124,Italian Restaurant
1012,849,44.4668,26.08916666666667,19,8,4bbef3b5006dc9b646d9fb3f,Quattro Stagioni Ristorante,44.46678778771057,26.084533040400476,Italian Restaurant
640,477,44.43680000000001,26.11583333333333,27,6,4bbf6c6582a2ef3bbbc32cd2,Restaurant Lascar,44.437506034777314,26.11662495502749,Romanian Restaurant
1014,851,44.4668,26.08916666666667,19,10,4bc2f014abf49521a310c393,City Café,44.46536936072301,26.08695327885665,Café
886,723,44.4568,26.075833333333332,17,1,4bc60b56b387d13a4a32c1e8,Ristorante Il Calcio,44.459857563785064,26.077762680255326,Italian Restaurant
729,566,44.4468,26.0625,12,11,4bc99b68937ca5935605a692,La Mama,44.44517023945778,26.06252346887746,Romanian Restaurant
731,568,44.4468,26.075833333333332,13,1,4bc9d472b6c49c74d6068f91,La Haleală,44.448368034176035,26.076771338307395,Middle Eastern Restaurant
406,243,44.4268,26.075833333333332,13,6,4bca2a850687ef3b2973dbcc,La cucina,44.42612660478723,26.07618106470354,Italian Restaurant
1024,861,44.4668,26.1025,9,1,4bcae73b68f976b0f5216083,Trattoria Il Calcio,44.46267163858783,26.101476778402702,Italian Restaurant
409,246,44.4268,26.075833333333332,13,9,4bcb313cb6c49c74d1a19191,Yoko,44.42559242031237,26.07772625664416,Japanese Restaurant
1242,1079,44.5068,26.08916666666667,31,30,4bcc41ba68f976b070406283,Argentine,44.50620638438024,26.088648764099172,Argentinian Restaurant
505,342,44.4268,26.129166666666666,33,32,4bcece38b6c49c74a9a99791,Restaurant Asia,44.4284781705818,26.133320331573486,Asian Restaurant
887,724,44.4568,26.075833333333332,17,2,4bd01e8db221c9b60a1dd3d0,Piccolo Mondo,44.45995613430952,26.077662064470054,Middle Eastern Restaurant
573,410,44.43680000000001,26.08916666666667,21,10,4bd04002046076b0ce906f71,La Bibliotecă,44.438822028893526,26.089778286245885,Café
1065,902,44.4768,26.075833333333332,11,0,4bd07a13046076b0f9027071,Hard Rock Cafe București,44.47674827968229,26.075947209839047,American Restaurant
317,154,44.4168,26.129166666666666,20,7,4bd42ee7462cb71310d1df07,Palmie Bistro,44.420229,26.12656,Greek Restaurant
408,245,44.4268,26.075833333333332,13,8,4bd488217b1876b084368986,Champions,44.42558931490226,26.07723043431738,Pub
680,517,44.43680000000001,26.1425,7,0,4bd4a20e6798ef3b410f628d,Da'Mask Caffe (Caffe DaMask),44.439173,26.140809,Café
368,205,44.4268,26.03583333333333,21,7,4bdc0b05c79cc928961285e9,Ruby Tuesday,44.428558331103694,26.034748876408468,American Restaurant
530,367,44.43680000000001,25.99583333333333,2,1,4bdf03a4e75c0f473c9bc903,Restaurant Vulturul,44.434439257643575,25.994705868990856,Eastern European Restaurant
899,736,44.4568,26.075833333333332,17,14,4bdf111b7ea362b5674d43c4,Restaurant,44.46060073377163,26.077496982623728,Mediterranean Restaurant
591,428,44.43680000000001,26.1025,50,7,4be04bad4f15c928c8a2ca0b,Argentin,44.432461919448,26.10177865782156,Romanian Restaurant
1190,1027,44.4968,26.075833333333332,5,1,4be29cbbb02ec9b66f3c4dc0,Pizzeria Capricciosa,44.49573833117278,26.07708583960461,Pizza Place
661,498,44.43680000000001,26.129166666666666,19,0,4be2a0eff07b0f4743c7f543,"Trattoria ""Il Calcio""",44.433168145731315,26.128144105237002,Italian Restaurant
1017,854,44.4668,26.08916666666667,19,13,4be2a37c660ec92859d4c93b,La Mangerie,44.46808354005379,26.089396476745605,French Restaurant
515,352,44.4268,26.15583333333333,7,3,4be5ab44cf200f472086133c,Restaurant Jade,44.428815285652675,26.15310430526733,Eastern European Restaurant
713,550,44.4468,26.049166666666665,5,0,4be69537bcef2d7f2f4805e5,Trattoria 20,44.4453723344795,26.054474840100628,Italian Restaurant
656,493,44.43680000000001,26.11583333333333,27,22,4be86595d837c9b6f145a506,Louisenhof,44.436723554889795,26.119318467177013,German Restaurant
821,658,44.4468,26.11583333333333,36,13,4bed9df0e3562d7fd74afff8,Habibi,44.444935,26.110844,Middle Eastern Restaurant
1158,995,44.4868,26.075833333333332,2,0,4bf1283624f020a167c0684f,Restaurant Voievodal Băneasa,44.49028452257957,26.079389780297127,Romanian Restaurant
833,670,44.4468,26.11583333333333,36,25,4bf12f09b315c9b631af93ff,China Town,44.44774299046649,26.11466203627745,Chinese Restaurant
1120,957,44.4768,26.1025,26,21,4bf260ff77b4c9281b326a1c,City Grill,44.47937373496822,26.101634734234032,Romanian Restaurant
382,219,44.4268,26.049166666666665,11,0,4bf506bb98ac0f47ea9c64a8,Trattoria Roma,44.424338569073655,26.04452375883349,Italian Restaurant
104,104,44.4390609293324,26.09935475473435,18,0,4bf6cdf513aed13a093beaf7,"Trattoria ""Il Calcio""",44.44082085122489,26.09745090349299,Italian Restaurant
285,122,44.4168,26.1025,12,2,4bf8f5598d30d13a028f0118,Restaurant La Bucur,44.41502906920553,26.10471079294448,Romanian Restaurant
874,711,44.4568,26.049166666666665,8,0,4bfeb06005672d7fbd880a04,Restaurant Potcoava,44.456506372286185,26.054705647899763,Romanian Restaurant
1228,1065,44.5068,26.08916666666667,31,16,4c04e48e0d0e0f47857c049a,City Grill,44.51030410437229,26.086991291510397,Eastern European Restaurant
638,475,44.43680000000001,26.11583333333333,27,4,4c08d0eb1244b7131614a872,Xanadu,44.43626195450264,26.116923926700306,Mediterranean Restaurant
373,210,44.4268,26.03583333333333,21,12,4c08e3135214ef3b25455e69,Bella Pizza,44.427543381463785,26.029946537021925,Pizza Place
836,673,44.4468,26.11583333333333,36,28,4c0e0f15b1b676b07571e186,damatti,44.44431554000001,26.11991482,Italian Restaurant
569,406,44.43680000000001,26.08916666666667,21,6,4c0f6b60d64c0f47a9b1295d,Alioli,44.440171811543976,26.08639674623885,Spanish Restaurant
153,153,44.4390609293324,26.105645245265652,14,12,4c0fcbb0336220a16b5dce77,Christie's,44.440582,26.10697,Eastern European Restaurant
394,231,44.4268,26.0625,7,1,4c10aa743ce120a1196a081c,Hanul Voievozilor,44.4261232791918,26.067317146548113,Eastern European Restaurant
762,599,44.4468,26.08916666666667,25,19,4c10d3a7b93cc9b64c4557e0,Restaurant Hong Kong,44.44537531745976,26.084077786277252,Chinese Restaurant
371,208,44.4268,26.03583333333333,21,10,4c12154b7f7f2d7fbd98dc68,Dristor Kebap,44.42852807614626,26.03488020488452,Doner Restaurant
666,503,44.43680000000001,26.129166666666666,19,5,4c13e18c77cea59325a8cf60,Bistro HB,44.44112718382724,26.128306088978505,Italian Restaurant
482,319,44.4268,26.129166666666666,33,9,4c14a87d1b5cef3ba427eec4,Rasputin,44.42709251316003,26.13038107571104,Eastern European Restaurant
387,224,44.4268,26.049166666666665,11,5,4c14e8a177cea593c642d160,Navy's,44.43028631048114,26.052017211914066,Greek Restaurant
358,195,44.4268,26.0225,3,0,4c167dd074fb20a190305012,Piatra Albă,44.42341475296497,26.025541105675718,Romanian Restaurant
1093,930,44.4768,26.08916666666667,23,17,4c1d0367fcf8c9b6fefdaa0b,Restaurant La Gondola,44.475113671275814,26.092808006995373,Italian Restaurant
909,746,44.4568,26.08916666666667,18,7,4c1e01dceac020a1250949c2,Restaurant Exile,44.4597148850197,26.09230724913314,Eastern European Restaurant
226,63,44.4068,26.11583333333333,10,1,4c2646a4db5195213c5e2c3a,"Taverna ""La Călinescu""",44.41061735376913,26.11273150993124,Romanian Restaurant
844,681,44.4468,26.129166666666666,14,0,4c2d007ce307d13a6a130dda,Iskender Kebap,44.44394354428642,26.1289272413934,Middle Eastern Restaurant
241,78,44.4068,26.1825,2,0,4c2d965511cb9c7444e072b3,Terasa de pe Aleea Mizil,44.406898761844815,26.17818832397461,Beer Garden
1248,1085,44.5168,25.99583333333333,1,0,4c2fb459ed37a5931cc66703,Casa Vânătorească,44.52038224656943,25.994658432242705,Romanian Restaurant
563,400,44.43680000000001,26.08916666666667,21,0,4c32216616adc928679cc19c,Monte Carlo,44.43785894843405,26.08957534463417,Eastern European Restaurant
930,767,44.4568,26.1025,28,10,4c3362b3a0ced13adf86166e,Decebal Steak House,44.45598829750842,26.10557245943902,Steakhouse
885,722,44.4568,26.075833333333332,17,0,4c3370e416adc92866a0c39c,Shaorma Orient,44.458318920670564,26.077610384114084,Middle Eastern Restaurant
338,175,44.4168,26.169166666666666,7,0,4c376a1e1e06d13ab7e4753e,Restaurant Casa Anca,44.41667553073844,26.17541927116625,Romanian Restaurant
758,595,44.4468,26.08916666666667,25,15,4c3c3b747f49c9b6888f6be3,Cosmopolitan Downtown,44.446689,26.094217999999998,Italian Restaurant
298,135,44.4168,26.11583333333333,15,3,4c409960af052d7f340a7c79,Sare și piper,44.41498377386333,26.11246122040907,Italian Restaurant
567,404,44.43680000000001,26.08916666666667,21,4,4c41e396d7fad13a343408da,Restaurant Vatra,44.43523210783971,26.094687668997732,Romanian Restaurant
934,771,44.4568,26.1025,28,14,4c4210f2ff711b8d59f31205,La Mama,44.45327515133477,26.104848471574005,Romanian Restaurant
801,638,44.4468,26.1025,40,33,4c4338a93735be9ada191ba4,La Calderon 80,44.44399340285928,26.10435749222503,Eastern European Restaurant
283,120,44.4168,26.1025,12,0,4c44216cf0bdd13a171cc9cc,DRISTOR Doner KEBAP,44.41698516888568,26.1042255516,Doner Restaurant
864,701,44.4468,26.15583333333333,7,2,4c4b15fc9e6dbe9a66d5850b,Acapulco,44.446002800832126,26.157032394356364,Eastern European Restaurant
958,795,44.4568,26.129166666666666,8,1,4c4c1ea09c8d2d7f6bc4f36b,Restaurant Turcesc Obor,44.45477848487867,26.126564109977487,Middle Eastern Restaurant
416,253,44.4268,26.08916666666667,6,3,4c4c429cc668e21edfaf3efb,Locanta Jariștea,44.423622834820605,26.09205396605465,Romanian Restaurant
561,398,44.43680000000001,26.075833333333332,8,6,4c4d691592b6a5935dfa336e,Trattoria Roma,44.43405209462831,26.07806952324201,Italian Restaurant
990,827,44.4668,26.075833333333332,15,1,4c4f34e9a7351b8d330ebb92,Jadoo,44.46243726171872,26.07626907955946,Mediterranean Restaurant
570,407,44.43680000000001,26.08916666666667,21,7,4c5065438edf0f470d1837af,Ici et Là,44.43473746738079,26.094750165939328,French Restaurant
472,309,44.4268,26.11583333333333,4,3,4c540ebe1b46c9b69266f4cd,La Cena 2,44.43087573283082,26.11803437448686,Eastern European Restaurant
810,647,44.4468,26.11583333333333,36,2,4c583ca5cc96c9b6a3b57a2e,Templul Soarelui,44.44646676127757,26.11483103599364,Chinese Restaurant
774,611,44.4468,26.1025,40,6,4c5b2d89b014ef3b5f711c97,Restaurant Gargantua,44.443026,26.10444,Mediterranean Restaurant
213,50,44.3968,26.129166666666666,4,1,4c62d561e1621b8d91632453,B-Back Lebanese Food,44.39562295176147,26.123107352670328,Lebanese Restaurant
360,197,44.4268,26.0225,3,2,4c6315f0e1621b8d7d132553,Primo Fast Food,44.42325567483776,26.025075758318962,Eastern European Restaurant
1077,914,44.4768,26.08916666666667,23,1,4c66aed8e1da1b8d8f899bc3,Isoletta,44.47778100646117,26.08499055157013,Italian Restaurant
711,548,44.4468,26.03583333333333,2,0,4c6990071a6620a1fce4638c,McDonald's,44.44436015729356,26.03653625540971,Burger Joint
829,666,44.4468,26.11583333333333,36,21,4c6c5b4569b4ef3b56b24c4e,Sis Kebab,44.44474372774751,26.115303075295824,Middle Eastern Restaurant
1007,844,44.4668,26.08916666666667,19,3,4c6d5e9065eda0936d614ed0,Baraka Bar & Lounge,44.467650261932704,26.083808796368093,Beer Garden
606,443,44.43680000000001,26.1025,50,22,4c77755c947ca1cd5d834737,Nana Natural Food,44.4370928457455,26.09705931117928,Eastern European Restaurant
642,479,44.43680000000001,26.11583333333333,27,8,4c7a3b2ba86837042b18134d,Restaurant CASA,44.43816948152605,26.112727493961067,Romanian Restaurant
181,18,44.3868,26.11583333333333,10,1,4c7bde0d93ef236a5f92b60f,Ana Saray Cafe,44.39006240060319,26.11917694946456,Eastern European Restaurant
438,275,44.4268,26.1025,50,19,4c813a90d8086dcb21e56a52,Hanul Hangitei,44.431082933453894,26.102755889643174,Eastern European Restaurant
1026,863,44.4668,26.1025,9,3,4c85395ad8086dcb65ea8f52,Restaurant Diesel,44.46705579309052,26.100765612009358,Eastern European Restaurant
270,107,44.4168,26.075833333333332,7,2,4c85ff522f1c236a8b375943,West Gate Restaurant,44.4151145891998,26.08004093170166,Eastern European Restaurant
797,634,44.4468,26.1025,40,29,4c8688e02f1c236ab0175e43,Trattoria Roma,44.447996220104294,26.106960880201576,Italian Restaurant
56,56,44.42453907066761,26.099355292855925,1,0,4c8a4889159cbfb7c74c7035,Il Giardino Segreto,44.42311661738592,26.09885329965452,Italian Restaurant
858,695,44.4468,26.1425,4,0,4c8a56c62e333704da9fc241,I'Ladrino,44.442386383099524,26.14193558692932,Italian Restaurant
475,312,44.4268,26.129166666666666,33,2,4c8caed15e048cfa0103cfcd,El Bacha,44.424698707452535,26.12947033166684,Lebanese Restaurant
818,655,44.4468,26.11583333333333,36,10,4c91178c2626a1cd16532f6b,Discret,44.44691913618949,26.11095592143624,Greek Restaurant
343,180,44.4168,26.169166666666666,7,5,4c94c3fdf7cfa1cdd393b615,Trattoria Xanadu,44.4172384337992,26.17390862851124,Italian Restaurant
743,580,44.4468,26.08916666666667,25,0,4c96633894a0236ad0839e12,Restaurant Thalia,44.4492727307564,26.08419904033997,Italian Restaurant
340,177,44.4168,26.169166666666666,7,2,4c9b1e5078ffa093941a7275,L'Incontro,44.41715,26.173153,Italian Restaurant
137,137,44.43453907066761,26.09935475473435,19,15,4c9d138c0df79c744d34151a,Chinese Restaurant Pekin,44.43307435581808,26.09843956719439,Chinese Restaurant
996,833,44.4668,26.075833333333332,15,7,4c9f18a47c096dcb5386dbd1,Restaurant Beirut,44.462567624763786,26.07632890208388,Middle Eastern Restaurant
748,585,44.4468,26.08916666666667,25,5,4ca22096d3c2b60ce887ebbc,Old Kitchen,44.446186842116674,26.084501873259125,Romanian Restaurant
577,414,44.43680000000001,26.08916666666667,21,14,4ca5be5ed971b1f7aa06f9e0,Restaurant Libanez Tulin,44.43936776255577,26.08688703881941,Middle Eastern Restaurant
364,201,44.4268,26.03583333333333,21,3,4ca63fcab7106dcbab2a5ca5,Trattoria Rock'n Pasta,44.42891526361653,26.032642413542572,Italian Restaurant
182,19,44.3868,26.11583333333333,10,2,4cb474a2db32f04ddfbedd4d,Restaurant Terasă Geo,44.389374,26.118902,Lebanese Restaurant
216,53,44.3968,26.1425,1,0,4cb6dd6d8db0a143e1ff6c16,Cantină Restaurant,44.39808694510442,26.146141011663442,Eastern European Restaurant
349,186,44.4268,25.9825,2,1,4cb8294f90c9a143d2157dd6,Macarale Grill And More,44.430087,25.98152516555307,Eastern European Restaurant
961,798,44.4568,26.129166666666666,8,4,4cbca1a04352a1cdef559ff5,Gallienus,44.4604877215232,26.13082786501791,Eastern European Restaurant
390,227,44.4268,26.049166666666665,11,8,4cc1bc595684a35d0ab4ba0d,Ai Sapori,44.42747675973288,26.04756399558896,Italian Restaurant
753,590,44.4468,26.08916666666667,25,10,4cc6cc1ab2beb1f783492a4c,La Cantine de Nicolai,44.44954848418933,26.09244287554147,French Restaurant
861,698,44.4468,26.1425,4,3,4cc951eab127bfb76f34aa31,Jin Ding,44.44836463298791,26.147031784057614,Chinese Restaurant
634,471,44.43680000000001,26.11583333333333,27,0,4ccc559fba0a548164983c59,Burebista,44.439455379114115,26.115524672058392,Romanian Restaurant
1063,900,44.4768,26.0625,6,4,4cd2c0994aa9f04dfeef58cb,Casa Doina La Parc,44.48019854407073,26.063256276313673,Eastern European Restaurant
682,519,44.43680000000001,26.1425,7,2,4cd71b197da9a35d3a25f3b9,Perche No,44.433298374380854,26.1438387013383,Italian Restaurant
227,64,44.4068,26.11583333333333,10,2,4cd9937e145fa1cddb5a0cbd,Trattoria Piccola,44.40672306535171,26.114535147336863,Italian Restaurant
316,153,44.4168,26.129166666666666,20,6,4cda82153f6a8cfa60b9e4ea,Onyx Restaurant,44.419428969135105,26.12549901008606,Eastern European Restaurant
379,216,44.4268,26.03583333333333,21,18,4ce7a396e1eeb60cfc499eae,Dynasty Chinese Restaurant,44.42917664827922,26.03489581334092,Chinese Restaurant
348,185,44.4268,25.9825,2,0,4cee367ced62721e7e6f5afd,Cantina Preciziei,44.43006670334622,25.981415940080108,Cafeteria
180,17,44.3868,26.11583333333333,10,0,4cf259166195721e5b0647c1,L'Incontro,44.38549389183985,26.116141852676865,Italian Restaurant
686,523,44.43680000000001,26.1425,7,6,4cf6a1f6d3a8a1cdfc6ad243,Sushi,44.438642031115855,26.138317,Sushi Restaurant
1096,933,44.4768,26.08916666666667,23,20,4cf6abd964e3721edf8522c8,Patru Anotimpuri,44.478284421744185,26.086365719259486,Eastern European Restaurant
651,488,44.43680000000001,26.11583333333333,27,17,4cf7a33a1cfea093e2d6e539,Restaurant Izvorul Rece,44.43800509942065,26.116677994229093,Eastern European Restaurant
565,402,44.43680000000001,26.08916666666667,21,2,4cfe12e07945224bf79f93e7,Trattoria Adagio,44.43989334781593,26.089519891626388,Italian Restaurant
527,364,44.43680000000001,25.9825,4,2,4d05f778e350b60c6efc8a42,Swiss Grill,44.439893030842896,25.98219394683838,Swiss Restaurant
188,25,44.3868,26.11583333333333,10,8,4d09458600e6b1f792da11d7,Bio Mediteraneo,44.387857000000004,26.111306,Greek Restaurant
1224,1061,44.5068,26.08916666666667,31,12,4d0b59cadd5fa1cd926b5889,La Safi,44.50616055022602,26.08892566045859,Lebanese Restaurant
1200,1037,44.4968,26.129166666666666,8,2,4d0b992127f8a35d0eeb2c13,El Bacha,44.49893791899507,26.133292219973523,Falafel Restaurant
761,598,44.4468,26.08916666666667,25,18,4d138923d1848cfadfc7c471,La Dolce Vita,44.447248903621706,26.086411405014772,Italian Restaurant
55,55,44.4290609293324,26.099355292855925,37,36,4d14cbb1cc216ea824c25ed3,Il Peccato,44.43029,26.099562,Italian Restaurant
339,176,44.4168,26.169166666666666,7,1,4d1b24232a52b60c5df0f4ff,Trattoria Venti,44.417168538705475,26.172708659410674,Italian Restaurant
1215,1052,44.5068,26.08916666666667,31,3,4d1b7f2470d76ea871964e73,Trattoria Buongiorno,44.50967215,26.08870893,Italian Restaurant
1219,1056,44.5068,26.08916666666667,31,7,4d1cc310c17ff04df362c941,Shish Döner & Kebab,44.50616524130235,26.08896427506836,Middle Eastern Restaurant
1235,1072,44.5068,26.08916666666667,31,23,4d1f2d5f86e15481742cb03a,Restaurant Sheherezade,44.50596343187878,26.08918190002441,Lebanese Restaurant
721,558,44.4468,26.0625,12,3,4d2655b36e27a1431b2f0424,Blida,44.443064280752274,26.062488555908203,Middle Eastern Restaurant
321,158,44.4168,26.129166666666666,20,11,4d2a06c3c406721e1b3e80b6,Dynasty,44.420249,26.126584,Chinese Restaurant
488,325,44.4268,26.129166666666666,33,15,4d2b240bf7a9224b9c230da0,Ganesh,44.42860202007121,26.132298454061413,Indian Restaurant
837,674,44.4468,26.11583333333333,36,29,4d2f33f194013704a32eedda,Zexe Zahana,44.448596860979144,26.11080673828488,Romanian Restaurant
299,136,44.4168,26.11583333333333,15,4,4d302565f986a0930da2f966,Art Caffe and Lounge,44.41858693528038,26.11222516326357,Italian Restaurant
1176,1013,44.4868,26.11583333333333,3,1,4d34101e62a22d43507b039b,Silva Catering,44.48409115893756,26.1194372177124,Eastern European Restaurant
946,783,44.4568,26.1025,28,26,4d34c3495c2db60c1390d66c,Restaurant Habibi,44.45658456471229,26.10624866127209,Middle Eastern Restaurant
572,409,44.43680000000001,26.08916666666667,21,9,4d37388676b3236a95a6b879,Shaorma Kogălniceanu,44.43462549947434,26.08801086326697,Fast Food Restaurant
195,32,44.3868,26.1425,1,0,4d381fa5b9e5224b04c85090,No Name Pizza & Grill,44.38691822266061,26.136574914614787,Pizza Place
372,209,44.4268,26.03583333333333,21,11,4d39addb325ff04dadc11445,Chopstix,44.428817942215346,26.034849554533988,Chinese Restaurant
795,632,44.4468,26.1025,40,27,4d39bd80325ff04dd85f1545,Il Peperoncino,44.445437,26.101149,Italian Restaurant
771,608,44.4468,26.1025,40,3,4d39e993bf6d54817bedc7e1,Home Cafe,44.442805651172115,26.102150406697845,Café
308,145,44.4168,26.11583333333333,15,13,4d3c1af73ec9a35dae9d4581,Restaurant Contesa,44.41313049611429,26.1128409715235,Eastern European Restaurant
184,21,44.3868,26.11583333333333,10,4,4d3f58e5cb84b60cb14a7cab,Terasa cu flori,44.39021392258895,26.11917160897131,Romanian Restaurant
956,793,44.4568,26.11583333333333,9,8,4d42b3f67fb054813b816d79,Trattoria Alto,44.458082119672724,26.1214566707802,Italian Restaurant
218,55,44.4068,26.009166666666665,1,0,4d440e5fe198721e8584b78b,Doricom,44.411068896727954,26.01005332611357,Eastern European Restaurant
785,622,44.4468,26.1025,40,17,4d4516fc1ed56dcb8499b754,SOTOS GYROS,44.44797842304021,26.106912180633827,Greek Restaurant
311,148,44.4168,26.129166666666666,20,1,4d518ac13626a093ef7b25bd,Restaurantul Ancuța,44.42024823000001,26.126571,Romanian Restaurant
356,193,44.4268,26.009166666666665,5,3,4d5454f8ba5b224b890a0214,Restaurant Bârlogul Lupilor,44.42340825958476,26.01214731208511,Romanian Restaurant
49,49,44.4290609293324,26.099355292855925,37,30,4d567c07cf1b370412a1be3f,Vero Pizzaiolo,44.431009,26.09976,Pizza Place
665,502,44.43680000000001,26.129166666666666,19,4,4d5975869b302d43720e2434,Club Art Papillon,44.437236177323456,26.130081321020022,Romanian Restaurant
992,829,44.4668,26.075833333333332,15,3,4d59766624466ea855cd779f,Restaurant Il Corso,44.46753617744362,26.077406849633565,Italian Restaurant
750,587,44.4468,26.08916666666667,25,7,4d5c218dff226a31cae47469,Bella Venezia Restaurant,44.44748773333333,26.0840642,Italian Restaurant
851,688,44.4468,26.129166666666666,14,7,4d5d39ea9895b1f7fbd3ed0f,Pizzeria David Obor,44.44986576703327,26.126953106044198,Italian Restaurant
1209,1046,44.5068,26.0225,1,0,4d60f525338bb60cccc42ebd,Doi Cocoși,44.50649699573637,26.02593180815242,Romanian Restaurant
875,712,44.4568,26.049166666666665,8,1,4d655bb6801854818bfd5468,Le Parisien,44.45260602244393,26.049615749886343,French Restaurant
643,480,44.43680000000001,26.11583333333333,27,9,4d693eaa30a7236adff372ac,Chong Qing,44.43820403661767,26.120674441083988,Chinese Restaurant
911,748,44.4568,26.08916666666667,18,9,4d6a550e342b8cfa2e8cd52c,Casa Boiereasca,44.45986001996135,26.089371124757783,Eastern European Restaurant
318,155,44.4168,26.129166666666666,20,8,4d6e307c2427224bd873c94d,Ristorante Da Renzo,44.419645071029656,26.133693,Italian Restaurant
560,397,44.43680000000001,26.075833333333332,8,5,4d6f79a87e16a35d793e94f9,Codrul Cosminului,44.44011551473671,26.079587032640468,Eastern European Restaurant
1195,1032,44.4968,26.08916666666667,3,1,4d6f866a7e16a35dbafe94f9,Bosch,44.495288,26.093429999999998,Eastern European Restaurant
976,813,44.4568,26.169166666666666,2,1,4d72076c2804cbff9a6eaade,tratoria belucii,44.45427717516213,26.164026260375977,Italian Restaurant
843,680,44.4468,26.11583333333333,36,35,4d72335fd976236ad79b0279,Haveli,44.44490952940809,26.11776173905182,Indian Restaurant
291,128,44.4168,26.1025,12,8,4d74cbb71a8aa35d425914a7,Eurest Central Business Park,44.416578538555,26.102222817607288,Eastern European Restaurant
826,663,44.4468,26.11583333333333,36,18,4d760236004b3704dc61fc93,Casa Cristian Restaurant,44.445583,26.110999,Eastern European Restaurant
778,615,44.4468,26.1025,40,10,4d760b9abd7354810abc0fb3,Benihana,44.44627713055576,26.09930174342723,Japanese Restaurant
673,510,44.43680000000001,26.129166666666666,19,12,4d77b3be8963f04de339f037,La Birlic,44.440905541973066,26.13130695180959,Eastern European Restaurant
1148,985,44.4768,26.1825,4,1,4d7b3f83da568cfa6a3c4dff,ChinaTown Cantina,44.4765351838026,26.179001728397843,Asian Restaurant
1221,1058,44.5068,26.08916666666667,31,9,4d7b9f4fcf3f3704c74e3f40,Chopstix,44.506181385082684,26.088821120065106,Chinese Restaurant
202,39,44.3968,26.1025,4,0,4d7e2399f635236a7d256216,La Collina,44.39972,26.098098999999998,Italian Restaurant
1155,992,44.4868,26.049166666666665,2,0,4d7fa588cd09224b482e6030,Korea House,44.48450431283211,26.045824464989156,Korean Restaurant
526,363,44.43680000000001,25.9825,4,1,4d81db70d95df04d1bfd4abc,Hang Zhou,44.44009219653099,25.982215404510498,Asian Restaurant
528,365,44.43680000000001,25.9825,4,3,4d81e9bf1ec4224b620fd092,Restaurant Rustic,44.43962441199728,25.982468217727316,Eastern European Restaurant
497,334,44.4268,26.129166666666666,33,24,4d82034b2ad9a143b2117e28,Restaurant Chinezesc 2,44.428709000000005,26.133228,Chinese Restaurant
1144,981,44.4768,26.15583333333333,8,6,4d8392caf9f3a1cdf276a364,Sumer Turkish Restaurant,44.473337174116544,26.153764240416766,Turkish Restaurant
43,43,44.4290609293324,26.099355292855925,37,24,4d851c0502eb548181623df5,Trattoria Sicilia,44.430444373156774,26.099136681363007,Italian Restaurant
1223,1060,44.5068,26.08916666666667,31,11,4d860e515ad3a0939509f1fd,La Mama,44.508777154714096,26.088984350845603,Romanian Restaurant
327,164,44.4168,26.129166666666666,20,17,4d8c49583200a093484a9791,Koksallar Cuptor,44.41755501974677,26.130054112020375,Taco Place
484,321,44.4268,26.129166666666666,33,11,4d8c93f1c479a35daa011997,Restaurant Delea Nouă,44.429606870573,26.130658751325175,Romanian Restaurant
998,835,44.4668,26.075833333333332,15,9,4d8ddd3d3bfef04d86ed8986,L'esperance,44.46457738869892,26.07619917453127,Pizza Place
1250,1087,44.5168,26.08916666666667,2,0,4d8de7fe5091a1cd223c8201,Casa Albă,44.518894975558155,26.090621147549857,Eastern European Restaurant
839,676,44.4468,26.11583333333333,36,31,4d90c8a9d265236a5b8c3d17,Il Toscanino,44.44845,26.110244,Italian Restaurant
896,733,44.4568,26.075833333333332,17,11,4d9307817ac3a35ddb86cc25,Oliviers,44.460620748139476,26.07734139047657,Mediterranean Restaurant
1255,1092,44.5168,26.11583333333333,4,2,4d9362ca14228cfafe65627b,Mandarin,44.51463584644365,26.115241031109466,Asian Restaurant
521,358,44.4268,26.169166666666666,3,2,4d94c049af673704d8d08309,Restaurant Păunița,44.42590718179508,26.16377737303473,Romanian Restaurant
1264,1101,44.5268,26.075833333333332,2,0,4d9720af0caaa143b34089b3,Trattoria,44.5252917448611,26.072380818097052,Italian Restaurant
1233,1070,44.5068,26.08916666666667,31,21,4d9841e9b188721e03e42337,Risaka,44.50615389099653,26.088668026693142,Italian Restaurant
275,112,44.4168,26.08916666666667,8,0,4d9859f29079b1f7944a290a,Clasis,44.41493821742657,26.08529824241036,Turkish Restaurant
1011,848,44.4668,26.08916666666667,19,7,4d9c6844a3cf1456e8568b80,Bolta Rece,44.46405762784893,26.08485315734182,Eastern European Restaurant
329,166,44.4168,26.129166666666666,20,19,4d9c7553a695721e69e3fa0c,Olive's,44.420095638881314,26.126883029937744,Middle Eastern Restaurant
401,238,44.4268,26.075833333333332,13,1,4d9eb916c7ee14565d8a517b,The Garden,44.42607490036584,26.077691255667737,Romanian Restaurant
395,232,44.4268,26.0625,7,2,4da5d73b0cb6d75e2a0042de,Crama Pandurilor,44.428751140969524,26.06401669807856,Eastern European Restaurant
276,113,44.4168,26.08916666666667,8,1,4daac7e00437dccbd80d8ac6,Dineș,44.414099879948424,26.09420089434204,Eastern European Restaurant
550,387,44.43680000000001,26.049166666666665,4,1,4dac466df7b145b3703735fe,Cantina Imst,44.441147016148726,26.04952368051753,Eastern European Restaurant
1019,856,44.4668,26.08916666666667,19,15,4daebd264df0f639f2513290,OK Deli,44.46483537602721,26.094463851008626,Eastern European Restaurant
400,237,44.4268,26.075833333333332,13,0,4daeed0b4df0f639f255aa92,TAJ,44.422937537468044,26.073669084134757,Indian Restaurant
1159,996,44.4868,26.075833333333332,2,1,4daf08eefc6063dbfa8646ff,Churrascaria Carnivore,44.49035980423602,26.075207591056824,Brazilian Restaurant
819,656,44.4468,26.11583333333333,36,11,4daf0c0bfc6063dbfa865885,Bolivar,44.44376131985379,26.11321449279785,South American Restaurant
741,578,44.4468,26.075833333333332,13,11,4daf0ebdfc6063dbfa8666f5,Bavaria,44.45088442946045,26.075245141983032,German Restaurant
44,44,44.4290609293324,26.099355292855925,37,25,4daf3d09fc60997ee92a332f,L'Harmattan,44.43057744642294,26.09855890274048,Moroccan Restaurant
738,575,44.4468,26.075833333333332,13,8,4db081ab90a09a9a85312fb1,La botu' calului,44.450999311206964,26.075711846351624,Fast Food Restaurant
502,339,44.4268,26.129166666666666,33,29,4db1df7ccda14b702a4fc8d5,PETRA,44.42647076331022,26.130434274673465,Falafel Restaurant
1037,874,44.4668,26.1425,16,0,4dbd78a41e72b351cacaa7ab,Edessa 63,44.47004583002229,26.14685104168253,Turkish Restaurant
853,690,44.4468,26.129166666666666,14,9,4dbdcc6e34dc0fa63f2a9e40,BunDeTot,44.44857908798375,26.12425446510315,Pizza Place
993,830,44.4668,26.075833333333332,15,4,4dbe8fa7815439392fc05885,Thai Moods,44.468312,26.071479,Thai Restaurant
1198,1035,44.4968,26.129166666666666,8,0,4dc3c97052b1e8f9f7a96a01,Shanghai Garden,44.49581642366803,26.13106913778116,Asian Restaurant
124,124,44.43453907066761,26.09935475473435,19,2,4dc4456ed4c0ad9c0f6a5fd8,Saray,44.43247772988125,26.09833608505623,Turkish Restaurant
335,172,44.4168,26.15583333333333,3,0,4dc53827b0fb5556ccea1e81,Casa Di Angelo,44.413220920933725,26.159614016525502,Italian Restaurant
955,792,44.4568,26.11583333333333,9,7,4dc7c2d3b0fb5556cd275237,RATB ( Restaurant & Offices ),44.454510709695825,26.112870735455946,Eastern European Restaurant
245,82,44.4168,26.009166666666665,3,0,4dc822deae608779d17b3b62,Passion - Restaurant & Pensiune,44.41790092870329,26.01316758185312,Bed & Breakfast
780,617,44.4468,26.1025,40,12,4dc82c8818387d1bd5811b55,Delfin Placintarie Turcesc,44.446697,26.099241,Turkish Restaurant
205,42,44.3968,26.1025,4,3,4dccf9ec8877851243d2ac5f,Restaurant Casa Nica,44.394982717789844,26.10311983927461,Romanian Restaurant
1214,1051,44.5068,26.08916666666667,31,2,4dcd112e8877851243d48cd4,Tosca Blu Baneasa,44.508996,26.088884,Italian Restaurant
984,821,44.4668,26.0625,10,5,4dce76cd45ddbe15f888ca25,Mica Elvetie,44.46723321639945,26.06380114965713,Swiss Restaurant
696,533,44.43680000000001,26.15583333333333,12,9,4dd2cfa21f6e1eb5a59916f4,Shef Sante,44.43337685368007,26.153226364098927,Italian Restaurant
562,399,44.43680000000001,26.075833333333332,8,7,4dd67d49c65bee535a99d283,Trattoria Del Vecchio,44.433461624826734,26.079708860081286,Italian Restaurant
187,24,44.3868,26.11583333333333,10,7,4dd6b42cd22d38ef42d636a9,Restaurant Rond,44.38996680790905,26.11904617387061,Romanian Restaurant
688,525,44.43680000000001,26.15583333333333,12,1,4dd7b2e4ae60680f150c8c85,Restaurant Sabatini,44.43355092647428,26.15541295172993,Italian Restaurant
1095,932,44.4768,26.08916666666667,23,19,4dd8d228d4c05d50970c1c69,Grădinița by Isoletta,44.47812887500492,26.084975157999484,Italian Restaurant
354,191,44.4268,26.009166666666665,5,1,4dd8d88d8877f115100c9bcf,Capri Pizza,44.42517964052043,26.01329390638239,Italian Restaurant
293,130,44.4168,26.1025,12,10,4dd8df66e4cd37c893cf252f,La Vieille Marmite,44.42049410452535,26.101069450378414,Middle Eastern Restaurant
492,329,44.4268,26.129166666666666,33,19,4dd90f0e1f6ee146834a257b,Restaurant  Roma,44.428805,26.132839,Italian Restaurant
672,509,44.43680000000001,26.129166666666666,19,11,4dd9593b1f6ee1468351d054,Restaurant Casa Noastră,44.43764780766388,26.129139575544762,Eastern European Restaurant
920,757,44.4568,26.1025,28,0,4dda3f961850807ea4640d4d,Genin,44.45488638667357,26.10066581599143,Middle Eastern Restaurant
297,134,44.4168,26.11583333333333,15,2,4dda7c57d22d38ef4330051b,Efes Restaurant,44.420428175628565,26.11603818031221,Turkish Restaurant
699,536,44.43680000000001,26.169166666666666,3,0,4dde35cb1f6e0369473d7b8f,Restaurant Est,44.43984643018671,26.167596442511893,Eastern European Restaurant
279,116,44.4168,26.08916666666667,8,4,4ddea20b88779c82bec92f7d,La Radu,44.415509,26.094419,Eastern European Restaurant
123,123,44.43453907066761,26.09935475473435,19,1,4ddff1b91f6ed1828c614e6e,Restaurant Sindbad,44.432612099718206,26.09784734172045,Lebanese Restaurant
849,686,44.4468,26.129166666666666,14,5,4de1154318380dc4dd3f93d0,Caramel Restaurant - Pizzarie,44.449189399461794,26.123871651964407,Pizza Place
345,182,44.4168,26.1825,3,0,4de60c79d22d7fddb9cd0806,StarWok,44.4202029183603,26.17971181869507,Asian Restaurant
1234,1071,44.5068,26.08916666666667,31,22,4def4c3ab0fbe76bc3bfb2d8,Scandia Sibiu,44.50616426347086,26.08902963155291,Romanian Restaurant
1046,883,44.4668,26.1425,16,9,4df510ae091aacc4e85c47bd,Colentina-Fundeni Corner,44.46855899564412,26.14278117982064,Middle Eastern Restaurant
1029,866,44.4668,26.1025,9,6,4df8a13be4cd2129701a8b3d,Trattoria Il Lago,44.469475794147776,26.098242515564337,Italian Restaurant
1174,1011,44.4868,26.08916666666667,15,14,4dfb577bfa7641d78dd79b39,Trattoria Don Vito,44.49056336919197,26.087403673114128,Italian Restaurant
204,41,44.3968,26.1025,4,2,4dfe1dd61f6e05048d8b7fb9,Templul lui Dionysos,44.39790178423186,26.0986513070737,Greek Restaurant
152,152,44.4390609293324,26.105645245265652,14,11,4dff257ea809baedbd907db0,Cafe Lautrec,44.44031042434842,26.108091215042123,Italian Restaurant
1252,1089,44.5168,26.1025,1,0,4e00942962843b639cf8b22b,Studio 80,44.5152772761076,26.102476487010325,Mediterranean Restaurant
230,67,44.4068,26.11583333333333,10,5,4e00d3bb88776240d3f31341,Trattoria Verdi,44.404769306987,26.11169358005981,Italian Restaurant
344,181,44.4168,26.169166666666666,7,6,4e08d6ca18a8382643bd39e4,Terasa CARA,44.41585561009841,26.16441689575071,Eastern European Restaurant
281,118,44.4168,26.08916666666667,8,6,4e09b6e56284d9ee92e3cd80,Trattoria la Nave,44.418843998891056,26.09473178842677,Italian Restaurant
718,555,44.4468,26.0625,12,0,4e0c77e4e4cdc8c1cde8e6f7,Azzurro Pizza,44.445265588869255,26.062530279211416,Pizza Place
754,591,44.4468,26.08916666666667,25,11,4e0dd024d164fff335a493dc,Red Onion,44.45083628672066,26.09071112897859,Eastern European Restaurant
543,380,44.43680000000001,26.03583333333333,8,2,4e0f1c7ee4cd27fc7d35f538,Rustic,44.433261882071136,26.036901704722446,Eastern European Restaurant
951,788,44.4568,26.11583333333333,9,3,4e135082d1647a0fff9173d8,Baraca,44.456048590850656,26.1156384268185,Eastern European Restaurant
868,705,44.4468,26.15583333333333,7,6,4e1455e27d8b4c0d630d5325,Ramsis,44.44330939435145,26.156880855560303,Middle Eastern Restaurant
697,534,44.43680000000001,26.15583333333333,12,10,4e15b3eba809f31f66a8a05e,La Bulgaru,44.436455563492736,26.15859371942169,Eastern European Restaurant
229,66,44.4068,26.11583333333333,10,4,4e15ebbaae60a0ac0637373b,"Restaurant ""Casa Oprescu""",44.40682475521719,26.11209368610752,Romanian Restaurant
1150,987,44.4768,26.1825,4,3,4e16db86fa76a474496f26f8,Dragonul Rosu Restaurant Chinezesc,44.47752734001673,26.181663456969925,Chinese Restaurant
397,234,44.4268,26.0625,7,4,4e24020c1838712abe8c92f6,Grădina de vară,44.42780303955078,26.065113067626953,Eastern European Restaurant
924,761,44.4568,26.1025,28,4,4e2a12d3227197a112caffc5,ADDA Cuisine,44.456697,26.100634,Fast Food Restaurant
219,56,44.4068,26.0625,3,0,4e2c5b9fa809f1b16419583b,Presto Grill,44.41072263560084,26.064332166150464,Chinese Restaurant
1064,901,44.4768,26.0625,6,5,4e3325231495fa2def5035a5,Calipso 96,44.47328209574051,26.06429100036621,Eastern European Restaurant
770,607,44.4468,26.1025,40,2,4e341d897d8b6946c1f5bb06,Torna Fratre,44.449755870873354,26.106951035385734,Eastern European Restaurant
367,204,44.4268,26.03583333333333,21,6,4e3aa3d145dd8baba0009d07,La Zamfir,44.429013013155206,26.03487607065845,Eastern European Restaurant
1263,1100,44.5268,26.009166666666665,1,0,4e3e9d3752b1a04aff272434,Terasa Carbone,44.52414,26.004713,Eastern European Restaurant
1074,911,44.4768,26.075833333333332,11,9,4e4943ea887781a619cea8b3,La Radu,44.47754626876375,26.071997565603013,Romanian Restaurant
1244,1081,44.5068,26.129166666666666,1,0,4e4baa8cc65b851d5ec8750d,Jerusalem Shaorma,44.511005,26.13094,Middle Eastern Restaurant
269,106,44.4168,26.075833333333332,7,1,4e4cfda8ae60bb50126b3514,Melissa Kebab,44.413183992240064,26.07412084528004,Doner Restaurant
871,708,44.4468,26.20916666666667,2,0,4e4e7167ae6051db8dbcfb04,Restaurant Teo's,44.448314914311524,26.210469655362946,Italian Restaurant
532,369,44.43680000000001,26.009166666666665,2,1,4e5044ec483bb770491c7d34,Restaurant AS,44.4332072170999,26.0100342858892,Eastern European Restaurant
1050,887,44.4668,26.1425,16,13,4e54cada22710ebb5a8e0ad9,YEȘIL BURSA,44.470026879636634,26.14661297076265,Asian Restaurant
695,532,44.43680000000001,26.15583333333333,12,8,4e552d687d8b96cd06168929,Arena,44.43383550826982,26.153593535749334,Eastern European Restaurant
622,459,44.43680000000001,26.1025,50,38,4e5a747e8877c8a76df2e494,Excalibur,44.43261921046303,26.101943913526174,Eastern European Restaurant
740,577,44.4468,26.075833333333332,13,10,4e5fbcfd52b16adb6c1d5bfa,Restaurant Arpege (la Hotel Elizeu),44.447662353515625,26.070764541625977,Eastern European Restaurant
685,522,44.43680000000001,26.1425,7,5,4e61dda8fa76cd64cdfc7f37,Baclava shop,44.437088738613994,26.136632617754984,Dessert Shop
726,563,44.4468,26.0625,12,8,4e63f91c1838ad3d0f78ed5a,Baboulos Kebab,44.443677121294854,26.059586105117567,Fast Food Restaurant
163,0,44.3568,26.19583333333333,1,0,4e68ed2dd22df5c11f8623eb,Restaurant Pluto Tat'ane,44.35532519243034,26.19274278585099,Middle Eastern Restaurant
306,143,44.4168,26.11583333333333,15,11,4e6cf495483b1f5ebe4d0383,Al Melook Sweets,44.419478018851535,26.11533250160093,Dessert Shop
1239,1076,44.5068,26.08916666666667,31,27,4e6e4d5b8998a706cde491fb,Adana Kebab,44.50599306571437,26.088823256290315,Middle Eastern Restaurant
534,371,44.43680000000001,26.0225,8,1,4e708743b61c17d19ace048f,Mmahsgh,44.434017,26.024045,American Restaurant
361,198,44.4268,26.03583333333333,21,0,4e7087a4b61c17d19ace3094,Ultimul Don,44.42885454673999,26.03684110941232,Eastern European Restaurant
533,370,44.43680000000001,26.0225,8,0,4e70d79988773f007b6fb981,Shaorma Gorjului,44.43431725979845,26.01875072763255,Middle Eastern Restaurant
557,394,44.43680000000001,26.075833333333332,8,2,4e75e788c65bb91db48f6655,Marcon,44.43971461727559,26.071917743555414,Eastern European Restaurant
689,526,44.43680000000001,26.15583333333333,12,2,4e7644e18998ed82a505ae7c,Terasa Monica,44.434021,26.160605,Eastern European Restaurant
396,233,44.4268,26.0625,7,3,4e776552483b0cf5ed994907,Little Dragon,44.426194720209395,26.05920235664578,Chinese Restaurant
742,579,44.4468,26.075833333333332,13,12,4e7790d381dc463907b0c49a,Cafe Fresca,44.450964846706746,26.07567429542541,Fast Food Restaurant
1057,894,44.4768,26.03583333333333,2,1,4e79c1fed22d391717b9d43d,Dolce Vita,44.47850430877524,26.039610167816843,Italian Restaurant
1092,929,44.4768,26.08916666666667,23,16,4e7f2476d22dc3a88de77214,Restaurant Neptunus,44.47907609086153,26.085815428968072,Mediterranean Restaurant
1098,935,44.4768,26.08916666666667,23,22,4e80aa6561af5042744f165e,Ristorante Il Calcio,44.4777186506032,26.085304009404194,Italian Restaurant
670,507,44.43680000000001,26.129166666666666,19,9,4e8c14f69adf4a7ef2f63078,Ristorante Pasha Caraibe,44.432853,26.126322000000002,Italian Restaurant
716,553,44.4468,26.049166666666665,5,3,4e8f39bd2c5b7295bb5aea57,Shaorma Regie,44.445403115910025,26.05327334064229,Middle Eastern Restaurant
278,115,44.4168,26.08916666666667,8,3,4e946dbeb803d7c29325e711,Dragonul De Aur,44.41966894484054,26.09283295434095,Japanese Restaurant
120,120,44.4390609293324,26.09935475473435,18,16,4e98181bb8034a14a7787c65,crills,44.4405,26.0995,Eastern European Restaurant
551,388,44.43680000000001,26.049166666666665,4,2,4e9905296da1ff617208ba69,Doner Kebab,44.434461948371904,26.0533625073763,Middle Eastern Restaurant
190,27,44.3868,26.129166666666666,5,0,4e9c12fb2c5b4d6405fb1c47,Restaurant Agnes,44.38919910323585,26.131994920095806,Romanian Restaurant
794,631,44.4468,26.1025,40,26,4ea19bc077c8d0ce5d94aca7,Mek Oriental Lounge,44.44860972434744,26.107120513916016,Middle Eastern Restaurant
1018,855,44.4668,26.08916666666667,19,14,4ea1ad377ee52a35dc90de61,Ying Yang,44.4653702,26.0948193,Chinese Restaurant
859,696,44.4468,26.1425,4,1,4eafca3a49010398c8b35c06,La Turcu,44.446738961921795,26.143638789653775,Fast Food Restaurant
243,80,44.4068,26.19583333333333,1,0,4eaff44649010398c8c47128,Cruzztos Bistro,44.4069726406561,26.201156190253727,American Restaurant
668,505,44.43680000000001,26.129166666666666,19,7,4eb12fc39a52c49f4cdfe2a8,Noodles Bar,44.432902795992206,26.13036176404388,Noodle House
709,546,44.43680000000001,26.2225,1,0,4eb406b777c897273669657e,"Trattoria ""La Strada""",44.44008545425725,26.21827455471555,Italian Restaurant
215,52,44.3968,26.129166666666666,4,3,4eb914b49adfc68713eb8b96,Wienerwald,44.39598341535813,26.123042106628414,Fried Chicken Joint
333,170,44.4168,26.1425,5,3,4eb91922991165b763e7fc25,Trattoria Verdi Pizzerie,44.41710566877553,26.143119134550805,Italian Restaurant
881,718,44.4568,26.049166666666665,8,7,4ebed1db775b98876e43bc33,La Nașu',44.45300429101469,26.050290610767004,Eastern European Restaurant
840,677,44.4468,26.11583333333333,36,32,4ec500d80aaf9233ed9f9520,SK Restaurant,44.444804215326364,26.115530554491254,Moroccan Restaurant
1086,923,44.4768,26.08916666666667,23,10,4ec79f3d5c5ce271bdb33892,Just Sushi,44.4811004698385,26.089209502120696,Sushi Restaurant
792,629,44.4468,26.1025,40,24,4ecf653299114b4886ea614f,Ferrari Caffe,44.445114257462045,26.100597073178662,Australian Restaurant
987,824,44.4668,26.0625,10,8,4ed3be58b634dd2995650aa1,Restaurant La Domenii,44.46573024399165,26.066614915553966,Eastern European Restaurant
393,230,44.4268,26.0625,7,0,4ed4e26530f803fae797c32d,Tortilla Max,44.42892509616311,26.06099905705019,Mexican Restaurant
1202,1039,44.4968,26.129166666666666,8,4,4ed65b29f5b93be4f34f784f,Asteria,44.4940107852286,26.12806887051929,Greek Restaurant
842,679,44.4468,26.11583333333333,36,34,4ed92477775bcc53f900dbf6,Restaurant Varr,44.443399848974565,26.115089417062787,Eastern European Restaurant
1257,1094,44.5168,26.129166666666666,3,0,4edfa74f4690cf9d22f71cd6,French Bakery / La Ferma,44.51349897127146,26.132576217594252,French Restaurant
912,749,44.4568,26.08916666666667,18,10,4ee0fc9e0aafbb3dbb3063f7,Bogdani,44.45895850937257,26.087861328941717,Eastern European Restaurant
239,76,44.4068,26.1425,2,1,4ee7a075a69d839db09031e4,Rustic Mâncare Românească,44.408236780147455,26.139858525938735,Romanian Restaurant
817,654,44.4468,26.11583333333333,36,9,4eeb6907a69dd7c5b4da8543,Trattoria Ristorante “Bella Notte“,44.445234567126114,26.111539645872718,Italian Restaurant
1156,993,44.4868,26.049166666666665,2,1,4eef892577c82b92fa638bdb,Kebap Jiului,44.484551482334595,26.04554391878119,Middle Eastern Restaurant
536,373,44.43680000000001,26.0225,8,3,4ef5d1f1775b54cdb31d5e6c,Restaurant Cerbul,44.43633974679411,26.022400220758556,African Restaurant
712,549,44.4468,26.03583333333333,2,1,4ef5d21e9911b01dda345b9e,Restaurant Cerbul,44.445820834245644,26.03823473364869,American Restaurant
48,48,44.4290609293324,26.099355292855925,37,29,4efcc08cb8f701ff610f98d2,Maccheroni,44.42999788858579,26.100134262960843,Italian Restaurant
1207,1044,44.4968,26.20916666666667,1,0,4efddb12d3e364d5fa7536d8,Restaurant Chinezesc 大富豪饭店,44.499254112748616,26.21086130877327,Chinese Restaurant
194,31,44.3868,26.129166666666666,5,4,4effb94877c885c335a4b91e,Aubert,44.38883712007709,26.127011528533195,Eastern European Restaurant
479,316,44.4268,26.129166666666666,33,6,4f043a6c46905a3984410545,DavCafe,44.42893728769696,26.133363080744356,Italian Restaurant
296,133,44.4168,26.11583333333333,15,1,4f044c31f79000b5dd2382a5,"Trattoria ""Pane e Vino""",44.419785,26.115797,Italian Restaurant
288,125,44.4168,26.1025,12,5,4f0c3822e4b05a3e7f4aae72,Maia Catering,44.41762924194336,26.10289764404297,Eastern European Restaurant
674,511,44.43680000000001,26.129166666666666,19,13,4f0c8456e4b02a8da673bbbf,Restaurant Iberico,44.43277193768589,26.13032285861616,Spanish Restaurant
391,228,44.4268,26.049166666666665,11,9,4f0ecd33e4b0354498ca2f1a,Schmankerl Treff,44.42997985002829,26.051158905029297,German Restaurant
223,60,44.4068,26.08916666666667,2,0,4f1016e8e4b0865b0611a931,Trattoria La Piazza,44.40714450547636,26.092204795882463,Italian Restaurant
274,111,44.4168,26.075833333333332,7,6,4f131365e4b0253d4e63c631,Wok Away,44.415310796594866,26.079986683609018,Chinese Restaurant
676,513,44.43680000000001,26.129166666666666,19,15,4f147866e4b09e58a40639d0,Trattoria Pascu,44.432945278303784,26.132335577726018,Italian Restaurant
677,514,44.43680000000001,26.129166666666666,19,16,4f16c0b5e4b03f4c04ed1906,Sandvis,44.44001007080078,26.127595901489254,Cajun / Creole Restaurant
687,524,44.43680000000001,26.15583333333333,12,0,4f16fa3ee4b019e996aa7718,Socului Kebap,44.43367061194994,26.154155146589307,Fast Food Restaurant
1021,858,44.4668,26.08916666666667,19,17,4f17c986e4b0e5837b7c7188,OsteriA gorgia,44.467194080584385,26.088200783427272,Italian Restaurant
1213,1050,44.5068,26.08916666666667,31,1,4f17fc98e4b0094a0388ea61,Restaurantul IKEA,44.5064509629431,26.08531415288488,Scandinavian Restaurant
1194,1031,44.4968,26.08916666666667,3,0,4f19c27be4b09594f9418f5a,Dami,44.49383579379671,26.08673260966703,Asian Restaurant
1177,1014,44.4868,26.11583333333333,3,2,4f23f6e1e4b01b0c5eed5639,Arisocrat Ballroom,44.486240005644035,26.11430455656495,American Restaurant
265,102,44.4168,26.0625,10,7,4f26d381e4b0e12083fd61f1,Panorama Kebab,44.41416982742493,26.061408348711943,Fast Food Restaurant
917,754,44.4568,26.08916666666667,18,15,4f280345e4b0c48621379899,bufixx,44.455110213391855,26.08400561423224,Asian Restaurant
257,94,44.4168,26.049166666666665,3,2,4f2e5adae4b062ad2bfe5820,Mirodeniii,44.41754899303639,26.0472269784325,Indian Restaurant
751,588,44.4468,26.08916666666667,25,8,4f2e77f9754a04896be27c26,Buon Cibo,44.44672147814124,26.09438258170462,Italian Restaurant
75,75,44.4290609293324,26.105644707144073,24,18,4f36a36fe4b0f4cfddb66719,Grill&narghila,44.42999672030399,26.10325870982936,Turkish Restaurant
1216,1053,44.5068,26.08916666666667,31,4,4f3fa699e4b0a10c44b62e8a,Teppanyaki,44.506153999999995,26.088926,Asian Restaurant
1140,977,44.4768,26.15583333333333,8,2,4f3fb36be4b0c473575180fa,Chinese Dining,44.47411251118598,26.159574510035828,Chinese Restaurant
407,244,44.4268,26.075833333333332,13,7,4f4227bce4b0f96037b9ef81,Homemade Pasta,44.42962646484375,26.074234008789066,Italian Restaurant
1188,1025,44.4968,26.0625,2,1,4f4498f8e4b061ee97d0da7a,here and there,44.49895635934799,26.063281012433304,Asian Restaurant
1053,890,44.4668,26.15583333333333,2,0,4f48d219e4b08df2fbf5c397,mec colentina,44.466716999999996,26.151051000000002,American Restaurant
177,14,44.3868,25.99583333333333,1,0,4f496399e4b0605e4376f65d,La Jupanu',44.383471,25.992845000000003,Eastern European Restaurant
989,826,44.4668,26.075833333333332,15,0,4f4a7f40e4b0a34d39aca4d5,Restaurant Seoul,44.46933965688425,26.07144364964085,Korean Restaurant
732,569,44.4468,26.075833333333332,13,2,4f4ca8c7e4b0629e79915f7d,Sushi,44.45041710033756,26.079288389598307,Sushi Restaurant
933,770,44.4568,26.1025,28,13,4f50a78ae4b020de97110f95,Dristor Doner,44.457225911637465,26.10403162149156,Doner Restaurant
242,79,44.4068,26.1825,2,1,4f5256d4e4b07de37b6e82f9,Australian Restaurant,44.40719175734967,26.177985722733577,Australian Restaurant
894,731,44.4568,26.075833333333332,17,9,4f53c61ce4b002a743bfd115,Yangjing,44.458013283234216,26.0706643686708,Chinese Restaurant
287,124,44.4168,26.1025,12,4,4f551390e4b063296ff326ab,La Grasi,44.41444026331339,26.10498013646131,Eastern European Restaurant
1266,1103,44.5268,26.1425,2,0,4f55b93be4b0cddfc124c159,chjjfyk,44.52850341796875,26.14328956604004,Indian Restaurant
882,719,44.4568,26.0625,3,0,4f567f51e4b03aa91d1884d3,Sushi,44.45393518068757,26.064434887506682,Sushi Restaurant
841,678,44.4468,26.11583333333333,36,33,4f5b508ce4b05cd7692ee2a5,Trattoria di Venezia,44.448606,26.110135999999997,Italian Restaurant
309,146,44.4168,26.11583333333333,15,14,4f5cecafe4b0c5418c114a4b,trattoria di centro,44.4164378,26.1205392,Italian Restaurant
884,721,44.4568,26.0625,3,2,4f5dee8ce4b053fd69f32921,La Taverna Grant,44.45668611861988,26.063793388969735,American Restaurant
890,727,44.4568,26.075833333333332,17,5,4f5f7fdee4b00373719e0050,Pasta Box,44.458834,26.078115,American Restaurant
323,160,44.4168,26.129166666666666,20,13,4f64e768e4b0ea77cdeb8917,Magazin Mariposa,44.418044674690684,26.134837539004078,Korean Restaurant
891,728,44.4568,26.075833333333332,17,6,4f6735ece4b04103a020f069,Zapata Cafe Bar,44.45543,26.080929,Mexican Restaurant
657,494,44.43680000000001,26.11583333333333,27,23,4f69d39ee4b0656e872dae6b,Cucina Di Michelle,44.437540999999996,26.11352,Italian Restaurant
962,799,44.4568,26.129166666666666,8,5,4f6a3492e4b05d6ec21ac8d1,Family Dinner,44.460509072682136,26.13080761156837,American Restaurant
1267,1104,44.5268,26.1425,2,1,4f6b5a2ae4b0b8a88346c4e9,tate's,44.52850341796875,26.14334487915039,Portuguese Restaurant
937,774,44.4568,26.1025,28,17,4f6c7278e4b03cbd0f458745,Bucatarie Turceasca !,44.456719,26.100746,Turkish Restaurant
1048,885,44.4668,26.1425,16,11,4f6dd2d6e4b01d94fcf8e35a,Yildizali,44.46975658981123,26.1458448791108,Turkish Restaurant
1038,875,44.4668,26.1425,16,1,4f6de886e4b03b575c999ca0,İnegol Kofte,44.469955,26.144821,Turkish Restaurant
1230,1067,44.5068,26.08916666666667,31,18,4f70a38ee4b032eb65e3c195,Haru Teppanyaki & Sushi,44.50619297835912,26.089096069335934,Asian Restaurant
1020,857,44.4668,26.08916666666667,19,16,4f7b1a2ae4b0747c65edfe2f,J's Kitchen,44.468441,26.093920999999998,Italian Restaurant
252,89,44.4168,26.03583333333333,6,3,4f7e9451e4b0fdf5ffa0a364,la han,44.42082889276413,26.036589447850385,American Restaurant
322,159,44.4168,26.129166666666666,20,12,4f7eb324e4b0878749e87f96,Scandia Sibiu,44.42026147525408,26.126607199572398,Romanian Restaurant
942,779,44.4568,26.1025,28,22,4f817778e4b0fdf5024deb06,Bistro Pastis,44.45600580447412,26.10568778657717,Mediterranean Restaurant
516,353,44.4268,26.15583333333333,7,4,4f8316a5e4b02f4582741c9f,Trattoria Di Firenze,44.42739127552062,26.152705816912103,Italian Restaurant
313,150,44.4168,26.129166666666666,20,3,4f845168e4b02ab9456994fc,Soprano,44.41966005190237,26.125798258646274,Italian Restaurant
478,315,44.4268,26.129166666666666,33,5,4f8553b8e4b0ce7175325754,Japanika,44.42731510552437,26.13065887520246,Sushi Restaurant
941,778,44.4568,26.1025,28,21,4f85a475a17c3c408ca5156e,Taormina Ristorante Caffe`,44.45965308638829,26.09830141067505,Italian Restaurant
944,781,44.4568,26.1025,28,24,4f86aeb7e4b04a6adb0b6607,Locanta Floreasca,44.45689526607405,26.100326938343528,Turkish Restaurant
1260,1097,44.5168,26.1425,1,0,4f86b3a9e4b0eb20545a2071,Amore Nello Sport,44.516898049471635,26.139430494260317,Italian Restaurant
256,93,44.4168,26.049166666666665,3,1,4f8eb1a0e4b0d7a4418fdbe5,Little Italy,44.41580675728328,26.044599193310408,Italian Restaurant
165,2,44.36680000000001,26.129166666666666,2,0,4f919ebce4b08995a424457a,RESTAURANat Valahia,44.36425431150234,26.12538863728503,Latin American Restaurant
1254,1091,44.5168,26.11583333333333,4,1,4f91a8aae4b0d7edb4f52881,Furculita,44.5144870224837,26.1155133009949,Brewery
1166,1003,44.4868,26.08916666666667,15,6,4f92f14ae4b04b1ee1ce4901,Bunny,44.487795,26.087649,Noodle House
552,389,44.43680000000001,26.049166666666665,4,3,4f963795e4b07ffbb1ec0ab6,bn 317,44.43965530395508,26.04651641845703,Burrito Place
171,8,44.3768,26.11583333333333,3,0,4f96e8d4e4b0b6acb2772ab3,spaghettiiiiii,44.380688,26.114872000000002,Italian Restaurant
845,682,44.4468,26.129166666666666,14,1,4f9941a3e4b05cf26c139646,Covrigarie Mosilor,44.44879471968696,26.12478106112559,Bakery
1070,907,44.4768,26.075833333333332,11,5,4f9eae47e4b0e1cb00b7f05a,La Cartofi,44.47750784714158,26.07184991849603,American Restaurant
531,368,44.43680000000001,26.009166666666665,2,0,4fa0067ae4b097256ebbbf6e,Restaurant Parc,44.43440179938051,26.00776280885601,Eastern European Restaurant
388,225,44.4268,26.049166666666665,11,6,4fa0d930e4b0ee815c9df8b4,Louisiana Bistro,44.425925012828095,26.052105857076373,Bistro
949,786,44.4568,26.11583333333333,9,1,4fa398c3e4b05483057f4bb4,Casa Balbeck,44.459113458428384,26.11383797401146,Eastern European Restaurant
669,506,44.43680000000001,26.129166666666666,19,8,4fa3fcd7e4b063f121083e35,Taverna La Zavat,44.438059499013136,26.123279903529482,Greek Restaurant
566,403,44.43680000000001,26.08916666666667,21,3,4fa547c8e4b09571df071f4a,"Club ""Excelsior""",44.440351483735625,26.092310958088323,Eastern European Restaurant
694,531,44.43680000000001,26.15583333333333,12,7,4fab89b3e4b024d200704adb,la parjolute,44.43375778198242,26.151626586914066,Eastern European Restaurant
1133,970,44.4768,26.11583333333333,13,8,4fb0e666e4b03338fbaf0eed,Novo Park Restaurant,44.47928420534039,26.11254832138853,Eastern European Restaurant
812,649,44.4468,26.11583333333333,36,4,4fb3ae65e4b0643f9b7bd0bb,Amore Trattoria,44.44660452395272,26.114969013659433,Italian Restaurant
1172,1009,44.4868,26.08916666666667,15,12,4fb69c93e4b0a090d02cee38,Les Colonnes,44.484584827370256,26.089183304256498,Italian Restaurant
804,641,44.4468,26.1025,40,36,4fba3bc0e4b0cd033405ab4f,"Trattoria ""Don Antonio""",44.44701669809473,26.100610530166826,Italian Restaurant
985,822,44.4668,26.0625,10,6,4fbbca7fe4b0b68bda410a48,Adinuș Mănânca,44.464261983937256,26.063810491409544,Taco Place
1184,1021,44.4868,26.169166666666666,2,0,4fbcf4efe4b0c3466b98909d,Ekko,44.490826334625524,26.170488275749406,Restaurant
251,88,44.4168,26.03583333333333,6,2,4fbe9d1be4b0b0419aa07f07,Desert,44.41499328613281,26.038509368896484,Australian Restaurant
1225,1062,44.5068,26.08916666666667,31,13,4fc0df68e4b00dd50e322e45,masaaa #criticand oameni,44.50612,26.08889,French Restaurant
412,249,44.4268,26.075833333333332,13,12,4fc11a67e4b0bb0732537276,Capsiuni :xx,44.43055981498784,26.073551470045985,Dessert Shop
967,804,44.4568,26.1425,10,2,4fc8fdeae4b0e92d606bfbed,Sushi,44.453685,26.139616,Sushi Restaurant
969,806,44.4568,26.1425,10,4,4fc8fe1ee4b048cbd282547b,gustare,44.453614,26.139572,Sushi Restaurant
501,338,44.4268,26.129166666666666,33,28,4fca2723e4b04ba0d0da0568,Medina Cafe & Restaurant,44.42847757092346,26.132294827359967,Moroccan Restaurant
970,807,44.4568,26.1425,10,5,4fce46b9e4b0c9b32188ad87,cartofiori,44.45387,26.139663,Korean Restaurant
973,810,44.4568,26.1425,10,8,4fce48dde4b0c9b32189a573,nuu,44.453733,26.139533,Dim Sum Restaurant
968,805,44.4568,26.1425,10,3,4fce5d51e4b0d4988250bbca,mastărșef,44.453846,26.139513,Ethiopian Restaurant
965,802,44.4568,26.1425,10,0,4fce69d8e4b01ca7e3f72caf,începutul,44.453672,26.139609,Korean Restaurant
966,803,44.4568,26.1425,10,1,4fce71c1e4b0ef380fef936e,hăum,44.453658000000004,26.139394,Peruvian Restaurant
972,809,44.4568,26.1425,10,7,4fcf9a15e4b0f6d52815a37c,chipotle,44.453728000000005,26.139508,French Restaurant
246,83,44.4168,26.009166666666665,3,1,4fd4c1a3e4b0352ac4becdc7,Premium Events Restaurant&Ballroom,44.41854,26.007986,Eastern European Restaurant
679,516,44.43680000000001,26.129166666666666,19,18,4fd4f5cfe4b098b082fc2812,cucina fresca,44.43243628791096,26.130161099571122,Italian Restaurant
1001,838,44.4668,26.075833333333332,15,12,4fd5c61be4b0abd665e3b46d,Peru Bistro,44.468473048350994,26.071487285674948,Peruvian Restaurant
1154,991,44.4868,26.03583333333333,2,1,4fd98108e4b04a083d1b0d8a,L,44.491182,26.037138,Turkish Restaurant
701,538,44.43680000000001,26.169166666666666,3,2,4fd9e2fae4b04a33846ebddc,Laboratorul Bucate pe Roate,44.434830377555855,26.165823340415955,Eastern European Restaurant
1226,1063,44.5068,26.08916666666667,31,14,4fe1a638e4b0e1ec51d9a9e2,Ristorante Il Giardino,44.510466297333096,26.08849340998725,Italian Restaurant
363,200,44.4268,26.03583333333333,21,2,4fe1bd41e4b050b31e053a81,graffiti,44.42575611062283,26.032539320527288,Café
957,794,44.4568,26.129166666666666,8,0,4fe432afe4b0e522149b9605,Dristor Kebap,44.457232264663716,26.130328106962036,Doner Restaurant
1091,928,44.4768,26.08916666666667,23,15,4fe457c6e4b03df94ca49502,Sushi ko,44.477157922243535,26.088230681744687,Sushi Restaurant
38,38,44.4290609293324,26.099355292855925,37,19,4fea0c2ce4b0a47fba04580d,Haru Sushi and Noodles,44.43056595424221,26.098188757896427,Sushi Restaurant
266,103,44.4168,26.0625,10,8,4ff82124e4b01ead02881472,Shaorma Jenin,44.41793254511678,26.05914874347623,Burrito Place
823,660,44.4468,26.11583333333333,36,15,4ffea1cbe4b0d8fae14a7d68,authentic GRILL,44.44555,26.110404,Argentinian Restaurant
1206,1043,44.4968,26.1425,1,0,4ffeb85ee4b0f1ba2894265e,Sushi,44.496354,26.142621,Sushi Restaurant
197,34,44.3968,26.03583333333333,1,0,5001aa52e4b0a4b26cf1cad4,Pisica Sălbatică,44.395371000000004,26.036953,Cuban Restaurant
691,528,44.43680000000001,26.15583333333333,12,4,5001e7a8e4b05e79b0cc604b,RWP Pub,44.43459330954853,26.156848350730662,South American Restaurant
997,834,44.4668,26.075833333333332,15,8,5008360ae4b0d9d6f9879527,Cerisiers,44.46723939300829,26.06969894809695,Mediterranean Restaurant
1197,1034,44.4968,26.11583333333333,1,0,500a7bd8e4b008129683f4d4,Capricciosa,44.495541765287534,26.11828893500576,Italian Restaurant
398,235,44.4268,26.0625,7,5,500c4475e4b0546b296130b4,Restaurant La Rosu,44.426307,26.057769,Eastern European Restaurant
254,91,44.4168,26.03583333333333,6,5,5011b12de4b035d9f37a90d6,Restaurant,44.418818268919274,26.030587923239022,Eastern European Restaurant
260,97,44.4168,26.0625,10,2,501a4e82e4b03c99d12fadb1,Restaurant Atlantic,44.420514678097994,26.059557890843237,Middle Eastern Restaurant
1251,1088,44.5168,26.08916666666667,2,1,501e284ae4b0d7d7022bfbeb,Al Wady,44.512706,26.087087,Moroccan Restaurant
975,812,44.4568,26.169166666666666,2,0,5026c4ffe4b0f23b0190fadb,casa fundeni,44.455693856164494,26.16348509679908,Eastern European Restaurant
793,630,44.4468,26.1025,40,25,5026e981e4b08c739ba4c732,Cantina saracilor Balta Alba,44.4468314,26.096427300000002,Chinese Restaurant
483,320,44.4268,26.129166666666666,33,10,502be080e4b0661ae3caa11e,TAO Restaurant Chinezesc,44.429208677511255,26.131244338280286,Chinese Restaurant
207,44,44.3968,26.11583333333333,6,1,502c3b56e4b0b2dbe9408e15,Sushi a la Khand,44.396667011120684,26.115310729078878,Sushi Restaurant
647,484,44.43680000000001,26.11583333333333,27,13,502d3c4ae4b00d67ed8e28dc,Neptunus Ristorante,44.4342670197764,26.11647668672729,Mediterranean Restaurant
848,685,44.4468,26.129166666666666,14,4,502e213ae4b0836214ddb385,paradise shirin,44.447302377333905,26.123417254776932,Turkish Restaurant
503,340,44.4268,26.129166666666666,33,30,5033b7f8e4b030b311b53d92,La Grasi Outlet,44.42909622192383,26.124778747558594,Eastern European Restaurant
376,213,44.4268,26.03583333333333,21,15,50365aebe4b090fae02afbe2,Dinasty,44.429045071305225,26.0348627520812,Asian Restaurant
179,16,44.3868,26.1025,1,0,503a2b47e4b0105c0ed57e80,K's Cuisine,44.385797,26.108381,American Restaurant
883,720,44.4568,26.0625,3,1,503d0568e4b018a97e79ddde,Wu Xing,44.453328318051206,26.06519097301616,Chinese Restaurant
828,665,44.4468,26.11583333333333,36,20,5040f088e4b00a5803edfc3a,Luna Cafe & Bistro,44.443756781158335,26.111780993081233,Café
974,811,44.4568,26.1425,10,9,504454b2e4b043734c0551d4,Mananc Cereale,44.456396999999996,26.138621,American Restaurant
147,147,44.4390609293324,26.105645245265652,14,6,5045f799e4b0b88235c78ce3,Fatush,44.44116622820785,26.10457586183216,Lebanese Restaurant
857,694,44.4468,26.129166666666666,14,13,50475774e4b09309f7199c6d,Peking Duck,44.44516007866307,26.12709111794768,Chinese Restaurant
830,667,44.4468,26.11583333333333,36,22,504788dbe4b03314a4688c7b,Restaurant D&D,44.445006388888885,26.115651228620468,Mexican Restaurant
931,768,44.4568,26.1025,28,11,50535569e4b0150f2db8bb0f,Pizza Sorrento,44.45952838494765,26.098518609820403,Pizza Place
404,241,44.4268,26.075833333333332,13,4,5054afdde4b0719d67dfcb25,Club BNR,44.43054559629381,26.07429701998284,Italian Restaurant
1237,1074,44.5068,26.08916666666667,31,25,50670b87e4b05564fb75af1f,Greek Taverna,44.50618790655592,26.088726195460378,Greek Restaurant
208,45,44.3968,26.11583333333333,6,2,506c6b34e4b04f733d80ea22,Dante's,44.399958000000005,26.119067,Eastern European Restaurant
767,604,44.4468,26.08916666666667,25,24,506f1edfe4b04a8a46c93125,The Artist Restaurant,44.44967241326717,26.08796685934067,Romanian Restaurant
1168,1005,44.4868,26.08916666666667,15,8,507550a0e4b070d8a9b304cf,La Vito Resturant,44.4874903758386,26.08795853735368,Italian Restaurant
878,715,44.4568,26.049166666666665,8,4,507796d1e4b0eb8b8297d3cc,S.C.Ada Pan import export.S.R.L,44.45656233458314,26.05471024226013,Turkish Restaurant
1149,986,44.4768,26.1825,4,2,507927e1498e98df0e7d79af,Hongtai,44.477468,26.181678,Chinese Restaurant
20,20,44.4290609293324,26.099355292855925,37,1,507d7315498e65ff12087878,Meze Taverna,44.43031188075923,26.098232437358885,Greek Restaurant
1141,978,44.4768,26.15583333333333,8,3,5083f561e4b094820aec12e2,Can Restaurant,44.47641388815862,26.160020891472893,Cuban Restaurant
798,635,44.4468,26.1025,40,30,508888ac498eeaf8ab057c97,Repertorium Gourmet Restaurant,44.442715683567954,26.10146973712457,Eastern European Restaurant
1016,853,44.4668,26.08916666666667,19,12,508a5d7de4b0ca23f502f030,Shaorma Autobuz Ch De Gaulle,44.46538718188217,26.08729065702405,Turkish Restaurant
1217,1054,44.5068,26.08916666666667,31,5,50927219e4b02b4644636eb0,Mille Sapori,44.506480486003895,26.089493925959058,Café
636,473,44.43680000000001,26.11583333333333,27,2,509573ace4b076702cc24b24,Nonna Mia,44.436859999999996,26.116878,Italian Restaurant
314,151,44.4168,26.129166666666666,20,4,5096975ce4b024b7d8a833d0,Wok Away,44.420218742978285,26.126604003617892,Chinese Restaurant
1034,871,44.4668,26.11583333333333,4,2,509a8580e4b095fae6e4e2ea,Victoria Palace,44.46728673678274,26.116649057481474,Noodle House
983,820,44.4668,26.0625,10,4,509bf2b3e4b0a49188b57ca5,Kunnai,44.46491179718613,26.060806762131147,Thai Restaurant
788,625,44.4468,26.1025,40,20,50a683b8e4b06baebe31654e,Siam,44.44693636904611,26.09740124527011,Thai Restaurant
1142,979,44.4768,26.15583333333333,8,4,50a7df17e4b0a68d84908a6a,El Padrino,44.476372999999995,26.155302,Spanish Restaurant
959,796,44.4568,26.129166666666666,8,2,50acf4c1e4b02888e5b00e12,Al Melook Sweets,44.45840030363792,26.13180706282548,Dessert Shop
760,597,44.4468,26.08916666666667,25,17,50b1243de4b045752bc93d03,Tirebouchon,44.449049829996824,26.09246467443596,French Restaurant
389,226,44.4268,26.049166666666665,11,7,50b35123e4b07a713e2945da,Quasi Pronti,44.43060459111511,26.052496339436985,Italian Restaurant
331,168,44.4168,26.1425,5,1,50b3b95de4b0aebed5046fc1,Long Xuan,44.420133523241866,26.14043823600473,Chinese Restaurant
1008,845,44.4668,26.08916666666667,19,4,50b74ad8e4b055e6a36f2800,Trattoria Buongiorno,44.4672731,26.08815909999999,Italian Restaurant
253,90,44.4168,26.03583333333333,6,4,50c1f4f3e4b06538210edf87,La terasa de la case,44.416902849615774,26.04130576050041,Eastern European Restaurant
1268,1105,44.5268,26.19583333333333,1,0,50c86a7de4b04d9587b51fab,Tek Fruits,44.52720674491971,26.19037436454261,Turkish Restaurant
1232,1069,44.5068,26.08916666666667,31,20,50cf603ae4b04e1f52bf7124,Mandarin Asian Barbeque,44.506166965718776,26.08888238584264,Chinese Restaurant
1039,876,44.4668,26.1425,16,2,50d208f5e4b06b9f187b2cbf,Urfa Bereket Dönner,44.46935527139235,26.144483628488718,Turkish Restaurant
336,173,44.4168,26.15583333333333,3,1,50d2fc30e4b0bf2ab45cbbd4,Trattoria Cappuccini,44.41327219199932,26.156827078555487,Italian Restaurant
86,86,44.42453907066761,26.105644707144073,9,5,50e6b1a9e4b0cbb777cc9743,Gyros House,44.424501598359114,26.1047387123107,Greek Restaurant
802,639,44.4468,26.1025,40,34,50f53fbae4b080297777a1c9,Restaurant La Massa,44.447368,26.106231,Eastern European Restaurant
735,572,44.4468,26.075833333333332,13,5,50f562f7e4b08fd107a67dcf,IBM Cafeteria,44.44783084779785,26.0818470135885,American Restaurant
1147,984,44.4768,26.1825,4,0,50f79a83e4b0cfe7192fb012,Zuzuman,44.474573,26.181693,German Restaurant
259,96,44.4168,26.0625,10,1,50fa9ba3e4b0a8cc96145db3,Del Arte,44.41557408818052,26.060149813515658,Eastern European Restaurant
325,162,44.4168,26.129166666666666,20,15,510abd25e4b03676f3ce9131,Shish Döner & Kebab,44.420176,26.126537,Doner Restaurant
214,51,44.3968,26.129166666666666,4,2,5114d269e4b07a47310f4a2f,Osteria di David,44.395631832524,26.123240753978248,Italian Restaurant
1114,951,44.4768,26.1025,26,15,5114d28ae4b0d82aaa69a5fb,Catering,44.476583000000005,26.105774,American Restaurant
264,101,44.4168,26.0625,10,6,511ff2ede4b0d606128877d0,Mango Meets Salmon,44.420398999999996,26.065188,Sushi Restaurant
480,317,44.4268,26.129166666666666,33,7,5127b43de4b0ca65e97772eb,Mega Catering,44.42416694426531,26.125878866342134,Eastern European Restaurant
509,346,44.4268,26.1425,6,3,51320316e4b0211830a20530,Master Chief Pregateste Spaghete,44.427777,26.143729999999998,Italian Restaurant
648,485,44.43680000000001,26.11583333333333,27,14,513787a6e4b07b01b00eebcf,Restaurat Carol,44.43695444512326,26.1099803797032,Eastern European Restaurant
1189,1026,44.4968,26.075833333333332,5,0,5137a298e4b0523475c45b54,Shaormeria Băneasa,44.494460029278564,26.08046196337455,Doner Restaurant
704,541,44.43680000000001,26.1825,7,2,513b340be4b0e5f9d93b59d9,Toni's,44.433323,26.182291,Romanian Restaurant
1265,1102,44.5268,26.075833333333332,2,1,513cc462e4b03c3b1253bfd4,Danke Bavaria,44.525361364356975,26.07233878157267,German Restaurant
220,57,44.4068,26.0625,3,1,513dae65e4b0ab90c891a114,Brittania,44.40799762516013,26.066423277183556,Eastern European Restaurant
870,707,44.4468,26.1825,1,0,513f81a9e4b0bb156ebf7a52,Doner King Kebab,44.44333556443861,26.183903903691927,Turkish Restaurant
1208,1045,44.5068,25.9825,1,0,513f89a4e4b02e8b0457b154,Masterchef,44.506305080116604,25.977355706897825,French Restaurant
948,785,44.4568,26.11583333333333,9,0,51420a26e4b096dcf9ab15d7,Kebab Mania,44.454759600017795,26.120949176317872,Doner Restaurant
1129,966,44.4768,26.11583333333333,13,4,51434553e4b0df06d5084c59,La Covrigi,44.478853,26.112859,German Restaurant
185,22,44.3868,26.11583333333333,10,5,51460243e4b019affc6e645e,Yang Wu,44.38774391618286,26.11195079202448,Asian Restaurant
1055,892,44.4668,26.1825,1,0,514d834de4b05bcb1f07d746,Restaurant Luminiţa,44.46982723385662,26.182508885164584,Eastern European Restaurant
1081,918,44.4768,26.08916666666667,23,5,514dc8a2e4b06ae755e2ed5d,French Bakery,44.477890954545444,26.08961946978372,Bakery
813,650,44.4468,26.11583333333333,36,5,51543faee4b092fc54e00397,Restaurant Odobesti,44.44479628615673,26.115429661970943,Eastern European Restaurant
513,350,44.4268,26.15583333333333,7,1,515861b5e4b09dec143e1c75,Restaurant Arena Titan,44.42495928289997,26.157668746067902,American Restaurant
353,190,44.4268,26.009166666666665,5,0,51588847e4b079b32956777d,Ioana's place,44.422497899999996,26.008844399999997,Japanese Restaurant
791,628,44.4468,26.1025,40,23,51597d51e4b03e8df7f09e6f,Da Lorenzo,44.447092,26.100749,Italian Restaurant
759,596,44.4468,26.08916666666667,25,16,515a77b9e4b0296b5846cfb0,restaurant levor,44.447736992506435,26.08947264378737,French Restaurant
294,131,44.4168,26.1025,12,11,515b18ede4b03a472a05465c,Maison Du Jour-Fixe,44.42042811786466,26.10370732780829,Eastern European Restaurant
739,576,44.4468,26.075833333333332,13,9,515bf935e4b0e97c4c31d94c,Bucataria LTN,44.446220000000004,26.081407000000002,Chinese Restaurant
724,561,44.4468,26.0625,12,6,515ea30ae4b0ef09639e2e7f,Chopstix,44.44538406693485,26.06256366175385,Asian Restaurant
351,188,44.4268,25.99583333333333,3,1,515ee069e4b004910c533189,Tatlıses Çiğ Köfte,44.424397829145654,25.998240037227536,Turkish Restaurant
174,11,44.3768,26.15583333333333,1,0,51654026e4b068ba3177ded2,"Restaurantul Pârâul Rece ""La Florin""",44.38003017984679,26.159523654736706,Romanian Restaurant
752,589,44.4468,26.08916666666667,25,9,516540d5e4b08d483294fb53,Victoria Cafe,44.445453370436226,26.09128520378057,Café
947,784,44.4568,26.1025,28,27,51658453e4b090d0550ce715,The Lounge Bucharest,44.46042236358248,26.10090807014409,Italian Restaurant
362,199,44.4268,26.03583333333333,21,1,5169955ee4b078ea5d340aa5,Trattoria Vivaldi,44.42883834884556,26.036967274500693,Italian Restaurant
443,280,44.4268,26.1025,50,24,516ec333e4b01c12b4394793,Restaurant Izvorul Rece,44.42681546525422,26.099133072879987,Eastern European Restaurant
1143,980,44.4768,26.15583333333333,8,5,517d0388e4b0478d15bcbb8e,Kasap Halal Zino,44.47441500866945,26.15631789224357,Turkish Restaurant
1261,1098,44.5268,25.99583333333333,2,0,517d4ce1e4b0fb649979ebee,Restaurant Palatul Mogoșoaia,44.52752304894414,25.993397609603857,Romanian Restaurant
580,417,44.43680000000001,26.08916666666667,21,17,517f9334e4b0822248c7a3e6,Campus Corner,44.4345817565918,26.08720588684082,American Restaurant
209,46,44.3968,26.11583333333333,6,3,518137b2498e4cc02b26ba94,Sultan Suleyman,44.39660295550546,26.114055731982607,Turkish Restaurant
895,732,44.4568,26.075833333333332,17,10,5188da05498eb6d95f75dd7b,Restaurant Irisa,44.45566940307617,26.078731536865234,Eastern European Restaurant
89,89,44.42453907066761,26.105644707144073,9,8,518bda46498e6879c9299c3e,Restaurant Allhambra,44.42436062291049,26.10469356275957,American Restaurant
512,349,44.4268,26.15583333333333,7,0,518e8858498e8b592e090161,Trattoria Monza,44.4278600710196,26.153902470547102,Italian Restaurant
978,815,44.4668,26.049166666666665,1,0,518ea1d0498e20470c5654f9,Lebanese Station,44.47112076122025,26.05058371714837,Lebanese Restaurant
824,661,44.4468,26.11583333333333,36,16,518f8e97498ecd7fee2480d0,Il Destino,44.44324436257646,26.11520775286382,Italian Restaurant
312,149,44.4168,26.129166666666666,20,2,51934056498e9773719608e3,DRISTOR Doner,44.42029636744651,26.126582382702946,Doner Restaurant
749,586,44.4468,26.08916666666667,25,6,51963998498e00c7125df4a5,Voila - Le Bistrot,44.44323696174811,26.089823869391218,French Restaurant
140,140,44.43453907066761,26.09935475473435,19,18,519679f9498e78ef53c90917,BLANCO grill & more,44.4339714050293,26.09975433349609,Eastern European Restaurant
263,100,44.4168,26.0625,10,5,51973c38498e336c7d127703,Casa Elena,44.418368334852524,26.059864072436014,Romanian Restaurant
981,818,44.4668,26.0625,10,2,519dddf1498ef865ae199c3d,La Domenii - DÖNER Kebab și Mâncare Gătită,44.46547317504883,26.06692695617676,Turkish Restaurant
1145,982,44.4768,26.15583333333333,8,7,519f39f8498ed82144b58713,Murat Restaurant Turcesc,44.47652681854553,26.160684091833037,Turkish Restaurant
1119,956,44.4768,26.1025,26,20,519f44c3498ed272d7dcad1e,Vera Bufet Expres,44.475610110443725,26.10608671466102,Eastern European Restaurant
1072,909,44.4768,26.075833333333332,11,7,51a1ec9f498e3b4c636f2f7b,"Terasa ""La Rățoi""",44.480556682162714,26.078249828401926,Romanian Restaurant
421,258,44.4268,26.1025,50,2,51a3aa5a498e75bcbfbc1a02,Li-Wu,44.43122250994346,26.1035417385033,Vietnamese Restaurant
170,7,44.3768,26.08916666666667,1,0,51a786d7498e471b1506d6ec,Shaorma Progresul,44.37464505094741,26.090592429703907,Turkish Restaurant
1192,1029,44.4968,26.075833333333332,5,3,51ae4d16498e673888f7771c,Restaurant Isoletta,44.49403812567814,26.07929190863707,Italian Restaurant
960,797,44.4568,26.129166666666666,8,3,51b466a6498e7748961caa90,Tropicana Saloon & Bar,44.459437,26.125342,Eastern European Restaurant
1054,891,44.4668,26.15583333333333,2,1,51b99546498e0ea73d500c4e,Gorjeanca,44.46600031669746,26.155621165227586,Eastern European Restaurant
1043,880,44.4668,26.1425,16,6,51bd94c3498ef4bee7420010,Seby's Chinese Restaurant,44.469261897619326,26.1427443938026,Chinese Restaurant
1210,1047,44.5068,26.03583333333333,2,0,51bf4aae498ecb1f40ca4179,Casale Ristorante,44.50607770838628,26.030281113309986,Italian Restaurant
328,165,44.4168,26.129166666666666,20,18,51bf9cde498e3425abac1a0e,"Restaurant ""Casa Enache""",44.41962599856595,26.12578867266652,Romanian Restaurant
766,603,44.4468,26.08916666666667,25,23,51c087d9498e3b4dd2a9e8fc,Boema 33,44.446718,26.09524,Eastern European Restaurant
319,156,44.4168,26.129166666666666,20,9,51cb2864498e9a51858c5d08,Wok Away,44.42021030071204,26.12654961726604,Chinese Restaurant
289,126,44.4168,26.1025,12,6,51dbf4e1498e2d5eb21467a4,Costelaria,44.41950457836924,26.098740534109893,Brazilian Restaurant
374,211,44.4268,26.03583333333333,21,13,51dfe218498e1c2c1dadfea1,Restaurant Terasă DaniCosti,44.42791886174348,26.037206053733826,Romanian Restaurant
541,378,44.43680000000001,26.03583333333333,8,0,51e1528b498ef13d2942e24a,Casa Nașului,44.43687326379435,26.038840480965614,Romanian Restaurant
925,762,44.4568,26.1025,28,5,51e67f84498ef60e2914f609,SELECT,44.45600096129883,26.099712300404647,Eastern European Restaurant
236,73,44.4068,26.129166666666666,3,1,51eaa037498ee519bb0d07ad,Beni's Mansion,44.407959999999996,26.133086,Asian Restaurant
1083,920,44.4768,26.08916666666667,23,7,51f2b544498e0c6c73fccfb8,El Bacha,44.473524428343275,26.087092169208326,Middle Eastern Restaurant
559,396,44.43680000000001,26.075833333333332,8,4,51f38202498efc022c8a8eb0,Ferrari Restaurant,44.44004841158213,26.079473121063444,Italian Restaurant
807,644,44.4468,26.1025,40,39,51f6a8cf498e8fc2d4e43ff6,Emre Baklava,44.44333211921722,26.09849418770619,Turkish Restaurant
999,836,44.4668,26.075833333333332,15,10,5200b6b1498e67dae56ff708,Gorjeanca Bufet,44.46556032098727,26.07342481603167,Romanian Restaurant
238,75,44.4068,26.1425,2,0,5200c7e2498eeffb69f77deb,Resedinta Radu,44.409290999999996,26.147081,Asian Restaurant
1056,893,44.4768,26.03583333333333,2,0,520f5738498eccb7407056a5,shaorma la Paul Campionul,44.480492,26.037511,American Restaurant
511,348,44.4268,26.1425,6,5,521274a911d2520c2b86c795,Genin,44.4285745750636,26.14762868150529,Turkish Restaurant
272,109,44.4168,26.075833333333332,7,4,5218b41011d2b7791ae005be,Wok,44.415243,26.080005,Asian Restaurant
1146,983,44.4768,26.169166666666666,1,0,521e4c5d11d2b47454c75001,slow food 4 love,44.476655296436796,26.169248594042173,Japanese Restaurant
1170,1007,44.4868,26.08916666666667,15,10,5221093b11d2ac1202c80d3f,nicky's,44.48923332432837,26.083880984610314,Australian Restaurant
723,560,44.4468,26.0625,12,5,52224210498e69ee4881bc12,Princess Ballroom,44.4452953774735,26.05857849085104,Swiss Restaurant
578,415,44.43680000000001,26.08916666666667,21,15,522322398bbd936a691783af,Börek Salonu,44.438659720502045,26.09402596950531,Turkish Restaurant
866,703,44.4468,26.15583333333333,7,4,5224eb6411d253816143d038,Genin,44.44298977367785,26.157127044160692,Fast Food Restaurant
79,79,44.4290609293324,26.105644707144073,24,22,5225b64011d21cbb637fce46,Daryus,44.428769741211156,26.10849267315769,Persian Restaurant
1222,1059,44.5068,26.08916666666667,31,10,5228853d11d23b54ce2a2f49,Lemoni,44.50617881058637,26.08881242640133,Greek Restaurant
504,341,44.4268,26.129166666666666,33,31,5230a96e498e5a070f3df89b,Trattoria Toscana,44.424904999999995,26.128773000000002,Italian Restaurant
1175,1012,44.4868,26.11583333333333,3,0,5235a12c11d21b2af4324420,Alexander Events Plaza,44.49029681883162,26.11828083004121,Eastern European Restaurant
1164,1001,44.4868,26.08916666666667,15,4,52363af18bbdf0ebe440311b,Oala cu Bunătăţi,44.490566451401634,26.09232544898987,Romanian Restaurant
863,700,44.4468,26.15583333333333,7,1,523af66111d23b3117573586,BBQ Kebab,44.44308304998672,26.15540006887374,Turkish Restaurant
654,491,44.43680000000001,26.11583333333333,27,20,523c750811d2984d1eb1d226,Kumar's Agra Palace,44.43334004129208,26.11202962270655,Indian Restaurant
755,592,44.4468,26.08916666666667,25,12,523c82d611d20265fc740a75,La Plăcinte,44.44666212421221,26.09544579984491,Pie Shop
1247,1084,44.5068,26.2225,1,0,523dff48498e54212585e8c5,Grande Ballroom,44.503146,26.221542,Eastern European Restaurant
675,512,44.43680000000001,26.129166666666666,19,14,523f33bd11d2076f28bdea2a,35 Bistro,44.438048045200155,26.132826137958613,Italian Restaurant
280,117,44.4168,26.08916666666667,8,5,524178562fc68c8b4509bd19,Kyklades2010,44.419038159198024,26.08540534973144,Greek Restaurant
1211,1048,44.5068,26.03583333333333,2,1,5245cbf111d2b4d0dc0e8aff,iosif restaurant,44.50587177905328,26.030029161498266,Afghan Restaurant
831,668,44.4468,26.11583333333333,36,23,5247007511d2f933a80ce8b8,Fleur De Lys,44.448791,26.11084,Eastern European Restaurant
196,33,44.3968,25.9825,1,0,52471aa111d2c88acd955394,Restaurant Select,44.39290244536786,25.984063267395463,American Restaurant
320,157,44.4168,26.129166666666666,20,10,5254276b498e639f728adbe1,ERRA,44.419606,26.133792,Mediterranean Restaurant
211,48,44.3968,26.11583333333333,6,5,52558b98498ecd6b8137a617,Scandia Sibiu,44.39439833705515,26.12071596697012,Romanian Restaurant
500,337,44.4268,26.129166666666666,33,27,525916c211d2900f9fd940e3,Simo's Kitchen,44.430654811248814,26.132390997778977,French Restaurant
660,497,44.43680000000001,26.11583333333333,27,26,525d8b0a498eee7d7cd978e9,Naser 2,44.43691677710248,26.109982195355173,Lebanese Restaurant
524,361,44.4268,26.20916666666667,2,1,526003b1498edd3e8aaaf1b4,Trattoria di Napoli,44.42771918024312,26.21079414367485,Italian Restaurant
1121,958,44.4768,26.1025,26,22,5260fcbc498eb25d66f87243,Chopstix,44.478341526704014,26.103489032520557,Chinese Restaurant
1108,945,44.4768,26.1025,26,9,5265330a498e826eb0ce8bf2,Deliciul Cartofilor,44.478347340332355,26.10348033448901,Fast Food Restaurant
332,169,44.4168,26.1425,5,2,5269416b11d26b0a58c70408,Entre Aromas,44.42051267046235,26.142798148109712,Spanish Restaurant
178,15,44.3868,26.0225,1,0,5269580a11d2aaf34e8c51ab,Green Pool Restaurant,44.38742655681837,26.02615140473829,Eastern European Restaurant
282,119,44.4168,26.08916666666667,8,7,526c10ff11d2a48aa4c36016,Kyklades,44.418009999999995,26.083268,Greek Restaurant
611,448,44.43680000000001,26.1025,50,27,5270438d11d2db2dc3a14119,Subscena,44.432442,26.101812,African Restaurant
535,372,44.43680000000001,26.0225,8,2,527391ea11d21811bfc6bc97,La 1 Leu,44.43425,26.0199,Argentinian Restaurant
943,780,44.4568,26.1025,28,23,52769b4d498edfe3334806ae,Zakisha,44.4549265969959,26.1057450436299,Indian Restaurant
548,385,44.43680000000001,26.03583333333333,8,7,52794845498eb4005116763c,Golden Kebab Shaorma,44.43637174919341,26.034799140313968,Turkish Restaurant
700,537,44.43680000000001,26.169166666666666,3,1,527a82f9498e15a930e7e4f5,Kashima,44.43887991978904,26.17388569483504,Indian Restaurant
939,776,44.4568,26.1025,28,19,527bc16c11d2bd4b7e3fcaba,Sultan Turkish Food,44.456924,26.100598,Turkish Restaurant
719,556,44.4468,26.0625,12,1,527cfee9498e8cfd4888fb5e,Tortilla Express,44.4487879006606,26.066824765900197,Mexican Restaurant
854,691,44.4468,26.129166666666666,14,10,528269b4498e0679eba3316f,Zafran Kebab,44.447475,26.123263,American Restaurant
352,189,44.4268,25.99583333333333,3,2,52848c9811d24bf0d25bb127,Cuptorul De Aur,44.424409000000004,25.997106,Eastern European Restaurant
908,745,44.4568,26.08916666666667,18,6,5284ad1e11d2e6ccc0132d7a,Papa Bun,44.45409720193081,26.0869557158822,Eastern European Restaurant
1102,939,44.4768,26.1025,26,3,5284b2d011d2daf8e27a7dc4,Entre Aromas,44.478106835153206,26.105151870140265,Spanish Restaurant
786,623,44.4468,26.1025,40,18,5284bb5511d229f88b2db6a9,Alta Marea,44.444981956948226,26.09893646737489,Italian Restaurant
865,702,44.4468,26.15583333333333,7,3,5288a1fc11d2eaeafd24d8a5,Bbq And Grill,44.44314575600528,26.155662028039927,Turkish Restaurant
304,141,44.4168,26.11583333333333,15,9,5288e2c011d2c5c251bbe3af,New Times,44.417244647883614,26.119895454188004,Eastern European Restaurant
1109,946,44.4768,26.1025,26,10,5289f783498ea6c4980b54df,Quanquan,44.47830912292349,26.103548930125946,Mongolian Restaurant
1115,952,44.4768,26.1025,26,16,5290cd1211d216c8e3c775cc,al Safir,44.47835966555172,26.103466024644977,Lebanese Restaurant
892,729,44.4568,26.075833333333332,17,7,5295d28e11d280101cb37a96,Casa Mihalache,44.45554896946626,26.08067580203847,Romanian Restaurant
1030,867,44.4668,26.1025,9,7,529e38c5498e5391da74b379,Antik,44.46249796046288,26.103219469168746,Turkish Restaurant
1076,913,44.4768,26.08916666666667,23,0,52a34c5511d2996eb5715348,Zaitoone,44.475737683035135,26.092644171173863,Middle Eastern Restaurant
717,554,44.4468,26.049166666666665,5,4,52a4dbc311d2b4163fcb095b,La înălțime😱,44.4475628402144,26.05120502288657,French Restaurant
1132,969,44.4768,26.11583333333333,13,7,52a5d2c8498ef5c57a32b787,Novo Park Restaurant by ESS,44.479344656737744,26.112369400722212,Eastern European Restaurant
1186,1023,44.4868,26.19583333333333,1,0,52a86baa498e745c21eab489,Restaurant Shiraz,44.489996999999995,26.193154,Turkish Home Cooking Restaurant
1073,910,44.4768,26.075833333333332,11,8,52ab812011d249969925fa0e,La Șipote,44.47596541051509,26.06986463069916,Romanian Restaurant
1113,950,44.4768,26.1025,26,14,52aee41511d232124f9635ea,Scandia Sibiu,44.47838272812507,26.10344717164064,Romanian Restaurant
1117,954,44.4768,26.1025,26,18,52af3695498ecd8beb8ea751,imbiss grill,44.47815509511792,26.10341762716056,German Restaurant
722,559,44.4468,26.0625,12,4,52af4a53498eba412adcc2a2,La Mia Musica,44.44557755684878,26.05986587486651,Italian Restaurant
879,716,44.4568,26.049166666666665,8,5,52c2d014498e79ee50c2f8cb,El Marianos(el grecos),44.455923123140174,26.05002032141733,Greek Restaurant
1071,908,44.4768,26.075833333333332,11,6,52c72ab6498e9924fa9e4673,Restaurant Yara,44.476084726907864,26.074700377759534,Middle Eastern Restaurant
612,449,44.43680000000001,26.1025,50,28,52c8832d498ef93de2f24182,Restaurant și Cramă „La Rosetti“,44.441181,26.102195000000002,Romanian Restaurant
953,790,44.4568,26.11583333333333,9,5,52c99e95498eefa37ea4c56f,Italiano a Bucharest,44.457205,26.120358,Italian Restaurant
988,825,44.4668,26.0625,10,9,52cafcdb498e1a2182a7810a,Taverna Marelui Paharnic,44.46578874190014,26.06651540962325,Greek Restaurant
411,248,44.4268,26.075833333333332,13,11,52cd902711d288c2c0e7d903,La Familia Restaurant & Bistro,44.42513656616211,26.08003234863281,Mediterranean Restaurant
355,192,44.4268,26.009166666666665,5,2,52d3bcd211d28ab79901e934,Restaurant La Cabană,44.43065430933301,26.009645025856447,Romanian Restaurant
1249,1086,44.5168,26.075833333333332,1,0,52d5135b498e27e56c0cc2b0,The Table,44.51500900112583,26.081292124451593,Italian Restaurant
1069,906,44.4768,26.075833333333332,11,4,52d6c4e6498e2ee5b8c92fbd,Restaurant Miorița,44.475674,26.075789,Eastern European Restaurant
139,139,44.43453907066761,26.09935475473435,19,17,52dbe3e1498ed9a284218c4d,BBQ Kebab,44.43403244018555,26.09894752502441,Turkish Restaurant
1061,898,44.4768,26.0625,6,2,52df9a3711d21fef2e83ae1c,American Point,44.474041165672986,26.06555547278597,American Restaurant
609,446,44.43680000000001,26.1025,50,25,52ea164411d2cd4e5a7fdcde,Mc Moni's,44.436731,26.106614999999998,Romanian Restaurant
846,683,44.4468,26.129166666666666,14,2,52f3616e498e85fd6402d78b,Art Food,44.446608928283695,26.131594817597858,Romanian Restaurant
1002,839,44.4668,26.075833333333332,15,13,52f8b6df498ed300dba1b8bf,olio,44.4627507577941,26.076460602980326,Italian Restaurant
781,618,44.4468,26.1025,40,13,5300a03c498e19603ad04901,Food Factory Mon cher,44.448018599208375,26.099469722963168,American Restaurant
644,481,44.43680000000001,26.11583333333333,27,10,5306a998498ed80cc5b96a36,"Restaurant ""La CONAC""",44.43890951666082,26.121249917558888,Romanian Restaurant
1128,965,44.4768,26.11583333333333,13,3,53073fe6498e5159650fbb79,Barbeque Express,44.480987,26.116409,Greek Restaurant
307,144,44.4168,26.11583333333333,15,12,5308d576498eea12f3393a15,ADRESS Turkish Cuisine,44.41911654482585,26.114986215832392,Turkish Restaurant
1040,877,44.4668,26.1425,16,3,5310e295498e8634b497438f,Cherhana Victorița Pescărița,44.47019802478217,26.144888911034784,Seafood Restaurant
1036,873,44.4668,26.129166666666666,1,0,53120557498e66f704775a9c,tratoria president,44.46563946028413,26.12454775041263,Italian Restaurant
867,704,44.4468,26.15583333333333,7,5,53246f6c498e24615243a6ad,Firenze Restaurant,44.448158264160156,26.16006278991699,Italian Restaurant
950,787,44.4568,26.11583333333333,9,2,5328654011d268d02580fc74,Restaurant RATB,44.452962,26.116765,American Restaurant
1137,974,44.4768,26.11583333333333,13,12,532c1e04498eabca341deefb,Gyros Barbeque,44.48114801065872,26.117234930838162,Greek Restaurant
725,562,44.4468,26.0625,12,7,532fe45e498e6f7a12121ee8,Siegfried Privatbrauerei,44.44688452344492,26.060506119161023,German Restaurant
1130,967,44.4768,26.11583333333333,13,5,53317147498e65bc3460101c,Hong Long,44.48104476928711,26.116493225097656,Chinese Restaurant
173,10,44.3768,26.11583333333333,3,2,533ac020498ebb708d2b9fd2,terasa castel,44.377825093437345,26.116392728665875,Romanian Restaurant
1165,1002,44.4868,26.08916666666667,15,5,533c1dcd498eab026d442fe9,cu hugo,44.485358000000005,26.090139,Afghan Restaurant
1042,879,44.4668,26.1425,16,5,533c42f1498e73acd0177ff1,Alladin Food,44.465071307652906,26.146005308292235,Turkish Restaurant
714,551,44.4468,26.049166666666665,5,1,533d43c5498e244ddfe3efb0,Snitel urias,44.44417572021485,26.05032157897949,Romanian Restaurant
1152,989,44.4868,26.009166666666665,2,1,533d6a3f498e88566c77d348,"Restaurant ""La Soare""",44.4877510361628,26.014683127517138,Romanian Restaurant
1123,960,44.4768,26.1025,26,24,53482cc9498e0900daab7ba7,Mongol,44.478280722260465,26.103520385325734,Mongolian Restaurant
305,142,44.4168,26.11583333333333,15,10,534a550e498e380e614f8e3c,Sale Dolce,44.4186398846628,26.11209199810489,Italian Restaurant
377,214,44.4268,26.03583333333333,21,16,534d04d0498e033ec3968190,Lunch & Dinner,44.42835268842234,26.034867766697158,Romanian Restaurant
877,714,44.4568,26.049166666666665,8,3,534d3b3b498e5465756057e8,Bucatarie✌,44.454010009765625,26.05384826660156,Romanian Restaurant
385,222,44.4268,26.049166666666665,11,3,53552d28498ed3fdf114ff58,AFC - Asia Food Company,44.43059,26.052052,Chinese Restaurant
1245,1082,44.5068,26.1425,1,0,53565c39498ed5719add0c27,La Hong Kong,44.509607,26.138935,Asian Restaurant
350,187,44.4268,25.99583333333333,3,0,535a0c5a498e8a16c1f2ba6f,vio' s taverna,44.42317266111026,25.994431202326826,Romanian Restaurant
787,624,44.4468,26.1025,40,19,535ceb7f498e51ccd227f349,Fazz's,44.447212,26.100644,Indian Restaurant
728,565,44.4468,26.0625,12,10,535e1ead498e1db61ffcaf8d,Restaurant Barmi,44.449474837892495,26.06519515265443,Romanian Restaurant
575,412,44.43680000000001,26.08916666666667,21,12,535ea121498e83e245ff84ca,Edo Sushi,44.439983000000005,26.089853,Sushi Restaurant
779,616,44.4468,26.1025,40,11,5363f3c3498e84d5095b338b,Ca la Mama Acasa,44.4447021484375,26.096939086914066,Romanian Restaurant
1203,1040,44.4968,26.129166666666666,8,5,53690da8498ec41fab8b4f17,Amvrosia,44.49805085281977,26.1324549250524,Greek Restaurant
201,38,44.3968,26.08916666666667,2,1,536a1688498e6d1b26a6fe0b,Oby Autoservire,44.398573,26.084818,Romanian Restaurant
1032,869,44.4668,26.11583333333333,4,0,536f7219498ec24b88f9440c,"Restaurant ""Luminița""",44.470097875829886,26.115852684710426,Eastern European Restaurant
370,207,44.4268,26.03583333333333,21,9,537277ca498eeac46944f3b6,Fomica,44.425698,26.031287,Taco Place
907,744,44.4568,26.08916666666667,18,5,53728642498e0631bde2ec16,Pata Negra,44.455612,26.091555,Spanish Restaurant
172,9,44.3768,26.11583333333333,3,1,5377d9a5498ec151669b3a98,Restaurant Infinit,44.37737660157782,26.122059521392497,Romanian Restaurant
198,35,44.3968,26.049166666666665,2,0,5378811a498e2945af78b363,Sport Bar&Grill,44.39665994080571,26.04841137836963,Romanian Restaurant
221,58,44.4068,26.0625,3,2,537cb25b498eed2021c284cc,Șaorma „La Teiuș”,44.40366290695864,26.05820868211425,Eastern European Restaurant
255,92,44.4168,26.049166666666665,3,0,537ce7eb498e08214a86ea67,Restaurant vanity,44.419136019963325,26.054282756876873,Romanian Restaurant
183,20,44.3868,26.11583333333333,10,3,537e00d5498e4aedc81b06a5,Trattoria di Parma,44.38791824188088,26.114888191223145,Italian Restaurant
1080,917,44.4768,26.08916666666667,23,4,5385d4b8498ebd908cc7592f,Argentine Steak & Sushi,44.47711228412296,26.08835543833939,Steakhouse
222,59,44.4068,26.075833333333332,1,0,538c7c01498e382b6fa411e5,Bucătărie🍝,44.407703000000005,26.072363,Romanian Restaurant
520,357,44.4268,26.169166666666666,3,1,538f062e498e254777dd4a9c,cosmin rezidence,44.42778778076172,26.16765022277832,American Restaurant
224,61,44.4068,26.08916666666667,2,1,539200fe498e12427cca8fb6,Taverna Viilor,44.40754215212143,26.09267974621425,Romanian Restaurant
1204,1041,44.4968,26.129166666666666,8,6,53946548498e12427ce26609,江南春饭店,44.49602508544922,26.13089942932129,Chinese Restaurant
381,218,44.4268,26.03583333333333,21,20,5394bb74498e82b504ad4e38,Casa Hugo,44.4227206729869,26.03743541016268,Romanian Restaurant
1185,1022,44.4868,26.169166666666666,2,1,5396cb3f498e10da32ef680d,Casa Vetu,44.48897171020508,26.168554306030273,Romanian Restaurant
74,74,44.4290609293324,26.105644707144073,24,17,53972070498e94dc38a763e6,shaormania,44.43033052343362,26.103571840782504,Middle Eastern Restaurant
442,279,44.4268,26.1025,50,23,539ad711498e1b0751d59569,Il Portofino,44.4268,26.098299,Italian Restaurant
1084,921,44.4768,26.08916666666667,23,8,539c9a5b498ea14ee55514c8,Chicca,44.477027893066406,26.088319778442386,Italian Restaurant
1220,1057,44.5068,26.08916666666667,31,8,53a5b1cc498ebd730dbe87ba,Toàn's,44.51043,26.086636,Vietnamese Restaurant
470,307,44.4268,26.11583333333333,4,1,53a71e4c498ea5554f7bb771,Restaurant Magnolia,44.43091748841626,26.117267009949803,Mediterranean Restaurant
772,609,44.4468,26.1025,40,4,53a9a4de498e3fb31bbdd7ef,Trattoria Romana,44.44488234624578,26.099172334234023,Italian Restaurant
872,709,44.4468,26.20916666666667,2,1,53af1293498e09297473552d,salon venetian,44.44707097961026,26.214663453414122,Romanian Restaurant
25,25,44.4290609293324,26.099355292855925,37,6,53b059fe498e6360c180769b,Chico Chillout,44.43000242029401,26.097381519576015,Japanese Restaurant
1199,1036,44.4968,26.129166666666666,8,1,53b83cbe498efa33b14af521,Amvrosia Restaurant Grecesc,44.499089,26.132325,Greek Restaurant
1085,922,44.4768,26.08916666666667,23,9,53bae6ef498e266e5610e4ae,Chicca-Ristorante in Bucarest,44.47681,26.088109,Italian Restaurant
481,318,44.4268,26.129166666666666,33,8,53ce353b498e6baf0b249fd0,Trattoria Fresca,44.42947072128189,26.12623879616679,Italian Restaurant
986,823,44.4668,26.0625,10,7,53ceb058498e247c5653b7ab,Zucchero,44.46661468744933,26.067934452575113,Italian Restaurant
757,594,44.4468,26.08916666666667,25,14,53d0fb91498e89458e2b9405,Ristorante Grazie,44.448033,26.083220999999998,Italian Restaurant
491,328,44.4268,26.129166666666666,33,18,53d69b5e498e67ffa9cf9098,Trattoria Verdi,44.429578125418956,26.126272479625797,Italian Restaurant
706,543,44.43680000000001,26.1825,7,4,53d91910498ed7845389f3d1,American Ballroom,44.43271921553433,26.17990076879955,Modern European Restaurant
964,801,44.4568,26.129166666666666,8,7,53d936b9498e08f804b652a7,Cooking 🍛,44.459381,26.130844,Eastern European Restaurant
537,374,44.43680000000001,26.0225,8,4,53db600a498e9230e3f99114,KebaBoss,44.434087054180544,26.02137069957388,French Restaurant
649,486,44.43680000000001,26.11583333333333,27,15,53dbbae8498ec60b091bf1ac,Garlic,44.436761,26.114079999999998,Romanian Restaurant
963,800,44.4568,26.129166666666666,8,6,53dd242f498e413b46d51539,Magic Wok,44.45648783893094,26.1300993977268,Chinese Restaurant
555,392,44.43680000000001,26.075833333333332,8,0,53f1d4d3498e9505bd59eb19,Bocca Lupo,44.43377218503446,26.077879071235657,Italian Restaurant
1246,1083,44.5068,26.20916666666667,1,0,53f8811e498ee716056f65d8,urfa zaman,44.502682536065734,26.21099669953055,Modern European Restaurant
189,26,44.3868,26.11583333333333,10,9,53f8e24c498ef2ad1a77d7c1,Niko Palace,44.390082,26.119246,Eastern European Restaurant
1139,976,44.4768,26.15583333333333,8,1,53f9e682498e47b1dc54c0c3,Sultan Suleyman Oriental Restaurant,44.47255668716299,26.15406633069136,Middle Eastern Restaurant
1116,953,44.4768,26.1025,26,17,53ff0645498e6fc65bb5ddc6,Sole Lounge,44.48091099665208,26.104756595629095,Romanian Restaurant
464,301,44.4268,26.1025,50,45,54023090498e9e7e7e9bb462,Bella Vita,44.430494593117295,26.10241977341516,Argentinian Restaurant
191,28,44.3868,26.129166666666666,5,1,540f5368498ebc69f8cb2efa,Terasa Nicol-Cherry,44.388227,26.134887,Romanian Restaurant
769,606,44.4468,26.1025,40,1,5411ac69498e6ec0ab59691e,La Plăcinte,44.4447498424725,26.098096101328483,Pie Shop
268,105,44.4168,26.075833333333332,7,0,5415dbc3498efe97bd5e2f89,Mesopotamia,44.41788969827047,26.07214534732464,Doner Restaurant
1088,925,44.4768,26.08916666666667,23,12,541afa93498e11da4a32b98f,La Plăcinte,44.480015,26.092201,Pie Shop
862,699,44.4468,26.15583333333333,7,0,54218c26498e0790439a1050,Dristor Doner,44.44305297585942,26.155606006576864,Doner Restaurant
650,487,44.43680000000001,26.11583333333333,27,16,54259578498edaf275bdb0ba,Epoca de Aur,44.436437,26.121244,Romanian Restaurant
417,254,44.4268,26.08916666666667,6,4,542a9995498e2fd8ab26f2df,Bistro Italiano,44.429085,26.094212,Italian Restaurant
820,657,44.4468,26.11583333333333,36,12,542bd7f5498e49233960cc09,Old House No. 10,44.44475765034513,26.118865128956877,Romanian Restaurant
52,52,44.4290609293324,26.099355292855925,37,33,542c37ff498ef9fba4b4e0f6,Divan,44.42825768762873,26.099950316287853,Turkish Restaurant
715,552,44.4468,26.049166666666665,5,2,542c4a28498e9d40385a3ea1,Trattoria,44.44521892595932,26.05446250832904,Italian Restaurant
799,636,44.4468,26.1025,40,31,542d85d6498e27ad97457fcb,Divan Express,44.446922212164566,26.097738252734352,Doner Restaurant
653,490,44.43680000000001,26.11583333333333,27,19,542f07a1498ec001c607c751,Bistro Guxt,44.43768109703419,26.117414832115173,Mediterranean Restaurant
914,751,44.4568,26.08916666666667,18,12,54301e4b498ecc238f8fcdbb,PB Maison Tradition Francaise,44.45923513075098,26.093621854163842,French Restaurant
789,626,44.4468,26.1025,40,21,54305056498e1eab1cea0c53,Casa Oamenilor de Stiinta,44.444942,26.098808,Eastern European Restaurant
518,355,44.4268,26.15583333333333,7,6,54327dd8498e412bc3e242fd,ilMatterello,44.42844026267377,26.154328438346468,Italian Restaurant
508,345,44.4268,26.1425,6,2,5438f22d498ed351144f3f29,Sultan,44.42968984080282,26.139335018140226,Turkish Restaurant
1218,1055,44.5068,26.08916666666667,31,6,543ab10a498e299b6068041a,Istanbul Taksim,44.5061993901143,26.088770168622393,Turkish Restaurant
558,395,44.43680000000001,26.075833333333332,8,3,54410627498e9e2eb26bca21,El Fogón de Barcelona,44.43682119713219,26.06990218162537,Spanish Restaurant
582,419,44.43680000000001,26.08916666666667,21,19,5443a336498eb68f7c3f81b8,Restaurant M.A.I.,44.44009248072089,26.09256856813219,Romanian Restaurant
45,45,44.4290609293324,26.099355292855925,37,26,5444dbc3498e533e9b98d053,Fetitele Vieneze,44.430046999999995,26.09749,Austrian Restaurant
873,710,44.4568,26.009166666666665,1,0,54492b8b498e175d6fe8a9fb,Al 9lea Cer,44.452999615049755,26.010353501775803,Romanian Restaurant
240,77,44.4068,26.169166666666666,1,0,5449402f498ebf9ab6f9e648,Bistro Burghez,44.405653835248486,26.17251867680895,Romanian Restaurant
369,206,44.4268,26.03583333333333,21,8,544fcde2498e7fbd05fa7608,taverna Adonis,44.428939023870775,26.036750925687212,Greek Restaurant
945,782,44.4568,26.1025,28,25,545e1819498ed5438aec7a21,Divini,44.456818,26.100535,Italian Restaurant
671,508,44.43680000000001,26.129166666666666,19,10,545e7a8a498ecc555742b5ef,restaurant artezian,44.437073832376775,26.130474528665648,Afghan Restaurant
1229,1066,44.5068,26.08916666666667,31,17,546097ae498ea3c6bbdcbbc6,Quattro Stagioni,44.50609328832735,26.08844336288514,Italian Restaurant
1068,905,44.4768,26.075833333333332,11,3,546ca778498e70143cbe7b22,Saya,44.4762461375945,26.074620779646594,Middle Eastern Restaurant
1062,899,44.4768,26.0625,6,3,54733114498e94529d6923d4,La Veranda,44.47961886053955,26.064553192179805,Modern European Restaurant
1013,850,44.4668,26.08916666666667,19,9,5479cb64498e321dddad138e,Ellinikon,44.470607382409995,26.08964112987936,Greek Restaurant
733,570,44.4468,26.075833333333332,13,3,547da4af498e02f12dee9832,Bicicleta bio,44.447947619522346,26.08191087092501,Indian Chinese Restaurant
507,344,44.4268,26.1425,6,1,54819441498e3ac9d0e9be41,La Plăcinte Expres,44.42795484539307,26.138211847273286,Pie Shop
1118,955,44.4768,26.1025,26,19,54885dbb498ea5c58f98761d,Al Wady,44.478383514402246,26.103450974747403,Middle Eastern Restaurant
856,693,44.4468,26.129166666666666,14,12,548abfc2498e796e10f46e8a,Buono,44.44828229737854,26.12519323825836,Fast Food Restaurant
1051,888,44.4668,26.1425,16,14,5493fb1f498ed496ec2b7202,doruk shop market,44.469669736288225,26.145616208732196,Eastern European Restaurant
1044,881,44.4668,26.1425,16,7,54958dee498e8912e79c7740,Köfteci Hüseyin,44.469878,26.144844,Turkish Restaurant
1047,884,44.4668,26.1425,16,10,54958e0f498e3c926e7e8f9d,Köfteci Hüseyin,44.47014631655667,26.14487133160268,Turkish Restaurant
1167,1004,44.4868,26.08916666666667,15,7,5496cbe5498ee4527f8f71d4,Osteria Romana,44.48449935931871,26.089147938784752,Italian Restaurant
635,472,44.43680000000001,26.11583333333333,27,1,5496e087498e91080c421759,Trattoria Roma,44.436926497301954,26.11397853007442,Italian Restaurant
814,651,44.4468,26.11583333333333,36,6,5497fbba498eb35d95381932,Symphony - Romanian Fusion Restaurant,44.44649712569881,26.113859553009874,Romanian Restaurant
655,492,44.43680000000001,26.11583333333333,27,21,549870e5498e887610ad1293,Tratoria D'oro,44.43708801269531,26.121543884277344,Italian Restaurant
639,476,44.43680000000001,26.11583333333333,27,5,549870f8498e361ed60a984c,Tratoria D'oro,44.436374765385494,26.121378588183394,Italian Restaurant
193,30,44.3868,26.129166666666666,5,3,549c8814498ef4e379c3655e,Casa Anghel,44.3860660833243,26.12951898718726,Romanian Restaurant
458,295,44.4268,26.1025,50,39,54a7c880498e8bfa13c1ba1c,Taverna Covaci,44.43103840393872,26.101127690230612,Romanian Restaurant
910,747,44.4568,26.08916666666667,18,8,54bbad48498e4c1d0fb986ab,Yukon,44.458533,26.094222,Japanese Restaurant
250,87,44.4168,26.03583333333333,6,1,54bbc109498e98618bac2a59,Sky Bar Premier Palace,44.416134,26.03974,Italian Restaurant
40,40,44.4290609293324,26.099355292855925,37,21,54c297e5498ee52a4386dc8d,Belviso Restaurant & Lounge,44.43105488808129,26.09943220384498,Italian Restaurant
21,21,44.4290609293324,26.099355292855925,37,2,54c51b72498ed819a733100b,Aubergine,44.4311059263412,26.09981219907001,Mediterranean Restaurant
477,314,44.4268,26.129166666666666,33,4,54ca15c4498e4d90fc68a912,La Masă,44.43069700711622,26.132018716447643,Romanian Restaurant
938,775,44.4568,26.1025,28,18,54d224be498ec505d9d39407,Buffalo Baz,44.45691120805164,26.10065494229896,American Restaurant
977,814,44.4668,26.009166666666665,1,0,54d30f4a498e77571198818f,Andrada's kitchen,44.466535,26.013443,Romanian Restaurant
34,34,44.4290609293324,26.099355292855925,37,15,54d34d94498e17f4590e1e1c,Bufet Selale,44.42980124824968,26.096773643352513,Turkish Restaurant
1028,865,44.4668,26.1025,9,5,54d7797b498ee4139d8d7c1d,Turkish Kebap,44.470611917574345,26.10002705964484,Turkish Restaurant
809,646,44.4468,26.11583333333333,36,1,54eb216b498e86b4ef4dc67e,Fatafit,44.445029999999996,26.120274,Lebanese Restaurant
1258,1095,44.5168,26.129166666666666,3,1,54f6ecb4498e746043199abd,La Suite,44.51391476946115,26.126493597728327,Italian Restaurant
860,697,44.4468,26.1425,4,2,54f875d4498e9f2bbf497e07,Serai Kebab,44.44495186676433,26.137160331533266,Middle Eastern Restaurant
816,653,44.4468,26.11583333333333,36,8,55017cb9498ee31c16db34f5,Restaurant Casa Fluturilor,44.444943,26.115622000000002,Modern European Restaurant
703,540,44.43680000000001,26.1825,7,1,550ab88f498ef718e669d284,Republica Kebab,44.434296013859644,26.183685038846587,Eastern European Restaurant
258,95,44.4168,26.0625,10,0,550ff1a1498ed3ea209227de,la bodega din cartier,44.416519,26.06394,Romanian Restaurant
261,98,44.4168,26.0625,10,3,550ff204498e2a7e90689f73,La bodega din cartier 🍻🍷,44.416335,26.063905,Romanian Restaurant
546,383,44.43680000000001,26.03583333333333,8,5,5510528f498e55729382ff09,russian house restaurant,44.435446914210246,26.040925679859253,Russian Restaurant
764,601,44.4468,26.08916666666667,25,21,5517ceba498ead17c7f453da,Restaurant Domeniile Samburesti,44.44928,26.084029,Eastern European Restaurant
1112,949,44.4768,26.1025,26,13,551a7516498e557901568046,Best Chef,44.47905349731445,26.105226516723636,Romanian Restaurant
574,411,44.43680000000001,26.08916666666667,21,11,5521357e498eeee00912b902,Izvor Kebab,44.434700267921826,26.08947928082805,Middle Eastern Restaurant
834,671,44.4468,26.11583333333333,36,26,55313b22498ef7e26741709e,Egesta,44.443975,26.111061,Mediterranean Restaurant
418,255,44.4268,26.08916666666667,6,5,553b5394498e5acdfae30ce3,Il Vero Gusto,44.429196999999995,26.094345,Italian Restaurant
130,130,44.43453907066761,26.09935475473435,19,8,554272df498ef366807ac5a0,Di Falco Restaurant & Lounge,44.4336179754861,26.09776588772544,Mediterranean Restaurant
705,542,44.43680000000001,26.1825,7,3,55489e44498e5a453a6b37a8,Sarai Kebap,44.43811452081952,26.18561820955513,Turkish Restaurant
678,515,44.43680000000001,26.129166666666666,19,17,554c889b498e50850e2cfa1f,La Popotă,44.440571474458,26.13154471222495,Romanian Restaurant
510,347,44.4268,26.1425,6,4,5550abba498ece2b657e1c3e,Trattoria Felicita,44.42357275861122,26.138306099815768,Italian Restaurant
576,413,44.43680000000001,26.08916666666667,21,13,55569560498e3f77c9e4efa3,palandöken corba,44.4381103515625,26.08826065063477,Asian Restaurant
1243,1080,44.5068,26.1025,1,0,5556bda2498e7ac8232c888d,Ms Beryani,44.502906799316406,26.09990692138672,Asian Restaurant
359,196,44.4268,26.0225,3,1,5561d5f3498e6f5b451fd97c,FraTer,44.42345998696905,26.02566519670039,Modern European Restaurant
835,672,44.4468,26.11583333333333,36,27,556a0381498e26c04a2e75e5,Indian Courtyard,44.44851294729453,26.11477709305669,Indian Restaurant
151,151,44.4390609293324,26.105645245265652,14,10,556a0752498e64450400f0be,La Ceaunu' Crapat,44.44086456298828,26.10588264465332,Romanian Restaurant
403,240,44.4268,26.075833333333332,13,3,556f1ad5498e1b61f8562172,Shaorma 13 septembrie,44.425409425163174,26.07789273878409,Turkish Restaurant
690,527,44.43680000000001,26.15583333333333,12,3,556f4db0498e8f2078599b7a,Taverna Fierarilor,44.43392096922632,26.160449059800783,Romanian Restaurant
498,335,44.4268,26.129166666666666,33,25,55718b32498e7431cd1e69c6,Phoenicia Restaurant,44.42786010065404,26.125198717782602,Eastern European Restaurant
684,521,44.43680000000001,26.1425,7,4,55732504498e17b86369936f,DuGeS,44.434366,26.137969000000002,Romanian Restaurant
790,627,44.4468,26.1025,40,22,558455b6498e24a49f2d2b8c,villa romana,44.448475,26.096774,Italian Restaurant
1161,998,44.4868,26.08916666666667,15,1,55859bef498eca16beae6deb,Il Capo,44.4845,26.09015,Italian Restaurant
806,643,44.4468,26.1025,40,38,558ea39b498e96eb52001e6b,Restaurant Barcelona,44.447882,26.107239,Spanish Restaurant
1107,944,44.4768,26.1025,26,8,559693b9498e2bb710d928e0,"Dawn, American Bakery",44.47821044921875,26.101694107055664,American Restaurant
803,640,44.4468,26.1025,40,35,559d70ae498ef4e9145c4879,Il Villagio,44.443790432939345,26.103399942156425,Italian Restaurant
922,759,44.4568,26.1025,28,2,55a0149e498e48e8710e332b,Chefs Experience,44.457137480469186,26.10054163770253,Modern European Restaurant
192,29,44.3868,26.129166666666666,5,2,55a60f4e498edab2c84142d7,Casa Iordan,44.3892700126216,26.125634258500362,Italian Restaurant
1058,895,44.4768,26.049166666666665,1,0,55aa8034498e57df012f9c02,laTortilla,44.472521,26.050431,Taco Place
1111,948,44.4768,26.1025,26,12,55acc94f498e0a64af6b19af,Istanbul Taksim,44.47856003077512,26.10350545031657,Turkish Restaurant
1041,878,44.4668,26.1425,16,4,55afd33e498e44ca09b8689e,Layalina,44.469574,26.144598000000002,Afghan Restaurant
1201,1038,44.4968,26.129166666666666,8,3,55b51fe1498ef70592db5064,Restaurant Ikaria,44.49396149426085,26.12830441982585,Greek Restaurant
1105,942,44.4768,26.1025,26,6,55b8a459498efbbb6ca3526d,Toàn's,44.47836960514246,26.103411410789768,Vietnamese Restaurant
876,713,44.4568,26.049166666666665,8,2,55b8ab4d498e590946acd29f,Restaurant Rapid,44.456336975097656,26.0554313659668,American Restaurant
1090,927,44.4768,26.08916666666667,23,14,55bcb798498e726de1b5d0f1,"Ristorante ""Il Calcio"" Herastrau",44.477781,26.085317,Italian Restaurant
1006,843,44.4668,26.08916666666667,19,2,55c0ecec498eb3d6d7b427de,Fior di Poesia,44.46725481628996,26.087214589157156,Italian Restaurant
88,88,44.42453907066761,26.105644707144073,9,7,55c8ef0a498e06fe81e79b44,Trattoria Il Mulino,44.423465693217736,26.10820936588968,Italian Restaurant
663,500,44.43680000000001,26.129166666666666,19,2,55ce0774498ee6d37f6d1349,Belli Siciliani,44.440929367962035,26.128435663418326,Italian Restaurant
1187,1024,44.4968,26.0625,2,0,55e08cad498e8cb6d0513f68,Shaormeria Băneasa,44.49903466051999,26.064152686260535,Fast Food Restaurant
773,610,44.4468,26.1025,40,5,55e58fbf498e88af48c684b8,Osteria Ciao Niki,44.44790661549942,26.104930673761363,Italian Restaurant
423,260,44.4268,26.1025,50,4,55e9e4c3498e4b1041933cd0,Lacrimi și Sfinți,44.43057744642294,26.102887988090515,Romanian Restaurant
850,687,44.4468,26.129166666666666,14,6,55eda609498ed46db937c33c,Hanul Negustorilor,44.4460711206425,26.134847383408562,Romanian Restaurant
494,331,44.4268,26.129166666666666,33,21,55f1f0bf498ebb88c2f89152,lincontro floreasca,44.427737,26.13147,Italian Restaurant
519,356,44.4268,26.169166666666666,3,0,55f70dc8498edb711faa8bbc,Trattoria Verdi,44.42468925734927,26.16609623983241,Italian Restaurant
1005,842,44.4668,26.08916666666667,19,1,55fbe10c498eb466ef037495,La Samuelle,44.466113460076045,26.08524707026638,Mediterranean Restaurant
415,252,44.4268,26.08916666666667,6,2,56195435498eac6e8090fc66,wedine classic,44.428678000000005,26.094261,French Restaurant
1060,897,44.4768,26.0625,6,1,56406fd9cd100e6ce2580c5b,Cantina URA,44.4740532397506,26.065446777220288,American Restaurant
231,68,44.4068,26.11583333333333,10,6,56439b3b498ed6a787d7e5f5,Trattoria Rossini,44.40441539287229,26.112957000732425,Italian Restaurant
571,408,44.43680000000001,26.08916666666667,21,8,564f433a498e64fa009ef9dd,Restaurant L'Atelier,44.43684697126562,26.08709843784377,French Restaurant
271,108,44.4168,26.075833333333332,7,3,5656df55498e56a22384f196,GGLunch,44.4193220291206,26.07975626032298,Eastern European Restaurant
905,742,44.4568,26.08916666666667,18,3,56583f0c498e8673e6fa38d8,Zexe Zahana,44.45973064768721,26.08941334382133,Romanian Restaurant
1181,1018,44.4868,26.129166666666666,6,3,565c423f498e983dd1e254fd,Don Quijote,44.490435,26.126921,Spanish Restaurant
499,336,44.4268,26.129166666666666,33,26,5661f54b498eac2dc332568a,Le Grenier à Pain,44.424937965980476,26.12861709052235,Bakery
1049,886,44.4668,26.1425,16,12,56687762498e567aa201dec2,CNM Kebap Express,44.46955937060903,26.145751930365996,Turkish Restaurant
805,642,44.4468,26.1025,40,37,566c2018498ed2e93af6fa72,Ozosep Târg Gastro-Cultural,44.443124639069396,26.0995841281143,Hungarian Restaurant
579,416,44.43680000000001,26.08916666666667,21,16,566ffcf4498e3924a0f9031f,La Nea Mitica,44.43606606578021,26.094780900062275,Romanian Restaurant
168,5,44.36680000000001,26.15583333333333,1,0,56700085498e1e380185b175,4 Friends,44.37066481228322,26.153259606280102,Eastern European Restaurant
493,330,44.4268,26.129166666666666,33,20,5673e136498e9f5287621fdf,La Fișic,44.42528,26.125646,Modern European Restaurant
932,769,44.4568,26.1025,28,12,56753195498e9abd692c7596,Degusteria Francesca,44.45302393541053,26.105363125174733,Italian Restaurant
544,381,44.43680000000001,26.03583333333333,8,3,5676873a498e57627745d444,Calif - Califatul Militari,44.434201971588756,26.03330077630575,Turkish Restaurant
542,379,44.43680000000001,26.03583333333333,8,1,5679796b498ed7a3857447d7,Mesopotamia,44.43336574816157,26.03675762528029,Turkish Restaurant
1089,926,44.4768,26.08916666666667,23,13,56812c3a498ea638fd1b45b3,dakota,44.47805395964926,26.093698460240365,American Restaurant
487,324,44.4268,26.129166666666666,33,14,56829f0f498e142bea53b9c9,Restaurant Gardinia,44.429023,26.132042000000002,Persian Restaurant
927,764,44.4568,26.1025,28,7,568a2d11498eea557801a83b,Die Deutsche Kneipe,44.456231,26.096595999999998,German Restaurant
1163,1000,44.4868,26.08916666666667,15,3,568d7226498e6c7e2874d894,Crudo e Cotto,44.484548,26.089098,Italian Restaurant
822,659,44.4468,26.11583333333333,36,14,569bd270498e9972e055d888,GAMA FUSION,44.444702,26.115473,Eastern European Restaurant
915,752,44.4568,26.08916666666667,18,13,569cce49498e3013cc4bd6e5,Jammo Bar,44.459162995327844,26.09351634979248,Italian Restaurant
1131,968,44.4768,26.11583333333333,13,6,56a20d7b498e1e86c9d69d2d,Gyros Mania,44.48094316775467,26.116301954007906,Souvlaki Shop
765,602,44.4468,26.08916666666667,25,22,56a3dd74498e9d4030405627,Chabad House,44.44654861927358,26.09414993118441,Kosher Restaurant
796,633,44.4468,26.1025,40,28,56a4923c498e0170b9de99dd,Heritage,44.445002,26.103556,French Restaurant
1136,973,44.4768,26.11583333333333,13,11,56bdc273498e5b9e3bda72d9,Șiș Kebap,44.481087,26.116451,Turkish Restaurant
489,326,44.4268,26.129166666666666,33,16,56bf1ecfcd107f5cf3093f67,Monna Lisa Ristorante,44.428618,26.13221,Italian Restaurant
904,741,44.4568,26.08916666666667,18,2,56db1ab9cd108c3b2001b1f8,Ai,44.45931431470887,26.094021753445674,Sushi Restaurant
1182,1019,44.4868,26.129166666666666,6,4,56e7e6c4498e78e815440ffa,Sheikh,44.49015427680182,26.127167635605264,Middle Eastern Restaurant
485,322,44.4268,26.129166666666666,33,12,56e815d6498e0e8c638fa3e3,Rookies Lounge,44.429252000000005,26.132126,Romanian Restaurant
708,545,44.43680000000001,26.1825,7,6,56ec4fca498e574e067159af,Sultan Kebab,44.43793634352605,26.186343004692922,Turkish Restaurant
971,808,44.4568,26.1425,10,6,57053602498e5cbcb7e3fb86,Chinese Restaurant Colentina,44.455420000000004,26.137429,Chinese Restaurant
980,817,44.4668,26.0625,10,1,5708ea75498e581475f884ff,Murad,44.4651684901764,26.06696178258412,Lebanese Restaurant
529,366,44.43680000000001,25.99583333333333,2,0,570d59e8498e49597e68b1ff,Thessalonikis Gyros,44.43387091391281,25.997825074901623,Greek Restaurant
1052,889,44.4668,26.1425,16,15,571128fb498e3b954cdccee0,Fast Food șiv Colentina,44.468682,26.143299,Turkish Restaurant
262,99,44.4168,26.0625,10,4,5718774ccd103c88ed1d5ad8,Restaurant Excellence,44.416585958801186,26.05969101190567,Romanian Restaurant
1126,963,44.4768,26.11583333333333,13,1,5718a119498ee2ee193ed892,Japanos,44.477764,26.115414,Ramen Restaurant
203,40,44.3968,26.1025,4,1,573cd6bd498e3b8f5703b155,bistro 47,44.396597,26.106794,Italian Restaurant
386,223,44.4268,26.049166666666665,11,4,5741bbb2cd10a3bfcad80a02,Trattoria UNO,44.428822620004816,26.05160383314479,Italian Restaurant
127,127,44.43453907066761,26.09935475473435,19,5,574708db498eb02f22735142,Antico Borgo,44.43278,26.097967,Italian Restaurant
1078,915,44.4768,26.08916666666667,23,2,5748902e498ee05234c4a495,Il Locale,44.47736586067849,26.086764265557928,Italian Restaurant
720,557,44.4468,26.0625,12,2,574b50cb498e644b6741b268,La Mia Musica Ristorante,44.445637,26.059526,Italian Restaurant
1087,924,44.4768,26.08916666666667,23,11,574f0b68498eed72ce61e02e,Pomo D'oro,44.479594088602894,26.085350109320572,Italian Restaurant
525,362,44.43680000000001,25.9825,4,0,57541367498eeb535d6eb7a4,Tava Cu De Toate,44.44024,25.980717000000002,Romanian Restaurant
954,791,44.4568,26.11583333333333,9,6,575c3610498ea83973582d74,WOK pe loc,44.455868,26.121195,Asian Restaurant
1169,1006,44.4868,26.08916666666667,15,9,575de74e498eb2216775f262,Pippo's,44.484716,26.088681,Italian Restaurant
300,137,44.4168,26.11583333333333,15,5,5762f2c7498e4316b37c00c1,Sehzade,44.41809560683807,26.11461997032165,Steakhouse
901,738,44.4568,26.075833333333332,17,16,576a9a05498e65ffd618f6e3,La Plăcinte,44.460903,26.074476,Pie Shop
200,37,44.3968,26.08916666666667,2,0,576ae331498e0e8484fed18e,OBY fast food Ferentari,44.398571999999994,26.084920999999998,Doner Restaurant
476,313,44.4268,26.129166666666666,33,3,576d7590498e21f501394f52,Turquoise Restaurant,44.427845491585636,26.130376382428757,Turkish Restaurant
1253,1090,44.5168,26.11583333333333,4,0,5773cf45498e31815ca67b00,Ligolini,44.514515,26.115364000000003,Italian Restaurant
114,114,44.4390609293324,26.09935475473435,18,10,57775b5338fad7362f9a5cb1,Vogue Restàracià,44.440940999999995,26.097939999999998,Romanian Restaurant
564,401,44.43680000000001,26.08916666666667,21,1,57793b52498ec8fcaa4849bb,Edo Garden,44.44021278425552,26.08696845470357,Sushi Restaurant
747,584,44.4468,26.08916666666667,25,4,577b932bcd102e638c7dd98e,PengYou,44.447882,26.083622000000002,Chinese Restaurant
46,46,44.4290609293324,26.099355292855925,37,27,57814a0f498e75cae785e243,Le Grenier à Pain,44.430125418943746,26.09949767589569,Bakery
523,360,44.4268,26.20916666666667,2,0,57836f8e498e7519beddbcda,Hell's Kitchen,44.424824,26.206709,African Restaurant
852,689,44.4468,26.129166666666666,14,8,5784bcb8498e0c74bdc5a7c6,Chinese Food,44.44983,26.12888,Chinese Restaurant
1059,896,44.4768,26.0625,6,0,578d0637498e672662481e92,Citronelle,44.479797999999995,26.064717,Modern European Restaurant
646,483,44.43680000000001,26.11583333333333,27,12,578e5430498e51fe1770bc68,Food,44.437709823983965,26.117430925369266,French Restaurant
1171,1008,44.4868,26.08916666666667,15,11,57ac72e4498e8ede02644aef,Bocca Lupo,44.491073,26.087954999999997,Italian Restaurant
169,6,44.3768,25.9825,1,0,57c2c03f498e444ba03896db,Restaurant Belluno,44.374888,25.980994,Romanian Restaurant
1135,972,44.4768,26.11583333333333,13,10,57c7ffb4498e20b3ff0bda4e,La Culae,44.48109,26.117174,Mexican Restaurant
164,1,44.36680000000001,26.08916666666667,1,0,57c80653498ebea6ac9903f1,La Oltina,44.367678999999995,26.088816,Romanian Restaurant
897,734,44.4568,26.075833333333332,17,12,57ce8ccd498eb312cf0866e7,Dineș,44.45560610029472,26.080442104530157,Romanian Restaurant
825,662,44.4468,26.11583333333333,36,17,57dabfed498e36f0a24af49e,Cucina da Pietro,44.44482976505808,26.119171679019928,Italian Restaurant
346,183,44.4168,26.1825,3,1,57e78553498e2d323ab79f06,Istanbul Taksim,44.420696,26.179472,Turkish Restaurant
1231,1068,44.5068,26.08916666666667,31,19,57f9029e498eacf29c3489e7,City Grill,44.50604179999999,26.0895102,Romanian Restaurant
889,726,44.4568,26.075833333333332,17,4,57fcff7c498ebaa84540504b,Quesadilla Mexican Food,44.453625,26.07478,Mexican Restaurant
233,70,44.4068,26.11583333333333,10,8,580076fc38fa3dc50d847f5f,Ji Tsu,44.404918,26.119975,Ramen Restaurant
232,69,44.4068,26.11583333333333,10,7,5800778138faf0b904b82d29,Chen Za,44.405438000000004,26.119882,Noodle House
234,71,44.4068,26.11583333333333,10,9,580077e1d67cbc46e35a7677,Hermesa,44.406715999999996,26.121104000000003,Taco Place
1138,975,44.4768,26.15583333333333,8,0,580c85d638faf41632adb929,Cetatea din Alep,44.47306773146365,26.153372526168823,Middle Eastern Restaurant
918,755,44.4568,26.08916666666667,18,16,580ce7f438fa67f3bfe1e951,Uptown,44.45887291182486,26.08866744424509,Modern European Restaurant
916,753,44.4568,26.08916666666667,18,14,5810fa4d38fa3ea3b4bac7cf,consul haute cuisine,44.455606,26.087544,Belgian Restaurant
888,725,44.4568,26.075833333333332,17,3,5817699e38faa541c8baa804,Gastronomika,44.458003999999995,26.074718,Romanian Restaurant
267,104,44.4168,26.0625,10,9,581f48535d0a1a25ca905bb1,Restaurant Çeşme,44.41863,26.058872,Turkish Restaurant
995,832,44.4668,26.075833333333332,15,6,58297a95ab81e23c073562f0,Restaurant Chance,44.46381103721559,26.074759662151326,Romanian Restaurant
206,43,44.3968,26.11583333333333,6,0,583095a276f2ca684ce6c234,Trattoria Primavera,44.393234,26.119085000000002,Modern European Restaurant
581,418,44.43680000000001,26.08916666666667,21,18,58317f729b615c4920d5ca8f,Osteria Romana,44.438164,26.087646,Italian Restaurant
469,306,44.4268,26.11583333333333,4,0,583acc0f6d349d057480d7f4,Zexe Zahana Matei Basarab,44.430658,26.11873,Romanian Restaurant
900,737,44.4568,26.075833333333332,17,15,583eb496d0bb3e75503129fb,laTortilla,44.453503999999995,26.074376,Mexican Restaurant
1180,1017,44.4868,26.129166666666666,6,2,58456f098ee5607859834054,Toan's,44.490178424455074,26.127281721778413,Vietnamese Restaurant
1160,997,44.4868,26.08916666666667,15,0,58495a69730a921d11dcac6a,The Grill,44.48550679360485,26.08763426542282,Modern European Restaurant
432,269,44.4268,26.1025,50,13,584af782d702824c5185a551,PepeRosso,44.431013358487796,26.10143905340692,Italian Restaurant
811,648,44.4468,26.11583333333333,36,3,585987e9d8b0ed132a812522,Bonoro,44.44605,26.115316,Italian Restaurant
1125,962,44.4768,26.11583333333333,13,0,585bb45c158b9617884f5d92,Pagaia,44.47868131605193,26.11630104527348,Modern European Restaurant
522,359,44.4268,26.1825,1,0,585c4c25cf4451174ce0cf8e,Hanul Cristianului,44.424473,26.179059,Turkish Restaurant
1025,862,44.4668,26.1025,9,2,586e54edf697e05a608a2f4e,AGAPE Cuisine,44.468579999999996,26.103216,French Restaurant
681,518,44.43680000000001,26.1425,7,1,5873cde60a3d541770dff622,Santorini,44.43336836346328,26.138566386287817,Greek Restaurant
928,765,44.4568,26.1025,28,8,588256054ca49b16cd10ce10,Sushi Terra,44.457140274465495,26.09653604872291,Sushi Restaurant
568,405,44.43680000000001,26.08916666666667,21,5,588261fb16f0007b205f1211,La Ciurucuri Restaurant - Like a Museum,44.43723742660711,26.093206106743306,Romanian Restaurant
128,128,44.43453907066761,26.09935475473435,19,6,588a362ee18e654009dac07d,Gusto Ristorante Italiano,44.432669,26.098053,Italian Restaurant
1196,1033,44.4968,26.08916666666667,3,2,589cbcc1f595726efd494e51,Premiata,44.493836072890254,26.08551592188655,Italian Restaurant
783,620,44.4468,26.1025,40,15,58a370399ab6630ebc766b45,Arkuda Taverna,44.447033000000005,26.100707999999997,Greek Restaurant
827,664,44.4468,26.11583333333333,36,19,58af1c0a964d780b386115b0,Pizzeria da Michele,44.44891,26.11618,Italian Restaurant
138,138,44.43453907066761,26.09935475473435,19,16,58af3642e6160c515f702b46,La Omer,44.433609999999994,26.097920000000002,Turkish Restaurant
295,132,44.4168,26.11583333333333,15,0,58b2dc009435a903b9762e96,Sardin,44.41997595847805,26.11285364392004,Mediterranean Restaurant
746,583,44.4468,26.08916666666667,25,3,58bedba6a36ecd71ecdae0c3,Galli,44.444559999999996,26.094322000000002,French Restaurant
1027,864,44.4668,26.1025,9,4,58cae47645005e58343baa90,Trattoria ROMA,44.465519,26.105481,Italian Restaurant
1009,846,44.4668,26.08916666666667,19,5,58cda57df5bfab63043c2965,Mesogios,44.470608,26.089499,Greek Restaurant
880,717,44.4568,26.049166666666665,8,6,58d04930e309e12fbd7dc15d,Verbun Shaorma,44.45343,26.045967,Turkish Restaurant
1153,990,44.4868,26.03583333333333,2,0,58d28de02e9fde5e8b000deb,Hot Woks,44.48553,26.038532,Chinese Restaurant
776,613,44.4468,26.1025,40,8,58d53f6c92ca4c5b4f61cab7,Trattoria Mezzaluna,44.450404,26.098921,Italian Restaurant
784,621,44.4468,26.1025,40,16,58d53ff6326c5a4a01bcd529,Mezzaluna di Laura,44.450404999999996,26.099034,Italian Restaurant
554,391,44.43680000000001,26.0625,2,1,58d8de4e5e56b471a61774da,La Campana,44.436873,26.067118,Italian Restaurant
292,129,44.4168,26.1025,12,9,58ea24b1964d7842031427e6,Zen Sushi Take Away,44.41521038261825,26.10480308532715,Sushi Restaurant
303,140,44.4168,26.11583333333333,15,8,58ebfd5a6d349d30aeaa528a,Acess,44.41649284977915,26.11252650618553,Doner Restaurant
176,13,44.3768,26.20916666666667,1,0,58fc7b9e6bd36b7adc04e323,Restaurant Pizzerie Big Mic,44.37765,26.204458,Italian Restaurant
979,816,44.4668,26.0625,10,0,58fc9db5f0ca9540b1cb057b,Sabatini Pizza & Restaurant,44.46662098475559,26.067839463763985,Italian Restaurant
1010,847,44.4668,26.08916666666667,19,6,5904e084a6fe4d0aa5451583,Maison des Crêpes Aviatorilor,44.46552477537304,26.084020970771274,Creperie
302,139,44.4168,26.11583333333333,15,7,590714f6646e387f2b923c79,Adress Turkish Restorant,44.416418,26.112233,Turkish Restaurant
539,376,44.43680000000001,26.0225,8,6,591df9839ba3e537854c5d29,Nassar,44.44045,26.026056,Lebanese Restaurant
402,239,44.4268,26.075833333333332,13,2,5920a1976bdee630c37566a3,La Tartine,44.43054598343571,26.0742986315148,French Restaurant
342,179,44.4168,26.169166666666666,7,4,59244f72f0ca95470271eb10,Eleven,44.417266999999995,26.172852,Romanian Restaurant
936,773,44.4568,26.1025,28,16,5924abb1f62e096b7810dd73,Pasta Restaurant - Floreasca,44.459622455817545,26.097679138183594,Italian Restaurant
641,478,44.43680000000001,26.11583333333333,27,7,59287ea816fa0415c7917ec0,La Han La Traian,44.433632,26.12011,Romanian Restaurant
310,147,44.4168,26.129166666666666,20,0,59297df80ff4f9137e4c3896,Resto Aperto,44.41945083154541,26.12665044464368,Italian Restaurant
893,730,44.4568,26.075833333333332,17,8,592bf7cba0215b391773f041,Fior D'italia,44.455141999999995,26.081259,Cafeteria
777,614,44.4468,26.1025,40,9,592c46c75455b230d39225b6,Portobello,44.45023,26.102107,Italian Restaurant
1097,934,44.4768,26.08916666666667,23,21,592db9a804d1ae4b86e2ee89,Octopus Eat Greek,44.476873,26.088279999999997,Greek Restaurant
1256,1093,44.5168,26.11583333333333,4,3,593550e39ec39910e41d67bd,Zigolini,44.514825,26.115308,Italian Restaurant
683,520,44.43680000000001,26.1425,7,3,59441408340a5849a8775616,San Torini,44.43351,26.138374,Greek Restaurant
1191,1028,44.4968,26.075833333333332,5,2,594a555ed48ec17dbab27902,Wow Events&Restaurant,44.496949192140065,26.07980489730835,Romanian Restaurant
341,178,44.4168,26.169166666666666,7,3,594fa4ea491be717e5557d70,Bodrum Kebap,44.41417,26.164491,Doner Restaurant
940,777,44.4568,26.1025,28,20,5957e0c3f79faa6187885bfb,Pasterra - Pasta Bar,44.45994,26.099714000000002,Italian Restaurant
366,203,44.4268,26.03583333333333,21,5,595a1dcd0d2be7672eaba9c8,Mesopotamia,44.429002317267816,26.03478295236988,Turkish Restaurant
186,23,44.3868,26.11583333333333,10,6,597246466f706a5bcd403639,Shaorma Turceasca El Emir,44.38753,26.109701,Turkish Restaurant
326,163,44.4168,26.129166666666666,20,16,597626fb0313203e5c69a537,Istanbul Taksim,44.42004,26.126768,Turkish Restaurant
692,529,44.43680000000001,26.15583333333333,12,5,597bb3393b830715fc5a95fa,Santorini Gyros,44.433468,26.1527,Greek Restaurant
51,51,44.4290609293324,26.099355292855925,37,32,5991f7eeacb00b4c5e23ad19,Zexe Zahanaua Gastronomica,44.430188,26.099982,Romanian Restaurant
413,250,44.4268,26.08916666666667,6,0,599498d7065ef51988fd5d99,El Torito,44.42852806874778,26.09461093471516,Taco Place
57,57,44.4290609293324,26.105644707144073,24,0,5996bb8a123a1921c3d2568f,Trattoria Verdi,44.428419,26.108605999999998,Italian Restaurant
667,504,44.43680000000001,26.129166666666666,19,6,59a03e67c0f1635ccf62f34f,NOUA Bucătărie Românească (NOUA bucătărie românească),44.438204999999996,26.123381,Romanian Restaurant
286,123,44.4168,26.1025,12,3,59a0744458002c3c1fc50f6e,La Papile,44.417673,26.096429,Mediterranean Restaurant
347,184,44.4168,26.1825,3,2,59a52e738b98fd13d0680dc2,Kungfu King,44.420555,26.179621,Chinese Restaurant
1015,852,44.4668,26.08916666666667,19,11,59a7e1064420d853d9df8f2b,La Estancia,44.46734,26.088458,Argentinian Restaurant
1122,959,44.4768,26.1025,26,23,59a93ef4492814045b350024,Japanos,44.480470000000004,26.104708,Ramen Restaurant
517,354,44.4268,26.15583333333333,7,5,59bab6e66adbf54afd32cac2,Oriental Cuisine,44.427122,26.152832,Turkish Restaurant
53,53,44.4290609293324,26.099355292855925,37,34,59bed346bcbf7a6bb616e9b1,Japanos,44.431003999999994,26.100857,Ramen Restaurant
1183,1020,44.4868,26.129166666666666,6,5,59c4da3b35f9830719470a90,Hot Woks,44.490208,26.127287,Chinese Restaurant
693,530,44.43680000000001,26.15583333333333,12,6,59c7a2d314994611ed518124,Trattoria Buongiorno Arena,44.433783,26.153842,Italian Restaurant
514,351,44.4268,26.15583333333333,7,2,59c7a61491eaca5a759b1d94,Najee,44.427164000000005,26.152844,Asian Restaurant
838,675,44.4468,26.11583333333333,36,30,59ce8dd34aa3f839f8689176,Blue Margarita,44.446508,26.113826,Mexican Restaurant
496,333,44.4268,26.129166666666666,33,23,59cfb644f62f2b7597519caf,PadThai,44.42767,26.130663000000002,Thai Restaurant
77,77,44.4290609293324,26.105644707144073,24,20,59d3a4ffcf72a039e8c3571d,Gyropolis,44.429276,26.104702,Greek Restaurant
1205,1042,44.4968,26.129166666666666,8,7,59d47117d0a1497f77143fbc,THE one zero LOUNGE,44.497659999999996,26.132832,Tapas Restaurant
913,750,44.4568,26.08916666666667,18,11,59d608db09e283696708c3f5,Japanos,44.454085542608716,26.086468058176308,Ramen Restaurant
1212,1049,44.5068,26.08916666666667,31,0,59d7da8e851de5649a8d3ec3,Taco Bell,44.506136065275534,26.088735467865156,Taco Place
474,311,44.4268,26.129166666666666,33,1,59f70746b1ec131141b007b2,Nikos Greek Taverna,44.42421866840121,26.12970681576361,Greek Restaurant
902,739,44.4568,26.08916666666667,18,0,5a055a2569e77b14617c5dbd,Maize Farm To Table,44.45884286474257,26.093136827079917,Romanian Restaurant
952,789,44.4568,26.11583333333333,9,4,5a147b076f706a2ca6c6bf17,Naser 2,44.456520000000005,26.120676,Lebanese Restaurant
1104,941,44.4768,26.1025,26,5,5a1f08fb6c08d123e448b976,SUSHI TERRA express,44.478161661680296,26.103680318578487,Sushi Restaurant
217,54,44.4068,25.99583333333333,1,0,5a257b48c824ae4a318aa31f,Burger Grill House,44.409539,25.995767999999998,American Restaurant
1179,1016,44.4868,26.129166666666666,6,1,5a2a6845d3cce86fa10d03ae,Beijing Garden,44.490701,26.128453,Chinese Restaurant
375,212,44.4268,26.03583333333333,21,14,5a310b79a92d981376adc15a,Istanbul Taksim,44.428936,26.034538,Turkish Restaurant
775,612,44.4468,26.1025,40,7,5a522c79772fbc5e9fbf675e,Maison des Crêpes Romană,44.447150824525906,26.100735245757413,Creperie
919,756,44.4568,26.08916666666667,18,17,5a5a43ff08f5216e43580157,AV8,44.454209999999996,26.087260999999998,Modern European Restaurant
1238,1075,44.5068,26.08916666666667,31,26,5a5b78affc9e94066532d02a,Black - American Dinner,44.506195,26.089554,American Restaurant
1110,947,44.4768,26.1025,26,11,5a5e0ce8d69ed06624c8755a,Say,44.478086,26.103638,Italian Restaurant
1127,964,44.4768,26.11583333333333,13,2,5a63cc75791871187bf0d210,Kaufland PopUp! restaurant,44.479477,26.117554000000002,Modern European Restaurant
745,582,44.4468,26.08916666666667,25,2,5a64d0fcf8cbd43a19c6a01a,Pizza Mania,44.45097716358716,26.088501742251808,Italian Restaurant
1003,840,44.4668,26.075833333333332,15,14,5a69b2095ba046020eb71923,Osteria Bella Toscana,44.464490000000005,26.076421,Italian Restaurant
756,593,44.4468,26.08916666666667,25,13,5a74aa76c4df1d3b10a17d38,Restaurant Kos,44.450714000000005,26.086226999999997,Greek Restaurant
898,735,44.4568,26.075833333333332,17,13,5a79ffc735811b7011f2b2f2,Frank Dessert Bar,44.459417613462534,26.07726350426674,Bistro
1035,872,44.4668,26.11583333333333,4,3,5a98f54bdff815665e478520,Gustosi Momenti,44.469417,26.111013,Italian Restaurant
365,202,44.4268,26.03583333333333,21,4,5aa64a3a6adbf501d41f0f00,Casa Cozara,44.42788,26.037098,Romanian Restaurant
473,310,44.4268,26.129166666666666,33,0,5abfbdee97cf5a3708d40375,Duman,44.429276,26.134375,Turkish Restaurant
1000,837,44.4668,26.075833333333332,15,11,5aec8ec331ac6c002c39dc5f,Arco - Giro di Gusto,44.466154061366,26.076468229293823,Italian Restaurant
906,743,44.4568,26.08916666666667,18,4,5aede5cb0fe7a0002cf90cd5,Restaurant Spaniol Pata Negra,44.455384,26.091623000000002,Spanish Restaurant
1227,1064,44.5068,26.08916666666667,31,15,5af312a4646e38002cb92e5c,noodle pack,44.506299,26.088593,Noodle House
405,242,44.4268,26.075833333333332,13,5,5af6c695b23dfa002c7088ac,Restaurant Casa Hangiului,44.423306,26.076999,Romanian Restaurant
1100,937,44.4768,26.1025,26,1,5b053fd0c9f907002ce31c02,K-Food,44.479331,26.09729,Korean Restaurant
808,645,44.4468,26.11583333333333,36,0,5b12e5e4588e36002c962f80,Suento by Gram,44.447175251438274,26.115478922506977,Modern European Restaurant
1157,994,44.4868,26.0625,1,0,5b1997a9012358002c4aca2e,Hora,44.483922,26.058695,Romanian Restaurant
378,215,44.4268,26.03583333333333,21,17,5b2909d75a2c91003984c10c,Lunch,44.428375,26.034813,Romanian Restaurant
337,174,44.4168,26.15583333333333,3,2,5b389773fe3740002c0ed144,@ The Lake,44.42086,26.158482,Modern European Restaurant
166,3,44.36680000000001,26.129166666666666,2,1,5b3ba3588ad62e002c7f1411,Bistro lemon,44.369212,26.134144,Greek Restaurant
1103,940,44.4768,26.1025,26,4,5b4c69ce67f62b002ca55db1,Restaurant Joy,44.480282,26.103572,Romanian Restaurant
47,47,44.4290609293324,26.099355292855925,37,28,5b8bda7323a2e6002cffd55e,Taverna Faros,44.430134,26.099870000000003,Greek Restaurant
935,772,44.4568,26.1025,28,15,5b904b9c25fb7b002c58df3e,Graffiti Restaurant,44.455669,26.099977,Romanian Restaurant
727,564,44.4468,26.0625,12,9,5b98e3729b0473002cfb30ec,Spartan,44.44513,26.062857,Doner Restaurant
538,375,44.43680000000001,26.0225,8,5,5b9fdca8029a55002cc2a7d0,Poli Chinese Street Food,44.434414000000004,26.020164,Chinese Restaurant
710,547,44.4468,25.9825,1,0,5ba61bea6336be0039a46778,Fu Long,44.448451,25.981619,Asian Restaurant
923,760,44.4568,26.1025,28,3,5bb11f572b9844002cf8c6dd,Cucinetta,44.459557000000004,26.097777999999998,Italian Restaurant
1162,999,44.4868,26.08916666666667,15,2,5bd75d1b8fb09e0039b330e6,Mandaloun,44.483910502035506,26.091711223125454,Lebanese Restaurant
903,740,44.4568,26.08916666666667,18,1,5be727989d7468002c5e5727,GastroLab,44.453961,26.086621,Romanian Restaurant
249,86,44.4168,26.03583333333333,6,0,5be875e486f4cc002c447821,Mesopotamia,44.417358,26.035773000000002,Turkish Restaurant
1106,943,44.4768,26.1025,26,7,5beea6ec1822230025bdb638,Pagaia,44.479473,26.101751,Modern European Restaurant
929,766,44.4568,26.1025,28,9,5c0d115f5d891b002c7f3287,Yasou,44.460534,26.100723000000002,Greek Restaurant
384,221,44.4268,26.049166666666665,11,2,5c13a92941b6c9002526cb3f,Taco Bell,44.4306,26.05246,Taco Place
736,573,44.4468,26.075833333333332,13,6,5c19163d56c89f002cf3c4c2,Blessing Asian Food,44.444637,26.078332999999997,Asian Restaurant
324,161,44.4168,26.129166666666666,20,14,5c20c345f05ca8002d0fd713,Mesopotamia,44.419909999999994,26.126938,Turkish Restaurant
1259,1096,44.5168,26.129166666666666,3,2,5c2e39e041b6c9002536669e,Brasserie 41,44.513791999999995,26.131854999999998,Brasserie
553,390,44.43680000000001,26.0625,2,0,5c35d88c894eac002c672f0d,La Bottega Dei Sapori,44.438701,26.067061,Italian Restaurant
235,72,44.4068,26.129166666666666,3,0,5c49993e75dcb7002c09d544,Montefiore Restaurant,44.406956,26.124474,Italian Restaurant
237,74,44.4068,26.129166666666666,3,2,5c49996e835c9a002c1d6279,Montefiore Restaurant,44.407024,26.124678,Italian Restaurant
652,489,44.43680000000001,26.11583333333333,27,18,5c5df74b1ffe97002cc396b3,Sushi Time,44.438468210350116,26.11649751663208,Sushi Restaurant
921,758,44.4568,26.1025,28,1,5c62c8dccb3fd2002c44e00a,SARA Restaurant ώρα,44.460544,26.100873999999997,Italian Restaurant
228,65,44.4068,26.11583333333333,10,3,5c7a81d266fc6500391741e9,Mahalaua Caramidarilor,44.409836999999996,26.115049,Romanian Restaurant
994,831,44.4668,26.075833333333332,15,5,5c88f1bf97cf5a002c3f59d4,La Piovra,44.462759999999996,26.076547,Italian Restaurant
1082,919,44.4768,26.08916666666667,23,6,5c9e81b4b04056003951c4a7,It Cucina,44.476746,26.088194,Italian Restaurant
800,637,44.4468,26.1025,40,32,5ca75997f193c0002c5ce915,Artemis,44.448025,26.105332,Greek Restaurant
247,84,44.4168,26.009166666666665,3,2,5ca8e6f965cdf8002c42c6d9,Restaurant Basilico,44.415079999999996,26.014398999999997,Italian Restaurant
167,4,44.36680000000001,26.1425,1,0,5caf6349da7080002c604fd7,Bistro Lemon,44.364461,26.147826000000002,Bistro
210,47,44.3968,26.11583333333333,6,4,5cb1f754de3bbf002cc0cbff,Pinar 63,44.396361999999996,26.113754999999998,Turkish Restaurant
212,49,44.3968,26.129166666666666,4,0,5cceb58e4aa3f8002cb052f6,Istanbul Taksim,44.395739,26.123117999999998,Turkish Restaurant
540,377,44.43680000000001,26.0225,8,7,5cd2fd0979f6c7002c76fb60,NASSAR Restaurant Libanez,44.440480780376795,26.02582151387196,Lebanese Restaurant
330,167,44.4168,26.1425,5,0,5cd81f7e8194fc002ce58224,Veranda Ristorante & Pizza,44.416934999999995,26.140297,Italian Restaurant
121,121,44.4390609293324,26.09935475473435,18,17,5cd82bcf9e0d54002cbced39,Ciorbe și Plăcinte,44.440117,26.100382,Romanian Restaurant
1178,1015,44.4868,26.129166666666666,6,0,5ce27fea6336be002c90612c,Porto - Gallo,44.490532,26.12871,Portuguese Restaurant
357,194,44.4268,26.009166666666665,5,4,5ce5314151950e00396d02e1,Le Blanc,44.423390000000005,26.012247,French Restaurant
410,247,44.4268,26.075833333333332,13,10,5cefa5730d173f002c3d68b3,Allucinante by patrizia,44.424731,26.079567,Italian Restaurant
199,36,44.3968,26.049166666666665,2,1,5cefb8611fa7630039a95e42,Dominum grill & bar,44.398384,26.048295,Romanian Restaurant
545,382,44.43680000000001,26.03583333333333,8,4,5cf321de60d11b002c3953be,La Giovani,44.435548,26.034601000000002,Doner Restaurant
744,581,44.4468,26.08916666666667,25,1,5d075f43bb8d36002cc5b8d5,Coclintă Brasserie,44.450396000000005,26.087014,Romanian Restaurant
1067,904,44.4768,26.075833333333332,11,2,5d274637be636e00237d9fef,Trattoria Il Calcio,44.47579,26.075864000000003,Italian Restaurant
847,684,44.4468,26.129166666666666,14,3,5d27578b69ee000023b93ed3,La Teu,44.44607,26.124786,Tapas Restaurant
734,571,44.4468,26.075833333333332,13,4,5d279a4fa8da67002dbc5cf0,Pă Gang,44.445446999999994,26.079767999999998,Romanian Restaurant
301,138,44.4168,26.11583333333333,15,6,5d304dc99a169c0008a5095b,Tarab,44.417946,26.114555,Lebanese Restaurant
383,220,44.4268,26.049166666666665,11,1,5d31cce7c46dcb00083edc49,noodle pack,44.430182,26.053006,Noodle House
1134,971,44.4768,26.11583333333333,13,9,5d567b9ff9735e0008709624,Dabo Döner,44.480892,26.117105,Doner Restaurant
1066,903,44.4768,26.075833333333332,11,1,5d593ed59ccd2d00085705a1,Meadows,44.47635,26.074792000000002,Italian Restaurant
659,496,44.43680000000001,26.11583333333333,27,25,5d5ee7f4af156d000876ea33,Zen Garden,44.440318,26.112188,Chinese Restaurant
637,474,44.43680000000001,26.11583333333333,27,3,5d612f76e1e6440008771c7a,Borgo Margherita,44.433212,26.116298999999998,Italian Restaurant
1045,882,44.4668,26.1425,16,8,5d66f696a9fbd90008916841,Don Kebap,44.469306,26.14552,Doner Restaurant
1236,1073,44.5068,26.08916666666667,31,24,5d7a7d97cd95ad00084ec371,Japanos,44.505978000000006,26.089029999999998,Ramen Restaurant
273,110,44.4168,26.075833333333332,7,5,5d7e18c006e8640008829500,Lee Ho Food,44.415415,26.079723,Chinese Restaurant
737,574,44.4468,26.075833333333332,13,7,5d895efe85aecf000880c94b,Shaormeria BNC,44.447959000000004,26.075185,Shawarma Place
468,305,44.4268,26.1025,50,49,5d8cb50e529c5c00072a1277,Chimichanga,44.430595000000004,26.102125,Mexican Restaurant
71,71,44.4290609293324,26.105644707144073,24,14,5d90fc0de9d0f300071796ac,Uncle John,44.430553,26.104038,Burger Joint
1173,1010,44.4868,26.08916666666667,15,13,5da75533dfe54400089ce13e,Zarada Restaurant,44.491019,26.087323,Romanian Restaurant
869,706,44.4468,26.169166666666666,1,0,5dd0f33bc757430007e4574a,Restaurant cu specific chinezesc,44.444044,26.166026000000002,Chinese Restaurant
495,332,44.4268,26.129166666666666,33,22,5dd279978caaba00087b7600,Rainbow,44.424915999999996,26.130623999999997,Romanian Restaurant
1023,860,44.4668,26.1025,9,0,5dd3beb9129bfb0008d74760,Centocittà,44.462879,26.101554,Italian Restaurant
991,828,44.4668,26.075833333333332,15,2,5dfcc64a898a6a00084a6515,La Cocosatu’,44.462728999999996,26.076512,Romanian Restaurant
1151,988,44.4868,26.009166666666665,2,0,5dfe1b852cf03a00070c916e,Gyros Thessalonikis,44.489403,26.011751,Greek Restaurant
399,236,44.4268,26.0625,7,6,5e04c8993953e100080c902e,Ustam Wok Döner,44.42645,26.060175,Turkish Restaurant
244,81,44.4068,26.20916666666667,1,0,5e1998d7bd8b5a000829a363,Restaurant Ikea,44.407651,26.205828,Scandinavian Restaurant
506,343,44.4268,26.1425,6,0,5e1d9023e7117a0008d87ca1,Pita Van,44.42569,26.145023000000002,Lebanese Restaurant
547,384,44.43680000000001,26.03583333333333,8,6,5e1edd20bd16620008cc59e3,David’s Original Food,44.43603,26.034825,Fast Food Restaurant
1094,931,44.4768,26.08916666666667,23,18,5e259689c8915e0007978038,Del Popolo,44.479027,26.093795,Italian Restaurant
1262,1099,44.5268,25.99583333333333,2,1,5e259f2ca292720008663905,Restaurant Royal Palatul Mogosoaia,44.52750625503831,25.993445813655853,Romanian Restaurant
1031,868,44.4668,26.1025,9,8,5e26efd816c1750008974025,Souk,44.462686,26.101398,Lebanese Restaurant
392,229,44.4268,26.049166666666665,11,10,5e331891549d49000796aa03,Rigatoni,44.430479999999996,26.052769,Italian Restaurant
549,386,44.43680000000001,26.049166666666665,4,0,5e494e036365da0008171ba1,Dristor Doner Politehnica,44.434353,26.053398,Turkish Restaurant
380,217,44.4268,26.03583333333333,21,19,5e4bd7bb30eab9000874866f,Chanh® Miam Miam,44.427193,26.034582,Vietnamese Restaurant
1101,938,44.4768,26.1025,26,2,5e5bcf8b5bb431000830478a,Nikos,44.478657,26.103346,Greek Restaurant
334,171,44.4168,26.1425,5,4,5e5d3ff923d4180008a137f5,Papaciu,44.420777,26.14181,Eastern European Restaurant
22,22,44.4290609293324,26.099355292855925,37,3,5e623d73c0eaca0007344926,Anika,44.43008,26.097461,Romanian Restaurant
290,127,44.4168,26.1025,12,7,5eff695d86b46d000722998f,Bouzouki Greek & Tacerna,44.415015999999994,26.105459,Greek Restaurant
583,420,44.43680000000001,26.08916666666667,21,20,5f15dcc0978e663e91049ee5,Addagio,44.438355,26.087768,Italian Restaurant
707,544,44.43680000000001,26.1825,7,5,5f22a74d3a53b2468dc2d50d,Restaurant Gratar,44.43466,26.185548999999998,Romanian Restaurant
702,539,44.43680000000001,26.1825,7,0,5f22a830d61fc2048922d126,Restaurant Gratar,44.434566,26.185684,Romanian Restaurant
471,308,44.4268,26.11583333333333,4,2,5f2858afe8a8df596bd2c009,La Placinte,44.427207,26.112056,Romanian Restaurant
730,567,44.4468,26.075833333333332,13,0,5f53ae62b511c83bbf4a5b1c,Hala Mahala,44.445274,26.081068,American Restaurant
1022,859,44.4668,26.08916666666667,19,18,5f60ac52a1a3aa4e5e68289a,Porto - Gallo,44.465286,26.088291,Portuguese Restaurant
1075,912,44.4768,26.075833333333332,11,10,5f6e35461ce13b29fe1ffd18,Wurstaholics,44.42657,26.115064999999998,Food Truck
175,12,44.3768,26.169166666666666,1,0,5f7c4c80e7bb3d7605238847,Il Bocconcino,44.37773935745326,26.16458147764206,Italian Restaurant
1240,1077,44.5068,26.08916666666667,31,28,5f81aadad1f2fd3b2f203318,Rigatoni,44.51031,26.086891,Italian Restaurant
1241,1078,44.5068,26.08916666666667,31,29,5f81ab1fa5d9a20fe64abc9f,Sushi Vo,44.51023,26.086942999999998,Sushi Restaurant
1124,961,44.4768,26.1025,26,25,5f81e358a479ca535eed31d7,GODAI,44.475883,26.107542000000002,Asian Restaurant
1099,936,44.4768,26.1025,26,0,5f9c43e40f4d677b7c2ccfaf,Turkish Kitchen,44.479442,26.10322,Turkish Restaurant
18,18,44.4268,26.1025,19,18,5fa680b44eade805397e09a0,Trattotia Pizzeria L’Oroscopo,44.425678000000005,26.102860999999997,Italian Restaurant
54,54,44.4290609293324,26.099355292855925,37,35,5fba7c51eaa7f224d8e0b859,Martina,44.430195,26.099422,Italian Restaurant
