,lat_centre,long_centre,num_venues,venue_iter,venue_id,venue_name,lat_venue,long_venue,category
0,48.1251,11.556444444444445,17,0,4b6dd3adf964a5208c932ce3,Paulaner Bräuhaus,48.12639185872661,11.558568452608885,Bavarian Restaurant
1,48.1251,11.556444444444445,17,1,5944190b86f4cc401674ac97,Chois Hotpot & Lounge,48.125390082657475,11.557029174325855,Chinese Restaurant
2,48.1251,11.556444444444445,17,2,4be7024e2468c928c2f40143,King Rice,48.12623400513971,11.558271406842428,Asian Restaurant
3,48.1251,11.556444444444445,17,3,4cd29d133e0c8cfa828f1812,Gaßner,48.123098876465434,11.556365385666393,German Restaurant
4,48.1251,11.556444444444445,17,4,4c2270e799282d7f862067b0,Anesis,48.124497,11.553866,Greek Restaurant
5,48.1251,11.556444444444445,17,5,4ade0cb5f964a520a46821e3,Friulana,48.12589281973367,11.553705423948236,Italian Restaurant
6,48.1251,11.556444444444445,17,6,5bc9b4b167f62b002c1ee546,Indian Sun,48.126168,11.557805,Indian Restaurant
7,48.1251,11.556444444444445,17,7,4cb4aa67aef16dcbc9b8d054,Atlantik Fisch & Feinkost,48.124285740779875,11.555258522746758,Seafood Restaurant
8,48.1251,11.556444444444445,17,8,570d53c5498e5b652af79923,In Mamas Küche,48.126507,11.558704,Greek Restaurant
9,48.1251,11.556444444444445,17,9,4e21a694d4c0d32590f0d581,Al Iraki,48.126437,11.558578,Middle Eastern Restaurant
10,48.1251,11.556444444444445,17,10,4e5a8598e4cd875e8ebc84ec,Sushi-Chi,48.127009,11.557371,Asian Restaurant
11,48.1251,11.556444444444445,17,11,4c46e9c719fde21ee1980676,Taverna Randevou,48.125985,11.558976,Taverna
12,48.1251,11.556444444444445,17,12,4f75957ce4b0f62bd3684030,Güler's Döner Kebap,48.12725,11.557146,Doner Restaurant
13,48.1251,11.556444444444445,17,13,4e80e0672c5b453d02d5252e,Schwarzes Loch,48.125741675,11.553955887499999,African Restaurant
14,48.1251,11.556444444444445,17,14,4ade0d0bf964a520756a21e3,Wirtshaus im Schlachthof,48.12346789999999,11.5574066,Comedy Club
15,48.1251,11.556444444444445,17,15,4f7a0e5ce4b0d7b575d7c474,Gaststätte Südbahnhof,48.124266723150626,11.555242733012063,Greek Restaurant
16,48.1251,11.556444444444445,17,16,5a79f4b6c4df1d32d86a003b,Cafe Omo,48.124623,11.555285,Ethiopian Restaurant
17,48.1273609293324,11.553080015499859,8,0,4b1a7577f964a520a1ea23e3,Goldmarie,48.125501,11.551278,German Restaurant
18,48.1273609293324,11.553080015499859,8,1,4ade0cb5f964a520a46821e3,Friulana,48.12589281973367,11.553705423948236,Italian Restaurant
19,48.1273609293324,11.553080015499859,8,2,4c44274adcd61b8dd1e57a56,Grand Café,48.12757576280392,11.554282717408354,Mediterranean Restaurant
20,48.1273609293324,11.553080015499859,8,3,52b8457e498efe876a39d04e,döner4you,48.12636190034243,11.551530902750537,Doner Restaurant
21,48.1273609293324,11.553080015499859,8,4,4c7179e09375a09310f30937,Wunderwok,48.12799439387606,11.556243023033787,Thai Restaurant
22,48.1273609293324,11.553080015499859,8,5,4c04e2cff56c2d7f6ec71e66,Il Ritrovo,48.12782110653205,11.555631928890643,Italian Restaurant
23,48.1273609293324,11.553080015499859,8,6,4e80e0672c5b453d02d5252e,Schwarzes Loch,48.125741675,11.553955887499999,African Restaurant
24,48.1273609293324,11.553080015499859,8,7,57fcfed8498e68a3aa34f082,Crispy & More,48.128779,11.555591,Doner Restaurant
25,48.12283907066761,11.553080015499859,8,0,4cd29d133e0c8cfa828f1812,Gaßner,48.123098876465434,11.556365385666393,German Restaurant
26,48.12283907066761,11.553080015499859,8,1,4c2270e799282d7f862067b0,Anesis,48.124497,11.553866,Greek Restaurant
27,48.12283907066761,11.553080015499859,8,2,4cb4aa67aef16dcbc9b8d054,Atlantik Fisch & Feinkost,48.124285740779875,11.555258522746758,Seafood Restaurant
28,48.12283907066761,11.553080015499859,8,3,523c885a11d26f23516cb9a4,La Vecchia Masseria,48.1214239580315,11.55061928243555,Italian Restaurant
29,48.12283907066761,11.553080015499859,8,4,4e80b846f5b9ea411fb2b6c2,Restaurant Mittendrin,48.124472250270294,11.551238279500383,German Restaurant
30,48.12283907066761,11.553080015499859,8,5,506434bde4b06c3a2cb98f09,trattoria da paolo,48.12240982055664,11.55546760559082,Trattoria/Osteria
31,48.12283907066761,11.553080015499859,8,6,4f7a0e5ce4b0d7b575d7c474,Gaststätte Südbahnhof,48.124266723150626,11.555242733012063,Greek Restaurant
32,48.12283907066761,11.553080015499859,8,7,5bd2de03bcbf7a00394d5c91,TurboBao,48.122043732277724,11.554677486419678,Asian Restaurant
33,48.1273609293324,11.55980887338903,37,0,4b6dd3adf964a5208c932ce3,Paulaner Bräuhaus,48.12639185872661,11.558568452608885,Bavarian Restaurant
34,48.1273609293324,11.55980887338903,37,1,5a186bfca22db725979eea85,Melina Merkouri,48.127801,11.561448,Greek Restaurant
35,48.1273609293324,11.55980887338903,37,2,5c70440a25ecca002c2bde0f,Ca Go Pho,48.127712,11.55648,Vietnamese Restaurant
36,48.1273609293324,11.55980887338903,37,3,5cb4b82198fbfc002c7b8c3d,Annam Grill,48.129035,11.559702,Vietnamese Restaurant
37,48.1273609293324,11.55980887338903,37,4,4f4e5ef2e4b0c132f74fba0e,Savanna,48.12616619263578,11.561185917047057,African Restaurant
38,48.1273609293324,11.55980887338903,37,5,4bf6ca63508c0f4744df3c31,J-Bar,48.127495,11.561439,Japanese Restaurant
39,48.1273609293324,11.55980887338903,37,6,4be7024e2468c928c2f40143,King Rice,48.12623400513971,11.558271406842428,Asian Restaurant
40,48.1273609293324,11.55980887338903,37,7,58b41fea14f8f47dba25fe0d,Ao Dai Vietnamese restaurant,48.126409,11.559501,Vietnamese Restaurant
41,48.1273609293324,11.55980887338903,37,8,4b6ffd03f964a52074022de3,Bistro Pfundig,48.1282250504363,11.557498695285135,German Restaurant
42,48.1273609293324,11.55980887338903,37,9,4b8c13b8f964a5207bbc32e3,Olé Madrid,48.127672725627946,11.558452072966029,Spanish Restaurant
43,48.1273609293324,11.55980887338903,37,10,5491cbbb498e47b951be2f3e,Mimmo e Co.,48.127702406913166,11.556616995140281,Italian Restaurant
44,48.1273609293324,11.55980887338903,37,11,5bc9b4b167f62b002c1ee546,Indian Sun,48.126168,11.557805,Indian Restaurant
45,48.1273609293324,11.55980887338903,37,12,4c3d959c980320a17e288ce4,Tsuki ji,48.127746240063765,11.556692133532401,Sushi Restaurant
46,48.1273609293324,11.55980887338903,37,13,4e0b5dddd22dbfe2dd7beb51,Emanuela Cucina,48.12839,11.558203,Italian Restaurant
47,48.1273609293324,11.55980887338903,37,14,4b7e7ef3f964a52086ef2fe3,E Caffé,48.12845,11.55842,Italian Restaurant
48,48.1273609293324,11.55980887338903,37,15,4f26fcfce4b047657c3781a5,Babylon Kebaphaus,48.12903176943104,11.558471421622551,Turkish Restaurant
49,48.1273609293324,11.55980887338903,37,16,570d53c5498e5b652af79923,In Mamas Küche,48.126507,11.558704,Greek Restaurant
50,48.1273609293324,11.55980887338903,37,17,4ba9f72ef964a52052403ae3,Trattoria Grande,48.128973,11.55959,Trattoria/Osteria
51,48.1273609293324,11.55980887338903,37,18,58654ec253f5bb1926e90713,Restaurant Film,48.125634,11.560699,Mediterranean Restaurant
52,48.1273609293324,11.55980887338903,37,19,526ad22b11d2cc16f38dd101,Thai-China,48.125577,11.561175,Thai Restaurant
53,48.1273609293324,11.55980887338903,37,20,4e21a694d4c0d32590f0d581,Al Iraki,48.126437,11.558578,Middle Eastern Restaurant
54,48.1273609293324,11.55980887338903,37,21,4faa653fe4b09645c016535c,Gesunde Kuche,48.128915,11.559602,German Restaurant
55,48.1273609293324,11.55980887338903,37,22,4cdebc8c7e2e236a1310811b,Thai-China Schnell-Restaurant,48.12549536704327,11.56075350333755,Chinese Restaurant
56,48.1273609293324,11.55980887338903,37,23,5eebb6188ad9840008c4aecd,ntanta,48.127083,11.559628,African Restaurant
57,48.1273609293324,11.55980887338903,37,24,4e5a8598e4cd875e8ebc84ec,Sushi-Chi,48.127009,11.557371,Asian Restaurant
58,48.1273609293324,11.55980887338903,37,25,4b978b38f964a5201e0835e3,L'emporio,48.12671982131759,11.561363435723592,Italian Restaurant
59,48.1273609293324,11.55980887338903,37,26,53138f7a498e1447886a9572,La Forchetta (im MTV),48.128047943115234,11.56202507019043,Italian Restaurant
60,48.1273609293324,11.55980887338903,37,27,52b03d17498e9ec5ffd92e85,Namaste India,48.1254997253418,11.560822486877441,Indian Restaurant
61,48.1273609293324,11.55980887338903,37,28,512ce45ee4b049302da19944,Kumpir,48.127618,11.557842,Turkish Restaurant
62,48.1273609293324,11.55980887338903,37,29,4c46e9c719fde21ee1980676,Taverna Randevou,48.125985,11.558976,Taverna
63,48.1273609293324,11.55980887338903,37,30,4f75957ce4b0f62bd3684030,Güler's Döner Kebap,48.12725,11.557146,Doner Restaurant
64,48.1273609293324,11.55980887338903,37,31,4b82b973f964a5208ee030e3,Gaststätte Zunfthaus,48.12616831654339,11.562571491674952,Austrian Restaurant
65,48.1273609293324,11.55980887338903,37,32,4b671da1f964a520aa3b2be3,Shere Punjab,48.125618,11.560912,Indian Restaurant
66,48.1273609293324,11.55980887338903,37,33,4c35b04b452620a12511270f,Select Shop & Cafe Eight,48.129061,11.559547,Asian Restaurant
67,48.1273609293324,11.55980887338903,37,34,518b9e1a498e94d9adbe267a,Devin Café Bistro,48.128712,11.561143,Turkish Restaurant
68,48.1273609293324,11.55980887338903,37,35,59f38b01446ea67a56080b11,Malena Marouki,48.127645,11.561426,Greek Restaurant
69,48.1273609293324,11.55980887338903,37,36,5149b911e4b0994d77b4ef9e,Tengri Tagh,48.128861437108434,11.558426278165959,Xinjiang Restaurant
70,48.12283907066761,11.55980887338903,10,0,4be2afaed27a20a1910c905b,Bistro Monti,48.1228816339788,11.55801199389502,Italian Restaurant
71,48.12283907066761,11.55980887338903,10,1,5e3345fedf46c800087d561e,Spaten Sepp,48.121323,11.560524,Bavarian Restaurant
72,48.12283907066761,11.55980887338903,10,2,51782dbbe4b076e1ba137db2,Yol,48.12106475084199,11.56141253208105,Turkish Restaurant
73,48.12283907066761,11.55980887338903,10,3,4f4250b6e4b024a96b575bee,QuattroTavoli,48.12222879654228,11.56177044731182,Italian Restaurant
74,48.12283907066761,11.55980887338903,10,4,4c76a3c83c83236a2ff23aee,Da Giorgio,48.12201508429723,11.561264991760254,Italian Restaurant
75,48.12283907066761,11.55980887338903,10,5,4baf861cf964a52014073ce3,Cihans,48.121023,11.561361,Turkish Restaurant
76,48.12283907066761,11.55980887338903,10,6,51faaf46498e1422964bbb44,Makula,48.122047424316406,11.561250686645508,African Restaurant
77,48.12283907066761,11.55980887338903,10,7,4ade0d0bf964a520756a21e3,Wirtshaus im Schlachthof,48.12346789999999,11.5574066,Comedy Club
78,48.12283907066761,11.55980887338903,10,8,4b69c710f964a520a1b32be3,Los Bandidos,48.12129322737708,11.557421336517674,Cocktail Bar
79,48.12283907066761,11.55980887338903,10,9,5a9ef1317dc9e14f884b2313,Bruno Restaurante,48.121155,11.559953,Italian Restaurant
80,48.1251,11.599777777777778,11,0,4b068c90f964a52002ed22e3,Ganesha,48.1265784260598,11.597448700852,Indian Restaurant
81,48.1251,11.599777777777778,11,1,5002c669e4b0f448e9a84dd2,Pizza Tomate,48.126263,11.597746,Italian Restaurant
82,48.1251,11.599777777777778,11,2,523acb7b498e16fa15c3524f,KÖNIG Döner-Pizza,48.126522064208984,11.597445487976074,Turkish Restaurant
83,48.1251,11.599777777777778,11,3,4cb1db0075ebb60ca441d0ad,Servabo,48.126778,11.597896,Italian Restaurant
84,48.1251,11.599777777777778,11,4,507d0a8d19a90c4b0652a39f,Café L Paso,48.12449307553086,11.597850322723389,Latin American Restaurant
85,48.1251,11.599777777777778,11,5,4ea6fa305c5c6cec79380411,Mitami,48.1244054,11.598166,Japanese Restaurant
86,48.1251,11.599777777777778,11,6,515ef2e1e4b0e99f686878f1,panificio,48.125706132628416,11.59904324517656,Italian Restaurant
87,48.1251,11.599777777777778,11,7,5623ceb1498efb96c623ba1d,Psiloritis Kreta 3,48.126747863162045,11.601739195690762,Greek Restaurant
88,48.1251,11.599777777777778,11,8,580e45c338faf62199942af4,Maison Massard,48.125499,11.597798,French Restaurant
89,48.1251,11.599777777777778,11,9,4b55a89bf964a520beea27e3,Pizzeria Trattoria Mangia e Bevi,48.12389572805913,11.597075112807168,Trattoria/Osteria
90,48.1251,11.599777777777778,11,10,5faae861cf4d7e7c3d49dda9,Tan Nam,48.124054,11.597008,Vietnamese Restaurant
91,48.1273609293324,11.596413348833192,46,0,4fb695a8e4b0aced0aae06b2,Spicery,48.128138,11.59589,Thai Restaurant
92,48.1273609293324,11.596413348833192,46,1,4b068c90f964a52002ed22e3,Ganesha,48.1265784260598,11.597448700852,Indian Restaurant
93,48.1273609293324,11.596413348833192,46,2,4fccfc5de4b0131cb49be485,Pitahaya,48.127312081105515,11.593069250655072,Asian Restaurant
94,48.1273609293324,11.596413348833192,46,3,5b0d3e79628c83002c857b48,Nana - Eat & Run,48.128845,11.594219,Israeli Restaurant
95,48.1273609293324,11.596413348833192,46,4,4b62cbe9f964a52013532ae3,Bella Italia,48.12852288741937,11.594208959910633,Italian Restaurant
96,48.1273609293324,11.596413348833192,46,5,523b45fd11d2b0c25efcbd4a,Far East,48.127786788135445,11.594848728803758,Vietnamese Restaurant
97,48.1273609293324,11.596413348833192,46,6,4bf2db686991c9b6909629e9,Dal Cavaliere,48.128693,11.594771,Italian Restaurant
98,48.1273609293324,11.596413348833192,46,7,58e7d4caa4367c7b43ac7709,Spezlwirtschaft,48.127816,11.599515,German Restaurant
99,48.1273609293324,11.596413348833192,46,8,5d0e53ef6a3c900023469ddc,Xin Chao,48.128988,11.594117,Vietnamese Restaurant
100,48.1273609293324,11.596413348833192,46,9,4ade0c9df964a5201b6821e3,Teatro Tapas,48.12636219926552,11.59525384835218,Tapas Restaurant
101,48.1273609293324,11.596413348833192,46,10,4bbdc778a0a0c9b60bf41b0f,Bombay Tandoori,48.12780336925669,11.595254217270467,Indian Restaurant
102,48.1273609293324,11.596413348833192,46,11,5efcc2a8dbe54f00074292f6,Yuyumi Haidhausen,48.127827,11.597303,Korean Restaurant
103,48.1273609293324,11.596413348833192,46,12,5f01e849da17166caf73cf1f,Song’s Kitchen,48.12813,11.594701,Dumpling Restaurant
104,48.1273609293324,11.596413348833192,46,13,4cadf81d2a55224b97d87269,Merhaba,48.12646643784623,11.596557145735602,Turkish Restaurant
105,48.1273609293324,11.596413348833192,46,14,5002c669e4b0f448e9a84dd2,Pizza Tomate,48.126263,11.597746,Italian Restaurant
106,48.1273609293324,11.596413348833192,46,15,4bcb2ec0fb84c9b698421e3e,Kalami,48.129398757883195,11.597268338178477,Greek Restaurant
107,48.1273609293324,11.596413348833192,46,16,4b03e62df964a520705022e3,Mitani,48.12680641446012,11.593930315884437,Japanese Restaurant
108,48.1273609293324,11.596413348833192,46,17,4e47c0d8a809fb2fa3fc7a95,Klinglwirt,48.12679,11.59455,Bavarian Restaurant
109,48.1273609293324,11.596413348833192,46,18,4baa1a34f964a520ca4a3ae3,Trinacria,48.12607103935698,11.595208423357576,Italian Restaurant
110,48.1273609293324,11.596413348833192,46,19,523acb7b498e16fa15c3524f,KÖNIG Döner-Pizza,48.126522064208984,11.597445487976074,Turkish Restaurant
111,48.1273609293324,11.596413348833192,46,20,5059feb7e4b06909b93750ad,Punjabi,48.12685805485264,11.59685880589057,Indian Restaurant
112,48.1273609293324,11.596413348833192,46,21,4cb1db0075ebb60ca441d0ad,Servabo,48.126778,11.597896,Italian Restaurant
113,48.1273609293324,11.596413348833192,46,22,5d666c35d316ec00075d514e,Cevapchichi,48.128142,11.594741,Eastern European Restaurant
114,48.1273609293324,11.596413348833192,46,23,50f17342e4b0ba6d600d0975,Nen-Imbiss,48.12809988270791,11.594500938987661,Vietnamese Restaurant
115,48.1273609293324,11.596413348833192,46,24,4bd32219caff95210b11d4f0,Ristorante Piazzetta,48.1287128597987,11.596496001423224,Italian Restaurant
116,48.1273609293324,11.596413348833192,46,25,4ade0ceaf964a520c46921e3,Cô-Dô,48.1285673213781,11.597823900232425,Thai Restaurant
117,48.1273609293324,11.596413348833192,46,26,4c9c827a03133704199a55d5,Kaman Imbiss,48.12778562307358,11.595270816666668,Doner Restaurant
118,48.1273609293324,11.596413348833192,46,27,50c25d71e4b0300630e68ad5,TuDoRa,48.1285034438721,11.59905195236206,Turkish Restaurant
119,48.1273609293324,11.596413348833192,46,28,560f9528498e53f2861bc379,Bozo & Loui,48.127325,11.598551,French Restaurant
120,48.1273609293324,11.596413348833192,46,29,5cdfd5ac9be522002c9710db,Gino Parigi,48.127447,11.59862,Italian Restaurant
121,48.1273609293324,11.596413348833192,46,30,51b8aa75498e32bce2b11cb5,Non Solo Vino,48.128674289920454,11.595859821714312,Italian Restaurant
122,48.1273609293324,11.596413348833192,46,31,4bd725536f649521230a72ec,Bar Italia,48.12760422924712,11.59748830425453,Italian Restaurant
123,48.1273609293324,11.596413348833192,46,32,4d715e0050a9a143f4653e27,Los Amigos,48.12774436246267,11.595039367675781,Bar
124,48.1273609293324,11.596413348833192,46,33,5abd895486f4cc2836c87c52,Fei Scho,48.12738988192381,11.598370671272278,Vietnamese Restaurant
125,48.1273609293324,11.596413348833192,46,34,4e440d79ae605a14b7e19998,l'épicerie d'Anne Marie,48.12887865380105,11.594042928940993,French Restaurant
126,48.1273609293324,11.596413348833192,46,35,4e15cb25e4cded56112b4808,Delhi Spice,48.12850348558046,11.5986321009102,Indian Restaurant
127,48.1273609293324,11.596413348833192,46,36,4ca320fba73cb60c67bb1578,Käse und Wein,48.128322149999995,11.594236,Asian Restaurant
128,48.1273609293324,11.596413348833192,46,37,5288fbe511d2f94171934ec2,Punjabi Roti,48.126777,11.596985,Indian Restaurant
129,48.1273609293324,11.596413348833192,46,38,4c176843368220a199463657,Asia Vital,48.12816298910968,11.594492047324687,Asian Restaurant
130,48.1273609293324,11.596413348833192,46,39,4c53e7b072cf0f47b3e1a4d3,Tonata di Monaco,48.12606632709503,11.595125198364258,Italian Restaurant
131,48.1273609293324,11.596413348833192,46,40,5a6ddb3c7564f7473ff7186f,Merhaba Restaurant Pariserstr Munchen,48.126926,11.597769,Turkish Restaurant
132,48.1273609293324,11.596413348833192,46,41,4d303a41f9daa1cd57d96350,Hot Dog,48.1282,11.59435805,American Restaurant
133,48.1273609293324,11.596413348833192,46,42,4d922d847379b60c3ed4dc07,Dilo,48.12745588676877,11.598652295492826,Middle Eastern Restaurant
134,48.1273609293324,11.596413348833192,46,43,4b5f2c22f964a520d8aa29e3,Simplicissimus,48.126759805076055,11.594543950334621,German Restaurant
135,48.1273609293324,11.596413348833192,46,44,580e45c338faf62199942af4,Maison Massard,48.125499,11.597798,French Restaurant
136,48.1273609293324,11.596413348833192,46,45,4c8b45bf1797236a71a46988,Der Sizilianer,48.12617274816494,11.595191088976925,Italian Restaurant
137,48.12283907066761,11.596413348833192,7,0,4b8fa2aff964a520f25a33e3,Tassilo da Sebastiano,48.12429494710682,11.596389975692984,Italian Restaurant
138,48.12283907066761,11.596413348833192,7,1,507d0a8d19a90c4b0652a39f,Café L Paso,48.12449307553086,11.597850322723389,Latin American Restaurant
139,48.12283907066761,11.596413348833192,7,2,56696c60498e5a0ee6b6c01b,Tiato,48.12281686094411,11.593095300511372,Vietnamese Restaurant
140,48.12283907066761,11.596413348833192,7,3,4f608578e4b06b5513711c94,V-Markt Döner Fresh & Spicy,48.121324550112426,11.598167115311602,Doner Restaurant
141,48.12283907066761,11.596413348833192,7,4,4ea6fa305c5c6cec79380411,Mitami,48.1244054,11.598166,Japanese Restaurant
142,48.12283907066761,11.596413348833192,7,5,4b55a89bf964a520beea27e3,Pizzeria Trattoria Mangia e Bevi,48.12389572805913,11.597075112807168,Trattoria/Osteria
143,48.12283907066761,11.596413348833192,7,6,5faae861cf4d7e7c3d49dda9,Tan Nam,48.124054,11.597008,Vietnamese Restaurant
144,48.1273609293324,11.603142206722364,14,0,4ade0ca9f964a5205f6821e3,El Espanol,48.12905326655217,11.601105000004035,Spanish Restaurant
145,48.1273609293324,11.603142206722364,14,1,5676b080498e8c399b7f73f1,Nepal Haus,48.128353,11.601439,Himalayan Restaurant
146,48.1273609293324,11.603142206722364,14,2,571495ff498e10840602ae4b,Mishba,48.12793055328081,11.60428762435913,Burrito Place
147,48.1273609293324,11.603142206722364,14,3,54e5ec99498e3247529c0daa,Orleans döner kebab,48.12884724574745,11.604744376770679,Doner Restaurant
148,48.1273609293324,11.603142206722364,14,4,4d441c6a1ed56dcb8d5aab54,Seral Feinkost,48.12825639009802,11.602867869694165,Middle Eastern Restaurant
149,48.1273609293324,11.603142206722364,14,5,5ce009802a7ab6002cb533f5,Katharinas Taschengeld Grill,48.12891,11.60194,Bratwurst Joint
150,48.1273609293324,11.603142206722364,14,6,5d7cd96ba189490008f96a70,Elasya,48.129325,11.602129,Mediterranean Restaurant
151,48.1273609293324,11.603142206722364,14,7,546e3dda498e2c904b89242a,Zirbel Stuben,48.1279182434082,11.604768753051758,German Restaurant
152,48.1273609293324,11.603142206722364,14,8,570fda3e498ebbb3a89419b5,POLKA,48.127959197962156,11.600017547607422,Bar
153,48.1273609293324,11.603142206722364,14,9,4e8f8480d3e3187fc28a1780,Rubini Döner Und Pizza,48.128055234543325,11.604691362132245,Doner Restaurant
154,48.1273609293324,11.603142206722364,14,10,4ec686295c5ce271bc5ff4c5,Manau,48.127928672379056,11.603746153802135,Thai Restaurant
155,48.1273609293324,11.603142206722364,14,11,519cf397498e547c5d244981,Sadak - Südländische Spezialitäten,48.128607,11.602839,Turkish Restaurant
156,48.1273609293324,11.603142206722364,14,12,5623ceb1498efb96c623ba1d,Psiloritis Kreta 3,48.126747863162045,11.601739195690762,Greek Restaurant
157,48.1273609293324,11.603142206722364,14,13,4d6246f65c39b1f78ed9184a,SchnitzelManufaktur,48.128006,11.605272,German Restaurant
158,48.12283907066761,11.603142206722364,3,0,51d408b7498ed659559d0263,Love Asia Food,48.124716905591626,11.60406713786699,Asian Restaurant
159,48.12283907066761,11.603142206722364,3,1,5ac3546db546180988619517,Thai Wok,48.122440203225224,11.606299752725313,Food Truck
160,48.12283907066761,11.603142206722364,3,2,5003f59de4b06d5018f5485e,Asia Center,48.124478888129644,11.603344354573268,Food & Drink Shop
161,48.1351,11.542000000000002,28,0,54cd0bd8498e424944822026,Osteria Bianchi,48.13576054001573,11.540281816917377,Trattoria/Osteria
162,48.1351,11.542000000000002,28,1,5ed3a0b3257cdc0008d1c79e,Ca Go,48.134515,11.542677,Vietnamese Restaurant
163,48.1351,11.542000000000002,28,2,5aa8153d2a7ab673f080243f,S.A.M. Sushi and Meat,48.13564,11.542322,Sushi Restaurant
164,48.1351,11.542000000000002,28,3,5741d69c498e6e81afb42119,Onofrio's Appetizing Store,48.13396,11.5405,Bagel Shop
165,48.1351,11.542000000000002,28,4,5995d443b040565b727765a7,Banh Mi & Beer,48.13512,11.544018,Vietnamese Restaurant
166,48.1351,11.542000000000002,28,5,4fdb80e1e4b0659232bf4373,Frau Li,48.13345500239049,11.543997765968316,Asian Restaurant
167,48.1351,11.542000000000002,28,6,4c764c3f1b30a0934399f109,Caffé Ristretto,48.1347142266268,11.541473839662306,Café
168,48.1351,11.542000000000002,28,7,4bc8560f2f94d13a3a5a137f,Wirtshaus zum Ganghofer,48.13686663,11.54063986,Greek Restaurant
169,48.1351,11.542000000000002,28,8,546ce8e4498e2c96ab453443,La biznaga,48.13564255677951,11.540365219116211,Spanish Restaurant
170,48.1351,11.542000000000002,28,9,590afa52a6fe4d70c53cf49d,Kazmino,48.134536,11.542386,Doner Restaurant
171,48.1351,11.542000000000002,28,10,5810e49738fa09a9bfa0f3f8,L'Adresse 37,48.136742,11.54289,French Restaurant
172,48.1351,11.542000000000002,28,11,594531bf89e49070edeed5e9,Cigköfte King Westend,48.13588474646534,11.54356375336647,Turkish Restaurant
173,48.1351,11.542000000000002,28,12,5ad72789fdb9a76ee20a3faf,Papamo,48.134553,11.542636,Doner Restaurant
174,48.1351,11.542000000000002,28,13,58b861750393cc59306baf43,Platt & Belegt,48.13466161412872,11.540000438690186,Schnitzel Restaurant
175,48.1351,11.542000000000002,28,14,4f1b09f2e4b0838231af20b2,Studio D,48.13509399508792,11.541647102873755,German Restaurant
176,48.1351,11.542000000000002,28,15,532ad275498e9265a69b7c9e,Dilara,48.134623,11.542533,Doner Restaurant
177,48.1351,11.542000000000002,28,16,5bb73a1e603d2a002cee51d9,Sam - Sushi And Meat,48.135606,11.542293,Ramen Restaurant
178,48.1351,11.542000000000002,28,17,515eadebe4b04e50ad78bfd3,Esto Imbiss,48.134537,11.542484,Turkish Restaurant
179,48.1351,11.542000000000002,28,18,55210385498e5f130f9a3999,Bianchi,48.135686,11.540288,Italian Restaurant
180,48.1351,11.542000000000002,28,19,541d3bd6498e905d5cf8a526,Madame Hu,48.13582960740682,11.543378936735587,Asian Restaurant
181,48.1351,11.542000000000002,28,20,4c03d3800d0e0f47290b039a,Orient Imbiss,48.13475742097583,11.541567222503286,Middle Eastern Restaurant
182,48.1351,11.542000000000002,28,21,57122cc0498e9fcbf84f2d0a,Cigköfte King,48.135787,11.543575,Cigkofte Place
183,48.1351,11.542000000000002,28,22,5c798a816eda02002c5987fc,Gallo Pazzo,48.133743,11.542308,Italian Restaurant
184,48.1351,11.542000000000002,28,23,535c178b498e128236a8acbc,"Valentin Vögele ""next level kitchen""",48.135677,11.540589,Modern European Restaurant
185,48.1351,11.542000000000002,28,24,5263c32a11d2e6d91675de7f,Äthiopischer Imbiss,48.13561671446932,11.542112704982394,Ethiopian Restaurant
186,48.1351,11.542000000000002,28,25,5cb07f3516fa04002c57ee47,Bnb,48.135155,11.544179,Asian Restaurant
187,48.1351,11.542000000000002,28,26,4e0f7e2f7d8bb178a8b33f35,Abant,48.13371434959333,11.541625796899531,Middle Eastern Restaurant
188,48.1351,11.542000000000002,28,27,5ddbb11bddc99e000820b122,Ha - Vietnamese Cuisine,48.135537,11.540411,Vietnamese Restaurant
189,48.137360929332395,11.538634915850412,12,0,5914b54218d43b1f07d69960,Millemiglia,48.1363843277559,11.537291570403058,Pizza Place
190,48.137360929332395,11.538634915850412,12,1,4b794083f964a520d8f02ee3,Royal India Restaurant,48.138261690272934,11.536046461940593,Indian Restaurant
191,48.137360929332395,11.538634915850412,12,2,54cd0bd8498e424944822026,Osteria Bianchi,48.13576054001573,11.540281816917377,Trattoria/Osteria
192,48.137360929332395,11.538634915850412,12,3,4bc1964e74a9a5935613d2f6,Augustiner Bürgerheim,48.13598487477275,11.53733130331654,Beer Bar
193,48.137360929332395,11.538634915850412,12,4,4bc8560f2f94d13a3a5a137f,Wirtshaus zum Ganghofer,48.13686663,11.54063986,Greek Restaurant
194,48.137360929332395,11.538634915850412,12,5,546ce8e4498e2c96ab453443,La biznaga,48.13564255677951,11.540365219116211,Spanish Restaurant
195,48.137360929332395,11.538634915850412,12,6,516039a5e4b03396342a5495,Bürgerheim,48.13594,11.537434,German Restaurant
196,48.137360929332395,11.538634915850412,12,7,4b6550bff964a520efec2ae3,Camps Bay,48.136462,11.537367,African Restaurant
197,48.137360929332395,11.538634915850412,12,8,4bfa6e76b182c9b639427a5a,Wirtshaus zur Schwalbe,48.1376527412822,11.541686059631347,German Restaurant
198,48.137360929332395,11.538634915850412,12,9,55210385498e5f130f9a3999,Bianchi,48.135686,11.540288,Italian Restaurant
199,48.137360929332395,11.538634915850412,12,10,535c178b498e128236a8acbc,"Valentin Vögele ""next level kitchen""",48.135677,11.540589,Modern European Restaurant
200,48.137360929332395,11.538634915850412,12,11,5ddbb11bddc99e000820b122,Ha - Vietnamese Cuisine,48.135537,11.540411,Vietnamese Restaurant
201,48.13283907066761,11.538634915850412,8,0,4e859ad80aafb44008364a7e,König vom Westend,48.133594829745896,11.536785145844709,Turkish Restaurant
202,48.13283907066761,11.538634915850412,8,1,4d4709bbe198721e585dd58b,Wok-In,48.13277646207575,11.5353603729118,Asian Restaurant
203,48.13283907066761,11.538634915850412,8,2,5741d69c498e6e81afb42119,Onofrio's Appetizing Store,48.13396,11.5405,Bagel Shop
204,48.13283907066761,11.538634915850412,8,3,4b705f89f964a5202a162de3,La Fiera,48.1338425181744,11.535856733216214,Italian Restaurant
205,48.13283907066761,11.538634915850412,8,4,4d1f69d95c4ca1cd9f20993d,Da Maria,48.13383427374235,11.536775863215663,Italian Restaurant
206,48.13283907066761,11.538634915850412,8,5,58b861750393cc59306baf43,Platt & Belegt,48.13466161412872,11.540000438690186,Schnitzel Restaurant
207,48.13283907066761,11.538634915850412,8,6,4bc843a20050b713c305ba3b,Antalya Imbiss,48.133596,11.53700786,Eastern European Restaurant
208,48.13283907066761,11.538634915850412,8,7,4e0f7e2f7d8bb178a8b33f35,Abant,48.13371434959333,11.541625796899531,Middle Eastern Restaurant
209,48.137360929332395,11.54536508414959,24,0,5baa743e35d3fc0039b1365e,L’Osteria,48.13741280652096,11.54776433647462,Trattoria/Osteria
210,48.137360929332395,11.54536508414959,24,1,4ade0cf3f964a520f96921e3,Augustiner Bräustuben,48.13940966666645,11.545401780138443,Bavarian Restaurant
211,48.137360929332395,11.54536508414959,24,2,5e6694fc84328a00084f78cc,M.a.t. Koreanische Küche,48.135685,11.545613,Korean Restaurant
212,48.137360929332395,11.54536508414959,24,3,5d08c6351543c7002ccaa9ad,cooa,48.136887,11.546186,Asian Restaurant
213,48.137360929332395,11.54536508414959,24,4,50b66195e4b0d4ffa6fb9b52,Marais Soir,48.13775864341162,11.54398066819912,French Restaurant
214,48.137360929332395,11.54536508414959,24,5,5ddd0f16ec276a0008f02230,OLIVA,48.136692,11.548042,Doner Restaurant
215,48.137360929332395,11.54536508414959,24,6,5de7fce3df71970008183dbd,Burger King,48.136614,11.548362,Fast Food Restaurant
216,48.137360929332395,11.54536508414959,24,7,56940a13498eff4ed40fe69d,Bến Thành,48.13842596901452,11.546043455600739,Asian Restaurant
217,48.137360929332395,11.54536508414959,24,8,50b74676e4b0a577aef39a4a,Dönermann,48.13855052995148,11.542835855456994,Doner Restaurant
218,48.137360929332395,11.54536508414959,24,9,5810e49738fa09a9bfa0f3f8,L'Adresse 37,48.136742,11.54289,French Restaurant
219,48.137360929332395,11.54536508414959,24,10,594531bf89e49070edeed5e9,Cigköfte King Westend,48.13588474646534,11.54356375336647,Turkish Restaurant
220,48.137360929332395,11.54536508414959,24,11,4c17ba83838020a1241de361,König Döner,48.13866708869826,11.545812149091466,Doner Restaurant
221,48.137360929332395,11.54536508414959,24,12,5c5ed8b9fd16bb002c36b4ac,Darbar,48.135868,11.545587,Afghan Restaurant
222,48.137360929332395,11.54536508414959,24,13,573b3ecf498e4ff7756be446,olympos,48.137755,11.543665,Souvlaki Shop
223,48.137360929332395,11.54536508414959,24,14,5f27fb9cb230f759ae749123,Fresh Sushi,48.137125,11.54755,Sushi Restaurant
224,48.137360929332395,11.54536508414959,24,15,5b3f957db23dfa002cc9587b,swann,48.138416,11.545753,Italian Restaurant
225,48.137360929332395,11.54536508414959,24,16,541d3bd6498e905d5cf8a526,Madame Hu,48.13582960740682,11.543378936735587,Asian Restaurant
226,48.137360929332395,11.54536508414959,24,17,57122cc0498e9fcbf84f2d0a,Cigköfte King,48.135787,11.543575,Cigkofte Place
227,48.137360929332395,11.54536508414959,24,18,59ad392664c8e17ec0153e46,Thaimama,48.137702,11.542724,Asian Restaurant
228,48.137360929332395,11.54536508414959,24,19,4cb3573a562d224b1c3f2d88,Trattoria Bella Birreria,48.135782,11.547714471817017,Trattoria/Osteria
229,48.137360929332395,11.54536508414959,24,20,51cafcf4498ed85c1d18726a,Best Döner Kebap,48.1378445865252,11.543326130604454,Doner Restaurant
230,48.137360929332395,11.54536508414959,24,21,5d457aa4600da30008a3ecfb,Baggys Croque,48.136984,11.547654,French Restaurant
231,48.137360929332395,11.54536508414959,24,22,5f72116fdac5217ff8486d0e,Kairo Kitchen,48.136757,11.547763,Egyptian Restaurant
232,48.137360929332395,11.54536508414959,24,23,5f819531ada26e76295d7147,In-Dish,48.136932,11.547145,Indian Restaurant
233,48.13283907066761,11.54536508414959,10,0,4c0e91f97189c9289cb7d8b6,Wirtshaus am Bavariapark,48.132038287627275,11.543679436928237,German Restaurant
234,48.13283907066761,11.54536508414959,10,1,5950ed2fd0a1497dd1e6e0ad,Beim Onkel,48.134522029965716,11.546374578785853,Doner Restaurant
235,48.13283907066761,11.54536508414959,10,2,4fdb80e1e4b0659232bf4373,Frau Li,48.13345500239049,11.543997765968316,Asian Restaurant
236,48.13283907066761,11.54536508414959,10,3,505312e5e4b066826c410367,Destiny Stüberl,48.134014,11.545746,German Restaurant
237,48.13283907066761,11.54536508414959,10,4,4eef558502d514a36c18afb4,Puntino,48.13388992109254,11.545857003884677,Italian Restaurant
238,48.13283907066761,11.54536508414959,10,5,4d357f658250f04daa910ee1,Yol,48.134802,11.545549,Mediterranean Restaurant
239,48.13283907066761,11.54536508414959,10,6,4b4a293ff964a520d97c26e3,Ostwind,48.13442377,11.546195,Chinese Restaurant
240,48.13283907066761,11.54536508414959,10,7,558bde75498eec976740ada3,Xiang,48.134396,11.546077,Chinese Restaurant
241,48.13283907066761,11.54536508414959,10,8,50f7e3cde4b0ad98cf85bc60,Ost Wind,48.134445115579766,11.545977709305552,Chinese Restaurant
242,48.13283907066761,11.54536508414959,10,9,5c798a816eda02002c5987fc,Gallo Pazzo,48.133743,11.542308,Italian Restaurant
243,48.1351,11.556444444444445,20,0,4b0672ecf964a520e9eb22e3,Lenz,48.135263879896904,11.553323784534898,German Restaurant
244,48.1351,11.556444444444445,20,1,528caca111d2b6cab3c5fdb2,Kapadokya,48.136403,11.554334,Turkish Restaurant
245,48.1351,11.556444444444445,20,2,4d1e24578629224b38b5ff86,Fire Dragon Lounge,48.13576339771269,11.555881210958876,Chinese Restaurant
246,48.1351,11.556444444444445,20,3,4d36ea93db5ba35da7dc3ec7,Sarajevo Imbiss,48.13645164135851,11.556158065795898,Eastern European Restaurant
247,48.1351,11.556444444444445,20,4,4cb0d2ad1463a143c17ba0a9,海誓盛楼,48.1356564231762,11.555752606567403,Chinese Restaurant
248,48.1351,11.556444444444445,20,5,5b8f7436835c9a0039ed0038,Afghanisches Restaurant,48.136471,11.557192,Afghan Restaurant
249,48.1351,11.556444444444445,20,6,4db8064941593a01206eb195,Trattoria Pizzeria Da Giuseppe,48.13434074,11.55885244,Trattoria/Osteria
250,48.1351,11.556444444444445,20,7,4e1450c6e4cd473c968e69c4,Shahrazad,48.13702574715287,11.55573873517655,Deli / Bodega
251,48.1351,11.556444444444445,20,8,56e833e5498ec5f62a39e15f,"Cavusoglu Döner, Halal",48.13642300141409,11.559011936187742,Doner Restaurant
252,48.1351,11.556444444444445,20,9,5ad089bac0cacb3aafdc11df,Hindukush,48.136417,11.558146,Afghan Restaurant
253,48.1351,11.556444444444445,20,10,4fe339b0e4b08209955092a6,Sushi Bar and Asian Wok,48.13487387504588,11.55736058525335,Asian Restaurant
254,48.1351,11.556444444444445,20,11,5b40760d9deb7d002c8bc956,Hira Lokantesi,48.136717,11.558627,Turkish Restaurant
255,48.1351,11.556444444444445,20,12,50142314e4b06fc7cf094204,Sara Restaurant,48.136373914204384,11.558908793118292,Middle Eastern Restaurant
256,48.1351,11.556444444444445,20,13,4ff588eae4b0d6158368e2ca,Criechische,48.136381,11.556375,Greek Restaurant
257,48.1351,11.556444444444445,20,14,5319ac28498eeca8e1af5a08,Bar Retro,48.13669061807492,11.55857201039908,Italian Restaurant
258,48.1351,11.556444444444445,20,15,4ffaef1ce4b0d61585a9b4a7,Altinsis,48.13571451117371,11.558519022106172,Turkish Restaurant
259,48.1351,11.556444444444445,20,16,50dd9723e4b00277a9b571ab,Antalya Kebap Haus,48.13634904006958,11.558670758608534,Turkish Restaurant
260,48.1351,11.556444444444445,20,17,4ade0ce7f964a520b46921e3,La Fiorentina,48.134407843560716,11.558626321584306,Italian Restaurant
261,48.1351,11.556444444444445,20,18,55b384fa498e5dbddcdb898a,Ocakbaşı Grill,48.135831,11.558578,Turkish Restaurant
262,48.1351,11.556444444444445,20,19,52ce8a88498e1cc2ae9ddaca,Local Square,48.136649,11.55856,Italian Restaurant
263,48.137360929332395,11.553079360294856,17,0,4b0672ecf964a520e9eb22e3,Lenz,48.135263879896904,11.553323784534898,German Restaurant
264,48.137360929332395,11.553079360294856,17,1,582305a7062c59441bd846e0,Sultanahmet Köftecisi,48.138959390813035,11.551653014938829,Turkish Restaurant
265,48.137360929332395,11.553079360294856,17,2,4df209a4c65bf55ee52599fe,Bei Taki,48.136732063743914,11.553292810992808,Middle Eastern Restaurant
266,48.137360929332395,11.553079360294856,17,3,555a3527498e9927af2b773c,Оttantanove vi vadi,48.139002410918785,11.551791578901508,Italian Restaurant
267,48.137360929332395,11.553079360294856,17,4,528caca111d2b6cab3c5fdb2,Kapadokya,48.136403,11.554334,Turkish Restaurant
268,48.137360929332395,11.553079360294856,17,5,4e577df6483b0fb77155ab14,Gasthaus Zur Festwiese,48.13746854881815,11.55336577173665,German Restaurant
269,48.137360929332395,11.553079360294856,17,6,4d36ea93db5ba35da7dc3ec7,Sarajevo Imbiss,48.13645164135851,11.556158065795898,Eastern European Restaurant
270,48.137360929332395,11.553079360294856,17,7,529f4200498e6039ab19d55f,Kebap & More,48.13904545357174,11.551562339256956,Kebab Restaurant
271,48.137360929332395,11.553079360294856,17,8,5190d61b498e6d8aade46d96,Rechthafer Hof,48.138951772811104,11.555287626701011,German Restaurant
272,48.137360929332395,11.553079360294856,17,9,565f48cc38fac90321be9fe5,Donsil,48.13775670258238,11.553567370763698,German Restaurant
273,48.137360929332395,11.553079360294856,17,10,515c6f25e4b01a744dbe3a4a,Turk Mahallesinde Mac Zamani,48.136705,11.553818,Turkish Restaurant
274,48.137360929332395,11.553079360294856,17,11,4e79c52881dca7a1abf747ba,Caffetteria Da Mirella,48.13718911442507,11.55326932668686,Italian Restaurant
275,48.137360929332395,11.553079360294856,17,12,4e1450c6e4cd473c968e69c4,Shahrazad,48.13702574715287,11.55573873517655,Deli / Bodega
276,48.137360929332395,11.553079360294856,17,13,4d73a8e8946b6dcb32304f7a,Gaststätte Bavaria,48.13911290133692,11.552735866084989,Bavarian Restaurant
277,48.137360929332395,11.553079360294856,17,14,4c876d7bb231b60cd60a19ec,Restaurant Central,48.137488,11.555554,Greek Restaurant
278,48.137360929332395,11.553079360294856,17,15,514c95cce4b0ccf66476e5fd,Hamsi Haus,48.13723481740769,11.553082399807412,Turkish Restaurant
279,48.137360929332395,11.553079360294856,17,16,4e4ba3dc18a808fd10ff8e0e,Marmaris,48.137854614551486,11.551667604065035,Turkish Restaurant
280,48.137360929332395,11.559809528594034,50,0,59514ec4772fbc2f4be2d5a4,Schiller Bräu,48.136709400139345,11.56113088130951,Brewery
281,48.137360929332395,11.559809528594034,50,1,4bce1621ef1095215c788386,Ristorante Ca'D'Oro,48.13906777682189,11.560098213390631,Italian Restaurant
282,48.137360929332395,11.559809528594034,50,2,4d2eeacc92c46a31a6d862f3,Taklamakan,48.139117,11.560452,Asian Restaurant
283,48.137360929332395,11.559809528594034,50,3,5eff9e115b61c16c753bec24,Al Baraka,48.137207,11.558347,Middle Eastern Restaurant
284,48.137360929332395,11.559809528594034,50,4,5bc2fa7686f4cc002c720b8c,Irmi,48.138739,11.558064,Bavarian Restaurant
285,48.137360929332395,11.559809528594034,50,5,4ff41d1fe4b0f083039bf3e8,Altın Dilim,48.13687226652939,11.558598491872962,Turkish Restaurant
286,48.137360929332395,11.559809528594034,50,6,5d40a082eb60880008529d1b,Váthos,48.137281,11.562489,Greek Restaurant
287,48.137360929332395,11.559809528594034,50,7,5d9a0dbb746ac100072f407d,Ayam Zaman Grill,48.136881,11.56113,Middle Eastern Restaurant
288,48.137360929332395,11.559809528594034,50,8,511ce7d8e4b05787c523fcfc,pizzahut,48.138812319433185,11.557578582374111,American Restaurant
289,48.137360929332395,11.559809528594034,50,9,51cc2a7d498ea4a556ad0652,Mr. Suvlakis,48.13658,11.560854,Greek Restaurant
290,48.137360929332395,11.559809528594034,50,10,508bc35de4b0f6951de161ad,My Kantine In München,48.136601,11.561332,Asian Restaurant
291,48.137360929332395,11.559809528594034,50,11,5c688c36f62e09002c520790,Lemon's,48.138016,11.561101,Doner Restaurant
292,48.137360929332395,11.559809528594034,50,12,4e73c12bae6050af7a09815f,Hatam Resturant,48.136365068160785,11.560528314912426,Middle Eastern Restaurant
293,48.137360929332395,11.559809528594034,50,13,5228655b498e2114bbac6282,Pizza Centrale,48.138,11.5612,Italian Restaurant
294,48.137360929332395,11.559809528594034,50,14,56479c24498eec5cc5bd82c9,Al Qaswaa,48.137500568315325,11.560519337654114,Middle Eastern Restaurant
295,48.137360929332395,11.559809528594034,50,15,4f9bde23e4b03d83ec4c1d9f,Mazz,48.136931,11.562008,German Restaurant
296,48.137360929332395,11.559809528594034,50,16,5cd31076446ea6002c64f995,Asia Resturant,48.137843,11.56099,Chinese Restaurant
297,48.137360929332395,11.559809528594034,50,17,513d816ce4b0a2c59cd7971b,La Fiesta,48.13642115249287,11.562266421876522,Mexican Restaurant
298,48.137360929332395,11.559809528594034,50,18,59957494e97dfb6f4235831f,Asia Imbiss München HBF,48.139061,11.558065,Asian Restaurant
299,48.137360929332395,11.559809528594034,50,19,5e3aa54182c85b00088763ae,Alfurat,48.137529,11.560934,Doner Restaurant
300,48.137360929332395,11.559809528594034,50,20,4c3f5ab8ce54e21e43ee071a,Hilal Restaurant,48.13630735639746,11.55960977856613,Turkish Restaurant
301,48.137360929332395,11.559809528594034,50,21,4e898493b803c964b7b76aa3,Restaurant Sulaimania,48.13642092595527,11.560126542007497,Middle Eastern Restaurant
302,48.137360929332395,11.559809528594034,50,22,4e2eb692d1646b407b86144d,Lahori Pakistanisch-Indisch Restaurant,48.13870130960062,11.561165080844797,Indian Restaurant
303,48.137360929332395,11.559809528594034,50,23,4f8a6e1ce4b07efb9ec3941e,Le Potager,48.138789059293536,11.55784122976235,Breakfast Spot
304,48.137360929332395,11.559809528594034,50,24,4c9e2b50d3c2b60c946ac8bc,Maxi Döner,48.139472007751465,11.558947563171387,Doner Restaurant
305,48.137360929332395,11.559809528594034,50,25,59a1c62f4f0e5813f89299b3,Bab Al Hara,48.136369,11.561434,Syrian Restaurant
306,48.137360929332395,11.559809528594034,50,26,4b76fc7bf964a5209d712ee3,Ziemann's Kochschule,48.138375841703194,11.562429326872952,German Restaurant
307,48.137360929332395,11.559809528594034,50,27,4c71438b344437048954265f,Bayerisches Schnitzel- & Hendelhaus,48.139409,11.559152,German Restaurant
308,48.137360929332395,11.559809528594034,50,28,4bbb0d263db7b713d6de239a,Konak Bistro,48.138053,11.558498,Eastern European Restaurant
309,48.137360929332395,11.559809528594034,50,29,5b8f7436835c9a0039ed0038,Afghanisches Restaurant,48.136471,11.557192,Afghan Restaurant
310,48.137360929332395,11.559809528594034,50,30,50c734a2e4b0f02263ad9263,Thai-China Fast Food,48.13910181266018,11.560580196096884,Asian Restaurant
311,48.137360929332395,11.559809528594034,50,31,4b94e2fbf964a520878634e3,Bahia Restaurant & Bar,48.138235,11.556776,Brazilian Restaurant
312,48.137360929332395,11.559809528594034,50,32,4df0d7c6e4cdfec0ed2f43ef,ca'd'oro,48.13863984432751,11.560145563652702,Italian Restaurant
313,48.137360929332395,11.559809528594034,50,33,4c37671c0a71c9b603c73ec9,STILIS,48.136861599999996,11.558566285714287,Greek Restaurant
314,48.137360929332395,11.559809528594034,50,34,4bcb3b0768f976b0319a6083,Bistro Montana,48.13932770330656,11.55963440893228,Middle Eastern Restaurant
315,48.137360929332395,11.559809528594034,50,35,5b2a329f78782c00346fc397,Restaurant Nur,48.136313,11.559293,Iraqi Restaurant
316,48.137360929332395,11.559809528594034,50,36,56e833e5498ec5f62a39e15f,"Cavusoglu Döner, Halal",48.13642300141409,11.559011936187742,Doner Restaurant
317,48.137360929332395,11.559809528594034,50,37,4f89bee5e4b055d230455608,Berber Restaurant,48.13688862177837,11.56097810767238,Lebanese Restaurant
318,48.137360929332395,11.559809528594034,50,38,4f53ba42e4b0d9ab7bdc70e4,Döner Kebap,48.13955639840473,11.55979164506963,Doner Restaurant
319,48.137360929332395,11.559809528594034,50,39,572b2bb8498e00a83016e705,Zadone,48.136385,11.560119,Middle Eastern Restaurant
320,48.137360929332395,11.559809528594034,50,40,4fb838f1e4b042b08e8fa83b,Authentic Italian Cuisine,48.139259338378906,11.559830665588379,Italian Restaurant
321,48.137360929332395,11.559809528594034,50,41,4b671c77f964a5205a3b2be3,Ali Baba Restaurant,48.13872381202464,11.561045050621033,Doner Restaurant
322,48.137360929332395,11.559809528594034,50,42,538bb9a9498e5c4efdf893ff,اسواق الواحة ولحوم واسماك,48.13637330806846,11.560930603369291,Arepa Restaurant
323,48.137360929332395,11.559809528594034,50,43,4b5836c4f964a5203c4e28e3,Millennium,48.13750128428818,11.5625700475357,Hookah Bar
324,48.137360929332395,11.559809528594034,50,44,4c376c6a0a71c9b697d13ec9,Derya,48.13593930048667,11.560907588956768,Middle Eastern Restaurant
325,48.137360929332395,11.559809528594034,50,45,5ad089bac0cacb3aafdc11df,Hindukush,48.136417,11.558146,Afghan Restaurant
326,48.137360929332395,11.559809528594034,50,46,4d04e27e37036dcb507913fb,Trattoria Italiana,48.13909672942624,11.56109545729876,Trattoria/Osteria
327,48.137360929332395,11.559809528594034,50,47,4c73a83d4bc4236ab85ace7a,Oléo Pazzo,48.13724193600855,11.559323281981728,Mediterranean Restaurant
328,48.137360929332395,11.559809528594034,50,48,5b40760d9deb7d002c8bc956,Hira Lokantesi,48.136717,11.558627,Turkish Restaurant
329,48.137360929332395,11.559809528594034,50,49,50142314e4b06fc7cf094204,Sara Restaurant,48.136373914204384,11.558908793118292,Middle Eastern Restaurant
330,48.13283907066761,11.559809528594034,8,0,4e6df6338998a706cdb31fa5,Banyan,48.13189592276314,11.55839394369114,Asian Restaurant
331,48.13283907066761,11.559809528594034,8,1,4ebd5d01f790ce9dc9078db0,Asia Sushi & Wok,48.13079532839145,11.56116706512162,Asian Restaurant
332,48.13283907066761,11.559809528594034,8,2,4e4e33b6a80997aa8a26a5fa,Lucki's,48.1308930622854,11.561088530278091,Asian Restaurant
333,48.13283907066761,11.559809528594034,8,3,4db8064941593a01206eb195,Trattoria Pizzeria Da Giuseppe,48.13434074,11.55885244,Trattoria/Osteria
334,48.13283907066761,11.559809528594034,8,4,4dac73c26a2303012f3903e1,Grotta Azzurra,48.13114310415757,11.561872213631162,Italian Restaurant
335,48.13283907066761,11.559809528594034,8,5,4e313c312271cfd3d048b45f,Thai Vie,48.13102,11.560999,Thai Restaurant
336,48.13283907066761,11.559809528594034,8,6,51e7cabe498eb82e5a81be97,Bel Vizio,48.132176,11.557646,Café
337,48.13283907066761,11.559809528594034,8,7,4ade0ce7f964a520b46921e3,La Fiorentina,48.134407843560716,11.558626321584306,Italian Restaurant
338,48.1351,11.57088888888889,37,0,4ade0ca0f964a5202b6821e3,Altes Hackerhaus,48.13574681149342,11.571300049317323,German Restaurant
339,48.1351,11.57088888888889,37,1,4c0f7fe098102d7f8a42e506,Bricelta,48.13560433343081,11.56868919030998,Portuguese Restaurant
340,48.1351,11.57088888888889,37,2,4ade0cf9f964a5201b6a21e3,Mongo’s Restaurant München,48.13478852132288,11.57099694800183,Mongolian Restaurant
341,48.1351,11.57088888888889,37,3,51795ac7498ee4f33b7d751d,"OhJulia,",48.136359090681054,11.571843027974488,Italian Restaurant
342,48.1351,11.57088888888889,37,4,4b5dd4b2f964a520586e29e3,Kaimug,48.13485616148901,11.569232722665731,Thai Restaurant
343,48.1351,11.57088888888889,37,5,4b5b55fff964a52088f528e3,Lemar,48.13622886872606,11.568874667776106,Afghan Restaurant
344,48.1351,11.57088888888889,37,6,558e9bd9498eb105d8b12c38,Soumi,48.135606,11.572195,Vietnamese Restaurant
345,48.1351,11.57088888888889,37,7,5cd95dd5db1d81002c5b8ae6,Dami,48.137136,11.571361,Asian Restaurant
346,48.1351,11.57088888888889,37,8,4b7c2d2df964a52037822fe3,Restaurant Blauer Bock,48.134408,11.573991,German Restaurant
347,48.1351,11.57088888888889,37,9,5c7673a3625a66002c55bc90,Italomania,48.135517,11.568935,Italian Restaurant
348,48.1351,11.57088888888889,37,10,4d99afd561a3a1cdc225e942,Kare Thai Bistro,48.134405054330685,11.569334556839507,Thai Restaurant
349,48.1351,11.57088888888889,37,11,4bd6dff54e32d13ae438c380,Sushi Sano,48.136312021478574,11.568710803985594,Japanese Restaurant
350,48.1351,11.57088888888889,37,12,5152e545e4b088d76fdb72d2,Yooo Creative Eating,48.13484406390288,11.569347452921436,Asian Restaurant
351,48.1351,11.57088888888889,37,13,5092a27be4b0d4c06c55873f,Casalingo,48.13430539984232,11.573383965112745,Italian Restaurant
352,48.1351,11.57088888888889,37,14,4ee8f54a61afa438e1e375ac,Heckl's Bratwurststand'l,48.13451795669228,11.56844743480521,German Restaurant
353,48.1351,11.57088888888889,37,15,4f1017ede4b0044a21b59374,yambai thai garden restaurant,48.134541952308055,11.570946057237373,Asian Restaurant
354,48.1351,11.57088888888889,37,16,4d95b8c89079b1f7c428e709,Der Bison,48.136791,11.570349,American Restaurant
355,48.1351,11.57088888888889,37,17,4b5f1e69f964a52022a729e3,Grano,48.13508968068958,11.573764998764588,Pizza Place
356,48.1351,11.57088888888889,37,18,4c2c9b24b34ad13aa985ebce,Mediterraneo,48.13575865418781,11.56893383983029,Italian Restaurant
357,48.1351,11.57088888888889,37,19,4bf57bbae1ef9c7483c0b0ca,PLAYA,48.13558883607303,11.568863349913281,Italian Restaurant
358,48.1351,11.57088888888889,37,20,4bfc1b0fd6f2c9b623ba4ec8,Das Kaffee Haus,48.135958,11.568232,Italian Restaurant
359,48.1351,11.57088888888889,37,21,4e8adcca8231cd825422fe1d,Bistro Am Jakobsplatz,48.13436228472973,11.572874691553032,German Restaurant
360,48.1351,11.57088888888889,37,22,564342e2498e5f48e9fe8560,cuisine germanlingua,48.136112,11.569832,German Restaurant
361,48.1351,11.57088888888889,37,23,4bba5d7953649c7456f248fb,Bar Due,48.13443982850182,11.570611484438132,Italian Restaurant
362,48.1351,11.57088888888889,37,24,4bd87e7c35aad13a840591f3,Baricentro,48.13455682485334,11.573834223461475,Italian Restaurant
363,48.1351,11.57088888888889,37,25,4ceac68be1eeb60cde09b0ae,camaleon,48.13447989127363,11.573457249013877,French Restaurant
364,48.1351,11.57088888888889,37,26,584972103ef0f637afe197a2,Le Asia,48.137297,11.571228,Vietnamese Restaurant
365,48.1351,11.57088888888889,37,27,4b9a8cbbf964a5202fc035e3,landersdorfer & innerhofer - restaurant,48.13623678947609,11.56991682844317,German Restaurant
366,48.1351,11.57088888888889,37,28,5309e3c3498ec2100f36f9b9,Kleinschmecker,48.134659170093826,11.573565235533085,German Restaurant
367,48.1351,11.57088888888889,37,29,4d2f5a54b97cb1f7e0799748,Nigin,48.135505290653775,11.571873407601714,Afghan Restaurant
368,48.1351,11.57088888888889,37,30,4bee8d2b35dc0f4776ee3f5b,"""Franz"" Schokoladen Kontor",48.136421,11.568169,French Restaurant
369,48.1351,11.57088888888889,37,31,4dc7df71d4c0ad9c0fc147bd,Vinzenzmurr,48.135004,11.569504,German Restaurant
370,48.1351,11.57088888888889,37,32,4ce43156bebd3704909da4a0,einstein,48.13479609731641,11.572391059993993,Jewish Restaurant
371,48.1351,11.57088888888889,37,33,4c336b477cc0c9b6e8c2f19a,Kroners Bar Bistro Cafe,48.135494,11.569333,American Restaurant
372,48.1351,11.57088888888889,37,34,4bc4c3354cdfc9b68c1f9921,Café Segafredo,48.13339721891112,11.571126370857584,Italian Restaurant
373,48.1351,11.57088888888889,37,35,548825f7498e5f3e10e36a2d,bianco e blu,48.13637161254883,11.569581985473633,Coffee Shop
374,48.1351,11.57088888888889,37,36,4b1e4497f964a5203d1824e3,Sedlmayr,48.13472108730109,11.568271919200749,German Restaurant
375,48.137360929332395,11.5675238047393,50,0,4bfa555f508c0f47c9f33f31,Augustiner Stammhaus,48.13857710671708,11.568805446073561,Bavarian Restaurant
376,48.137360929332395,11.5675238047393,50,1,4b1bee63f964a5202dff23e3,China Express,48.137987151831,11.56464148428957,Chinese Restaurant
377,48.137360929332395,11.5675238047393,50,2,4e68a72faeb75ce774b70c69,Sindbad,48.137439197431945,11.564202474750003,Falafel Restaurant
378,48.137360929332395,11.5675238047393,50,3,4c0f7fe098102d7f8a42e506,Bricelta,48.13560433343081,11.56868919030998,Portuguese Restaurant
379,48.137360929332395,11.5675238047393,50,4,57f8e1d3498ebcf2cec184fe,Le Du | Happy Dumplings,48.13742214942212,11.570824614986844,Dumpling Restaurant
380,48.137360929332395,11.5675238047393,50,5,4bffaff6ca1920a12d18ed81,Schnitzelwirt,48.138889170039754,11.567666126154604,German Restaurant
381,48.137360929332395,11.5675238047393,50,6,58f799ad2bf9a9608baf70d9,LeDu Happy Dumplings,48.13799,11.565189,Dim Sum Restaurant
382,48.137360929332395,11.5675238047393,50,7,598451be7918717aa99e9cd8,Mustafa's Gemüse Kebap,48.13845087360824,11.565081723278597,Doner Restaurant
383,48.137360929332395,11.5675238047393,50,8,5904cd90cab41002193172af,Sausalitos,48.136895,11.56434,Mexican Restaurant
384,48.137360929332395,11.5675238047393,50,9,560d5bfa498e0fc2ece82ee0,Nigin مطعم افغاني,48.13745123417601,11.569808840177537,Afghan Restaurant
385,48.137360929332395,11.5675238047393,50,10,4c9e1ee603133704f77365d5,China Restaurant Shanghai,48.13852968255185,11.565278822404697,Chinese Restaurant
386,48.137360929332395,11.5675238047393,50,11,4b1a6103f964a5208be923e3,Bella Italia,48.13731340756421,11.566371900195149,Italian Restaurant
387,48.137360929332395,11.5675238047393,50,12,4b5b55fff964a52088f528e3,Lemar,48.13622886872606,11.568874667776106,Afghan Restaurant
388,48.137360929332395,11.5675238047393,50,13,5c7673a3625a66002c55bc90,Italomania,48.135517,11.568935,Italian Restaurant
389,48.137360929332395,11.5675238047393,50,14,4bd6dff54e32d13ae438c380,Sushi Sano,48.136312021478574,11.568710803985594,Japanese Restaurant
390,48.137360929332395,11.5675238047393,50,15,4b72a796f964a52050822de3,Kaiden Asia,48.137479744375604,11.57014528884602,Sushi Restaurant
391,48.137360929332395,11.5675238047393,50,16,4e1c7da3a80980ebf5a26a39,Stadtkantine,48.137499615708215,11.569928984778558,Mediterranean Restaurant
392,48.137360929332395,11.5675238047393,50,17,4e42d2061850a81819b62ced,Frogis,48.13798636804556,11.564941607358527,Ice Cream Shop
393,48.137360929332395,11.5675238047393,50,18,5b6d81df491be700391f1ae6,Arbil Restaurant,48.136575,11.56448,Persian Restaurant
394,48.137360929332395,11.5675238047393,50,19,4d95b8c89079b1f7c428e709,Der Bison,48.136791,11.570349,American Restaurant
395,48.137360929332395,11.5675238047393,50,20,4c2c9b24b34ad13aa985ebce,Mediterraneo,48.13575865418781,11.56893383983029,Italian Restaurant
396,48.137360929332395,11.5675238047393,50,21,51a48713498e45f5943e3dbf,Hong Gia,48.13641598834576,11.564867673672492,Asian Restaurant
397,48.137360929332395,11.5675238047393,50,22,4fb23633e4b06d535f507a9a,Running sushi,48.13846792692243,11.566023031049182,Sushi Restaurant
398,48.137360929332395,11.5675238047393,50,23,4bf57bbae1ef9c7483c0b0ca,PLAYA,48.13558883607303,11.568863349913281,Italian Restaurant
399,48.137360929332395,11.5675238047393,50,24,4bfc1b0fd6f2c9b623ba4ec8,Das Kaffee Haus,48.135958,11.568232,Italian Restaurant
400,48.137360929332395,11.5675238047393,50,25,56379a01498e1b96ff096405,Frische Muscheln Moby Dick,48.137558,11.566345,Italian Restaurant
401,48.137360929332395,11.5675238047393,50,26,564342e2498e5f48e9fe8560,cuisine germanlingua,48.136112,11.569832,German Restaurant
402,48.137360929332395,11.5675238047393,50,27,5db468f8a9a86b0009cb9af5,Juli,48.137458,11.570075,Sushi Restaurant
403,48.137360929332395,11.5675238047393,50,28,50e89bcfe4b0aa6efeec3b24,Konig Bar,48.137008,11.565406,German Restaurant
404,48.137360929332395,11.5675238047393,50,29,4cab0ad4d971b1f72b2927e1,sushi & wok,48.13572917490066,11.566443260921316,Chinese Restaurant
405,48.137360929332395,11.5675238047393,50,30,4b9a8cbbf964a5202fc035e3,landersdorfer & innerhofer - restaurant,48.13623678947609,11.56991682844317,German Restaurant
406,48.137360929332395,11.5675238047393,50,31,54c2b42f498eb3a1cac0f6bf,Razdhani,48.13628331322398,11.564738871388128,Indian Restaurant
407,48.137360929332395,11.5675238047393,50,32,518cd65c498e1da56ddf3d97,Maily - Die asiatische Vitalküche & Sushi,48.13881569414036,11.564977421201162,Asian Restaurant
408,48.137360929332395,11.5675238047393,50,33,4bee8d2b35dc0f4776ee3f5b,"""Franz"" Schokoladen Kontor",48.136421,11.568169,French Restaurant
409,48.137360929332395,11.5675238047393,50,34,56e2fd83498eb3d19976bac9,Theater-Stüberl,48.137611,11.568709,Bavarian Restaurant
410,48.137360929332395,11.5675238047393,50,35,5433d49e498e491cf03548c2,schlachttag,48.138715,11.569037,German Restaurant
411,48.137360929332395,11.5675238047393,50,36,4c336b477cc0c9b6e8c2f19a,Kroners Bar Bistro Cafe,48.135494,11.569333,American Restaurant
412,48.137360929332395,11.5675238047393,50,37,4bec280bf90e9c74cd9be3ed,City Lounge,48.13838077056408,11.565284898626693,Italian Restaurant
413,48.137360929332395,11.5675238047393,50,38,4b7ffbe8f964a520984830e3,Mr. Asia,48.137601207796905,11.569088523714159,Asian Restaurant
414,48.137360929332395,11.5675238047393,50,39,4c0f821ec6cf76b076578251,Diogenis Taverne,48.13747315135348,11.566422239750631,Taverna
415,48.137360929332395,11.5675238047393,50,40,548825f7498e5f3e10e36a2d,bianco e blu,48.13637161254883,11.569581985473633,Coffee Shop
416,48.137360929332395,11.5675238047393,50,41,4c7e8a082042b1f7c238c0ad,Altouash Restaurant,48.136927,11.565174,Middle Eastern Restaurant
417,48.137360929332395,11.5675238047393,50,42,4bfd3ab0bf6576b0ebeaacb8,Al Salam,48.137031,11.564264,Eastern European Restaurant
418,48.137360929332395,11.5675238047393,50,43,4f0342ddbe7bbcd4f6cedf5c,ماكدونال.,48.137468987192584,11.565020011424448,American Restaurant
419,48.137360929332395,11.5675238047393,50,44,575577fe498e2f538698498a,Rosita's Chili,48.13828921912461,11.565150494824659,Burrito Place
420,48.137360929332395,11.5675238047393,50,45,52481a25498ee2dda8482778,33 Millimeter,48.13896295234328,11.566198380456926,German Restaurant
421,48.137360929332395,11.5675238047393,50,46,4cec06cb595cb1f7f16bdc14,Weinhaus Neuner,48.137694048832856,11.568339898611708,German Restaurant
422,48.137360929332395,11.5675238047393,50,47,506d7a20e4b0e15ca73b832c,Zitronengras,48.13629844259204,11.565242800648159,Asian Restaurant
423,48.137360929332395,11.5675238047393,50,48,5755d453498e65514d4b6d03,Il sogno,48.138959,11.568736,Italian Restaurant
424,48.137360929332395,11.5675238047393,50,49,4f914b14e4b0277c9894722a,Pizza & More,48.13654772912797,11.565066030837842,Italian Restaurant
425,48.13283907066761,11.5675238047393,40,0,5bf195738c35dc002cde97fb,Max's Beef Noodles,48.134029,11.566531,Noodle House
426,48.13283907066761,11.5675238047393,40,1,4b744065f964a52004d02de3,Andy's Krablergarten,48.13247478824163,11.56694253387582,Bavarian Restaurant
427,48.13283907066761,11.5675238047393,40,2,57d1a4cb498e1af7a33e8b07,The Drunken Dragon Bar,48.13201678164722,11.567409992585,Asian Restaurant
428,48.13283907066761,11.5675238047393,40,3,57a0d1bf498e5310b4d48526,Usagi,48.13146819342363,11.566513410417887,Japanese Restaurant
429,48.13283907066761,11.5675238047393,40,4,59a59e87e185f3743a8d05d6,dios Minga,48.13114044846331,11.566516757011414,Tapas Restaurant
430,48.13283907066761,11.5675238047393,40,5,4c0cd5b80e9e952190c43cbd,DuDu,48.131074,11.566295,Vietnamese Restaurant
431,48.13283907066761,11.5675238047393,40,6,56bccb33498ea155f6bd67de,Little Wolf,48.131128,11.567523,American Restaurant
432,48.13283907066761,11.5675238047393,40,7,4bd25fc7b221c9b63dacd7d0,M43 Döner & Burger,48.131373823228856,11.56856163579737,Doner Restaurant
433,48.13283907066761,11.5675238047393,40,8,51df1237498e27ae5a4303d9,Jack Glockenbach,48.132037403276094,11.566653575669225,Vietnamese Restaurant
434,48.13283907066761,11.5675238047393,40,9,4f830f4ee4b024a26fbb1eca,Itxaso Tapas,48.13126223130549,11.567406793915307,Spanish Restaurant
435,48.13283907066761,11.5675238047393,40,10,4b7484b6f964a52078e12de3,Sila,48.133972,11.5657215,Turkish Restaurant
436,48.13283907066761,11.5675238047393,40,11,4d99afd561a3a1cdc225e942,Kare Thai Bistro,48.134405054330685,11.569334556839507,Thai Restaurant
437,48.13283907066761,11.5675238047393,40,12,52a7310411d2e90cbc82a485,AYLA - Imbiss -Döner -Hamburger - frische Falafel,48.13252713293447,11.564773404285415,Turkish Restaurant
438,48.13283907066761,11.5675238047393,40,13,5a283cb895d98603ae7e0254,Chi Thu,48.13084084983309,11.567234940233583,Vietnamese Restaurant
439,48.13283907066761,11.5675238047393,40,14,51e12fd5498e13baf02c09c5,Thaimama,48.13301,11.565978,Thai Restaurant
440,48.13283907066761,11.5675238047393,40,15,4b5df955f964a520f07629e3,Der Tannenbaum,48.134961,11.567418,German Restaurant
441,48.13283907066761,11.5675238047393,40,16,4fdb73c4e4b053d4b35ec7cd,kilim,48.1322,11.56956,Turkish Restaurant
442,48.13283907066761,11.5675238047393,40,17,54f5f945498eee88538eaa3b,Scho Schee,48.131162,11.567404,Vietnamese Restaurant
443,48.13283907066761,11.5675238047393,40,18,4d615173338bb60c33c332bd,Phu Quoc,48.132055,11.5667,Thai Restaurant
444,48.13283907066761,11.5675238047393,40,19,4bf56383ff90c9b6704b5628,Phong Phu,48.132914494425094,11.568564244094866,Asian Restaurant
445,48.13283907066761,11.5675238047393,40,20,4ee8f54a61afa438e1e375ac,Heckl's Bratwurststand'l,48.13451795669228,11.56844743480521,German Restaurant
446,48.13283907066761,11.5675238047393,40,21,56430f2c498ed6a786932fb8,JA MAI,48.1310767946622,11.567362185335362,Vietnamese Restaurant
447,48.13283907066761,11.5675238047393,40,22,53becf86498ea426b89b378f,L'Oasis,48.132389,11.566997,Doner Restaurant
448,48.13283907066761,11.5675238047393,40,23,585592b96431e554e12b292a,The Corner - Deli Bar,48.132427010565614,11.567178452687584,Modern European Restaurant
449,48.13283907066761,11.5675238047393,40,24,4f764a03e4b015b23bfc3d70,Techno Döner,48.132222122675195,11.567154497949975,Doner Restaurant
450,48.13283907066761,11.5675238047393,40,25,52acc4d7498e61950cbc72ac,zum blinden Engel,48.13312911987305,11.565797805786133,German Restaurant
451,48.13283907066761,11.5675238047393,40,26,57a0d055498e0fbe9766b4bc,Nousagi,48.131458,11.566303,Japanese Restaurant
452,48.13283907066761,11.5675238047393,40,27,581b740c76748b0a8dd2c20d,Swiss  Apéro,48.131238,11.569318,Swiss Restaurant
453,48.13283907066761,11.5675238047393,40,28,4c94bac5533aa093dcc8c145,Thai-China Bamboo Bar,48.13118426288407,11.568894577297623,Thai Restaurant
454,48.13283907066761,11.5675238047393,40,29,51e5879b498e74d150f7bc82,Pajarillo Verde,48.130830061599,11.567484827356942,South American Restaurant
455,48.13283907066761,11.5675238047393,40,30,50ad44a8498e258b05a21048,Palau,48.13163352982786,11.566556580750653,Spanish Restaurant
456,48.13283907066761,11.5675238047393,40,31,513dded4e4b0cc27b35fcb49,ifang,48.13387688684632,11.566338567235814,Sushi Restaurant
457,48.13283907066761,11.5675238047393,40,32,4bc459e674a9a593aea7d5f6,Alla Scala,48.13341688782248,11.56655365410097,Italian Restaurant
458,48.13283907066761,11.5675238047393,40,33,5252f88d11d2f9b8d69f1f8e,Bistro Vinothek,48.134192,11.567714,Italian Restaurant
459,48.13283907066761,11.5675238047393,40,34,4de7093252b1886171c59b96,Wirtshaus am Sendlinger Tor,48.133726759338096,11.566876710889519,German Restaurant
460,48.13283907066761,11.5675238047393,40,35,4c4ac1c246240f47e6fe56f2,Cafe Freiraum,48.13159997728035,11.567487961050446,Argentinian Restaurant
461,48.13283907066761,11.5675238047393,40,36,4bc47b52abf49521f60ec593,Punto DiVino,48.134429846985874,11.56743349473894,Italian Restaurant
462,48.13283907066761,11.5675238047393,40,37,4c00702bad15a593c4f48d73,Alpen Imbiss,48.13251226672948,11.567058601081097,Doner Restaurant
463,48.13283907066761,11.5675238047393,40,38,4b1e4497f964a5203d1824e3,Sedlmayr,48.13472108730109,11.568271919200749,German Restaurant
464,48.13283907066761,11.5675238047393,40,39,5135f52be4b0f738470cd7a6,Bazi´s Schlemmerkucherl,48.131298,11.568403,German Restaurant
465,48.137360929332395,11.574253973038479,48,0,4b294373f964a520ed9b24e3,Nürnberger Bratwurst Glöckl am Dom,48.13819109417412,11.574165237107081,Bavarian Restaurant
466,48.137360929332395,11.574253973038479,48,1,4b0ebcf5f964a5205a5a23e3,Augustiner am Dom,48.13818157175851,11.57400961528765,Bavarian Restaurant
467,48.137360929332395,11.574253973038479,48,2,5238825911d2715c80955a54,Augustiner Klosterwirt,48.138649448058345,11.572527009723416,German Restaurant
468,48.137360929332395,11.574253973038479,48,3,4ade0ca0f964a5202a6821e3,Andechser am Dom,48.138302,11.573778,Bavarian Restaurant
469,48.137360929332395,11.574253973038479,48,4,4b6dcecdf964a520c3912ce3,Ratskeller,48.137582782767645,11.576336940296818,Bavarian Restaurant
470,48.137360929332395,11.574253973038479,48,5,5cdfe154e1f228002b8075da,La Burrita,48.136143,11.574489,Burrito Place
471,48.137360929332395,11.574253973038479,48,6,565747f8498edac8b5afe317,Donisl,48.137800251110754,11.574525354146617,Bavarian Restaurant
472,48.137360929332395,11.574253973038479,48,7,4b641798f964a520a09e2ae3,Guido al Duomo,48.13875374545583,11.57426044877012,Italian Restaurant
473,48.137360929332395,11.574253973038479,48,8,4b7d9275f964a52079c72fe3,Zum Spöckmeier,48.13677278279106,11.574078206843117,German Restaurant
474,48.137360929332395,11.574253973038479,48,9,51795ac7498ee4f33b7d751d,"OhJulia,",48.136359090681054,11.571843027974488,Italian Restaurant
475,48.137360929332395,11.574253973038479,48,10,518cbfd7498e8c38bb5ef372,Vinzenz Murr,48.13759824959831,11.57518537445578,German Restaurant
476,48.137360929332395,11.574253973038479,48,11,5af83ee466fc65002c26d717,Wildmosers,48.137226288114086,11.575309846555168,Bavarian Restaurant
477,48.137360929332395,11.574253973038479,48,12,5c61509f1cf2e1002c7fb459,Hacker-Pschorr,48.137041,11.575108,Bavarian Restaurant
478,48.137360929332395,11.574253973038479,48,13,4d8f2c79fa9437048e1714c6,"Restaurant Café ""Am Marienplatz""",48.137197889615464,11.575365606759906,Bavarian Restaurant
479,48.137360929332395,11.574253973038479,48,14,4b0ec98af964a520075b23e3,Ned Kelly's Australian Bar,48.138631628199796,11.574617577111164,Pub
480,48.137360929332395,11.574253973038479,48,15,558e9bd9498eb105d8b12c38,Soumi,48.135606,11.572195,Vietnamese Restaurant
481,48.137360929332395,11.574253973038479,48,16,5cd95dd5db1d81002c5b8ae6,Dami,48.137136,11.571361,Asian Restaurant
482,48.137360929332395,11.574253973038479,48,17,5adf686a4acb196e9783895b,piazzaMaria,48.137835,11.57438,Italian Restaurant
483,48.137360929332395,11.574253973038479,48,18,4c3b5cfb62f1c9285c668f53,Ratkeller Prunkhof Terrasse,48.137833,11.575678,German Restaurant
484,48.137360929332395,11.574253973038479,48,19,4c2f41a2452620a1a5241d0f,Trattoria La Vita,48.138185805281836,11.574670534569588,Trattoria/Osteria
485,48.137360929332395,11.574253973038479,48,20,51f27fae498e806a7b039f9f,Pferdemetzgerei Wörle,48.135993801262515,11.576204764055808,German Restaurant
486,48.137360929332395,11.574253973038479,48,21,4c3c5795933b0f47eedee321,Opatja,48.136215,11.575512886047363,Greek Restaurant
487,48.137360929332395,11.574253973038479,48,22,555b6e53498e549e387fad84,IL Punto Italiano,48.137310222286146,11.574134416311024,Italian Restaurant
488,48.137360929332395,11.574253973038479,48,23,4c125e83a5eb76b0b601beb7,Andexer,48.13851791726261,11.57429098120198,German Restaurant
489,48.137360929332395,11.574253973038479,48,24,4c8feed1590ab1f7ab13e37d,Berni's Nudelbrett,48.13601146656468,11.576349772737224,Italian Restaurant
490,48.137360929332395,11.574253973038479,48,25,4c3cad637d00d13a323f3950,Opatija,48.13614986326228,11.575555642376688,Eastern European Restaurant
491,48.137360929332395,11.574253973038479,48,26,5139d8cfe4b0bd1ff2e18dae,Susse Erdbeerren,48.137448257087044,11.574371494187845,Asian Restaurant
492,48.137360929332395,11.574253973038479,48,27,4b5ada02f964a52065d728e3,Sasou,48.136982,11.574658,Sushi Restaurant
493,48.137360929332395,11.574253973038479,48,28,54f9fa5f498ec6be00e5ba02,Ozaki Wagyu Beef Bar,48.13718195454332,11.57433271408081,Japanese Restaurant
494,48.137360929332395,11.574253973038479,48,29,56d9eba238faf73a8945015c,Chang City,48.13827,11.574411,Asian Restaurant
495,48.137360929332395,11.574253973038479,48,30,4b61570ef964a5208c102ae3,Bohne & Malz,48.13782276476492,11.57453534160627,Café
496,48.137360929332395,11.574253973038479,48,31,4ed5451f5c5c6e249382f7c7,Zum Ewigen Licht Restaurant - Cafe am Marienplatz,48.13660187102125,11.577086084681316,German Restaurant
497,48.137360929332395,11.574253973038479,48,32,584972103ef0f637afe197a2,Le Asia,48.137297,11.571228,Vietnamese Restaurant
498,48.137360929332395,11.574253973038479,48,33,4bdc632b2a3a0f47e898b2b6,Weinhaus Schneider,48.1368011407753,11.577496960027176,German Restaurant
499,48.137360929332395,11.574253973038479,48,34,568a7c85498ecc4b3bedaf37,Kiusiu,48.13746,11.573068,Sushi Restaurant
500,48.137360929332395,11.574253973038479,48,35,4d038f8b9d33a143cbf6b478,Hofer,48.13752719923543,11.577469704232715,German Restaurant
501,48.137360929332395,11.574253973038479,48,36,515eb08de4b0b5353d126a1f,Gesund & Köstlich,48.137736,11.575577,German Restaurant
502,48.137360929332395,11.574253973038479,48,37,5b5c58b69de23b002c435d97,Chen's Nudelbar,48.137222,11.573184,Chinese Restaurant
503,48.137360929332395,11.574253973038479,48,38,4b9500b8f964a520168b34e3,Restaurant Dallmayr,48.138488808282744,11.576791294028093,German Restaurant
504,48.137360929332395,11.574253973038479,48,39,4feb23d2e4b076a38bc7bd76,خووووش بيتزا ومأكولات ايطاليه,48.138195,11.574627,Italian Restaurant
505,48.137360929332395,11.574253973038479,48,40,4e9032caf79014e2ce69c886,Mayer's Bistro & Weinbar,48.13733382541357,11.574242612025131,German Restaurant
506,48.137360929332395,11.574253973038479,48,41,53073ac8498ed004bc30f049,Jean-Claude Bistro,48.137154,11.57587,German Restaurant
507,48.137360929332395,11.574253973038479,48,42,566025a1498e9c6437dedfec,gecco,48.137058953235275,11.572611728273856,Italian Restaurant
508,48.137360929332395,11.574253973038479,48,43,4ec44bf902d54e7046cb0e74,confcall mexico,48.13695307091673,11.575808526986751,Mexican Restaurant
509,48.137360929332395,11.574253973038479,48,44,4e99c85b9adf277db7692636,Trattoria,48.13827204358298,11.574582247087728,Trattoria/Osteria
510,48.137360929332395,11.574253973038479,48,45,530ba89d498e4118548cfc6f,Hofer Der Stadtwirt,48.13766095114879,11.577126000041039,German Restaurant
511,48.137360929332395,11.574253973038479,48,46,5e4e7afb0439d10008d9a487,kesselfrische weiswurst,48.136318,11.576874,German Restaurant
512,48.137360929332395,11.574253973038479,48,47,59d0dd92c0af5716996c047b,Nhung's,48.137469,11.571339,Vietnamese Restaurant
513,48.13283907066761,11.574253973038479,50,0,4b335a36f964a520d51825e3,Der Pschorr,48.13482271913493,11.575121283531189,Bavarian Restaurant
514,48.13283907066761,11.574253973038479,50,1,55f01aca498e4aad42fb6fb3,Eataly,48.13446101526066,11.574517537869522,Food Court
515,48.13283907066761,11.574253973038479,50,2,5cdef0e442d8c2002c6530c7,neuhauser am Gärtnerplatz,48.132704,11.574238,Italian Restaurant
516,48.13283907066761,11.574253973038479,50,3,4b7aa67cf964a52061352fe3,Deutsche Eiche,48.132737720062856,11.576228804885833,Hotel
517,48.13283907066761,11.574253973038479,50,4,4af3129bf964a52057ea21e3,Gute Nacht Wurst,48.130958359171174,11.574861192090118,Currywurst Joint
518,48.13283907066761,11.574253973038479,50,5,5460deb2498efc8d1bfdf722,Lezizel Manti,48.13246176882227,11.57494885111496,Manti Place
519,48.13283907066761,11.574253973038479,50,6,4b5a01eff964a52056a728e3,yum2take,48.13454280037759,11.574397774821517,Thai Restaurant
520,48.13283907066761,11.574253973038479,50,7,4bcebeb0cc8cd13ab1cdc4cf,Asia Cusine,48.133113338644584,11.576659888641254,Asian Restaurant
521,48.13283907066761,11.574253973038479,50,8,5db1f23f68e58800085444ac,Mi casa,48.133528,11.574726,Colombian Restaurant
522,48.13283907066761,11.574253973038479,50,9,4d9a1d7433c760fc80b06a6e,Indisches Restaurant Samrat,48.131858,11.571434,Indian Restaurant
523,48.13283907066761,11.574253973038479,50,10,4b681b77f964a52082672be3,Pizzeria Trattoria Monaco,48.132787388744376,11.576065421104431,Trattoria/Osteria
524,48.13283907066761,11.574253973038479,50,11,5293030711d2264e375efb4a,Gärtnerplatz Alm,48.13138202749468,11.576482127722196,Deli / Bodega
525,48.13283907066761,11.574253973038479,50,12,597c97405455b250bd3c1700,La Piazza,48.134408,11.574506,Italian Restaurant
526,48.13283907066761,11.574253973038479,50,13,4b269677f964a520f77d24e3,Wirtshaus zum Straubinger,48.13376,11.574418,Bavarian Restaurant
527,48.13283907066761,11.574253973038479,50,14,4b3fa431f964a5200aab25e3,Yum,48.13408317382092,11.575415065895134,Thai Restaurant
528,48.13283907066761,11.574253973038479,50,15,59cd3ae5b37e2b69895c1552,Tiger & Elephant,48.131477,11.571911,Vietnamese Restaurant
529,48.13283907066761,11.574253973038479,50,16,4b7c2d2df964a52037822fe3,Restaurant Blauer Bock,48.134408,11.573991,German Restaurant
530,48.13283907066761,11.574253973038479,50,17,4bb6596746d4a5933117c6c0,Rainbow,48.132806440541295,11.574410834553834,Thai Restaurant
531,48.13283907066761,11.574253973038479,50,18,5d9cbbcadbf3ca00085584c2,Mai Garten,48.13281,11.577486,Chinese Restaurant
532,48.13283907066761,11.574253973038479,50,19,4bddb2e76198c9b6664f11ff,Buena Vista,48.13371366542511,11.57457629199255,Latin American Restaurant
533,48.13283907066761,11.574253973038479,50,20,4bd9cd7ae914a5930cfa57fa,La Tazza D'oro,48.134203,11.574523,Italian Restaurant
534,48.13283907066761,11.574253973038479,50,21,4b96452bf964a52037c334e3,Trattoria Luigi al Mercato,48.13481732256245,11.574746335735076,Trattoria/Osteria
535,48.13283907066761,11.574253973038479,50,22,5092a27be4b0d4c06c55873f,Casalingo,48.13430539984232,11.573383965112745,Italian Restaurant
536,48.13283907066761,11.574253973038479,50,23,5515a9a9498e2dd5c02ebc4a,shizoo.,48.13237570140529,11.577377750924501,Japanese Restaurant
537,48.13283907066761,11.574253973038479,50,24,5ca663fea35f46002501fcb6,ti vu,48.133405,11.576918,Vietnamese Restaurant
538,48.13283907066761,11.574253973038479,50,25,4e8adcca8231cd825422fe1d,Bistro Am Jakobsplatz,48.13436228472973,11.572874691553032,German Restaurant
539,48.13283907066761,11.574253973038479,50,26,5b44e77f603d2a002c4a8be4,Locanda Gamba,48.134541,11.574549,Seafood Restaurant
540,48.13283907066761,11.574253973038479,50,27,4c73c7a48efc37048460167d,Thai Phuc Restaurant,48.134741,11.576044,Thai Restaurant
541,48.13283907066761,11.574253973038479,50,28,4bd87e7c35aad13a840591f3,Baricentro,48.13455682485334,11.573834223461475,Italian Restaurant
542,48.13283907066761,11.574253973038479,50,29,4ceac68be1eeb60cde09b0ae,camaleon,48.13447989127363,11.573457249013877,French Restaurant
543,48.13283907066761,11.574253973038479,50,30,5f0cbdf635d1e26f92b35034,TENNO Sushi And More,48.13251,11.57704,Japanese Restaurant
544,48.13283907066761,11.574253973038479,50,31,5309e3c3498ec2100f36f9b9,Kleinschmecker,48.134659170093826,11.573565235533085,German Restaurant
545,48.13283907066761,11.574253973038479,50,32,51619ee3e4b08465edf74621,noosou,48.132591247558594,11.57317066192627,Asian Restaurant
546,48.13283907066761,11.574253973038479,50,33,4c2b05f4197e9521db9c628d,Viktus,48.13471232044159,11.575995864519953,Salad Place
547,48.13283907066761,11.574253973038479,50,34,575beab8cd10eadade6456d3,Della Carne,48.134506,11.574567,Italian Restaurant
548,48.13283907066761,11.574253973038479,50,35,567a9e39498ecd39ef5dbd3e,Adriatico - Ristorante Mare e Monti,48.134439,11.574602,Italian Restaurant
549,48.13283907066761,11.574253973038479,50,36,5412d101498e02cb71de45f9,Bazi's Lederhosnsemmel,48.13442,11.574451,German Restaurant
550,48.13283907066761,11.574253973038479,50,37,53ad512c498e513b903b84a4,Jordi's Burrito,48.13247693452041,11.57729564487459,Burrito Place
551,48.13283907066761,11.574253973038479,50,38,5329956b498e578b3035773c,Hermannsdorfer Biofleisch,48.13466135102234,11.576205299143389,German Restaurant
552,48.13283907066761,11.574253973038479,50,39,4e9f0011722edab8d2e4d0a2,Osteria. La Vite,48.1328010559082,11.572482109069824,Trattoria/Osteria
553,48.13283907066761,11.574253973038479,50,40,5c50a0c9cabcff002c64242c,Little Daruma,48.133399,11.576597,Japanese Restaurant
554,48.13283907066761,11.574253973038479,50,41,59d8bf270d2be73017c686ca,Amerigo,48.134357,11.574491,Italian Restaurant
555,48.13283907066761,11.574253973038479,50,42,5ab26490112c6c418f782f3b,Delicious Rice,48.134543,11.575872,Thai Restaurant
556,48.13283907066761,11.574253973038479,50,43,4bc4c3354cdfc9b68c1f9921,Café Segafredo,48.13339721891112,11.571126370857584,Italian Restaurant
557,48.13283907066761,11.574253973038479,50,44,5afc110a06fb60002ca6fbfb,Mr Nilsson,48.133381,11.576655,Japanese Restaurant
558,48.13283907066761,11.574253973038479,50,45,4e5f6d8cd4c08cf7f59a835c,Menu,48.132660537560156,11.576124490068118,Italian Restaurant
559,48.13283907066761,11.574253973038479,50,46,572b2ab6498e845e04b6f53d,Della Pasta,48.13454,11.574714,Italian Restaurant
560,48.13283907066761,11.574253973038479,50,47,5e4511249ed47900083c12c3,Pastyle,48.134544,11.575574,Italian Restaurant
561,48.13283907066761,11.574253973038479,50,48,4d55863716a6b60cdb0c4cf8,Osteria Veneta,48.134172764851655,11.575441266391293,Trattoria/Osteria
562,48.13283907066761,11.574253973038479,50,49,572c9fc6498e7e8067f10fe6,Cantina Langelina,48.133881,11.576435,Italian Restaurant
563,48.1351,11.585333333333335,24,0,5be834dc270ee7002c6fad5d,Tahdig Persian Restaurant,48.136456,11.587882,Persian Restaurant
564,48.1351,11.585333333333335,24,1,4b12f2dff964a5206c9123e3,Gasthaus Isarthor,48.134928,11.583601,German Restaurant
565,48.1351,11.585333333333335,24,2,519f93e7498e25c7f8a5fa6f,La Taqueria Milagros,48.133198,11.58364,Mexican Restaurant
566,48.1351,11.585333333333335,24,3,4ade0ca1f964a520306821e3,Nage & Sauge,48.135805672780094,11.586705825376075,Italian Restaurant
567,48.1351,11.585333333333335,24,4,4dbab057f7b144688ffe7962,Va bene,48.13391505353858,11.583347490719575,Italian Restaurant
568,48.1351,11.585333333333335,24,5,4f101e66e4b067f66e20c344,Yuki Hana,48.13636689386367,11.583780895795526,Japanese Restaurant
569,48.1351,11.585333333333335,24,6,5f27ec7297900e25c14d71cf,Chat Injunction Indian Streetfood,48.13405,11.586094,Chaat Place
570,48.1351,11.585333333333335,24,7,5d8a5cc94388ee0008b086ff,Taklamakan,48.13449,11.583316,Chinese Restaurant
571,48.1351,11.585333333333335,24,8,5022b2d8e4b0f1c484684cb2,Lemar,48.134241884355575,11.584346168747391,Afghan Restaurant
572,48.1351,11.585333333333335,24,9,5eb21b9b37938c0008d6b26f,Yuten,48.135124,11.581981,Japanese Restaurant
573,48.1351,11.585333333333335,24,10,4ce3861477ef224b559d437b,Fontedoro,48.136235,11.586607,Italian Restaurant
574,48.1351,11.585333333333335,24,11,4bb33e3f4019a593e2a737b8,Goa Indian Restaurant,48.13419460779889,11.584111027422885,Indian Restaurant
575,48.1351,11.585333333333335,24,12,530b6845498eb257cfbcaff1,eat on time,48.13340947761707,11.583776155032563,Turkish Restaurant
576,48.1351,11.585333333333335,24,13,4f1b0e46e4b0b4fde8e7d637,D'Aversa,48.13438415527344,11.58349609375,Italian Restaurant
577,48.1351,11.585333333333335,24,14,5e45aadce97a88000888eb2c,Steindorstrasse,48.133526,11.586288,German Restaurant
578,48.1351,11.585333333333335,24,15,4bd5c95e637ba5935401f770,Gül Imbiss,48.13363867449422,11.583158396674758,Doner Restaurant
579,48.1351,11.585333333333335,24,16,52dfc9e1498e104157e82533,meat'n'beat,48.135936,11.586306,American Restaurant
580,48.1351,11.585333333333335,24,17,575002dacd10df1e38adf1ef,CEBO,48.135685,11.584343,South American Restaurant
581,48.1351,11.585333333333335,24,18,4bc6ecde0050b71320beb73b,Jin Restaurant,48.1360180643996,11.583824565738528,Asian Restaurant
582,48.1351,11.585333333333335,24,19,52b87e3811d225bfbe15680c,Wirtshaus am isartor,48.134776204000836,11.58300382432718,German Restaurant
583,48.1351,11.585333333333335,24,20,4d446663c3e5f04db90a9a20,Le Barestovino,48.13618966182954,11.587030935728064,French Restaurant
584,48.1351,11.585333333333335,24,21,4cfbd324ee9cb60c9c3392ad,Magic Sushi,48.13558586214365,11.586253213863635,Sushi Restaurant
585,48.1351,11.585333333333335,24,22,4f0c396fe4b0dfc434ec1b2f,Mana Sita,48.13427192458531,11.582883235323449,Swiss Restaurant
586,48.1351,11.585333333333335,24,23,50269e89e4b0f23b017ab112,le stollberg,48.1361045932048,11.582692868943973,French Restaurant
587,48.137360929332395,11.581968249183745,50,0,4ade0ca0f964a5202c6821e3,Hofbräuhaus,48.13747954411829,11.580080766955437,Bavarian Restaurant
588,48.137360929332395,11.581968249183745,50,1,4ade0ca8f964a5205b6821e3,Bar Centrale,48.136821,11.579873,Café
589,48.137360929332395,11.581968249183745,50,2,4b56f6eef964a520ec2028e3,Augustiner am Platzl,48.13763509797162,11.579524291168592,German Restaurant
590,48.137360929332395,11.581968249183745,50,3,5d5e43ee687640000850312e,Café Roma,48.138492,11.584249,Café
591,48.137360929332395,11.581968249183745,50,4,4bc45cf32a89ef3b8024f688,Ayinger am Platzl - Speisen und Trank,48.13792408346771,11.57993015016629,Bavarian Restaurant
592,48.137360929332395,11.581968249183745,50,5,4b102b96f964a520806a23e3,Opatija,48.13647238805798,11.579663576178627,Mediterranean Restaurant
593,48.137360929332395,11.581968249183745,50,6,4b575a61f964a5200e3328e3,Pfistermühle,48.13836775708564,11.579345810579376,German Restaurant
594,48.137360929332395,11.581968249183745,50,7,4b61756af964a5203d142ae3,Zum Dürnbräu,48.136292,11.580186,Bavarian Restaurant
595,48.137360929332395,11.581968249183745,50,8,564330d1498ec6cc2cf8aeda,Max Trenta,48.138293,11.582742,Italian Restaurant
596,48.137360929332395,11.581968249183745,50,9,4b6de463f964a5205e992ce3,Schuhbecks Orlando,48.138134,11.580219,Bavarian Restaurant
597,48.137360929332395,11.581968249183745,50,10,4b60e5fcf964a5205b002ae3,Kulisse,48.138714883102494,11.582489221128839,German Restaurant
598,48.137360929332395,11.581968249183745,50,11,55391675498eb49be07c38ec,Matsuhisa,48.1372505,11.5807252,Japanese Restaurant
599,48.137360929332395,11.581968249183745,50,12,4ade0ceaf964a520c36921e3,Buffet Kull,48.13675640422656,11.580914277596952,French Restaurant
600,48.137360929332395,11.581968249183745,50,13,4bcd382bcc8cd13a535fc2cf,Bar Roma,48.13694911086161,11.578915621355335,Italian Restaurant
601,48.137360929332395,11.581968249183745,50,14,5468cf09498e6755a14842df,Gesellschaftsraum,48.137073503967066,11.580562922335595,Modern European Restaurant
602,48.137360929332395,11.581968249183745,50,15,4f101e66e4b067f66e20c344,Yuki Hana,48.13636689386367,11.583780895795526,Japanese Restaurant
603,48.137360929332395,11.581968249183745,50,16,4eeba01c8b814fef89d2362e,Shoya am Platzl,48.138047035204046,11.579967444959934,Japanese Restaurant
604,48.137360929332395,11.581968249183745,50,17,5b14259831ac6c002cb4e484,Zum Stiftl,48.13613885603624,11.579360566663192,Bavarian Restaurant
605,48.137360929332395,11.581968249183745,50,18,5585d6dd498edf093973980d,SCHWARZREITER Restaurant & Tagesbar Kempinski Vierjahreszeiten,48.139011,11.581792,German Restaurant
606,48.137360929332395,11.581968249183745,50,19,5532a1a2498e39898553d05e,Schwarzreiter Tagesbar,48.13893,11.581286,Modern European Restaurant
607,48.137360929332395,11.581968249183745,50,20,4b28d38af964a5207e9524e3,Shoya,48.13738293674952,11.579354950939072,Sushi Restaurant
608,48.137360929332395,11.581968249183745,50,21,4e42ea2abd41fc094d38f2b9,China Moon Roof Terrace,48.1373,11.580701,Mediterranean Restaurant
609,48.137360929332395,11.581968249183745,50,22,51839b12498ef05a292ecc4b,Osteria Der Katzlmacher,48.13725415825892,11.579994796418774,Trattoria/Osteria
610,48.137360929332395,11.581968249183745,50,23,57f516e8cd105476c39eb564,Vino e Gusto,48.13695,11.581221,Italian Restaurant
611,48.137360929332395,11.581968249183745,50,24,557ac0e2498e1dcc68bcf3d9,Ristorante ITALIA im Tal,48.13631999735887,11.579456894706594,Italian Restaurant
612,48.137360929332395,11.581968249183745,50,25,5eb21b9b37938c0008d6b26f,Yuten,48.135124,11.581981,Japanese Restaurant
613,48.137360929332395,11.581968249183745,50,26,509e41f5e4b03075370ef687,Schmankerl Tour München,48.135460117367835,11.581143733146332,German Restaurant
614,48.137360929332395,11.581968249183745,50,27,4b9a25e4f964a52052a135e3,Due Passi,48.13719399325003,11.578709453109179,Italian Restaurant
615,48.137360929332395,11.581968249183745,50,28,59c4ebdca35dce0c0ba3c7e7,Schuhbecks Gastronomie am Platzl,48.138287,11.579986,German Restaurant
616,48.137360929332395,11.581968249183745,50,29,4ee7bbd30e0175b50b3eb408,Schapeau,48.1352709610148,11.581458071913687,Mediterranean Restaurant
617,48.137360929332395,11.581968249183745,50,30,5149abe3e4b010b2d8f7c57f,L'Atelier,48.13573059071135,11.579706740173123,French Restaurant
618,48.137360929332395,11.581968249183745,50,31,5e51e2cb4c94910008e009ba,Ristorante Tavernetta,48.13751349,11.58333952,Italian Restaurant
619,48.137360929332395,11.581968249183745,50,32,5d234b4ae022ca0023e1b51e,Q28,48.13579,11.579971,Vietnamese Restaurant
620,48.137360929332395,11.581968249183745,50,33,4ebac6c37ee503bc87646fdb,Katzlmacher,48.13671124819051,11.580236283388807,Italian Restaurant
621,48.137360929332395,11.581968249183745,50,34,4b7ab516f964a52053382fe3,Der kleine Chinese,48.135916287975604,11.579923648254738,Asian Restaurant
622,48.137360929332395,11.581968249183745,50,35,57c9c2c6498e2b6e34358f91,Lemar,48.136743,11.581874,Afghan Restaurant
623,48.137360929332395,11.581968249183745,50,36,4b0e65bdf964a5205a5723e3,Schuhbecks in den Südtiroler Stuben,48.13802844182588,11.580141695064716,German Restaurant
624,48.137360929332395,11.581968249183745,50,37,54327712498ed5e70bc3914e,Thuy Trang,48.139206646465915,11.583026305389922,Asian Restaurant
625,48.137360929332395,11.581968249183745,50,38,4c3230b5a0ced13ab9bb146e,Toshi,48.139126521913056,11.582544440621469,Japanese Restaurant
626,48.137360929332395,11.581968249183745,50,39,4ba8bfedf964a520fceb39e3,Secondo,48.138215,11.583019,Italian Restaurant
627,48.137360929332395,11.581968249183745,50,40,59d11fea7dc9e141713df0e0,Masuhisa,48.13671,11.57895,Japanese Restaurant
628,48.137360929332395,11.581968249183745,50,41,4d278e23ebacb1f78174e84f,Il Tenore,48.13853812032632,11.580086528166419,Italian Restaurant
629,48.137360929332395,11.581968249183745,50,42,4c87708cb504a143af34b61c,Beccofino,48.13712695545893,11.581619229188886,Italian Restaurant
630,48.137360929332395,11.581968249183745,50,43,542d9cec498e58b5295e326d,Il Giro,48.13703589601455,11.579270786590925,Italian Restaurant
631,48.137360929332395,11.581968249183745,50,44,4bc6ecde0050b71320beb73b,Jin Restaurant,48.1360180643996,11.583824565738528,Asian Restaurant
632,48.137360929332395,11.581968249183745,50,45,57fe7651498e0cb29f5c7b26,hansimgluek munich,48.139131,11.580188,German Restaurant
633,48.137360929332395,11.581968249183745,50,46,4ade0cfcf964a5202b6a21e3,Famiglia (La),48.135516104279056,11.581319883760314,Indian Restaurant
634,48.137360929332395,11.581968249183745,50,47,4b867816f964a520628b31e3,Vino Caffé,48.13687056039389,11.581304095306082,Italian Restaurant
635,48.137360929332395,11.581968249183745,50,48,51cdfa3f498eb2bc8b1d7e8b,Orlandohaus,48.13797298307727,11.581494643590634,German Restaurant
636,48.137360929332395,11.581968249183745,50,49,5083ec4fe4b05e91356c54bf,sushi wrap,48.135752,11.580307,Japanese Restaurant
637,48.13283907066761,11.581968249183745,32,0,5adcb65ac9f9076b1c0c7ccb,Xaver's,48.134004,11.579692,Bavarian Restaurant
638,48.13283907066761,11.581968249183745,32,1,5a61fb3297cf5a4b8c1f6332,Chi Thu Vietnamese Streetfood,48.13291050300414,11.583461496326938,Vietnamese Restaurant
639,48.13283907066761,11.581968249183745,32,2,4b69cdbcf964a5203eb52be3,Lago di Garda,48.13367050946603,11.581598612242487,Italian Restaurant
640,48.13283907066761,11.581968249183745,32,3,5cd5b23904d1ae002c65f3d9,Pepenero Isartor,48.132561,11.584914,Italian Restaurant
641,48.13283907066761,11.581968249183745,32,4,519f93e7498e25c7f8a5fa6f,La Taqueria Milagros,48.133198,11.58364,Mexican Restaurant
642,48.13283907066761,11.581968249183745,32,5,4dbab057f7b144688ffe7962,Va bene,48.13391505353858,11.583347490719575,Italian Restaurant
643,48.13283907066761,11.581968249183745,32,6,4f6f175ae4b0ad1af604f632,Indian Mango,48.132733841549275,11.58412135269005,Indian Restaurant
644,48.13283907066761,11.581968249183745,32,7,4ade0cedf964a520d46921e3,Ganga Restaurant,48.131807,11.579824,Indian Restaurant
645,48.13283907066761,11.581968249183745,32,8,4d2202210901721e15849fa5,Suzuki Nomnom Kitchen,48.1336806527371,11.580941677093506,Japanese Restaurant
646,48.13283907066761,11.581968249183745,32,9,4b291c67f964a520ea9824e3,Königsquelle,48.13203729441726,11.58028531763387,German Restaurant
647,48.13283907066761,11.581968249183745,32,10,58752fa88ae3634c38adfd82,Wirtshaus im Braunauer Hof,48.13472022885251,11.581133430522057,Bavarian Restaurant
648,48.13283907066761,11.581968249183745,32,11,5d8a5cc94388ee0008b086ff,Taklamakan,48.13449,11.583316,Chinese Restaurant
649,48.13283907066761,11.581968249183745,32,12,4c7952ed3badb1f780a34e54,Nudelhaus Sano,48.132622,11.584724,Noodle House
650,48.13283907066761,11.581968249183745,32,13,54dde733498e372eef4b4bbf,NiHouse,48.1328419934069,11.583896093262137,Asian Restaurant
651,48.13283907066761,11.581968249183745,32,14,5022b2d8e4b0f1c484684cb2,Lemar,48.134241884355575,11.584346168747391,Afghan Restaurant
652,48.13283907066761,11.581968249183745,32,15,4dcc1b4e1838cc2cc65c68c2,Asia Wok Sushi Tra,48.132615,11.580519,Asian Restaurant
653,48.13283907066761,11.581968249183745,32,16,4b104ba6f964a520316d23e3,Shalimar,48.13196044377003,11.582532042619418,Indian Restaurant
654,48.13283907066761,11.581968249183745,32,17,4bb33e3f4019a593e2a737b8,Goa Indian Restaurant,48.13419460779889,11.584111027422885,Indian Restaurant
655,48.13283907066761,11.581968249183745,32,18,530b6845498eb257cfbcaff1,eat on time,48.13340947761707,11.583776155032563,Turkish Restaurant
656,48.13283907066761,11.581968249183745,32,19,4b685f27f964a52081742be3,RICE Restaurant,48.131969,11.5804707,Vietnamese Restaurant
657,48.13283907066761,11.581968249183745,32,20,5f2ec8fca9d86a7303577097,Suzuki Nomnom Kitchen,48.133696,11.580985,Japanese Restaurant
658,48.13283907066761,11.581968249183745,32,21,59cbdbda418686045b91efe1,Nudeln Sano,48.132718,11.584531,Japanese Curry Restaurant
659,48.13283907066761,11.581968249183745,32,22,4f1b0e46e4b0b4fde8e7d637,D'Aversa,48.13438415527344,11.58349609375,Italian Restaurant
660,48.13283907066761,11.581968249183745,32,23,4e7607911838f9188a193f43,Xaver’s,48.134066,11.579866,Bavarian Restaurant
661,48.13283907066761,11.581968249183745,32,24,4c5155569426c9282e318b73,Asia Markt & Imbiss,48.132426,11.5811,Vietnamese Restaurant
662,48.13283907066761,11.581968249183745,32,25,4bd5c95e637ba5935401f770,Gül Imbiss,48.13363867449422,11.583158396674758,Doner Restaurant
663,48.13283907066761,11.581968249183745,32,26,4b0835d0f964a520590623e3,Wok&Roll,48.13241638431564,11.584712853854365,Chinese Restaurant
664,48.13283907066761,11.581968249183745,32,27,52b87e3811d225bfbe15680c,Wirtshaus am isartor,48.134776204000836,11.58300382432718,German Restaurant
665,48.13283907066761,11.581968249183745,32,28,5d31d6d42825df0007abf60c,Lezizel Manti,48.133268,11.582962,Turkish Restaurant
666,48.13283907066761,11.581968249183745,32,29,4b8ff539f964a520306c33e3,Terra Verde Bio Pizza und Pasta,48.131996144334636,11.579572347192572,Pizza Place
667,48.13283907066761,11.581968249183745,32,30,4f0c396fe4b0dfc434ec1b2f,Mana Sita,48.13427192458531,11.582883235323449,Swiss Restaurant
668,48.13283907066761,11.581968249183745,32,31,5cd31b84947c05002cfe8d46,Apla‘funky,48.132099,11.579549,Greek Restaurant
669,48.137360929332395,11.588698417482924,9,0,5be834dc270ee7002c6fad5d,Tahdig Persian Restaurant,48.136456,11.587882,Persian Restaurant
670,48.137360929332395,11.588698417482924,9,1,54ca1391498eaf9753915cec,Pepenero,48.139426148021414,11.589605927725724,Italian Restaurant
671,48.137360929332395,11.588698417482924,9,2,4ade0ca1f964a520306821e3,Nage & Sauge,48.135805672780094,11.586705825376075,Italian Restaurant
672,48.137360929332395,11.588698417482924,9,3,4ce3861477ef224b559d437b,Fontedoro,48.136235,11.586607,Italian Restaurant
673,48.137360929332395,11.588698417482924,9,4,4ca322d07f84224b9ae7c158,Sir Tobi,48.139043895640555,11.59050002617109,German Restaurant
674,48.137360929332395,11.588698417482924,9,5,4b7c49cdf964a520f1892fe3,Pequeno - Cantina y Bar Mexicano,48.1394713406533,11.587797404511397,Mexican Restaurant
675,48.137360929332395,11.588698417482924,9,6,52dfc9e1498e104157e82533,meat'n'beat,48.135936,11.586306,American Restaurant
676,48.137360929332395,11.588698417482924,9,7,4b5f3f79f964a520ddaf29e3,El Gordito Loco,48.1391165,11.5874015,Mexican Restaurant
677,48.137360929332395,11.588698417482924,9,8,4d446663c3e5f04db90a9a20,Le Barestovino,48.13618966182954,11.587030935728064,French Restaurant
678,48.13283907066761,11.588698417482924,23,0,5076fcf8498e6f8f5bf39a00,L'Osteria,48.1324593773959,11.590949495609806,Trattoria/Osteria
679,48.13283907066761,11.588698417482924,23,1,4afabbfdf964a520701822e3,Chopan - am Gasteig,48.131513,11.588731,Afghan Restaurant
680,48.13283907066761,11.588698417482924,23,2,4bac756af964a520fcf53ae3,Ver o peso,48.131479045194844,11.589781024789099,Brazilian Restaurant
681,48.13283907066761,11.588698417482924,23,3,5f27ec7297900e25c14d71cf,Chat Injunction Indian Streetfood,48.13405,11.586094,Chaat Place
682,48.13283907066761,11.588698417482924,23,4,4b7ef714f964a520da0c30e3,Zum Kuchlverzeichnis,48.131624631045774,11.589332175127094,German Restaurant
683,48.13283907066761,11.588698417482924,23,5,54a432b9498ec3e413edcb84,Kashmir inn,48.131435,11.588423,Indian Restaurant
684,48.13283907066761,11.588698417482924,23,6,584b03a0561ded236d528815,Gasthaus Kuchelverzeichnis,48.131438,11.589145,Bavarian Restaurant
685,48.13283907066761,11.588698417482924,23,7,58332f129900e64a5628975c,ZEN Panasiatische Cuisine,48.131523,11.588689,Theme Restaurant
686,48.13283907066761,11.588698417482924,23,8,54363b9e498e993896989b93,Topkapi Palast,48.13081921564712,11.589397254980296,Turkish Restaurant
687,48.13283907066761,11.588698417482924,23,9,57951663498e1e1d10b4d179,Kuchlverzeichnis,48.131454,11.589107,German Restaurant
688,48.13283907066761,11.588698417482924,23,10,4ea06cdf7ee519439723712d,La Sirene,48.131638725396535,11.58837483528991,African Restaurant
689,48.13283907066761,11.588698417482924,23,11,5e45aadce97a88000888eb2c,Steindorstrasse,48.133526,11.586288,German Restaurant
690,48.13283907066761,11.588698417482924,23,12,4b294a61f964a520669c24e3,Sofra,48.13167384730868,11.58903380098111,Eastern European Restaurant
691,48.13283907066761,11.588698417482924,23,13,50bfc5f7e4b06e3ca758d23a,Wirtshaus am Gasteig,48.13198605724756,11.588867906320596,German Restaurant
692,48.13283907066761,11.588698417482924,23,14,5c3a1e1c6dcf04002c0a2f27,Meat My Balls,48.13118,11.589843,Italian Restaurant
693,48.13283907066761,11.588698417482924,23,15,4ff2cd05e4b0ac2747015cb0,KAP-LAN,48.13236644653784,11.589079794578405,Turkish Restaurant
694,48.13283907066761,11.588698417482924,23,16,4b0b00d9f964a520672b23e3,gast essen & trinken,48.13110075137311,11.590539022272381,Italian Restaurant
695,48.13283907066761,11.588698417482924,23,17,51654d22e4b0a8efc3fb0ac0,Muvuca,48.1313647386921,11.589397254980296,Brazilian Restaurant
696,48.13283907066761,11.588698417482924,23,18,579518e2498e718414f0fc95,Kuchlverzeichnis,48.13165,11.589485,German Restaurant
697,48.13283907066761,11.588698417482924,23,19,4d0927e0143cb60cc5237fa6,Ponte Vecchio,48.13158936158604,11.588313013281061,Italian Restaurant
698,48.13283907066761,11.588698417482924,23,20,4d5a610e296d5481daa662b1,Özdeveli,48.132265650371366,11.59124556494132,Middle Eastern Restaurant
699,48.13283907066761,11.588698417482924,23,21,4b9fcf00f964a520a14037e3,Ichi Ban,48.131596589974656,11.588601163594499,Asian Restaurant
700,48.13283907066761,11.588698417482924,23,22,5499e3ee498e7529d1a3a86a,German Restaurant,48.13188934326172,11.59007453918457,German Restaurant
701,48.1451,11.556444444444445,21,0,4b20dda6f964a520ff3424e3,Shandiz,48.14644194793621,11.559034412291275,Middle Eastern Restaurant
702,48.1451,11.556444444444445,21,1,4c55be951b46c9b6b08ec2d0,Japan Sushi Gourmet,48.14533773097409,11.55883875567128,Sushi Restaurant
703,48.1451,11.556444444444445,21,2,52629974498eab6389e5a016,Jones - K's Original American Diner,48.14540406795678,11.558695416781282,Diner
704,48.1451,11.556444444444445,21,3,523b6351498efcdb35214c20,Rustico Vi Vadi,48.14331810141379,11.558122886223941,Italian Restaurant
705,48.1451,11.556444444444445,21,4,4e143572a809548274a9761c,Dehbaschi,48.14553221659692,11.559418543645968,Middle Eastern Restaurant
706,48.1451,11.556444444444445,21,5,4dc3d5c918387d1bd512b916,Höflinger Bistro,48.145607,11.558047,Italian Restaurant
707,48.1451,11.556444444444445,21,6,4b28d247f964a520779524e3,Coccinella - pizza e più,48.145605359508444,11.559357493618707,Pizza Place
708,48.1451,11.556444444444445,21,7,4c2dbb2b7d85a593bc0b53f3,Zum Steg,48.14538534999999,11.559471,German Restaurant
709,48.1451,11.556444444444445,21,8,51c97408498eb586eb96f322,Rustico,48.145255761632974,11.557958524933568,Italian Restaurant
710,48.1451,11.556444444444445,21,9,4c19008e4ff90f47d03c0f49,Braustüberl Zum Spaten,48.143334747071584,11.558191162771882,Brewery
711,48.1451,11.556444444444445,21,10,4bd093e3b221c9b664f8d3d0,Sakura Sushi Bar,48.144845,11.553839,Japanese Restaurant
712,48.1451,11.556444444444445,21,11,55564e9c498ebd33dc9e38f2,vivaldi,48.14334,11.558161,Italian Restaurant
713,48.1451,11.556444444444445,21,12,4ade0cf0f964a520e46921e3,Opus One,48.14326386,11.55723,American Restaurant
714,48.1451,11.556444444444445,21,13,558a8ad9498e152ffd207306,Nam Bo,48.14579875538908,11.559364735795754,Vietnamese Restaurant
715,48.1451,11.556444444444445,21,14,52a1400e498ed1199f359f86,Tavernar Viyar Restaurant,48.144168853759766,11.559093475341797,Doner Restaurant
716,48.1451,11.556444444444445,21,15,4bbb0b09b35776b0ac7ecb01,Ristorantino Joline's,48.14314300412494,11.556496386738827,Italian Restaurant
717,48.1451,11.556444444444445,21,16,4e6b1c14d164c37bf4e07d2e,Asian Corner,48.14291533764868,11.556525676947663,Asian Restaurant
718,48.1451,11.556444444444445,21,17,4c45e401429a0f47b0c64a1e,Restaurant Persepolis,48.145332651589165,11.559059593030575,Middle Eastern Restaurant
719,48.1451,11.556444444444445,21,18,4c424de2d691c9b6d4308e0a,Fuji Moto,48.145019,11.556636,Chinese Restaurant
720,48.1451,11.556444444444445,21,19,50ab8524e4b00936cffac195,Taverne Spinn,48.145635,11.558471,Argentinian Restaurant
721,48.1451,11.556444444444445,21,20,57bacd83498ea31e2583895c,Kabul Restaurant,48.14570858763358,11.559326710958306,Afghan Restaurant
722,48.14736092933239,11.553078704732062,12,0,4bc4bac54cdfc9b66f119921,Natraj,48.14880646938383,11.552005368508032,Indian Restaurant
723,48.14736092933239,11.553078704732062,12,1,5edb6fb6049938000809dd24,Alimentari da Graciela,48.147912,11.553563,Gourmet Shop
724,48.14736092933239,11.553078704732062,12,2,4c618668eb82d13add2703d6,Pinocchio Eiscafé,48.14850642509493,11.552765247893984,Italian Restaurant
725,48.14736092933239,11.553078704732062,12,3,4ade0cf7f964a5200b6a21e3,Nymphenburger Hof,48.148711,11.5523091,German Restaurant
726,48.14736092933239,11.553078704732062,12,4,533db1fe498eb290b39a23f1,Phi Asia Küche,48.147496054493246,11.55196894698933,Asian Restaurant
727,48.14736092933239,11.553078704732062,12,5,53659bb4498e648375420e62,Sarihan Gusto,48.148052,11.555917,Turkish Restaurant
728,48.14736092933239,11.553078704732062,12,6,50851e3ce4b059457cb170d0,Paninoteca,48.1482639451477,11.552698330191067,Italian Restaurant
729,48.14736092933239,11.553078704732062,12,7,4c6581e6aebea593cc8270d0,Aquamarina Espresso Bar,48.148221305921446,11.55285358428955,Italian Restaurant
730,48.14736092933239,11.553078704732062,12,8,582c4d7a7622bc6a9533a0ff,Ristorante Nuovo Mondo Da Rosario,48.14735,11.551405,Italian Restaurant
731,48.14736092933239,11.553078704732062,12,9,52de6951498eca9478ab7e8a,Oh! Musubi,48.147095,11.551674,Asian Restaurant
732,48.14736092933239,11.553078704732062,12,10,4e29ad551f6e88a1546eff0c,Sunrise,48.147609,11.552038,Japanese Restaurant
733,48.14736092933239,11.553078704732062,12,11,519e41d7498efbc496a9585d,Tavola Calda,48.14846639919767,11.552663888936822,Deli / Bodega
734,48.142839070667605,11.553078704732062,8,0,4bb1db0bf964a520c3a63ce3,Augustiner-Keller,48.14328181182923,11.551845073699951,Bavarian Restaurant
735,48.142839070667605,11.553078704732062,8,1,4b421691f964a52081cc25e3,Funkstadl,48.14257455662301,11.553452113653163,Eastern European Restaurant
736,48.142839070667605,11.553078704732062,8,2,4b38f170f964a520b85225e3,Vapiano,48.14222511289644,11.550908774826098,Italian Restaurant
737,48.142839070667605,11.553078704732062,8,3,4ca1c2698afca093afa01d16,Oliva Döner,48.142131533104525,11.550327840867892,Doner Restaurant
738,48.142839070667605,11.553078704732062,8,4,4bd093e3b221c9b664f8d3d0,Sakura Sushi Bar,48.144845,11.553839,Japanese Restaurant
739,48.142839070667605,11.553078704732062,8,5,541ffba3498e78ca08bc74b5,Paralia,48.142087626798045,11.550374193827512,Greek Restaurant
740,48.142839070667605,11.553078704732062,8,6,4e6f310852b1706317b5d6fc,KaimugBox,48.142369,11.550744,Thai Restaurant
741,48.142839070667605,11.553078704732062,8,7,4d776e7b2b4b6ea88c5241fe,Asia Snackbox Betrieb,48.14234777517442,11.552076319959838,Asian Restaurant
742,48.14736092933239,11.559810184156827,31,0,5d90a0aabf3d610007e4b458,Seen,48.145373,11.560683,Chinese Restaurant
743,48.14736092933239,11.559810184156827,31,1,4b20dda6f964a520ff3424e3,Shandiz,48.14644194793621,11.559034412291275,Middle Eastern Restaurant
744,48.14736092933239,11.559810184156827,31,2,4afd3f0cf964a520252722e3,Fuyuan China Restaurant,48.146614244491744,11.561317095846736,Chinese Restaurant
745,48.14736092933239,11.559810184156827,31,3,4f5cae07e4b070e04804587f,Biergarten Löwenbräu,48.14786538067469,11.558240711789646,Beer Garden
746,48.14736092933239,11.559810184156827,31,4,4b19530ff964a52046db23e3,Löwenbräukeller,48.147865175389015,11.5586271128673,Brewery
747,48.14736092933239,11.559810184156827,31,5,4c55be951b46c9b6b08ec2d0,Japan Sushi Gourmet,48.14533773097409,11.55883875567128,Sushi Restaurant
748,48.14736092933239,11.559810184156827,31,6,554749e8498eb2c13fea39eb,Driveri,48.14739227294922,11.561604499816895,Italian Restaurant
749,48.14736092933239,11.559810184156827,31,7,4bfc0e75e9d8c928caf7b1c7,Bambushain,48.148798610982205,11.559061697664164,Asian Restaurant
750,48.14736092933239,11.559810184156827,31,8,4c1f8980eac020a1e1374bc2,Busner.s,48.147282137262344,11.558461356466598,Noodle House
751,48.14736092933239,11.559810184156827,31,9,53bc36a4498e2171413e8ac7,Sardinia Day,48.14767411593342,11.558777791456901,Italian Restaurant
752,48.14736092933239,11.559810184156827,31,10,52629974498eab6389e5a016,Jones - K's Original American Diner,48.14540406795678,11.558695416781282,Diner
753,48.14736092933239,11.559810184156827,31,11,4e143572a809548274a9761c,Dehbaschi,48.14553221659692,11.559418543645968,Middle Eastern Restaurant
754,48.14736092933239,11.559810184156827,31,12,545e2365498e817a1d19a6bd,Gyoza Bar,48.14859038725169,11.562589855204878,Dim Sum Restaurant
755,48.14736092933239,11.559810184156827,31,13,4bdb30ed2a3a0f4750daadb6,Maharani,48.14896,11.559233,Indian Restaurant
756,48.14736092933239,11.559810184156827,31,14,4bea8eaf62c0c9288eede0d4,Happy Sushi & Wok,48.14900395345636,11.559320812800912,Asian Restaurant
757,48.14736092933239,11.559810184156827,31,15,4dc3d5c918387d1bd512b916,Höflinger Bistro,48.145607,11.558047,Italian Restaurant
758,48.14736092933239,11.559810184156827,31,16,4b28d247f964a520779524e3,Coccinella - pizza e più,48.145605359508444,11.559357493618707,Pizza Place
759,48.14736092933239,11.559810184156827,31,17,4c2dbb2b7d85a593bc0b53f3,Zum Steg,48.14538534999999,11.559471,German Restaurant
760,48.14736092933239,11.559810184156827,31,18,5ac357132be425218f73793e,Ledu Dim Sum & Bar,48.145765,11.560563,Dim Sum Restaurant
761,48.14736092933239,11.559810184156827,31,19,5282137b498e8ea5f992b648,Stiglerie,48.147524558558985,11.557992212170108,Italian Restaurant
762,48.14736092933239,11.559810184156827,31,20,4e85dc6eb634ae3cdbbc2e42,Highfly,48.147587,11.557873,Asian Restaurant
763,48.14736092933239,11.559810184156827,31,21,5bb4aeb9fe37400039632669,Watan,48.148296,11.562432,Afghan Restaurant
764,48.14736092933239,11.559810184156827,31,22,4fd37010e4b0a8f5710fbd70,Café Bismarck,48.14615892109417,11.559758841881735,German Restaurant
765,48.14736092933239,11.559810184156827,31,23,558a8ad9498e152ffd207306,Nam Bo,48.14579875538908,11.559364735795754,Vietnamese Restaurant
766,48.14736092933239,11.559810184156827,31,24,4b13a8bdf964a520489823e3,Osaka Sky,48.14559190501018,11.560628845921977,Asian Restaurant
767,48.14736092933239,11.559810184156827,31,25,4af2a649f964a52023e821e3,Goldoni Ristorante,48.147585746558036,11.561953471647678,Italian Restaurant
768,48.14736092933239,11.559810184156827,31,26,518fd523498e36d15f6f5bc9,My Tam,48.14910356718993,11.559349603763932,Vietnamese Restaurant
769,48.14736092933239,11.559810184156827,31,27,4c45e401429a0f47b0c64a1e,Restaurant Persepolis,48.145332651589165,11.559059593030575,Middle Eastern Restaurant
770,48.14736092933239,11.559810184156827,31,28,50ab8524e4b00936cffac195,Taverne Spinn,48.145635,11.558471,Argentinian Restaurant
771,48.14736092933239,11.559810184156827,31,29,4ba0dd49f964a520118337e3,Campanula,48.149186433618965,11.561759262382418,Japanese Restaurant
772,48.14736092933239,11.559810184156827,31,30,57bacd83498ea31e2583895c,Kabul Restaurant,48.14570858763358,11.559326710958306,Afghan Restaurant
773,48.142839070667605,11.559810184156827,50,0,4ade0cfbf964a520256a21e3,Sophia's,48.142795,11.562438,Italian Restaurant
774,48.142839070667605,11.559810184156827,50,1,4d96e7e89079b1f73f61050a,Taco Libre,48.14143658721805,11.561091027601753,Taco Place
775,48.142839070667605,11.559810184156827,50,2,54e5cd9b498ef739033ea3f9,Storia,48.14462467753721,11.559741944559708,Italian Restaurant
776,48.142839070667605,11.559810184156827,50,3,565b7dbd498e91d78d23fc40,L'Osteria,48.14105352219812,11.559456779976749,Trattoria/Osteria
777,48.142839070667605,11.559810184156827,50,4,5390941e498e5db1b7326c24,Krua Thai,48.14348418476857,11.559981362021478,Asian Restaurant
778,48.142839070667605,11.559810184156827,50,5,4f2d3910e4b09d49e837432b,BENTO YA,48.144472357020604,11.559835343401195,Japanese Restaurant
779,48.142839070667605,11.559810184156827,50,6,4e709407ae602b2e72550f4d,Noppakao,48.143882636992885,11.559871305259119,Thai Restaurant
780,48.142839070667605,11.559810184156827,50,7,5432c4f2498e8015a9991ebf,LeboQ,48.141183658344524,11.56070597446974,Asian Restaurant
781,48.142839070667605,11.559810184156827,50,8,500e3b19e4b027b73a962764,Mediterrano Cantina Estación,48.141107312767055,11.558053343183767,Mediterranean Restaurant
782,48.142839070667605,11.559810184156827,50,9,4bb3823035f0c9b6ec77bc83,VI VADI cucina italiana,48.14305875278095,11.558921043146775,Italian Restaurant
783,48.142839070667605,11.559810184156827,50,10,5a99961b28374e5e306d3781,Wirtshaus Rechthaler,48.141116,11.55896,German Restaurant
784,48.142839070667605,11.559810184156827,50,11,561e8df9498e7150b0582842,Slemani Grill,48.142455,11.5601,Middle Eastern Restaurant
785,48.142839070667605,11.559810184156827,50,12,523b6351498efcdb35214c20,Rustico Vi Vadi,48.14331810141379,11.558122886223941,Italian Restaurant
786,48.142839070667605,11.559810184156827,50,13,4df87bdc45dd816eb5a6f856,Hatam Restaurant,48.143907,11.559776,Middle Eastern Restaurant
787,48.142839070667605,11.559810184156827,50,14,561008e9498eed61033e15dd,Peter & Wolff,48.141552575011396,11.559388218580212,Modern European Restaurant
788,48.142839070667605,11.559810184156827,50,15,55e582b3498e302ffdaa6690,Deluxe Döner,48.14437722561497,11.55976671668897,Doner Restaurant
789,48.142839070667605,11.559810184156827,50,16,52836648498eade36ba1f252,Com Viet,48.141688,11.560683,Vietnamese Restaurant
790,48.142839070667605,11.559810184156827,50,17,4d24e56410a7721e9fa71004,Barone Nero,48.142688,11.560039,Italian Restaurant
791,48.142839070667605,11.559810184156827,50,18,4bb89fb27421a5939bebc140,Pars Restaurant,48.1438217763946,11.559868139581235,Middle Eastern Restaurant
792,48.142839070667605,11.559810184156827,50,19,4c19008e4ff90f47d03c0f49,Braustüberl Zum Spaten,48.143334747071584,11.558191162771882,Brewery
793,48.142839070667605,11.559810184156827,50,20,4c14f1b31b5cef3bf333eec4,Takara Sushi,48.144327019795156,11.560020446777344,Sushi Restaurant
794,48.142839070667605,11.559810184156827,50,21,59c544d735f9830719210ab2,Hammurabi Imbiss,48.143325,11.559997,Middle Eastern Restaurant
795,48.142839070667605,11.559810184156827,50,22,5033e76be4b0c88bbd9c0696,Kashgar,48.14209330061689,11.56067195156983,Doner Restaurant
796,48.142839070667605,11.559810184156827,50,23,5db9ff6fce2f0d0008253542,Mee Bavaria,48.142122,11.558711,Noodle House
797,48.142839070667605,11.559810184156827,50,24,51d6b7d2498ea03f2a6f0315,Sushi & more,48.14108922916996,11.561719941291146,Asian Restaurant
798,48.142839070667605,11.559810184156827,50,25,4e16f5f6d1649878a8f6626c,Ha Tam,48.143818055611035,11.559825494326816,Middle Eastern Restaurant
799,48.142839070667605,11.559810184156827,50,26,513a6ddce4b0bfae144e5fb8,Mediterano,48.14126630094592,11.558189424404794,Bar
800,48.142839070667605,11.559810184156827,50,27,5081411ae4b00b2c3f416c3f,Gourmettempel In Mh,48.141252,11.557946,German Restaurant
801,48.142839070667605,11.559810184156827,50,28,4d4aac899526b60ca57b84ee,Zirbelstube,48.14144609290486,11.559573246267247,German Restaurant
802,48.142839070667605,11.559810184156827,50,29,55564e9c498ebd33dc9e38f2,vivaldi,48.14334,11.558161,Italian Restaurant
803,48.142839070667605,11.559810184156827,50,30,4ade0cf0f964a520e46921e3,Opus One,48.14326386,11.55723,American Restaurant
804,48.142839070667605,11.559810184156827,50,31,57456505498e79c1c49bfb9d,Bodega Die Andalusische Katze,48.142288,11.558841,Spanish Restaurant
805,48.142839070667605,11.559810184156827,50,32,5dbe140fee17d00008b693b7,Raj,48.142409,11.55881,Indian Restaurant
806,48.142839070667605,11.559810184156827,50,33,52a1400e498ed1199f359f86,Tavernar Viyar Restaurant,48.144168853759766,11.559093475341797,Doner Restaurant
807,48.142839070667605,11.559810184156827,50,34,4bbb0b09b35776b0ac7ecb01,Ristorantino Joline's,48.14314300412494,11.556496386738827,Italian Restaurant
808,48.142839070667605,11.559810184156827,50,35,5dbc8982e402800008d8b060,Nov Gyoza,48.142407,11.558602,Dim Sum Restaurant
809,48.142839070667605,11.559810184156827,50,36,5103ccb5e4b048e6ef6998d4,Le Pâté,48.14176982640474,11.560618314697257,Asian Restaurant
810,48.142839070667605,11.559810184156827,50,37,4dc1d1d5b0fb490416a1d5d5,Medi Döner & Pizza,48.140762610663195,11.56092392097714,Turkish Restaurant
811,48.142839070667605,11.559810184156827,50,38,598848e19be5227440d132bd,Mitte 26,48.143909,11.560023,Chinese Restaurant
812,48.142839070667605,11.559810184156827,50,39,53bc130b498e32469ef568cb,Dadas Kebab House,48.14326477050781,11.558454513549805,Doner Restaurant
813,48.142839070667605,11.559810184156827,50,40,4e6b1c14d164c37bf4e07d2e,Asian Corner,48.14291533764868,11.556525676947663,Asian Restaurant
814,48.142839070667605,11.559810184156827,50,41,59592826772fbc4ee0ab3051,Qin Huai,48.143898,11.560027,Chinese Restaurant
815,48.142839070667605,11.559810184156827,50,42,5772b631498e0bc923a0bf3c,Vive Beirut,48.141677805359144,11.56133208408931,Middle Eastern Restaurant
816,48.142839070667605,11.559810184156827,50,43,55919121498e512b34bf5c8f,Dinnerhopping,48.14136999999999,11.558739999999943,Diner
817,48.142839070667605,11.559810184156827,50,44,51ae37df498e1d1f36b7d82a,Brauhaus Tegernsee,48.141436,11.559377,German Restaurant
818,48.142839070667605,11.559810184156827,50,45,51b0af9d498e06b634783d17,Phó' Bò,48.14345046877274,11.559942129550599,Asian Restaurant
819,48.142839070667605,11.559810184156827,50,46,4caf71dbdb32f04d2579b74d,Restaurant Hani,48.143815544035654,11.559894848054087,Eastern European Restaurant
820,48.142839070667605,11.559810184156827,50,47,4b583edcf964a520674f28e3,Helin Döner,48.14204411666666,11.56065534,Doner Restaurant
821,48.142839070667605,11.559810184156827,50,48,4cb0bd7ac5e6a1cd36f2d7f6,Rechthaler Hof,48.14183526,11.55868428,German Restaurant
822,48.142839070667605,11.559810184156827,50,49,4e046d0daeb7c869c3fd34b2,Zitronengras,48.14459568293662,11.559811876930624,Asian Restaurant
823,48.1551,11.57088888888889,8,0,4b882984f964a52023e431e3,Il Mulino,48.15427001738938,11.567889375645777,Italian Restaurant
824,48.1551,11.57088888888889,8,1,4d9f5fdc46194eb9ee50ffb4,Salon Irkutsk,48.15567831518925,11.570217544638737,Bar
825,48.1551,11.57088888888889,8,2,4b86c54cf964a520129c31e3,Bodega Dali,48.15601,11.56876,Spanish Restaurant
826,48.1551,11.57088888888889,8,3,528d00bd498e8b3745e86d1f,Le Refuge,48.154512898530065,11.573830084728002,French Restaurant
827,48.1551,11.57088888888889,8,4,4ade0cf8f964a520126a21e3,Crêperie Cabus,48.15543909369658,11.570220447278595,French Restaurant
828,48.1551,11.57088888888889,8,5,511a89f3e4b0e6d23007c8a7,Land des Lächelns,48.157314,11.570501,Asian Restaurant
829,48.1551,11.57088888888889,8,6,4c619ae2e1621b8d9d732153,Nguyen,48.156289,11.570852,Vietnamese Restaurant
830,48.1551,11.57088888888889,8,7,5d8290cafa837e000823f664,Epikur,48.15527,11.570854,Greek Restaurant
831,48.15736092933239,11.567522493255673,9,0,4d09f55eacd4a1cd2f6a7f93,Senza La Mamma,48.15667931,11.56553927,Italian Restaurant
832,48.15736092933239,11.567522493255673,9,1,4b86c54cf964a520129c31e3,Bodega Dali,48.15601,11.56876,Spanish Restaurant
833,48.15736092933239,11.567522493255673,9,2,4b6221bdf964a5208e372ae3,Lo Spuntino,48.15666745510652,11.566200256347656,Italian Restaurant
834,48.15736092933239,11.567522493255673,9,3,511a89f3e4b0e6d23007c8a7,Land des Lächelns,48.157314,11.570501,Asian Restaurant
835,48.15736092933239,11.567522493255673,9,4,4b589e96f964a520b76128e3,Da Bello e Bello,48.158691988252755,11.569983488157936,Trattoria/Osteria
836,48.15736092933239,11.567522493255673,9,5,5225b94611d209ca1b2286a2,SenzaLAmamma,48.156898,11.565501,Italian Restaurant
837,48.15736092933239,11.567522493255673,9,6,4b7dcb16f964a52001d52fe3,Zur Schandgeige,48.15904737631387,11.568426512676703,German Restaurant
838,48.15736092933239,11.567522493255673,9,7,509eb403e4b076197c35bd22,Com Viet,48.15743130588205,11.57061877327545,Vietnamese Restaurant
839,48.15736092933239,11.567522493255673,9,8,4c128c1a7f7f2d7f5682dd68,Surahi,48.1575205,11.566538566666665,Indian Restaurant
840,48.1528390706676,11.567522493255673,15,0,4b882984f964a52023e431e3,Il Mulino,48.15427001738938,11.567889375645777,Italian Restaurant
841,48.1528390706676,11.567522493255673,15,1,5907188835811b1b51cc540b,Slurp,48.151922078638556,11.56479257576741,Noodle House
842,48.1528390706676,11.567522493255673,15,2,4bbf9034b492d13a70dea260,Taverna Lakis,48.15468047176395,11.566709217079666,Taverna
843,48.1528390706676,11.567522493255673,15,3,5bdcb1bc67e5f2002ccf5c77,Tschungking Hotpot,48.152378,11.567993,Chinese Restaurant
844,48.1528390706676,11.567522493255673,15,4,50819e22e4b00b2c3f82e7db,pureburrito,48.153305547520866,11.56561411175463,Burrito Place
845,48.1528390706676,11.567522493255673,15,5,4ade0ceff964a520df6921e3,Shiva,48.15220411181876,11.565125388196277,Indian Restaurant
846,48.1528390706676,11.567522493255673,15,6,4fb671fce4b0b2d0a83fbad8,ONION Griechischer Imbiß,48.15140652831472,11.568137036050967,Greek Restaurant
847,48.1528390706676,11.567522493255673,15,7,4e92e6f355037de99d880957,"Restaurant ""à la Gréce""",48.152311036737245,11.568170059693983,Greek Restaurant
848,48.1528390706676,11.567522493255673,15,8,4c000b99ca1920a1ddbded81,Hanoi,48.15331906765454,11.565672256424255,Vietnamese Restaurant
849,48.1528390706676,11.567522493255673,15,9,5967509cdab4b113e4951f32,Sushi Plus,48.152784,11.567428,Sushi Restaurant
850,48.1528390706676,11.567522493255673,15,10,50d1bec4e4b0da94342e8c36,Pizzeria La Perla,48.15237771397826,11.568060657147944,Italian Restaurant
851,48.1528390706676,11.567522493255673,15,11,50ba7d87e4b06d86d9ead9e3,Puschkin,48.15233612060547,11.56783676147461,Eastern European Restaurant
852,48.1528390706676,11.567522493255673,15,12,53346a36498e208173311f08,Pasta Boutique,48.151132686385914,11.565649403174953,Snack Place
853,48.1528390706676,11.567522493255673,15,13,4cab113dd250bfb7db2aca63,Restaurant Darshwan,48.15211971,11.56802188,Indian Restaurant
854,48.1528390706676,11.567522493255673,15,14,5081854be4b01d45a12cb7e8,Apollon,48.15389094900475,11.564631226243609,Greek Restaurant
855,48.15736092933239,11.574255284522106,31,0,4b4ccd9ff964a5208abf26e3,Da Angelo,48.157638749435435,11.575308764107978,Italian Restaurant
856,48.15736092933239,11.574255284522106,31,1,4b859a18f964a520ee6731e3,Kalypso,48.15732190932764,11.57144721866064,Greek Restaurant
857,48.15736092933239,11.574255284522106,31,2,5c422b1e4f0e58002c29ec99,Ali Bey,48.155229,11.574683,Turkish Restaurant
858,48.15736092933239,11.574255284522106,31,3,4b9d271ff964a520629436e3,Koriander Vietnam Restaurant,48.159212869232256,11.574917174956472,Vietnamese Restaurant
859,48.15736092933239,11.574255284522106,31,4,524d88cd498edf48337edd62,HA NOI Fusion,48.157715421852636,11.573285724395364,Vietnamese Restaurant
860,48.15736092933239,11.574255284522106,31,5,4bbb9fc22d9ea59344a59fce,Kreta Grill,48.15857886929274,11.574863984772334,Cretan Restaurant
861,48.15736092933239,11.574255284522106,31,6,5f092707e6218463e155888a,Swagatam,48.158245,11.572314,Indian Restaurant
862,48.15736092933239,11.574255284522106,31,7,4b20036df964a520222c24e3,Le Cezanne,48.15599053791752,11.576119212879378,French Restaurant
863,48.15736092933239,11.574255284522106,31,8,4c98d0044804a1438db7ee0e,Sancho Panza,48.156891041285746,11.573445675114664,Spanish Restaurant
864,48.15736092933239,11.574255284522106,31,9,4de618ff8877a085f8c02f66,Hanoi,48.15677151886504,11.574763751485579,Asian Restaurant
865,48.15736092933239,11.574255284522106,31,10,4b7d9fe9f964a52093ca2fe3,Anh-Thu,48.156239143708945,11.575981459616393,Vietnamese Restaurant
866,48.15736092933239,11.574255284522106,31,11,517ad655e4125217ca4b0041,vinpasa ristorante e bar,48.159401419090294,11.573109626770018,Italian Restaurant
867,48.15736092933239,11.574255284522106,31,12,4bd7c4705cf276b0ee099c00,Alanya Döner,48.15779111762431,11.57433807849884,Doner Restaurant
868,48.15736092933239,11.574255284522106,31,13,54e0ce9b498e602add5e80d1,Casa Sarda Stand 13,48.156674,11.573774,Italian Restaurant
869,48.15736092933239,11.574255284522106,31,14,4bdc9067fed22d7f08c358c9,Viet Fun Rwstaurant,48.157532,11.573962,Thai Restaurant
870,48.15736092933239,11.574255284522106,31,15,5776e3d338fad7362ee9796f,Bistro Schauberg,48.157647,11.574842,Greek Restaurant
871,48.15736092933239,11.574255284522106,31,16,596bd3b6a6fe4d68f15828cc,The Pham's,48.156727,11.57531,Vietnamese Restaurant
872,48.15736092933239,11.574255284522106,31,17,4ecf827bf790d070375b0f07,M5,48.157893,11.57559,Vietnamese Restaurant
873,48.15736092933239,11.574255284522106,31,18,5172d9b4e4b0480d2d10046c,Ha noi-City,48.156656,11.575533,Asian Restaurant
874,48.15736092933239,11.574255284522106,31,19,5db8068e076bd80008a9e5e7,Bar Del Giorno,48.157762,11.574497,Italian Restaurant
875,48.15736092933239,11.574255284522106,31,20,4d9a132a647d8cfa4a1a173e,Los Faroles,48.155542,11.575502,Spanish Restaurant
876,48.15736092933239,11.574255284522106,31,21,59c4f9bbe96d0c56bed56cce,Ristorante Antipasti,48.15942,11.57524,Trattoria/Osteria
877,48.15736092933239,11.574255284522106,31,22,4bd828b6dc4b952156717888,Il Gattopardo,48.15840122697254,11.57489843825292,Italian Restaurant
878,48.15736092933239,11.574255284522106,31,23,4b754e11f964a52056052ee3,Cô Be,48.15788044879806,11.575634709975336,Vietnamese Restaurant
879,48.15736092933239,11.574255284522106,31,24,4cf80490c28df04d5b68d315,Vini e Panini,48.15834892283667,11.574800365653727,Italian Restaurant
880,48.15736092933239,11.574255284522106,31,25,4f3428fde4b0935810bff163,Salò Pizzeria Bar,48.155324478147186,11.574712434392206,Italian Restaurant
881,48.15736092933239,11.574255284522106,31,26,4c88c319ed0aa1432cadabf3,Angelos,48.157617,11.575356,Italian Restaurant
882,48.15736092933239,11.574255284522106,31,27,4b8823f2f964a52091e231e3,Ristorante TIRA tardi,48.15700021163415,11.575771083769435,Italian Restaurant
883,48.15736092933239,11.574255284522106,31,28,4ade0cf4f964a520ff6921e3,La Stella,48.15637636736303,11.575981895650944,Italian Restaurant
884,48.15736092933239,11.574255284522106,31,29,53a61add498eac9e642560f2,Salzkruste,48.15526650183382,11.574742734926456,Mediterranean Restaurant
885,48.15736092933239,11.574255284522106,31,30,5fb3d8f9e3f8f129dec35e0a,Levante - Mezze Bar & Restaurant,48.15755672508587,11.5758615732193,Lebanese Restaurant
886,48.1528390706676,11.574255284522106,25,0,4b584453f964a520305028e3,Türkenhof,48.15141201239648,11.576712261292084,German Restaurant
887,48.1528390706676,11.574255284522106,25,1,4ade0ceef964a520dc6921e3,Man Fat,48.15209387052896,11.57400228301589,Chinese Restaurant
888,48.1528390706676,11.574255284522106,25,2,4ade0ceaf964a520c26921e3,Osteria Italiana,48.151427386202464,11.572119028409002,Trattoria/Osteria
889,48.1528390706676,11.574255284522106,25,3,4ade0cb7f964a520b26821e3,Schelling-Salon,48.15108412104704,11.573285246638386,Bar
890,48.1528390706676,11.574255284522106,25,4,5f259e5768e5bd060231ea26,SUPERNOVA Bar & Trattoria,48.152465,11.577217,Italian Restaurant
891,48.1528390706676,11.574255284522106,25,5,4b17cb65f964a52044c823e3,Café Altschwabing,48.15117922513129,11.572747958222624,Mediterranean Restaurant
892,48.1528390706676,11.574255284522106,25,6,549413b8498e361ed5b8894b,benko,48.15312149644306,11.575697927701315,Mediterranean Restaurant
893,48.1528390706676,11.574255284522106,25,7,564624f138fa1680c98b8747,LAX Eatery,48.15399,11.57495,New American Restaurant
894,48.1528390706676,11.574255284522106,25,8,5efcd519d687ac000a832c83,Coco Munich,48.151597,11.573856,Mediterranean Restaurant
895,48.1528390706676,11.574255284522106,25,9,5b16dc908d0a53002c8a32cd,Coco,48.15159,11.573784,Turkish Restaurant
896,48.1528390706676,11.574255284522106,25,10,528d00bd498e8b3745e86d1f,Le Refuge,48.154512898530065,11.573830084728002,French Restaurant
897,48.1528390706676,11.574255284522106,25,11,4fb6921be4b05a76e306541a,Phan,48.154335832322346,11.576303746900576,Asian Restaurant
898,48.1528390706676,11.574255284522106,25,12,54d3514a498e109f30e2fee6,la tienda eÑe,48.15377587917938,11.57504081726074,Spanish Restaurant
899,48.1528390706676,11.574255284522106,25,13,5644506c498e6808919d5be7,Hot Kitchen,48.15161895751953,11.573781967163086,Asian Restaurant
900,48.1528390706676,11.574255284522106,25,14,4cfffa742685a35df73dc690,Haus des Lächelns,48.15425594377731,11.576263716211747,Sushi Restaurant
901,48.1528390706676,11.574255284522106,25,15,573c3ec1498ef7be7274da14,Kabura,48.15156,11.57382,Afghan Restaurant
902,48.1528390706676,11.574255284522106,25,16,51b84b11498e4d7dbc6f5bd5,Restaurant Amalie,48.15232327078325,11.576324148823332,German Restaurant
903,48.1528390706676,11.574255284522106,25,17,4be9928062c0c92838ccdfd4,Rossini,48.15139013571167,11.57675079237198,Italian Restaurant
904,48.1528390706676,11.574255284522106,25,18,57f62d5b498e4499897cfd9a,Singh Döner,48.152862,11.574346,Doner Restaurant
905,48.1528390706676,11.574255284522106,25,19,4ba54710f964a52047f538e3,Fouquets,48.15365,11.575578,Caribbean Restaurant
906,48.1528390706676,11.574255284522106,25,20,4ba91d9df964a520a90c3ae3,Asia Imbiss,48.151338,11.576717,Thai Restaurant
907,48.1528390706676,11.574255284522106,25,21,4b7c3e55f964a520e3862fe3,Arte in Tavola,48.1509362651726,11.573648342661611,Italian Restaurant
908,48.1528390706676,11.574255284522106,25,22,4d94b20714a65481ad43174c,Bar dell' Osteria,48.15130504643009,11.572254014641207,Trattoria/Osteria
909,48.1528390706676,11.574255284522106,25,23,4d09f2af82aaa0933c41d3c2,Hanshe,48.15484964589886,11.575503804732861,Chinese Restaurant
910,48.1528390706676,11.574255284522106,25,24,5f8d8fea9ab4fe05785b8262,Lezizel Manti Turkish Dumplings,48.150757,11.573997,Dumpling Restaurant
911,48.1651,11.585333333333335,11,0,4b5f33d8f964a520fcac29e3,Ristorante Italy,48.165475663394375,11.586425033127728,Italian Restaurant
912,48.1651,11.585333333333335,11,1,4ade0ceef964a520dd6921e3,Seoul,48.16665739331694,11.58662398742205,Korean Restaurant
913,48.1651,11.585333333333335,11,2,4e7b8f02b99336a0cf9ca2cd,Petros,48.16346848265274,11.584526174577931,Greek Restaurant
914,48.1651,11.585333333333335,11,3,59247183237dee395926aad0,Snack Box,48.165512,11.588484,Doner Restaurant
915,48.1651,11.585333333333335,11,4,5d93b96d58ddf900082f96c4,Grist & Grain,48.163325,11.583611,Mediterranean Restaurant
916,48.1651,11.585333333333335,11,5,537e1232498e10c8947c162e,Tapa gallo,48.16469419380478,11.583112099101244,Spanish Restaurant
917,48.1651,11.585333333333335,11,6,526ab0a811d2b47087a8e97f,Petros' Esszimmer,48.163212,11.584092,Greek Restaurant
918,48.1651,11.585333333333335,11,7,5a035d87c47cf9019d7cdddb,Savoy,48.164626,11.582926,Bavarian Restaurant
919,48.1651,11.585333333333335,11,8,4c23a7b9f1272d7f80c781c5,Bibulus,48.16308071081664,11.584287594462795,Italian Restaurant
920,48.1651,11.585333333333335,11,9,4d88fc7d5ecdf04d03cba08a,Bocco,48.16307688809071,11.583949762674893,Italian Restaurant
921,48.1651,11.585333333333335,11,10,4c658cad19f3c9b60d669dff,La Braziliana,48.163161,11.586054,Brazilian Restaurant
922,48.167360929332396,11.581966281420994,1,0,523d5de5498ec597d35706b1,Vini e Cibi,48.16604370103961,11.579314321300544,Bistro
923,48.16283907066761,11.581966281420994,12,0,53998ff7498e07c134583d4a,Cochinchina,48.16100304940134,11.582133902995716,Vietnamese Restaurant
924,48.16283907066761,11.581966281420994,12,1,4b0e5888f964a520f75623e3,Kaisergarten,48.16105911757611,11.581346884427823,German Restaurant
925,48.16283907066761,11.581966281420994,12,2,56d17685cd109e7f90a2c395,Be Thai Style,48.16295428099634,11.579772233963011,Thai Restaurant
926,48.16283907066761,11.581966281420994,12,3,4e7b8f02b99336a0cf9ca2cd,Petros,48.16346848265274,11.584526174577931,Greek Restaurant
927,48.16283907066761,11.581966281420994,12,4,5d93b96d58ddf900082f96c4,Grist & Grain,48.163325,11.583611,Mediterranean Restaurant
928,48.16283907066761,11.581966281420994,12,5,537e1232498e10c8947c162e,Tapa gallo,48.16469419380478,11.583112099101244,Spanish Restaurant
929,48.16283907066761,11.581966281420994,12,6,526ab0a811d2b47087a8e97f,Petros' Esszimmer,48.163212,11.584092,Greek Restaurant
930,48.16283907066761,11.581966281420994,12,7,56cca42fcd10a09e97aa919c,Bistro Il Bocco,48.163090951861534,11.583713493400865,Italian Restaurant
931,48.16283907066761,11.581966281420994,12,8,4ba3efdbf964a520536f38e3,Chang Noi - Thai Fusion,48.16296507029797,11.579868762105718,Thai Restaurant
932,48.16283907066761,11.581966281420994,12,9,5a035d87c47cf9019d7cdddb,Savoy,48.164626,11.582926,Bavarian Restaurant
933,48.16283907066761,11.581966281420994,12,10,4c23a7b9f1272d7f80c781c5,Bibulus,48.16308071081664,11.584287594462795,Italian Restaurant
934,48.16283907066761,11.581966281420994,12,11,4d88fc7d5ecdf04d03cba08a,Bocco,48.16307688809071,11.583949762674893,Italian Restaurant
935,48.167360929332396,11.588700385245675,4,0,52dabbb3498e55cc45642acb,Khorassan,48.166457038179516,11.590600011358871,Afghan Restaurant
936,48.167360929332396,11.588700385245675,4,1,4ade0ceef964a520dd6921e3,Seoul,48.16665739331694,11.58662398742205,Korean Restaurant
937,48.167360929332396,11.588700385245675,4,2,51718ddfe4b0d5c4fd16ab8d,Salyangoz,48.16827295922552,11.58606361395526,Mediterranean Restaurant
938,48.167360929332396,11.588700385245675,4,3,59247183237dee395926aad0,Snack Box,48.165512,11.588484,Doner Restaurant
939,48.16283907066761,11.588700385245675,44,0,4e68a080483bc776307dc4f9,Condesa,48.16230548009375,11.587167964329156,Taco Place
940,48.16283907066761,11.588700385245675,44,1,57409adf498eb8c19e9ded4e,Mun Mun,48.16324584562233,11.58742424778,Thai Restaurant
941,48.16283907066761,11.588700385245675,44,2,4b8024e0f964a520365630e3,Ksara,48.162442432919114,11.588323123943846,Lebanese Restaurant
942,48.16283907066761,11.588700385245675,44,3,5ba683a16e4650002ccb2724,Kansha,48.16174,11.589717,Japanese Restaurant
943,48.16283907066761,11.588700385245675,44,4,52b1ef82498ec547e6f88b1a,My Indigo,48.161977,11.58698,Asian Restaurant
944,48.16283907066761,11.588700385245675,44,5,4c963c63533aa0938cd9cf45,Pepenero,48.16105943028359,11.590588822862978,Italian Restaurant
945,48.16283907066761,11.588700385245675,44,6,5613a50e498e4e2fecfdb6c0,Shami,48.16186000685508,11.588666955794965,Vietnamese Restaurant
946,48.16283907066761,11.588700385245675,44,7,5b5a10c2e4c459002cd211b4,Souxe Mezé,48.161288,11.588522,Greek Restaurant
947,48.16283907066761,11.588700385245675,44,8,4b3e3242f964a520729925e3,Fujikaiten,48.16203134711401,11.58656788594954,Sushi Restaurant
948,48.16283907066761,11.588700385245675,44,9,59eb8d9b12138415e8ddaa2d,Cucina Corleone,48.161842,11.59119,Italian Restaurant
949,48.16283907066761,11.588700385245675,44,10,4c1690756470a593320657d2,Waldfee,48.16234328130469,11.589892399028907,Austrian Restaurant
950,48.16283907066761,11.588700385245675,44,11,56d73c3e498e583e9e04f654,Brasserie La Bouche,48.162359,11.588883,French Restaurant
951,48.16283907066761,11.588700385245675,44,12,4ade0cf2f964a520f06921e3,Blue Nile,48.16062781855851,11.58812910204153,Ethiopian Restaurant
952,48.16283907066761,11.588700385245675,44,13,4baf75a8f964a52082013ce3,Riva Schwabing,48.16164208419982,11.58724856762704,Italian Restaurant
953,48.16283907066761,11.588700385245675,44,14,55a01450498e60f3cf429ced,Helene,48.16176636333871,11.58944469521604,Kosher Restaurant
954,48.16283907066761,11.588700385245675,44,15,4c76448f2db5236a302dbf79,Multi-Kulti,48.161886,11.589518,German Restaurant
955,48.16283907066761,11.588700385245675,44,16,4cfd2608c6cca35d0a5b9532,Tapasita cafe & bar,48.16133629709737,11.588649660330857,Tapas Restaurant
956,48.16283907066761,11.588700385245675,44,17,56081322498e5cc56b5c4ff9,Chopan,48.16155393995906,11.589291230022656,Afghan Restaurant
957,48.16283907066761,11.588700385245675,44,18,4c30c51b452620a126981f0f,The Potting Shed,48.162302536581436,11.589473242565,Bar
958,48.16283907066761,11.588700385245675,44,19,4f5e0a1ae4b03a6a13cb187c,Sushi Circle,48.16153409611824,11.58684253692627,Sushi Restaurant
959,48.16283907066761,11.588700385245675,44,20,4d5bda179ac9a093740d6a94,Wurstfuchs,48.16237884342849,11.589357594917939,German Restaurant
960,48.16283907066761,11.588700385245675,44,21,50647c32498ee7dbb8a19cc2,Kebap,48.1614911571869,11.588194370269775,Doner Restaurant
961,48.16283907066761,11.588700385245675,44,22,5331c32c498e96dbec71c228,shizoo,48.16156063524626,11.587423763610621,Japanese Restaurant
962,48.16283907066761,11.588700385245675,44,23,4bf040bfd4f70f47c0ad390f,OLIVA,48.16188528489411,11.586466916166708,Doner Restaurant
963,48.16283907066761,11.588700385245675,44,24,4f6e251de4b03b3f3a075c93,Tuk Tuk,48.16173271123168,11.589564824154674,Thai Restaurant
964,48.16283907066761,11.588700385245675,44,25,5341a44d498e770c08ccd19b,Sushibar GmbH,48.163582,11.588601,Sushi Restaurant
965,48.16283907066761,11.588700385245675,44,26,50f9ae00e4b0a8cc9053bb61,Gola & Vino,48.162226,11.58982,Italian Restaurant
966,48.16283907066761,11.588700385245675,44,27,56db2a0a498e3300358fce03,bucci bar,48.16189094276783,11.589537709680465,Italian Restaurant
967,48.16283907066761,11.588700385245675,44,28,576dd16b498e585a65c14276,Mama's Kebaphaus,48.161785,11.586747,Doner Restaurant
968,48.16283907066761,11.588700385245675,44,29,4d4c7a68e4fd6ea8a2fac361,Ipanema grill,48.161434,11.58923,Brazilian Restaurant
969,48.16283907066761,11.588700385245675,44,30,4e27215b2271e4f3075ec449,Thailand,48.16292594370405,11.588828504591458,Thai Restaurant
970,48.16283907066761,11.588700385245675,44,31,562be0d9498e46b42867eebe,Wood,48.161704,11.589601,Modern European Restaurant
971,48.16283907066761,11.588700385245675,44,32,4ade0cfef964a520326a21e3,China-Garden Restaurant,48.16260212811618,11.587576482891466,Chinese Restaurant
972,48.16283907066761,11.588700385245675,44,33,4c682092b80abe9ae04ed1e5,Orange,48.161842,11.591126,German Restaurant
973,48.16283907066761,11.588700385245675,44,34,4be5b0322468c928ca600043,BaReVe,48.16130314028314,11.590740035196198,German Restaurant
974,48.16283907066761,11.588700385245675,44,35,55cb824f498e77f18f0e686f,cenone,48.1622466,11.5894493,Italian Restaurant
975,48.16283907066761,11.588700385245675,44,36,4d546375611aa35d1c0e2939,Trattoria Donna Maria,48.161733,11.588667,Trattoria/Osteria
976,48.16283907066761,11.588700385245675,44,37,4c4976ba3013a593b978c3e2,Cafe Macchiato München,48.16230319444493,11.586187966921502,Thai Restaurant
977,48.16283907066761,11.588700385245675,44,38,4da3882563b5a35d6e1d141a,Time Out Grill + Bar (Döner),48.16265853559551,11.58798791440022,Falafel Restaurant
978,48.16283907066761,11.588700385245675,44,39,5959384e464d651c9a4252dc,Schmaus & Braus,48.16138,11.590664,Bavarian Restaurant
979,48.16283907066761,11.588700385245675,44,40,4c658cad19f3c9b60d669dff,La Braziliana,48.163161,11.586054,Brazilian Restaurant
980,48.16283907066761,11.588700385245675,44,41,5f65193c1fabcc7cbc4c27e5,Nikkei Tapas Fusion Y Vinos,48.162917,11.590442,Peruvian Restaurant
981,48.16283907066761,11.588700385245675,44,42,5f779f006437a030b1cf4b36,La Burrita,48.161996,11.589658,Mexican Restaurant
982,48.16283907066761,11.588700385245675,44,43,5fa1a51e8f1e0f2321413e82,Turkitch kebap,48.161642,11.58724,Turkish Restaurant
