,Unnamed: 0,lat_centre,long_centre,num_venues,venue_iter,venue_id,venue_name,lat_venue,long_venue,category
492,492,48.1251,11.585333333333335,23,0,4ade0c9bf964a5200e6821e3,Wirtshaus in der Au,48.128968,11.58647,German Restaurant
1097,1097,48.1451,11.570888888888891,40,39,4ade0c9ef964a520226821e3,Lenbach,48.14175365786086,11.56769589119128,Mediterranean Restaurant
127,127,48.0951,11.542000000000002,4,3,4ade0c9ff964a520296821e3,Asam-Schlössl,48.09523728367195,11.542571602877224,German Restaurant
995,995,48.1451,11.542000000000002,18,5,4ade0ca3f964a5203e6821e3,Pappasito's,48.1436827160309,11.53636872768402,Mexican Restaurant
3,3,48.0651,11.542000000000002,2,1,4ade0caaf964a520646821e3,Grünwalder Einkehr,48.06489142146514,11.543946494021736,Bavarian Restaurant
2,2,48.0651,11.542000000000002,2,0,4ade0cabf964a5206a6821e3,Waldwirtschaft Großhesselohe,48.06706036226372,11.539370119571686,Bavarian Restaurant
1183,1183,48.1551,11.527555555555557,24,0,4ade0cacf964a520716821e3,Gasthaus Jagdschlössl,48.15315236628405,11.533591659941733,German Restaurant
1329,1329,48.1551,11.585333333333335,33,2,4ade0cb4f964a5209d6821e3,Don Luca,48.15710982077297,11.584710858696413,Mexican Restaurant
866,866,48.1351,11.599777777777776,37,17,4ade0cb4f964a520a06821e3,Nomiya,48.131653113488255,11.598525848487508,Sushi Restaurant
1067,1067,48.1451,11.570888888888891,40,9,4ade0cb9f964a520bd6821e3,Cyclo,48.14878280448905,11.572155040855145,Vietnamese Restaurant
1388,1388,48.1651,11.527555555555557,8,2,4ade0ce6f964a520ab6921e3,Augustiner am Dante,48.16780961532643,11.527032355668759,German Restaurant
1141,1141,48.1451,11.614222222222226,6,1,4ade0ce6f964a520ae6921e3,Acquarello,48.142177778388536,11.613621976881864,Italian Restaurant
782,782,48.1351,11.570888888888891,50,33,4ade0ce8f964a520b96921e3,Bratwurstherzl,48.13522652016897,11.577208912248404,German Restaurant
885,885,48.1351,11.599777777777776,37,36,4ade0ce8f964a520bb6921e3,Faubourg (Le),48.134883,11.598272999999999,French Restaurant
878,878,48.1351,11.599777777777776,37,29,4ade0ce9f964a520be6921e3,Rue des Halles,48.13314869034614,11.59605320632182,French Restaurant
1082,1082,48.1451,11.570888888888891,40,24,4ade0cecf964a520ce6921e3,Tokami,48.148410965654925,11.573742530088069,Japanese Restaurant
2342,644,48.13283907066761,11.581968249183744,32,7,4ade0cedf964a520d46921e3,Ganga Restaurant,48.131807,11.579824,Indian Restaurant
1211,1211,48.1551,11.542000000000002,37,4,4ade0ceef964a520de6921e3,Shiraj,48.15790163905846,11.544899230393414,Indian Restaurant
2543,845,48.1528390706676,11.567522493255673,15,5,4ade0ceff964a520df6921e3,Shiva,48.15220411181876,11.565125388196275,Indian Restaurant
482,482,48.1251,11.570888888888891,38,28,4ade0ceff964a520e16921e3,Taj Mahal,48.12418358506761,11.56807709535551,Indian Restaurant
278,278,48.1151,11.570888888888891,17,1,4ade0cf0f964a520e76921e3,Lucullus,48.117473782689636,11.570439826602463,Greek Restaurant
1340,1340,48.1551,11.585333333333335,33,13,4ade0cf1f964a520ef6921e3,Arabesk,48.154819,11.585655000000001,Middle Eastern Restaurant
2649,951,48.16283907066761,11.588700385245676,44,12,4ade0cf2f964a520f06921e3,Blue Nile,48.16062781855851,11.588129102041528,Ethiopian Restaurant
1908,210,48.1373609293324,11.545365084149589,24,1,4ade0cf3f964a520f96921e3,Augustiner Bräustuben,48.13940966666645,11.545401780138445,Bavarian Restaurant
345,345,48.1151,11.628666666666668,4,0,4ade0cf3f964a520fa6921e3,Kleines Brauhaus Dicker Mann,48.118441522697275,11.632931984811846,German Restaurant
2581,883,48.15736092933239,11.574255284522106,31,28,4ade0cf4f964a520ff6921e3,La Stella,48.15637636736303,11.575981895650944,Italian Restaurant
1217,1217,48.1551,11.542000000000002,37,10,4ade0cf6f964a520076a21e3,Ristorante Ischia Pulcinella,48.151794221336786,11.541663790168409,Italian Restaurant
2423,725,48.14736092933239,11.553078704732062,12,3,4ade0cf7f964a5200b6a21e3,Nymphenburger Hof,48.148711,11.5523091,German Restaurant
1251,1251,48.1551,11.556444444444445,33,7,4ade0cf8f964a520116a21e3,Il Borgo,48.15761777777653,11.560623150467748,Italian Restaurant
2471,773,48.14283907066761,11.559810184156827,50,0,4ade0cfbf964a520256a21e3,Sophia's,48.142795,11.562438,Italian Restaurant
2331,633,48.1373609293324,11.581968249183744,50,46,4ade0cfcf964a5202b6a21e3,Famiglia (La),48.13551610427906,11.581319883760314,Indian Restaurant
1438,1438,48.1651,11.570888888888891,43,32,4ade0cfdf964a5202c6a21e3,Sheger,48.16300213824929,11.57587665132822,African Restaurant
1265,1265,48.1551,11.556444444444445,33,21,4ade0cfdf964a520306a21e3,Asia Mama Wok,48.15577860526784,11.561762375005047,Thai Restaurant
1638,1638,48.1951,11.513111111111114,1,0,4ade0d06f964a5205a6a21e3,Rattlesnake Saloon,48.19918813528391,11.5112837680151,American Restaurant
275,275,48.1151,11.556444444444445,3,1,4ade0d06f964a5205d6a21e3,Wirtshaus zum Isartal,48.11245663900971,11.553653376539893,German Restaurant
2465,767,48.14736092933239,11.559810184156827,31,25,4af2a649f964a52023e821e3,Goldoni Ristorante,48.147585746558036,11.561953471647678,Italian Restaurant
1412,1412,48.1651,11.570888888888891,43,6,4af2aa07f964a52030e821e3,Bar Restaurant Lebenslust,48.16314012446856,11.569313622139115,Italian Restaurant
1409,1409,48.1651,11.570888888888891,43,3,4af2aa97f964a52032e821e3,Tacos y Tequila,48.162715730474936,11.571701276826241,Mexican Restaurant
1124,1124,48.1451,11.599777777777776,19,3,4af9af0cf964a520501322e3,Catwalk,48.149189157206,11.599974744709849,German Restaurant
128,128,48.0951,11.556444444444445,5,0,4b005d20f964a520543d22e3,Harlachinger Einkehr,48.09587,11.55788,German Restaurant
1385,1385,48.1651,11.513111111111114,1,0,4b0666b8f964a52084eb22e3,Poseidon,48.163669033557355,11.507034113097387,Greek Restaurant
473,473,48.1251,11.570888888888891,38,19,4b06b869f964a52015ef22e3,La Bouche,48.12867679014089,11.569512842479375,French Restaurant
2361,663,48.13283907066761,11.581968249183744,32,26,4b0835d0f964a520590623e3,Wok&Roll,48.13241638431564,11.584712853854365,Chinese Restaurant
463,463,48.1251,11.570888888888891,38,9,4b0a6883f964a520cf2323e3,Hey Luigi!,48.128838,11.568269,Italian Restaurant
2392,694,48.13283907066761,11.588698417482927,23,16,4b0b00d9f964a520672b23e3,gast essen & trinken,48.13110075137311,11.590539022272381,Italian Restaurant
2622,924,48.16283907066761,11.581966281420994,12,1,4b0e5888f964a520f75623e3,Kaisergarten,48.161059117576116,11.581346884427823,German Restaurant
2694,13,48.1317086060014,11.57257150504794,6,4,4b1179bcf964a5205d7d23e3,Vina Haus (Sushi & Asia Food),48.131040073781996,11.571964741734574,Asian Restaurant
2464,766,48.14736092933239,11.559810184156827,31,24,4b13a8bdf964a520489823e3,Osaka Sky,48.14559190501018,11.560628845921974,Asian Restaurant
635,635,48.1351,11.527555555555557,28,14,4b13ae5ef964a520699823e3,Umeshu Sushibar,48.137232999952275,11.523225170991532,Sushi Restaurant
824,824,48.1351,11.585333333333335,50,25,4b13c8f0f964a520239923e3,L'Atelier Art & Vin,48.135037623123814,11.580250944877065,French Restaurant
468,468,48.1251,11.570888888888891,38,14,4b1589b7f964a52063ae23e3,Kirschbluete,48.12792025693404,11.57312035128659,Asian Restaurant
171,171,48.1051,11.542000000000002,12,2,4b195d7cf964a520fbdb23e3,Kyprios,48.1019832372013,11.543869711215393,Greek Restaurant
54,54,48.0751,11.657555555555556,6,4,4b1964b3f964a5208ddc23e3,"Ristorante ""La Ciacolada""",48.07571117587675,11.657146588268855,Italian Restaurant
231,231,48.1151,11.484222222222225,8,0,4b1a298df964a520e4e723e3,Gasthaus zum Erdinger Weißbräu,48.11280435344757,11.478513954374215,German Restaurant
2074,376,48.1373609293324,11.5675238047393,50,1,4b1bee63f964a5202dff23e3,China Express,48.137987151831,11.56464148428957,Chinese Restaurant
337,337,48.1151,11.614222222222226,8,0,4b1d6d91f964a520651024e3,China-Restaurant Xin Yun,48.11193659704485,11.618172299766655,Chinese Restaurant
340,340,48.1151,11.614222222222226,8,3,4b1e8214f964a520bf1a24e3,Ristorante Da Pino,48.111896,11.618172999999999,Italian Restaurant
850,850,48.1351,11.599777777777776,37,1,4b1ff4e2f964a5204e2b24e3,Preysinggarten,48.13240943743253,11.599416796070285,German Restaurant
338,338,48.1151,11.614222222222226,8,1,4b211123f964a5208d3624e3,"Gaststätte ""Alter Wirt""",48.11473894312502,11.614436455050598,German Restaurant
1419,1419,48.1651,11.570888888888891,43,13,4b2235bef964a5206a4424e3,Ristorante Nabucco,48.164043898152286,11.56924051541323,Italian Restaurant
1414,1414,48.1651,11.570888888888891,43,8,4b23c64df964a520715924e3,Ö Eins,48.162543,11.573398,Austrian Restaurant
1235,1235,48.1551,11.542000000000002,37,28,4b262736f964a520ca7824e3,Leibspeis,48.15076380800095,11.541911129412847,German Restaurant
2224,526,48.13283907066761,11.57425397303848,50,13,4b269677f964a520f77d24e3,Wirtshaus zum Straubinger,48.133759999999995,11.574418,Bavarian Restaurant
465,465,48.1251,11.570888888888891,38,11,4b27d439f964a520c08a24e3,Humboldt's,48.121035570209294,11.571636219208882,German Restaurant
1099,1099,48.1451,11.585333333333335,23,1,4b27f300f964a520c68c24e3,Liebighof im Lehel,48.14164,11.5864696,German Restaurant
2305,607,48.1373609293324,11.581968249183744,50,20,4b28d38af964a5207e9524e3,Shoya,48.137382936749525,11.579354950939072,Sushi Restaurant
2344,646,48.13283907066761,11.581968249183744,32,9,4b291c67f964a520ea9824e3,Königsquelle,48.13203729441726,11.58028531763387,German Restaurant
2388,690,48.13283907066761,11.588698417482927,23,12,4b294a61f964a520669c24e3,Sofra,48.13167384730868,11.58903380098111,Eastern European Restaurant
1148,1148,48.1451,11.628666666666668,3,2,4b2b919ef964a520b5b724e3,Burda Food.net Kitchen,48.148175,11.63007,German Restaurant
1140,1140,48.1451,11.614222222222226,6,0,4b2bd097f964a52092bb24e3,Vapiano,48.14882742580922,11.616661201476989,Italian Restaurant
807,807,48.1351,11.585333333333335,50,8,4b2f489bf964a52099ea24e3,Sausalitos,48.13585768,11.57886061,Mexican Restaurant
1085,1085,48.1451,11.570888888888891,40,27,4b2f69e1f964a52042eb24e3,Thai Thai,48.14701467343397,11.576626146838555,Thai Restaurant
456,456,48.1251,11.570888888888891,38,2,4b2ff74ef964a52089f324e3,sushi + soul,48.12834377091918,11.570716866702654,Sushi Restaurant
99,99,48.0951,11.412,3,1,4b328f9df964a520a70e25e3,Ristorante da Rosario,48.09776615753492,11.413182621976961,Italian Restaurant
881,881,48.1351,11.599777777777776,37,32,4b349f7ef964a520142825e3,Pinguin,48.135649257980525,11.598450607604724,Italian Restaurant
260,260,48.1151,11.542000000000002,15,1,4b34d4b6f964a520bd2825e3,Wirtshaus Valley's,48.11717819951239,11.545085262525179,German Restaurant
1374,1374,48.1651,11.455333333333336,5,0,4b364b24f964a520533225e3,Zum Alten Wirt,48.16877823195569,11.457850564860582,German Restaurant
2434,736,48.14283907066761,11.553078704732062,8,2,4b38f170f964a520b85225e3,Vapiano,48.14222511289643,11.550908774826098,Italian Restaurant
76,76,48.0851,11.542000000000002,2,1,4b40c041f964a520a7ba25e3,Gasthof Hinterbrühl,48.08607149428874,11.540539354821625,German Restaurant
147,147,48.1051,11.412,4,0,4b43b767f964a52077e725e3,Heide Volm,48.10425506162289,11.414352773287527,Bavarian Restaurant
1590,1590,48.1851,11.570888888888891,16,0,4b45ddebf964a520601126e3,Restaurant Dionysos,48.186539129474475,11.5726697428209,Greek Restaurant
1430,1430,48.1651,11.570888888888891,43,24,4b484380f964a520cd4a26e3,El Patio,48.16285245629153,11.571744304679283,Mexican Restaurant
92,92,48.0851,11.643111111111114,14,10,4b4ccfa8f964a520d2bf26e3,"Uni der Bundeswehr München, G33",48.081472,11.645173,German Restaurant
1065,1065,48.1451,11.570888888888891,40,7,4b4db542f964a52010d626e3,Sangeet,48.14308197598184,11.575388983225329,Indian Restaurant
2748,67,48.13849139399859,11.56149214476223,12,8,4b4f0565f964a520c2f826e3,Restaurant Stefans,48.13817295503912,11.562100925349386,German Restaurant
1665,1665,48.1951,11.643111111111114,12,5,4b504b4ef964a520f11f27e3,Cantas Imbiß,48.19330262745414,11.641167998313904,Mediterranean Restaurant
797,797,48.1351,11.570888888888891,50,48,4b505456f964a520a12027e3,Sushi Maggie,48.13499219984418,11.577522922125613,Sushi Restaurant
455,455,48.1251,11.570888888888891,38,1,4b50c339f964a5205b3127e3,Rumpler,48.12654403552626,11.568751938024475,German Restaurant
994,994,48.1451,11.542000000000002,18,4,4b520517f964a520c06127e3,Wassermann Neuhausen,48.1484224231272,11.542910718225494,German Restaurant
21,21,48.0651,11.657555555555556,9,0,4b543e12f964a5205db527e3,Bella Roma,48.06798401857961,11.658719160943509,Italian Restaurant
377,377,48.1251,11.542000000000002,31,4,4b56ece4f964a5207a1f28e3,Jasmin,48.123771694133126,11.547593095365839,Asian Restaurant
2287,589,48.1373609293324,11.581968249183744,50,2,4b56f6eef964a520ec2028e3,Augustiner am Platzl,48.13763509797162,11.579524291168592,German Restaurant
1244,1244,48.1551,11.556444444444445,33,0,4b574328f964a520062e28e3,Görreshof,48.15617242768479,11.561936623190073,Bavarian Restaurant
24,24,48.0651,11.657555555555556,9,3,4b5747d3f964a520122f28e3,Chop Stick Running Sushi,48.062931661921816,11.662555843840936,Sushi Restaurant
2584,886,48.1528390706676,11.574255284522106,25,0,4b584453f964a520305028e3,Türkenhof,48.15141201239648,11.576712261292085,German Restaurant
1641,1641,48.1951,11.527555555555557,3,2,4b589badf964a520fc6028e3,Da Salvatore,48.19500982761383,11.534104943275453,Italian Restaurant
851,851,48.1351,11.599777777777776,37,2,4b5a0b21f964a5209fa928e3,Zum Kloster,48.13228746232308,11.600609923932845,German Restaurant
2190,492,48.1373609293324,11.57425397303848,48,27,4b5ada02f964a52065d728e3,Sasou,48.136982,11.574658,Sushi Restaurant
324,324,48.1151,11.599777777777776,13,0,4b5b53b9f964a520dff428e3,Ciao Ristorante Pizzeria,48.119327,11.59993,Italian Restaurant
2138,440,48.13283907066761,11.5675238047393,40,15,4b5df955f964a520f07629e3,Der Tannenbaum,48.134961,11.567418,German Restaurant
316,316,48.1151,11.585333333333335,30,22,4b5e08cef964a520377a29e3,latichicos,48.11852396367949,11.581172115532631,Tapas Restaurant
1832,134,48.1273609293324,11.596413348833194,46,43,4b5f2c22f964a520d8aa29e3,Simplicissimus,48.12675980507606,11.594543950334618,German Restaurant
2374,676,48.1373609293324,11.588698417482927,9,7,4b5f3f79f964a520ddaf29e3,El Gordito Loco,48.1391165,11.5874015,Mexican Restaurant
1208,1208,48.1551,11.542000000000002,37,1,4b5f4a0bf964a52028b229e3,Neuhauser Augustiner,48.159145928747435,11.540722081928518,German Restaurant
2839,158,48.136230464666205,11.580285633015551,14,13,4b602842f964a520ced729e3,Mandarin Restaurant,48.13695981619735,11.579690582656115,Chinese Restaurant
1793,95,48.1273609293324,11.596413348833194,46,4,4b62cbe9f964a52013532ae3,Bella Italia,48.128522887419365,11.594208959910633,Italian Restaurant
1347,1347,48.1551,11.585333333333335,33,20,4b62ccbaf964a52032532ae3,Münchner Suppenküche,48.157996000000004,11.584961,German Restaurant
1098,1098,48.1451,11.585333333333335,23,0,4b6332b2f964a520fd692ae3,Al Pacino,48.145641999999995,11.58269,Italian Restaurant
151,151,48.1051,11.426444444444444,3,0,4b648ac9f964a5202ebc2ae3,Pe. Es. Kottmeier,48.105517833420066,11.423122285041801,German Restaurant
1262,1262,48.1551,11.556444444444445,33,18,4b65b441f964a520a3fa2ae3,Caramba Cocina latina,48.152581983209906,11.561874347151814,Latin American Restaurant
228,228,48.1151,11.455333333333336,3,0,4b65e10af964a520af052be3,Sportiva,48.11383572836432,11.451170337748811,Italian Restaurant
98,98,48.0951,11.412,3,0,4b65e1e1f964a520f4052be3,Kraillinger Brauerei,48.096035768486225,11.411188447531408,German Restaurant
1333,1333,48.1551,11.585333333333335,33,6,4b66bd34f964a52035292be3,Bento Box,48.15682620529059,11.584561979090074,Japanese Restaurant
936,936,48.1451,11.455333333333336,17,0,4b66c9c0f964a520e02a2be3,Schweizer Hof,48.1440382646641,11.458141253157933,German Restaurant
1763,65,48.1273609293324,11.559808873389029,37,32,4b671da1f964a520aa3b2be3,Shere Punjab,48.125617999999996,11.560912,Indian Restaurant
857,857,48.1351,11.599777777777776,37,8,4b6819c8f964a5203c672be3,Satluj,48.13152189730805,11.598760249700325,Indian Restaurant
2354,656,48.13283907066761,11.581968249183744,32,19,4b685f27f964a52081742be3,RICE Restaurant,48.131969,11.5804707,Vietnamese Restaurant
182,182,48.1051,11.570888888888891,5,0,4b688e34f964a520a67f2be3,Poseidon,48.107405013389126,11.574726767436026,Greek Restaurant
907,907,48.1351,11.614222222222226,23,21,4b6ad127f964a520b4e12be3,Ristorante Gattopardo,48.136519661162474,11.608699858188631,Italian Restaurant
980,980,48.1451,11.498666666666667,12,10,4b6b19cbf964a520d9f22be3,Hofbräu im Sportpark,48.14473986625672,11.499563455581665,German Restaurant
898,898,48.1351,11.614222222222226,23,12,4b6c0146f964a520391f2ce3,Nam Viet,48.13791128746837,11.615230139686332,Sushi Restaurant
701,701,48.1351,11.556444444444445,50,2,4b6c1618f964a5201c232ce3,Asia Today,48.13877675175878,11.556050922259304,Asian Restaurant
1332,1332,48.1551,11.585333333333335,33,5,4b6c6234f964a52085352ce3,Georgenhof,48.15474570959424,11.57906771954922,German Restaurant
1187,1187,48.1551,11.527555555555557,24,4,4b6c9228f964a520eb432ce3,Großwirt,48.15448,11.530032,Bavarian Restaurant
606,606,48.1351,11.498666666666667,7,0,4b6c9797f964a52034452ce3,Dillinger,48.13502527092522,11.499340545838209,American Restaurant
1121,1121,48.1451,11.599777777777776,19,0,4b6eca88f964a520b5ca2ce3,Leib & Seele,48.14561867458947,11.59365576910018,German Restaurant
152,152,48.1051,11.426444444444444,3,1,4b705197f964a5204c122de3,Bräustüberl,48.10324992374067,11.421996494511955,German Restaurant
1334,1334,48.1551,11.585333333333335,33,7,4b71ae24f964a520ae552de3,Piatsa,48.15874757809692,11.585115180419093,Greek Restaurant
1184,1184,48.1551,11.527555555555557,24,1,4b71c310f964a520f25a2de3,Romans,48.157321894755896,11.529259806303894,Italian Restaurant
2088,390,48.1373609293324,11.5675238047393,50,15,4b72a796f964a52050822de3,Kaiden Asia,48.137479744375604,11.570145288846021,Sushi Restaurant
494,494,48.1251,11.585333333333335,23,2,4b744ea5f964a52017d42de3,keko,48.12572300747345,11.582540597669745,Turkish Restaurant
1410,1410,48.1651,11.570888888888891,43,4,4b747cc7f964a52083df2de3,Elia,48.163070000000005,11.57162,Greek Restaurant
2133,435,48.13283907066761,11.5675238047393,40,10,4b7484b6f964a52078e12de3,Sila,48.133972,11.5657215,Turkish Restaurant
58,58,48.0751,11.672,3,2,4b75464ff964a520ef032ee3,Happy Asia,48.07530820369721,11.669604778289795,Asian Restaurant
2576,878,48.15736092933239,11.574255284522106,31,23,4b754e11f964a52056052ee3,Cô Be,48.15788044879807,11.575634709975336,Vietnamese Restaurant
1628,1628,48.1851,11.657555555555556,3,1,4b769bbdf964a5203c542ee3,MACE Restaurant,48.188845736670295,11.654285745532205,Mediterranean Restaurant
469,469,48.1251,11.570888888888891,38,15,4b773006f964a52017862ee3,Glockenbachstüberl,48.125732,11.567063000000001,German Restaurant
1071,1071,48.1451,11.570888888888891,40,13,4b77f504f964a5201fb02ee3,Brasserie Oskar Maria,48.141989933876296,11.575085486306719,French Restaurant
1556,1556,48.1751,11.628666666666668,3,0,4b780457f964a52036b22ee3,Sankt Emmeramsmühle,48.17587060260861,11.627085449368856,German Restaurant
1888,190,48.1373609293324,11.538634915850412,12,1,4b794083f964a520d8f02ee3,Royal India Restaurant,48.138261690272934,11.536046461940591,Indian Restaurant
1613,1613,48.1851,11.585333333333335,11,7,4b7bdc81f964a52018712fe3,Bistro Lange,48.18830429768903,11.587167833287785,German Restaurant
2605,907,48.1528390706676,11.574255284522106,25,21,4b7c3e55f964a520e3862fe3,Arte in Tavola,48.150936265172604,11.573648342661615,Italian Restaurant
1346,1346,48.1551,11.585333333333335,33,19,4b7c44cdf964a52088882fe3,Formula 1,48.154095,11.582489,Italian Restaurant
2372,674,48.1373609293324,11.588698417482927,9,5,4b7c49cdf964a520f1892fe3,Pequeno - Cantina y Bar Mexicano,48.139471340653294,11.587797404511395,Mexican Restaurant
1401,1401,48.1651,11.556444444444445,5,0,4b7d3740f964a52025b32fe3,Hofbräu am Oberwiesenfeld,48.16625579900607,11.562108403507795,German Restaurant
1563,1563,48.1851,11.513111111111114,8,0,4b7dc24cf964a520dcd22fe3,Alter Wirt Moosach,48.181014040905026,11.512222185157,German Restaurant
2535,837,48.15736092933239,11.567522493255673,9,6,4b7dcb16f964a52001d52fe3,Zur Schandgeige,48.159047376313865,11.568426512676703,German Restaurant
213,213,48.1051,11.643111111111114,10,9,4b82695cf964a520f6d130e3,Haiky im PEP,48.101019518439905,11.644825426163044,Asian Restaurant
1762,64,48.1273609293324,11.559808873389029,37,31,4b82b973f964a5208ee030e3,Gaststätte Zunfthaus,48.126168316543385,11.562571491674953,Austrian Restaurant
375,375,48.1251,11.542000000000002,31,2,4b83aafcf964a520430c31e3,Ayurveda,48.12827604810904,11.538854770681045,Indian Restaurant
304,304,48.1151,11.585333333333335,30,10,4b866caaf964a520878931e3,Bistro Isot,48.11725466605808,11.58175165911794,Turkish Restaurant
412,412,48.1251,11.556444444444445,50,8,4b867243f964a520838a31e3,Lindwurmstüberl,48.128536295933685,11.556023474206546,German Restaurant
1693,1693,48.2151,11.542000000000002,5,3,4b86edabf964a5206ea631e3,Alt Athen,48.21413220839733,11.541018595281495,Greek Restaurant
1163,1163,48.1551,11.455333333333336,2,1,4b87fc2af964a520ebd631e3,Jagdschloss,48.15518465877846,11.452805374921287,German Restaurant
2580,882,48.15736092933239,11.574255284522106,31,27,4b8823f2f964a52091e231e3,Ristorante TIRA tardi,48.15700021163415,11.575771083769435,Italian Restaurant
625,625,48.1351,11.527555555555557,28,4,4b882432f964a520a5e231e3,Red Pepper,48.13859190902995,11.531123798979038,Mexican Restaurant
491,491,48.1251,11.570888888888891,38,37,4b88fcf5f964a520e71632e3,Il Piccolo Principe,48.12384723656044,11.565487977444414,Italian Restaurant
224,224,48.1151,11.440888888888885,4,0,4b8914cef964a520b51b32e3,Wilder Hirsch,48.1172950012309,11.438079748397124,German Restaurant
1153,1153,48.1451,11.643111111111114,5,4,4b892b15f964a520952032e3,Alter Kernhof,48.14647858872027,11.639503067322702,German Restaurant
1201,1201,48.1551,11.527555555555557,24,18,4b899740f964a5206e4432e3,Ristorante L'Acetaia,48.158200826714,11.527263008739768,Italian Restaurant
987,987,48.1451,11.527555555555557,4,1,4b8aa2e0f964a520a37632e3,Yak & Yeti,48.146614150188675,11.533198594019096,Tibetan Restaurant
862,862,48.1351,11.599777777777776,37,13,4b8aba7ff964a520e17c32e3,Asia Küche,48.131443370101344,11.596893667843045,Asian Restaurant
773,773,48.1351,11.570888888888891,50,24,4b8bb1b6f964a52051a732e3,Sababa,48.13474777433372,11.577250105813544,Falafel Restaurant
1084,1084,48.1451,11.570888888888891,40,26,4b8c0fcdf964a5208fbb32e3,Pietra Piccina,48.14279474,11.573857,Italian Restaurant
1088,1088,48.1451,11.570888888888891,40,30,4b8c251af964a52090c032e3,Deeba,48.14922348547704,11.572049383631132,Middle Eastern Restaurant
572,572,48.1251,11.628666666666668,11,0,4b8cfc3bf964a52037e332e3,Schneider Bräuhaus,48.12760709284682,11.629952922397695,Bavarian Restaurant
71,71,48.0851,11.527555555555557,4,0,4b8d8241f964a520f2ff32e3,Gasthof zum Hirschen,48.0810111845796,11.526490421025068,German Restaurant
204,204,48.1051,11.643111111111114,10,0,4b8e45b0f964a5209b1d33e3,An Minh,48.10106534382528,11.645857798008896,Asian Restaurant
1517,1517,48.1751,11.498666666666667,2,1,4b8faa3cf964a520145c33e3,Neue Fasanerie,48.1730339053298,11.49336638399103,German Restaurant
200,200,48.1051,11.628666666666668,4,0,4b92a11ff964a520820b34e3,Der Hufnagel,48.101296677033346,11.628676281156926,German Restaurant
1364,1364,48.1551,11.614222222222226,6,4,4b936861f964a520ee4234e3,Restaurant Zen,48.15249489528728,11.617008165764165,Asian Restaurant
1672,1672,48.1951,11.672,1,0,4b93b85bf964a520734e34e3,Gasthof Feringasee,48.19210320838411,11.674254823941949,German Restaurant
896,896,48.1351,11.614222222222226,23,10,4b94fc58f964a520798a34e3,Shiva,48.138123,11.617909,Indian Restaurant
2201,503,48.1373609293324,11.57425397303848,48,38,4b9500b8f964a520168b34e3,Restaurant Dallmayr,48.13848880828274,11.57679129402809,German Restaurant
595,595,48.1251,11.672,9,1,4b9534dcf964a520049534e3,Gasthof Obermaier,48.12161927715953,11.67023596226242,German Restaurant
1007,1007,48.1451,11.542000000000002,18,17,4b954e97f964a520769b34e3,Alte Post,48.145097,11.545574,German Restaurant
64,64,48.0851,11.484222222222225,8,5,4b96c30cf964a520e8e234e3,Ristorante La Molisana München,48.08365496,11.48075419,Italian Restaurant
1756,58,48.1273609293324,11.559808873389029,37,25,4b978b38f964a5201e0835e3,L'emporio,48.12671982131759,11.56136343572359,Italian Restaurant
1149,1149,48.1451,11.643111111111114,5,0,4b97f537f964a520372235e3,Champor,48.14599031739552,11.637576739350333,Malay Restaurant
343,343,48.1151,11.614222222222226,8,6,4b98834cf964a520504535e3,Ristorante Girasole,48.11194157323534,11.618156576294126,Italian Restaurant
2312,614,48.1373609293324,11.581968249183744,50,27,4b9a25e4f964a52052a135e3,Due Passi,48.13719399325003,11.578709453109179,Italian Restaurant
621,621,48.1351,11.527555555555557,28,0,4b9b8acff964a5201d0e36e3,Villa Flora,48.131501750094756,11.53014639179059,Mediterranean Restaurant
2556,858,48.15736092933239,11.574255284522106,31,3,4b9d271ff964a520629436e3,Koriander Vietnam Restaurant,48.159212869232256,11.574917174956472,Vietnamese Restaurant
1111,1111,48.1451,11.585333333333335,23,13,4b9fb230f964a520d33537e3,Cupido,48.14291596716443,11.586819522854002,Italian Restaurant
2397,699,48.13283907066761,11.588698417482927,23,21,4b9fcf00f964a520a14037e3,Ichi Ban,48.13159658997466,11.5886011635945,Asian Restaurant
2469,771,48.14736092933239,11.559810184156827,31,29,4ba0dd49f964a520118337e3,Campanula,48.149186433618965,11.561759262382418,Japanese Restaurant
73,73,48.0851,11.527555555555557,4,2,4ba22169f964a520e3dd37e3,Halong Bay,48.08103589074193,11.528354874816518,Asian Restaurant
597,597,48.1251,11.672,9,3,4ba23191f964a520d9e237e3,La Dolce Vita,48.12649764992325,11.673596269647074,Italian Restaurant
341,341,48.1151,11.614222222222226,8,4,4ba27fc9f964a520a5fe37e3,Jackie Chan China Restaurant,48.116250167997606,11.61213724647652,Asian Restaurant
816,816,48.1351,11.585333333333335,50,17,4ba28e2ef964a520f10338e3,Garam Masala,48.13547955942254,11.57898019743561,Indian Restaurant
75,75,48.0851,11.542000000000002,2,0,4ba3aa6bf964a520d95138e3,Menterschwaige,48.082126044503,11.545444313354876,German Restaurant
129,129,48.0951,11.556444444444445,5,1,4ba3bca8f964a520db5938e3,Bella Roma,48.0906476861356,11.557055927737029,Italian Restaurant
2603,905,48.1528390706676,11.574255284522106,25,19,4ba54710f964a52047f538e3,Fouquets,48.15365,11.575578,Caribbean Restaurant
286,286,48.1151,11.570888888888891,17,9,4ba684def964a5205b5a39e3,Braeuwastl,48.11216752086772,11.56976536437118,German Restaurant
328,328,48.1151,11.599777777777776,13,4,4ba7bd7ff964a520f1ae39e3,Ha Noi Quan,48.113885697064816,11.602656062611587,Vietnamese Restaurant
35,35,48.0751,11.484222222222225,1,0,4ba7dbb6f964a5207fb939e3,Poseidon im Forst-Gasthaus Hubertus,48.074205619646214,11.490598269101842,Greek Restaurant
34,34,48.0751,11.412,1,0,4ba8de4ff964a5208af539e3,Forsthaus Kasten,48.075479759903715,11.416894877322182,German Restaurant
2604,906,48.1528390706676,11.574255284522106,25,20,4ba91d9df964a520a90c3ae3,Asia Imbiss,48.151338,11.576717,Thai Restaurant
1525,1525,48.1751,11.556444444444445,5,1,4baa1da3f964a520da4b3ae3,EssZimmer,48.177162601838255,11.556634234346822,French Restaurant
1615,1615,48.1851,11.585333333333335,11,9,4bab69a1f964a5206ba73ae3,Leicht&Sinn,48.1872734159289,11.584283533249787,German Restaurant
2378,680,48.13283907066761,11.588698417482927,23,2,4bac756af964a520fcf53ae3,Ver o peso,48.13147904519486,11.589781024789099,Brazilian Restaurant
355,355,48.1151,11.672,3,1,4bad0c12f964a52014283be3,Royal Garden China Restaurant & Bar,48.11261126569786,11.676843876827002,Chinese Restaurant
175,175,48.1051,11.542000000000002,12,6,4bae6981f964a520ecae3be3,Asia Küche,48.10083985806485,11.54062271118164,Asian Restaurant
1156,1156,48.1551,11.412,3,0,4bae76e9f964a520bcb53be3,"Restaurant Apollon in ""Die Lüfte""",48.15395983100167,11.413955054850199,Greek Restaurant
1773,75,48.12283907066761,11.559808873389029,10,5,4baf861cf964a52014073ce3,Cihans,48.121023,11.561361,Turkish Restaurant
472,472,48.1251,11.570888888888891,38,18,4bafa726f964a5200e143ce3,Maharani,48.12341977329773,11.566471692008898,Indian Restaurant
2771,90,48.13849139399859,11.565841188571104,14,0,4bb08a9df964a520d64a3ce3,Brezelina,48.13918965815311,11.565120509806988,German Restaurant
2750,69,48.13849139399859,11.56149214476223,12,10,4bb0cdc5f964a520715e3ce3,Wok'n Walk Streetkitchen,48.13903308164871,11.561336134849624,Asian Restaurant
387,387,48.1251,11.542000000000002,31,14,4bb0fb16f964a520e86f3ce3,Thuy,48.12288248665482,11.546263483251344,Vietnamese Restaurant
97,97,48.0851,11.672,2,1,4bb27084a32876b0aa9900fe,Waldmeister,48.08553683249397,11.674448847770693,German Restaurant
1427,1427,48.1651,11.570888888888891,43,21,4bb3317f4019a593e09a37b8,Mai-Asia Sushi & Wok,48.160992249898854,11.569587315806872,Asian Restaurant
1673,1673,48.2051,11.412,1,0,4bb5d82e46d4a593325dc5c0,Asia City,48.20594339417428,11.405415854969654,Sushi Restaurant
284,284,48.1151,11.570888888888891,17,7,4bb7397b2ea1952109a6ac2f,Kastaniengarten,48.113582099447285,11.576862882496696,German Restaurant
2059,361,48.1351,11.570888888888891,37,23,4bba5d7953649c7456f248fb,Bar Due,48.13443982850182,11.570611484438134,Italian Restaurant
1376,1376,48.1651,11.455333333333336,5,2,4bbc992a2d9ea593fac5a0ce,Schlosschänke Blutenburg,48.16307859392071,11.457244143453549,German Restaurant
518,518,48.1251,11.599777777777776,50,3,4bbcc1bb4e069c7408dc9de3,Haidhauser Augustiner,48.129341,11.601388,German Restaurant
43,43,48.0751,11.599777777777776,3,0,4bbcd274a0a0c9b6a9d71a0f,Die Waldeslust,48.07625557114048,11.602764681522023,German Restaurant
628,628,48.1351,11.527555555555557,28,7,4bbdb5faa8cf76b07f0bb2fd,Psiloritis,48.137849277937,11.532434264793014,Greek Restaurant
1223,1223,48.1551,11.542000000000002,37,16,4bbe0f5cc6a2ef3b3438ddbd,La Mucca Pazza,48.151415525082356,11.541629365567065,Italian Restaurant
74,74,48.0851,11.527555555555557,4,3,4bbe2fc9eeca95216c244df1,Da Noi,48.0811175956961,11.52879950918784,Italian Restaurant
1363,1363,48.1551,11.614222222222226,6,3,4bbeec0782a2ef3b16062cd2,Bistro Peperoncino,48.15152378669018,11.617996183987787,Italian Restaurant
1188,1188,48.1551,11.527555555555557,24,5,4bbf6006ba9776b03a00ffc8,Emporio Italiano,48.15522204498574,11.533741119336245,Italian Restaurant
1426,1426,48.1651,11.570888888888891,43,20,4bc0acac2a89ef3bb1e2f088,El Mirador,48.163672999999996,11.571593,Spanish Restaurant
349,349,48.1151,11.643111111111114,5,0,4bc1bbb9b492d13ae363a660,Michaeligarten,48.115204347029646,11.638041764802265,Bavarian Restaurant
91,91,48.0851,11.643111111111114,14,9,4bc1d8e62a89ef3bd0c5f288,Tonny Asia,48.088626,11.640503,Asian Restaurant
1579,1579,48.1851,11.527555555555557,9,8,4bc2fc064cdfc9b6c7b19621,My Indigo,48.182104454540756,11.530285278279795,Fast Food Restaurant
865,865,48.1351,11.599777777777776,37,16,4bc308a2920eb71382d81c2c,Il Padrino,48.13335395362238,11.603757113193867,Italian Restaurant
37,37,48.0751,11.513111111111114,5,1,4bc3171f2a89ef3b3e7ff488,Sollner Hof,48.07598,11.51406,German Restaurant
2155,457,48.13283907066761,11.5675238047393,40,32,4bc459e674a9a593aea7d5f6,Alla Scala,48.13341688782248,11.566553654100971,Italian Restaurant
2159,461,48.13283907066761,11.5675238047393,40,36,4bc47b52abf49521f60ec593,Punto DiVino,48.13442984698587,11.567433494738939,Italian Restaurant
1421,1421,48.1651,11.570888888888891,43,15,4bc4b6d0920eb7137c271f2c,Blue Nile 2,48.16194315658608,11.57477752528573,Ethiopian Restaurant
2420,722,48.14736092933239,11.553078704732062,12,0,4bc4bac54cdfc9b66f119921,Natraj,48.14880646938383,11.552005368508034,Indian Restaurant
1378,1378,48.1651,11.455333333333336,5,4,4bc4bbfe4cdfc9b685139921,Der Weichandhof,48.167249883644885,11.458095619609669,German Restaurant
1536,1536,48.1751,11.570888888888891,9,7,4bc5876e6a3e9c74b7f8f548,La Casina,48.17916188094932,11.568668375602114,Italian Restaurant
360,360,48.1251,11.440888888888885,3,2,4bc5891b41cb76b011783e6f,Lochhamer's El Diablo,48.12545236895088,11.445864978535994,Mexican Restaurant
5,5,48.0651,11.556444444444445,2,1,4bc59770ccbcef3baeace6d2,Movies Bistro,48.06542751102279,11.551619111214778,Italian Restaurant
1182,1182,48.1551,11.513111111111114,14,13,4bc598755935c9b63b14a6d2,La Brasserie,48.154088929922,11.50668690559758,French Restaurant
900,900,48.1351,11.614222222222226,23,14,4bc5a08241cb76b0dd8c3e6f,Satyam,48.13103309061719,11.616156570552551,Indian Restaurant
514,514,48.1251,11.585333333333335,23,22,4bc5aab30a30d13a96425a9c,Bavaria Musikstudios,48.124517,11.590254,German Restaurant
993,993,48.1451,11.542000000000002,18,3,4bc61ec6d35d9c74c632e23a,il Melograno,48.14950128315574,11.541638979285796,Italian Restaurant
314,314,48.1151,11.585333333333335,30,20,4bcae4bb511f95217a83b0c7,Tegernseer im Emmeranshof,48.118867353741884,11.583330308028284,German Restaurant
214,214,48.1051,11.657555555555556,5,0,4bcaee663740b713de906165,Zum Löwen,48.10728790767626,11.655163764953613,German Restaurant
1804,106,48.1273609293324,11.596413348833194,46,15,4bcb2ec0fb84c9b698421e3e,Kalami,48.12939875788321,11.597268338178475,Greek Restaurant
2012,314,48.1373609293324,11.559809528594036,50,34,4bcb3b0768f976b0319a6083,Bistro Montana,48.13932770330656,11.559634408932277,Middle Eastern Restaurant
1146,1146,48.1451,11.628666666666668,3,0,4bcc3fb23740b71341a66365,Nougats,48.148346999999994,11.625472,Italian Restaurant
1389,1389,48.1651,11.527555555555557,8,3,4bcca0dd0687ef3b5498dfcc,Gerners,48.16862744113117,11.526695629543596,German Restaurant
2298,600,48.1373609293324,11.581968249183744,50,13,4bcd382bcc8cd13a535fc2cf,Bar Roma,48.13694911086161,11.578915621355335,Italian Restaurant
155,155,48.1051,11.455333333333336,2,1,4bcd66538920b713aeb39fdc,Schienhammer,48.108353120102976,11.451955499024491,German Restaurant
986,986,48.1451,11.527555555555557,4,0,4bce0370937ca5934ac3ad92,La Tasca nueva,48.14652751817636,11.531238653930767,Spanish Restaurant
1979,281,48.1373609293324,11.559809528594036,50,1,4bce1621ef1095215c788386,Ristorante Ca'D'Oro,48.13906777682189,11.560098213390631,Italian Restaurant
1196,1196,48.1551,11.527555555555557,24,13,4bceeafa68f976b0f5b06683,Waldschlössl,48.155734,11.531299,German Restaurant
2751,70,48.13849139399859,11.56149214476223,12,11,4bd0280f046076b0ea6e6f71,Rasoi,48.13816834239761,11.561662667154744,Indian Restaurant
1127,1127,48.1451,11.599777777777776,19,6,4bd06f60b221c9b6a7a0d3d0,Kerala,48.141736484835064,11.60291685430222,Indian Restaurant
1129,1129,48.1451,11.599777777777776,19,8,4bd0a019462cb713f1bed807,Bistro Windrose,48.14540336959976,11.593789476763089,Italian Restaurant
1003,1003,48.1451,11.542000000000002,18,13,4bd1c83e462cb71321d2da07,Kumasan,48.14932760211307,11.5429877184868,Japanese Restaurant
1645,1645,48.1951,11.570888888888891,5,0,4bd40044a8b3a5931d2e6b5f,Wirtshaus am Hart,48.196429192672596,11.576490521144743,German Restaurant
1499,1499,48.1651,11.599777777777776,2,0,4bd44bfa046076b0fa967771,Hirschau,48.16213494230588,11.602437616666267,Bavarian Restaurant
435,435,48.1251,11.556444444444445,50,31,4bd569646f64952125fc6eec,Ceku Yali Kebap,48.125282301999825,11.549900980007134,Doner Restaurant
1446,1446,48.1651,11.570888888888891,43,40,4bd5e055637ba5938233f770,Kim's Sushi,48.163414175685645,11.57190428647058,Sushi Restaurant
156,156,48.1051,11.484222222222225,1,0,4bd5f48ccfa7b71369c026da,Waldheim,48.102933203025636,11.478924445819347,German Restaurant
858,858,48.1351,11.599777777777776,37,9,4bd5f8404e32d13a9cd3c180,Taverna Diyar,48.13136951788438,11.598940310299644,Turkish Restaurant
1580,1580,48.1851,11.542000000000002,3,0,4bd5f850cfa7b7135cc726da,Belmondo,48.183389835000675,11.536909387154234,Italian Restaurant
225,225,48.1151,11.440888888888885,4,1,4bd5f8afcfa7b71311c826da,Kabir,48.116643244282685,11.437406848518204,Indian Restaurant
376,376,48.1251,11.542000000000002,31,3,4bd6c77129eb9c74708695e1,Ninh Restaurant,48.12099360223228,11.54402442438832,Vietnamese Restaurant
1575,1575,48.1851,11.527555555555557,9,4,4bd812b4dc4b952138497888,Asian Food Haiky,48.183377408813406,11.532804020881395,Asian Restaurant
2575,877,48.15736092933239,11.574255284522106,31,22,4bd828b6dc4b952156717888,Il Gattopardo,48.15840122697254,11.574898438252921,Italian Restaurant
369,369,48.1251,11.513111111111114,1,0,4bd86d5c0b779c74d91e07a0,Wirtshaus am Rosengarten,48.12276363043239,11.508744831823359,German Restaurant
2231,533,48.13283907066761,11.57425397303848,50,20,4bd9cd7ae914a5930cfa57fa,La Tazza D'oro,48.134203,11.574523,Italian Restaurant
121,121,48.0951,11.527555555555557,7,4,4bdabd33c79cc9285f887fe9,Hanoi,48.0977419425864,11.53148962478854,Asian Restaurant
882,882,48.1351,11.599777777777776,37,33,4bdae9ca3904a5937dd4479e,L'Angolino,48.134105,11.596478999999999,Italian Restaurant
849,849,48.1351,11.599777777777776,37,0,4bdaf3a563c5c9b6e1952568,Hofbräukeller,48.13412753916154,11.59562000876261,Bavarian Restaurant
575,575,48.1251,11.628666666666668,11,3,4bdb24272a3a0f47cc9cadb6,Wiener Schnitzelhaus,48.128966,11.630916000000001,German Restaurant
2196,498,48.1373609293324,11.57425397303848,48,33,4bdc632b2a3a0f47e898b2b6,Weinhaus Schneider,48.1368011407753,11.577496960027174,German Restaurant
2230,532,48.13283907066761,11.57425397303848,50,19,4bddb2e76198c9b6664f11ff,Buena Vista,48.13371366542511,11.57457629199255,Latin American Restaurant
124,124,48.0951,11.542000000000002,4,0,4bdeabf2e75c0f479863c803,Santorini,48.098600097048156,11.538084947097607,Greek Restaurant
970,970,48.1451,11.498666666666667,12,0,4be1477fc1732d7f5d925b9a,Feinkost Med,48.14368098840053,11.497638777065086,Doner Restaurant
1170,1170,48.1551,11.513111111111114,14,1,4be2fc79f07b0f4749c1f643,Metzgerwirt,48.15893292573982,11.511470997221055,German Restaurant
2671,973,48.16283907066761,11.588700385245676,44,34,4be5b0322468c928ca600043,BaReVe,48.16130314028314,11.590740035196196,German Restaurant
307,307,48.1151,11.585333333333335,30,13,4be5c856910020a16c7cd314,Mai Asia,48.11286929018543,11.587206988293559,Asian Restaurant
921,921,48.1451,11.412,2,0,4be6d2748a8cb713d583c4a0,Aubinger Einkehr,48.14372341693729,11.417154400572226,German Restaurant
880,880,48.1351,11.599777777777776,37,31,4be935aa947820a16ab3b5db,La Dispensa,48.134966,11.598737,Italian Restaurant
134,134,48.0951,11.585333333333335,3,0,4be991706295c9b6b55d8508,Gasthaus Gartenstadt,48.097988918687506,11.58082301983473,German Restaurant
2601,903,48.1528390706676,11.574255284522106,25,17,4be9928062c0c92838ccdfd4,Rossini,48.15139013571167,11.576750792371982,Italian Restaurant
2846,165,48.13849139399859,11.583650865351943,7,6,4beaa21a6295c9b6d59a8608,Albarone restaurant,48.138002656819275,11.583501369751053,Italian Restaurant
172,172,48.1051,11.542000000000002,12,3,4beb22609ab3b71331d9b549,Shan,48.10398329931054,11.54256546831058,Indian Restaurant
1515,1515,48.1751,11.484222222222225,2,1,4bebd27262c0c928af88e2d4,Menzingers,48.17139690437799,11.480560128497697,Italian Restaurant
39,39,48.0751,11.513111111111114,5,3,4bec072e415e20a1acf8e6bb,Gasthof Schützenlust,48.07617328605164,11.515655248024736,German Restaurant
265,265,48.1151,11.542000000000002,15,6,4bec4316b68520a126dc1187,Balkan Imbiss,48.118419,11.541307000000002,Eastern European Restaurant
1219,1219,48.1551,11.542000000000002,37,12,4bec4bd8c43f2d7f7fafdbd9,Marbella Tapas-Bar,48.1543938535559,11.5409721871281,Tapas Restaurant
1514,1514,48.1751,11.484222222222225,2,0,4bed30576e8c20a19bf86f61,Corretto,48.1766000717842,11.4893988246648,Italian Restaurant
1218,1218,48.1551,11.542000000000002,37,11,4bed95d76e8c20a19d977061,Poseidon,48.158716947053684,11.545878746430507,Greek Restaurant
234,234,48.1151,11.484222222222225,8,3,4beeb713f97d952144e49438,Lal Qila,48.11306180777003,11.489800214767456,Indian Restaurant
1264,1264,48.1551,11.556444444444445,33,20,4beee87f3686c9b6242d256e,Stefanos,48.15618545443529,11.561236159293449,Greek Restaurant
1795,97,48.1273609293324,11.596413348833194,46,6,4bf2db686991c9b6909629e9,Dal Cavaliere,48.128693,11.594771000000001,Italian Restaurant
2142,444,48.13283907066761,11.5675238047393,40,19,4bf56383ff90c9b6704b5628,Phong Phu,48.132914494425094,11.568564244094866,Asian Restaurant
30,30,48.0651,11.672,4,0,4bf58fcd94b2a5935fd3abee,Maharani,48.06745625122162,11.668328265609887,Indian Restaurant
274,274,48.1151,11.556444444444445,3,0,4bf5951694b2a5936fdfabee,SELF-Bar,48.112249487682845,11.55348419942715,German Restaurant
1614,1614,48.1851,11.585333333333335,11,8,4bf67ca65e800f478d5ee7d4,Pascha's Kebap-Haus,48.184608000000004,11.584767999999999,Kebab Restaurant
1425,1425,48.1651,11.570888888888891,43,19,4bf6ca4413aed13a3b34eaf7,Ohayou,48.167224,11.573723,Japanese Restaurant
1501,1501,48.1651,11.628666666666668,3,0,4bf90e2cabdaef3b81cca184,Lohengrins,48.16239966730482,11.628874317824135,German Restaurant
1366,1366,48.1551,11.628666666666668,1,0,4bfaaa7e508c0f47754a4031,La Cambusa,48.154973316188325,11.630035238317523,Italian Restaurant
163,163,48.1051,11.527555555555557,7,1,4bfc134e1be376b07c20f8b4,La Racchetta,48.10168531508817,11.52839183807373,Italian Restaurant
2115,417,48.1373609293324,11.5675238047393,50,42,4bfd3ab0bf6576b0ebeaacb8,Al Salam,48.137031,11.564264,Eastern European Restaurant
1396,1396,48.1651,11.542000000000002,7,2,4bff9c7fca1920a1f0feec81,Gran Sasso,48.16361045606393,11.54078335015264,Italian Restaurant
1609,1609,48.1851,11.585333333333335,11,3,4bffccd737850f47002d973f,Lychee-Garden,48.187259999999995,11.584464,Chinese Restaurant
292,292,48.1151,11.570888888888891,17,15,4bffe3dfdaf9c9b659dcfaef,Van Hoa,48.11457446619095,11.57660798649212,Vietnamese Restaurant
2160,462,48.13283907066761,11.5675238047393,40,37,4c00702bad15a593c4f48d73,Alpen Imbiss,48.13251226672948,11.567058601081095,Doner Restaurant
1092,1092,48.1451,11.570888888888891,40,34,4c03a14858dad13a0f224897,Carlton Bar & Restaurant,48.14329612989036,11.576070785522461,Italian Restaurant
1879,181,48.1351,11.542000000000002,28,20,4c03d3800d0e0f47290b039a,Orient Imbiss,48.13475742097583,11.541567222503286,Middle Eastern Restaurant
81,81,48.0851,11.628666666666668,1,0,4c0605be91d776b02548f8f9,Thomi's Kuchl,48.087683633591226,11.629921129597552,German Restaurant
1402,1402,48.1651,11.556444444444445,5,1,4c065ad58f8fa593f620f30d,Rigoletto,48.1638127056027,11.558578754599688,Italian Restaurant
205,205,48.1051,11.643111111111114,10,1,4c08d275a1b32d7f999296f0,cocos,48.1012539652569,11.644848970786908,Asian Restaurant
640,640,48.1351,11.527555555555557,28,19,4c08d305ffb8c9b670ce6861,Orchidee,48.133030026271975,11.531426971443373,Thai Restaurant
1658,1658,48.1951,11.628666666666668,2,0,4c0bc7127e3fc928d3bcf582,Sakrisch Guat,48.19654407792383,11.625772345349171,German Restaurant
2128,430,48.13283907066761,11.5675238047393,40,5,4c0cd5b80e9e952190c43cbd,DuDu,48.131074,11.566295,Vietnamese Restaurant
1143,1143,48.1451,11.614222222222226,6,3,4c0e1d09336220a11aa3cb77,Mia Paninoteca e Caffeteria,48.142434659686344,11.616106381924606,Italian Restaurant
1408,1408,48.1651,11.570888888888891,43,2,4c0ea6157189c928d5d7d8b6,Bei Ling,48.16742772233813,11.57030352913079,Chinese Restaurant
908,908,48.1351,11.614222222222226,23,22,4c0f710e336220a196bacd77,Döner Imbiss,48.13778743649865,11.616259910463274,Doner Restaurant
1095,1095,48.1451,11.570888888888891,40,37,4c0fee7cf1b6a59326157b27,byblos,48.14727948912922,11.57654421343293,Italian Restaurant
2186,488,48.1373609293324,11.57425397303848,48,23,4c125e83a5eb76b0b601beb7,Andexer,48.13851791726261,11.57429098120198,German Restaurant
2537,839,48.15736092933239,11.567522493255673,9,8,4c128c1a7f7f2d7f5682dd68,Surahi,48.157520500000004,11.566538566666665,Indian Restaurant
1827,129,48.1273609293324,11.596413348833194,46,38,4c176843368220a199463657,Asia Vital,48.128162989109676,11.594492047324689,Asian Restaurant
1433,1433,48.1651,11.570888888888891,43,27,4c1b576555e4c9b6421f4923,Sushi Express,48.16536681305027,11.574120025153418,Japanese Restaurant
861,861,48.1351,11.599777777777776,37,12,4c1b65b163750f4757bfb467,La Cicchetteria,48.134074827756606,11.595406461245332,Italian Restaurant
1210,1210,48.1551,11.542000000000002,37,3,4c1bab0db9f876b0ee9c7a46,Il Galeone,48.15148462534393,11.538855150472136,Italian Restaurant
382,382,48.1251,11.542000000000002,31,9,4c1e67f7920076b0284ec3e9,Gaststätte Pfeuferstüberl,48.125496082428405,11.54046244522316,German Restaurant
1056,1056,48.1451,11.556444444444445,50,48,4c208e0ceac020a184a94cc2,Tre Stelle,48.14506007407712,11.560366505379358,Italian Restaurant
1060,1060,48.1451,11.570888888888891,40,2,4c23491c502b9521db296e21,timballo,48.146245437121465,11.572952415859469,Italian Restaurant
1248,1248,48.1551,11.556444444444445,33,4,4c24f5e1905a0f4722a96060,Porto Cervo,48.1541273119988,11.562545797152927,Italian Restaurant
102,102,48.0951,11.484222222222225,2,0,4c2751a7c11dc9b6f6592a24,Einkehr zur Schwaige,48.09508863224621,11.482793879587918,German Restaurant
1276,1276,48.1551,11.556444444444445,33,32,4c2872ddfe6e2d7f5037533c,Spring Time Döner Kebap,48.153851749670714,11.554392863986823,Doner Restaurant
1157,1157,48.1551,11.412,3,1,4c28e2c6ed0ac9b627ed60aa,Burenwirt,48.157742558245495,11.415243825099466,German Restaurant
1274,1274,48.1551,11.556444444444445,33,30,4c29f9bb97d00f47883142ea,Take Don,48.15162757278993,11.554748447754244,Japanese Restaurant
1624,1624,48.1851,11.628666666666668,1,0,4c2a2f6cfe6e2d7fed02563c,Restaurant Rechts der Isar,48.180973,11.630345,German Restaurant
1584,1584,48.1851,11.556444444444445,7,1,4c2db3f57d85a5932b0453f3,Class Kebap,48.18656852761466,11.562541723251345,Doner Restaurant
322,322,48.1151,11.585333333333335,30,28,4c2e26d5e116e21efacb8f60,La Locanda,48.11390911332438,11.583725281634598,Italian Restaurant
1621,1621,48.1851,11.599777777777776,5,4,4c31b6763896e21e8861e790,mammaminuti,48.183397151096344,11.594629150468498,Italian Restaurant
2323,625,48.1373609293324,11.581968249183744,50,38,4c3230b5a0ced13ab9bb146e,Toshi,48.13912652191306,11.582544440621467,Japanese Restaurant
1250,1250,48.1551,11.556444444444445,33,6,4c3303e116adc928e7e6c29c,Haus D Bistro,48.15855120456458,11.553942467088321,German Restaurant
1294,1294,48.1551,11.570888888888891,50,17,4c330db4ac0ab7135ba11c1e,Kushi-Tei of Tokyo,48.15174317881829,11.570595612621698,Japanese Restaurant
354,354,48.1151,11.672,3,0,4c34951016adc928e257c59c,Lindengarten,48.11493228626794,11.678511558930442,German Restaurant
1764,66,48.1273609293324,11.559808873389029,37,33,4c35b04b452620a12511270f,Select Shop & Cafe Eight,48.129061,11.559547,Asian Restaurant
1682,1682,48.2051,11.643111111111114,1,0,4c3997b693db0f47dcb32392,Seegarten,48.20109638447079,11.641317985313316,German Restaurant
2181,483,48.1373609293324,11.57425397303848,48,18,4c3b5cfb62f1c9285c668f53,Ratkeller Prunkhof Terrasse,48.137833,11.575678,German Restaurant
1147,1147,48.1451,11.628666666666668,3,1,4c3c50d85418897c29940803,La Barca Heimservice,48.146671999999995,11.632255,Italian Restaurant
2184,486,48.1373609293324,11.57425397303848,48,21,4c3c5795933b0f47eedee321,Opatja,48.136215,11.575512886047365,Greek Restaurant
2188,490,48.1373609293324,11.57425397303848,48,25,4c3cad637d00d13a323f3950,Opatija,48.13614986326228,11.575555642376688,Eastern European Restaurant
157,157,48.1051,11.498666666666667,2,0,4c3df5970596c928679d8378,Waldfrieden,48.10877,11.502466,German Restaurant
370,370,48.1251,11.527555555555557,3,0,4c3df7f20e0d0f4707e4147f,Land In Sonne 2,48.127271897001975,11.527502236467006,German Restaurant
237,237,48.1151,11.484222222222225,8,6,4c418ceace54e21e583a0b1a,Sushi & Wok,48.11512355119557,11.480276340057282,Sushi Restaurant
942,942,48.1451,11.455333333333336,17,6,4c41da68ce54e21ebaab0b1a,Goldene Gans,48.14318676761611,11.457763733870339,German Restaurant
2417,719,48.1451,11.556444444444445,21,18,4c424de2d691c9b6d4308e0a,Fuji Moto,48.145019,11.556636,Chinese Restaurant
1372,1372,48.1551,11.643111111111114,7,5,4c43496cd7fad13a9f540ada,Casale,48.154681,11.641078,Italian Restaurant
1221,1221,48.1551,11.542000000000002,37,14,4c442df674ffc928522575cc,Ha Long Bay,48.15657651133485,11.546278113152995,Vietnamese Restaurant
614,614,48.1351,11.513111111111114,8,1,4c443a4136d6a593e81f6aa8,Gasthaus Gotthardgarten,48.13501,11.509138,German Restaurant
1174,1174,48.1551,11.513111111111114,14,5,4c45fc4ff88dc928b564ae75,Canal Grande,48.15831158335046,11.51629234109996,Italian Restaurant
244,244,48.1151,11.498666666666667,6,5,4c46cdbd972c0f4719b72121,Metzgerei Franz,48.11453,11.501542,German Restaurant
566,566,48.1251,11.614222222222226,7,1,4c4824e0972c0f478cef2521,O Castelo,48.129441853235065,11.612598281964031,Portuguese Restaurant
2674,976,48.16283907066761,11.588700385245676,44,37,4c4976ba3013a593b978c3e2,Cafe Macchiato München,48.16230319444493,11.586187966921502,Thai Restaurant
2158,460,48.13283907066761,11.5675238047393,40,35,4c4ac1c246240f47e6fe56f2,Cafe Freiraum,48.13159997728035,11.567487961050446,Argentinian Restaurant
1507,1507,48.1651,11.643111111111114,4,3,4c4c6ffe42b4d13af61c1980,Isabella,48.16797600691857,11.645358275718525,Italian Restaurant
496,496,48.1251,11.585333333333335,23,4,4c4eb49af53d0f471fe7f4a6,Mai Garten,48.12470333430685,11.580641875134726,Asian Restaurant
2359,661,48.13283907066761,11.581968249183744,32,24,4c5155569426c9282e318b73,Asia Markt & Imbiss,48.132426,11.5811,Vietnamese Restaurant
484,484,48.1251,11.570888888888891,38,30,4c51dedf94790f47a186c5a1,Hanoi,48.120731870207365,11.572413614629864,Asian Restaurant
1681,1681,48.2051,11.614222222222226,2,1,4c5291c4989eb7139029ae26,Mykonos,48.20248861530313,11.611905097961426,Greek Restaurant
1828,130,48.1273609293324,11.596413348833194,46,39,4c53e7b072cf0f47b3e1a4d3,Tonata di Monaco,48.12606632709503,11.595125198364258,Italian Restaurant
1225,1225,48.1551,11.542000000000002,37,18,4c57f3c0d12a20a190c967bd,Bayerischer Herold,48.157919,11.544792,German Restaurant
1612,1612,48.1851,11.585333333333335,11,6,4c59b2d667ac0f4766e2044c,Thai-China,48.18184783814278,11.584786803078327,Asian Restaurant
1671,1671,48.1951,11.643111111111114,12,11,4c5bdfe094fd0f47c90ac745,Asia Diner,48.1967885,11.646434275,Asian Restaurant
1552,1552,48.1751,11.599777777777776,10,6,4c5da149d25320a10e83c67a,Bei Gracia,48.177415520599745,11.601038325300394,Italian Restaurant
1503,1503,48.1651,11.628666666666668,3,2,4c5da591d25320a16692c67a,Zoe's Restaurant,48.164586311206634,11.628742970199111,Asian Restaurant
906,906,48.1351,11.614222222222226,23,20,4c5fa521cd522d7fa692cc3f,Leonardi,48.13392779833732,11.611302992191314,German Restaurant
367,367,48.1251,11.498666666666667,5,3,4c62ed49e1621b8d25a92453,Troja im grünen Kranz,48.12760925466937,11.49963574235621,Greek Restaurant
1537,1537,48.1751,11.570888888888891,9,8,4c63b63ee1621b8d8ea12653,Pizza Amaretto,48.174331,11.574029,Italian Restaurant
1375,1375,48.1651,11.455333333333336,5,1,4c6441142a58c9b63ca93461,Sidhartha,48.16604225225986,11.458586703186517,Indian Restaurant
2427,729,48.14736092933239,11.553078704732062,12,7,4c6581e6aebea593cc8270d0,Aquamarina Espresso Bar,48.14822130592145,11.55285358428955,Italian Restaurant
1263,1263,48.1551,11.556444444444445,33,19,4c680f9de75ac928a1a1fbda,Chili Asia,48.15384258098667,11.554475507295225,Asian Restaurant
2670,972,48.16283907066761,11.588700385245676,44,33,4c682092b80abe9ae04ed1e5,Orange,48.161842,11.591126,German Restaurant
56,56,48.0751,11.672,3,0,4c683642832bc9287885b3a8,Il Pappagallo,48.07533717091,11.668791506901336,Italian Restaurant
319,319,48.1151,11.585333333333335,30,25,4c683bda607ad13a5705a82b,Schinken-Peter,48.11094790226464,11.584574534278055,German Restaurant
978,978,48.1451,11.498666666666667,12,8,4c69294635d3be9a17841e06,Prik Thai,48.143243700000006,11.5008145,Thai Restaurant
1175,1175,48.1551,11.513111111111114,14,6,4c6998ff8e7c0f47040ee00f,Kleine Rose,48.154527481967705,11.50916021731086,Greek Restaurant
303,303,48.1151,11.585333333333335,30,9,4c6ac7c435d3be9af6be2206,Tarim Imbiss,48.11494570675593,11.579139232635498,Falafel Restaurant
1152,1152,48.1451,11.643111111111114,5,3,4c6f7d319375a0930d440437,Restaurant Vucko,48.14682235263303,11.64010176217349,Mediterranean Restaurant
930,930,48.1451,11.426444444444444,8,7,4c7021d1d274b60c4eafd80d,Luca's,48.144348,11.42326,Italian Restaurant
1697,1697,48.2151,11.672,1,0,4c71219afa49a1cd8ff7a7e3,Waldfest Ismaning,48.21530721079564,11.677482143905985,German Restaurant
2005,307,48.1373609293324,11.559809528594036,50,27,4c71438b344437048954265f,Bayerisches Schnitzel- & Hendelhaus,48.139409,11.559152000000001,German Restaurant
594,594,48.1251,11.672,9,0,4c76bdaba5676dcb22731621,Truderinger Wirtshaus,48.12582608763596,11.673946627475226,German Restaurant
1337,1337,48.1551,11.585333333333335,33,10,4c7811373badb1f721854a54,Bachmaier Hofbräu,48.15802502538975,11.584985801430486,German Restaurant
358,358,48.1251,11.440888888888885,3,0,4c7b84bddf08a1cd859fe05d,Sala Thai,48.12520053729433,11.447503252376457,Thai Restaurant
639,639,48.1351,11.527555555555557,28,18,4c7ce1487a856dcbfc44e3a7,ThaiBasilikum,48.13786365784743,11.532226996904962,Thai Restaurant
1214,1214,48.1551,11.542000000000002,37,7,4c7e372c724976b0e942a70a,malzraum,48.156295,11.540502,German Restaurant
45,45,48.0751,11.599777777777776,3,2,4c7f6f71171b224b1dbd10b1,Döner Döner,48.073699,11.604948,Doner Restaurant
60,60,48.0851,11.484222222222225,8,1,4c813ae3e602b1f778c5907a,Gold-Stäbchen,48.08518009341463,11.490579975007027,Ramen Restaurant
909,909,48.1351,11.628666666666668,5,0,4c84c4d4d8086dcbdad38b52,La Cantinetta,48.13208574677205,11.626594988360587,Italian Restaurant
295,295,48.1151,11.585333333333335,30,1,4c85333747cc224b2fd19e9f,Alpenhof,48.1179312770712,11.581743081243484,Italian Restaurant
11,11,48.0651,11.614222222222226,14,5,4c861641d34ca14322684c80,althaching,48.06618547150445,11.610294397380708,German Restaurant
1975,277,48.1373609293324,11.553079360294854,17,14,4c876d7bb231b60cd60a19ec,Restaurant Central,48.137488,11.555553999999999,Greek Restaurant
2579,881,48.15736092933239,11.574255284522106,31,26,4c88c319ed0aa1432cadabf3,Angelos,48.157617,11.575356,Italian Restaurant
1150,1150,48.1451,11.643111111111114,5,1,4c8b3c0452a98cfa155634e9,Bonsai Garden,48.14800749606478,11.640306471644992,Chinese Restaurant
1834,136,48.1273609293324,11.596413348833194,46,45,4c8b45bf1797236a71a46988,Der Sizilianer,48.12617274816494,11.595191088976927,Italian Restaurant
1132,1132,48.1451,11.599777777777776,19,11,4c8fbd777f3d76b0c979cfd2,langella,48.142157,11.603155000000001,Italian Restaurant
2187,489,48.1373609293324,11.57425397303848,48,24,4c8feed1590ab1f7ab13e37d,Berni's Nudelbrett,48.13601146656468,11.576349772737224,Italian Restaurant
1524,1524,48.1751,11.556444444444445,5,0,4c90d0aeb641236af7037c79,Restaurant am Olympiasee,48.17422129091728,11.55460843617766,German Restaurant
876,876,48.1351,11.599777777777776,37,27,4c938c3058509521140a2265,L’Angolino,48.130792361796466,11.599490002709944,Italian Restaurant
2151,453,48.13283907066761,11.5675238047393,40,28,4c94bac5533aa093dcc8c145,Thai-China Bamboo Bar,48.13118426288408,11.568894577297625,Thai Restaurant
2642,944,48.16283907066761,11.588700385245676,44,5,4c963c63533aa0938cd9cf45,Pepenero,48.16105943028359,11.590588822862976,Italian Restaurant
6,6,48.0651,11.614222222222226,14,0,4c97417772dd224b86beb291,Wirtshaus Althaching,48.06606326696232,11.610370933082805,German Restaurant
584,584,48.1251,11.643111111111114,3,1,4c97993338dd8cfaf717e562,Fuh-Wah,48.126696,11.63913,Chinese Restaurant
1394,1394,48.1651,11.542000000000002,7,0,4c9c949c54c8a1cd082c7b4b,Yee Chino,48.16301387016942,11.542662748779449,Sushi Restaurant
2002,304,48.1373609293324,11.559809528594036,50,24,4c9e2b50d3c2b60c946ac8bc,Maxi Döner,48.139472007751465,11.558947563171387,Doner Restaurant
148,148,48.1051,11.412,4,1,4ca0b7fb2fb1a143d9cefe40,La Terrazza,48.104386722618315,11.417901770116085,Italian Restaurant
2435,737,48.14283907066761,11.553078704732062,8,3,4ca1c2698afca093afa01d16,Oliva Döner,48.14213153310453,11.550327840867894,Doner Restaurant
1825,127,48.1273609293324,11.596413348833194,46,36,4ca320fba73cb60c67bb1578,Käse und Wein,48.12832215,11.594236,Asian Restaurant
2371,673,48.1373609293324,11.588698417482927,9,4,4ca322d07f84224b9ae7c158,Sir Tobi,48.13904389564056,11.59050002617109,German Restaurant
141,141,48.0951,11.628666666666668,5,1,4ca39421d7c337044129a262,Perlacher Hof,48.098341654145486,11.629943419738224,German Restaurant
1173,1173,48.1551,11.513111111111114,14,4,4ca86a2814c33704faa5d33b,Saigon Imbiss,48.152839345515105,11.507793680971238,Asian Restaurant
13,13,48.0651,11.614222222222226,14,7,4cab06bc14c33704db9be63b,Kleiner Italiener,48.062284999999996,11.614854,Italian Restaurant
2551,853,48.1528390706676,11.567522493255673,15,13,4cab113dd250bfb7db2aca63,Restaurant Darshwan,48.15211971,11.56802188,Indian Restaurant
2517,819,48.14283907066761,11.559810184156827,50,46,4caf71dbdb32f04d2579b74d,Restaurant Hani,48.14381554403565,11.559894848054087,Eastern European Restaurant
953,953,48.1451,11.469777777777779,15,0,4cb48dc2c5e6a1cd9e0af4f6,Wirtshaus Lindenplatzl,48.14935231159341,11.468868255615234,German Restaurant
1411,1411,48.1651,11.570888888888891,43,5,4cb5f3b49c7ba35dd2468e06,DHABA,48.162665999999994,11.57483,Indian Restaurant
622,622,48.1351,11.527555555555557,28,1,4cbd89a54c60a093b92757ca,Thai Orchidee Imbiss,48.13341029710944,11.533727465339467,Thai Restaurant
1360,1360,48.1551,11.614222222222226,6,0,4cbf4ad20cc4b7137da8ecf7,Ristorante Pizzeria Il Galeone,48.15272230587975,11.613685853030164,Italian Restaurant
1582,1582,48.1851,11.542000000000002,3,2,4cc1c2c443646dcb37e1478c,Olympia Griechisches Restaurant,48.18334375918835,11.537214154028685,Greek Restaurant
1500,1500,48.1651,11.599777777777776,2,1,4cc3db5c42d1b60c5e481a13,Zum Brunnwart,48.168943784444984,11.597216012607644,German Restaurant
312,312,48.1151,11.585333333333335,30,18,4cc71b4fbe40a35dac048e4c,Hot Wok,48.114567257095864,11.582530309352679,Asian Restaurant
1669,1669,48.1951,11.643111111111114,12,9,4ccd616aee23a143597825a8,Gasthof Neuwirt,48.19645940582007,11.646351898513752,German Restaurant
1666,1666,48.1951,11.643111111111114,12,6,4cd13aa12fd9b60cf89a85eb,Metzgerei Ohne Namen,48.194165000000005,11.640751,German Restaurant
243,243,48.1151,11.498666666666667,6,4,4cd4446367c7236ad5560c77,Gam-Sing,48.11781516297907,11.502578340711572,Chinese Restaurant
250,250,48.1151,11.527555555555557,11,2,4cd85a3753a7f04d54d56216,Pizzeria Amalfi,48.117698185041405,11.526018964670948,Italian Restaurant
1544,1544,48.1751,11.585333333333335,8,6,4cdc32e46ad1a0936b4bf056,KULMBACHER,48.175431,11.585654,Chinese Restaurant
1502,1502,48.1651,11.628666666666668,3,1,4ce191ebf8a4a1431167ebbc,Anema e Core,48.16365328085593,11.623503952726981,Italian Restaurant
1528,1528,48.1751,11.556444444444445,5,4,4ce3e3f22407a1cdbc8350d0,Stellina,48.17371780919607,11.56080161822394,Italian Restaurant
1688,1688,48.2151,11.527555555555557,3,1,4ce6d0e7f3bda1438a2aaee4,Ristorante Tre Scalini,48.21514680515176,11.53064145149803,Italian Restaurant
15,15,48.0651,11.614222222222226,14,9,4ce6f421d99f721ed604a773,Speedy Pizza,48.066839,11.610198,Italian Restaurant
1639,1639,48.1951,11.527555555555557,3,0,4ce83c11678aa0934861e7ea,Indian Village,48.197931678306595,11.524082882463462,Indian Restaurant
1592,1592,48.1851,11.570888888888891,16,2,4ceab318f86537048d6bbec4,Esto Cafe Bar Lounge,48.18681588072765,11.572667824852084,Turkish Restaurant
281,281,48.1151,11.570888888888891,17,4,4cec00238ef78cfa8805b09b,Va Pensiero,48.115017384964226,11.570125287184773,Italian Restaurant
9,9,48.0651,11.614222222222226,14,3,4cecfe044cd4236aca65a563,AhnAhn,48.065715999999995,11.612138,Asian Restaurant
1689,1689,48.2151,11.527555555555557,3,2,4cf29d3a1d18a1438f1d5bec,Feldmochinger Hof,48.21439716754098,11.528587806793842,German Restaurant
2882,201,48.14170860600141,11.561492979888305,11,6,4cf38ceb899c6ea8c705fcc1,Sushi & Sandwich,48.14105523256029,11.56187224068451,Sushi Restaurant
600,600,48.1251,11.672,9,6,4cf505666195721e6a2e55c1,Dönerbude,48.1258235963096,11.673662289400802,Doner Restaurant
391,391,48.1251,11.542000000000002,31,18,4cf69b63c28df04de8f3cb15,Cafė Omo,48.125980246828526,11.548425590625502,Ethiopian Restaurant
2577,879,48.15736092933239,11.574255284522106,31,24,4cf80490c28df04d5b68d315,Vini e Panini,48.15834892283667,11.574800365653727,Italian Restaurant
1576,1576,48.1851,11.527555555555557,9,5,4cf8bd87a348f04dad94f95c,Haiky,48.183263457167136,11.532888007026722,Asian Restaurant
935,935,48.1451,11.440888888888885,5,4,4cf93a7b7b44224b9bb0d305,Fuh Wah China-Restaurant,48.148583412418795,11.442479824719223,Chinese Restaurant
2282,584,48.1351,11.585333333333335,24,21,4cfbd324ee9cb60c9c3392ad,Magic Sushi,48.13558586214365,11.586253213863635,Sushi Restaurant
59,59,48.0851,11.484222222222225,8,0,4cffdc3ef1605481e5369bea,Köwieser,48.085064,11.478913,German Restaurant
972,972,48.1451,11.498666666666667,12,2,4d02780aa876a093defcf51d,Primafila am Schlosspark,48.14689168084963,11.497124942651086,Italian Restaurant
2198,500,48.1373609293324,11.57425397303848,48,35,4d038f8b9d33a143cbf6b478,Hofer,48.13752719923543,11.577469704232714,German Restaurant
2395,697,48.13283907066761,11.588698417482927,23,19,4d0927e0143cb60cc5237fa6,Ponte Vecchio,48.13158936158604,11.588313013281061,Italian Restaurant
2607,909,48.1528390706676,11.574255284522106,25,23,4d09f2af82aaa0933c41d3c2,Hanshe,48.15484964589886,11.57550380473286,Chinese Restaurant
272,272,48.1151,11.542000000000002,15,13,4d0cf2661f6bf04d0f857a31,Zum Blauen Stern,48.11543789780786,11.541845864168224,Eastern European Restaurant
191,191,48.1051,11.599777777777776,9,1,4d0e197ed515236a5bdb104b,Little Dragon,48.10800563902846,11.604067112749819,Asian Restaurant
507,507,48.1251,11.585333333333335,23,15,4d0e5c525c46a093b44913b4,Dilan,48.12406297350973,11.589888283969447,Middle Eastern Restaurant
1179,1179,48.1551,11.513111111111114,14,10,4d13349cffa1224beda99ead,Steh Italiener,48.15316200256348,11.508403999999999,Italian Restaurant
1636,1636,48.1951,11.455333333333336,7,6,4d221d8916cfb60c60f16661,Sicily Ristorante,48.194402000000004,11.452755,Italian Restaurant
1637,1637,48.1951,11.498666666666667,1,0,4d2631f1a813224b6edaefb1,Chantik Malaysia,48.19408233220104,11.49296114344381,Malay Restaurant
476,476,48.1251,11.570888888888891,38,22,4d289ec5467d6ea8ab00c895,Beim Franz,48.12784,11.567449,German Restaurant
873,873,48.1351,11.599777777777776,37,24,4d2c3bf16e27a14311fa3e24,Annapurna,48.131586,11.598660875,Indian Restaurant
2878,197,48.14170860600141,11.561492979888305,11,2,4d2d94bb853ff04d87e7c9da,New Saigon,48.141186415001286,11.562282710550306,Asian Restaurant
1648,1648,48.1951,11.570888888888891,5,3,4d2dda246e1eb1f7277f105f,lagom lunch,48.19262492466551,11.576226993088847,Asian Restaurant
1106,1106,48.1451,11.585333333333335,23,8,4d2ee1666fc6f04d9a028545,Thalia's Paninoteca,48.141483,11.584937,Italian Restaurant
1980,282,48.1373609293324,11.559809528594036,50,2,4d2eeacc92c46a31a6d862f3,Taklamakan,48.139117,11.560452,Asian Restaurant
924,924,48.1451,11.426444444444444,8,1,4d2f2b2ab97cb1f72bd89548,Bayerisches Schnitzel- & Hendlhaus,48.147940000000006,11.421660000000001,Schnitzel Restaurant
2065,367,48.1351,11.570888888888891,37,29,4d2f5a54b97cb1f7e0799748,Nigin,48.13550529065378,11.571873407601714,Afghan Restaurant
1830,132,48.1273609293324,11.596413348833194,46,41,4d303a41f9daa1cd57d96350,Hot Dog,48.1282,11.59435805,American Restaurant
1136,1136,48.1451,11.599777777777776,19,15,4d303de196fe6ea873091344,Da Baffo,48.146526870943816,11.603781876020472,Italian Restaurant
118,118,48.0951,11.527555555555557,7,1,4d309e6e4db137047289fd5d,hindustan,48.09902,11.528858,Indian Restaurant
1094,1094,48.1451,11.570888888888891,40,36,4d30a0385acfa35da019fbcb,Viet-Thai Restaurant,48.147167276992654,11.576468456545546,Vietnamese Restaurant
242,242,48.1151,11.498666666666667,6,3,4d33300deefa8cfac7743eb3,Viet-Wok,48.114958,11.502344,Vietnamese Restaurant
968,968,48.1451,11.484222222222225,2,0,4d3354c48250f04d3fe1fbe0,Ghazal,48.14473149524822,11.479963213205338,Indian Restaurant
49,49,48.0751,11.614222222222226,4,3,4d35e1832e56236a6ac93bb4,Gaststätte Sportstadl,48.07291056096142,11.615412024672633,German Restaurant
471,471,48.1251,11.570888888888891,38,17,4d39db180333a093a0f84e34,Saint Laurent,48.128189,11.573047,French Restaurant
856,856,48.1351,11.599777777777776,37,7,4d39e55c325ff04d4dd81645,Caffé Lollo Rosso,48.13141696904719,11.598863195301936,Italian Restaurant
1197,1197,48.1551,11.527555555555557,24,14,4d3c98c63ec9a35d17194a81,China Point,48.156835,11.53032,Chinese Restaurant
624,624,48.1351,11.527555555555557,28,3,4d3d622a6e252c0ff646e23b,Mimi,48.137802,11.529905,Asian Restaurant
1577,1577,48.1851,11.527555555555557,9,6,4d3ebdb8af8ca143695018f7,Just Munich,48.183625,11.5323806,Italian Restaurant
1685,1685,48.2151,11.484222222222225,1,0,4d3ff926bd53f04dcbbc3f15,MTU Kantine,48.212840331023386,11.481722523416733,German Restaurant
1900,202,48.13283907066761,11.538634915850412,8,1,4d4709bbe198721e585dd58b,Wok-In,48.132776462075746,11.535360372911802,Asian Restaurant
2499,801,48.14283907066761,11.559810184156827,50,28,4d4aac899526b60ca57b84ee,Zirbelstube,48.141446092904864,11.559573246267247,German Restaurant
372,372,48.1251,11.527555555555557,3,2,4d4d8f08a7f86ea87df837de,Land in Sonne I,48.128277344063996,11.52306405110766,German Restaurant
1634,1634,48.1951,11.455333333333336,7,4,4d4ee573122b54813fff894f,Zur Allacher Mühle,48.19841133409175,11.457868837969725,Bavarian Restaurant
1661,1661,48.1951,11.643111111111114,12,1,4d51a74d9d493704eb3fcf39,Zum Hackerbräu,48.19188063105689,11.64549539390766,Bavarian Restaurant
623,623,48.1351,11.527555555555557,28,2,4d557b46b4deb1f72833057a,San Marino,48.13715720663884,11.528059355350369,Italian Restaurant
2396,698,48.13283907066761,11.588698417482927,23,20,4d5a610e296d5481daa662b1,Özdeveli,48.13226565037137,11.591245564941321,Middle Eastern Restaurant
158,158,48.1051,11.498666666666667,2,1,4d5c348ce7f754817cb11797,Bella Sicilia,48.101762,11.501114,Italian Restaurant
264,264,48.1151,11.542000000000002,15,5,4d5d4ee81ef2f04d843afecd,Döner am Harras,48.11696015772094,11.535978266120033,Doner Restaurant
33,33,48.0651,11.672,4,3,4d5ee7e4d7206ea85953e2f1,Ayinger Ottobrunn Wirtshaus am Rathausplatz,48.06504000994611,11.665492956481321,German Restaurant
1370,1370,48.1551,11.643111111111114,7,3,4d602e44e4fe54816d117d9e,Martinelli,48.155396,11.637115,Italian Restaurant
268,268,48.1151,11.542000000000002,15,9,4d604a5a9f67f04d542277fb,Kao Kao,48.117366,11.539947,Thai Restaurant
2141,443,48.13283907066761,11.5675238047393,40,18,4d615173338bb60c33c332bd,Phu Quoc,48.132055,11.5667,Thai Restaurant
178,178,48.1051,11.542000000000002,12,9,4d6154a6922960fcf4027a8b,Rizzo,48.102839017973615,11.547141218258947,Italian Restaurant
1855,157,48.1273609293324,11.603142206722364,14,13,4d6246f65c39b1f78ed9184a,SchnitzelManufaktur,48.128006,11.605272,German Restaurant
1399,1399,48.1651,11.542000000000002,7,5,4d6290095c39b1f7351f1c4a,Döner Kings,48.161443638380305,11.540371710995199,Doner Restaurant
1504,1504,48.1651,11.643111111111114,4,0,4d669d6184f28cfa90916d69,Casa Mia,48.16382489798079,11.645739711149547,Italian Restaurant
489,489,48.1251,11.570888888888891,38,35,4d66cd53c8dbec4ad532f3cc,MyThaiLounge,48.12829,11.570255,Thai Restaurant
1245,1245,48.1551,11.556444444444445,33,1,4d68de9d9bd6a1436b1557df,Takumi,48.153233,11.560949,Ramen Restaurant
394,394,48.1251,11.542000000000002,31,21,4d68e210b6f46dcb41161ab2,Sushiya Bento,48.12287840487143,11.545854547251349,Japanese Restaurant
1142,1142,48.1451,11.614222222222226,6,2,4d6be7c8306aa1cdb5691d24,Paulaners,48.149337,11.612630000000001,German Restaurant
395,395,48.1251,11.542000000000002,31,22,4d6d17c18183a14308e09e9f,Sushi Jil & Wok,48.1221458222456,11.542881588531143,Sushi Restaurant
132,132,48.0951,11.556444444444445,5,4,4d6f6b59b09a8eec18ec81fe,Lemon Blatt,48.09763255134477,11.559541554927026,Asian Restaurant
1068,1068,48.1451,11.570888888888891,40,10,4d70d40976f3f04da31b6248,Indisches Fastfood Imbiss,48.149508148013624,11.572056983300412,Indian Restaurant
161,161,48.1051,11.513111111111114,3,2,4d7159961c01b60c4c5713c7,Incontro,48.107745610491456,11.50782888723711,Italian Restaurant
1974,276,48.1373609293324,11.553079360294854,17,13,4d73a8e8946b6dcb32304f7a,Gaststätte Bavaria,48.139112901336915,11.552735866084989,Bavarian Restaurant
642,642,48.1351,11.527555555555557,28,21,4d73dc7f4ab5224b61f2d297,Straubingers,48.139231,11.525175,German Restaurant
647,647,48.1351,11.527555555555557,28,26,4d775b72bc888cfac422e873,Obermeyer Betriebsrestaurant,48.132474627151325,11.529180006399882,German Restaurant
1072,1072,48.1451,11.570888888888891,40,14,4d7762e72b4b6ea883a340fe,Feinkost Perić,48.147097224142044,11.570795324118857,Eastern European Restaurant
1384,1384,48.1651,11.484222222222225,2,1,4d776746f2c054819569a8a1,Haveli,48.168565,11.485189,Indian Restaurant
2439,741,48.14283907066761,11.553078704732062,8,7,4d776e7b2b4b6ea88c5241fe,Asia Snackbox Betrieb,48.142347775174414,11.552076319959838,Asian Restaurant
318,318,48.1151,11.585333333333335,30,24,4d7a144370de548180bbc499,Thanh Giong,48.11669798000001,11.581004,Vietnamese Restaurant
351,351,48.1151,11.643111111111114,5,2,4d7b6f5579c4b1f7c29be7f2,Sushi Bistro Im Life,48.112447307515,11.64617409640021,Asian Restaurant
1447,1447,48.1651,11.570888888888891,43,41,4d7e579d8700370417766f99,Lemar,48.1617365860981,11.574877062743546,Afghan Restaurant
1120,1120,48.1451,11.585333333333335,23,22,4d85631e37ddba7abaefb6e4,LfF Casino,48.14144286416153,11.589260816332324,German Restaurant
87,87,48.0851,11.643111111111114,14,5,4d8632d861676dcbca869ae4,Scorpios,48.088778000000005,11.642332000000001,Greek Restaurant
86,86,48.0851,11.643111111111114,14,4,4d88e4786daeb60c853344e0,Ludwig's Wirtshaus,48.08755364914812,11.641164595260012,German Restaurant
1442,1442,48.1651,11.570888888888891,43,36,4d8cdf51ca75b60ce7f6dba8,Thai Mini,48.161658,11.568802,Asian Restaurant
101,101,48.0951,11.469777777777779,1,0,4d8dd941c479a35d0d013797,China Restaurant Fuh Wah,48.09312578002347,11.465929973263796,Chinese Restaurant
710,710,48.1351,11.556444444444445,50,11,4d90dfeb5091a1cdfa10c501,DÉLiCE La Brasserie,48.13947983742123,11.557862744521248,French Restaurant
1831,133,48.1273609293324,11.596413348833194,46,42,4d922d847379b60c3ed4dc07,Dilo,48.12745588676877,11.598652295492823,Middle Eastern Restaurant
1198,1198,48.1551,11.527555555555557,24,15,4d92357d52ed224b76e302ac,Hanami Sushi Addict,48.15408577918165,11.530398513581336,Sushi Restaurant
886,886,48.1351,11.614222222222226,23,0,4d93073c62ad5481b2e0774b,MorgenLand Falafel- & Döner-House,48.13094219106379,11.616613826919039,Middle Eastern Restaurant
1589,1589,48.1851,11.556444444444445,7,6,4d9456681231b60c251077a1,Asia Kitchen Olympiadorf,48.182618828571435,11.551342414285715,Chinese Restaurant
138,138,48.0951,11.599777777777776,2,1,4d945a16b550a0938caf8387,Dönerbude vorm HIT,48.094396,11.603098,Doner Restaurant
2573,875,48.15736092933239,11.574255284522106,31,20,4d9a132a647d8cfa4a1a173e,Los Faroles,48.155542,11.575502,Spanish Restaurant
1530,1530,48.1751,11.570888888888891,9,1,4d9c528748b6224b31fa099f,Uygur Imbiss II,48.178518440282794,11.572792867970474,Doner Restaurant
190,190,48.1051,11.599777777777776,9,0,4d9e9ccff21988bff2efd389,St. Benno Einkehr,48.102608965939844,11.595529038188765,German Restaurant
334,334,48.1151,11.599777777777776,13,10,4da06a90784f3704481e99af,Zum Kosta,48.115578785097654,11.598172582504615,Greek Restaurant
25,25,48.0651,11.657555555555556,9,4,4da2db7f2939b1f7ba6b1157,Konak,48.068463,11.658379,Turkish Restaurant
302,302,48.1151,11.585333333333335,30,8,4da2e348bf22a143b0febaf8,Ristorante L'Orchidea,48.11687812414166,11.589392482454288,Italian Restaurant
2675,977,48.16283907066761,11.588700385245676,44,38,4da3882563b5a35d6e1d141a,Time Out Grill + Bar (Döner),48.16265853559551,11.58798791440022,Falafel Restaurant
899,899,48.1351,11.614222222222226,23,13,4da729a1f7b15dc952f445c4,Aoyama Kochatelier,48.132976,11.617815,Japanese Restaurant
1559,1559,48.1851,11.469777777777779,3,0,4da835ccf7b12d2d9a05586d,Angela's Bistro,48.184872999999996,11.465697,African Restaurant
1565,1565,48.1851,11.513111111111114,8,2,4da98a0ffa8cc764971b88f3,Bella Italia,48.181340921654304,11.511528297470065,Italian Restaurant
633,633,48.1351,11.527555555555557,28,12,4dac1934cda1652a2baffa9d,Kleine Villa Flora,48.131415999999994,11.527975999999999,German Restaurant
2032,334,48.13283907066761,11.559809528594036,8,4,4dac73c26a2303012f3903e1,Grotta Azzurra,48.13114310415757,11.561872213631162,Italian Restaurant
123,123,48.0951,11.527555555555557,7,6,4dadc018a86e0d401b8e6c6f,Restaurant Myrtos,48.09912085533142,11.529378,Greek Restaurant
1551,1551,48.1751,11.599777777777776,10,5,4dade6c74df0f639f2410632,Ristorante Paganini,48.17728124201556,11.598379555823932,Italian Restaurant
1549,1549,48.1751,11.599777777777776,10,3,4dade77c6a23e6c9347f0f6e,Emilienhof,48.17932970071072,11.598150538622575,German Restaurant
1630,1630,48.1951,11.455333333333336,7,0,4db050d56a231f2e4a5493ad,Gasthaus zur Schießstätte,48.195600744946816,11.456130122824106,Bavarian Restaurant
185,185,48.1051,11.570888888888891,5,3,4db350750437fa536a122b18,Jay's Cafe Bar,48.107409999999994,11.575068,Italian Restaurant
1423,1423,48.1651,11.570888888888891,43,17,4db895b65da3b5fa68c3254d,La Toni,48.167159000000005,11.573077,Italian Restaurant
1237,1237,48.1551,11.542000000000002,37,30,4db93c79f7b1b4c54f4c5de7,Puntino,48.15245505544252,11.539814291349131,Italian Restaurant
1654,1654,48.1951,11.599777777777776,4,3,4dbabc46a86ede8c0fa101f1,Della Terra Pizza & Antipasti,48.19436745067779,11.597291719049226,Mediterranean Restaurant
960,960,48.1451,11.469777777777779,15,7,4dbd32ba0437955ec046b5a5,Bayerisches Schnitzel- und Hendlhaus,48.146423999999996,11.463925999999999,German Restaurant
29,29,48.0651,11.657555555555556,9,8,4dbee48843a1d8504bc98d57,Bistro Luigi,48.064563938783905,11.663408328492329,Italian Restaurant
1692,1692,48.2151,11.542000000000002,5,2,4dc13a10c65b268b41d5fae1,Deniz Kebap-Haus,48.215148789914934,11.543309295358396,Doner Restaurant
2508,810,48.14283907066761,11.559810184156827,50,37,4dc1d1d5b0fb490416a1d5d5,Medi Döner & Pizza,48.1407626106632,11.560923920977139,Turkish Restaurant
869,869,48.1351,11.599777777777776,37,20,4dc2e15ad1643ed27a59beeb,La Belle Cuisine,48.133029,11.596155,German Restaurant
1397,1397,48.1651,11.542000000000002,7,3,4dc3d5acae608779d1113e72,DönerKings,48.161390000000004,11.540344000000001,Doner Restaurant
925,925,48.1451,11.426444444444444,8,2,4dc3e50cd164eb9c9fc69c42,Pi Jai,48.14406067922762,11.43131058713212,Thai Restaurant
1519,1519,48.1751,11.513111111111114,2,1,4dc42e1f887717c88002e958,Cafe ludwig,48.17339027950328,11.515021539398859,German Restaurant
1668,1668,48.1951,11.643111111111114,12,8,4dc53f82d22dafda2f9ed0bc,Politia,48.19131294033677,11.639952300202355,Greek Restaurant
2067,369,48.1351,11.570888888888891,37,31,4dc7df71d4c0ad9c0fc147bd,Vinzenzmurr,48.135003999999995,11.569504,German Restaurant
645,645,48.1351,11.527555555555557,28,24,4dcbb6bb8877502200da9d82,Espressino,48.13729084701775,11.523521340357275,Italian Restaurant
870,870,48.1351,11.599777777777776,37,21,4dce6e22d22deadedd513bfe,Gianluca,48.131861886413795,11.598467230796814,Italian Restaurant
591,591,48.1251,11.657555555555556,8,5,4dcfd832b0fb25f6e3665b27,WOK Asia Bistro - Sushi Bar,48.1242274,11.6563718,Asian Restaurant
287,287,48.1151,11.570888888888891,17,10,4dd15bfcfa7664b7c6ed9e31,Asphalt,48.111195,11.570985,German Restaurant
983,983,48.1451,11.513111111111114,4,1,4dd2b4d3d16465f3f958af2b,Swedish Lyon,48.144417,11.511772,French Restaurant
868,868,48.1351,11.599777777777776,37,19,4dda5d711838b8561d2e0579,Ristorante Sandro,48.137907274607436,11.59882766035931,Italian Restaurant
501,501,48.1251,11.585333333333335,23,9,4ddd47e6d164236dd38701a0,Ristorante L Incontro,48.12778002,11.58473592,Italian Restaurant
1164,1164,48.1551,11.469777777777779,1,0,4de25c961520b8ceaabe04b5,Luisengarten (Biergarten & Restaurant),48.15409081119775,11.464061737060547,German Restaurant
440,440,48.1251,11.556444444444445,50,36,4de26c242271bfb8449a9d22,Asia Bistro,48.12543073759899,11.550202696468348,Asian Restaurant
1006,1006,48.1451,11.542000000000002,18,16,4de371ba7d8b2547eb1b4f29,aiky Asien Food im ZOB,48.14252012181689,11.546286616668413,Asian Restaurant
1186,1186,48.1551,11.527555555555557,24,3,4de4b722ae60e7f3ac243465,VolkArt,48.15520966472867,11.533805887246006,Spanish Restaurant
2157,459,48.13283907066761,11.5675238047393,40,34,4de7093252b1886171c59b96,Wirtshaus am Sendlinger Tor,48.1337267593381,11.56687671088952,German Restaurant
133,133,48.0951,11.570888888888891,1,0,4de76589d16418878ffc7090,Zum Dachs,48.094849611774166,11.573431491851807,German Restaurant
1562,1562,48.1851,11.498666666666667,1,0,4de7cce21838131a855e4549,Plastiras,48.18601121009368,11.50406876711883,Greek Restaurant
1422,1422,48.1651,11.570888888888891,43,16,4dee093d18385379de51b35e,Lan Anh Asia,48.165503851811145,11.564655905582454,Asian Restaurant
289,289,48.1151,11.570888888888891,17,12,4def8c4652b1d9bad3c15e01,Maibaumstüberl,48.118232,11.570388000000001,German Restaurant
1644,1644,48.1951,11.556444444444445,1,0,4df4d22ee4cda09e6da7a8c2,Eschengarten,48.19937838920061,11.55442231515728,German Restaurant
248,248,48.1151,11.527555555555557,11,0,4df5ece652b100c2d80263b2,Irodion,48.11107899795272,11.52605141642358,Greek Restaurant
1062,1062,48.1451,11.570888888888891,40,4,4df6076922718759f827eab5,Qivasou,48.14635800751834,11.572378465598767,Asian Restaurant
1243,1243,48.1551,11.542000000000002,37,36,4df894e7b61ce821ebabd3b6,Asia Imbiss / Feinkost,48.157671167516746,11.544192670862325,Asian Restaurant
17,17,48.0651,11.614222222222226,14,11,4dfa5176d22d964c6b9ca2c8,Sichuan,48.062962324354544,11.615024888601578,Chinese Restaurant
1166,1166,48.1551,11.484222222222225,3,1,4dfad96c52b145696e351848,Eis-Cafe Italia,48.15642727443581,11.477963257094352,Italian Restaurant
77,77,48.0851,11.556444444444445,1,0,4dfba6d2d4c01451df5973ba,Harlachinger Jagdschlössl,48.087004598043976,11.55538508265851,German Restaurant
245,245,48.1151,11.513111111111114,3,0,4dfc6d1562846d918b942ac6,Salumeria Italiana,48.113341748828,11.51258654201407,Italian Restaurant
867,867,48.1351,11.599777777777776,37,18,4e007b8022717718d39d4b05,Fino Feinkost,48.13549066183153,11.597992596076855,Greek Restaurant
1695,1695,48.2151,11.570888888888891,1,0,4e01a7ddae609fa8ede31d3e,Lo Smeraldo,48.2124012,11.567525199999999,Italian Restaurant
2520,822,48.14283907066761,11.559810184156827,50,49,4e046d0daeb7c869c3fd34b2,Zitronengras,48.14459568293662,11.559811876930626,Asian Restaurant
1118,1118,48.1451,11.585333333333335,23,20,4e047d1b18a877730b77278c,BNM Restaurant,48.1431387854092,11.589958868396206,German Restaurant
112,112,48.0951,11.513111111111114,5,0,4e04cbcd1495806e9dcabbda,Majestic,48.094014135725004,11.50716449906844,Asian Restaurant
1684,1684,48.2151,11.469777777777779,1,0,4e0770ec18a8382643b45e38,Döner Haus,48.2106545,11.4702194,Doner Restaurant
1598,1598,48.1851,11.570888888888891,16,8,4e085cec8877394591eb5c71,Da Pippo,48.18743526159376,11.575259282372894,Italian Restaurant
48,48,48.0751,11.614222222222226,4,2,4e119eb61838f8ad815cd5f9,Libella,48.079569891005214,11.614823341369627,Italian Restaurant
961,961,48.1451,11.469777777777779,15,8,4e120e0d62e1d997a6a519dc,Zur Pasinger Alm,48.144917159202464,11.47192246276159,German Restaurant
579,579,48.1251,11.628666666666668,11,7,4e15db1eae60a0ac06367546,Echardinger Gartenlaube,48.12688170563965,11.62669188564619,Eastern European Restaurant
280,280,48.1151,11.570888888888891,17,3,4e15fd31814dbda3c8f9508d,Gaststätte Hans Mielich,48.113827464881716,11.569779997275974,German Restaurant
1432,1432,48.1651,11.570888888888891,43,26,4e16008b52b1b9e56445a46b,Bonjour Vietnam,48.16411629149406,11.571315534947178,Vietnamese Restaurant
2496,798,48.14283907066761,11.559810184156827,50,25,4e16f5f6d1649878a8f6626c,Ha Tam,48.143818055611035,11.559825494326816,Middle Eastern Restaurant
2089,391,48.1373609293324,11.5675238047393,50,16,4e1c7da3a80980ebf5a26a39,Stadtkantine,48.137499615708215,11.569928984778556,Mediterranean Restaurant
1523,1523,48.1751,11.527555555555557,4,3,4e207b541495f18f0344495a,Nina Vietnam,48.174669075818684,11.529059647299135,Vietnamese Restaurant
1663,1663,48.1951,11.643111111111114,12,3,4e25d01cd164b6b74afec787,Gasthaus zur Post,48.1937348577156,11.641536554967717,German Restaurant
1662,1662,48.1951,11.643111111111114,12,2,4e25e378e4cda4c1ef42feef,Hacker-Pschorr,48.19182960162031,11.645276110057928,German Restaurant
111,111,48.0951,11.498666666666667,8,7,4e28622cb61c9d28cbf42f0f,Tiroler Eck,48.098524,11.498695,German Restaurant
2430,732,48.14736092933239,11.553078704732062,12,10,4e29ad551f6e88a1546eff0c,Sunrise,48.147609,11.552038,Japanese Restaurant
1119,1119,48.1451,11.585333333333335,23,21,4e2eb290e4cdb5a70d604c48,Da Rosario,48.14557980951825,11.582086980342865,Italian Restaurant
1110,1110,48.1451,11.585333333333335,23,12,4e2ff63562e1fbac610ff95f,Monsoon,48.14224736154071,11.586160552414922,Asian Restaurant
2033,335,48.13283907066761,11.559809528594036,8,5,4e313c312271cfd3d048b45f,Thai Vie,48.13102,11.560999,Thai Restaurant
1255,1255,48.1551,11.556444444444445,33,11,4e36f7ff18a825da959d6157,Magic Woks,48.15715860840202,11.560832684875741,Asian Restaurant
23,23,48.0651,11.657555555555556,9,2,4e383f4a62e1a8e9cc4dcfcc,Villa Meraviglia,48.063945714803026,11.662134617840955,Italian Restaurant
1199,1199,48.1551,11.527555555555557,24,16,4e3a7b647d8b90abc326f7cf,Kantine des Rotkreuzklinikums,48.153705,11.533144,Swiss Restaurant
989,989,48.1451,11.527555555555557,4,3,4e3ebfacaeb73139a18a2fb3,Asia Sushi Bistro,48.14629537660723,11.533487080777068,Sushi Restaurant
1428,1428,48.1651,11.570888888888891,43,22,4e3fc4ed18a83d5b28625d1e,Asia Snacks,48.16224797,11.57505611,Asian Restaurant
973,973,48.1451,11.498666666666667,12,3,4e41555cd22d6fdb87de5ee6,Asia Küche,48.14259760066628,11.502893210767095,Asian Restaurant
998,998,48.1451,11.542000000000002,18,8,4e4223531495179c014ba70a,Chopan,48.148313642081106,11.543425692223721,Afghan Restaurant
1647,1647,48.1951,11.570888888888891,5,2,4e43b0f7483b132669cc546c,Milifu,48.192637,11.576411,Asian Restaurant
1823,125,48.1273609293324,11.596413348833194,46,34,4e440d79ae605a14b7e19998,l'épicerie d'Anne Marie,48.12887865380105,11.594042928940992,French Restaurant
1564,1564,48.1851,11.513111111111114,8,1,4e494e2e483b03d091048bd0,Dillinger,48.18286465094248,11.508082690644025,American Restaurant
88,88,48.0851,11.643111111111114,14,6,4e4a3fe7ae6014a2fdcf43b4,Vinzenzmurr,48.08892011790555,11.643292761094363,German Restaurant
504,504,48.1251,11.585333333333335,23,12,4e4a4c612271ac3f6bd24e81,Zum Hofglaser,48.124568,11.579389,Eastern European Restaurant
1977,279,48.1373609293324,11.553079360294854,17,16,4e4ba3dc18a808fd10ff8e0e,Marmaris,48.13785461455149,11.551667604065035,Turkish Restaurant
352,352,48.1151,11.643111111111114,5,3,4e4d5d21d4c083e964962840,La Strada,48.113601552843676,11.645458308807054,Italian Restaurant
2030,332,48.13283907066761,11.559809528594036,8,2,4e4e33b6a80997aa8a26a5fa,Lucki's,48.130893062285395,11.561088530278091,Asian Restaurant
1377,1377,48.1651,11.455333333333336,5,3,4e51436fe4cdc76dc9ca638c,Dionysos,48.16645050048828,11.457174301147461,Greek Restaurant
119,119,48.0951,11.527555555555557,7,2,4e53e35cc65bea7986d8ef37,Asia-Küche Bistro,48.096221919327746,11.52208699708442,Asian Restaurant
1393,1393,48.1651,11.527555555555557,8,7,4e540b997d8b8e9188e5dbce,Zur Linde,48.16606576369362,11.524051369846804,German Restaurant
1116,1116,48.1451,11.585333333333335,23,18,4e562c4bb61cabc6beb0dec1,Casino am Eisbach,48.14278795950872,11.587416250226886,German Restaurant
1593,1593,48.1851,11.570888888888891,16,3,4e562f59fa763b20fd08c54e,Ararat Kebap,48.18737023789486,11.569643890212117,Doner Restaurant
266,266,48.1151,11.542000000000002,15,7,4e563bb71f6ecd24d010266c,Restaurant Schönblick,48.11586028196329,11.540103960174301,Italian Restaurant
1542,1542,48.1751,11.585333333333335,8,4,4e568674aeb7a82688046113,Xing Wang - China Restaurant,48.17424565403693,11.585828672647073,Chinese Restaurant
96,96,48.0851,11.672,2,0,4e5730d9b993bf36edfea246,Terra Kreta,48.085643770359354,11.674574035877493,Greek Restaurant
1587,1587,48.1851,11.556444444444445,7,4,4e5b631918388cd5cbbbd6c3,VIP Döner,48.18605888475979,11.562476019444471,Doner Restaurant
2256,558,48.13283907066761,11.57425397303848,50,45,4e5f6d8cd4c08cf7f59a835c,Menu,48.132660537560156,11.576124490068116,Italian Restaurant
1572,1572,48.1851,11.527555555555557,9,1,4e64a525b0fb188e8ea15d21,Kaimug,48.18314202016377,11.532831037590249,Thai Restaurant
2075,377,48.1373609293324,11.5675238047393,50,2,4e68a72faeb75ce774b70c69,Sindbad,48.13743919743194,11.564202474750006,Falafel Restaurant
1093,1093,48.1451,11.570888888888891,40,35,4e6e65e1e4cd7236efe05348,City Döner & More,48.148416283475065,11.573516517209075,Doner Restaurant
2438,740,48.14283907066761,11.553078704732062,8,6,4e6f310852b1706317b5d6fc,KaimugBox,48.142369,11.550744,Thai Restaurant
2693,12,48.1317086060014,11.57257150504794,6,3,4e71e2371f6ecfe82bff8051,SEN,48.1310419143542,11.571948381123477,Vietnamese Restaurant
1569,1569,48.1851,11.513111111111114,8,6,4e751100b61c22c6380441f6,Dillinger,48.18280921265328,11.50832780296348,American Restaurant
2358,660,48.13283907066761,11.581968249183744,32,23,4e7607911838f9188a193f43,Xaver’s,48.134066,11.579866,Bavarian Restaurant
53,53,48.0751,11.657555555555556,6,3,4e7a05c445dd082cbc2b379b,Neubiberger Hof,48.07681733878299,11.659669876098633,German Restaurant
932,932,48.1451,11.440888888888885,5,1,4e7b72162271b736eb1e693c,Hot Wok,48.14872584481357,11.441550275589485,Asian Restaurant
1680,1680,48.2051,11.614222222222226,2,0,4e82091a722e97a3d2a55afa,Gasthaus Bock,48.204169,11.610682,German Restaurant
1109,1109,48.1451,11.585333333333335,23,11,4e8227c5b6345be52bddce8d,Halali,48.14571792711556,11.582013152273591,Austrian Restaurant
948,948,48.1451,11.455333333333336,17,12,4e830e916c250277a8ccc4b4,Triangolo,48.14690996360782,11.452807532875164,Italian Restaurant
1596,1596,48.1851,11.570888888888891,16,6,4e84587d5c5c9240de793b5f,Kofuku,48.18734840585835,11.570506282619471,Vietnamese Restaurant
1091,1091,48.1451,11.570888888888891,40,33,4e859bf629c244f5c7505d6b,Tsetseg,48.14548709965218,11.570153757594651,Asian Restaurant
2460,762,48.14736092933239,11.559810184156827,31,20,4e85dc6eb634ae3cdbbc2e42,Highfly,48.147587,11.557872999999999,Asian Restaurant
84,84,48.0851,11.643111111111114,14,2,4e89a515e5fa170427e7078c,Minh-Thai Bistro,48.0884750058765,11.640890318646177,Thai Restaurant
1599,1599,48.1851,11.570888888888891,16,9,4e89f21b61af126ed38946ec,Eboli,48.181673305986436,11.566801958709464,Italian Restaurant
859,859,48.1351,11.599777777777776,37,10,4e8d8df39adfed6919dd2c35,Letoon,48.13432074862343,11.598061644055722,Turkish Restaurant
2203,505,48.1373609293324,11.57425397303848,48,40,4e9032caf79014e2ce69c886,Mayer's Bistro & Weinbar,48.13733382541357,11.574242612025133,German Restaurant
150,150,48.1051,11.412,4,3,4e956c2c8b8105c15e91e8df,Nil,48.10445059167776,11.414463844344091,Middle Eastern Restaurant
1431,1431,48.1651,11.570888888888891,43,25,4e95cd13dab450040c77d063,Sindbad Döner,48.16182547516188,11.568783285013922,Doner Restaurant
258,258,48.1151,11.527555555555557,11,10,4e996b0029c274e1f91f4d1a,"STAR Imbiss Döner, Kebap & Co.",48.116755638272494,11.529243643385367,Doner Restaurant
603,603,48.1351,11.412,1,0,4e9d6ca22c5b8638e5685a09,Bistro Veritas,48.13465684059327,11.40993615041882,Italian Restaurant
571,571,48.1251,11.614222222222226,7,6,4e9e963ccc215c69152c6ddf,Hot Wok,48.12746575532825,11.61453598149876,Asian Restaurant
1257,1257,48.1551,11.556444444444445,33,13,4e9f249777c80ac54c250342,Santa Margherita,48.154583668219026,11.55316016112388,Italian Restaurant
2386,688,48.13283907066761,11.588698417482927,23,10,4ea06cdf7ee519439723712d,La Sirene,48.131638725396535,11.58837483528991,African Restaurant
1114,1114,48.1451,11.585333333333335,23,16,4ea1b6da9a527d6516bf347b,SEO Ritter,48.143139,11.579289,German Restaurant
247,247,48.1151,11.513111111111114,3,2,4ea87c988231694b675eca06,Romina's Bistro Kneipe,48.11819506118594,11.516992051174483,German Restaurant
589,589,48.1251,11.657555555555556,8,3,4ea92b3477c80957f2753b16,Villa Toscana,48.123926734104394,11.663622017075939,Italian Restaurant
1650,1650,48.1951,11.585333333333335,1,0,4ea939562c5b8d39ca13ffb1,"Fresh & Spicy - Salat, Döner, Suppen",48.192242755660104,11.587437186333164,Doner Restaurant
643,643,48.1351,11.527555555555557,28,22,4ea93b6493adf5b1fc0a11b1,Lisa Feinkost,48.13754885304226,11.530870930166554,Italian Restaurant
1180,1180,48.1551,11.513111111111114,14,11,4ead79284690615f269a0b4e,Sushi Niwa,48.1529087492924,11.51343132589303,Sushi Restaurant
1350,1350,48.1551,11.585333333333335,33,23,4eb1bef9cc21adeaf8341d9b,Olivio,48.1584609,11.58292,Italian Restaurant
22,22,48.0651,11.657555555555556,9,1,4eb57a690aaf1abedf519441,Happy Quynh,48.06394994606775,11.662591818205868,Vietnamese Restaurant
93,93,48.0851,11.643111111111114,14,11,4eb7cd6b4901cef9d9852b31,Uni Döner,48.08269763097812,11.638172462849536,Doner Restaurant
326,326,48.1151,11.599777777777776,13,2,4ebd120502d5e32b7bb101ef,Goldener Drache,48.113736067396644,11.602837001983604,Chinese Restaurant
1633,1633,48.1951,11.455333333333336,7,3,4ebd15585c5c279832d9e2a2,Sicilia,48.193331,11.459387,Italian Restaurant
2029,331,48.13283907066761,11.559809528594036,8,1,4ebd5d01f790ce9dc9078db0,Asia Sushi & Wok,48.13079532839146,11.56116706512162,Asian Restaurant
1413,1413,48.1651,11.570888888888891,43,7,4ec2b8def5b91b50a74da639,Yum2Take,48.16121610202578,11.567763503935714,Thai Restaurant
2206,508,48.1373609293324,11.57425397303848,48,43,4ec44bf902d54e7046cb0e74,confcall mexico,48.13695307091673,11.575808526986751,Mexican Restaurant
68,68,48.0851,11.498666666666667,4,1,4ec57b524690b682a445a0e6,Restaurant Avli,48.0835984985783,11.494197521234153,Greek Restaurant
393,393,48.1251,11.542000000000002,31,20,4ec674349adf9c7bf1c28751,Hendl Döner,48.125828000000006,11.540236,Doner Restaurant
336,336,48.1151,11.599777777777776,13,12,4ec91e55be7ba4fc705d1c35,Argo,48.11558727881444,11.598167509833967,Greek Restaurant
912,912,48.1351,11.628666666666668,5,3,4eca2d5930f8b09c0f12ce00,Kaninchenzuchtverein,48.135684334486534,11.625621278816404,German Restaurant
1533,1533,48.1751,11.570888888888891,9,4,4eca8f01cc21b428e69b5c65,Bella Italia,48.171344377261505,11.567912925823064,Italian Restaurant
1583,1583,48.1851,11.556444444444445,7,0,4ecb8c81f5b90c1c3365bfd1,Döner Pizza Olympia,48.18196511141564,11.552728272513821,Falafel Restaurant
947,947,48.1451,11.455333333333336,17,11,4ecc0bee49015d98b1ec55dd,Lemontrees II,48.14542617385992,11.459461024302133,Thai Restaurant
80,80,48.0851,11.614222222222226,1,0,4eccd217b6344934dd1127d1,Da-Pino,48.081373408599475,11.614998397007485,Italian Restaurant
945,945,48.1451,11.455333333333336,17,9,4ece8de59adf254454ca7e4a,Gold Bambus,48.1463809585948,11.459182103006981,Sushi Restaurant
2570,872,48.15736092933239,11.574255284522106,31,17,4ecf827bf790d070375b0f07,M5,48.157893,11.57559,Vietnamese Restaurant
1675,1675,48.2051,11.542000000000002,2,0,4ed136a10e61efa332066553,La Cappanina,48.20932387162141,11.54419583516322,Italian Restaurant
357,357,48.1251,11.426444444444444,1,0,4ed13fb3b8f7971d6ba6b69f,Bella Theranda,48.1233798315916,11.42588944782307,Italian Restaurant
26,26,48.0651,11.657555555555556,9,5,4ed3865db634dd2995211cb5,Vu Garden,48.06492600067669,11.664092971938851,Vietnamese Restaurant
577,577,48.1251,11.628666666666668,11,5,4ed522d80aafb9162751293f,Bräu Girgl,48.127970134436424,11.630092596181905,German Restaurant
2194,496,48.1373609293324,11.57425397303848,48,31,4ed5451f5c5c6e249382f7c7,Zum Ewigen Licht Restaurant - Cafe am Marienplatz,48.13660187102125,11.577086084681316,German Restaurant
576,576,48.1251,11.628666666666668,11,4,4ed672db8b816659939c23be,Ngon Restaurant (Sushi & Vietnamesische Küche),48.12626647949219,11.63165283203125,Asian Restaurant
109,109,48.0951,11.498666666666667,8,5,4ed8ca7802d5244e2e76f50b,Restaurant Fürstenrieder im Bürgerhaus,48.094708515337,11.49993215426364,Eastern European Restaurant
509,509,48.1251,11.585333333333335,23,17,4edb7dddf9abeea3daed6cac,Margherita,48.12651477834454,11.591499378538673,Italian Restaurant
321,321,48.1151,11.585333333333335,30,27,4edf9e2ed3e36374e242f02c,Das obagiasinga Wirtshaus,48.11702644175286,11.590402132979634,German Restaurant
317,317,48.1151,11.585333333333335,30,23,4eec5b6202d514a368c19e0f,Spesa e Spuntini,48.1130952633431,11.586300530462735,Italian Restaurant
311,311,48.1151,11.585333333333335,30,17,4ef1ccbe0e617e29c64eb356,Goldstäbchen Asia,48.114543468018105,11.579175643786078,Thai Restaurant
2116,418,48.1373609293324,11.5675238047393,50,43,4f0342ddbe7bbcd4f6cedf5c,ماكدونال.,48.13746898719258,11.565020011424446,American Restaurant
417,417,48.1251,11.556444444444445,50,13,4f05884fb8f7dcbb3fe78a55,Thang Long,48.125373803479526,11.550055243143213,Thai Restaurant
2051,353,48.1351,11.570888888888891,37,15,4f1017ede4b0044a21b59374,yambai thai garden restaurant,48.13454195230806,11.570946057237373,Asian Restaurant
480,480,48.1251,11.570888888888891,38,26,4f16c0f3e4b06c588fca078c,Dim Sum Bistro,48.128360228391045,11.569450580853,Dim Sum Restaurant
1610,1610,48.1851,11.585333333333335,11,4,4f195821e4b00ed353b494e2,L'Angolo,48.187278138837534,11.584246342886688,Italian Restaurant
1231,1231,48.1551,11.542000000000002,37,24,4f1b1c69e4b07beffda18d44,Hannes,48.15257437574477,11.53995175947041,German Restaurant
294,294,48.1151,11.585333333333335,30,0,4f1c5759e4b01d7c5f89a7b3,Attentat Griechischer Salat,48.117444175459184,11.584255871937337,Greek Restaurant
104,104,48.0951,11.498666666666667,8,0,4f2aa8ade4b05997ed44447e,Marielitas,48.09566655036766,11.497594770785724,Mexican Restaurant
329,329,48.1151,11.599777777777776,13,5,4f2bc475e4b0a98a48c97799,Kitchen Corner,48.11574016,11.60296636,Doner Restaurant
2578,880,48.15736092933239,11.574255284522106,31,25,4f3428fde4b0935810bff163,Salò Pizzeria Bar,48.15532447814719,11.574712434392204,Italian Restaurant
176,176,48.1051,11.542000000000002,12,7,4f38ef3ee4b0edf91e7b6770,Bei Luigie,48.1041112986709,11.539822450931736,Italian Restaurant
371,371,48.1251,11.527555555555557,3,1,4f3bed86e4b0cdda84accbd0,Zum Freistoss,48.12718588607471,11.524881573234534,German Restaurant
1771,73,48.12283907066761,11.559808873389029,10,3,4f4250b6e4b024a96b575bee,QuattroTavoli,48.12222879654228,11.56177044731182,Italian Restaurant
510,510,48.1251,11.585333333333335,23,18,4f47d862e4b0e445051f5e42,Le Jardin,48.127860553084666,11.589251602519411,German Restaurant
2016,318,48.1373609293324,11.559809528594036,50,38,4f53ba42e4b0d9ab7bdc70e4,Döner Kebap,48.13955639840472,11.55979164506963,Doner Restaurant
1371,1371,48.1551,11.643111111111114,7,4,4f5b9688e4b0d8f7b626d814,Ristaurante Rialto,48.15136261428745,11.640778385775429,Italian Restaurant
305,305,48.1151,11.585333333333335,30,11,4f5ce8e9e4b0cfc5e227d2e6,Valentino Restaurant,48.11918983816433,11.58358086861525,Italian Restaurant
641,641,48.1351,11.527555555555557,28,20,4f5f2fb2754ad40fb87aaa38,Kantine im Fraunhofer,48.13225314504306,11.528957880160739,German Restaurant
1535,1535,48.1751,11.570888888888891,9,6,4f6092c0e4b0aee0148576a2,La Spiga D'Oro,48.17747381234002,11.572906262177645,Italian Restaurant
1655,1655,48.1951,11.614222222222226,3,0,4f60db5ee4b0ba0ce09ee872,La Lucania,48.19232559204102,11.61807918548584,Italian Restaurant
910,910,48.1351,11.628666666666668,5,1,4f6363e9e4b0cded5b7349fd,Döner Box,48.131991305799936,11.6252581043593,Doner Restaurant
500,500,48.1251,11.585333333333335,23,8,4f64e602e4b03a7ce164106a,Inszenario,48.12750874745698,11.589699227372153,Italian Restaurant
430,430,48.1251,11.556444444444445,50,26,4f6b6dbbe4b01a6dd5fddaaa,Zunfthaus,48.12558297333541,11.562336817860473,German Restaurant
38,38,48.0751,11.513111111111114,5,2,4f6f1791e4b0221c2d99e43c,Iberl's Gasthaus & Biergarten,48.070886541432216,11.514804706609961,German Restaurant
1674,1674,48.2051,11.527555555555557,1,0,4f7080f0e4b04cb29683164b,Gaststätte Fasanerie See,48.206050242855646,11.534006335781974,German Restaurant
2147,449,48.13283907066761,11.5675238047393,40,24,4f764a03e4b015b23bfc3d70,Techno Döner,48.1322221226752,11.567154497949975,Doner Restaurant
1269,1269,48.1551,11.556444444444445,33,25,4f7b4d0fe4b01ee86844f53b,Toskana Pizzaria,48.15277192146805,11.555529219557435,Italian Restaurant
2132,434,48.13283907066761,11.5675238047393,40,9,4f830f4ee4b024a26fbb1eca,Itxaso Tapas,48.13126223130549,11.567406793915307,Spanish Restaurant
964,964,48.1451,11.469777777777779,15,11,4f8328fce4b06d09fbbae0d5,Saigon Plaza,48.14494556367133,11.474166234792945,Vietnamese Restaurant
1435,1435,48.1651,11.570888888888891,43,29,4f88829ee4b0b1c4aee3e8a4,Little Sai Gon,48.16452279365405,11.574848144479027,Vietnamese Restaurant
332,332,48.1151,11.599777777777776,13,8,4f8d494ce4b00951aff12442,Restaurant Wok & More,48.11565581246767,11.598138584569783,Asian Restaurant
1190,1190,48.1551,11.527555555555557,24,7,4f8ff260e4b04e17444caef5,La Luna,48.15211459246507,11.52876813572134,Italian Restaurant
32,32,48.0651,11.672,4,2,4f903fc9e4b01582b33f62cf,König Döner Burger Haus,48.06208903218078,11.67509310468472,Doner Restaurant
1667,1667,48.1951,11.643111111111114,12,7,4f90450be4b063d0a0ef404f,Döner Kebap,48.19311480616018,11.641031463602245,Doner Restaurant
917,917,48.1351,11.657555555555556,2,1,4f97d4cfe4b0c0b1d2a36e1c,Lo' canta,48.13635318786304,11.662917911455288,Italian Restaurant
1345,1345,48.1551,11.585333333333335,33,18,4f99d516e4b0922288bbbb84,Cantina Mexicana,48.15712925193307,11.584771706503833,Mexican Restaurant
1649,1649,48.1951,11.570888888888891,5,4,4f9c0500e4b0b04584929421,Oliva,48.197059834276246,11.571716143804073,Turkish Restaurant
342,342,48.1151,11.614222222222226,8,5,4f9c08e5e4b017ea4a939566,Legend's,48.114701691970566,11.617081249422645,Turkish Restaurant
300,300,48.1151,11.585333333333335,30,6,4f9ef5a7e4b033ffd5c70191,Mystikon,48.11266203458703,11.584352011769015,Greek Restaurant
195,195,48.1051,11.599777777777776,9,5,4fa01fb0e4b027acbf8684bc,al campo,48.10341000335588,11.597493551980234,Italian Restaurant
1160,1160,48.1551,11.426444444444444,2,1,4fa25bcde4b0668cac07190e,Feinkost Gulet,48.155590473322725,11.423098433780785,Turkish Restaurant
499,499,48.1251,11.585333333333335,23,7,4fa28993e4b01ab96ad19e46,Feisinger's Kas und Weinstub'n,48.125829377581006,11.583736538887026,Bavarian Restaurant
1657,1657,48.1951,11.614222222222226,3,2,4faaebf9e4b02a0013cfcb95,Family Döner,48.196002,11.619828,Doner Restaurant
145,145,48.0951,11.643111111111114,2,0,4facf30de4b021d749b0872a,DönerImbiss,48.09680380232157,11.644246096316461,Doner Restaurant
1078,1078,48.1451,11.570888888888891,40,20,4fad45b6e4b08541e9312b5c,เจ้าคุณ Thai Restaurant,48.14586,11.572184,Thai Restaurant
1534,1534,48.1751,11.570888888888891,9,5,4fb4cf3fe4b08e75bef019c0,Lucky Roll,48.17359662777968,11.56552579142064,Chinese Restaurant
1083,1083,48.1451,11.570888888888891,40,25,4fb62885e4b0bf7a6c01f2b7,Asian Cuisine,48.14309,11.575538,Asian Restaurant
42,42,48.0751,11.542000000000002,2,1,4fb63aabe4b014d752ad373e,Ristorante La Terra Rossa,48.07275992299129,11.536843478679655,Italian Restaurant
2018,320,48.1373609293324,11.559809528594036,50,40,4fb838f1e4b042b08e8fa83b,Authentic Italian Cuisine,48.1392593383789,11.55983066558838,Italian Restaurant
488,488,48.1251,11.570888888888891,38,34,4fbfd983e4b0f6b4ed56413c,Mordimi,48.12835145991496,11.570282622040674,Italian Restaurant
1505,1505,48.1651,11.643111111111114,4,1,4fc3ca76e4b071420f8e6648,La Cucinetta Bistro.Bar,48.164767499999996,11.6439811,Italian Restaurant
120,120,48.0951,11.527555555555557,7,3,4fc4961ce4b02c5563164f30,Ha Noi,48.09755714158658,11.53101626646723,Asian Restaurant
981,981,48.1451,11.498666666666667,12,11,4fc51d3ee4b00cc02436d018,Dachterasse Deutsche Bahn,48.14385057964214,11.49939511309015,Argentinian Restaurant
1522,1522,48.1751,11.527555555555557,4,2,4fc746cfe4b074a6796f08d0,Grüner Frosch,48.174813514776105,11.528896182856224,Asian Restaurant
1791,93,48.1273609293324,11.596413348833194,46,2,4fccfc5de4b0131cb49be485,Pitahaya,48.12731208110553,11.593069250655072,Asian Restaurant
875,875,48.1351,11.599777777777776,37,26,4fce5787754a73e751a75551,Nostro Bistrorante,48.13872846581907,11.598901748657227,Italian Restaurant
883,883,48.1351,11.599777777777776,37,34,4fcf9afae4b0313628b0d8a8,Nostro,48.138571,11.598988,Italian Restaurant
2462,764,48.14736092933239,11.559810184156827,31,22,4fd37010e4b0a8f5710fbd70,Café Bismarck,48.14615892109417,11.559758841881735,German Restaurant
1215,1215,48.1551,11.542000000000002,37,8,4fd79d21e4b0d51487623c21,Il Trullo,48.156440729520284,11.538514149849908,Italian Restaurant
2139,441,48.13283907066761,11.5675238047393,40,16,4fdb73c4e4b053d4b35ec7cd,kilim,48.1322,11.569560000000001,Turkish Restaurant
1550,1550,48.1751,11.599777777777776,10,4,4fddc326e4b09d4fcca30bc4,Gaststätte Alte Heide,48.178532110053894,11.598137590678546,German Restaurant
1521,1521,48.1751,11.527555555555557,4,1,4fe05a06e4b0f752583525a4,Dönertier,48.17778981022411,11.531025805394108,Doner Restaurant
911,911,48.1351,11.628666666666668,5,2,4fe0aae6e4b0a3fcbfa0563d,Sultan Imbiss,48.13177527176886,11.625550827804954,Doner Restaurant
0,0,48.0651,11.527555555555557,2,0,4fe1a237e4b0ce7bb0c7e308,Frosthaus Gympu,48.06679300943853,11.52641081207909,American Restaurant
1951,253,48.1351,11.556444444444445,20,10,4fe339b0e4b08209955092a6,Sushi Bar and Asian Wok,48.13487387504588,11.55736058525335,Asian Restaurant
405,405,48.1251,11.556444444444445,50,1,4fe4bface4b043458f799d1a,Iveria,48.124992,11.549678,Caucasian Restaurant
2737,56,48.136230464666205,11.558126912425838,16,13,4fe63067e4b051b5c2005789,Yakamoz,48.13638465371304,11.559223895628914,Turkish Restaurant
567,567,48.1251,11.614222222222226,7,2,4fe84937e4b08674cb1289ab,Kantine Piusstraße,48.123315999999996,11.610013,Greek Restaurant
2202,504,48.1373609293324,11.57425397303848,48,39,4feb23d2e4b076a38bc7bd76,خووووش بيتزا ومأكولات ايطاليه,48.138195,11.574627,Italian Restaurant
252,252,48.1151,11.527555555555557,11,4,4feb35a2e4b06a56cf05e420,Hong Kong Bar,48.11503582202995,11.533948843602483,Asian Restaurant
211,211,48.1051,11.643111111111114,10,7,4feb4062e4b08ceec49cc4fc,"Dönerimbiss ""Bei Sina""",48.108932,11.643425,Doner Restaurant
1,1,48.0651,11.527555555555557,2,1,4ff29d24e4b0036a4ac677ea,Kasse Cafeteria Gympu,48.06649163062618,11.52599755222074,African Restaurant
1138,1138,48.1451,11.599777777777776,19,17,4ff2c852e4b09c1e8595aa91,Maquis Solange,48.14765291547906,11.595613906835714,African Restaurant
2391,693,48.13283907066761,11.588698417482927,23,15,4ff2cd05e4b0ac2747015cb0,KAP-LAN,48.132366446537844,11.589079794578405,Turkish Restaurant
1130,1130,48.1451,11.599777777777776,19,9,4ff3460bf2e74b7fe4a1c848,Nuovo Casale,48.14236451864316,11.60424635268859,Italian Restaurant
1338,1338,48.1551,11.585333333333335,33,11,4ff573b9e4b03705cd7b63c4,HQ-WOK,48.158057706560534,11.585175847203233,Asian Restaurant
215,215,48.1051,11.657555555555556,5,1,4ff57706e4b04619c699aa38,Hot Wok,48.106729,11.656258,Asian Restaurant
1954,256,48.1351,11.556444444444445,20,13,4ff588eae4b0d6158368e2ca,Criechische,48.136381,11.556375,Greek Restaurant
2765,84,48.136230464666205,11.56149214476223,14,13,4ffad8cbe4b045d12fbaabd9,مطعم درياه,48.135993,11.560902,Arepa Restaurant
1229,1229,48.1551,11.542000000000002,37,22,4ffc1a23e4b0a2404436e441,Vian Sushi,48.15806025786066,11.538927932435396,Sushi Restaurant
1512,1512,48.1751,11.455333333333336,2,1,5001fe0be4b042c51c92abd3,Sushiaki,48.173935,11.457227,Sushi Restaurant
934,934,48.1451,11.440888888888885,5,3,5002f4b6e4b09fa8c430d1b1,Schillers,48.148534000000005,11.442152,German Restaurant
240,240,48.1151,11.498666666666667,6,1,50093441e4b02b1cbab988c2,Döner Imbiss,48.116258,11.50287,Doner Restaurant
339,339,48.1151,11.614222222222226,8,2,5009b283e4b0823f61532b2d,Goldenes Ross,48.11817551879889,11.612431578675471,German Restaurant
502,502,48.1251,11.585333333333335,23,10,501315d8e4b06b8dcbad61e1,Apostels Restaurant,48.126843285058825,11.582465406719505,Greek Restaurant
1600,1600,48.1851,11.570888888888891,16,10,5013dab5e4b0c7c30cfbaa16,Dankeskirche Döner,48.182236665894315,11.568072440889996,Doner Restaurant
999,999,48.1451,11.542000000000002,18,9,50140ae7e4b035462976cc06,Kitchen AlMi,48.14380451932158,11.543451503046802,German Restaurant
761,761,48.1351,11.570888888888891,50,12,50143667e4b0c79e483256fd,ZWICKL Gastlichkeit am Viktualienmarkt,48.13523999629261,11.577249325837808,German Restaurant
1261,1261,48.1551,11.556444444444445,33,17,5016684ce4b0260c42ee13e6,Raffus Wirtshaus,48.153494225332786,11.554829620607235,German Restaurant
1554,1554,48.1751,11.599777777777776,10,8,50195847e4b02c6087ef197d,Ristorante Grazia,48.176692476693965,11.600869704368002,Italian Restaurant
1273,1273,48.1551,11.556444444444445,33,29,501d1194e4b0db1da5e3d1da,iMango,48.153963323493436,11.55424666778228,Asian Restaurant
581,581,48.1251,11.628666666666668,11,9,50200334e4b024363299f583,alhabib,48.12725,11.629553999999999,Turkish Restaurant
1381,1381,48.1651,11.469777777777779,4,2,502903f8e4b08c739c87e2a7,Ristorante Verdi,48.16479768261199,11.474286268733561,Italian Restaurant
1443,1443,48.1651,11.570888888888891,43,37,50292d41e4b0c80453e80714,PHÒ VIÊT-NAM Sushi,48.162251,11.57496,Asian Restaurant
108,108,48.0951,11.498666666666667,8,4,502bab6ae4b067dfe6d9e3d4,Forstenrieder Cafe/Restaurant,48.098300446597264,11.498311157833399,German Restaurant
1418,1418,48.1651,11.570888888888891,43,12,50311010e4b047ef9b3a46bc,Pearl Garden,48.167106598644686,11.573133103848717,Vietnamese Restaurant
1508,1508,48.1651,11.657555555555556,1,0,503140d4e4b0b5d01e064222,Aqua Lounge & Restaurant,48.166359,11.656798,Mediterranean Restaurant
1354,1354,48.1551,11.585333333333335,33,27,5033cf4fe4b0412b103b0372,Mumbia,48.15629577636719,11.583782196044922,Indian Restaurant
18,18,48.0651,11.614222222222226,14,12,5035262fe4b0aa0a3ca6998d,Anh Anh Asia & Sushi,48.06570491934463,11.612120711375733,Asian Restaurant
1607,1607,48.1851,11.585333333333335,11,1,50360866e4b02de936bd9a35,Goloseo Fashion CaféCafé,48.187843899841006,11.581362762409674,Italian Restaurant
400,400,48.1251,11.542000000000002,31,27,50408f32e4b0591b2235a688,Lafkioti,48.122291365996574,11.545132499173999,Greek Restaurant
913,913,48.1351,11.628666666666668,5,4,50423407e4b08976e99d68d1,Zum Knöferl,48.136080180264756,11.63035237031426,German Restaurant
582,582,48.1251,11.628666666666668,11,10,505388b0e4b01eeee50ae8b1,Pizzeria Tricolore,48.12608967510088,11.631630462754915,Italian Restaurant
568,568,48.1251,11.614222222222226,7,3,505a1097e4b09d4701742b89,Palet Bar & Grill,48.12677759159395,11.608525514602661,Turkish Restaurant
1154,1154,48.1451,11.657555555555556,1,0,505ab618e4b02caeb1cdb0c2,Traber Stadl,48.14394907720593,11.660182622340386,German Restaurant
256,256,48.1151,11.527555555555557,11,8,50660b34e4b0cbb8e947de57,Raschkes Burgerfest,48.114855,11.527907,American Restaurant
159,159,48.1051,11.513111111111114,3,0,5067087de4b0ca8b1f3e4667,Sandi's Döner,48.105731953526046,11.518290086631445,Doner Restaurant
364,364,48.1251,11.498666666666667,5,0,50673c78e4b073ee75ff4d1e,Altzinger,48.12505722045898,11.496956825256348,German Restaurant
477,477,48.1251,11.570888888888891,38,23,506dc477e4b0258b1ea0326a,thaimama,48.126166705841186,11.56442315241599,Thai Restaurant
1074,1074,48.1451,11.570888888888891,40,16,50706b79e4b09822b893284c,Anatolia Kebap Haus,48.1486484869848,11.574871988909152,Doner Restaurant
1398,1398,48.1651,11.542000000000002,7,4,5073256ae4b0ed9e49464ae2,Johann Wolfgang,48.1622766304492,11.547239498573324,German Restaurant
1591,1591,48.1851,11.570888888888891,16,1,50759af4e4b0817b79cccdc2,Rabiang Thai,48.180776677187254,11.571211407312065,Thai Restaurant
1241,1241,48.1551,11.542000000000002,37,34,5076b8cce4b0de29de0b9108,La Strada,48.15803588474227,11.544749613199288,Italian Restaurant
1203,1203,48.1551,11.527555555555557,24,20,50785b8ee4b0a4757d43cee6,Quán Cơm,48.15266365118513,11.531742591181402,Vietnamese Restaurant
308,308,48.1151,11.585333333333335,30,14,507c41ece4b01dd0362a9879,Paulaner Valentino,48.118697999999995,11.582388,Italian Restaurant
197,197,48.1051,11.599777777777776,9,7,507d6595e4b0277b94279912,Da Domenico,48.10435942725915,11.602388335466706,Italian Restaurant
2552,854,48.1528390706676,11.567522493255673,15,14,5081854be4b01d45a12cb7e8,Apollon,48.15389094900475,11.564631226243607,Greek Restaurant
1357,1357,48.1551,11.585333333333335,33,30,508a74c5e4b06f6d183a5b4c,Thai Krung Si,48.15492850748088,11.585641471186435,Thai Restaurant
893,893,48.1351,11.614222222222226,23,7,508abcf4e4b06f6d186bb9ef,Asis,48.136739,11.609554,Chinese Restaurant
137,137,48.0951,11.599777777777776,2,0,5099c4fce4b064aadc975dee,Dönerstand,48.09431076049805,11.597243309020994,Doner Restaurant
63,63,48.0851,11.484222222222225,8,4,509e97a3e4b00adc5e54406c,Nudel's,48.08243998184185,11.485313768822355,Italian Restaurant
2536,838,48.15736092933239,11.567522493255673,9,7,509eb403e4b076197c35bd22,Com Viet,48.15743130588204,11.570618773275449,Vietnamese Restaurant
1230,1230,48.1551,11.542000000000002,37,23,509fec01e4b0577f9edd1860,Die Woks - China Thai,48.15721837434865,11.53739386164801,Chinese Restaurant
2153,455,48.13283907066761,11.5675238047393,40,30,50ad44a8498e258b05a21048,Palau,48.13163352982786,11.566556580750651,Spanish Restaurant
1626,1626,48.1851,11.643111111111114,2,1,50b4e991011cebb1e5668d6e,King Wok,48.18927944001528,11.644670963287355,Asian Restaurant
2549,851,48.1528390706676,11.567522493255673,15,11,50ba7d87e4b06d86d9ead9e3,Puschkin,48.15233612060547,11.56783676147461,Eastern European Restaurant
1247,1247,48.1551,11.556444444444445,33,3,50bb8050e4b06d86daa0f628,Viethaus,48.15460259102769,11.560785233975821,Vietnamese Restaurant
629,629,48.1351,11.527555555555557,28,8,50bf351de4b04b3a5f795a45,YEN'c Hot Pot Gourmet,48.133019,11.532824,Hotpot Restaurant
2389,691,48.13283907066761,11.588698417482927,23,13,50bfc5f7e4b06e3ca758d23a,Wirtshaus am Gasteig,48.13198605724756,11.588867906320596,German Restaurant
333,333,48.1151,11.599777777777776,13,9,50c14512e4b078191b10ebbc,Прага,48.11502456665039,11.59826374053955,American Restaurant
65,65,48.0851,11.484222222222225,8,6,50c4606de4b047e9d4b22920,lion Ki G,48.08220291137695,11.485764503479006,Asian Restaurant
184,184,48.1051,11.570888888888891,5,2,50c4f9c4e4b013fc6b4f0072,Manzil,48.108094668870926,11.57322420278794,Indian Restaurant
1445,1445,48.1651,11.570888888888891,43,39,50c77cb9e4b046f20bfb5be6,Thu Restaurant,48.16470670106551,11.574341188577987,Vietnamese Restaurant
1167,1167,48.1551,11.484222222222225,3,2,50c9b6fce4b0fe058e8efb6a,Beim Dönermann,48.15402713329846,11.47839224409248,Doner Restaurant
1541,1541,48.1751,11.585333333333335,8,3,50ca28ebe4b0b713c6c742ca,Ifang,48.175374959798404,11.581858679020277,Japanese Restaurant
2548,850,48.1528390706676,11.567522493255673,15,10,50d1bec4e4b0da94342e8c36,Pizzeria La Perla,48.15237771397826,11.568060657147946,Italian Restaurant
852,852,48.1351,11.599777777777776,37,3,50d5f231e4b091e308eaae58,Hostaria Fratelli,48.133703999999994,11.596451,Italian Restaurant
459,459,48.1251,11.570888888888891,38,5,50d631fee4b02f7398bc42f7,Cordo Bar,48.129058779998296,11.571832208813193,Tapas Restaurant
1076,1076,48.1451,11.570888888888891,40,18,50dd37c2e4b021301d34f7dc,Indian,48.143136403480646,11.575846734917427,Indian Restaurant
631,631,48.1351,11.527555555555557,28,10,50dd831ae4b0ec80ac88297c,Segafredo,48.13780127200203,11.523870543550668,Italian Restaurant
218,218,48.1051,11.657555555555556,5,4,50ec68ebe4b0b63dc3fd9773,Iskender Kebap Haus,48.106947999999996,11.656427,Doner Restaurant
1812,114,48.1273609293324,11.596413348833194,46,23,50f17342e4b0ba6d600d0975,Nen-Imbiss,48.12809988270791,11.594500938987661,Vietnamese Restaurant
483,483,48.1251,11.570888888888891,38,29,50f30928e4b0f7404748181f,Sushi Soi,48.12453734429601,11.566241606526566,Japanese Restaurant
1545,1545,48.1751,11.585333333333335,8,7,50f94191e4b024a67d70e8db,Langenscheidt Kantine,48.17682548694321,11.591506750621779,German Restaurant
2763,82,48.136230464666205,11.56149214476223,14,11,50fef154e4b06b7ff8332dc5,Oriental Palace,48.13640184161378,11.56264352716349,Falafel Restaurant
1439,1439,48.1651,11.570888888888891,43,33,5101775ce4b01ca9b6ced7b7,Galini,48.16337396377306,11.574224738394706,Greek Restaurant
952,952,48.1451,11.455333333333336,17,16,5101778ee4b033a3f609a8a9,City Döner & Pizza Haus,48.14866162997971,11.458163506476907,Turkish Restaurant
433,433,48.1251,11.556444444444445,50,29,510f99e4e4b00af1c72f47ca,Eura Döner,48.1254930496216,11.5502281188965,Doner Restaurant
1574,1574,48.1851,11.527555555555557,9,3,511188e9e4b0042c1532641a,Seydlitzstüberl,48.18335894918364,11.525185767754936,German Restaurant
1267,1267,48.1551,11.556444444444445,33,23,511b87c4e4b0417fa9785c4f,Kim Phat,48.155254295673416,11.561535102974643,Vietnamese Restaurant
2733,52,48.136230464666205,11.558126912425838,16,9,511f7b73e4b00145da4463c2,Antep Kebap,48.136841912432004,11.55859999246315,Doner Restaurant
14,14,48.0651,11.614222222222226,14,8,511fd703e4b045d0331e2696,Las Puertas,48.066138,11.610866999999999,Mexican Restaurant
1683,1683,48.2151,11.455333333333336,1,0,5121126fe4b0c66bd982613e,Zur Deutschen Südsee Insel,48.213695712586095,11.461537620195127,German Restaurant
246,246,48.1151,11.513111111111114,3,1,51211ef2e4b016a07a800188,hot wok sendling,48.11303338823089,11.516466203199835,Asian Restaurant
956,956,48.1451,11.469777777777779,15,3,51224976e4b0b3e2b70f4944,O'Sushi,48.14738377300058,11.464093923568726,Sushi Restaurant
958,958,48.1451,11.469777777777779,15,5,51225d85e4b05d4231276e13,Picarito,48.14724776209094,11.46399736404419,Mexican Restaurant
1342,1342,48.1551,11.585333333333335,33,15,51274b0c395022084e171649,Asahi Running Sushi,48.15829236772501,11.5843748794574,Sushi Restaurant
905,905,48.1351,11.614222222222226,23,19,512c9f15e4b0a7144f9f85cb,Taksim Kebabhaus,48.13797419749083,11.61643809107204,Turkish Restaurant
1759,61,48.1273609293324,11.559808873389029,37,28,512ce45ee4b049302da19944,Kumpir,48.127618,11.557841999999999,Turkish Restaurant
146,146,48.0951,11.643111111111114,2,1,512d20cbe4b0ac0df0d3ff0a,"Mercure Restaurant ""SCHÖN | WEISS""",48.092055754014176,11.64429962190676,German Restaurant
1400,1400,48.1651,11.542000000000002,7,6,5130ef72e4b0b7da5129cce6,Uldag Kebab Haus,48.16372497577846,11.546374942749102,Turkish Restaurant
2162,464,48.13283907066761,11.5675238047393,40,39,5135f52be4b0f738470cd7a6,Bazi´s Schlemmerkucherl,48.131298,11.568403,German Restaurant
1064,1064,48.1451,11.570888888888891,40,6,513720d8e4b01ca5f01343af,Briciole,48.14568716761097,11.576210226664806,Italian Restaurant
188,188,48.1051,11.585333333333335,3,1,5138ac8ae4b0676a0a380334,capolinea,48.1079009709367,11.588901531370823,Italian Restaurant
2189,491,48.1373609293324,11.57425397303848,48,26,5139d8cfe4b0bd1ff2e18dae,Susse Erdbeerren,48.13744825708704,11.574371494187845,Asian Restaurant
2154,456,48.13283907066761,11.5675238047393,40,31,513dded4e4b0cc27b35fcb49,ifang,48.13387688684632,11.566338567235816,Sushi Restaurant
1520,1520,48.1751,11.527555555555557,4,0,5141bb97e4b0e18906416a64,Döner Macht Schöner,48.177732,11.531087,Doner Restaurant
676,676,48.1351,11.542000000000002,50,27,51421ff7e4b03cf3fddbb6e2,Que Huong,48.139205903781345,11.541238340447318,Asian Restaurant
467,467,48.1251,11.570888888888891,38,13,5145f0c3e4b027a906de7a37,Original Sushi Soi,48.12488,11.566107,Asian Restaurant
1767,69,48.1273609293324,11.559808873389029,37,36,5149b911e4b0994d77b4ef9e,Tengri Tagh,48.128861437108434,11.55842627816596,Xinjiang Restaurant
1976,278,48.1373609293324,11.553079360294854,17,15,514c95cce4b0ccf66476e5fd,Hamsi Haus,48.13723481740769,11.553082399807412,Turkish Restaurant
1586,1586,48.1851,11.556444444444445,7,3,514caa2ae4b09c54209ff57b,Achillion,48.18668836398256,11.56194406027886,Greek Restaurant
166,166,48.1051,11.527555555555557,7,4,5151d2c8e4b0f160b203edb2,Kebap House,48.103288,11.532389,Doner Restaurant
2048,350,48.1351,11.570888888888891,37,12,5152e545e4b088d76fdb72d2,Yooo Creative Eating,48.13484406390288,11.569347452921436,Asian Restaurant
199,199,48.1051,11.614222222222226,1,0,5155f230e4b0ab4dbf55694f,peltsun residenssi,48.107948303222656,11.613000869750975,Scandinavian Restaurant
974,974,48.1451,11.498666666666667,12,4,515dc57ce4b0200c0459b467,Hubertus Wirtshaus cafe • bar,48.14354145924611,11.49478605967237,German Restaurant
2199,501,48.1373609293324,11.57425397303848,48,36,515eb08de4b0b5353d126a1f,Gesund & Köstlich,48.137736,11.575577000000001,German Restaurant
957,957,48.1451,11.469777777777779,15,4,51628dd7e4b0c469abe90ba0,Atlas Imbiss Döner,48.14521116278162,11.47097405859853,Doner Restaurant
634,634,48.1351,11.527555555555557,28,13,5162d1dee4b0e93e2e6e1f1d,KEFA Nays,48.136864368963245,11.522735597459336,Turkish Restaurant
1176,1176,48.1551,11.513111111111114,14,7,51644ad0e4b0bcb0ca9ee17a,Die Griechin am Schloss,48.1566015681146,11.51138464854617,Greek Restaurant
1137,1137,48.1451,11.599777777777776,19,16,51654737e4b0a7558a5a8366,Hundertvierundzwanzig,48.14776816192534,11.605098413335414,German Restaurant
2393,695,48.13283907066761,11.588698417482927,23,17,51654d22e4b0a8efc3fb0ac0,Muvuca,48.1313647386921,11.589397254980295,Brazilian Restaurant
1195,1195,48.1551,11.527555555555557,24,12,51729e7ee4b0cf8b88923520,Antep Kebap,48.15206008055309,11.528642525504795,Doner Restaurant
2571,873,48.15736092933239,11.574255284522106,31,18,5172d9b4e4b0480d2d10046c,Ha noi-City,48.156656,11.575533,Asian Restaurant
627,627,48.1351,11.527555555555557,28,6,51750216e4b043edd221504b,Bami Asia Bistro,48.137222299975,11.523185098400452,Asian Restaurant
637,637,48.1351,11.527555555555557,28,16,51750b24e4b0e47c09058a8c,Peucker & Fillers Feinkost (Hit Markt),48.1373133122198,11.523062411881707,Turkish Restaurant
1770,72,48.12283907066761,11.559808873389029,10,2,51782dbbe4b076e1ba137db2,Yol,48.12106475084199,11.56141253208105,Turkish Restaurant
1516,1516,48.1751,11.498666666666667,2,0,517a4c58e4b0160f6887b1cd,Sultanim Imbiss,48.17767796675021,11.496689213040021,Doner Restaurant
646,646,48.1351,11.527555555555557,28,25,517a573be4b0fd9a2127e30f,Kleingarten Villa Flora,48.1314,11.527754,German Restaurant
2564,866,48.15736092933239,11.574255284522106,31,11,517ad655e4125217ca4b0041,vinpasa ristorante e bar,48.15940141909029,11.573109626770018,Italian Restaurant
1232,1232,48.1551,11.542000000000002,37,25,517adf6de4b04a9c4026b0e9,Cucina Sarda,48.155456,11.548585000000001,Italian Restaurant
1623,1623,48.1851,11.614222222222226,2,1,517aebe4e4b00ccc43794b6a,Ilios,48.18914123171186,11.613989238991461,Greek Restaurant
1571,1571,48.1851,11.527555555555557,9,0,518a8d27498ef7ed620558a6,"Döner gegenüber OEZ ""Keb up""",48.18431528549785,11.53113842010498,Doner Restaurant
1177,1177,48.1551,11.513111111111114,14,8,518b7772498eb2c8f4d3b85a,Reiskorn,48.15645714100173,11.511386889223296,Asian Restaurant
1765,67,48.1273609293324,11.559808873389029,37,34,518b9e1a498e94d9adbe267a,Devin Café Bistro,48.128712,11.561143,Turkish Restaurant
1216,1216,48.1551,11.542000000000002,37,9,518beabd498ec40719834a9c,Jaipur Palace,48.15364229704459,11.53695631850297,Indian Restaurant
1677,1677,48.2051,11.570888888888891,1,0,518f9435498e12df27be9820,Tannhäuser Stüberl,48.20375718504453,11.567010020132098,Eastern European Restaurant
2466,768,48.14736092933239,11.559810184156827,31,26,518fd523498e36d15f6f5bc9,My Tam,48.14910356718993,11.55934960376393,Vietnamese Restaurant
1594,1594,48.1851,11.570888888888891,16,4,5190dc00498eb0cd09b11326,Marko Polo,48.187172012501954,11.566415269833662,Eastern European Restaurant
106,106,48.0951,11.498666666666667,8,2,519121ff498e1601a8b193d5,Vanty Asia Food Sushi Bar,48.095219498545,11.4977270644265,Asian Restaurant
593,593,48.1251,11.657555555555556,8,7,5191400e498e5406ab888e11,Rafael,48.126669769284966,11.657073280572774,Italian Restaurant
2723,42,48.13849139399859,11.558126912425838,6,5,51976fa7498efc426e09935f,Pascha Gözleme,48.138304,11.558572,Turkish Restaurant
515,515,48.1251,11.599777777777776,50,0,519a4a80498ef3be2c2a9652,Thessaloniki,48.12154854454176,11.599192043564,Greek Restaurant
855,855,48.1351,11.599777777777776,37,6,51a395a2498e30597d7041f3,Nuovo Mediterraneo,48.13864165984828,11.599227645019585,Italian Restaurant
70,70,48.0851,11.498666666666667,4,3,51a76241498edd7bdf54b29d,Amore Heimservice,48.08333804459341,11.494322874021444,Indian Restaurant
601,601,48.1251,11.672,9,7,51af11e1498ea4cb1dba77c7,Asia Imbiss,48.122844,11.66956,Asian Restaurant
892,892,48.1351,11.614222222222226,23,6,51af1a3e498eea73ae6a2037,La Spaghettata,48.1365742435339,11.614779000725324,Italian Restaurant
238,238,48.1151,11.484222222222225,8,7,51b0ec7b498e080712d14430,Haderner Augustiner,48.115117433230594,11.479730418291904,German Restaurant
636,636,48.1351,11.527555555555557,28,15,51b8490b498ef4c053e75b5f,Feinkost Express Mittelmeerspezialitäten,48.138728,11.531435,Turkish Restaurant
2600,902,48.1528390706676,11.574255284522106,25,16,51b84b11498e4d7dbc6f5bd5,Restaurant Amalie,48.152323270783256,11.576324148823332,German Restaurant
1242,1242,48.1551,11.542000000000002,37,35,51baf5dd498eebae80655fe8,Maître Jean,48.151056,11.543,French Restaurant
1227,1227,48.1551,11.542000000000002,37,20,51bb5fc5498e90373c7cfef7,Kumasansushi,48.152157,11.543288,Sushi Restaurant
192,192,48.1051,11.599777777777776,9,2,51c09a03498e4e3d34c44dc8,Bella India,48.1047447093178,11.605395224781795,Indian Restaurant
1573,1573,48.1851,11.527555555555557,9,2,51c2d218498e12b5a7375c9f,tokyo Sushi,48.183164706622144,11.532747691818994,Sushi Restaurant
1351,1351,48.1551,11.585333333333335,33,24,51c8c3e2498e0c20fb959448,Hoking,48.15882071527918,11.586377086768362,Chinese Restaurant
508,508,48.1251,11.585333333333335,23,16,51c9d896498e6c80b063f042,Tati's,48.126128,11.582782,Asian Restaurant
114,114,48.0951,11.513111111111114,5,2,51caded8498e99f5cc21c939,Ha Long See,48.097985512233976,11.509976068137902,Asian Restaurant
1927,229,48.1373609293324,11.545365084149589,24,20,51cafcf4498ed85c1d18726a,Best Döner Kebap,48.137844586525205,11.543326130604456,Doner Restaurant
1134,1134,48.1451,11.599777777777776,19,13,51cdd228498ed9b39853a1d2,Die Windrose,48.145465,11.593674,Italian Restaurant
269,269,48.1151,11.542000000000002,15,10,51ced0c8498e603a9911f5f8,Schlemmerhof,48.11858,11.543009,German Restaurant
262,262,48.1151,11.542000000000002,15,3,51d1b572498e0a9f27c50a51,Döner Kebab Balkan Imbiss,48.118416124590475,11.541633116188386,Doner Restaurant
1570,1570,48.1851,11.513111111111114,8,7,51d300da498e3b31c44d8801,Hoa-Thai,48.181785999999995,11.510424,Thai Restaurant
618,618,48.1351,11.513111111111114,8,5,51d7098c498e6211832727f3,i Ricordi,48.13471377730682,11.511617307147336,Italian Restaurant
143,143,48.0951,11.628666666666668,5,3,51d9577b498e6fad585d9e85,Speisen Und Getranke,48.098271999999994,11.630008,German Restaurant
2131,433,48.13283907066761,11.5675238047393,40,8,51df1237498e27ae5a4303d9,Jack Glockenbach,48.1320374032761,11.566653575669225,Vietnamese Restaurant
1356,1356,48.1551,11.585333333333335,33,29,51e1228e498e3bbff1b8fb15,Laskawa & Co.,48.158472685105245,11.584822950645995,Japanese Restaurant
2137,439,48.13283907066761,11.5675238047393,40,14,51e12fd5498e13baf02c09c5,Thaimama,48.13301,11.565978,Thai Restaurant
2152,454,48.13283907066761,11.5675238047393,40,29,51e5879b498e74d150f7bc82,Pajarillo Verde,48.130830061599,11.567484827356944,South American Restaurant
203,203,48.1051,11.628666666666668,4,3,51eaf44c498e01225eab09f7,Biergarten,48.101469,11.628875,German Restaurant
1061,1061,48.1451,11.570888888888891,40,3,51f00ed0498e892846f38845,KOI,48.14309122542197,11.575786186813595,Japanese Restaurant
2183,485,48.1373609293324,11.57425397303848,48,20,51f27fae498e806a7b039f9f,Pferdemetzgerei Wörle,48.13599380126252,11.576204764055808,German Restaurant
1392,1392,48.1651,11.527555555555557,8,6,51f44a8c498e1f4d15c465e6,Der Kleinen Balkon 234,48.165605,11.533560000000001,German Restaurant
1555,1555,48.1751,11.599777777777776,10,9,51f83822498e34b75f166524,Echinger Einkehr,48.177374,11.601166000000001,German Restaurant
1774,76,48.12283907066761,11.559808873389029,10,6,51faaf46498e1422964bbb44,Makula,48.122047424316406,11.561250686645508,African Restaurant
126,126,48.0951,11.542000000000002,4,2,520135bb498eaf11448da89b,Zur Flossländer,48.095509415538956,11.546296986436982,German Restaurant
325,325,48.1151,11.599777777777776,13,1,5203c426498e2560af582882,Suhag im Waldeck,48.117985128379324,11.594725076722176,Indian Restaurant
217,217,48.1051,11.657555555555556,5,3,520bca2511d26ff2b095bf4b,Bella Calabria,48.1070925263735,11.655234936314207,Italian Restaurant
888,888,48.1351,11.614222222222226,23,2,5212145611d2c9d75cca60c4,Döner And More,48.13687546882656,11.615091891869564,Doner Restaurant
1659,1659,48.1951,11.628666666666668,2,1,5216554611d2c36948396f3f,Antalya,48.196207,11.628213,Turkish Restaurant
1096,1096,48.1451,11.570888888888891,40,38,521b31b111d2307cbd049879,De'francise restaurant,48.14642,11.565610000000001,Paella Restaurant
396,396,48.1251,11.542000000000002,31,23,52208a3611d21d8bc17ef8c9,EGE Kebap House,48.123481104743966,11.53981022428659,Doner Restaurant
617,617,48.1351,11.513111111111114,8,4,52208b5311d2414fbe0b23a9,Thai Tai,48.13162847023324,11.512823461816582,Thai Restaurant
1108,1108,48.1451,11.585333333333335,23,10,52263eba11d2bc3399f1dc19,Piazetta,48.14190292358398,11.585996627807615,Italian Restaurant
207,207,48.1051,11.643111111111114,10,3,52285fe711d2a1cb17e069eb,arin's cafè de keyff,48.10718553099914,11.644385004709813,Turkish Restaurant
1405,1405,48.1651,11.556444444444445,5,4,522eeb9211d2cf185337cbd9,Kantine Zentralfinanzamt,48.16387939453125,11.562796592712402,German Restaurant
366,366,48.1251,11.498666666666667,5,2,5234920711d2188c54f3c558,Ozeansushi,48.12871514425965,11.501577136732061,Sushi Restaurant
928,928,48.1451,11.426444444444444,8,5,5234943511d2bfd178378a25,Ducale,48.14678764927445,11.425978830752056,Italian Restaurant
1113,1113,48.1451,11.585333333333335,23,15,5234a04611d2cc2de32b3245,Rila,48.149048,11.583675999999999,Eastern European Restaurant
1509,1509,48.1751,11.412,1,0,523b3aa511d20392f3d0a90d,Pasta e Vino,48.17717616077958,11.40715931440709,Italian Restaurant
4,4,48.0651,11.556444444444445,2,0,523c36af498e44bc417c4e5e,Centro,48.064442,11.551388000000001,Italian Restaurant
1726,28,48.12283907066761,11.553080015499859,8,3,523c885a11d26f23516cb9a4,La Vecchia Masseria,48.1214239580315,11.55061928243555,Italian Restaurant
1139,1139,48.1451,11.599777777777776,19,18,523f324f498e38c1e027280d,shizoo.,48.148862298323095,11.601516182976274,Japanese Restaurant
1165,1165,48.1551,11.484222222222225,3,0,5240188411d26ef619f9aacb,Döner Treff,48.153040999999995,11.478584,Doner Restaurant
162,162,48.1051,11.527555555555557,7,0,5241707d11d2d7ef931a2c14,Döner Kebap,48.102558984535534,11.531719195474965,Doner Restaurant
1652,1652,48.1951,11.599777777777776,4,1,5241972e498ec1f38c539d9c,Asahi 2 Take,48.19420722563291,11.597539628296824,Asian Restaurant
1679,1679,48.2051,11.599777777777776,2,1,5244add411d2a6a901aa713a,Kaderımde,48.203349593039036,11.598991994380025,Mediterranean Restaurant
1236,1236,48.1551,11.542000000000002,37,29,524b293d498ec2b344993275,Nhu.y,48.154344,11.537805,Vietnamese Restaurant
2156,458,48.13283907066761,11.5675238047393,40,33,5252f88d11d2f9b8d69f1f8e,Bistro Vinothek,48.134192,11.567714,Italian Restaurant
1883,185,48.1351,11.542000000000002,28,24,5263c32a11d2e6d91675de7f,Äthiopischer Imbiss,48.13561671446932,11.542112704982395,Ethiopian Restaurant
2845,164,48.13849139399859,11.583650865351943,7,5,526ffb2b498e0e614d6f8597,JAPATAPA,48.13923641394461,11.583994390485715,Japanese Restaurant
1566,1566,48.1851,11.513111111111114,8,3,5277fc5911d22a384e9cff05,Hotwok,48.181300181660596,11.511922528359142,Asian Restaurant
927,927,48.1451,11.426444444444444,8,4,527b7ed011d228d34d602c4b,Italian Pizza,48.14326610919175,11.423765672360776,Italian Restaurant
1642,1642,48.1951,11.542000000000002,2,0,527e9f03498e2cd723475f5e,Cerkah's Kitchen,48.199138,11.543505999999999,Afghan Restaurant
344,344,48.1151,11.614222222222226,8,7,52890c61498efc781691c15b,Park Cafe,48.119007315086854,11.613642769660864,Turkish Restaurant
1005,1005,48.1451,11.542000000000002,18,15,528bb38611d202113ec9d965,Kuffer,48.14492035610208,11.541953952363315,American Restaurant
1107,1107,48.1451,11.585333333333335,23,9,528bdde6498ec8f979243afe,Ristorante Cupido,48.141051000000004,11.586400999999999,Italian Restaurant
149,149,48.1051,11.412,4,2,528d10ac498eb84a68b46f75,VIA UNO,48.10438937493125,11.414567589761731,Italian Restaurant
1463,1463,48.1651,11.585333333333335,50,14,52939af8498e041c2f8e6538,Peony Lounge,48.168664,11.585375,Vietnamese Restaurant
578,578,48.1251,11.628666666666668,11,6,529ca02d11d20601a107e933,New Asia,48.12765658676168,11.633158277743668,Asian Restaurant
1968,270,48.1373609293324,11.553079360294854,17,7,529f4200498e6039ab19d55f,Kebap & More,48.13904545357174,11.551562339256954,Kebab Restaurant
457,457,48.1251,11.570888888888891,38,3,52a2fa2911d21860bd1cd2ac,La Sophia,48.122873999999996,11.576096000000001,Italian Restaurant
1131,1131,48.1451,11.599777777777776,19,10,52a33264498e76d72bab0bee,Bistro da Enzo,48.147348259165604,11.595104615416092,Italian Restaurant
2135,437,48.13283907066761,11.5675238047393,40,12,52a7310411d2e90cbc82a485,AYLA - Imbiss -Döner -Hamburger - frische Falafel,48.13252713293446,11.564773404285415,Turkish Restaurant
125,125,48.0951,11.542000000000002,4,1,52aa07d4498e24044ea87418,Villa Flosslände,48.095362,11.546279,German Restaurant
2148,450,48.13283907066761,11.5675238047393,40,25,52acc4d7498e61950cbc72ac,zum blinden Engel,48.13312911987305,11.565797805786133,German Restaurant
1758,60,48.1273609293324,11.559808873389029,37,27,52b03d17498e9ec5ffd92e85,Namaste India,48.1254997253418,11.56082248687744,Indian Restaurant
481,481,48.1251,11.570888888888891,38,27,52b34f64498e6ce2c75053c9,Pizzeria Dolce Vita,48.125856,11.566889999999999,Italian Restaurant
931,931,48.1451,11.440888888888885,5,0,52bd71af498e8990138dbe70,Hokkaido,48.14861326,11.44279696,Asian Restaurant
1368,1368,48.1551,11.643111111111114,7,1,52c0a3e3498e8730c9a9a7b7,Amber,48.15148564408899,11.64078879829933,Indian Restaurant
186,186,48.1051,11.570888888888891,5,4,52c2ab7e11d2daecaa9aadbb,Mangila the Indian Restaurant,48.10690689086914,11.57382869720459,Indian Restaurant
1158,1158,48.1551,11.412,3,2,52c5befa498ed1cd3d67dcce,Aubinger Zwickelwirt,48.15910885162739,11.414655191962366,Eastern European Restaurant
1240,1240,48.1551,11.542000000000002,37,33,52c856f3498ed9fd81a9c1d6,Restaurant Leonrod - Libanesische Küche,48.15550231933594,11.539822578430176,Middle Eastern Restaurant
136,136,48.0951,11.585333333333335,3,2,52d9664d498e88251db854a7,RHODOS,48.095909000000006,11.588616,Greek Restaurant
1437,1437,48.1651,11.570888888888891,43,31,52dc2277498e08e4e548fdc2,Viet Bistro,48.162156273464134,11.574721175948365,Vietnamese Restaurant
2429,731,48.14736092933239,11.553078704732062,12,9,52de6951498eca9478ab7e8a,Oh! Musubi,48.147095,11.551674,Asian Restaurant
599,599,48.1251,11.672,9,5,52deb639498ed803b14dec63,la dolce vita,48.124086,11.672906,Italian Restaurant
1270,1270,48.1551,11.556444444444445,33,26,52e7a13d498e96e7a98a08ba,Kantine im Bayerischen Sozialministerium,48.15570360508122,11.558177319062402,German Restaurant
1341,1341,48.1551,11.585333333333335,33,14,52e8f058498e659421761b05,Hanshe,48.15354793092872,11.587368064162636,Chinese Restaurant
988,988,48.1451,11.527555555555557,4,2,52ef7cb6498e5300bd6f732d,Sushi Sado,48.146706,11.533600999999999,Sushi Restaurant
177,177,48.1051,11.542000000000002,12,8,52f150e1498e10ebfa488d9b,Pogner's Restaurant & Kegelbahn,48.104710410220854,11.545836637501914,German Restaurant
117,117,48.0951,11.527555555555557,7,0,52f37130498ef9bd45611e2b,Sendling's Special Kebap House,48.09510259511961,11.522258712803481,Doner Restaurant
1696,1696,48.2151,11.614222222222226,1,0,52f7a316498eb24094bc7b60,Asian delicacies,48.21097946166992,11.61608600616455,Dim Sum Restaurant
174,174,48.1051,11.542000000000002,12,5,52fa8c05498e5fb38298c6c4,Pogner,48.104591,11.545726,German Restaurant
914,914,48.1351,11.643111111111114,2,0,52fdfd44498e55fc7f1f245b,"Krekk, Flūgelrad, Gastronomie und Partyservice",48.133068980912114,11.639461438538651,Eastern European Restaurant
1653,1653,48.1951,11.599777777777776,4,2,53034313498ea3913c1af6c6,Köfte Dünyası,48.19319377209778,11.594029311002705,Doner Restaurant
2204,506,48.1373609293324,11.57425397303848,48,41,53073ac8498ed004bc30f049,Jean-Claude Bistro,48.137153999999995,11.57587,German Restaurant
1362,1362,48.1551,11.614222222222226,6,2,5307b92311d2e2fbc4c0ff2e,ZEN pan-asiatisches Restaurant,48.152522,11.617075,Asian Restaurant
2208,510,48.1373609293324,11.57425397303848,48,45,530ba89d498e4118548cfc6f,Hofer Der Stadtwirt,48.13766095114879,11.577126000041039,German Restaurant
1115,1115,48.1451,11.585333333333335,23,17,5312421b11d2a30d910252f3,La Veccia Laterna,48.1411813385951,11.585778029294278,Italian Restaurant
1757,59,48.1273609293324,11.559808873389029,37,26,53138f7a498e1447886a9572,La Forchetta (im MTV),48.12804794311523,11.56202507019043,Italian Restaurant
202,202,48.1051,11.628666666666668,4,2,531b5d62498e5d7d2c1b5898,Asian delicacies @HFS,48.10522563704392,11.625560747570225,Chinese Restaurant
201,201,48.1051,11.628666666666668,4,1,531b5dfb11d271bad60d3b99,Am Herd @HFS,48.10518264770508,11.625893592834473,Asian Restaurant
385,385,48.1251,11.542000000000002,31,12,531e0c79498e6ec6b5550f01,Tuna Grill,48.123194,11.546529,Doner Restaurant
1382,1382,48.1651,11.469777777777779,4,3,532a155f498e3f896b995a1a,Krishna,48.1647147119105,11.469690450345757,Indian Restaurant
1631,1631,48.1951,11.455333333333336,7,1,532be599498e83fb97bd630e,Antalya,48.197505,11.458575,Turkish Restaurant
1605,1605,48.1851,11.570888888888891,16,15,5331492d498e6936b955c3e4,Asia Gourmet,48.18652506486805,11.568555208071789,Asian Restaurant
1440,1440,48.1651,11.570888888888891,43,34,5331e15811d271112c28f37c,taj,48.16359856997068,11.574430591702388,Indian Restaurant
1595,1595,48.1851,11.570888888888891,16,5,53347b07498e46062b45b33c,Bratwurstkeller am Kultbrettl,48.18196105957031,11.573079109191895,German Restaurant
1169,1169,48.1551,11.513111111111114,14,0,533997f7498e69f88fe85d63,Mozzamo,48.15425899193962,11.50974093865762,Italian Restaurant
401,401,48.1251,11.542000000000002,31,28,533fef53498eb95c7ddc8772,Gold Stäbchen,48.12265396118164,11.545297622680664,Asian Restaurant
854,854,48.1351,11.599777777777776,37,5,5342ebba498ea6859c4612bf,Delhi Palace,48.135567541824415,11.605292008766945,Indian Restaurant
1349,1349,48.1551,11.585333333333335,33,22,534689c2498ebcc3bfc371fd,4 cani della citta,48.157858000000004,11.583946000000001,Italian Restaurant
1588,1588,48.1851,11.556444444444445,7,5,5347bdd9498e040dc6ff0a45,Asia Restaurant Jin Zhao,48.18577453931439,11.55238151550293,Asian Restaurant
1077,1077,48.1451,11.570888888888891,40,19,534a71e0498e9deb94812e08,Sushi Wrap,48.14723309171176,11.566353895821154,Sushi Restaurant
1651,1651,48.1951,11.599777777777776,4,0,535251c1498efba2c5eb60c4,Gourmet Tempel,48.19263766259039,11.598289243440863,Asian Restaurant
270,270,48.1151,11.542000000000002,15,11,53550a0e498ea16e038a7099,Campo Sportivo,48.114158630371094,11.543170928955078,Italian Restaurant
959,959,48.1451,11.469777777777779,15,6,535e2389498e2d99b8fbeb13,India King,48.14597969,11.46542649,Indian Restaurant
944,944,48.1451,11.455333333333336,17,8,5363e893498e4b8c5c0e7323,Lemon Tree,48.14517386683739,11.459432741154716,Thai Restaurant
277,277,48.1151,11.570888888888891,17,0,536e3ead498e88b338b5472b,Giesinger Garten,48.116025631568796,11.568317575996849,German Restaurant
464,464,48.1251,11.570888888888891,38,10,5371f221498e848c4ecdbd42,Mongkok,48.12395625827508,11.565285530619178,Asian Restaurant
498,498,48.1251,11.585333333333335,23,6,537653ce498e1d9a993f2546,apostel's,48.127691999999996,11.581446000000001,Greek Restaurant
795,795,48.1351,11.570888888888891,50,46,53807ad1498e044fe31ad925,Hochreiter Steirer Am Markt,48.134988046806434,11.577088225014995,German Restaurant
971,971,48.1451,11.498666666666667,12,1,5381b631498e15919e9063ec,Ristorante Pizzeria Nuova Italia,48.143787490068576,11.495325991328793,Italian Restaurant
894,894,48.1351,11.614222222222226,23,8,53863523498ebeec04470209,afros,48.138312,11.611917,Greek Restaurant
194,194,48.1051,11.599777777777776,9,4,538f04b4498e7134205fbd3c,mam's Döner,48.10314291444483,11.60469296169508,Doner Restaurant
94,94,48.0851,11.643111111111114,14,12,5395ac44498eb409d6a0cea6,Minh Thai,48.088744001503976,11.64074420928955,Asian Restaurant
1260,1260,48.1551,11.556444444444445,33,16,5398a1d5498ebcdc1416c9b6,Blue Pearl Bar Schischa,48.15333921144797,11.555571775934393,Turkish Restaurant
2621,923,48.16283907066761,11.581966281420994,12,0,53998ff7498e07c134583d4a,Cochinchina,48.16100304940134,11.582133902995714,Vietnamese Restaurant
955,955,48.1451,11.469777777777779,15,2,539c7f7e498e6ead0c6b64d8,Antica Osteria,48.14934,11.468932,Italian Restaurant
282,282,48.1151,11.570888888888891,17,5,53a32b41498ed102c9c7df3f,Fiedler & Fuchs,48.11638905150186,11.57436842113554,German Restaurant
598,598,48.1251,11.672,9,4,53a44c20498ea7107d9cab33,mir's döner kenap,48.123946999999994,11.66723,Doner Restaurant
1558,1558,48.1751,11.628666666666668,3,2,53a5ded7498ea10c0a183d94,Sankt Emmerams Speis und Trankgaumerie,48.17587764772949,11.627247021666017,German Restaurant
2582,884,48.15736092933239,11.574255284522106,31,29,53a61add498eac9e642560f2,Salzkruste,48.15526650183382,11.574742734926454,Mediterranean Restaurant
977,977,48.1451,11.498666666666667,12,7,53a6be08498ef6698c3e1691,coffee heaven,48.14645613389842,11.5049233237663,American Restaurant
1228,1228,48.1551,11.542000000000002,37,21,53a706f8498ef54d029a305b,Veranda,48.15800867652901,11.544604637033187,Middle Eastern Restaurant
16,16,48.0651,11.614222222222226,14,10,53b28f70498e396ed85a56c2,hot wok,48.06228,11.613905,Chinese Restaurant
47,47,48.0751,11.614222222222226,4,1,53b52594498eb33cef85ed5f,Taj am Campeon,48.078041255418064,11.617570355782869,Indian Restaurant
160,160,48.1051,11.513111111111114,3,1,53ba6d80498e7253b49d4b30,Haus des Lächelns,48.108499682366045,11.514443096834768,Asian Restaurant
2145,447,48.13283907066761,11.5675238047393,40,22,53becf86498ea426b89b378f,L'Oasis,48.132389,11.566997,Doner Restaurant
1331,1331,48.1551,11.585333333333335,33,4,53c77904498e69023fcda20b,Bapas,48.159065049182615,11.585614085197447,Bavarian Restaurant
20,20,48.0651,11.628666666666668,1,0,53c972ba498e310834abdca6,La Cui Vie - la cuisine vietnamienne,48.06415831003629,11.625745551752535,Asian Restaurant
115,115,48.0951,11.513111111111114,5,3,53d62330498e36ab0b251593,Asia Box,48.096303999999996,11.513752,Asian Restaurant
744,744,48.1351,11.556444444444445,50,45,53da8a8c498ea77fe17f1269,speisekarte,48.139278999999995,11.556338,Mexican Restaurant
1089,1089,48.1451,11.570888888888891,40,31,53e4fc10498e020ca20cf108,Ristorante DaClaudio,48.14854241355717,11.574863106356373,Italian Restaurant
429,429,48.1251,11.556444444444445,50,25,53f49d26498e8a6cc91e4095,Münchner Hofladen,48.129090650096,11.55587911605835,German Restaurant
1122,1122,48.1451,11.599777777777776,19,1,53f65364498e7a6931936871,Farina im Backspielhaus,48.14890428692757,11.599920663089973,Italian Restaurant
1204,1204,48.1551,11.527555555555557,24,21,53fa00dc498ea66a49b88c76,Gasthof in der Au,48.15553283691406,11.52625560760498,German Restaurant
979,979,48.1451,11.498666666666667,12,9,53fe1cf6498ea15f71fcecbd,Nouva Italia,48.143787884883565,11.495281346681175,Italian Restaurant
990,990,48.1451,11.542000000000002,18,0,5407559c498e6b96e0832b05,La Forchetta,48.143154409190295,11.545420154042803,Italian Restaurant
1395,1395,48.1651,11.542000000000002,7,1,5408babc498e52fc099e9445,Florenz,48.162511518516474,11.544890595898245,Italian Restaurant
1224,1224,48.1551,11.542000000000002,37,17,5410a961498e8ed0dcd5acd5,Thai Thon'g,48.15801298438405,11.542757749557495,Thai Restaurant
2247,549,48.13283907066761,11.57425397303848,50,36,5412d101498e02cb71de45f9,Bazi's Lederhosnsemmel,48.13442,11.574451,German Restaurant
2778,97,48.13849139399859,11.565841188571104,14,7,54186fb0498e7232f570194d,Oliva,48.13915,11.565066,Doner Restaurant
2437,739,48.14283907066761,11.553078704732062,8,5,541ffba3498e78ca08bc74b5,Paralia,48.142087626798045,11.550374193827512,Greek Restaurant
1135,1135,48.1451,11.599777777777776,19,14,5425caad498ee1710bca210f,Farina Zero Zero,48.14115007372261,11.602087158070939,Italian Restaurant
254,254,48.1151,11.527555555555557,11,6,542c011e498ea28b892526a5,Akse Imbiss,48.11664949012318,11.528788793039704,Doner Restaurant
2328,630,48.1373609293324,11.581968249183744,50,43,542d9cec498e58b5295e326d,Il Giro,48.137035896014545,11.579270786590927,Italian Restaurant
2384,686,48.13283907066761,11.588698417482927,23,8,54363b9e498e993896989b93,Topkapi Palast,48.130819215647115,11.589397254980295,Turkish Restaurant
105,105,48.0951,11.498666666666667,8,1,543e4b45498e8eacbb9fc0b3,die Küche im Kraftwerk,48.09457711021881,11.505309707019578,Modern European Restaurant
135,135,48.0951,11.585333333333335,3,1,543eb592498e5f4613b83c80,Casa di Dorota,48.097933103171044,11.581695580485153,Italian Restaurant
1578,1578,48.1851,11.527555555555557,9,7,543f9134498e8fa228110ffb,MonAsia,48.18247242410518,11.530255268786155,Vietnamese Restaurant
2452,754,48.14736092933239,11.559810184156827,31,12,545e2365498e817a1d19a6bd,Gyoza Bar,48.148590387251694,11.562589855204878,Dim Sum Restaurant
2782,101,48.13849139399859,11.565841188571104,14,11,546269ba498e72959671f846,大楽家,48.13815035361041,11.564847500656645,Chinese Restaurant
2880,199,48.14170860600141,11.561492979888305,11,4,5465f3cf498efbfc1caf7c80,Hermann's,48.140850535813186,11.56150586503424,German Restaurant
922,922,48.1451,11.412,2,1,5466222c498eef23bcc7b84f,esspoint pide salonu,48.146782,11.414392,Turkish Restaurant
1202,1202,48.1551,11.527555555555557,24,19,5470f41a498ecc3a5c5fabcf,Pizzazza,48.15505061844996,11.532912396101784,Italian Restaurant
569,569,48.1251,11.614222222222226,7,4,547cbd27498e1e48fdedd198,Casa Crisis,48.123489,11.609926,Romanian Restaurant
937,937,48.1451,11.455333333333336,17,1,547dc844498e356dc68edb5a,Viet Village,48.14523675231634,11.461315084870114,Vietnamese Restaurant
271,271,48.1151,11.542000000000002,15,12,547f467b498eb23a13662093,Hue House,48.1195537750573,11.542308563564529,Vietnamese Restaurant
365,365,48.1251,11.498666666666667,5,1,5492f619498e736b8baa5c1e,Delphin Döner,48.12411426528096,11.494107146798973,Doner Restaurant
2398,700,48.13283907066761,11.588698417482927,23,22,5499e3ee498e7529d1a3a86a,German Restaurant,48.13188934326172,11.59007453918457,German Restaurant
495,495,48.1251,11.585333333333335,23,3,54a46c9a498e16f50f7d9992,Dilan Meze & Bar,48.12429537,11.58981134,Turkish Restaurant
1367,1367,48.1551,11.643111111111114,7,0,54b01a0a498e6c5dd616ab03,Pyrsos,48.154944338824556,11.637707948684692,Greek Restaurant
1561,1561,48.1851,11.469777777777779,3,2,54b4fe01498ef6705ef1dd2d,Kebap & Pizza House,48.1825275957322,11.47270137060152,Doner Restaurant
27,27,48.0651,11.657555555555556,9,6,54ba6f43498e2a412ca222a0,Miray Imbiss,48.06525059100032,11.660917098051867,Turkish Restaurant
1553,1553,48.1751,11.599777777777776,10,7,54c404be498eb4050f354497,Estare,48.17739702234765,11.60131035558834,Turkish Restaurant
2368,670,48.1373609293324,11.588698417482927,9,1,54ca1391498eaf9753915cec,Pepenero,48.1394261480214,11.589605927725724,Italian Restaurant
583,583,48.1251,11.643111111111114,3,0,54cb4a29498ea0f008b9f2c4,Manu's Restaurant,48.126517695422876,11.64124531783256,Italian Restaurant
503,503,48.1251,11.585333333333335,23,11,54ccb4f8498ebaa7e85f764d,levante cafe,48.125682,11.579062,Turkish Restaurant
1845,147,48.1273609293324,11.603142206722364,14,3,54e5ec99498e3247529c0daa,Orleans döner kebab,48.12884724574745,11.60474437677068,Doner Restaurant
2140,442,48.13283907066761,11.5675238047393,40,17,54f5f945498eee88538eaa3b,Scho Schee,48.131161999999996,11.567404,Vietnamese Restaurant
2191,493,48.1373609293324,11.57425397303848,48,28,54f9fa5f498ec6be00e5ba02,Ozaki Wagyu Beef Bar,48.13718195454332,11.57433271408081,Japanese Restaurant
296,296,48.1151,11.585333333333335,30,2,54fdd985498e0bee57a4c4cf,Taverne Lithos im Brecherspitz,48.11703753381686,11.590113717809755,Greek Restaurant
1441,1441,48.1651,11.570888888888891,43,35,5501e964498e3d184c659911,New Saigon,48.161336,11.568877,Vietnamese Restaurant
226,226,48.1151,11.440888888888885,4,2,5507376f498e3c2e17686c0f,Restaurant Hermes,48.116966999999995,11.438282000000001,Greek Restaurant
1238,1238,48.1551,11.542000000000002,37,31,551470f9498e23555dab7c01,Weinwirtschaft,48.152510358156036,11.537821464842501,German Restaurant
2234,536,48.13283907066761,11.57425397303848,50,23,5515a9a9498e2dd5c02ebc4a,shizoo.,48.13237570140529,11.5773777509245,Japanese Restaurant
570,570,48.1251,11.614222222222226,7,5,551fd5b5498e957d8388c120,Munchen,48.122855,11.615093,Austrian Restaurant
390,390,48.1251,11.542000000000002,31,17,552652fb498e90e9000e6af3,Sapori Originali,48.12167987688297,11.540673570678873,Italian Restaurant
462,462,48.1251,11.570888888888891,38,8,552c9b02498eaf68009cc8c6,Le Berlü,48.12292,11.566805,French Restaurant
605,605,48.1351,11.455333333333336,1,0,5530de0f498ef64445dd4849,Olivia Döner & Pizza,48.136862169559905,11.461394561987353,Doner Restaurant
293,293,48.1151,11.570888888888891,17,16,55392bef498ea7f8df5ab97a,Van Hoa Bistro,48.11534916997136,11.572358933905,Vietnamese Restaurant
373,373,48.1251,11.542000000000002,31,0,554cecb1498efa064e95e3a1,Sendlinger Augustiner,48.12115,11.543822,German Restaurant
273,273,48.1151,11.542000000000002,15,14,55523254498e96daeccff5ab,ĆEVAPDŽINICA XXL,48.1155450085879,11.540136340936444,Eastern European Restaurant
1660,1660,48.1951,11.643111111111114,12,0,55537e00498e61295b1ab47e,Amici,48.19493423190419,11.642412503052652,Italian Restaurant
1964,266,48.1373609293324,11.553079360294854,17,3,555a3527498e9927af2b773c,Оttantanove vi vadi,48.13900241091879,11.551791578901508,Italian Restaurant
2185,487,48.1373609293324,11.57425397303848,48,22,555b6e53498e549e387fad84,IL Punto Italiano,48.137310222286146,11.574134416311026,Italian Restaurant
1691,1691,48.2151,11.542000000000002,5,1,555e1263498e86f0dc5fb807,Asia Imbiss Feldmoching,48.21418765965131,11.540132505786623,Asian Restaurant
1200,1200,48.1551,11.527555555555557,24,17,5562b4df498ee79eb8df3842,Asia Contact München,48.1561458,11.524299699999998,Asian Restaurant
985,985,48.1451,11.513111111111114,4,3,5565fe7d498e124cb64a7ef5,Juli Restaurant,48.14600435572535,11.519209166540197,Szechuan Restaurant
616,616,48.1351,11.513111111111114,8,3,556b2db2498e0609a241fad3,YongLing,48.133145,11.50877,Asian Restaurant
1233,1233,48.1551,11.542000000000002,37,26,5571a11d498e37ff65bc4c01,Indisches Restaurant Shiraj,48.15772,11.54526,Indian Restaurant
1620,1620,48.1851,11.599777777777776,5,3,55786e26498ed0d325c388de,Vitello,48.183173080158866,11.594045844443734,Modern European Restaurant
454,454,48.1251,11.570888888888891,38,0,557d4eb3498eed232b147e9a,Fugazi N°15,48.123367544816176,11.567375489169242,Italian Restaurant
902,902,48.1351,11.614222222222226,23,16,558062f5498e7516ae475dcd,Full Moon,48.136145817958116,11.609045282094119,Chinese Restaurant
2303,605,48.1373609293324,11.581968249183744,50,18,5585d6dd498edf093973980d,SCHWARZREITER Restaurant & Tagesbar Kempinski Vierjahreszeiten,48.139010999999996,11.581792,German Restaurant
460,460,48.1251,11.570888888888891,38,6,55a0323e498e3c31f6c5d285,LeDu - Dim Sum & Bar,48.127895,11.570134,Dim Sum Restaurant
609,609,48.1351,11.498666666666667,7,3,55a965d8498e451741516f48,Taverna (TAVERNA),48.13355,11.49785,Greek Restaurant
1254,1254,48.1551,11.556444444444445,33,10,55b27eb5498eeb02bda46092,Moon Night,48.152869,11.555501,Vietnamese Restaurant
1104,1104,48.1451,11.585333333333335,23,6,55be8186498e5996e45084d5,kokumi,48.14125409820604,11.583903717914504,Japanese Restaurant
78,78,48.0851,11.599777777777776,2,0,55c61d06498ec4a1e477b51b,Catrin,48.086213,11.595264,Modern European Restaurant
1086,1086,48.1451,11.570888888888891,40,28,55c738ca498e16086e56fe9d,Thai Atrium,48.14339928423208,11.575485184170914,Thai Restaurant
891,891,48.1351,11.614222222222226,23,5,55cb70a9498e5813e89ea70a,vitasia,48.136587,11.613924,Chinese Restaurant
1159,1159,48.1551,11.426444444444444,2,0,55d1d1af498e869b7f36b26b,Aubinger Wirtshaus,48.15845,11.423639999999999,German Restaurant
378,378,48.1251,11.542000000000002,31,5,55d46196498ed5d62e0dc51e,Yulan,48.12848785853569,11.544395479033149,Szechuan Restaurant
951,951,48.1451,11.455333333333336,17,15,55e75775498e4a96b0a01043,Sushi Nem,48.146436,11.459352,Chinese Restaurant
1494,1494,48.1651,11.585333333333335,50,45,55e9ec91498ed2272d848ccd,DHABA,48.161884,11.585158,Indian Restaurant
165,165,48.1051,11.527555555555557,7,3,55edd4bb498e084929590f83,Kebap- & Burgerhaus,48.10138552702447,11.52876328393418,Doner Restaurant
1420,1420,48.1651,11.570888888888891,43,14,5600579a498e02b97033f42a,Longgrain,48.16528190076732,11.573976983517596,Thai Restaurant
926,926,48.1451,11.426444444444444,8,3,56013a36498e273b1eea20e6,Gül Saray,48.14311251640279,11.42328628591884,Turkish Restaurant
315,315,48.1151,11.585333333333335,30,21,56125980498ea858733cdcce,Food a Go Go,48.115005757910204,11.58059827945607,American Restaurant
2783,102,48.13849139399859,11.565841188571104,14,12,5622261f498ef0a4964b0058,مطعمنا الهندي,48.138333,11.564934,Indian Restaurant
1417,1417,48.1651,11.570888888888891,43,11,56222fae498e5a449dc2622f,Sichuan Küche,48.16189030363828,11.56800348743804,Asian Restaurant
1646,1646,48.1951,11.570888888888891,5,1,56268a0d498e129be29438c5,Suki,48.191158522154105,11.572230122822848,Thai Restaurant
100,100,48.0951,11.412,3,2,562912df498efdb6ce80f4ab,La Ruota,48.0967407976873,11.416506659166279,Italian Restaurant
895,895,48.1351,11.614222222222226,23,9,5629d901498ebba7e2a97e5a,Sushi Oji,48.13764042872997,11.615474497863653,Sushi Restaurant
236,236,48.1151,11.484222222222225,8,5,562d23c1498edbb86d9fa036,heigelhof,48.114376,11.478859,German Restaurant
450,450,48.1251,11.556444444444445,50,46,562f6ecb498e2fe1ec65ba68,edo,48.12879547853982,11.555818263059312,Vietnamese Restaurant
458,458,48.1251,11.570888888888891,38,4,56379800498e53f521cdf925,Maximilian,48.12693589790864,11.572109402191224,Bavarian Restaurant
1602,1602,48.1851,11.570888888888891,16,12,56391569cd10d6b4019ecb24,Taverna Zogas,48.183916625659315,11.565670143777993,Greek Restaurant
877,877,48.1351,11.599777777777776,37,28,563ba386cd10714a05232f64,Ashoka,48.133234,11.601448,Indian Restaurant
2144,446,48.13283907066761,11.5675238047393,40,21,56430f2c498ed6a786932fb8,JA MAI,48.1310767946622,11.567362185335364,Vietnamese Restaurant
1253,1253,48.1551,11.556444444444445,33,9,5643a163498ec6cc2e03abab,greka,48.156525,11.561816,Greek Restaurant
103,103,48.0951,11.484222222222225,2,1,564dfcf5498ed4c6c4652cd2,Tuttobene,48.09422030365015,11.482423282888215,Italian Restaurant
83,83,48.0851,11.643111111111114,14,1,565093bd498e59806d889d18,Hai Ahn Sushi,48.08882141113281,11.64079475402832,Vietnamese Restaurant
965,965,48.1451,11.469777777777779,15,12,5652c55c498e779f35294af0,Doner Imbiss MEMO's,48.145312,11.471302,Doner Restaurant
860,860,48.1351,11.599777777777776,37,11,565def50498e75b9a6c1b94a,Unions Bräu Wirtshaus,48.1356208207148,11.60071043272859,German Restaurant
2205,507,48.1373609293324,11.57425397303848,48,42,566025a1498e9c6437dedfec,gecco,48.13705895323528,11.572611728273857,Italian Restaurant
1837,139,48.12283907066761,11.596413348833194,7,2,56696c60498e5a0ee6b6c01b,Tiato,48.122816860944106,11.593095300511372,Vietnamese Restaurant
565,565,48.1251,11.614222222222226,7,0,56697d50498ed1f38d591897,Restaurant Bombay Palace,48.12239449,11.61331122,Indian Restaurant
2246,548,48.13283907066761,11.57425397303848,50,35,567a9e39498ecd39ef5dbd3e,Adriatico - Ristorante Mare e Monti,48.134439,11.574602,Italian Restaurant
1604,1604,48.1851,11.570888888888891,16,14,5682b9c5498ee701c502c301,Restaurant Keferloher,48.187172939618556,11.566668499466994,Eastern European Restaurant
255,255,48.1151,11.527555555555557,11,7,56843ecb498e167ffd0f457b,L'Angolo,48.115964,11.525155,Italian Restaurant
183,183,48.1051,11.570888888888891,5,1,568581b3498ee56bba0f9b28,Restaurant Hotel Wetterstein,48.107986,11.572855,German Restaurant
2197,499,48.1373609293324,11.57425397303848,48,34,568a7c85498ecc4b3bedaf37,Kiusiu,48.13746,11.573068,Sushi Restaurant
1664,1664,48.1951,11.643111111111114,12,4,568a7dbb498e82da815ecbc6,del Duca,48.19327,11.641008,Italian Restaurant
1656,1656,48.1951,11.614222222222226,3,1,568fa5e7498e79a6c685ddce,Freimanner Feinkost,48.19314,11.61506,Doner Restaurant
164,164,48.1051,11.527555555555557,7,2,56979650498e9fbdf07feee5,Bistro Cesarino,48.10249597746152,11.530529750572615,Italian Restaurant
941,941,48.1451,11.455333333333336,17,5,5697dc47498ec00d4fd17893,Bistro Pizzeria da Salvo,48.14430213555118,11.457576308985214,Italian Restaurant
361,361,48.1251,11.469777777777779,2,0,569d2a4b498e633a40a76354,König Kebap House,48.125746,11.476064,Doner Restaurant
323,323,48.1151,11.585333333333335,30,29,56a1370d498ee7d539f21824,Döner Leckero,48.112686,11.586811,Doner Restaurant
466,466,48.1251,11.570888888888891,38,12,56a3d34e498ea4930ae0f050,Brasserie Colette Tim Raue,48.1266736781955,11.569735450638845,French Restaurant
1532,1532,48.1751,11.570888888888891,9,3,56af592f498e6a949ed87e27,Döner Imbiss,48.17691619852339,11.567335527499267,Doner Restaurant
10,10,48.0651,11.614222222222226,14,4,56b5e637498e123dcabc793a,Restaurant Olympia,48.062785,11.614556,Greek Restaurant
44,44,48.0751,11.599777777777776,3,1,56b5fa7f498e57060af3f831,Restaurant Olympia,48.073072423139294,11.603450564410474,Greek Restaurant
1053,1053,48.1451,11.556444444444445,50,45,56b875f7498ebb939c9aa2ed,Aposto,48.14474430297783,11.562992925419671,Italian Restaurant
422,422,48.1251,11.556444444444445,50,18,56bb2066498e706b133ea36e,Kekes Döner,48.125284,11.549914,Doner Restaurant
2129,431,48.13283907066761,11.5675238047393,40,6,56bccb33498ea155f6bd67de,Little Wolf,48.131128000000004,11.567523,American Restaurant
1105,1105,48.1451,11.585333333333335,23,7,56c22e81cd1039b13d4785f3,Restaurant Tempel,48.142037,11.586505,Vietnamese Restaurant
644,644,48.1351,11.527555555555557,28,23,56cf533dcd1057136b6580db,Hakata,48.137863,11.532164,Japanese Restaurant
2192,494,48.1373609293324,11.57425397303848,48,29,56d9eba238faf73a8945015c,Chang City,48.13827,11.574411,Asian Restaurant
1424,1424,48.1651,11.570888888888891,43,18,56edcc80498e640593ae993f,Bodeguita,48.1612,11.5698,Tapas Restaurant
1581,1581,48.1851,11.542000000000002,3,1,56efdfb3498ef391c9e587d4,Georgios im Olympia,48.183390750087995,11.537220840686102,Greek Restaurant
1380,1380,48.1651,11.469777777777779,4,1,56f3e95a498ef9f4d2cba3c9,Limoncello Ristorante,48.164885011029355,11.468299627304075,Italian Restaurant
950,950,48.1451,11.455333333333336,17,14,56fc35a7cd1069f5e86304be,Neu Point,48.14658814316182,11.459125289346426,Doner Restaurant
588,588,48.1251,11.657555555555556,8,2,56fe679e498e590b9826e124,Imbiss,48.125183,11.663533000000001,Doner Restaurant
1117,1117,48.1451,11.585333333333335,23,19,56fff4bc498ef25189815d16,Cupido ''Arte di Cucina Italiana'',48.142655,11.586719300000027,Italian Restaurant
475,475,48.1251,11.570888888888891,38,21,57069102cd1068fe9ffdefea,Augustiner Gaststätte Rumpel,48.128838,11.5680485,Schnitzel Restaurant
1676,1676,48.2051,11.542000000000002,2,1,5708185e498e2f86efd52097,Restoran Klub Talija,48.201572,11.543383,Modern European Restaurant
1365,1365,48.1551,11.614222222222226,6,5,570a4b98498e4f01dd0d1d9b,Atila's Feine Kost,48.152053,11.61331,Doner Restaurant
1585,1585,48.1851,11.556444444444445,7,2,570a8c89498e3d4a822dd61f,Kreta Meer,48.185841073557995,11.552114825421837,Greek Restaurant
889,889,48.1351,11.614222222222226,23,3,570fec46498e6653d93887c8,Kaliora,48.138536882569355,11.611735832983095,Greek Restaurant
901,901,48.1351,11.614222222222226,23,15,5724826a498e0bb2ae296597,Zum Kötter'l,48.138315999999996,11.610123,Bavarian Restaurant
1506,1506,48.1651,11.643111111111114,4,2,5724a609498ee54135f8c0f6,Döner Eckerl,48.16838,11.644101,Doner Restaurant
28,28,48.0651,11.657555555555556,9,7,5724f3b7498e49d09c6ab674,Piatto D'Oro,48.06558339198164,11.662051677703856,Italian Restaurant
350,350,48.1151,11.643111111111114,5,1,572a5b50cd105068d990d6c4,Ägäis by Liman,48.113685222660024,11.645283973562947,Turkish Restaurant
2257,559,48.13283907066761,11.57425397303848,50,46,572b2ab6498e845e04b6f53d,Della Pasta,48.13454,11.574714,Italian Restaurant
1390,1390,48.1651,11.527555555555557,8,4,57324682498ede68e561da63,Hechtsprung,48.167505,11.531471,Greek Restaurant
1155,1155,48.1451,11.672,1,0,573873e3498ef5d243578b19,Sai Gon Viet-Thai,48.143989000000005,11.673531,Vietnamese Restaurant
573,573,48.1251,11.628666666666668,11,1,574b4101498e31fbc8fff99e,Potasia,48.128896999999995,11.630898,Asian Restaurant
170,170,48.1051,11.542000000000002,12,1,5750229f498eed42740f6eaa,Pablo Panini,48.105715000000004,11.53796,Italian Restaurant
2245,547,48.13283907066761,11.57425397303848,50,34,575beab8cd10eadade6456d3,Della Carne,48.134506,11.574567,Italian Restaurant
1344,1344,48.1551,11.585333333333335,33,17,575d9fbd498e67516b2fbb9e,Trattoria Cucina e Cultura,48.159439,11.585548,Italian Restaurant
1100,1100,48.1451,11.585333333333335,23,2,575e986d498e3c1109ccdbe1,Lu Bu soul food,48.141602,11.585097,Asian Restaurant
1181,1181,48.1551,11.513111111111114,14,12,5762b03238fa7264882a8b03,Devolo,48.154107,11.50714,Italian Restaurant
1145,1145,48.1451,11.614222222222226,6,5,576d7dd938fa91411be914f5,Pizza e Pasta da Francesco,48.142654,11.616092,Italian Restaurant
506,506,48.1251,11.585333333333335,23,14,57723f05498e406223ccae85,Auer Hof,48.12618319750762,11.584922075271606,Bavarian Restaurant
485,485,48.1251,11.570888888888891,38,31,577951e7498ea36b5277c8c4,Colette,48.126728,11.569896,French Restaurant
1059,1059,48.1451,11.570888888888891,40,1,57815c5ccd107199c80407ae,Rocca Riviera,48.14354415044174,11.57605100921803,French Restaurant
1617,1617,48.1851,11.599777777777776,5,0,57909d24498eb132ea5c8efe,hasia - Asian Food & Drink,48.18262082486447,11.594411946298132,Asian Restaurant
992,992,48.1451,11.542000000000002,18,2,5790abbf498ea4159c3f718a,Badshah,48.148472,11.540827,Indian Restaurant
1144,1144,48.1451,11.614222222222226,6,4,5794af81498eb141caf4f5f6,con cucina,48.148949,11.61588,Italian Restaurant
2385,687,48.13283907066761,11.588698417482927,23,9,57951663498e1e1d10b4d179,Kuchlverzeichnis,48.131454,11.589107,German Restaurant
2394,696,48.13283907066761,11.588698417482927,23,18,579518e2498e718414f0fc95,Kuchlverzeichnis,48.13165,11.589485,German Restaurant
2149,451,48.13283907066761,11.5675238047393,40,26,57a0d055498e0fbe9766b4bc,Nousagi,48.131458,11.566303,Japanese Restaurant
2126,428,48.13283907066761,11.5675238047393,40,3,57a0d1bf498e5310b4d48526,Usagi,48.131468193423636,11.566513410417885,Japanese Restaurant
95,95,48.0851,11.643111111111114,14,13,57a1cd08498ee7ffc106547d,Variety Box,48.088987935707884,11.642356454834024,Asian Restaurant
196,196,48.1051,11.599777777777776,9,6,57a865ca498e9e26439745cf,Alara Pizzeria,48.108728,11.599352,Italian Restaurant
212,212,48.1051,11.643111111111114,10,8,57a881a7498ec674f5440acb,Delifresh,48.107101,11.645876,Italian Restaurant
1629,1629,48.1851,11.657555555555556,3,2,57ab5001cd104adf22e20d53,Maximus Essen & Trinken,48.185226,11.651339,German Restaurant
363,363,48.1251,11.484222222222225,1,0,57af6ee8498e2bc6c2ebd090,Santorini,48.122264,11.481608,Greek Restaurant
632,632,48.1351,11.527555555555557,28,11,57b489dc498ea561bd1235c2,Rippel-B,48.136448,11.530463000000001,American Restaurant
1123,1123,48.1451,11.599777777777776,19,2,57b74d14498eebea27b433ac,Chuchin,48.142590000000006,11.601262,Vietnamese Restaurant
69,69,48.0851,11.498666666666667,4,2,57b75a8acd10ab004b785625,Hot wok,48.084288,11.494019999999999,Asian Restaurant
620,620,48.1351,11.513111111111114,8,7,57b89230498e41bf745cdadd,Sabatono,48.1350330880439,11.511660918249051,Caucasian Restaurant
72,72,48.0851,11.527555555555557,4,1,57bc95ed498e5d33bef7bf2f,sollner kebap haus,48.081534999999995,11.529556,Turkish Restaurant
1171,1171,48.1551,11.513111111111114,14,2,57bf316d498e4399a8bbe6d2,Risotto Cucina Mediterranea,48.15309,11.507863,Italian Restaurant
1126,1126,48.1451,11.599777777777776,19,5,57c01a35498e8d0a6dfbd8d1,Rumi,48.147441,11.595285,Afghan Restaurant
41,41,48.0751,11.542000000000002,2,0,57c70757498eecf2dd9b6233,la rachetta d'oro grosshesselohe,48.07282,11.53685,Italian Restaurant
356,356,48.1151,11.672,3,2,57d67c50498ed490dac18ee4,Schakir,48.112328000000005,11.676208500000001,Doner Restaurant
12,12,48.0651,11.614222222222226,14,6,57d70a56cd10462ae06d866c,Tratoria Day Conny,48.062252,11.614994,Italian Restaurant
1540,1540,48.1751,11.585333333333335,8,2,57e182a4498e18de8078a88e,Lachoni,48.174279999999996,11.585707000000001,Italian Restaurant
122,122,48.0951,11.527555555555557,7,5,57e421be498ef86a3302a8ee,Saigon Firewok,48.09725,11.523835,Vietnamese Restaurant
2714,33,48.1373609293324,11.559809528594036,7,3,57f90b70498ec6d14ea33c90,Oliva Munich's best Döner,48.1374881528433,11.561012428604643,Doner Restaurant
984,984,48.1451,11.513111111111114,4,2,57f93f20498e8cafeadc42fe,LA MAHA'S,48.145534999999995,11.518305,Doner Restaurant
520,520,48.1251,11.599777777777776,50,5,57fcb310498e7897826de38d,Khanitta im Werksviertel,48.124759870474605,11.60580313098052,Thai Restaurant
1722,24,48.1273609293324,11.553080015499859,8,7,57fcfed8498e68a3aa34f082,Crispy & More,48.128778999999994,11.555591,Doner Restaurant
353,353,48.1151,11.643111111111114,5,4,580a8ef138fab626fc8ebf8a,kumkapı,48.113671999999994,11.645371,Mediterranean Restaurant
1069,1069,48.1451,11.570888888888891,40,11,58123ac438fac055a447f7d8,Hoiz Neo-Brasserie,48.142824125380656,11.567467474192505,Restaurant
2150,452,48.13283907066761,11.5675238047393,40,27,581b740c76748b0a8dd2c20d,Swiss  Apéro,48.131238,11.569317999999999,Swiss Restaurant
79,79,48.0851,11.599777777777776,2,1,581c6be1d84d39216b4e3094,Fasan Imbiss,48.087685,11.600041000000001,Doner Restaurant
1220,1220,48.1551,11.542000000000002,37,13,581e1e00b148840eb1d235e2,Brünner Eck,48.157967,11.542842,Czech Restaurant
1962,264,48.1373609293324,11.553079360294854,17,1,582305a7062c59441bd846e0,Sultanahmet Köftecisi,48.138959390813035,11.551653014938829,Turkish Restaurant
230,230,48.1151,11.455333333333336,3,2,5828ca9bbd894937ee97f297,Ferner Osten,48.113303,11.450909,Sushi Restaurant
1205,1205,48.1551,11.527555555555557,24,22,582a0e1d8e003314e0117948,Taj Mahal,48.157072,11.530228,Indian Restaurant
596,596,48.1251,11.672,9,2,582aeb96a17a862b023afa43,Tangcubi,48.122271999999995,11.669014,Asian Restaurant
2428,730,48.14736092933239,11.553078704732062,12,8,582c4d7a7622bc6a9533a0ff,Ristorante Nuovo Mondo Da Rosario,48.14735,11.551405,Italian Restaurant
586,586,48.1251,11.657555555555556,8,0,583896a814fb4110717f0751,Taverna Molyvos,48.124183,11.656314,Greek Restaurant
531,531,48.1251,11.599777777777776,50,16,58389bc3dfa6ff689c9747c1,Zum Riederstein,48.124328703423004,11.606130899393762,Bavarian Restaurant
139,139,48.0951,11.614222222222226,1,0,584c0bb5ce593d49220ebd52,RAMO,48.097449,11.610316000000001,Modern European Restaurant
1353,1353,48.1551,11.585333333333335,33,26,584d9d2d126ae87dbd0c702b,Taj Rotana,48.159012,11.586326,Indian Restaurant
933,933,48.1451,11.440888888888885,5,2,58504a66110d0304aeb170f2,JINDA'S CORNER,48.148419949544824,11.442708671092989,Thai Restaurant
1058,1058,48.1451,11.570888888888891,40,0,5852ed52ac3291412330aa68,The Italian Shot,48.148114393514106,11.575081465101965,Italian Restaurant
2146,448,48.13283907066761,11.5675238047393,40,23,585592b96431e554e12b292a,The Corner - Deli Bar,48.132427010565614,11.567178452687585,Modern European Restaurant
1191,1191,48.1551,11.527555555555557,24,8,58591d534988da6d72f5b0cc,Taj Krishna,48.156733,11.530139,Indian Restaurant
587,587,48.1251,11.657555555555556,8,1,585a63cd5804ea4c5fc0c6ac,Miyako,48.12653314,11.65827292,Asian Restaurant
8,8,48.0651,11.614222222222226,14,2,5864e97fbbec66033b4e2e94,Alaturka,48.0656,11.611991999999999,Doner Restaurant
359,359,48.1251,11.440888888888885,3,1,5872621dce66aa0389b4cba9,Restaurant Femerling,48.120681,11.441938199999981,German Restaurant
638,638,48.1351,11.527555555555557,28,17,5889ae3123188e44779372ef,Lo Spuntino Italiano,48.13541,11.523786999999999,Italian Restaurant
630,630,48.1351,11.527555555555557,28,9,5889d6260319b80f193b5b98,Bellissimo,48.135492,11.523852,Italian Restaurant
949,949,48.1451,11.455333333333336,17,13,58962ccbd7b473292560ab71,La Via,48.147816,11.459058,Italian Restaurant
884,884,48.1351,11.599777777777776,37,35,58a883d8f8572466f1aed4b7,Ashoka Fine Indian Cuisine,48.13339089999999,11.601435400000017,Indian Restaurant
31,31,48.0651,11.672,4,1,58b0b5252f91cb48eec1d477,Cristalina Restaurant & Pizzeria,48.065523999999996,11.666345,Italian Restaurant
505,505,48.1251,11.585333333333335,23,13,58b99ab08d8e991be2d543f9,FreshKitchen,48.125748,11.578922,Doner Restaurant
66,66,48.0851,11.484222222222225,8,7,58bab19f3f5a5c1c899f261b,München's Kebab Haus,48.087348999999996,11.484619,Doner Restaurant
90,90,48.0851,11.643111111111114,14,8,58c24d511b36d4607b8637bc,Donna Sofia,48.0895,11.64286,Italian Restaurant
1081,1081,48.1451,11.570888888888891,40,23,58df6b032f91cb7e88708501,Bami House,48.1486471632123,11.574904205226188,Vietnamese Restaurant
871,871,48.1351,11.599777777777776,37,22,58df8b4bca10703b62d588e9,Thaikitchen&Coffelounge,48.130772,11.599604,Thai Restaurant
915,915,48.1351,11.643111111111114,2,1,58e4f1c9db6cd6594b4c597d,Mae Thai,48.138447,11.640295,Thai Restaurant
2081,383,48.1373609293324,11.5675238047393,50,8,5904cd90cab41002193172af,Sausalitos,48.136895,11.56434,Mexican Restaurant
257,257,48.1151,11.527555555555557,11,9,5905c9b7ff1902109cc36942,Asia In Sendling,48.116806,11.529082,Asian Restaurant
830,830,48.1351,11.585333333333335,50,31,5906ff5935dfa74d07b75cbc,BLITZ Restaurant,48.13140718476738,11.5858393907547,Vegetarian / Vegan Restaurant
193,193,48.1051,11.599777777777776,9,3,5907746fa4b51b0b3ebe76a7,Beste Mediterran,48.108593,11.599441,Italian Restaurant
1434,1434,48.1651,11.570888888888891,43,28,591345e6e65d0c6de81d5a7d,secret roll,48.164786,11.564413,Sushi Restaurant
879,879,48.1351,11.599777777777776,37,30,591441c0ad17891f9c5d0aa0,Gaballo,48.132024,11.597614,Italian Restaurant
1087,1087,48.1451,11.570888888888891,40,29,5922ceabf5e9d739e0c195a6,Happy Döner,48.148534999999995,11.57358,Doner Restaurant
982,982,48.1451,11.513111111111114,4,0,592315651de7652db3fb9912,Tepsija,48.14151,11.512805,Bosnian Restaurant
153,153,48.1051,11.426444444444444,3,2,59246ab36bdee60ff0e4eb33,Halong Bay,48.107094000000004,11.424396,Vietnamese Restaurant
379,379,48.1251,11.542000000000002,31,6,59247e954f0e58165b8ce184,Taverne Armonia,48.122191,11.544941,Greek Restaurant
512,512,48.1251,11.585333333333335,23,20,59316adb123a1963f5a41ee6,Osteria Piazza Italia,48.12558163504305,11.5900719165802,Italian Restaurant
1185,1185,48.1551,11.527555555555557,24,2,5936fd9b4febd5790780ecfb,PURO bar e cucina,48.156764076735975,11.53039813041687,Italian Restaurant
608,608,48.1351,11.498666666666667,7,2,5937d6e0e55d8b0b82a2c508,Asia Bites,48.136626,11.502925999999999,Asian Restaurant
131,131,48.0951,11.556444444444445,5,3,593d3ab65d0fea5347d9daa5,Taogarten,48.09779824726007,11.557665467262268,Thai Restaurant
1222,1222,48.1551,11.542000000000002,37,15,59402bf660255e13a373f44a,Löwengarten,48.155943,11.536103,Bavarian Restaurant
975,975,48.1451,11.498666666666667,12,5,59411c070ff4f92a648798b0,Sabatini Sportslounge & Grill,48.14680751378037,11.493415832519533,Argentinian Restaurant
388,388,48.1251,11.542000000000002,31,15,5948ff953ba76704b86b0ed5,Vini Puri 2.0,48.126802000000005,11.540567999999999,Italian Restaurant
82,82,48.0851,11.643111111111114,14,0,594900abf870fd77817c1667,La Locandiera,48.087438,11.641089,Italian Restaurant
615,615,48.1351,11.513111111111114,8,2,59568275112c6c598fb02d06,Bei Dara,48.13503,11.508778999999999,Thai Restaurant
1066,1066,48.1451,11.570888888888891,40,8,595776f0fc9e9478147c2a05,Dominique,48.143454999999996,11.574724,French Restaurant
2512,814,48.14283907066761,11.559810184156827,50,41,59592826772fbc4ee0ab3051,Qin Huai,48.143898,11.560027,Chinese Restaurant
929,929,48.1451,11.426444444444444,8,6,59592e79033693555b415759,Uno Momento,48.147346,11.421739,Italian Restaurant
2676,978,48.16283907066761,11.588700385245676,44,39,5959384e464d651c9a4252dc,Schmaus & Braus,48.16138,11.590664,Bavarian Restaurant
940,940,48.1451,11.455333333333336,17,4,597c881369e77b4adaf3cf9e,Prime Kebap Pasing,48.146744,11.459814,Doner Restaurant
1531,1531,48.1751,11.570888888888891,9,2,59821ec335f9830771422215,Abuli Restorant Spagetti İtalien,48.176629,11.565357,Italian Restaurant
397,397,48.1251,11.542000000000002,31,24,5987193116ef6778ab96a48d,Ilios Imbiss,48.123166,11.546534,Greek Restaurant
2509,811,48.14283907066761,11.559810184156827,50,38,598848e19be5227440d132bd,Mitte 26,48.143909,11.560023,Chinese Restaurant
626,626,48.1351,11.527555555555557,28,5,598a035d59c4234b72f8b5bc,Wirtshaus Eder,48.136105,11.530356,Bavarian Restaurant
997,997,48.1451,11.542000000000002,18,7,598a066fda5e562eac10fe86,Gourmetbar By Novotel,48.145382,11.539061,Tapas Restaurant
619,619,48.1351,11.513111111111114,8,6,598c67608d0a5310230c981a,Gasthaus Laim,48.139437,11.511660000000001,Bavarian Restaurant
61,61,48.0851,11.484222222222225,8,2,59907ed1fd16bb0cfe89fb80,Da Giovanni,48.08502,11.478725,Italian Restaurant
1258,1258,48.1551,11.556444444444445,33,14,59948d3ca9e4022fc3fd92f1,Shikuru Sushibar,48.150684000000005,11.557555,Sushi Restaurant
2127,429,48.13283907066761,11.5675238047393,40,4,59a59e87e185f3743a8d05d6,dios Minga,48.13114044846331,11.566516757011414,Tapas Restaurant
1925,227,48.1373609293324,11.545365084149589,24,18,59ad392664c8e17ec0153e46,Thaimama,48.137702000000004,11.542724,Asian Restaurant
487,487,48.1251,11.570888888888891,38,33,59c159e125fb7b7fd772bd47,Grillbar Opos Pak,48.121266999999996,11.572905,Greek Restaurant
527,527,48.1251,11.599777777777776,50,12,59c38766a92d9851662f5f91,Aleppo-Grill,48.124798,11.605997,Syrian Restaurant
2356,658,48.13283907066761,11.581968249183744,32,21,59cbdbda418686045b91efe1,Nudeln Sano,48.132718,11.584531,Japanese Curry Restaurant
1352,1352,48.1551,11.585333333333335,33,25,59cf911095d9860bce3d5184,Honghong,48.159422,11.585749,Chinese Restaurant
2210,512,48.1373609293324,11.57425397303848,48,47,59d0dd92c0af5716996c047b,Nhung's,48.137469,11.571339,Vietnamese Restaurant
2325,627,48.1373609293324,11.581968249183744,50,40,59d11fea7dc9e141713df0e0,Masuhisa,48.13671,11.57895,Japanese Restaurant
2252,554,48.13283907066761,11.57425397303848,50,41,59d8bf270d2be73017c686ca,Amerigo,48.134357,11.574491,Italian Restaurant
1178,1178,48.1551,11.513111111111114,14,9,59e244a635811b4348eb4ccd,Klass 21,48.15281317727433,11.507459878921509,Turkish Restaurant
613,613,48.1351,11.513111111111114,8,0,59e632149ec399772c11b514,La Ruota - Integrale,48.135446,11.507187,Italian Restaurant
235,235,48.1151,11.484222222222225,8,4,59e8e65c25fb7b6e6e8e5c2e,Terre Di Toscana,48.115038,11.478844,Italian Restaurant
2646,948,48.16283907066761,11.588700385245676,44,9,59eb8d9b12138415e8ddaa2d,Cucina Corleone,48.161842,11.59119,Italian Restaurant
967,967,48.1451,11.469777777777779,15,14,59ef1e1bad178925d20b63ce,Mehfil Tandoori,48.146008,11.465434,Indian Restaurant
1194,1194,48.1551,11.527555555555557,24,11,59ef3b65e97dfb3a546d4970,TÔTO Imbiss & Lieferservice,48.152083086463655,11.529201865196226,Asian Restaurant
89,89,48.0851,11.643111111111114,14,7,59f06019f0b4903e04937da0,Brandl,48.081952,11.639555,Bavarian Restaurant
592,592,48.1251,11.657555555555556,8,6,59f3126cbb2a472c17d56dc5,Döner Imbiss,48.125298,11.664012,Doner Restaurant
1766,68,48.1273609293324,11.559808873389029,37,35,59f38b01446ea67a56080b11,Malena Marouki,48.127645,11.561425999999999,Greek Restaurant
209,209,48.1051,11.643111111111114,10,5,59fb383d0123583e5789c588,Gusto Vero,48.107265000000005,11.645843,Italian Restaurant
1070,1070,48.1451,11.570888888888891,40,12,5a035b9c396de01a71c91b20,Öz Urfa,48.148596000000005,11.573652000000001,Kebab Restaurant
62,62,48.0851,11.484222222222225,8,3,5a0822f9237dee352fc716c6,Andy's Maxhof,48.0864792950867,11.47848129272461,German Restaurant
1632,1632,48.1951,11.455333333333336,7,2,5a0ac8501f74404b766400fc,Ristorante Sicilia Inh.Gianpiero Begher,48.1931336,11.45921,Italian Restaurant
144,144,48.0951,11.628666666666668,5,4,5a131def4c954c0dcebf7fb0,Diwan Foods,48.09837,11.629541,Pakistani Restaurant
991,991,48.1451,11.542000000000002,18,1,5a155e0a93bd63560ef92609,An An,48.148963,11.542872000000001,Vietnamese Restaurant
1193,1193,48.1551,11.527555555555557,24,10,5a196426b9a5a84b63bccdcb,Uncle‘s Cafe,48.152471000000006,11.531509,American Restaurant
903,903,48.1351,11.614222222222226,23,17,5a204aedee628b040f458193,Ke Bazza,48.13655,11.613757000000001,Doner Restaurant
221,221,48.1151,11.426444444444444,4,1,5a22664125fb7b50c535a6b1,Gräfelfinger Best Döner,48.119538,11.427553999999999,Middle Eastern Restaurant
1625,1625,48.1851,11.643111111111114,2,0,5a2816bd1c0b34629d11d529,Tandoori Flame,48.189363,11.643627,Indian Restaurant
2136,438,48.13283907066761,11.5675238047393,40,13,5a283cb895d98603ae7e0254,Chi Thu,48.1308408498331,11.567234940233586,Vietnamese Restaurant
1330,1330,48.1551,11.585333333333335,33,3,5a327b825d891b3a91123a36,Bami House,48.15707187170908,11.584522503864946,Vietnamese Restaurant
40,40,48.0751,11.513111111111114,5,4,5a548076772fbc5eb8038024,Die Schützenlust,48.07634,11.51556,German Restaurant
179,179,48.1051,11.542000000000002,12,10,5a55086ea35dce66c5677d60,Guaven Imbiss,48.102577000000004,11.54606,Asian Restaurant
1670,1670,48.1951,11.643111111111114,12,10,5a5752db610f047f4fc7617f,La Vista,48.196721999999994,11.646704,Italian Restaurant
251,251,48.1151,11.527555555555557,11,3,5a5f47f9be707804c79e94a0,Ha Phuong,48.117001,11.532447,Vietnamese Restaurant
1829,131,48.1273609293324,11.596413348833194,46,40,5a6ddb3c7564f7473ff7186f,Merhaba Restaurant Pariserstr Munchen,48.126926,11.597769,Turkish Restaurant
381,381,48.1251,11.542000000000002,31,8,5a72fa1eb6b04b5981541e4b,Punjab Grill & Bar,48.122054,11.543738000000001,Indian Restaurant
1714,16,48.1251,11.556444444444445,17,16,5a79f4b6c4df1d32d86a003b,Cafe Omo,48.124623,11.555285000000001,Ethiopian Restaurant
206,206,48.1051,11.643111111111114,10,2,5a87168d5a2c9117b238ec77,Köfte House,48.106634,11.64521,Turkish Restaurant
943,943,48.1451,11.455333333333336,17,7,5a8ef63567af3a74d3a23dc6,Vina Wok,48.147805,11.458456,Vietnamese Restaurant
1406,1406,48.1651,11.570888888888891,43,0,5a9555a467e5f25d8e9a7838,Royal Healthy Slices,48.161728176953716,11.568266047140579,Mediterranean Restaurant
1510,1510,48.1751,11.440888888888885,1,0,5a9d796b4acb195cb22f91f2,Bambusgarten,48.176163,11.442772,German Restaurant
1777,79,48.12283907066761,11.559808873389029,10,9,5a9ef1317dc9e14f884b2313,Bruno Restaurante,48.121155,11.559953,Italian Restaurant
67,67,48.0851,11.498666666666667,4,0,5aa2603f018cbb71ad2254b0,Pizzeria Etna,48.08242264127697,11.503297090530396,Italian Restaurant
374,374,48.1251,11.542000000000002,31,1,5aa2fe7d5f68b931b6d0b05a,Restaurant ÖEINS im Stemmerhof,48.1217617,11.5408345,Austrian Restaurant
398,398,48.1251,11.542000000000002,31,25,5ab53dadb3c9615ea222e63f,Bei Dara,48.124755,11.535739999999999,Thai Restaurant
386,386,48.1251,11.542000000000002,31,13,5abf84766dcf04182ae08fd7,Sendlinger Treff,48.121015,11.540972,Eastern European Restaurant
1189,1189,48.1551,11.527555555555557,24,6,5abfde3301235845ecaf8342,Alexis Sorbas,48.151965999999994,11.527330000000001,Greek Restaurant
2789,108,48.136230464666205,11.565841188571104,8,4,5acf486c9be522562fe74401,رازدهاني,48.136208,11.564561,Indian Restaurant
279,279,48.1151,11.570888888888891,17,2,5acfa14a35811b64a506e252,Matiz,48.111194,11.57049,Greek Restaurant
1161,1161,48.1551,11.440888888888885,1,0,5adcb3e360255e5cc3440d8d,Zur Gartler Hütte,48.155384000000005,11.4463625,Bavarian Restaurant
872,872,48.1351,11.599777777777776,37,23,5adda56cb9a5a851f4cd684c,Delhi Palace München,48.13551,11.60571,Indian Restaurant
479,479,48.1251,11.570888888888891,38,25,5adf144606fb6036861c2f40,Thiet-Sa,48.122756,11.575056,Vietnamese Restaurant
2180,482,48.1373609293324,11.57425397303848,48,17,5adf686a4acb196e9783895b,piazzaMaria,48.137834999999995,11.57438,Italian Restaurant
299,299,48.1151,11.585333333333335,30,5,5aec4ddbdec1d6002cce84f4,Bep Ho,48.116914,11.581254,Vietnamese Restaurant
142,142,48.0951,11.628666666666668,5,2,5af1c9e9cf67d00024a87b03,La Passione,48.094278,11.631095,Italian Restaurant
1597,1597,48.1851,11.570888888888891,16,7,5af45c77d807ee002cf27779,Cig Köfte von Efsane,48.183537,11.566395,Middle Eastern Restaurant
792,792,48.1351,11.570888888888891,50,43,5af5f11a56c89f002cb45179,Rustikeria,48.131159999999994,11.570167,Italian Restaurant
1686,1686,48.2151,11.513111111111114,1,0,5af83ea798fbfc002c9e2b91,Seehaus Feldmoching,48.216965,11.517452,Greek Restaurant
1792,94,48.1273609293324,11.596413348833194,46,3,5b0d3e79628c83002c857b48,Nana - Eat & Run,48.128845,11.594219,Israeli Restaurant
402,402,48.1251,11.542000000000002,31,29,5b0d69bfdb3aef002435cad0,K&K Kilim Kebaphaus,48.123166999999995,11.541469000000001,Doner Restaurant
210,210,48.1051,11.643111111111114,10,6,5b0ea4cd2aff31002ccce268,My Simit,48.101290999999996,11.644799,Turkish Restaurant
431,431,48.1251,11.556444444444445,50,27,5b118594dff8150039980aae,Sta Kala Kathoumena,48.125174,11.552173,Greek Restaurant
897,897,48.1351,11.614222222222226,23,11,5b16d453e97dfb0039a1f6e9,Thi Hoa,48.137388,11.618278,Vietnamese Restaurant
285,285,48.1151,11.570888888888891,17,8,5b1a8784b3c961002c8557f4,Giesinger Braustüberl,48.115568882471905,11.576639413833618,German Restaurant
954,954,48.1451,11.469777777777779,15,1,5b2295998d0a53002c9e3246,Hoa Thoa - Grill & Wok - Pasing,48.144844,11.472078,Asian Restaurant
1075,1075,48.1451,11.570888888888891,40,17,5b2a241e178a2a002c8b7975,Oncology Gemany,48.145339,11.569556,German Restaurant
887,887,48.1351,11.614222222222226,23,1,5b2d2e4f054e29002c945e8a,Pad Thai,48.132469,11.609862,Thai Restaurant
890,890,48.1351,11.614222222222226,23,4,5b391a2ff96b2c002c2bc729,Allegro,48.136748,11.611833,Italian Restaurant
2237,539,48.13283907066761,11.57425397303848,50,26,5b44e77f603d2a002c4a8be4,Locanda Gamba,48.134541,11.574549000000001,Seafood Restaurant
2200,502,48.1373609293324,11.57425397303848,48,37,5b5c58b69de23b002c435d97,Chen's Nudelbar,48.137221999999994,11.573184,Chinese Restaurant
1272,1272,48.1551,11.556444444444445,33,28,5b60b236b9a5a8002c04942f,Faressa Bar & Restaurant,48.152069,11.56056,Italian Restaurant
1373,1373,48.1551,11.643111111111114,7,6,5b621c41c03635002c164d83,Kahn‘S Schnellimbiss,48.15791,11.642107000000001,Sushi Restaurant
216,216,48.1051,11.657555555555556,5,2,5b689d6c396de0002cc3740d,Biergarten,48.10219,11.659975,German Restaurant
2091,393,48.1373609293324,11.5675238047393,50,18,5b6d81df491be700391f1ae6,Arbil Restaurant,48.136575,11.56448,Persian Restaurant
362,362,48.1251,11.469777777777779,2,1,5b6f57d0037be1002cf4c82d,Pelagos Taverna,48.127673,11.475052,Greek Restaurant
223,223,48.1151,11.426444444444444,4,3,5b7073f99e3b65003946ac13,Das Kukovetz,48.112255,11.428452499999999,Austrian Restaurant
1538,1538,48.1751,11.585333333333335,8,0,5b7af2ca5a2c91002c60e4d1,Shizoo.,48.175270000000005,11.581665,Sushi Restaurant
1416,1416,48.1651,11.570888888888891,43,10,5b8586afc36588002c6f0eec,JaVi,48.164783,11.564767999999999,Japanese Restaurant
976,976,48.1451,11.498666666666667,12,6,5ba2856b9e0d54002c9d8ad7,Il Cortile,48.142041,11.502802,Italian Restaurant
1213,1213,48.1551,11.542000000000002,37,6,5bac8802018cbb002c42c55a,Sumi Restaurant,48.151465,11.541376,Sushi Restaurant
2461,763,48.14736092933239,11.559810184156827,31,21,5bb4aeb9fe37400039632669,Watan,48.148296,11.562432000000001,Afghan Restaurant
2764,83,48.136230464666205,11.56149214476223,14,12,5bbcd98b4aa3f8002c002918,Lei Chalak,48.13646,11.560878,Mediterranean Restaurant
1063,1063,48.1451,11.570888888888891,40,5,5bbce698345cbe0039ee0c0f,Türkitch,48.148607,11.574743,Doner Restaurant
130,130,48.0951,11.556444444444445,5,2,5bc08201838e59002c7b0e05,Tierpark Restaurant,48.09434,11.55268,German Restaurant
310,310,48.1151,11.585333333333335,30,16,5bc38cd74186860039832978,Don Peppina,48.116516,11.589192,Italian Restaurant
1618,1618,48.1851,11.599777777777776,5,1,5bca07b0872f7d002c9c01ba,Zum Metzger-Rudi,48.185193,11.602775,German Restaurant
1539,1539,48.1751,11.585333333333335,8,1,5bced3542b274a002caafd5f,Jaadin Grill- & Teahouse,48.171237372657174,11.586869359016418,Vietnamese Restaurant
1730,32,48.12283907066761,11.553080015499859,8,7,5bd2de03bcbf7a00394d5c91,TurboBao,48.122043732277724,11.554677486419678,Asian Restaurant
263,263,48.1151,11.542000000000002,15,4,5bd8ad9bdb1d810039cf9f1e,Italo Ristorantino,48.11657944,11.53781982,Italian Restaurant
939,939,48.1451,11.455333333333336,17,3,5bddf8104c954c002cc4c23a,Platonas,48.14609,11.453271,Greek Restaurant
85,85,48.0851,11.643111111111114,14,3,5be2d73a4940bc002c29ed15,Imbiss Marienkäfer,48.08795,11.640169,Doner Restaurant
1000,1000,48.1451,11.542000000000002,18,10,5be57045dee770002c024e37,Ryu - Fusion Kitchen,48.14922,11.543011,Asian Restaurant
1172,1172,48.1551,11.513111111111114,14,3,5bf8444bacb37f002c8a25a6,Ekam Restaurant,48.154087,11.506582,Indian Restaurant
306,306,48.1151,11.585333333333335,30,12,5bf98dc48a6f17002c8c04c3,Café Bistro Central,48.117012,11.582447,Greek Restaurant
919,919,48.1351,11.672,3,1,5c040339fd16bb002c28ba17,Brezen Bande,48.134939,11.666147,Bavarian Restaurant
313,313,48.1151,11.585333333333335,30,19,5c1d4b57a6031c002c67a35c,Restaurant Heimgarten,48.113284,11.583658,German Restaurant
490,490,48.1251,11.570888888888891,38,36,5c1fd141a92d98002c0ca3b5,Megana,48.121235,11.573014,Lebanese Restaurant
389,389,48.1251,11.542000000000002,31,16,5c25016065cdf8002cb2fc3b,Bebeq,48.127417,11.541012,Turkish Restaurant
19,19,48.0651,11.614222222222226,14,13,5c28f90435d3fc0039bd6815,Ganesha,48.066128000000006,11.610237,Indian Restaurant
604,604,48.1351,11.426444444444444,1,0,5c379330cad1b6002cb9227b,Mamma Anna,48.136507,11.427433,Italian Restaurant
2390,692,48.13283907066761,11.588698417482927,23,14,5c3a1e1c6dcf04002c0a2f27,Meat My Balls,48.13118,11.589843,Italian Restaurant
497,497,48.1251,11.585333333333335,23,5,5c3b9c93f05ca8002d63dc96,Ayinger in der Au,48.126174,11.584916,Bavarian Restaurant
1336,1336,48.1551,11.585333333333335,33,9,5c5439dc9cadd9003949da88,Ha Noi Pho,48.153683,11.58504,Vietnamese Restaurant
368,368,48.1251,11.498666666666667,5,4,5c55a10901bc5a002c72c780,DÖNER,48.121613,11.502281,Doner Restaurant
1547,1547,48.1751,11.599777777777776,10,1,5c5b18dd112c6c002ca03875,frissini vini,48.176864,11.600727000000001,Italian Restaurant
399,399,48.1251,11.542000000000002,31,26,5c6550ab9cadd9002cabe41a,Souvlike,48.123121000000005,11.546524,Greek Restaurant
1690,1690,48.2151,11.542000000000002,5,0,5c65bcd36eda02002c39087a,Gaststätte zum Dülfer,48.214768,11.543797999999999,German Restaurant
1415,1415,48.1651,11.570888888888891,43,9,5c673211178a2a002c5f67d1,Le Voyage,48.16165,11.572506,Chinese Restaurant
1103,1103,48.1451,11.585333333333335,23,5,5c6877bc0d8a0f002c744ad4,Vecchia Lanterna,48.141013,11.586175,Italian Restaurant
267,267,48.1151,11.542000000000002,15,8,5c8a4fc82b9844002c8c49be,Sim Sim,48.117836,11.540613,Falafel Restaurant
198,198,48.1051,11.599777777777776,9,8,5c9a9238ad1789002cc31a19,Pizzaria Portofino,48.105242,11.593144,Italian Restaurant
585,585,48.1251,11.643111111111114,3,2,5c9c78dedff815002ce089a9,Tapas Bar Madrid,48.126789,11.641361999999999,Spanish Restaurant
486,486,48.1251,11.570888888888891,38,32,5c9d0867a3061900395339f0,Yoisho,48.123706,11.5663,Japanese Restaurant
1884,186,48.1351,11.542000000000002,28,25,5cb07f3516fa04002c57ee47,Bnb,48.135155,11.544179,Asian Restaurant
253,253,48.1151,11.527555555555557,11,5,5cb75d0fbe7078002cd2e861,Café Hanoi,48.117043,11.525514,Vietnamese Restaurant
233,233,48.1151,11.484222222222225,8,2,5cbb32b6ad910e002c4e5a0a,Huna,48.116425,11.479803,Asian Restaurant
1355,1355,48.1551,11.585333333333335,33,28,5cc06a9dc0f163002ca2ab72,Asahi,48.15814642,11.58447093,Asian Restaurant
116,116,48.0951,11.513111111111114,5,4,5cc1053cefa82a002c85e234,Restaurante Caesars,48.096030999999996,11.51038,Italian Restaurant
2366,668,48.13283907066761,11.581968249183744,32,31,5cd31b84947c05002cfe8d46,Apla‘funky,48.132099,11.579549,Greek Restaurant
384,384,48.1251,11.542000000000002,31,11,5cd55600625a66002c836fde,Sushi 2 Go,48.123196,11.546183000000001,Sushi Restaurant
1548,1548,48.1751,11.599777777777776,10,2,5ce6f7a4c4df1d002c7a537e,Grissini & Vini,48.176953000000005,11.600749,Italian Restaurant
1256,1256,48.1551,11.556444444444445,33,12,5cee503486f4cc00362b1d30,Vitamintogo,48.154587,11.553042,Vietnamese Restaurant
962,962,48.1451,11.469777777777779,15,9,5cf3ffbdaf35f30026daac18,Phone Pizza&Wok,48.145294,11.470127,Fast Food Restaurant
1151,1151,48.1451,11.643111111111114,5,2,5cf803db8a6f17002c248d0e,Trattoria Da Ciccio,48.146867,11.640717,Italian Restaurant
969,969,48.1451,11.484222222222225,2,1,5cfa96883e6741002c2fa9b1,Beyzade Restaurant Munich,48.14480666290157,11.480648517608644,Turkish Restaurant
229,229,48.1151,11.455333333333336,3,1,5d012857829b0c002c5c2ece,Restaurant Long,48.113056,11.45097,Chinese Restaurant
1797,99,48.1273609293324,11.596413348833194,46,8,5d0e53ef6a3c900023469ddc,Xin Chao,48.128988,11.594117,Vietnamese Restaurant
1252,1252,48.1551,11.556444444444445,33,8,5d0fb829820cc400293034da,Amigos Restaurante Mexicano,48.15378,11.55406,Mexican Restaurant
180,180,48.1051,11.542000000000002,12,11,5d2cba62afbe290023173172,Rosa Dei Venti,48.10287,11.547152,Italian Restaurant
220,220,48.1151,11.426444444444444,4,0,5d2da28d00427d0023c9ae2f,Da Serafino,48.111709999999995,11.425027,Italian Restaurant
1073,1073,48.1451,11.570888888888891,40,15,5d2db17a53331f00236f096d,Tokami Take away,48.148503999999996,11.573861,Thai Restaurant
2363,665,48.13283907066761,11.581968249183744,32,28,5d31d6d42825df0007abf60c,Lezizel Manti,48.133268,11.582962,Turkish Restaurant
290,290,48.1151,11.570888888888891,17,13,5d3751544bd6000008f7a553,Bun,48.11925,11.572954,Vietnamese Restaurant
1984,286,48.1373609293324,11.559809528594036,50,6,5d40a082eb60880008529d1b,Váthos,48.137281,11.562489,Greek Restaurant
1928,230,48.1373609293324,11.545365084149589,24,21,5d457aa4600da30008a3ecfb,Baggys Croque,48.136984000000005,11.547654,French Restaurant
2708,27,48.13396953533381,11.575936441029015,14,12,5d49bbfa39e5a20008412db8,Thai Thanh Nhan,48.134518,11.575763,Thai Restaurant
283,283,48.1151,11.570888888888891,17,6,5d4d971f816c15000870d475,Hippie Chay,48.114639000000004,11.576439,Vegetarian / Vegan Restaurant
1811,113,48.1273609293324,11.596413348833194,46,22,5d666c35d316ec00075d514e,Cevapchichi,48.128142,11.594741,Eastern European Restaurant
208,208,48.1051,11.643111111111114,10,4,5d7650fbafb4fb00082b9364,ciao bella PEP Neuperlach,48.1007548,11.6445356,Italian Restaurant
1848,150,48.1273609293324,11.603142206722364,14,6,5d7cd96ba189490008f96a70,Elasya,48.129325,11.602129,Mediterranean Restaurant
1079,1079,48.1451,11.570888888888891,40,21,5d8119507096d0000853fa1a,George Prime Steak & Raw Bar GmbH,48.14310999478426,11.57283067703247,American Restaurant
110,110,48.0951,11.498666666666667,8,6,5d89ced019ea88000741b0b8,Dhatri,48.098313,11.499033,Indian Restaurant
187,187,48.1051,11.585333333333335,3,0,5d8e304691a48f00081001b3,Da Raffaella,48.1036,11.591398,Italian Restaurant
2229,531,48.13283907066761,11.57425397303848,50,18,5d9cbbcadbf3ca00085584c2,Mai Garten,48.13281,11.577486,Chinese Restaurant
996,996,48.1451,11.542000000000002,18,6,5d9db6f4b1148d00086f38f8,eat happy,48.14366,11.535992,Sushi Restaurant
863,863,48.1351,11.599777777777776,37,14,5daf4b5a7b76110008244429,Partenopeo,48.135787,11.606032,Italian Restaurant
2100,402,48.1373609293324,11.5675238047393,50,27,5db468f8a9a86b0009cb9af5,Juli,48.137458,11.570075,Sushi Restaurant
1560,1560,48.1851,11.469777777777779,3,1,5db6d84c8e3e4e00086ad697,Little Tokyo,48.188606,11.467946000000001,Japanese Restaurant
2572,874,48.15736092933239,11.574255284522106,31,19,5db8068e076bd80008a9e5e7,Bar Del Giorno,48.157762,11.574497000000001,Italian Restaurant
113,113,48.0951,11.513111111111114,5,1,5db9e68d66632400073a67b1,Mardin Kebap,48.096897,11.513242,Turkish Restaurant
1209,1209,48.1551,11.542000000000002,37,2,5dc473d1764830000833bc96,JACCI Asian Kitchen,48.154607,11.535729,Vietnamese Restaurant
1526,1526,48.1751,11.556444444444445,5,2,5dc82524846bda00084b99c8,Miss Miao,48.173863,11.560775999999999,Vietnamese Restaurant
1359,1359,48.1551,11.585333333333335,33,32,5dcf0e3fb21d3f0007c16df6,Ivan’s,48.154536,11.58297,Middle Eastern Restaurant
1913,215,48.1373609293324,11.545365084149589,24,6,5de7fce3df71970008183dbd,Burger King,48.136614,11.548362,Fast Food Restaurant
222,222,48.1151,11.426444444444444,4,2,5deea7e2eccfc50008f6f1fa,Bambus Geniessen,48.119437,11.427727,Asian Restaurant
331,331,48.1151,11.599777777777776,13,7,5def781b9ced1e00089cddd6,Wonnis Bistros,48.116638,11.601686,German Restaurant
1271,1271,48.1551,11.556444444444445,33,27,5df8c8d59f5802000876dc4d,Coconut-Bowl,48.155181,11.561685,Vietnamese Restaurant
1112,1112,48.1451,11.585333333333335,23,14,5e143a9e6fab510007419fe6,Cupido The One and Only,48.142655,11.586719300000002,Italian Restaurant
335,335,48.1151,11.599777777777776,13,11,5e15bb510e161a0008a45eac,BERIAN Restaurant & Bar,48.119149,11.600056,Italian Restaurant
1239,1239,48.1551,11.542000000000002,37,32,5e162e9622d7dd000880615b,Wari Ke,48.150909999999996,11.5407505,Peruvian Restaurant
1769,71,48.12283907066761,11.559808873389029,10,1,5e3345fedf46c800087d561e,Spaten Sepp,48.121323,11.560524000000001,Bavarian Restaurant
904,904,48.1351,11.614222222222226,23,18,5e4bac31540e1200084a72fe,Zum Kötter`l,48.13840926,11.6097123,German Restaurant
2209,511,48.1373609293324,11.57425397303848,48,46,5e4e7afb0439d10008d9a487,kesselfrische weiswurst,48.136318,11.576874,German Restaurant
7,7,48.0651,11.614222222222226,14,1,5e55278f5601270008511211,Tou Bakali,48.062912,11.614859,Greek Restaurant
249,249,48.1151,11.527555555555557,11,1,5e6bcf32c856660008948d24,La Piccola Osteria,48.112584999999996,11.524229,Italian Restaurant
938,938,48.1451,11.455333333333336,17,2,5e989a7c0706b5000865ce4c,Nanami Japanese Taste,48.147083,11.457636,Japanese Restaurant
474,474,48.1251,11.570888888888891,38,20,5e9c833f7ee965000816c5c2,Tam Tia To,48.12256,11.575058,Vietnamese Restaurant
1339,1339,48.1551,11.585333333333335,33,12,5eaaed4dd3218d00070599c3,Shibuya Fried Chicken By Tohru,48.1593,11.584057000000001,Korean Restaurant
966,966,48.1451,11.469777777777779,15,13,5ec9625334eba80008d92513,Saigon Perle München,48.145126,11.474439,Asian Restaurant
383,383,48.1251,11.542000000000002,31,10,5ecf992ca48b280008831e2a,Sakura,48.124790999999995,11.535528999999999,Japanese Restaurant
107,107,48.0951,11.498666666666667,8,3,5ed0de7cfadd0100083a5512,Milano's,48.093831,11.499617,Italian Restaurant
602,602,48.1251,11.672,9,8,5eda81342e5e760008a6c21a,Sushi Bin,48.125575,11.674344999999999,Sushi Restaurant
590,590,48.1251,11.657555555555556,8,4,5efc47d5805530000879ddd2,Helinam Schnellrestaurant,48.125294,11.664008,Turkish Restaurant
1801,103,48.1273609293324,11.596413348833194,46,12,5f01e849da17166caf73cf1f,Song’s Kitchen,48.12813,11.594700999999999,Dumpling Restaurant
1457,1457,48.1651,11.585333333333335,50,8,5f022c79ca141173a62c4c9d,Ali’s Gemüse Döner,48.160665,11.585985,Doner Restaurant
51,51,48.0751,11.657555555555556,6,1,5f0764edd729a13367f82dcb,Da Noi,48.075662,11.657173,Italian Restaurant
2241,543,48.13283907066761,11.57425397303848,50,30,5f0cbdf635d1e26f92b35034,TENNO Sushi And More,48.132509999999996,11.57704,Japanese Restaurant
1128,1128,48.1451,11.599777777777776,19,7,5f0edf41eeff8d4a92f924cc,Umi Sushi,48.141307,11.600586,Asian Restaurant
1627,1627,48.1851,11.657555555555556,3,0,5f109e7d48c54d26f5048bc0,Huso,48.184961,11.650886,Vietnamese Restaurant
1192,1192,48.1551,11.527555555555557,24,9,5f189054089eb535db45281c,Ayinger Am Rotkreuzplatz,48.152399,11.531518,Bavarian Restaurant
2588,890,48.1528390706676,11.574255284522106,25,4,5f259e5768e5bd060231ea26,SUPERNOVA Bar & Trattoria,48.152465,11.577217,Italian Restaurant
610,610,48.1351,11.498666666666667,7,4,5f2a8efe35f2da75a9e395c4,Dizza Pizza-Döner Imbiss,48.132275,11.502497,Doner Restaurant
2355,657,48.13283907066761,11.581968249183744,32,20,5f2ec8fca9d86a7303577097,Suzuki Nomnom Kitchen,48.133696,11.580985,Japanese Restaurant
918,918,48.1351,11.672,3,0,5f4c0167b7f05555426d67c1,Góralskie Smaki,48.135643,11.668156,Polish Restaurant
36,36,48.0751,11.513111111111114,5,0,5f57b1a66e639945ef3e8d21,Teatro Solln Im Iberl,48.070991,11.514706,Italian Restaurant
2678,980,48.16283907066761,11.588700385245676,44,41,5f65193c1fabcc7cbc4c27e5,Nikkei Tapas Fusion Y Vinos,48.162917,11.590442,Peruvian Restaurant
1206,1206,48.1551,11.527555555555557,24,23,5f70bf854685cb3ff20cc313,Ysi,48.154278999999995,11.534164,Asian Restaurant
1929,231,48.1373609293324,11.545365084149589,24,22,5f72116fdac5217ff8486d0e,Kairo Kitchen,48.136757,11.547763,Egyptian Restaurant
648,648,48.1351,11.527555555555557,28,27,5f778accf97f9d0e2a30059e,IberoTapas,48.138856,11.529043,Spanish Restaurant
2679,981,48.16283907066761,11.588700385245676,44,42,5f779f006437a030b1cf4b36,La Burrita,48.161996,11.589658,Mexican Restaurant
1275,1275,48.1551,11.556444444444445,33,31,5f8050a642a92563811732d3,Habibi‘s Imbiss,48.155233,11.552824000000001,Turkish Restaurant
1930,232,48.1373609293324,11.545365084149589,24,23,5f819531ada26e76295d7147,In-Dish,48.136932,11.547145,Indian Restaurant
2608,910,48.1528390706676,11.574255284522106,25,24,5f8d8fea9ab4fe05785b8262,Lezizel Manti Turkish Dumplings,48.150757,11.573997,Dumpling Restaurant
1616,1616,48.1851,11.585333333333335,11,10,5f8f14f3bd1cc65e69adff4a,Cafe Kysu,48.187363,11.586986,Vietnamese Restaurant
1448,1448,48.1651,11.570888888888891,43,42,5f93103fc7a2216c7c2cd707,Nikkei Kitchen,48.162835,11.571928999999999,Peruvian Restaurant
2680,982,48.16283907066761,11.588700385245676,44,43,5fa1a51e8f1e0f2321413e82,Turkitch kebap,48.161642,11.58724,Turkish Restaurant
2825,144,48.13849139399859,11.580285633015551,10,9,5faeaf6c9dd8aa23365d5b0c,Umai Streetfood Market,48.138348,11.580831,Japanese Restaurant
2717,36,48.1373609293324,11.559809528594036,7,6,5fb3c5cdb66f4f04e76a1d42,Servus Habibi,48.13739317063554,11.560987383127213,Lebanese Restaurant
2583,885,48.15736092933239,11.574255284522106,31,30,5fb3d8f9e3f8f129dec35e0a,Levante - Mezze Bar & Restaurant,48.15755672508587,11.575861573219301,Lebanese Restaurant
612,612,48.1351,11.498666666666667,7,6,5fd0b80e63e4552b2d786208,Authentic Döner Kebab,48.136714000000005,11.503291,Doner Restaurant
