,lat_centre,long_centre,num_venues,venue_iter,venue_id,venue_name,lat_venue,long_venue,category
0,53.27702,-6.33735294117647,1,0,4cdc443d39172d43109e83d8,Fortune Chinese Takeaway,53.27562214897887,-6.330688580790039,Chinese Restaurant
1,53.27702,-6.320823529411765,1,0,4e187af9ae6092c2765228da,Lucky Star Take Away,53.27843669922445,-6.317239711828694,Chinese Restaurant
2,53.27702,-6.287764705882353,1,0,4f4cf5b36d868cc34b3b87b1,Golden Wok,53.27801943249928,-6.286604404449463,Chinese Restaurant
3,53.27702,-6.2712352941176475,1,0,4b5b5c66f964a520b8f728e3,Bombay Pantry,53.277082332584165,-6.265058284854973,Indian Restaurant
4,53.27702,-6.254705882352941,2,0,4ca764a797c8a1cd92d479a5,Anise,53.276565034141086,-6.248533140708858,Asian Restaurant
5,53.27702,-6.254705882352941,2,1,5b93fcf18c812a002cc66622,Mao Ballinteer,53.274944,-6.2539735,Asian Restaurant
6,53.27702,-6.22164705882353,6,0,4b72b0f6f964a520f9832de3,My Thai,53.27649815472924,-6.2205236782891795,Thai Restaurant
7,53.27702,-6.22164705882353,6,1,523207c911d2688bcaff978e,Michie Sushi,53.27730176550381,-6.217334117905308,Sushi Restaurant
8,53.27702,-6.22164705882353,6,2,55a7f682498e11da1a9ac2af,Mango Tree,53.27742025017447,-6.216207580165262,Thai Restaurant
9,53.27702,-6.22164705882353,6,3,582893d626d44f3396db30c1,Musashi,53.27687882072121,-6.218559808283636,Japanese Restaurant
10,53.27702,-6.22164705882353,6,4,5c101390bed483002cbe1b01,Shan Suey House,53.276271,-6.223886,Chinese Restaurant
11,53.27702,-6.22164705882353,6,5,5a073694b8fd9d6364bb25cb,Zambrero,53.276978,-6.2166233,Burrito Place
12,53.27702,-6.205117647058824,3,0,4c8b54cfe51e6dcbdb5f71de,China Sichuan,53.27815936931124,-6.210854937801116,Chinese Restaurant
13,53.27702,-6.205117647058824,3,1,4c8a270c6418a1435d05ddce,La Dolce Vita,53.2769602596483,-6.21069731646056,Italian Restaurant
14,53.27702,-6.205117647058824,3,2,583b61f24bafb719b00c6373,Wraps & Rolls,53.277717,-6.211282,Mediterranean Restaurant
15,53.27702,-6.139,3,0,4af5e196f964a5204bfe21e3,Bombay Pantry,53.27954003329554,-6.13455086534647,Indian Restaurant
16,53.27702,-6.139,3,1,4ccdbf2cc9b84688c3e0c4c3,China Star,53.27832254267859,-6.142174179837663,Chinese Restaurant
17,53.27702,-6.139,3,2,4ccdbfa8511b236aad38f9c9,Spice Cottage,53.27830123291746,-6.142174002852756,Indian Restaurant
18,53.286718666666665,-6.42,2,0,4fb39a13e4b06686488110cd,lake view cafe,53.29044137138775,-6.4236975091949455,Indian Restaurant
19,53.286718666666665,-6.42,2,1,570cf2d4498e74ac2c96a7d6,Cantina,53.287878,-6.423742,Mexican Restaurant
20,53.286718666666665,-6.403470588235294,1,0,520fda6b11d2ac3f4d161d17,Golden Palace,53.285008662734796,-6.40664891516405,Chinese Restaurant
21,53.286718666666665,-6.370411764705882,20,0,5470d887498ea81c5eda84e4,Aussie Outback,53.28640365536811,-6.375031074699957,Australian Restaurant
22,53.286718666666665,-6.370411764705882,20,1,4c63f71186b6be9a93c48f34,Eddie Rocket's,53.2866313,-6.3731824,Diner
23,53.286718666666665,-6.370411764705882,20,2,4ec7c3a893ad41338d247b0e,Mahr Restaurant,53.28616465062199,-6.375183738904183,Middle Eastern Restaurant
24,53.286718666666665,-6.370411764705882,20,3,58ad8c2bfc73d42fbcd7fb87,Mams Indian Restaurant,53.28599120987711,-6.375691294670105,Indian Restaurant
25,53.286718666666665,-6.370411764705882,20,4,4cdaf58fa1bba35dffd991e5,The New Leaf,53.287585,-6.365797,Chinese Restaurant
26,53.286718666666665,-6.370411764705882,20,5,4cf9493f7945224b1cf878e7,Tamara,53.286140205122415,-6.376200914382935,Thai Restaurant
27,53.286718666666665,-6.370411764705882,20,6,57daa008498ef451cce7758d,Peachtree East,53.28843,-6.373954,Modern European Restaurant
28,53.286718666666665,-6.370411764705882,20,7,4da4934cd686b60cd8ede228,Tip Top,53.28819915445288,-6.364396081334357,Asian Restaurant
29,53.286718666666665,-6.370411764705882,20,8,508921abe4b020a19df11d30,Mao at Home,53.286976,-6.369302,Asian Restaurant
30,53.286718666666665,-6.370411764705882,20,9,4f22978ce5e82cb9b63f1212,India Gate,53.28983445347201,-6.368165016174316,Indian Restaurant
31,53.286718666666665,-6.370411764705882,20,10,4ee4527ce5faffd731923ae3,Hakataya Noodle Shop,53.286845,-6.371788,Noodle House
32,53.286718666666665,-6.370411764705882,20,11,4deea81e18380c912df6e6f1,Choices Chinese Take-Away,53.28818954650742,-6.363748499036419,Chinese Restaurant
33,53.286718666666665,-6.370411764705882,20,12,4f0c7ab6e4b0a87afad6b41f,Kundan Tandoori,53.28767199412159,-6.365452569823539,Indian Restaurant
34,53.286718666666665,-6.370411764705882,20,13,5884ed2889151d20aa95e603,Ginzeng,53.286543,-6.372649,Asian Restaurant
35,53.286718666666665,-6.370411764705882,20,14,4ade0f46f964a520bc7121e3,The Olive Tree Restaurant,53.28590240732022,-6.367050727202132,Mediterranean Restaurant
36,53.286718666666665,-6.370411764705882,20,15,4f5a5301e4b05eee2c022412,Oche,53.28759515054764,-6.368372483432418,Thai Restaurant
37,53.286718666666665,-6.370411764705882,20,16,56ef08b6498eaa1cd8ca98f9,Aussie BBQ,53.286725,-6.370459,Australian Restaurant
38,53.286718666666665,-6.370411764705882,20,17,53e77c44498ec76ed5e7ad4e,El Porko Loco,53.287002627815426,-6.371656802863477,Burrito Place
39,53.286718666666665,-6.370411764705882,20,18,527b8b9311d2c62ce0071ff6,Ginthai Thai and Asian,53.285574,-6.366688,Asian Restaurant
40,53.286718666666665,-6.370411764705882,20,19,54f5ff25498eee88538f37a6,Nando's,53.28704026,-6.37179924,Portuguese Restaurant
41,53.286718666666665,-6.353882352941176,2,0,4f2293cde5e82cb9b63eabbf,Phoenix Dragon,53.28667896956799,-6.359903812408447,Chinese Restaurant
42,53.286718666666665,-6.353882352941176,2,1,4f229365e5e82cb9b63e9f9c,Golden World,53.28802585096114,-6.359796524047852,Chinese Restaurant
43,53.286718666666665,-6.33735294117647,1,0,4c59dba16407d13ad23eb328,China House,53.28390360063163,-6.337994669141318,Chinese Restaurant
44,53.286718666666665,-6.304294117647059,1,0,51f3088d498e0e11b7614a5f,Ming's,53.28964778495181,-6.30985815688983,Chinese Restaurant
45,53.286718666666665,-6.254705882352941,1,0,4c3f5a4ce26920a179515be7,Hong Kong Kitchen,53.28781329509308,-6.258906638194196,Chinese Restaurant
46,53.286718666666665,-6.238176470588235,23,0,4af6dc4df964a5209e0322e3,Milano,53.28835418360232,-6.243218569986084,Pizza Place
47,53.286718666666665,-6.238176470588235,23,1,4b5a219df964a52032af28e3,Ananda,53.288000141944664,-6.2413151880964115,Indian Restaurant
48,53.286718666666665,-6.238176470588235,23,2,4b59f808f964a52096a428e3,Nando's,53.288722,-6.244245,Portuguese Restaurant
49,53.286718666666665,-6.238176470588235,23,3,545655bc498ea5abfa04928a,Hailan Japanese Restaurant,53.28932868843579,-6.243751643526089,Japanese Restaurant
50,53.286718666666665,-6.238176470588235,23,4,5867aeb392ca4c7f6f9c542b,Kanoodle,53.287312,-6.242662,Noodle House
51,53.286718666666665,-6.238176470588235,23,5,4f8d96e7e4b02aede0821250,Ristorante Del Arte,53.28824349697014,-6.242369775206794,Italian Restaurant
52,53.286718666666665,-6.238176470588235,23,6,58aae156e18e6533fdb0b0cc,Long Sin Takeaway,53.28903406018087,-6.24320840848668,Asian Restaurant
53,53.286718666666665,-6.238176470588235,23,7,4cc2f345306e224b3c7e936c,The Port House Ibericos,53.28856796354206,-6.24365572528966,Tapas Restaurant
54,53.286718666666665,-6.238176470588235,23,8,4e1d997245ddc696bb3b15bd,wagamama,53.28848955917603,-6.243587167020846,Asian Restaurant
55,53.286718666666665,-6.238176470588235,23,9,4afc24b6f964a520192022e3,Cafe Mao,53.28812093838289,-6.243115805707199,Asian Restaurant
56,53.286718666666665,-6.238176470588235,23,10,4b37b197f964a5207a4425e3,TGI Fridays,53.28820284317297,-6.24246250784926,American Restaurant
57,53.286718666666665,-6.238176470588235,23,11,5948e2b117556232c316e2ab,Marvin.ie,53.2891674600388,-6.243635416030884,Chinese Restaurant
58,53.286718666666665,-6.238176470588235,23,12,5717c937498e9e93458efbd4,Zizzi,53.288668,-6.244164,Italian Restaurant
59,53.286718666666665,-6.238176470588235,23,13,4bf7cc318d30d13a9c84ff17,Roly Saul,53.28829735016113,-6.242733716258721,French Restaurant
60,53.286718666666665,-6.238176470588235,23,14,584d647f23188e0c091c75b7,OXÂCA,53.288341,-6.243661,Mexican Restaurant
61,53.286718666666665,-6.238176470588235,23,15,4b898b6cf964a5208c4032e3,Buona Sera,53.289668,-6.242743,Italian Restaurant
62,53.286718666666665,-6.238176470588235,23,16,5df9077b442f890008fc4b1e,YO! Kitchen Dundrum,53.28705084419072,-6.242322188591515,Japanese Restaurant
63,53.286718666666665,-6.238176470588235,23,17,4f1ffb03771650cfa5b2d5c5,Konkan Indian Restaurant,53.289128979330705,-6.243109703063965,Indian Restaurant
64,53.286718666666665,-6.238176470588235,23,18,4b994060f964a520936d35e3,China Buffet King,53.288208,-6.242353,Chinese Restaurant
65,53.286718666666665,-6.238176470588235,23,19,594ba38795da0c08d9ea0a25,SweetChurro,53.28808357350062,-6.242761015892028,Dessert Shop
66,53.286718666666665,-6.238176470588235,23,20,4c0bc550340720a1108e8893,L'Officina,53.28810264409161,-6.243114312993213,Italian Restaurant
67,53.286718666666665,-6.238176470588235,23,21,4b6c8f51f964a52022432ce3,Siam Thai,53.288079486202705,-6.242959462803765,Thai Restaurant
68,53.286718666666665,-6.238176470588235,23,22,4bf2dc536991c9b6a29729e9,Dante,53.28816251590888,-6.242366083217682,Italian Restaurant
69,53.286718666666665,-6.22164705882353,1,0,4f4bb088c2ee9f42a13eb189,Gong Chinese,53.28957791876849,-6.2233686447143555,Chinese Restaurant
70,53.286718666666665,-6.205117647058824,8,0,55c6417c498ef932c0156dc3,Utsav,53.288389,-6.205041,Indian Restaurant
71,53.286718666666665,-6.205117647058824,8,1,56a002e0498eea01c3fd6df1,Aoshima,53.28858214209204,-6.205334192227345,Sushi Restaurant
72,53.286718666666665,-6.205117647058824,8,2,5b1bcc26851de5002c26fa49,Narra Thai & Asian Restaurant,53.288598,-6.20459,Thai Restaurant
73,53.286718666666665,-6.205117647058824,8,3,4c979921533aa0938062db45,Indian Summer,53.28837058163624,-6.204974055290222,Indian Restaurant
74,53.286718666666665,-6.205117647058824,8,4,533fe26b498e410951343db0,C Aprille Restaurant,53.288632087018534,-6.199477143435987,Italian Restaurant
75,53.286718666666665,-6.205117647058824,8,5,593c074767af3a7da0e8c065,Camile Thai,53.288531,-6.199284,Thai Restaurant
76,53.286718666666665,-6.205117647058824,8,6,525fd818498edd3e88589aff,Mao,53.28923894971028,-6.199404715075796,Thai Restaurant
77,53.286718666666665,-6.205117647058824,8,7,57263a05498e6edbc260367a,Casanova's Wood Fired Pizza,53.28843396685438,-6.199315516892057,Pizza Place
78,53.286718666666665,-6.172058823529412,2,0,4bc609d051b376b073df1a6f,Fu Moon,53.287781016842,-6.175734016452248,Chinese Restaurant
79,53.286718666666665,-6.172058823529412,2,1,4bba243153649c74c8ad48fb,The Blue Orchid,53.28810808607122,-6.175554287004362,Thai Restaurant
80,53.286718666666665,-6.155529411764706,1,0,4c68684231ba2d7fadc0f772,Paddy Fields,53.285875,-6.154868,Chinese Restaurant
81,53.29641733333333,-6.353882352941176,1,0,4d0e3aa53905b1f7bc9f9e4b,Eastern Flavours,53.29481080129651,-6.350165846649152,Malay Restaurant
82,53.29641733333333,-6.320823529411765,1,0,4e10e79ad4c07597ff7c7673,Sunflower,53.299140487529705,-6.321322466998045,Chinese Restaurant
83,53.29641733333333,-6.304294117647059,6,0,568abd09498e2cdedbd1984e,Fifty50,53.298377,-6.304201,Mediterranean Restaurant
84,53.29641733333333,-6.304294117647059,6,1,4f22d07a754aa9d4032c0012,Shirleys Kitchen,53.29813252021324,-6.304028034210205,Chinese Restaurant
85,53.29641733333333,-6.304294117647059,6,2,4bd324ec77b29c7422069082,Chrysanthemum,53.294188821427866,-6.300269098377738,Chinese Restaurant
86,53.29641733333333,-6.304294117647059,6,3,5159e573e4b04e4afa989025,Diep,53.29836705942237,-6.303728434471745,Asian Restaurant
87,53.29641733333333,-6.304294117647059,6,4,5c251bd97c891c0034d9ee36,The Wine Bar,53.29471,-6.2994895,Tapas Restaurant
88,53.29641733333333,-6.304294117647059,6,5,4b536132f964a520ab9927e3,Paparazzi,53.298399,-6.304280161857605,Italian Restaurant
89,53.29641733333333,-6.287764705882353,7,0,4e04e56952b1cef647d576a0,Delhi Lounge,53.299011342434135,-6.284444120783557,Indian Restaurant
90,53.29641733333333,-6.287764705882353,7,1,4f1ffbcd771650cfa5b2ec01,An Lins Garden,53.29965857336731,-6.2847161293029785,Chinese Restaurant
91,53.29641733333333,-6.287764705882353,7,2,4ecfe23b7ee5be844a8c42ef,Top Tops Chinese,53.298863166875094,-6.28519112346364,Chinese Restaurant
92,53.29641733333333,-6.287764705882353,7,3,55cb8033498e415e2f6bc6e4,Camile Thai,53.295646,-6.2852,Thai Restaurant
93,53.29641733333333,-6.287764705882353,7,4,4c49e0079f2ad13a3c38e453,Mango Tree,53.29799364977023,-6.28472609585801,Thai Restaurant
94,53.29641733333333,-6.287764705882353,7,5,4f218387d5fb4c7dde45051d,Chens Chinese,53.29935080233096,-6.285037994384766,Chinese Restaurant
95,53.29641733333333,-6.287764705882353,7,6,4bcb5c2068f976b077eb6083,Indian Brasserie,53.298168336071896,-6.285290429141423,Indian Restaurant
96,53.29641733333333,-6.2712352941176475,1,0,4c0009c837850f470d9e973f,Excelsior Take Away,53.292611,-6.272054,Chinese Restaurant
97,53.29641733333333,-6.238176470588235,2,0,4fa8097ee4b0fc2afce3e2ba,China Dynasty,53.297354996115054,-6.233573858472655,Chinese Restaurant
98,53.29641733333333,-6.238176470588235,2,1,5a6f0a506a595012d8344f9a,Hx46,53.297257,-6.233606,Asian Restaurant
99,53.29641733333333,-6.205117647058824,2,0,4eecdec2775b3c580ccd6deb,Yo Thai,53.2966712592187,-6.210903339606808,Asian Restaurant
100,53.29641733333333,-6.205117647058824,2,1,4ea1f7736da1455cac291548,Suriya Thai,53.297581,-6.207642,Asian Restaurant
101,53.29641733333333,-6.155529411764706,14,0,4e7e6634b634d08cfe481e2b,Victoria Karaoke,53.2940754301614,-6.153010876651321,Chinese Restaurant
102,53.29641733333333,-6.155529411764706,14,1,5cc8a9db894eac002c1ce522,Elephant & Castle,53.29389,-6.150786,American Restaurant
103,53.29641733333333,-6.155529411764706,14,2,5a7b722d66fc655fc95352a6,Le Plancha,53.293873,-6.153703,French Restaurant
104,53.29641733333333,-6.155529411764706,14,3,5c5f1f32968f310039c90425,Osteria 99,53.293602,-6.1547217,Italian Restaurant
105,53.29641733333333,-6.155529411764706,14,4,510e895ae4b0681bb84ff304,That's Amore,53.29361559625858,-6.15414422342252,Italian Restaurant
106,53.29641733333333,-6.155529411764706,14,5,519001ec498ed1b8e5242aa0,L'amore,53.29395294189453,-6.153779983520508,Italian Restaurant
107,53.29641733333333,-6.155529411764706,14,6,4f4b98ba4fc67bfa5b613baa,Victoria Asian Cuisine,53.2937848933887,-6.150670051574707,Chinese Restaurant
108,53.29641733333333,-6.155529411764706,14,7,513f7002e4b0023ee1486f8c,Chef Ville,53.293925,-6.152713,Indian Restaurant
109,53.29641733333333,-6.155529411764706,14,8,5220e7d911d2609f4f24375e,Panlasang Pinoy,53.294038,-6.152616,Filipino Restaurant
110,53.29641733333333,-6.155529411764706,14,9,4bbe271eb42aef3b9a7f4bc3,valpairiso,53.293658316939684,-6.154600678990201,Mediterranean Restaurant
111,53.29641733333333,-6.155529411764706,14,10,4c07eead6071a5933574db32,Victoria,53.29399564988077,-6.153122884497709,Chinese Restaurant
112,53.29641733333333,-6.155529411764706,14,11,4d8bb468342b37042905865c,Amerta,53.29416866882988,-6.153589101392022,Chinese Restaurant
113,53.29641733333333,-6.155529411764706,14,12,4d713c8269356ea84ed95dd9,Radhuni,53.29388389666436,-6.152699884908158,Indian Restaurant
114,53.29641733333333,-6.155529411764706,14,13,5a75ad5d2a7ab621d860bb6c,Bresson,53.293903,-6.153316,French Restaurant
115,53.29641733333333,-6.139,13,0,4c4c6c37bad7a5936b613fad,Cafe Mao,53.29405819178515,-6.132956202487861,Asian Restaurant
116,53.29641733333333,-6.139,13,1,5d5ac5d32605c80008e5ffcf,Dall'Italia Pastabar,53.292804,-6.137648,Italian Restaurant
117,53.29641733333333,-6.139,13,2,5b52560acabcff002cb6e012,Soup,53.293821,-6.13985,Ramen Restaurant
118,53.29641733333333,-6.139,13,3,5d570ceb0c23f20008bbfca8,Madhouse,53.294865,-6.1425486,Mexican Restaurant
119,53.29641733333333,-6.139,13,4,4e2d8613b0fbc2edac36ee11,Camile Thai,53.29488523938476,-6.142158242986636,Thai Restaurant
120,53.29641733333333,-6.139,13,5,580e8aa338fa0defaa95700a,Avocado Chinese Asian Kitchen,53.29302,-6.1371107,Asian Restaurant
121,53.29641733333333,-6.139,13,6,5d7f956c7ad2be0008a840b6,Nando's,53.2937621,-6.1349767,Portuguese Restaurant
122,53.29641733333333,-6.139,13,7,5745e213498e05fa7a1a1fe6,Delhi Rasoi,53.295077,-6.143999,Indian Restaurant
123,53.29641733333333,-6.139,13,8,4e00e22162843b639cf9d5a5,Shakira,53.293215495797334,-6.138252223232122,Indian Restaurant
124,53.29641733333333,-6.139,13,9,502aac48e4b085356ac10abb,Let's Pizza,53.2926,-6.135372,Italian Restaurant
125,53.29641733333333,-6.139,13,10,4c5b047a5c57c9b675b71e4a,Golden Elephant,53.29494753450722,-6.143180472827608,Chinese Restaurant
126,53.29641733333333,-6.139,13,11,4b49ff33f964a5207b7726e3,Milano,53.29479880505267,-6.1352889562959945,Pizza Place
127,53.29641733333333,-6.139,13,12,50e88367e4b03e4441fdd047,Travel Cafe & Restaurant,53.29496717575538,-6.135643711242103,Italian Restaurant
128,53.306116,-6.320823529411765,2,0,5b79d2c1bfc6d0002ca2f235,D2U Chinese Restaurant,53.307726,-6.319539,Chinese Restaurant
129,53.306116,-6.320823529411765,2,1,4b9d45d8f964a520019f36e3,Lok Moon,53.308103630326045,-6.315642030563706,Chinese Restaurant
130,53.306116,-6.287764705882353,4,0,4b92bac4f964a520fe1534e3,Meghna Tandoori,53.30949425697327,-6.28491997718811,Indian Restaurant
131,53.306116,-6.287764705882353,4,1,4b48d466f964a520ff5826e3,Eddie Rocket's,53.30930923905118,-6.284622528843329,Diner
132,53.306116,-6.287764705882353,4,2,59a6de63e1f228199504b19a,Burrito Bros,53.309433,-6.2843113,Burrito Place
133,53.306116,-6.287764705882353,4,3,5e2390fb5b863c000830b504,Apetito Tapas & Wine Bar,53.309838,-6.284375,Tapas Restaurant
134,53.306116,-6.238176470588235,4,0,5f4805395fcb012fa3185683,Street,53.30501,-6.245433,Indian Restaurant
135,53.306116,-6.238176470588235,4,1,4c3b0f8d0cabef3be479b94b,Yumi,53.30526218313169,-6.2371015548706055,Chinese Restaurant
136,53.306116,-6.238176470588235,4,2,4c27bda89fb5d13a668e9857,Golden Swan,53.304235457234086,-6.2397740352599484,Chinese Restaurant
137,53.306116,-6.238176470588235,4,3,5a85df551213840da21d1143,Steps Of Rome,53.30499,-6.245334,Italian Restaurant
138,53.306116,-6.205117647058824,2,0,4b2d271ef964a5209bcf24e3,Indian Gate,53.303206036839065,-6.207979541688265,Indian Restaurant
139,53.306116,-6.205117647058824,2,1,4c908fef0b9e3704df7e685e,Talavera,53.304867884516156,-6.205765662761636,Italian Restaurant
140,53.306116,-6.188588235294118,1,0,4e29cb1a6284b96d7b77f8d6,Wong's Kitchen,53.305265779822236,-6.188008931886233,Chinese Restaurant
141,53.31581466666667,-6.403470588235294,1,0,56045779498eb2f1f44ef66d,Canton house,53.31375298122103,-6.401302333117214,Cantonese Restaurant
142,53.31581466666667,-6.386941176470589,5,0,4f228fcde5e82cb9b63e2c4f,Khan's Balti House,53.314339239679725,-6.388399600982666,Indian Restaurant
143,53.31581466666667,-6.386941176470589,5,1,50267898e4b0b57d71a686f4,Pandinis,53.31430753166403,-6.392257124778343,Italian Restaurant
144,53.31581466666667,-6.386941176470589,5,2,4e062db81838eb15aef932be,Caravel,53.31338996591059,-6.393171319562427,Chinese Restaurant
145,53.31581466666667,-6.386941176470589,5,3,530e46d9498ec7991a2c7ca0,legendry,53.31435312652197,-6.391877617669764,Chinese Restaurant
146,53.31581466666667,-6.386941176470589,5,4,4dd0143945ddbe15f8b180d2,Shakira Indian,53.31928406057257,-6.39164214916488,Indian Restaurant
147,53.31581466666667,-6.33735294117647,1,0,572b7116498ef9d37f3535e6,Roundabout,53.316845,-6.333111,Chinese Restaurant
148,53.31581466666667,-6.320823529411765,4,0,4f4cf3216d868cc34b3b50e6,i-chi Asian Buffet,53.31239065576755,-6.320786476135254,Asian Restaurant
149,53.31581466666667,-6.320823529411765,4,1,4f33b968e4b001055213aa25,I Chi,53.31363685723454,-6.323070752721799,Asian Restaurant
150,53.31581466666667,-6.320823529411765,4,2,5c0d828e419a9e002c978681,Green Masala,53.316137,-6.316752,Indian Restaurant
151,53.31581466666667,-6.320823529411765,4,3,4d6a8ec2342b8cfaee6ed82c,Evergreen,53.31313420486079,-6.320743560791016,Chinese Restaurant
152,53.31581466666667,-6.304294117647059,5,0,4d5435992f638cfa1ed26b6a,Green Cottage,53.314615,-6.301038,Chinese Restaurant
153,53.31581466666667,-6.304294117647059,5,1,4e83d8fe722e98c0b8ab1a1d,Michael's Trust,53.316433478824486,-6.306426459003664,Dim Sum Restaurant
154,53.31581466666667,-6.304294117647059,5,2,53edf289498edca69005b7c4,Aussie Outback,53.314988,-6.30084,Australian Restaurant
155,53.31581466666667,-6.304294117647059,5,3,53b9d76d498e69be2ef8b2d9,Elbahia,53.313297271728516,-6.301824569702148,Moroccan Restaurant
156,53.31581466666667,-6.304294117647059,5,4,583b41936cea3f6266fba9d4,May Man,53.314539,-6.300661,Chinese Restaurant
157,53.31581466666667,-6.287764705882353,5,0,5c51f743c5309300398bc72c,Honkaku,53.319027,-6.2914534,Sushi Restaurant
158,53.31581466666667,-6.287764705882353,5,1,4cc59b8f91413704dc5dca55,Passion Palace,53.319657157989056,-6.290863443316592,Karaoke Bar
159,53.31581466666667,-6.287764705882353,5,2,5592e052498e105321945369,Jade House,53.319823,-6.291151,Chinese Restaurant
160,53.31581466666667,-6.287764705882353,5,3,4d83a83be83fa143c40252a1,Thai Thai Takeaway,53.319108,-6.291027,Thai Restaurant
161,53.31581466666667,-6.287764705882353,5,4,4f8080f5e4b020c7bdf919a1,Red Rice,53.319644,-6.290234,Chinese Restaurant
162,53.31581466666667,-6.2712352941176475,5,0,4c40b050ce54e21e77eb091a,Il Divo,53.31209240537882,-6.27461192267959,Italian Restaurant
163,53.31581466666667,-6.2712352941176475,5,1,4d8a2cb126a36ea8732aefad,Spice Guru,53.31239648104145,-6.274866357595441,Indian Restaurant
164,53.31581466666667,-6.2712352941176475,5,2,5160856fe4b05edd0be4727d,Mehek,53.313523,-6.273174,Indian Restaurant
165,53.31581466666667,-6.2712352941176475,5,3,537f99c6498e77bc15ea01e4,I Monelli,53.311968,-6.274808,Italian Restaurant
166,53.31581466666667,-6.2712352941176475,5,4,4b2bd94bf964a52052bc24e3,Bijou,53.31195297960718,-6.274325219007659,French Restaurant
167,53.31581466666667,-6.238176470588235,3,0,4c2f93f5ed37a5931f876703,Bombay Pantry,53.314209,-6.238469,Indian Restaurant
168,53.31581466666667,-6.238176470588235,3,1,4cd5ac25886cb60cb57f8589,Casa Pasta,53.3190624951913,-6.236335691795037,Italian Restaurant
169,53.31581466666667,-6.238176470588235,3,2,4c8fa366daa93704767d56b1,Sunkist,53.31402774354646,-6.2371204818998285,Asian Restaurant
170,53.31581466666667,-6.205117647058824,1,0,4b9cddbaf964a5207e7f36e3,Bianconi's,53.31746184357426,-6.208201420418371,Italian Restaurant
171,53.32551333333333,-6.42,1,0,51f58faf498e4473f7496b5a,Roma Takeaway,53.32558778089102,-6.425764786466801,Italian Restaurant
172,53.32551333333333,-6.386941176470589,1,0,4e3436fdaeb72268626515bf,The Wokshop Chinese Takeaway,53.322528,-6.392552,Chinese Restaurant
173,53.32551333333333,-6.320823529411765,2,0,51abc771498ef2b8d2110365,Excellent,53.325319,-6.321192,Chinese Restaurant
174,53.32551333333333,-6.320823529411765,2,1,4d98e6a49079b1f75bed360a,Castello,53.32431313939518,-6.326839403754367,Chinese Restaurant
175,53.32551333333333,-6.304294117647059,1,0,4c11448517002d7fc5eae509,Ocean Garden,53.32744259780403,-6.309341490268707,Chinese Restaurant
176,53.32551333333333,-6.2712352941176475,17,0,5f4940582a137b6540d7551e,Sushida,53.32258,-6.26591,Japanese Restaurant
177,53.32551333333333,-6.2712352941176475,17,1,4b5ca441f964a520953b29e3,Saba to Go,53.322155666720555,-6.267247178606415,Thai Restaurant
178,53.32551333333333,-6.2712352941176475,17,2,4d543973dcb1a1432c6dbcbf,Ho Ho,53.322224239808975,-6.267240394286227,Chinese Restaurant
179,53.32551333333333,-6.2712352941176475,17,3,57c1a724498e34ec25fb458d,Umi Falafel,53.32460317198452,-6.2652399510660395,Falafel Restaurant
180,53.32551333333333,-6.2712352941176475,17,4,5220a53a11d21d8bc29c3d4b,Hx46,53.32756009699546,-6.2772526911862725,Asian Restaurant
181,53.32551333333333,-6.2712352941176475,17,5,4e5a85dbb0fbdca30a0c2f54,Ginger Indian Takeaway,53.3256382,-6.2643963,Indian Restaurant
182,53.32551333333333,-6.2712352941176475,17,6,5e3f0cd48438200008bb8228,Ramen Co,53.322626,-6.265513,Noodle House
183,53.32551333333333,-6.2712352941176475,17,7,4c77f7e3a8683704e79f0b4d,New Empire,53.327109,-6.264885,Chinese Restaurant
184,53.32551333333333,-6.2712352941176475,17,8,57b88b55498ecea4b73c7b80,Grill 201,53.322424912626865,-6.265789389217389,Modern European Restaurant
185,53.32551333333333,-6.2712352941176475,17,9,4b50bcb8f964a520133027e3,Bombay Pantry,53.322180236166794,-6.267244006222508,Indian Restaurant
186,53.32551333333333,-6.2712352941176475,17,10,4ff08319e4b03098558e34d9,Camile Thai,53.32561272812375,-6.265108946406852,Thai Restaurant
187,53.32551333333333,-6.2712352941176475,17,11,4eb6e1b8e5fa17fc8763c68c,Dwarka,53.325286,-6.265163,Indian Restaurant
188,53.32551333333333,-6.2712352941176475,17,12,54dcc071498e03fa29876e33,Tolteca,53.323227996156916,-6.26560913487961,Mexican Restaurant
189,53.32551333333333,-6.2712352941176475,17,13,551050ff498e575e67a9ee6a,Tadka House,53.32557497749746,-6.265168586458611,North Indian Restaurant
190,53.32551333333333,-6.2712352941176475,17,14,5b8999813731ee003940424b,Lil Portie,53.325363,-6.266945,Caribbean Restaurant
191,53.32551333333333,-6.2712352941176475,17,15,4e0dbc8f62e1d5a30cf9a348,The Patisserie,53.328418,-6.274544,Middle Eastern Restaurant
192,53.32551333333333,-6.2712352941176475,17,16,59b1aab5872f7d6a67267db4,Shakshuka,53.32216,-6.266478,Middle Eastern Restaurant
193,53.32551333333333,-6.254705882352941,23,0,4d7fd9a5e7e1721edc53fa0b,La Bodega,53.32407420573651,-6.251773712393442,Tapas Restaurant
194,53.32551333333333,-6.254705882352941,23,1,4cdd9beaf8a4a1431027d1bc,The Butcher Grill,53.32428802159964,-6.252727790636183,Steakhouse
195,53.32551333333333,-6.254705882352941,23,2,58e8df44e9233e15915951da,Nightmarket,53.323893,-6.251195,Thai Restaurant
196,53.32551333333333,-6.254705882352941,23,3,5b2aad2b237dee002c6b1bee,Pizza Yard,53.32321,-6.2498546,Pizza Place
197,53.32551333333333,-6.254705882352941,23,4,4af56e11f964a52020f921e3,Er Buchetto Caffe Italiano,53.3242752612848,-6.252605695332623,Coffee Shop
198,53.32551333333333,-6.254705882352941,23,5,5bfd49185ba046002c52116e,Gigi Of Ranelagh,53.32467,-6.2537465,Italian Restaurant
199,53.32551333333333,-6.254705882352941,23,6,4f0884b1e4b026656e4a19b1,Emerald Court,53.32600108868111,-6.255703720916797,Chinese Restaurant
200,53.32551333333333,-6.254705882352941,23,7,4b02f758f964a520824b22e3,Pinocchio,53.32613385462879,-6.2558233677717086,Italian Restaurant
201,53.32551333333333,-6.254705882352941,23,8,4b128fc1f964a520d58a23e3,Michie Sushi,53.32539546923294,-6.251777211275069,Sushi Restaurant
202,53.32551333333333,-6.254705882352941,23,9,4b278515f964a520108724e3,Antica Venezia,53.32430340065113,-6.252744941189423,Italian Restaurant
203,53.32551333333333,-6.254705882352941,23,10,4b2bec95f964a520cfbd24e3,Diep at Home,53.325325,-6.254812,Thai Restaurant
204,53.32551333333333,-6.254705882352941,23,11,512e100be4b00b7b11fa76c1,Noodlemee,53.32496208886536,-6.253785345513275,Asian Restaurant
205,53.32551333333333,-6.254705882352941,23,12,5345abe3498e77a76cdbbce8,Rasoi Indian To Go,53.32517,-6.254991,Indian Restaurant
206,53.32551333333333,-6.254705882352941,23,13,4fa3db7de4b0d9052471aa51,La Reserve,53.32473288338605,-6.253719195026883,French Restaurant
207,53.32551333333333,-6.254705882352941,23,14,4c992890775abfb788b54267,Kinara Kitchen,53.32583498794115,-6.255525545236027,Indian Restaurant
208,53.32551333333333,-6.254705882352941,23,15,4bdddb13e75c0f4766e2c503,The Wild Goose,53.323305,-6.250069,French Restaurant
209,53.32551333333333,-6.254705882352941,23,16,5dfe0f2bc0c70800086a9400,Zaytoon,53.324987,-6.254029,Middle Eastern Restaurant
210,53.32551333333333,-6.254705882352941,23,17,507c5531e4b04505d1fec1b7,Mak At D6,53.325117103611305,-6.255344134954406,Dim Sum Restaurant
211,53.32551333333333,-6.254705882352941,23,18,4cb8c915a33bb1f742cb83fd,Bamboo,53.32188571738666,-6.2529809,Chinese Restaurant
212,53.32551333333333,-6.254705882352941,23,19,53405f97498e5a7d3ece42c0,salt lick,53.32479082961289,-6.2536227097191235,Arepa Restaurant
213,53.32551333333333,-6.254705882352941,23,20,5fa7090108db5a66e15a3b96,Firebyrd,53.324666,-6.253812,Fried Chicken Joint
214,53.32551333333333,-6.254705882352941,23,21,4b8d5387f964a520c1f432e3,TriBeCa,53.32436697233526,-6.252996317860284,American Restaurant
215,53.32551333333333,-6.254705882352941,23,22,4bcee45cb6c49c74f3c39791,Mario's,53.324986,-6.254391,Italian Restaurant
216,53.32551333333333,-6.238176470588235,2,0,4e00f32b1495692a4bb7730f,Dakshin,53.322249,-6.236622,Indian Restaurant
217,53.32551333333333,-6.238176470588235,2,1,4e839ec0a17c2b629476f2d5,Wongs Chinese Restaurant,53.321722539947686,-6.2365007400512695,Chinese Restaurant
218,53.335212,-6.370411764705882,2,0,4bc49fcb4cdfc9b69ae29821,Shirleys Palace,53.331227,-6.371461,Asian Restaurant
219,53.335212,-6.370411764705882,2,1,5da468cde9b1f200089d0d32,The Tavern,53.331408,-6.371525,Pub
220,53.335212,-6.33735294117647,1,0,4ea6f920cc219396a4a128be,Excellent Chinese Take Away,53.33540359920953,-6.333446083981383,Chinese Restaurant
221,53.335212,-6.320823529411765,4,0,4ccc8dd3c0378cfada878748,Jamaal 5 In 1,53.33931257500268,-6.320509974511734,Chinese Restaurant
222,53.335212,-6.320823529411765,4,1,4d2b8426467d6ea8aadce095,Golden Wok,53.339145,-6.322452,Chinese Restaurant
223,53.335212,-6.320823529411765,4,2,4d85017be83fa143ecba70a1,Fine Rice,53.33568914056653,-6.326701142914411,Chinese Restaurant
224,53.335212,-6.320823529411765,4,3,4f22d6e6754aa9d4032cd424,Rasa Ethnic Cuisine,53.33941931313444,-6.3216447830200195,Indian Restaurant
225,53.335212,-6.304294117647059,4,0,4d28c418c406721e4cc274b6,Keng Seng Chinese Takeaway,53.336193601771384,-6.298553916783688,Asian Restaurant
226,53.335212,-6.304294117647059,4,1,4d001be5ffcea143ce622b91,Rose Garden,53.33674156183367,-6.29892110824585,Chinese Restaurant
227,53.335212,-6.304294117647059,4,2,54de14f2498eb547d6348463,Rialto Malaysian Chinese Takeaway,53.33594989436363,-6.297903704182995,Chinese Restaurant
228,53.335212,-6.304294117647059,4,3,5dc728590f04120007ee4285,Daphne’s,53.336913,-6.299179,Italian Restaurant
229,53.335212,-6.287764705882353,10,0,5ded6897c0480100084e13c8,Fayrouz,53.338149,-6.282769,Middle Eastern Restaurant
230,53.335212,-6.287764705882353,10,1,4e6bfe3ae4cd4bedeb70fa07,Namaste India,53.333368,-6.291668,Indian Restaurant
231,53.335212,-6.287764705882353,10,2,50d52117e4b0275bcc9d598b,Tandoori Masala,53.333958969549364,-6.292034145321133,Indian Restaurant
232,53.335212,-6.287764705882353,10,3,5037e513e4b0be420eebda5c,Fusco's,53.338099,-6.282773,Italian Restaurant
233,53.335212,-6.287764705882353,10,4,550348e0498ec719aad1b212,Tranquilo Restaurant,53.33779416830379,-6.293926437175504,Asian Restaurant
234,53.335212,-6.287764705882353,10,5,4c6302d958810f47bba2081e,Shang Hai Chinese Takeaway,53.33420386,-6.29215196,Chinese Restaurant
235,53.335212,-6.287764705882353,10,6,5b1c29c51755620039013886,Morocco Gate,53.33817,-6.283017,Moroccan Restaurant
236,53.335212,-6.287764705882353,10,7,51cc787d498e238bdf346d3b,Pen Tower Takeaway,53.33423,-6.292174,Chinese Restaurant
237,53.335212,-6.287764705882353,10,8,4c7d5f825af8b60c9e668f10,Camile Thai,53.333306732332666,-6.291494426112886,Thai Restaurant
238,53.335212,-6.287764705882353,10,9,4c15230077cea593e2afd160,Bombay Spice,53.333948,-6.291907,Indian Restaurant
239,53.335212,-6.2712352941176475,50,0,4c5718457329c92845148e80,Passion 4 Food,53.33444545016298,-6.274446980122345,Middle Eastern Restaurant
240,53.335212,-6.2712352941176475,50,1,5d9dbf742c7cc900081f4796,Sprezzatura,53.334164,-6.265887,Italian Restaurant
241,53.335212,-6.2712352941176475,50,2,5b8d2e241b0ea5002c455e47,Sushida,53.335664,-6.273826,Japanese Restaurant
242,53.335212,-6.2712352941176475,50,3,50e42d63e4b0fe6450715f23,Damascus Gate,53.33290744900845,-6.264928502105469,Middle Eastern Restaurant
243,53.335212,-6.2712352941176475,50,4,4b3ffd15f964a520b5b325e3,Zaytoon,53.33387846050894,-6.2649510849923224,Middle Eastern Restaurant
244,53.335212,-6.2712352941176475,50,5,5248333611d23aa22ccb850f,Zakura Noodle & Sushi,53.336889113725384,-6.265576767459591,Japanese Restaurant
245,53.335212,-6.2712352941176475,50,6,56e47faf498e68353ce67cf6,Pickle,53.333964970781935,-6.2651288667132485,Indian Restaurant
246,53.335212,-6.2712352941176475,50,7,51783f96498ec47ae0539bb4,Las Tapas de Lola,53.33692,-6.26549,Tapas Restaurant
247,53.335212,-6.2712352941176475,50,8,582caf96d21e034889796cf3,Hang Dai Chinese,53.33521738452204,-6.265130536287104,Chinese Restaurant
248,53.335212,-6.2712352941176475,50,9,51bde646498e575aea729b98,B.B.Q Tonight,53.333922,-6.274828,Afghan Restaurant
249,53.335212,-6.2712352941176475,50,10,4f436f57e4b0804937c83734,Neon,53.335410738191186,-6.2652175059418305,Thai Restaurant
250,53.335212,-6.2712352941176475,50,11,4c54800072cf0f473ffca9d4,Bu-Ali,53.33438336211852,-6.274457249165908,Indian Restaurant
251,53.335212,-6.2712352941176475,50,12,4c595bd9f346c9288d464cca,Burritos & Blues,53.33748405756773,-6.265650550904026,Burrito Place
252,53.335212,-6.2712352941176475,50,13,5a5fb2d24b78c51e33e5b68c,Páng,53.337584,-6.266389,Vietnamese Restaurant
253,53.335212,-6.2712352941176475,50,14,593c53430f013c66ea333678,Three Monks,53.33182,-6.2751565,Indian Restaurant
254,53.335212,-6.2712352941176475,50,15,4cf5564be3b9a09373915353,Zayka,53.336381,-6.27105,Indian Restaurant
255,53.335212,-6.2712352941176475,50,16,4c51f3a899ecc9b6a96b205a,Sanum Sweets,53.334073,-6.274744,Asian Restaurant
256,53.335212,-6.2712352941176475,50,17,521cf6ff11d27c8b697c5191,demassk restorant,53.332662488605386,-6.265956009504059,Arepa Restaurant
257,53.335212,-6.2712352941176475,50,18,51db105b498e9cbf7d4421dd,The Noodle House,53.33699051964463,-6.26561279940413,Noodle House
258,53.335212,-6.2712352941176475,50,19,4f200a8c771650cfa5b4b193,The Oriental,53.33692093798814,-6.265554428100586,Chinese Restaurant
259,53.335212,-6.2712352941176475,50,20,53bd9cdb498e506ba7213873,bojum,53.337724410141874,-6.266849659175972,Mexican Restaurant
260,53.335212,-6.2712352941176475,50,21,4d9211eb9acaa143ce6cf6f0,New China House,53.33206452605662,-6.2755048543045575,Chinese Restaurant
261,53.335212,-6.2712352941176475,50,22,4c06ddd8b4aa0f4745c86462,Surma,53.333945099999994,-6.265049,Indian Restaurant
262,53.335212,-6.2712352941176475,50,23,529109f511d2fae8769bc9bf,Opium,53.336637300887,-6.26611988158487,Thai Restaurant
263,53.335212,-6.2712352941176475,50,24,4f4cfe936d868cc34b3c1f91,Prince,53.33446085638151,-6.274416446685791,Chinese Restaurant
264,53.335212,-6.2712352941176475,50,25,50635e90e4b05ef2f2a15d67,Nirala Sweets,53.333744,-6.274479,Middle Eastern Restaurant
265,53.335212,-6.2712352941176475,50,26,58ba115e6d63257be5895984,Sun Star Chinese Takeaway,53.336037,-6.273395,Chinese Restaurant
266,53.335212,-6.2712352941176475,50,27,56fa738a498e6dd4d5ebc0f6,Dall Italia pasta bar,53.33413199100619,-6.265661278047761,Italian Restaurant
267,53.335212,-6.2712352941176475,50,28,53b558e9498efbd69a842e3a,Boojum,53.33765637214633,-6.266830148203158,Burrito Place
268,53.335212,-6.2712352941176475,50,29,5a990dd0b6eedb376f2e3534,Trattoria Portobello,53.332442,-6.271787,Italian Restaurant
269,53.335212,-6.2712352941176475,50,30,5b0846739f8a9f00391c8b2c,damaskus,53.333461,-6.265333,Middle Eastern Restaurant
270,53.335212,-6.2712352941176475,50,31,4c670b907abde21e0a626568,Tandoori Bite,53.333741070444944,-6.270787478127659,Indian Restaurant
271,53.335212,-6.2712352941176475,50,32,4b696f77f964a5203aa22be3,Hot Chilli,53.337614,-6.265989,Middle Eastern Restaurant
272,53.335212,-6.2712352941176475,50,33,4cfa7b3a2d80a143a7f944d8,Marques De Caceres,53.334358954724024,-6.263867597616758,Italian Restaurant
273,53.335212,-6.2712352941176475,50,34,5263d27b498e255f55852c5a,Sushi,53.33688890658732,-6.265473961830138,Sushi Restaurant
274,53.335212,-6.2712352941176475,50,35,5d81280baff0cf0008cf795e,Passion 4 Food,53.334972,-6.265111,Doner Restaurant
275,53.335212,-6.2712352941176475,50,36,4c3b4d30def90f4785b5fd2d,Full House Oriental Take Away,53.33255589008331,-6.275355219841003,Chinese Restaurant
276,53.335212,-6.2712352941176475,50,37,4dcfea03fa7664b7c6cc0141,Old Town Café Noodle Box,53.337000513458335,-6.265654893058264,Asian Restaurant
277,53.335212,-6.2712352941176475,50,38,4e6a05bd483bf2d9e606e532,Ambala,53.33283772888008,-6.264927153122437,Indian Restaurant
278,53.335212,-6.2712352941176475,50,39,5475dea2498e883073065484,Tolteca,53.33426910510323,-6.265110558147098,Burrito Place
279,53.335212,-6.2712352941176475,50,40,5155bacce4b03b3c9f9a2916,Chop Chop,53.33263,-6.275198,Chinese Restaurant
280,53.335212,-6.2712352941176475,50,41,4b522cacf964a520766d27e3,Yami Thai & Sushi,53.335372120318915,-6.266124232681734,Thai Restaurant
281,53.335212,-6.2712352941176475,50,42,4b5f1d9ef964a520eda629e3,Spice & Rice,53.33601400186241,-6.273285264335229,Indian Restaurant
282,53.335212,-6.2712352941176475,50,43,4edd52328b8173160fd0d8cf,Chilli Grill,53.3342350288813,-6.274415776701461,Indian Restaurant
283,53.335212,-6.2712352941176475,50,44,4dc43830b0fb5556ccd19248,Surma Indian Restaurant,53.334012001870704,-6.265052549238551,Indian Restaurant
284,53.335212,-6.2712352941176475,50,45,4f4cf8056d868cc34b3bad57,Golden City,53.336754374441156,-6.265597343444824,Chinese Restaurant
285,53.335212,-6.2712352941176475,50,46,539c1f88498e08a9ddbbac89,Martino's Trattoria,53.33430099487305,-6.265104293823242,Italian Restaurant
286,53.335212,-6.2712352941176475,50,47,58e00b14d772f933eabee308,Morö Kitchen,53.335156,-6.265043,Moroccan Restaurant
287,53.335212,-6.2712352941176475,50,48,5cdefcae135b39002cdd098e,Franks,53.335037,-6.265097,Wine Bar
288,53.335212,-6.2712352941176475,50,49,52fd36e5498e09774f8c4f90,Jerusalem,53.33544620614003,-6.26533395771762,Middle Eastern Restaurant
289,53.335212,-6.254705882352941,24,0,4bd2dd63a8b3a593ad98685f,Bang Restaurant,53.33844369158638,-6.25474710537941,French Restaurant
290,53.335212,-6.254705882352941,24,1,4b7a8452f964a5208a2f2fe3,Restaurant Patrick Guilbaud,53.338400469415106,-6.252855856060932,French Restaurant
291,53.335212,-6.254705882352941,24,2,4b17c44df964a520f8c723e3,Chai Yo,53.335800115840144,-6.24761904131799,Asian Restaurant
292,53.335212,-6.254705882352941,24,3,4ade0f3df964a5209c7121e3,The Unicorn,53.338226021666614,-6.254811326647667,Italian Restaurant
293,53.335212,-6.254705882352941,24,4,4f3a7165e4b03d32dfae2a35,Yum Thai,53.33783140907517,-6.252885511721383,Thai Restaurant
294,53.335212,-6.254705882352941,24,5,57338e54498e8afca1fa859a,Cirillo's,53.33786553071645,-6.252519058698176,Italian Restaurant
295,53.335212,-6.254705882352941,24,6,4e5fed911495676d54a4f5f9,Mao at Home,53.33784113798463,-6.252384184993284,Asian Restaurant
296,53.335212,-6.254705882352941,24,7,4b92a090f964a5204d0b34e3,La Peniche,53.33336351840203,-6.248633400215986,French Restaurant
297,53.335212,-6.254705882352941,24,8,5267b2d011d2eabfd20279ff,Etto,53.338266350160225,-6.253948036936138,Modern European Restaurant
298,53.335212,-6.254705882352941,24,9,564e46d4498edada2eba2dbf,Suesey Street,53.33273148349633,-6.25246199337057,French Restaurant
299,53.335212,-6.254705882352941,24,10,4b98176ef964a520c22b35e3,Il Segreto,53.33831144879379,-6.25434865858756,Italian Restaurant
300,53.335212,-6.254705882352941,24,11,4afd6359f964a520892722e3,Sushi King,53.33797647630327,-6.252918239860896,Sushi Restaurant
301,53.335212,-6.254705882352941,24,12,4b0c664af964a5207c3c23e3,Dax Restaurant,53.33475878087824,-6.254391740424128,French Restaurant
302,53.335212,-6.254705882352941,24,13,4b20f99ef964a520be3524e3,Pearl Brasserie,53.3383170390674,-6.253397316992628,French Restaurant
303,53.335212,-6.254705882352941,24,14,4b97e66af964a520c51d35e3,Mantraa,53.337599998024665,-6.251853704452515,Indian Restaurant
304,53.335212,-6.254705882352941,24,15,4b293203f964a520c59a24e3,Hugo's,53.33839090074066,-6.254444355110027,French Restaurant
305,53.335212,-6.254705882352941,24,16,58d8ff008ee560562cbe6fe3,Kokoro,53.338334,-6.253349,Japanese Restaurant
306,53.335212,-6.254705882352941,24,17,5491f838498e664c8de3a566,Xico,53.33791902130906,-6.252706059790394,Mexican Restaurant
307,53.335212,-6.254705882352941,24,18,53ccf397498ebb12c15b2ed0,adelcourt,53.33306,-6.248889999999989,Arepa Restaurant
308,53.335212,-6.254705882352941,24,19,526c131b11d29c8e89095503,La Mére zou,53.337506,-6.260892,French Restaurant
309,53.335212,-6.254705882352941,24,20,4b7bf2b6f964a52047752fe3,Pablo Picante,53.33753094382112,-6.251414834377379,Mexican Restaurant
310,53.335212,-6.254705882352941,24,21,58f8ef3698fbfc224d0d1092,Urchin,53.339164,-6.257169,Seafood Restaurant
311,53.335212,-6.254705882352941,24,22,4d60388c9f67f04d9b4876fb,Taste of Everest,53.3377341,-6.251679,Indian Restaurant
312,53.335212,-6.254705882352941,24,23,56f283dd498e3e22fd1e1961,Zambrero,53.333787105429465,-6.261518329237042,Mexican Restaurant
313,53.335212,-6.238176470588235,13,0,566c1714498ed2e93ae45b66,Angelina's,53.334645414807795,-6.244350540548962,Italian Restaurant
314,53.335212,-6.238176470588235,13,1,4c4f3de779ffe21e6104541a,Paulie's Pizza,53.337259766693194,-6.234690803704816,Pizza Place
315,53.335212,-6.238176470588235,13,2,4e173f096284ea7246ec4a2f,Tolteca,53.33315483482381,-6.243353657504587,Mexican Restaurant
316,53.335212,-6.238176470588235,13,3,4b277606f964a520a88624e3,Orchid Szechuan Restaurant,53.33246293496805,-6.236250720015116,Asian Restaurant
317,53.335212,-6.238176470588235,13,4,56b75a2a498eab3cc1c52b3d,Kerala Kitchen,53.33385499886855,-6.244952209992049,Indian Restaurant
318,53.335212,-6.238176470588235,13,5,5a036cc60531e87774aa7096,Sanook,53.333513,-6.243873,Thai Restaurant
319,53.335212,-6.238176470588235,13,6,561b974c498e1a6725986220,Zakura Noodle & Sushi,53.33382739335188,-6.244926075095207,Japanese Restaurant
320,53.335212,-6.238176470588235,13,7,4b059617f964a5207adf22e3,Milano,53.33423623774585,-6.245112550125214,Pizza Place
321,53.335212,-6.238176470588235,13,8,4bd2de2ea8b3a593cb99685f,Bloom Brasserie,53.33374357549518,-6.244836410330085,French Restaurant
322,53.335212,-6.238176470588235,13,9,4b7f0b35f964a5206e1230e3,Langkawi,53.333102687651646,-6.243013247592974,Asian Restaurant
323,53.335212,-6.238176470588235,13,10,56eb0b85498e64058fc58fa4,Saba,53.33348156774771,-6.243921730883121,Thai Restaurant
324,53.335212,-6.238176470588235,13,11,4bc5b74f6936952151608488,Bondiola,53.334849447183586,-6.24245227998773,Argentinian Restaurant
325,53.335212,-6.238176470588235,13,12,5fa048824d56ff718f80e9b5,Ciao Woodfire Pizza,53.337174,-6.233803,Pizza Place
326,53.335212,-6.22164705882353,2,0,4d4c00d0855b54816207e38f,Fusion Bistro At John Clarke And Sons,53.338601,-6.222286,Indian Restaurant
327,53.335212,-6.22164705882353,2,1,4b76b983f964a520d25a2ee3,Chinatown Restaurant,53.332433,-6.215859,Chinese Restaurant
328,53.344910666666664,-6.42,2,0,4cdc3321930af04d4b038f97,Good Year Chinese,53.3473,-6.422528,Asian Restaurant
329,53.344910666666664,-6.42,2,1,4c40aa1ee26920a1c5405de7,Pregos,53.34774606026468,-6.422545936028508,Italian Restaurant
330,53.344910666666664,-6.353882352941176,4,0,4d480a49ea3f37041f4d260a,Lam's Chinese Takeaway,53.34124303,-6.35372803,Chinese Restaurant
331,53.344910666666664,-6.353882352941176,4,1,4e59269052b1b78b81988af4,Far East Restaurant,53.34244271200613,-6.35684066917804,Chinese Restaurant
332,53.344910666666664,-6.353882352941176,4,2,5697f9ff498ed9c3ae05f349,Food Inn,53.34258014653294,-6.358006549957211,Chinese Restaurant
333,53.344910666666664,-6.353882352941176,4,3,4f1fe7d3771650cfa5b0a685,West Lake,53.34499208413685,-6.3590240478515625,Asian Restaurant
334,53.344910666666664,-6.33735294117647,1,0,4f63a1cce4b02cbb7e430c2f,Mr. Wu,53.34282540440134,-6.3394067820332225,Asian Restaurant
335,53.344910666666664,-6.304294117647059,2,0,53c2e439498e0dff1b410a87,Cigerci Kenan Usta,53.344329833984375,-6.297975540161133,Argentinian Restaurant
336,53.344910666666664,-6.304294117647059,2,1,4ade0f4af964a520d17121e3,La Dolce Vita,53.3417463655771,-6.307783325351368,Italian Restaurant
337,53.344910666666664,-6.287764705882353,5,0,4fc35b2de4b058bc48dacffe,Ri Ri Chinese Take Away,53.34744879401025,-6.289199105290601,Chinese Restaurant
338,53.344910666666664,-6.287764705882353,5,1,4b731ab7f964a520b29b2de3,Papa Mio's - Toni's Takeaway,53.34250014380867,-6.293207020837906,Fast Food Restaurant
339,53.344910666666664,-6.287764705882353,5,2,5cbb0deee706550025155af5,Street Kitchen,53.34642,-6.2924747,Burrito Place
340,53.344910666666664,-6.287764705882353,5,3,4deb520c52b11677f052bfa0,Chesterfields Brasserie,53.34786373193827,-6.290980638043163,French Restaurant
341,53.344910666666664,-6.287764705882353,5,4,4c0b9239340720a114488893,La Cala,53.346540822222224,-6.281434535980225,Tapas Restaurant
342,53.344910666666664,-6.2712352941176475,50,0,5adf8dc2ca18ea0dfcc42621,Sano Pizza,53.34421678905541,-6.267906054651847,Pizza Place
343,53.344910666666664,-6.2712352941176475,50,1,5700f986498ed4402814a8b3,Rosa Madre,53.3448742573452,-6.263819740173807,Italian Restaurant
344,53.344910666666664,-6.2712352941176475,50,2,5116bb73e4b09b369d28ba2b,Kathmandu Kitchen,53.344116363889725,-6.264945721657364,Indian Restaurant
345,53.344910666666664,-6.2712352941176475,50,3,4f05b6f38b81bb1b02d51f42,Musashi Noodles & Sushi Bar,53.34696817829043,-6.268146554104451,Sushi Restaurant
346,53.344910666666664,-6.2712352941176475,50,4,5f4d3d528c025038f4b4abbf,Agave,53.343686,-6.269062,Mexican Restaurant
347,53.344910666666664,-6.2712352941176475,50,5,4c167de296040f477ced72a5,Bar Italia Restaurant,53.346165064104646,-6.264891418380056,Italian Restaurant
348,53.344910666666664,-6.2712352941176475,50,6,4f32e1dae4b06e8ecb5653a9,777,53.34322970489778,-6.264436129273385,Mexican Restaurant
349,53.344910666666664,-6.2712352941176475,50,7,4d4f09c623a76dcbb97c66dc,Arisu,53.34892208383444,-6.268963589655413,Korean Restaurant
350,53.344910666666664,-6.2712352941176475,50,8,5d5447ff29e8f7000851aa56,Bullet Duck And Dumplings,53.348356,-6.269347,Chinese Restaurant
351,53.344910666666664,-6.2712352941176475,50,9,5f3824719086b71fd63eaa68,Zampas,53.343927,-6.268504,Peruvian Restaurant
352,53.344910666666664,-6.2712352941176475,50,10,50506df0e4b030e87ab52f68,Aobaba,53.34880076115092,-6.268863616298785,Vietnamese Restaurant
353,53.344910666666664,-6.2712352941176475,50,11,4bd2d8a5a8b3a5933f92685f,Montys of Kathmandu,53.34440280795512,-6.264746240541999,Indian Restaurant
354,53.344910666666664,-6.2712352941176475,50,12,59b2e83d47f8761788ad49c7,Forno 500,53.344162556848275,-6.266282819309132,Pizza Place
355,53.344910666666664,-6.2712352941176475,50,13,4ed921d193ad464d26f39f67,San Lorenzo's,53.343287366274055,-6.264452060138871,Italian Restaurant
356,53.344910666666664,-6.2712352941176475,50,14,5dab61bcf74cbf0008ac7d33,India Today,53.34073,-6.2686934,Indian Restaurant
357,53.344910666666664,-6.2712352941176475,50,15,58f1fdb035f98340ef1f4a51,Kopitiam,53.349140411357595,-6.269004055089808,Malay Restaurant
358,53.344910666666664,-6.2712352941176475,50,16,4e67bdb8d4c0d522463aab96,Corfu Restaurant,53.34471436910504,-6.267357416019023,Greek Restaurant
359,53.344910666666664,-6.2712352941176475,50,17,51f814de498ef033bd97f28d,O'Shea's Traditional Irish Restaurant,53.345246746794295,-6.275697050479074,Eastern European Restaurant
360,53.344910666666664,-6.2712352941176475,50,18,4e2839a3aeb75df8caa99e62,Wallace's Taverna,53.34644254574101,-6.265034409745976,Italian Restaurant
361,53.344910666666664,-6.2712352941176475,50,19,5df6845f2d5b120007884aaf,Krewe,53.34903,-6.268834,Southern / Soul Food Restaurant
362,53.344910666666664,-6.2712352941176475,50,20,4b26b074f964a5208c7f24e3,Hilan Korean & Chinese Restaurant,53.34866097636511,-6.268820096961752,Korean Restaurant
363,53.344910666666664,-6.2712352941176475,50,21,5b0edfa7b1ec13002c5fbcfc,Boojum,53.343139,-6.276175,Burrito Place
364,53.344910666666664,-6.2712352941176475,50,22,5575882a498e88c35fc6da40,Mykonos,53.344155677236394,-6.266453001917638,Greek Restaurant
365,53.344910666666664,-6.2712352941176475,50,23,4bbf754682a2ef3b01d52cd2,Charlie's IV,53.34348,-6.264404,Chinese Restaurant
366,53.344910666666664,-6.2712352941176475,50,24,5d6d2ab39704a70008b389b7,The Shawarma Company,53.344103,-6.264304,Shawarma Place
367,53.344910666666664,-6.2712352941176475,50,25,548dd18d498ed29d2bae258e,Siri Indian Cuisine,53.343555920569315,-6.269956399444575,South Indian Restaurant
368,53.344910666666664,-6.2712352941176475,50,26,5b509472dab4b1002c53ef81,Rico Loco,53.347083,-6.271647,Burrito Place
369,53.344910666666664,-6.2712352941176475,50,27,58fa47f8da5e563dd46c4f25,Super Asia Food 恒辉食品,53.347658,-6.268447,Korean Restaurant
370,53.344910666666664,-6.2712352941176475,50,28,4f63a0ace4b02cbb7e41dd3c,Mangal Kebab House,53.34415380736692,-6.265391869405053,Middle Eastern Restaurant
371,53.344910666666664,-6.2712352941176475,50,29,4e404831c65b4ec27606eaed,Afsana Tandori,53.344623179459425,-6.264246437240659,Indian Restaurant
372,53.344910666666664,-6.2712352941176475,50,30,540caa59498ea2728a2f7789,abrakebraba,53.344139099121094,-6.265820503234863,Indian Restaurant
373,53.344910666666664,-6.2712352941176475,50,31,4bd97f432e6f0f473ebb0a08,Charlie's 1,53.344255,-6.265953,Chinese Restaurant
374,53.344910666666664,-6.2712352941176475,50,32,561ff53d498ee2c4ead785f5,Old Town,53.34873856655397,-6.268833577997106,Chinese Restaurant
375,53.344910666666664,-6.2712352941176475,50,33,4afdc90af964a520d92a22e3,Mexico to Rome,53.3454958571999,-6.26426105806709,Italian Restaurant
376,53.344910666666664,-6.2712352941176475,50,34,58028979d67c1565be5d31b6,season,53.344093,-6.264495,Italian Restaurant
377,53.344910666666664,-6.2712352941176475,50,35,528a649e11d222c386431877,Mama's Revenge,53.34302477868321,-6.277302701151122,Burrito Place
378,53.344910666666664,-6.2712352941176475,50,36,511551f6e4b0f859a15b3ae8,川外川,53.3487511617333,-6.268800856059348,Chinese Restaurant
379,53.344910666666664,-6.2712352941176475,50,37,540b2723498edabfc91ecdc1,Rottinculo,53.34105458652522,-6.273771953511497,Italian Restaurant
380,53.344910666666664,-6.2712352941176475,50,38,4b697d5af964a52059a42be3,Toffoli,53.34330111335376,-6.269330978393555,Café
381,53.344910666666664,-6.2712352941176475,50,39,5187a66f498efdc2b45b9c16,Panda Asian Buffet,53.34422246632546,-6.265402266049603,Chinese Restaurant
382,53.344910666666664,-6.2712352941176475,50,40,52a76e2011d2608230159c5c,Belly Bites,53.343032058798975,-6.2764044049432135,Burrito Place
383,53.344910666666664,-6.2712352941176475,50,41,4b17bbedf964a5209bc723e3,Buenos Aires Grill,53.340769179854576,-6.268389802735224,Argentinian Restaurant
384,53.344910666666664,-6.2712352941176475,50,42,51d014f5498e9b3006cb0ee7,Italian wine bar,53.344181060791016,-6.268707275390625,Italian Restaurant
385,53.344910666666664,-6.2712352941176475,50,43,4af83d9bf964a520910b22e3,Koh Restaurant & Cocktail Lounge,53.34741370636743,-6.2655894268340075,Thai Restaurant
386,53.344910666666664,-6.2712352941176475,50,44,4d5938fc296d5481d88e56b1,Stir Crazy,53.34420278113003,-6.265236017353824,Asian Restaurant
387,53.344910666666664,-6.2712352941176475,50,45,4af1fed4f964a52001e521e3,The Port House Pintxo,53.345161687416145,-6.264965488369995,Tapas Restaurant
388,53.344910666666664,-6.2712352941176475,50,46,4bb635912f70c9b6070d8530,Hanyang Korean BBQ,53.34678667876558,-6.264848135312842,Korean Restaurant
389,53.344910666666664,-6.2712352941176475,50,47,4b3ba516f964a520e27725e3,Acapulco Restaurant,53.34356129517708,-6.26443871502347,Mexican Restaurant
390,53.344910666666664,-6.2712352941176475,50,48,4b76c753f964a5208b5e2ee3,Madina Desi Curry Co,53.3485648425116,-6.268150701840927,Indian Restaurant
391,53.344910666666664,-6.2712352941176475,50,49,5a5e6e1e4b78c50341acfae4,Boss Baby,53.348278,-6.26916,Malay Restaurant
392,53.344910666666664,-6.254705882352941,50,0,4ade0f09f964a520de7021e3,Hard Rock Cafe Dublin,53.345878067909446,-6.260866414103475,American Restaurant
393,53.344910666666664,-6.254705882352941,50,1,57125bb0498e1c30beba1cf6,Boojum,53.348627607871194,-6.25885128566537,Burrito Place
394,53.344910666666664,-6.254705882352941,50,2,4fc62996e4b0505c6e36dba1,TGI Fridays,53.34586322826112,-6.259747704026425,American Restaurant
395,53.344910666666664,-6.254705882352941,50,3,4b6595c9f964a5205df52ae3,Dunne & Crescenzi,53.342152726181155,-6.256548004256803,Italian Restaurant
396,53.344910666666664,-6.254705882352941,50,4,5ac1240e5f68b97e45f68f02,The Hungry Mexican,53.346464,-6.26139,Mexican Restaurant
397,53.344910666666664,-6.254705882352941,50,5,4ade0f36f964a520817121e3,The Mongolian Barbeque,53.34489191708448,-6.261944315679321,Mongolian Restaurant
398,53.344910666666664,-6.254705882352941,50,6,510d4db8e4b0256d77831e74,Red Torch Ginger,53.343452038525804,-6.261806343431996,Thai Restaurant
399,53.344910666666664,-6.254705882352941,50,7,5b3a041f9f8a9f002c67299d,The Ivy Dublin,53.34143955129432,-6.258080931322334,English Restaurant
400,53.344910666666664,-6.254705882352941,50,8,4ade0f3df964a5209e7121e3,Thunder Road Café,53.34569914551555,-6.261101698600784,American Restaurant
401,53.344910666666664,-6.254705882352941,50,9,5df8cbcf442f890008760c00,Paella Bar & Co.,53.344896,-6.25285,Paella Restaurant
402,53.344910666666664,-6.254705882352941,50,10,51955e89498e30a47e57d4e0,Banyi Japanese Dining,53.34585413275388,-6.261795992818935,Japanese Restaurant
403,53.344910666666664,-6.254705882352941,50,11,5279423a11d2ec151eca71b5,Ka Shing,53.34300063003814,-6.2608665395414285,Chinese Restaurant
404,53.344910666666664,-6.254705882352941,50,12,5904f4e2f00a703cd1b5cfa8,Zizzi,53.34349013803355,-6.260305627023854,Italian Restaurant
405,53.344910666666664,-6.254705882352941,50,13,55c0ae60498e4d3480475868,Camile,53.3441973925399,-6.249327134420442,Thai Restaurant
406,53.344910666666664,-6.254705882352941,50,14,4afd7223f964a520dd2722e3,Carluccio's,53.34183456866114,-6.2583897787343306,Italian Restaurant
407,53.344910666666664,-6.254705882352941,50,15,536f54b1498e2e4d0701fab8,Il Fornaio,53.34430612313669,-6.261965891808409,Coffee Shop
408,53.344910666666664,-6.254705882352941,50,16,542946bf498ef4e6e7b4afcc,Japanese Kitchen @ J2,53.34689683534879,-6.257115493023353,Sushi Restaurant
409,53.344910666666664,-6.254705882352941,50,17,4b2bc7faf964a520daba24e3,Salamanca,53.34362283581743,-6.261562510723022,Tapas Restaurant
410,53.344910666666664,-6.254705882352941,50,18,4b214387f964a520303924e3,Pacinos,53.343408349053426,-6.2597943619922205,Italian Restaurant
411,53.344910666666664,-6.254705882352941,50,19,5a79c99e4ac28a57d6fa3000,Kumpir Cafe,53.347154,-6.261003,Café
412,53.344910666666664,-6.254705882352941,50,20,5b201d3d005ac10039053e4b,Il Fornaio,53.341348,-6.258351,Bakery
413,53.344910666666664,-6.254705882352941,50,21,4f561c9ce4b0b1a430cd2ba2,Mama's Revenge,53.34208218403966,-6.253655674247183,Burrito Place
414,53.344910666666664,-6.254705882352941,50,22,4f326fcde4b0e6be3c190db9,Bonza Pies,53.346933,-6.256596,Australian Restaurant
415,53.344910666666664,-6.254705882352941,50,23,50f59c65e4b0f04856ae4163,I Eat,53.34688,-6.261312,Thai Restaurant
416,53.344910666666664,-6.254705882352941,50,24,4c51d0242543a5932a2c8384,El Bahia,53.34278,-6.260694,Moroccan Restaurant
417,53.344910666666664,-6.254705882352941,50,25,4b14291cf964a520419e23e3,The Alamo,53.34564113596258,-6.261974767550098,Mexican Restaurant
418,53.344910666666664,-6.254705882352941,50,26,4eb69cbc0aaf1abedfca0280,Inperial Restaurant,53.34365381350675,-6.259607494634433,Chinese Restaurant
419,53.344910666666664,-6.254705882352941,50,27,54f1c93c498e5a9d29362504,KuRaud,53.34590148925781,-6.255645751953125,Japanese Restaurant
420,53.344910666666664,-6.254705882352941,50,28,5d8cb6c144a8b1000836be69,Chez Max Alliance Française,53.341988,-6.254399,French Restaurant
421,53.344910666666664,-6.254705882352941,50,29,4b6de4c2f964a52087992ce3,Jimmy Chung's,53.34771439820321,-6.2582299483843595,Chinese Restaurant
422,53.344910666666664,-6.254705882352941,50,30,4f1f89e7e4b019c3050de6e3,Kitchen J,53.3446,-6.25159,Japanese Restaurant
423,53.344910666666664,-6.254705882352941,50,31,5ce17e1981a0ea002c35a48c,Asahi Express,53.345566,-6.259281,Asian Restaurant
424,53.344910666666664,-6.254705882352941,50,32,520e639711d255c4ec52c3b7,Bachelors Wok Café,53.347111541160466,-6.260948622779357,Thai Restaurant
425,53.344910666666664,-6.254705882352941,50,33,5923d7f90d2be70573f5c755,Zambrero,53.343695,-6.247475,Burrito Place
426,53.344910666666664,-6.254705882352941,50,34,4baf792df964a520a0023ce3,Alponte Café,53.341761,-6.258481,Italian Restaurant
427,53.344910666666664,-6.254705882352941,50,35,503224d8e4b07f473b1be4ef,Pablo Picante,53.345666717717485,-6.26193634303211,Burrito Place
428,53.344910666666664,-6.254705882352941,50,36,4ade0ef1f964a520847021e3,Bailey Bar Dublin,53.341963651257714,-6.259444794513737,Pub
429,53.344910666666664,-6.254705882352941,50,37,50d6f871e4b06651d86daac9,Tolteca,53.343416093232634,-6.260087623720316,Burrito Place
430,53.344910666666664,-6.254705882352941,50,38,4ade0f43f964a520b17121e3,Fitzer's,53.341665,-6.25813,Bar
431,53.344910666666664,-6.254705882352941,50,39,4e46e51762e148603b795b14,El Bahia Moroccan Restaurant,53.342751583907805,-6.260735600356758,Moroccan Restaurant
432,53.344910666666664,-6.254705882352941,50,40,4afbcb53f964a520141f22e3,Il Caffè di Napoli,53.34269204964607,-6.250146882932521,Italian Restaurant
433,53.344910666666664,-6.254705882352941,50,41,4d860bb811da6a315e2bc862,Ristorante Tomasso,53.348476,-6.258571,Italian Restaurant
434,53.344910666666664,-6.254705882352941,50,42,5470ebb4498e2e61fb31d924,tuzos,53.341658,-6.258068,Burrito Place
435,53.344910666666664,-6.254705882352941,50,43,51e7dd04498e8fbcaea11c90,Yan's Deli,53.3482614939246,-6.253757144988564,Sushi Restaurant
436,53.344910666666664,-6.254705882352941,50,44,4ade0f41f964a520af7121e3,Chanze,53.343623170584706,-6.261096797916558,Chinese Restaurant
437,53.344910666666664,-6.254705882352941,50,45,4b6596f6f964a52089f52ae3,La Gondola,53.34576587172724,-6.2617859885728375,Italian Restaurant
438,53.344910666666664,-6.254705882352941,50,46,4b6c5124f964a52027302ce3,Thai Orchid,53.34580172203244,-6.259269779539863,Thai Restaurant
439,53.344910666666664,-6.254705882352941,50,47,4be7fb2988ed2d7f3044cb1d,Blue Mountains,53.346404,-6.249752,Japanese Restaurant
440,53.344910666666664,-6.254705882352941,50,48,4edccdcd7ee5e8e3e9a9e833,J's Noodle & Sushi House,53.34682720322453,-6.256909653135199,Sushi Restaurant
441,53.344910666666664,-6.254705882352941,50,49,5ac123bf4420d872730cfd8c,The Hungry Mexican,53.346362,-6.261278,Mexican Restaurant
442,53.344910666666664,-6.238176470588235,14,0,5dc6aadbabd6c100080f1eac,Mackenzie’s,53.34407,-6.23538,Modern European Restaurant
443,53.344910666666664,-6.238176470588235,14,1,59e796441ffe973e32b2195d,Boojum,53.34433016754471,-6.2374962994606,Burrito Place
444,53.344910666666664,-6.238176470588235,14,2,509cf91ee4b005ecff5c79f2,J2 Grill & Sushi,53.34771247771018,-6.243839757690937,Sushi Restaurant
445,53.344910666666664,-6.238176470588235,14,3,4b30c540f964a5207afb24e3,Milano,53.344316,-6.237025,Pizza Place
446,53.344910666666664,-6.238176470588235,14,4,4bafce85f964a52050223ce3,Starry Night,53.342804220596776,-6.241345607319616,Chinese Restaurant
447,53.344910666666664,-6.238176470588235,14,5,4d270f8d55a8b60c901cc0c0,Café Bar H,53.34366530418776,-6.238594425888983,Tapas Restaurant
448,53.344910666666664,-6.238176470588235,14,6,5dbdee525dec290008897dd4,the brasserie @ the marker,53.344198,-6.239211,Modern European Restaurant
449,53.344910666666664,-6.238176470588235,14,7,4d8a30cd76e1236a95fb1443,Piccola Sicilia,53.342873,-6.244598,Italian Restaurant
450,53.344910666666664,-6.238176470588235,14,8,4f4753bbe4b0d6373fb52b02,Petit Dejeuner,53.34674329246936,-6.2436709672994395,French Restaurant
451,53.344910666666664,-6.238176470588235,14,9,4f02005de5faf2869dc559f5,Pearse Brasserie,53.34321454162751,-6.24414240616656,French Restaurant
452,53.344910666666664,-6.238176470588235,14,10,5543e3cb498e294ba1d2e0a8,EAST,53.34794853570335,-6.243669612957498,Asian Restaurant
453,53.344910666666664,-6.238176470588235,14,11,535d454b498e0b69caa657b7,Sevinc'in Mutfağı,53.345198516863086,-6.238322651194075,Turkish Restaurant
454,53.344910666666664,-6.238176470588235,14,12,4b9156e8f964a5206ab433e3,Isola Mia,53.342958,-6.244603,Italian Restaurant
455,53.344910666666664,-6.238176470588235,14,13,5f9810d91f67181f27facf49,YOI Ramen,53.340751,-6.236173,Japanese Restaurant
456,53.354609333333336,-6.403470588235294,2,0,4be402ecf07b0f477149f943,Lemongrass,53.35441034318292,-6.402722988440429,Asian Restaurant
457,53.354609333333336,-6.403470588235294,2,1,5529096e498ed7107333157f,Café Gusto,53.3554875836604,-6.401711868154153,Italian Restaurant
458,53.354609333333336,-6.386941176470589,6,0,50d75916e4b0e2533efc27d0,saburritos,53.353145599365234,-6.3908514976501465,Burrito Place
459,53.354609333333336,-6.386941176470589,6,1,5dd7f3ca9336a8000850e27a,Philliez Kitchen,53.353171,-6.390615,Sandwich Place
460,53.354609333333336,-6.386941176470589,6,2,4d495dd95241236aafd87404,Ginzeng,53.353177795748024,-6.39071159745663,Chinese Restaurant
461,53.354609333333336,-6.386941176470589,6,3,56f55dc6498e3c2fc3dfacd3,TGI Fridays,53.35615153316499,-6.391611658186904,American Restaurant
462,53.354609333333336,-6.386941176470589,6,4,50a3dec8e4b04e2d5c75bdc7,Nando's,53.352948,-6.3908176,Portuguese Restaurant
463,53.354609333333336,-6.386941176470589,6,5,579f3111498e3273878f1ea1,Milano,53.3526749,-6.3936426,Pizza Place
464,53.354609333333336,-6.370411764705882,5,0,4fc640ede4b0a39ab1033501,The Roma,53.35580695003956,-6.37094565906934,Italian Restaurant
465,53.354609333333336,-6.370411764705882,5,1,4f228df1e5e82cb9b63df312,Spicy Hut,53.35130701086451,-6.3689374923706055,Indian Restaurant
466,53.354609333333336,-6.370411764705882,5,2,4f228bafe5e82cb9b63da88d,Curry & Rice,53.3555847461372,-6.3713836669921875,Indian Restaurant
467,53.354609333333336,-6.370411764705882,5,3,530a63fc11d2d04bbf0a66d7,Kung Fu Kitchen,53.351299,-6.367733,Chinese Restaurant
468,53.354609333333336,-6.370411764705882,5,4,51ddc7ff498e4db6b8137b45,Far East Chinese-Takeaway,53.35551476844271,-6.3712942698568025,Asian Restaurant
469,53.354609333333336,-6.304294117647059,1,0,4f22d0f0754aa9d4032c0e23,The Rising Phoenix,53.357300842613206,-6.299114227294922,Chinese Restaurant
470,53.354609333333336,-6.287764705882353,20,0,5c2cfa91811045002cfc6c5b,Grano,53.351298,-6.282957,Italian Restaurant
471,53.354609333333336,-6.287764705882353,20,1,5c9266baa306190039a42f7b,Ramen Kitchen,53.353108,-6.28513,Asian Restaurant
472,53.354609333333336,-6.287764705882353,20,2,5ab6bf5a772fbc38392ef591,Lin Kee,53.357458,-6.289065,Asian Restaurant
473,53.354609333333336,-6.287764705882353,20,3,5a01e3a54c954c769eb4d718,Hub Himalayan,53.357552,-6.288525,Asian Restaurant
474,53.354609333333336,-6.287764705882353,20,4,51325776e4b06bad518f2ae8,New Sunrise Takeaway,53.35157775878906,-6.283209323883057,Chinese Restaurant
475,53.354609333333336,-6.287764705882353,20,5,4f2036fee5e8df85ac396661,Flame Hut,53.35744171313552,-6.28892183303833,Indian Restaurant
476,53.354609333333336,-6.287764705882353,20,6,4e0fb74062843e04afb84613,Canton City,53.351202180844425,-6.282842186107689,Chinese Restaurant
477,53.354609333333336,-6.287764705882353,20,7,4f2d9c1be4b00ef1a54fe60a,Basilico,53.35360673832546,-6.285787153582678,Italian Restaurant
478,53.354609333333336,-6.287764705882353,20,8,5f08ec0ff554670e3df40116,Cow Lane Tapas,53.353282,-6.285858,Tapas Restaurant
479,53.354609333333336,-6.287764705882353,20,9,4ade0f45f964a520b87121e3,Green Chilli,53.355505,-6.288031,Indian Restaurant
480,53.354609333333336,-6.287764705882353,20,10,4e25fa261f6e58da2b1aff79,Mi Thai,53.351565,-6.283238,Thai Restaurant
481,53.354609333333336,-6.287764705882353,20,11,58f0f0c6588e360d80d6d03f,The Chilli Shack,53.353768,-6.285789,American Restaurant
482,53.354609333333336,-6.287764705882353,20,12,4ed69a24b6346530cf6ba287,Kashmir,53.35269673558398,-6.284183472010431,Indian Restaurant
483,53.354609333333336,-6.287764705882353,20,13,4dbde535f7b1ab37dd81aa02,Feedme,53.353412,-6.285562,American Restaurant
484,53.354609333333336,-6.287764705882353,20,14,5e6b82ed7e5b0200088f6416,Ramen Co,53.353198,-6.285088,Ramen Restaurant
485,53.354609333333336,-6.287764705882353,20,15,50ca48a4e4b029bc957515bc,Chess,53.35598425219721,-6.287510356723389,Chinese Restaurant
486,53.354609333333336,-6.287764705882353,20,16,5800c867d67cc1f3e9e14078,BQR Marketfood,53.353714,-6.285719,American Restaurant
487,53.354609333333336,-6.287764705882353,20,17,5e6b830d44ee2d000755f95b,Ramen Co,53.353159,-6.285103,Noodle House
488,53.354609333333336,-6.287764705882353,20,18,5f80a9d9c0146e296bfe4ef4,Kerala Kitchen,53.352378,-6.284016,Indian Restaurant
489,53.354609333333336,-6.287764705882353,20,19,5a88264235f9833786f43137,Mooz,53.351359,-6.28282,Grocery Store
490,53.354609333333336,-6.2712352941176475,15,0,5ae5bbf68ad62e002c8d5333,Wood Fire Cafe,53.356205,-6.265698,Italian Restaurant
491,53.354609333333336,-6.2712352941176475,15,1,518cf426498edfc9a8f0d3cb,Chopsticks Hallal,53.352120811839804,-6.267596190195502,Chinese Restaurant
492,53.354609333333336,-6.2712352941176475,15,2,5cd68a7d947c05002c5c8a4f,Padoca Dublin,53.351772,-6.2690325,Brazilian Restaurant
493,53.354609333333336,-6.2712352941176475,15,3,4c309f1fed37a59328186903,Proton House,53.35546615734651,-6.26576084537313,Indian Restaurant
494,53.354609333333336,-6.2712352941176475,15,4,4f214dc4d5fb4c7dde3fad04,Anatolia Turkish Kebab House,53.35562316696374,-6.265575885772705,Turkish Restaurant
495,53.354609333333336,-6.2712352941176475,15,5,510d1f4be4b0a3ee4992d796,Keyif Kebab,53.35619944109486,-6.2653723691488485,Turkish Restaurant
496,53.354609333333336,-6.2712352941176475,15,6,5215fe5311d2e14934e2c2fb,Samba Brazilian Restaurant & Steak House,53.35558878092542,-6.265689187789985,Brazilian Restaurant
497,53.354609333333336,-6.2712352941176475,15,7,4ba7e0b6f964a52045bb39e3,The Transilvania Tavern,53.35123016139528,-6.2706828117370605,Eastern European Restaurant
498,53.354609333333336,-6.2712352941176475,15,8,5749f1ae498e18da8ec4b45b,El Patron,53.350662,-6.2708497,Mexican Restaurant
499,53.354609333333336,-6.2712352941176475,15,9,4c13966ba5eb76b0f01ec0b7,Akanchawa's Honey Pot,53.354089508735726,-6.269668266177177,African Restaurant
500,53.354609333333336,-6.2712352941176475,15,10,5f1763c14388026479a3ec0c,By Brazil,53.35048,-6.271513,Brazilian Restaurant
501,53.354609333333336,-6.2712352941176475,15,11,4fb80d46e4b0a1f0da96cfba,New Victoria,53.35670237648098,-6.264954113609019,Asian Restaurant
502,53.354609333333336,-6.2712352941176475,15,12,4c543927f5f3d13a61f0caf9,Decency,53.3538761,-6.2696745,African Restaurant
503,53.354609333333336,-6.2712352941176475,15,13,5ea3c7259fd7e70008d8ac78,Bombay Flame,53.35036,-6.271638,Indian Restaurant
504,53.354609333333336,-6.2712352941176475,15,14,4f22d5e0754aa9d4032cb38e,Food Corner,53.350243914242185,-6.27194881439209,Italian Restaurant
505,53.354609333333336,-6.254705882352941,44,0,528d27d811d26b17eaddeaaa,Wallace's Asti,53.3588544865113,-6.254449680939047,Italian Restaurant
506,53.354609333333336,-6.254705882352941,44,1,5c7ecd03da2e00002c486549,El Grito Mexican Taqueria,53.35739,-6.256618,Mexican Restaurant
507,53.354609333333336,-6.254705882352941,44,2,4c79004c93ef236af6f6ad0f,Admiral Restaurant,53.35242916581768,-6.258837263955961,Eastern European Restaurant
508,53.354609333333336,-6.254705882352941,44,3,524d9fff498e92eacf9b0f9a,HanYang,53.353735,-6.258745,Asian Restaurant
509,53.354609333333336,-6.254705882352941,44,4,4f1817ace4b0094a03a65b25,Wok On Inn,53.35111999511719,-6.250206470489502,Noodle House
510,53.354609333333336,-6.254705882352941,44,5,50d0caece4b01ebdbbeb691a,Pho Viet,53.352908,-6.260928,Vietnamese Restaurant
511,53.354609333333336,-6.254705882352941,44,6,5ae1e0b4f427de002c58c145,Woodfire Cafe,53.356829,-6.260313,Italian Restaurant
512,53.354609333333336,-6.254705882352941,44,7,57af6f81498e4bc46e9f8be7,Sopot,53.357371,-6.256776,Polish Restaurant
513,53.354609333333336,-6.254705882352941,44,8,5507450c498e5ec9cae81e19,Dera Restaurant,53.3536911385373,-6.260155284658482,North Indian Restaurant
514,53.354609333333336,-6.254705882352941,44,9,4aff06bdf964a5202f3322e3,The Hop House (Kim Chi),53.35298138036261,-6.260771692539306,Korean Restaurant
515,53.354609333333336,-6.254705882352941,44,10,4b563469f964a520360528e3,Kebab 786,53.351274990269175,-6.252003908157349,Indian Restaurant
516,53.354609333333336,-6.254705882352941,44,11,4c795e6a794e224bbc3a6528,Arirang,53.35361451018311,-6.25892763757398,Chinese Restaurant
517,53.354609333333336,-6.254705882352941,44,12,5b673ce18496ca002c49c230,Mosa Tea Shop,53.35374,-6.259039,Asian Restaurant
518,53.354609333333336,-6.254705882352941,44,13,5bb892cfc36588002cb1d207,Benvindo,53.352531,-6.249817,Brazilian Restaurant
519,53.354609333333336,-6.254705882352941,44,14,4d89edb51508a143e46a181e,Long Thanh Chinese & Vietnamese Takaway,53.356256663435126,-6.248004430649607,Asian Restaurant
520,53.354609333333336,-6.254705882352941,44,15,4fcfbd2ce4b07502ba8f89eb,Wok In a Box,53.35400797407267,-6.258161795343693,Chinese Restaurant
521,53.354609333333336,-6.254705882352941,44,16,4b4c956cf964a520bfb626e3,Thai Spice,53.351012305872956,-6.251300535672897,Thai Restaurant
522,53.354609333333336,-6.254705882352941,44,17,5d4883aca4ace900072b1444,Turkish Kebab House,53.353869,-6.25843,Turkish Restaurant
523,53.354609333333336,-6.254705882352941,44,18,4b22879af964a520684824e3,Louie's Bistro,53.357355,-6.257544,Mediterranean Restaurant
524,53.354609333333336,-6.254705882352941,44,19,550894e3498e623642aa87fa,Masala Twist,53.35733,-6.256747,Indian Restaurant
525,53.354609333333336,-6.254705882352941,44,20,4b69d45bf964a520ccb62be3,Tian Yuan Restaurant,53.35384937665557,-6.258573250104221,Chinese Restaurant
526,53.354609333333336,-6.254705882352941,44,21,4cb5c9ea56fca1cd7e6a5118,The Italian Connection,53.35036410569785,-6.256649022658013,Italian Restaurant
527,53.354609333333336,-6.254705882352941,44,22,5dd00e4891b5d200076a7bd1,Intercontinental Food Court,53.353997,-6.258037,African Restaurant
528,53.354609333333336,-6.254705882352941,44,23,4b996581f964a520617835e3,Charming Noodles,53.353803513451304,-6.258534639775284,Chinese Restaurant
529,53.354609333333336,-6.254705882352941,44,24,5094ed27e4b00a7cdd9ff659,潮福城,53.35362243652344,-6.258842468261719,Chinese Restaurant
530,53.354609333333336,-6.254705882352941,44,25,54c2b476498e10787b85a779,Jojo's,53.35365295410156,-6.258663654327393,Chinese Restaurant
531,53.354609333333336,-6.254705882352941,44,26,5c2f6211dee770002c7ea8e4,Bowls by Kwanghi Chan,53.353279,-6.259434,Asian Restaurant
532,53.354609333333336,-6.254705882352941,44,27,57fcbb5b498e972faf710c7f,Wok Station,53.353837,-6.25834,Cantonese Restaurant
533,53.354609333333336,-6.254705882352941,44,28,57ed6233498e7d49d3f13efa,Saigon CITY,53.35195,-6.2497,Vietnamese Restaurant
534,53.354609333333336,-6.254705882352941,44,29,525b1f75498e5585e4320142,LAO Hot Pot,53.35364475579633,-6.258949832153031,Asian Restaurant
535,53.354609333333336,-6.254705882352941,44,30,5173df34498e908f7171b658,İstanbull Kebab & Pizza,53.35068371594879,-6.255038357801062,Turkish Restaurant
536,53.354609333333336,-6.254705882352941,44,31,50acd23be4b013e1bd0982c7,Bonza Pies,53.351493110824514,-6.251679407773171,Australian Restaurant
537,53.354609333333336,-6.254705882352941,44,32,51ac9576498e76e3330dea0d,Il Capo,53.35119316524831,-6.251792358914129,Italian Restaurant
538,53.354609333333336,-6.254705882352941,44,33,55c60783498ebb44905b36ab,Yang's Chinese Restaurant,53.35369873046875,-6.25847053527832,Chinese Restaurant
539,53.354609333333336,-6.254705882352941,44,34,58d80c55f85724052006a30b,Shi Wang Yun,53.353745,-6.2584615,Chinese Restaurant
540,53.354609333333336,-6.254705882352941,44,35,5a7f3ff96bdee61a7bd4668a,+55 Sushi Bar,53.353681,-6.25925,Japanese Restaurant
541,53.354609333333336,-6.254705882352941,44,36,5165a47ee4b060e54f4e460c,Noodle Box,53.35026562472307,-6.254476598558804,Chinese Restaurant
542,53.354609333333336,-6.254705882352941,44,37,4b804502f964a520b66230e3,Enoteca d'Asti,53.358862570182815,-6.254360872078533,Italian Restaurant
543,53.354609333333336,-6.254705882352941,44,38,53f0dab8498ec8bf7602a3ef,Kanoodle,53.353261587816654,-6.259529067308018,Asian Restaurant
544,53.354609333333336,-6.254705882352941,44,39,5516a003498ee5f4d3de819e,Sichuan Chili King,53.353456742048365,-6.259159902781128,Szechuan Restaurant
545,53.354609333333336,-6.254705882352941,44,40,4eb58aa030f8d0f18c650a4f,Lee Kee,53.3536344682112,-6.259146732973605,Chinese Restaurant
546,53.354609333333336,-6.254705882352941,44,41,5bfd93485455b2002cd121b1,Fortune Terrace,53.353025,-6.261516,Chinese Restaurant
547,53.354609333333336,-6.254705882352941,44,42,4f1945f3e4b0f066f685b1f8,The store room,53.3540821,-6.2587457,Brazilian Restaurant
548,53.354609333333336,-6.254705882352941,44,43,4b3a0504f964a5204e6025e3,Le Bon Crubeen,53.35060833434759,-6.2551265954976865,French Restaurant
549,53.354609333333336,-6.238176470588235,5,0,4eb99898f5b994cb99b44895,Da Mimmo,53.35734653107336,-6.243005343455378,Italian Restaurant
550,53.354609333333336,-6.238176470588235,5,1,4e398411b61c438b5487b701,Akwaaba,53.352742,-6.244516,African Restaurant
551,53.354609333333336,-6.238176470588235,5,2,4e4d44cb8877d762630bceb5,Don Mimi,53.35729,-6.242905,Italian Restaurant
552,53.354609333333336,-6.238176470588235,5,3,4f22a0ffe5e82cb9b640498a,Indian Taste,53.3537661207283,-6.236135959625244,Indian Restaurant
553,53.354609333333336,-6.238176470588235,5,4,4f22a37fe5e82cb9b6409efd,Lin Kee,53.358146058762514,-6.241886615753174,Chinese Restaurant
554,53.354609333333336,-6.188588235294118,2,0,4f4d0a7b6d868cc34b3d0fb6,Central Kitchen,53.358146058762514,-6.192598342895508,Indian Restaurant
555,53.354609333333336,-6.188588235294118,2,1,4bba34d353649c74c6c248fb,Hin Keng,53.3584,-6.192258,Chinese Restaurant
556,53.364308,-6.320823529411765,1,0,52ffcd1411d24e4a0c83b280,Phoenix Court,53.365097227491965,-6.319276590267771,Chinese Restaurant
557,53.364308,-6.304294117647059,2,0,52b608e5498ee1f535fed8b2,Lucky Dragon,53.36727523803711,-6.299032688140869,Chinese Restaurant
558,53.364308,-6.304294117647059,2,1,4d6430b5b470a143363016fe,Millennium Chinese Takeaway,53.36121943072695,-6.298878192901611,Chinese Restaurant
559,53.364308,-6.287764705882353,3,0,52fe89ba498ee61e2f7f50b4,Flaming Phoenix,53.366939544677734,-6.293468475341797,Chinese Restaurant
560,53.364308,-6.287764705882353,3,1,568d60ee498ea3880d955e4e,Gourmet Kitchen,53.366875,-6.292784,Chinese Restaurant
561,53.364308,-6.287764705882353,3,2,552444d0498eba4f9a69f34e,Rainbow,53.361276,-6.284698,Chinese Restaurant
562,53.364308,-6.2712352941176475,11,0,4c500b94371520a114c3a3c0,Kungfu Buffet,53.36138017793971,-6.2726698491588015,Chinese Restaurant
563,53.364308,-6.2712352941176475,11,1,5b8ec7833c858d00392194bf,Nagoya,53.3607,-6.2739177,Asian Restaurant
564,53.364308,-6.2712352941176475,11,2,4f4d0b236d868cc34b3d18c0,Aladdin Kebabs,53.35993888601223,-6.272678375244141,Indian Restaurant
565,53.364308,-6.2712352941176475,11,3,513268bae4b0e80cdbe24461,Vagya Restaurant,53.36808660172249,-6.270544540274985,Indian Restaurant
566,53.364308,-6.2712352941176475,11,4,4edaa327d3e346be34a8ff42,Pearl River,53.36082032840362,-6.272586600942896,Asian Restaurant
567,53.364308,-6.2712352941176475,11,5,4cd07415de0f6dcbd0d86a63,New Century Chinese,53.365707,-6.271607,Chinese Restaurant
568,53.364308,-6.2712352941176475,11,6,5ba643ab79f6c7002c793200,Yeeros,53.36523,-6.27148,Souvlaki Shop
569,53.364308,-6.2712352941176475,11,7,4b42495ff964a520bfd025e3,Dall'Italiano,53.366534591219704,-6.271874164650705,Italian Restaurant
570,53.364308,-6.2712352941176475,11,8,4b5f5fa3f964a520b7b629e3,Bombay To Go,53.36492472151993,-6.271708227251228,Indian Restaurant
571,53.364308,-6.2712352941176475,11,9,4f22dc68754aa9d4032d8f52,Zen Wei Ton,53.365124854440666,-6.271734237670898,Chinese Restaurant
572,53.364308,-6.2712352941176475,11,10,4d9080bfc479a35dd4cc7297,Camile Thai,53.36225143276685,-6.2726819907406846,Thai Restaurant
573,53.364308,-6.254705882352941,9,0,4dd95a1c1838b8561d171e86,Diep At Home,53.3624136812532,-6.258911973275889,Thai Restaurant
574,53.364308,-6.254705882352941,9,1,4c2f69f57cc0c9b601a2eb9a,Eighty Seven Chinese,53.36059215232316,-6.2512948290681045,Chinese Restaurant
575,53.364308,-6.254705882352941,9,2,4b0e95f2f964a520be5823e3,Yuki House,53.366090924060494,-6.2541502052080755,Sushi Restaurant
576,53.364308,-6.254705882352941,9,3,4c1175f617002d7fe846e609,Bamboo Cafe,53.36351150967763,-6.257947683334351,Chinese Restaurant
577,53.364308,-6.254705882352941,9,4,514a46fae4b08933b7f0fea7,Thaicoon,53.363515469633306,-6.257776497495358,Thai Restaurant
578,53.364308,-6.254705882352941,9,5,4ebae03a77c8100292c677cf,Ruposhi Indian Restaurant,53.36190360831677,-6.260117430492428,Indian Restaurant
579,53.364308,-6.254705882352941,9,6,56463175498e4ed35d1d9794,Jalapeno,53.363617,-6.257989,Burrito Place
580,53.364308,-6.254705882352941,9,7,4e51526118383eb2af3bee76,Mintleaf,53.36749238555852,-6.2556729517623175,Indian Restaurant
581,53.364308,-6.254705882352941,9,8,5c6ddf29178a2a002ca8087e,Delight Coffee Bar,53.3674674,-6.2552501,Coffee Shop
582,53.364308,-6.238176470588235,7,0,510819d6e4b05f603562d825,Tuk,53.363161669171475,-6.235936168873424,Asian Restaurant
583,53.364308,-6.238176470588235,7,1,5c1595d067f62b002c38aec7,Tasty Garden,53.36287,-6.243259,Chinese Restaurant
584,53.364308,-6.238176470588235,7,2,4b48dc33f964a5207c5a26e3,Bombay Pantry,53.364992104034826,-6.239724936066939,Indian Restaurant
585,53.364308,-6.238176470588235,7,3,4ef361e0469075d093ab585c,Gorgeous food,53.36261420758825,-6.242522976763147,Asian Restaurant
586,53.364308,-6.238176470588235,7,4,520f7b6011d2383ea592a6e6,Italian's Kitchen,53.363621794467115,-6.234676703013316,Italian Restaurant
587,53.364308,-6.238176470588235,7,5,4eac710c82315d0ca5324deb,Flaming Wok,53.36271275532342,-6.238650888432219,Asian Restaurant
588,53.364308,-6.238176470588235,7,6,4e9470e077c82b6a71f0d092,Indian Taste,53.36266212842651,-6.242942291168274,Indian Restaurant
589,53.364308,-6.22164705882353,3,0,4d723cf8311f6ea8356ed8ea,Casa Pasta,53.36267680228577,-6.218384981603017,Italian Restaurant
590,53.364308,-6.22164705882353,3,1,4e0ccfb68877c535e471a22e,Maharajah,53.362509,-6.218021,Indian Restaurant
591,53.364308,-6.22164705882353,3,2,4f31ab27e4b02344c3057dc7,Kort's Dinner Table,53.36613753793527,-6.228301058144316,Swiss Restaurant
592,53.364308,-6.205117647058824,1,0,50023ec9e4b0d5040ec774cb,The Brunch Club Bistro Coffee Shop Takeaway,53.36357879638672,-6.210760116577148,Italian Restaurant
593,53.364308,-6.172058823529412,2,0,4b9781eef964a520810635e3,Bay Restaurant Clontarf,53.3630601999669,-6.178393963984532,Modern European Restaurant
594,53.364308,-6.172058823529412,2,1,5cc2e6764c9be6002cad0e07,Yangs Chinese Restaurant,53.3664564580649,-6.173637807369232,Asian Restaurant
595,53.374006666666666,-6.386941176470589,1,0,4bdc55562a3a0f476559b2b6,Romayo's,53.37353745741086,-6.389314119552805,Fast Food Restaurant
596,53.374006666666666,-6.353882352941176,3,0,4d9e219ebaae54812a310265,Wongs,53.372502,-6.360543,Chinese Restaurant
597,53.374006666666666,-6.353882352941176,3,1,4bf854c85317a59316a7ff7e,Castello Bruno,53.37235870228122,-6.360571473822532,Italian Restaurant
598,53.374006666666666,-6.353882352941176,3,2,4c1531d4a1010f4797a24d18,Millennium 2,53.372955091624284,-6.360639069554678,Chinese Restaurant
599,53.374006666666666,-6.33735294117647,2,0,4d90647a1d06b1f7ffe5723b,Bombay Pantry,53.37445711887211,-6.331065925231353,Indian Restaurant
600,53.374006666666666,-6.33735294117647,2,1,4d8257debaf9a35d8c59a821,Geisha,53.37578152727931,-6.332109215907521,Asian Restaurant
601,53.374006666666666,-6.304294117647059,1,0,578e1a42498e9417e55278e7,Gringo's,53.375655,-6.30122,Mexican Restaurant
602,53.374006666666666,-6.2712352941176475,2,0,583dbe6555d6226148dce65c,Cafe Italya,53.375588,-6.269895,Italian Restaurant
603,53.374006666666666,-6.2712352941176475,2,1,4c1fb425b4e62d7fdd0de093,Eat Italy,53.375588713565655,-6.269866742059032,Italian Restaurant
604,53.374006666666666,-6.254705882352941,7,0,4c055d2e0d0e0f47923a059a,Al Cowo Restaurant,53.372131,-6.252853,Italian Restaurant
605,53.374006666666666,-6.254705882352941,7,1,4b4cc58ff964a52039be26e3,Chilli Banana,53.37237482626846,-6.252675732444324,Thai Restaurant
606,53.374006666666666,-6.254705882352941,7,2,553bee00498e3d6a13ae59a8,casa del toro,53.371601,-6.253125,Tapas Restaurant
607,53.374006666666666,-6.254705882352941,7,3,4f22dcca754aa9d4032d9bda,Starry Kitchen,53.37192327902959,-6.252915859222412,Chinese Restaurant
608,53.374006666666666,-6.254705882352941,7,4,5c0ecf7ac97f28002cc25306,Sheng Jing,53.372304,-6.252849,Chinese Restaurant
609,53.374006666666666,-6.254705882352941,7,5,5ae9a6db31ac6c002c92b934,Mr. Burrito,53.371343,-6.253187,Mexican Restaurant
610,53.374006666666666,-6.254705882352941,7,6,5a47d6392632ec1141d12f30,San Sab,53.371515,-6.253085,Thai Restaurant
611,53.374006666666666,-6.238176470588235,2,0,56b3f745498e123dc7de9838,Hong Kee,53.37707189982343,-6.242010174078335,Chinese Restaurant
612,53.374006666666666,-6.238176470588235,2,1,502fec15e4b0bde726ab34da,Ocean Chinese,53.3714714050293,-6.238446235656738,Chinese Restaurant
613,53.374006666666666,-6.22164705882353,8,0,4dbdb3f6cda109aa6cb9a3e7,China Kitchen Takeaway,53.376965780540516,-6.223372887914081,Chinese Restaurant
614,53.374006666666666,-6.22164705882353,8,1,4f201059771650cfa5b56d13,Feng Shou Chinese,53.37244815934989,-6.222338676452637,Chinese Restaurant
615,53.374006666666666,-6.22164705882353,8,2,59e7b2c7a6031c48a48a2669,Fragrant City,53.372756,-6.222273,Chinese Restaurant
616,53.374006666666666,-6.22164705882353,8,3,4cab7d3a44a8224be3602e40,Celestinos,53.376266,-6.217459,French Restaurant
617,53.374006666666666,-6.22164705882353,8,4,4da1f96cbf22a143ae1aa8f8,China Garden,53.37616546201901,-6.224350613348601,Chinese Restaurant
618,53.374006666666666,-6.22164705882353,8,5,4ee3cc74722ea7b944919ecf,New Emperor,53.3753159585952,-6.21840419479805,Chinese Restaurant
619,53.374006666666666,-6.22164705882353,8,6,5e037fb188607d0008c2620a,Waki Noodle & Sushi Bar,53.376873,-6.2232785,Japanese Restaurant
620,53.374006666666666,-6.22164705882353,8,7,58d429be95383907db504ac0,Camile Thai,53.376315,-6.217547,Thai Restaurant
621,53.374006666666666,-6.205117647058824,2,0,4ba40029f964a5205f7638e3,Golden Grain,53.37566771052401,-6.209303140640259,Chinese Restaurant
622,53.374006666666666,-6.205117647058824,2,1,4c1e498dfcf8c9b6a9fdac0b,Regent Chinese Take Away,53.371006,-6.205423,Chinese Restaurant
623,53.374006666666666,-6.172058823529412,1,0,4f71e27ae4b0125a714fdbaa,Chicago Town,53.376644,-6.175914,Italian Restaurant
624,53.38370533333333,-6.403470588235294,12,0,4f2278344fc60fecfea5e4ed,Spice Heaven,53.384198664146,-6.39829158782959,Indian Restaurant
625,53.38370533333333,-6.403470588235294,12,1,584b08ef4ca49b33ed3e8c52,Blue Elephant,53.383029,-6.409406,Asian Restaurant
626,53.38370533333333,-6.403470588235294,12,2,55c673bb498e3f3d63383d6e,Chef Thai & Chinese Take Away,53.383165,-6.400195,Chinese Restaurant
627,53.38370533333333,-6.403470588235294,12,3,576fefb2498e954081d88591,Hidden Treasure Cuisine,53.38485,-6.39769,Asian Restaurant
628,53.38370533333333,-6.403470588235294,12,4,511802c8e4b01c594ae3f934,KK Kitchen,53.38309097290039,-6.4010515213012695,African Restaurant
629,53.38370533333333,-6.403470588235294,12,5,4e19e6e952b123a586e49a24,Ravello's,53.383058,-6.410108,Italian Restaurant
630,53.38370533333333,-6.403470588235294,12,6,4f8d8738e5e81a37dd9466e2,Curry Fusion,53.38362273458031,-6.39754056930542,Indian Restaurant
631,53.38370533333333,-6.403470588235294,12,7,4d2f53b049bb721e169e8695,Shimla,53.38270123107076,-6.408333778381348,Indian Restaurant
632,53.38370533333333,-6.403470588235294,12,8,4f218861d5fb4c7dde458d63,Indie at Home,53.384185865795835,-6.39904260635376,Indian Restaurant
633,53.38370533333333,-6.403470588235294,12,9,4ea1d5d65c5cd12b3560b209,Revellos Resturant,53.3829,-6.410136,Mediterranean Restaurant
634,53.38370533333333,-6.403470588235294,12,10,4f2277974fc60fecfea5d2ae,Mizzoni's,53.384249857508145,-6.398634910583496,Italian Restaurant
635,53.38370533333333,-6.403470588235294,12,11,5a2af5eb9be5227578c4f470,Biryani House,53.383144,-6.398265,Indian Restaurant
636,53.38370533333333,-6.386941176470589,3,0,4f2277444fc60fecfea5c8dc,Foo Lok,53.38423705917338,-6.387498378753662,Chinese Restaurant
637,53.38370533333333,-6.386941176470589,3,1,5e1638823a9ff900086eea16,Yagya,53.383731,-6.381926,Indian Restaurant
638,53.38370533333333,-6.386941176470589,3,2,4e4da145d4c0b6da5d652b6e,Hung Wun,53.383665438144305,-6.382139504788213,Chinese Restaurant
639,53.38370533333333,-6.370411764705882,11,0,4af9cb03f964a5204d1422e3,Thai Garden,53.385503,-6.374532,Thai Restaurant
640,53.38370533333333,-6.370411764705882,11,1,4bcdf24a68f976b032226583,Poppadom Restaurant,53.383659,-6.368244,Indian Restaurant
641,53.38370533333333,-6.370411764705882,11,2,5c8aa82e2632ec002c1c5fcf,Diep at Home,53.38591,-6.376381,Thai Restaurant
642,53.38370533333333,-6.370411764705882,11,3,5307a31f11d232abde343251,Taste of Italy,53.38654586282953,-6.375731557552995,Italian Restaurant
643,53.38370533333333,-6.370411764705882,11,4,4b9d1c47f964a520a29036e3,Browne's Steak House,53.38567640239819,-6.3741428635489905,Steakhouse
644,53.38370533333333,-6.370411764705882,11,5,5d120d2467226600263af6f8,Shibuyashi,53.386146,-6.376062,Japanese Restaurant
645,53.38370533333333,-6.370411764705882,11,6,5afdcbf52f97ec002c1c40a1,Masala,53.385673,-6.373323,Indian Restaurant
646,53.38370533333333,-6.370411764705882,11,7,4ecd4488775b0e780e27ca62,El Cordolbes,53.38567109077926,-6.373803047806705,Spanish Restaurant
647,53.38370533333333,-6.370411764705882,11,8,56a7e0dc498e492870c4a94f,Foo Lok,53.385642,-6.373269,Chinese Restaurant
648,53.38370533333333,-6.370411764705882,11,9,51d72b0d498e73f759bccdd1,Wan's Chinese Takeaway,53.385868,-6.37622,Chinese Restaurant
649,53.38370533333333,-6.370411764705882,11,10,573e06f5498eaa418ed898bb,Camile,53.38611517365744,-6.375256776809692,Thai Restaurant
650,53.38370533333333,-6.287764705882353,1,0,4ccc5202511b236a2381f0c9,Valentino's Restaurant,53.383106,-6.280939,Italian Restaurant
651,53.38370533333333,-6.2712352941176475,2,0,4f216cc0d5fb4c7dde42b478,Excellent Chinese,53.38249644980466,-6.277227401733398,Chinese Restaurant
652,53.38370533333333,-6.2712352941176475,2,1,4b6f2363f964a5209fdf2ce3,Aberdeen Chinese Take Away,53.38592425275209,-6.266296119469272,Chinese Restaurant
653,53.38370533333333,-6.238176470588235,7,0,5696b273498e7ea36bb83d63,Delight City,53.38578586542122,-6.233859505042101,Chinese Restaurant
654,53.38370533333333,-6.238176470588235,7,1,570bdb4dcd1027f1f262a7ff,Gourmet Kitchen,53.381693976281845,-6.241286002251889,Chinese Restaurant
655,53.38370533333333,-6.238176470588235,7,2,4c4f13bb1b8e1b8db48a3b28,Whitehall Chinese,53.38181847481223,-6.241792815634724,Asian Restaurant
656,53.38370533333333,-6.238176470588235,7,3,55185fc7498e3df96a15a19b,Beaumont Chinese,53.38601186009829,-6.234090177357838,Chinese Restaurant
657,53.38370533333333,-6.238176470588235,7,4,4f48066fe4b08f45dc5b8f5c,India Link,53.385721,-6.233884,Indian Restaurant
658,53.38370533333333,-6.238176470588235,7,5,4ccc505854f0b1f7cb7b15ca,Magic Wok,53.3849625,-6.245250105857849,Chinese Restaurant
659,53.38370533333333,-6.238176470588235,7,6,58432675d25ded6f329c8e2c,Far East Chinese Takeaway,53.38781,-6.2386265,Asian Restaurant
660,53.38370533333333,-6.205117647058824,3,0,5ce04f191c0b340039390367,Taza Restaurant,53.384064,-6.2070107,Indian Restaurant
661,53.38370533333333,-6.205117647058824,3,1,542d8abd498e09e9d070c498,Swords Garden Chinese,53.38089041176936,-6.208029823762346,Chinese Restaurant
662,53.38370533333333,-6.205117647058824,3,2,4f2eccf7e4b0ccb9143bfd40,Madhobi,53.3805270690928,-6.20995907144451,Indian Restaurant
663,53.38370533333333,-6.172058823529412,2,0,4b1a5a0bf964a52034e923e3,Macari’s Take Away,53.38044551929663,-6.174454273674596,Burger Joint
664,53.38370533333333,-6.172058823529412,2,1,4d3a1745beb7b1f7d2c1e571,Mint Cottage,53.379813782500925,-6.175088609321135,Asian Restaurant
665,53.38370533333333,-6.155529411764706,2,0,4f22c1a0c2ee23b9ebf03869,Good Fortune Chinese,53.38509453909667,-6.153266429901123,Chinese Restaurant
666,53.38370533333333,-6.155529411764706,2,1,5a7f4b9f3731ee3973f0a42b,Taro Ramen & Sushi Bar,53.385433,-6.153918,Sushi Restaurant
667,53.38370533333333,-6.139,1,0,5bad3dd851950e002ce451f5,LA GUSTOSA,53.385593,-6.140373,Italian Restaurant
668,53.393404,-6.42,1,0,4e7634a98998ed82a4fbc0d4,Magic Wok,53.390747459998906,-6.420788279888512,Asian Restaurant
669,53.393404,-6.386941176470589,8,0,51f69f1d498e46db4941d44e,Milano,53.391571,-6.390697,Italian Restaurant
670,53.393404,-6.386941176470589,8,1,50b9fe9ee4b0e015e5109be3,Nando's,53.39185529,-6.39072843,Portuguese Restaurant
671,53.393404,-6.386941176470589,8,2,4b802ab0f964a5208a5830e3,TGI Fridays,53.3919018916826,-6.392302553215474,American Restaurant
672,53.393404,-6.386941176470589,8,3,4c4871c5417b20a109ece0a9,Captain Americas,53.39485829154402,-6.390829368013269,American Restaurant
673,53.393404,-6.386941176470589,8,4,4dc2a6add4c07da169fcb69b,Ginzeng,53.39326598588152,-6.39106673163313,Asian Restaurant
674,53.393404,-6.386941176470589,8,5,4ee5138cf9abfc722741576c,Forchetta,53.39563332033091,-6.390232485036794,Italian Restaurant
675,53.393404,-6.386941176470589,8,6,4c54533ff5f3d13a632cf7f9,wagamama,53.39481485982291,-6.39088192939678,Asian Restaurant
676,53.393404,-6.386941176470589,8,7,4ba63fd4f964a5200a3f39e3,Dante,53.39139072831431,-6.3919830322265625,Italian Restaurant
677,53.393404,-6.304294117647059,1,0,4d0cf644be6d6ea8134902b5,Da Nero,53.390167542093906,-6.300651239067025,Italian Restaurant
678,53.393404,-6.287764705882353,2,0,4fe21924e4b0bfba62f3e462,New World,53.389934,-6.286255,Chinese Restaurant
679,53.393404,-6.287764705882353,2,1,4f2152eed5fb4c7dde403441,BQ Inn Chinese,53.39034142811244,-6.2879133224487305,Chinese Restaurant
680,53.393404,-6.254705882352941,5,0,58b40bb6076be15eeb6dc5e7,Zao Restaurant - Authentic Thai Cuisine,53.39196757630766,-6.248023509979247,Asian Restaurant
681,53.393404,-6.254705882352941,5,1,5481fb53498e2f6041a68a84,Nando's,53.39233338,-6.250452,Portuguese Restaurant
682,53.393404,-6.254705882352941,5,2,4be2ba6ef07b0f479402f643,Eddie Rocket's,53.3929991962413,-6.2504750085983005,Diner
683,53.393404,-6.254705882352941,5,3,4b479849f964a520c13626e3,Zao Restaurant,53.392925602914005,-6.250124199022813,Asian Restaurant
684,53.393404,-6.254705882352941,5,4,538a4154498eed7dcdb0a20f,Camile Thai,53.39293636511947,-6.248977048358579,Thai Restaurant
685,53.393404,-6.205117647058824,1,0,4d45b920e198721eb3adc88b,Jazz Chinese & Thai Restaurant,53.38984904002695,-6.200880752322435,Chinese Restaurant
686,53.40310266666667,-6.42,1,0,4be311b02ff376b02a464fed,Tsangs,53.40293590348375,-6.427001397640827,Chinese Restaurant
687,53.40310266666667,-6.403470588235294,1,0,4bd89117f645c9b6ef4ba8e0,Dragon Inn,53.40282052511426,-6.398537637202243,Chinese Restaurant
688,53.40310266666667,-6.386941176470589,1,0,52359a9811d29d5ffe663c3b,Guernika,53.402078426995,-6.385381966752924,Portuguese Restaurant
689,53.40310266666667,-6.370411764705882,2,0,53ac67be498e6076ef186db1,Fiorentina,53.40340997788327,-6.364640800011531,Italian Restaurant
690,53.40310266666667,-6.370411764705882,2,1,4f22786c4fc60fecfea5ea82,Yu Hong House,53.39946435599043,-6.374194622039795,Chinese Restaurant
691,53.40310266666667,-6.304294117647059,2,0,4c35d449ed37a59349137103,Eddie Rocket's,53.403728207525,-6.302559224536935,Diner
692,53.40310266666667,-6.304294117647059,2,1,4dc96d26e4cd1818d5b7ef26,Royal Plaza Chinese Restaurant & Takeaway,53.401908,-6.297269,Chinese Restaurant
693,53.40310266666667,-6.2712352941176475,1,0,4f215242d5fb4c7dde4021f3,Panda Kitchen,53.40554095754857,-6.276304721832275,Chinese Restaurant
694,53.40310266666667,-6.238176470588235,2,0,4bd5bf427b1876b024418b86,Little Venice,53.404296799378564,-6.240355179179398,Italian Restaurant
695,53.40310266666667,-6.238176470588235,2,1,556f4bd6498e1869dcad82b4,Oka Restaurant,53.40403996592916,-6.234055537494047,Asian Restaurant
696,53.40310266666667,-6.205117647058824,1,0,50707d9be4b0513ffd19936e,Thanh Cong,53.403117,-6.206807,Chinese Restaurant
697,53.40310266666667,-6.188588235294118,2,0,4f227d994fc60fecfea6803f,Di Lucias Darndale,53.40125544454362,-6.190817356109619,Italian Restaurant
698,53.40310266666667,-6.188588235294118,2,1,51fb7690498e402ddbbde322,Hy,53.405127098904565,-6.182400920435887,American Restaurant
699,53.40310266666667,-6.172058823529412,3,0,4b9e9f07f964a5207df436e3,Noble House,53.404001311818924,-6.178911351064778,Chinese Restaurant
700,53.40310266666667,-6.172058823529412,3,1,509ea423e4b08f34f8a34653,Yan (成功),53.404058,-6.170612,Chinese Restaurant
701,53.40310266666667,-6.172058823529412,3,2,4f4cf48c6d868cc34b3b6ed7,Pagoda Garden,53.4000784519875,-6.171162128448486,Thai Restaurant
702,53.40310266666667,-6.155529411764706,2,0,4bddd3aa587b2d7f7a3d5509,Park Lane Chinese,53.402996,-6.157716,Chinese Restaurant
703,53.40310266666667,-6.155529411764706,2,1,4f8d8667e5e81a37dd944e24,Ravellos Pizza & Pasta,53.40259586340009,-6.15317108692052,Italian Restaurant
704,53.412801333333334,-6.22164705882353,2,0,5a5c91055455b2768becafd5,The Italian Kitchen,53.41162948138638,-6.218208074569702,Italian Restaurant
705,53.412801333333334,-6.22164705882353,2,1,5a3a817a029a550551ddd213,The Italian Kitchen,53.41198760270909,-6.218605041503906,Italian Restaurant
706,53.4225,-6.386941176470589,2,0,59a5b0bee97dfb1045fd5eb6,Chef,53.419843,-6.381827,Chinese Restaurant
707,53.4225,-6.386941176470589,2,1,568b28c7498e00fbbda9c5fa,Village Park,53.420007,-6.382546,Asian Restaurant
708,53.4225,-6.238176470588235,2,0,51d44395498e147a981eaa57,Wine & Deli Bar,53.425616806214485,-6.240523896886251,Italian Restaurant
709,53.4225,-6.238176470588235,2,1,4d66526b05a7f04d9228b18f,Diep Noodle Bar,53.42662380667634,-6.23991293949075,Noodle House
710,53.4225,-6.139,3,0,528fc2dd11d25591ae8dd662,India Link,53.421922,-6.136138,Indian Restaurant
711,53.4225,-6.139,3,1,4dbef9ec1e72b351caed544d,Sea Palace,53.42171855014973,-6.136263401800389,Chinese Restaurant
712,53.4225,-6.139,3,2,4f245c5fe4b04f6e691f58fd,Oriental Kitchen,53.42090862931343,-6.13857281367289,Chinese Restaurant
