,Unnamed: 0,lat_centre,long_centre,num_venues,venue_iter,venue_id,venue_name,lat_venue,long_venue,category,restaurant
235,235,53.34264973733427,-6.258467676493898,38,13,4ade0eedf964a520767021e3,La Cave Wine Bar,53.34111811421307,-6.259603809296415,Wine Bar,False
146,146,53.34717159599906,-6.267473499976692,50,49,4ade0f06f964a520ce7021e3,Cactus Jacks,53.34711134669858,-6.265324714665812,Mexican Restaurant,True
181,181,53.34264973733427,-6.267473499976692,50,34,4ade0f0af964a520e67021e3,The Market Bar,53.342327837419155,-6.263994486940162,Pub,False
147,147,53.34264973733427,-6.267473499976692,50,0,4ade0f34f964a520797121e3,Yamamori Noodles,53.34282147246451,-6.264443612001212,Japanese Restaurant,True
233,233,53.34264973733427,-6.258467676493898,38,11,4ade0f35f964a5207e7121e3,The Cedar Tree,53.34321701851982,-6.261982917517187,Middle Eastern Restaurant,True
223,223,53.34264973733427,-6.258467676493898,38,1,4ade0f36f964a520807121e3,Milano,53.3405558107906,-6.258688286009715,Pizza Place,False
666,397,53.344910666666664,-6.254705882352941,50,5,4ade0f36f964a520817121e3,The Mongolian Barbeque,53.344891917084475,-6.2619443156793215,Mongolian Restaurant,True
234,234,53.34264973733427,-6.258467676493898,38,12,4ade0f38f964a5208b7121e3,Eddie Rocket's,53.341230469587096,-6.2596643223994315,Diner,False
561,292,53.335212,-6.254705882352941,24,3,4ade0f3df964a5209c7121e3,The Unicorn,53.338226021666614,-6.254811326647668,Italian Restaurant,True
748,479,53.35460933333334,-6.287764705882353,20,9,4ade0f45f964a520b87121e3,Green Chilli,53.35550500000001,-6.288031,Indian Restaurant,True
304,35,53.28671866666666,-6.370411764705883,20,14,4ade0f46f964a520bc7121e3,The Olive Tree Restaurant,53.28590240732022,-6.367050727202133,Mediterranean Restaurant,True
605,336,53.344910666666664,-6.304294117647059,2,1,4ade0f4af964a520d17121e3,La Dolce Vita,53.341746365577094,-6.307783325351367,Italian Restaurant,True
193,193,53.34264973733427,-6.267473499976692,50,46,4af1a997f964a520f6e121e3,Zaytoon,53.344884203377866,-6.267423820722443,Persian Restaurant,True
656,387,53.344910666666664,-6.271235294117648,50,45,4af1fed4f964a52001e521e3,The Port House Pintxo,53.34516168741615,-6.264965488369995,Tapas Restaurant,True
253,253,53.34264973733427,-6.258467676493898,38,31,4af409b5f964a520e0ef21e3,Jewel in the Crown,53.34279953419279,-6.262106818132378,Indian Restaurant,True
225,225,53.34264973733427,-6.258467676493898,38,3,4af480b7f964a5203cf321e3,The Port House,53.342885461090326,-6.262079675075455,Tapas Restaurant,True
99,99,53.34717159599906,-6.267473499976692,50,2,4af48636f964a5207cf321e3,Yamamori Sushi,53.34682271991278,-6.263758740892517,Sushi Restaurant,True
466,197,53.32551333333333,-6.254705882352941,23,4,4af56e11f964a52020f921e3,Er Buchetto Caffe Italiano,53.3242752612848,-6.252605695332623,Coffee Shop,False
284,15,53.27701999999999,-6.138999999999999,3,0,4af5e196f964a5204bfe21e3,Bombay Pantry,53.27954003329554,-6.13455086534647,Indian Restaurant,True
315,46,53.28671866666666,-6.238176470588236,23,0,4af6dc4df964a5209e0322e3,Milano,53.28835418360232,-6.243218569986084,Pizza Place,False
908,639,53.38370533333333,-6.370411764705883,11,0,4af9cb03f964a5204d1422e3,Thai Garden,53.385503,-6.374532,Thai Restaurant,True
324,55,53.28671866666666,-6.238176470588236,23,9,4afc24b6f964a520192022e3,Cafe Mao,53.288120938382896,-6.243115805707199,Asian Restaurant,True
569,300,53.335212,-6.254705882352941,24,11,4afd6359f964a520892722e3,Sushi King,53.337976476303275,-6.252918239860897,Sushi Restaurant,True
644,375,53.344910666666664,-6.271235294117648,50,33,4afdc90af964a520d92a22e3,Mexico to Rome,53.3454958571999,-6.264261058067089,Italian Restaurant,True
783,514,53.35460933333334,-6.254705882352941,44,9,4aff06bdf964a5202f3322e3,The Hop House (Kim Chi),53.35298138036261,-6.260771692539307,Korean Restaurant,True
469,200,53.32551333333333,-6.254705882352941,23,7,4b02f758f964a520824b22e3,Pinocchio,53.32613385462879,-6.2558233677717086,Italian Restaurant,True
589,320,53.335212,-6.238176470588236,13,7,4b059617f964a5207adf22e3,Milano,53.33423623774585,-6.245112550125214,Pizza Place,False
570,301,53.335212,-6.254705882352941,24,12,4b0c664af964a5207c3c23e3,Dax Restaurant,53.33475878087824,-6.254391740424127,French Restaurant,True
844,575,53.364307999999994,-6.254705882352941,9,2,4b0e95f2f964a520be5823e3,Yuki House,53.3660909240605,-6.254150205208076,Sushi Restaurant,True
470,201,53.32551333333333,-6.254705882352941,23,8,4b128fc1f964a520d58a23e3,Michie Sushi,53.32539546923294,-6.251777211275068,Sushi Restaurant,True
686,417,53.344910666666664,-6.254705882352941,50,25,4b14291cf964a520419e23e3,The Alamo,53.34564113596258,-6.261974767550098,Mexican Restaurant,True
560,291,53.335212,-6.254705882352941,24,2,4b17c44df964a520f8c723e3,Chai Yo,53.33580011584014,-6.24761904131799,Asian Restaurant,True
932,663,53.38370533333333,-6.172058823529412,2,0,4b1a5a0bf964a52034e923e3,Macari’s Take Away,53.380445519296636,-6.174454273674597,Burger Joint,False
571,302,53.335212,-6.254705882352941,24,13,4b20f99ef964a520be3524e3,Pearl Brasserie,53.338317039067405,-6.253397316992627,French Restaurant,True
792,523,53.35460933333334,-6.254705882352941,44,18,4b22879af964a520684824e3,Louie's Bistro,53.357355000000005,-6.257544,Mediterranean Restaurant,True
83,83,53.34717159599906,-6.274997088258603,6,4,4b263718f964a520427924e3,Christophe's,53.34822731009236,-6.277160466315129,Wine Bar,False
585,316,53.335212,-6.238176470588236,13,3,4b277606f964a520a88624e3,Orchid Szechuan Restaurant,53.33246293496804,-6.236250720015116,Asian Restaurant,True
471,202,53.32551333333333,-6.254705882352941,23,9,4b278515f964a520108724e3,Antica Venezia,53.32430340065113,-6.252744941189422,Italian Restaurant,True
92,92,53.34264973733427,-6.274997088258603,12,7,4b278c8cf964a520468724e3,Express Train Chinese Restaurant,53.342905332587215,-6.276851652315424,Chinese Restaurant,True
573,304,53.335212,-6.254705882352941,24,15,4b293203f964a520c59a24e3,Hugo's,53.33839090074065,-6.254444355110028,French Restaurant,True
435,166,53.31581466666667,-6.271235294117648,5,4,4b2bd94bf964a52052bc24e3,Bijou,53.311952979607184,-6.274325219007659,French Restaurant,True
472,203,53.32551333333333,-6.254705882352941,23,10,4b2bec95f964a520cfbd24e3,Diep at Home,53.325325,-6.254812,Thai Restaurant,True
407,138,53.306116,-6.205117647058825,2,0,4b2d271ef964a5209bcf24e3,Indian Gate,53.303206036839065,-6.207979541688265,Indian Restaurant,True
714,445,53.344910666666664,-6.238176470588236,14,3,4b30c540f964a5207afb24e3,Milano,53.344316000000006,-6.237025,Pizza Place,False
325,56,53.28671866666666,-6.238176470588236,23,10,4b37b197f964a5207a4425e3,TGI Fridays,53.28820284317297,-6.242462507849259,American Restaurant,True
817,548,53.35460933333334,-6.254705882352941,44,43,4b3a0504f964a5204e6025e3,Le Bon Crubeen,53.35060833434759,-6.255126595497687,French Restaurant,True
1013,31,53.34378020200047,-6.265592702638228,27,24,4b3fe8c8f964a520d8b125e3,Charlies 3,53.343718722310285,-6.26461255512055,Chinese Restaurant,True
838,569,53.364307999999994,-6.271235294117648,11,7,4b42495ff964a520bfd025e3,Dall'Italiano,53.366534591219704,-6.271874164650705,Italian Restaurant,True
952,683,53.393404000000004,-6.254705882352941,5,3,4b479849f964a520c13626e3,Zao Restaurant,53.39292560291401,-6.250124199022813,Asian Restaurant,True
400,131,53.306116,-6.287764705882353,4,1,4b48d466f964a520ff5826e3,Eddie Rocket's,53.30930923905118,-6.284622528843329,Diner,False
853,584,53.364307999999994,-6.238176470588236,7,2,4b48dc33f964a5207c5a26e3,Bombay Pantry,53.364992104034826,-6.2397249360669385,Indian Restaurant,True
395,126,53.29641733333333,-6.138999999999999,13,11,4b49ff33f964a5207b7726e3,Milano,53.29479880505267,-6.1352889562959945,Pizza Place,False
790,521,53.35460933333334,-6.254705882352941,44,16,4b4c956cf964a520bfb626e3,Thai Spice,53.35101230587296,-6.251300535672897,Thai Restaurant,True
874,605,53.37400666666666,-6.254705882352941,7,1,4b4cc58ff964a52039be26e3,Chilli Banana,53.37237482626846,-6.252675732444325,Thai Restaurant,True
454,185,53.32551333333333,-6.271235294117648,17,9,4b50bcb8f964a520133027e3,Bombay Pantry,53.3221802361668,-6.267244006222508,Indian Restaurant,True
1062,80,53.34604113133285,-6.265592503160693,7,3,4b522869f964a5203e6c27e3,Milano,53.345529000000006,-6.264818,Pizza Place,False
549,280,53.335212,-6.271235294117648,50,41,4b522cacf964a520766d27e3,Yami Thai & Sushi,53.335372120318915,-6.266124232681733,Thai Restaurant,True
357,88,53.29641733333333,-6.304294117647059,6,5,4b536132f964a520ab9927e3,Paparazzi,53.298398999999996,-6.304280161857605,Italian Restaurant,True
182,182,53.34264973733427,-6.267473499976692,50,35,4b5608fff964a520fbfc27e3,mona lisa,53.340592,-6.268578,Italian Restaurant,True
784,515,53.35460933333334,-6.254705882352941,44,10,4b563469f964a520360528e3,Kebab 786,53.35127499026918,-6.252003908157349,Indian Restaurant,True
317,48,53.28671866666666,-6.238176470588236,23,2,4b59f808f964a52096a428e3,Nando's,53.288722,-6.244244999999999,Portuguese Restaurant,True
316,47,53.28671866666666,-6.238176470588236,23,1,4b5a219df964a52032af28e3,Ananda,53.28800014194466,-6.241315188096412,Indian Restaurant,True
272,3,53.27701999999999,-6.271235294117648,1,0,4b5b5c66f964a520b8f728e3,Bombay Pantry,53.27708233258417,-6.265058284854972,Indian Restaurant,True
446,177,53.32551333333333,-6.271235294117648,17,1,4b5ca441f964a520953b29e3,Saba to Go,53.32215566672056,-6.267247178606415,Thai Restaurant,True
839,570,53.364307999999994,-6.271235294117648,11,8,4b5f5fa3f964a520b7b629e3,Bombay To Go,53.36492472151993,-6.271708227251228,Indian Restaurant,True
706,437,53.344910666666664,-6.254705882352941,50,45,4b6596f6f964a52089f52ae3,La Gondola,53.34576587172724,-6.2617859885728375,Italian Restaurant,True
794,525,53.35460933333334,-6.254705882352941,44,20,4b69d45bf964a520ccb62be3,Tian Yuan Restaurant,53.35384937665557,-6.258573250104221,Chinese Restaurant,True
336,67,53.28671866666666,-6.238176470588236,23,21,4b6c8f51f964a52022432ce3,Siam Thai,53.288079486202705,-6.242959462803764,Thai Restaurant,True
240,240,53.34264973733427,-6.258467676493898,38,18,4b6e0862f964a520f1a42ce3,Taste of India,53.342737441523475,-6.262228488922119,Indian Restaurant,True
921,652,53.38370533333333,-6.271235294117648,2,1,4b6f2363f964a5209fdf2ce3,Aberdeen Chinese Take Away,53.3859242527521,-6.266296119469272,Chinese Restaurant,True
275,6,53.27701999999999,-6.221647058823531,6,0,4b72b0f6f964a520f9832de3,My Thai,53.27649815472924,-6.22052367828918,Thai Restaurant,True
45,45,53.33747292933239,-6.2674743554232935,19,18,4b72b36ef964a5205e842de3,Charlies 5,53.33675699999999,-6.265493,Chinese Restaurant,True
607,338,53.344910666666664,-6.287764705882353,5,1,4b731ab7f964a520b29b2de3,Papa Mio's - Toni's Takeaway,53.34250014380867,-6.293207020837906,Fast Food Restaurant,True
596,327,53.335212,-6.221647058823531,2,1,4b76b983f964a520d25a2ee3,Chinatown Restaurant,53.332432999999995,-6.215859,Chinese Restaurant,True
559,290,53.335212,-6.254705882352941,24,1,4b7a8452f964a5208a2f2fe3,Restaurant Patrick Guilbaud,53.33840046941511,-6.252855856060933,French Restaurant,True
578,309,53.335212,-6.254705882352941,24,20,4b7bf2b6f964a52047752fe3,Pablo Picante,53.337530943821115,-6.251414834377379,Mexican Restaurant,True
205,205,53.34717159599906,-6.258467676493898,22,5,4b7e9d3cf964a5207cf52fe3,Govindas,53.348333019460675,-6.260665254208552,Vegetarian / Vegan Restaurant,True
591,322,53.335212,-6.238176470588236,13,9,4b7f0b35f964a5206e1230e3,Langkawi,53.333102687651646,-6.243013247592974,Asian Restaurant,True
940,671,53.393404000000004,-6.386941176470589,8,2,4b802ab0f964a5208a5830e3,TGI Fridays,53.39190189168261,-6.392302553215474,American Restaurant,True
811,542,53.35460933333334,-6.254705882352941,44,37,4b804502f964a520b66230e3,Enoteca d'Asti,53.35886257018282,-6.254360872078532,Italian Restaurant,True
330,61,53.28671866666666,-6.238176470588236,23,15,4b898b6cf964a5208c4032e3,Buona Sera,53.289668000000006,-6.242743,Italian Restaurant,True
483,214,53.32551333333333,-6.254705882352941,23,21,4b8d5387f964a520c1f432e3,TriBeCa,53.32436697233526,-6.252996317860283,American Restaurant,True
139,139,53.34717159599906,-6.267473499976692,50,42,4b8fadbff964a520b85c33e3,Boojum,53.347371000483605,-6.265437556567062,Burrito Place,False
723,454,53.344910666666664,-6.238176470588236,14,12,4b9156e8f964a5206ab433e3,Isola Mia,53.342957999999996,-6.244603,Italian Restaurant,True
565,296,53.335212,-6.254705882352941,24,7,4b92a090f964a5204d0b34e3,La Peniche,53.33336351840203,-6.248633400215986,French Restaurant,True
399,130,53.306116,-6.287764705882353,4,0,4b92bac4f964a520fe1534e3,Meghna Tandoori,53.309494256973274,-6.28491997718811,Indian Restaurant,True
862,593,53.364307999999994,-6.172058823529412,2,0,4b9781eef964a520810635e3,Bay Restaurant Clontarf,53.363060199966895,-6.178393963984532,Modern European Restaurant,True
572,303,53.335212,-6.254705882352941,24,14,4b97e66af964a520c51d35e3,Mantraa,53.33759999802466,-6.251853704452515,Indian Restaurant,True
568,299,53.335212,-6.254705882352941,24,10,4b98176ef964a520c22b35e3,Il Segreto,53.338311448793796,-6.25434865858756,Italian Restaurant,True
333,64,53.28671866666666,-6.238176470588236,23,18,4b994060f964a520936d35e3,China Buffet King,53.288208,-6.242353,Chinese Restaurant,True
797,528,53.35460933333334,-6.254705882352941,44,23,4b996581f964a520617835e3,Charming Noodles,53.3538035134513,-6.258534639775284,Chinese Restaurant,True
249,249,53.34264973733427,-6.258467676493898,38,27,4b9b81e0f964a520cb0b36e3,Chilli Club,53.34088319153018,-6.259556900909796,Thai Restaurant,True
439,170,53.31581466666667,-6.205117647058825,1,0,4b9cddbaf964a5207e7f36e3,Bianconi's,53.31746184357426,-6.208201420418371,Italian Restaurant,True
912,643,53.38370533333333,-6.370411764705883,11,4,4b9d1c47f964a520a29036e3,Browne's Steak House,53.38567640239818,-6.374142863548991,Steakhouse,False
398,129,53.306116,-6.320823529411764,2,1,4b9d45d8f964a520019f36e3,Lok Moon,53.308103630326045,-6.315642030563706,Chinese Restaurant,True
21,21,53.33295107066761,-6.274996232812003,14,8,4b9e847cf964a52001eb36e3,Konkan Indian Restaurant,53.33080982449845,-6.275228432217097,Indian Restaurant,True
968,699,53.40310266666667,-6.172058823529412,3,0,4b9e9f07f964a5207df436e3,Noble House,53.40400131181893,-6.1789113510647775,Chinese Restaurant,True
177,177,53.34264973733427,-6.267473499976692,50,30,4ba1871ef964a5204bbe37e3,Sultan,53.34308151511718,-6.264288759375051,Mediterranean Restaurant,True
890,621,53.37400666666666,-6.205117647058825,2,0,4ba40029f964a5205f7638e3,Golden Grain,53.375667710524006,-6.209303140640259,Chinese Restaurant,True
945,676,53.393404000000004,-6.386941176470589,8,7,4ba63fd4f964a5200a3f39e3,Dante,53.39139072831431,-6.3919830322265625,Italian Restaurant,True
766,497,53.35460933333334,-6.271235294117648,15,7,4ba7e0b6f964a52045bb39e3,The Transilvania Tavern,53.351230161395286,-6.2706828117370605,Eastern European Restaurant,True
715,446,53.344910666666664,-6.238176470588236,14,4,4bafce85f964a52050223ce3,Starry Night,53.34280422059678,-6.241345607319616,Chinese Restaurant,True
348,79,53.28671866666666,-6.172058823529412,2,1,4bba243153649c74c8ad48fb,The Blue Orchid,53.28810808607121,-6.1755542870043625,Thai Restaurant,True
824,555,53.35460933333334,-6.188588235294117,2,1,4bba34d353649c74c6c248fb,Hin Keng,53.3584,-6.192258,Chinese Restaurant,True
379,110,53.29641733333333,-6.155529411764706,14,9,4bbe271eb42aef3b9a7f4bc3,valpairiso,53.29365831693968,-6.1546006789902,Mediterranean Restaurant,True
487,218,53.335212,-6.370411764705883,2,0,4bc49fcb4cdfc9b69ae29821,Shirleys Palace,53.331227,-6.371461,Asian Restaurant,True
593,324,53.335212,-6.238176470588236,13,11,4bc5b74f6936952151608488,Bondiola,53.33484944718359,-6.242452279987731,Argentinian Restaurant,True
347,78,53.28671866666666,-6.172058823529412,2,0,4bc609d051b376b073df1a6f,Fu Moon,53.287781016842004,-6.175734016452247,Chinese Restaurant,True
364,95,53.29641733333333,-6.287764705882353,7,6,4bcb5c2068f976b077eb6083,Indian Brasserie,53.2981683360719,-6.285290429141423,Indian Restaurant,True
909,640,53.38370533333333,-6.370411764705883,11,1,4bcdf24a68f976b032226583,Poppadom Restaurant,53.383658999999994,-6.368244,Indian Restaurant,True
484,215,53.32551333333333,-6.254705882352941,23,22,4bcee45cb6c49c74f3c39791,Mario's,53.324985999999996,-6.254391,Italian Restaurant,True
558,289,53.335212,-6.254705882352941,24,0,4bd2dd63a8b3a593ad98685f,Bang Restaurant,53.33844369158638,-6.25474710537941,French Restaurant,True
590,321,53.335212,-6.238176470588236,13,8,4bd2de2ea8b3a593cb99685f,Bloom Brasserie,53.33374357549518,-6.244836410330085,French Restaurant,True
354,85,53.29641733333333,-6.304294117647059,6,2,4bd324ec77b29c7422069082,Chrysanthemum,53.29418882142786,-6.300269098377737,Chinese Restaurant,True
963,694,53.40310266666667,-6.238176470588236,2,0,4bd5bf427b1876b024418b86,Little Venice,53.404296799378564,-6.240355179179398,Italian Restaurant,True
956,687,53.40310266666667,-6.403470588235294,1,0,4bd89117f645c9b6ef4ba8e0,Dragon Inn,53.40282052511426,-6.398537637202242,Chinese Restaurant,True
864,595,53.37400666666666,-6.386941176470589,1,0,4bdc55562a3a0f476559b2b6,Romayo's,53.37353745741086,-6.389314119552804,Fast Food Restaurant,True
971,702,53.40310266666667,-6.155529411764706,2,0,4bddd3aa587b2d7f7a3d5509,Park Lane Chinese,53.402995999999995,-6.157716000000001,Chinese Restaurant,True
477,208,53.32551333333333,-6.254705882352941,23,15,4bdddb13e75c0f4766e2c503,The Wild Goose,53.323305000000005,-6.250069,French Restaurant,True
221,221,53.34717159599906,-6.258467676493898,22,21,4bde00310ee3a5935a8b2fb0,Charlies III,53.346215496863145,-6.258996518268922,Chinese Restaurant,True
951,682,53.393404000000004,-6.254705882352941,5,2,4be2ba6ef07b0f479402f643,Eddie Rocket's,53.39299919624129,-6.2504750085983005,Diner,False
955,686,53.40310266666667,-6.42,1,0,4be311b02ff376b02a464fed,Tsangs,53.40293590348375,-6.427001397640827,Chinese Restaurant,True
725,456,53.35460933333334,-6.403470588235294,2,0,4be402ecf07b0f477149f943,Lemongrass,53.35441034318293,-6.402722988440429,Asian Restaurant,True
95,95,53.34264973733427,-6.274997088258603,12,10,4beda0d73372c928f5ed1114,Exprees Train,53.34302460000001,-6.276892,Chinese Restaurant,True
337,68,53.28671866666666,-6.238176470588236,23,22,4bf2dc536991c9b6a29729e9,Dante,53.28816251590888,-6.242366083217683,Italian Restaurant,True
252,252,53.34264973733427,-6.258467676493898,38,30,4bf51eff706e20a1d009aa98,Indian Curry Club,53.342739750074294,-6.2621758954192615,Indian Restaurant,True
328,59,53.28671866666666,-6.238176470588236,23,13,4bf7cc318d30d13a9c84ff17,Roly Saul,53.28829735016113,-6.242733716258721,French Restaurant,True
866,597,53.37400666666666,-6.353882352941175,3,1,4bf854c85317a59316a7ff7e,Castello Bruno,53.37235870228122,-6.360571473822532,Italian Restaurant,True
365,96,53.29641733333333,-6.271235294117648,1,0,4c0009c837850f470d9e973f,Excelsior Take Away,53.292611,-6.272054,Chinese Restaurant,True
873,604,53.37400666666666,-6.254705882352941,7,0,4c055d2e0d0e0f47923a059a,Al Cowo Restaurant,53.372131,-6.252853,Italian Restaurant,True
380,111,53.29641733333333,-6.155529411764706,14,10,4c07eead6071a5933574db32,Victoria,53.29399564988077,-6.1531228844977095,Chinese Restaurant,True
215,215,53.34717159599906,-6.258467676493898,22,15,4c0ac702009a0f47df0beabf,Full House,53.348191,-6.26181,Chinese Restaurant,True
610,341,53.344910666666664,-6.287764705882353,5,4,4c0b9239340720a114488893,La Cala,53.346540822222224,-6.281434535980225,Tapas Restaurant,True
335,66,53.28671866666666,-6.238176470588236,23,20,4c0bc550340720a1108e8893,L'Officina,53.28810264409161,-6.243114312993213,Italian Restaurant,True
169,169,53.34264973733427,-6.267473499976692,50,22,4c0cfc08d64c0f4741f7255d,Diwali Indian Restaurant,53.342920356846754,-6.264372961850387,Indian Restaurant,True
444,175,53.32551333333333,-6.304294117647059,1,0,4c11448517002d7fc5eae509,Ocean Garden,53.32744259780403,-6.309341490268707,Chinese Restaurant,True
845,576,53.364307999999994,-6.254705882352941,9,3,4c1175f617002d7fe846e609,Bamboo Cafe,53.36351150967763,-6.2579476833343515,Chinese Restaurant,True
768,499,53.35460933333334,-6.271235294117648,15,9,4c13966ba5eb76b0f01ec0b7,Akanchawa's Honey Pot,53.354089508735726,-6.269668266177177,African Restaurant,True
507,238,53.335212,-6.287764705882353,10,9,4c15230077cea593e2afd160,Bombay Spice,53.333948,-6.291907,Indian Restaurant,True
867,598,53.37400666666666,-6.353882352941175,3,2,4c1531d4a1010f4797a24d18,Millennium 2,53.37295509162429,-6.360639069554678,Chinese Restaurant,True
52,52,53.33295107066761,-6.2674743554232935,19,6,4c1a68d5eac020a13e3943c2,Mars,53.332205656923705,-6.264610290527344,Chinese Restaurant,True
891,622,53.37400666666666,-6.205117647058825,2,1,4c1e498dfcf8c9b6a9fdac0b,Regent Chinese Take Away,53.37100600000001,-6.205423000000001,Chinese Restaurant,True
872,603,53.37400666666666,-6.271235294117648,2,1,4c1fb425b4e62d7fdd0de093,Eat Italy,53.375588713565655,-6.2698667420590315,Italian Restaurant,True
405,136,53.306116,-6.238176470588236,4,2,4c27bda89fb5d13a668e9857,Golden Swan,53.3042354572341,-6.2397740352599484,Chinese Restaurant,True
843,574,53.364307999999994,-6.254705882352941,9,1,4c2f69f57cc0c9b601a2eb9a,Eighty Seven Chinese,53.36059215232316,-6.2512948290681045,Chinese Restaurant,True
436,167,53.31581466666667,-6.238176470588236,3,0,4c2f93f5ed37a5931f876703,Bombay Pantry,53.314209,-6.238469,Indian Restaurant,True
762,493,53.35460933333334,-6.271235294117648,15,3,4c309f1fed37a59328186903,Proton House,53.355466157346505,-6.26576084537313,Indian Restaurant,True
960,691,53.40310266666667,-6.304294117647059,2,0,4c35d449ed37a59349137103,Eddie Rocket's,53.403728207525,-6.302559224536935,Diner,False
404,135,53.306116,-6.238176470588236,4,1,4c3b0f8d0cabef3be479b94b,Yumi,53.30526218313169,-6.2371015548706055,Chinese Restaurant,True
314,45,53.28671866666666,-6.254705882352941,1,0,4c3f5a4ce26920a179515be7,Hong Kong Kitchen,53.28781329509308,-6.258906638194196,Chinese Restaurant,True
598,329,53.344910666666664,-6.42,2,1,4c40aa1ee26920a1c5405de7,Pregos,53.34774606026468,-6.4225459360285075,Italian Restaurant,True
431,162,53.31581466666667,-6.271235294117648,5,0,4c40b050ce54e21e77eb091a,Il Divo,53.31209240537882,-6.27461192267959,Italian Restaurant,True
941,672,53.393404000000004,-6.386941176470589,8,3,4c4871c5417b20a109ece0a9,Captain Americas,53.394858291544026,-6.390829368013269,American Restaurant,True
362,93,53.29641733333333,-6.287764705882353,7,4,4c49e0079f2ad13a3c38e453,Mango Tree,53.297993649770234,-6.2847260958580105,Thai Restaurant,True
384,115,53.29641733333333,-6.138999999999999,13,0,4c4c6c37bad7a5936b613fad,Cafe Mao,53.29405819178515,-6.132956202487861,Asian Restaurant,True
924,655,53.38370533333333,-6.238176470588236,7,2,4c4f13bb1b8e1b8db48a3b28,Whitehall Chinese,53.38181847481223,-6.2417928156347235,Asian Restaurant,True
583,314,53.335212,-6.238176470588236,13,1,4c4f3de779ffe21e6104541a,Paulie's Pizza,53.3372597666932,-6.234690803704816,Pizza Place,False
831,562,53.364307999999994,-6.271235294117648,11,0,4c500b94371520a114c3a3c0,Kungfu Buffet,53.36138017793971,-6.2726698491588015,Chinese Restaurant,True
771,502,53.35460933333334,-6.271235294117648,15,12,4c543927f5f3d13a61f0caf9,Decency,53.35387610000001,-6.269674500000001,African Restaurant,True
944,675,53.393404000000004,-6.386941176470589,8,6,4c54533ff5f3d13a632cf7f9,wagamama,53.3948148598229,-6.390881929396781,Asian Restaurant,True
312,43,53.28671866666666,-6.337352941176469,1,0,4c59dba16407d13ad23eb328,China House,53.28390360063164,-6.337994669141318,Chinese Restaurant,True
394,125,53.29641733333333,-6.138999999999999,13,10,4c5b047a5c57c9b675b71e4a,Golden Elephant,53.294947534507216,-6.143180472827607,Chinese Restaurant,True
503,234,53.335212,-6.287764705882353,10,5,4c6302d958810f47bba2081e,Shang Hai Chinese Takeaway,53.33420386,-6.29215196,Chinese Restaurant,True
291,22,53.28671866666666,-6.370411764705883,20,1,4c63f71186b6be9a93c48f34,Eddie Rocket's,53.286631299999996,-6.3731824,Diner,False
349,80,53.28671866666666,-6.155529411764706,1,0,4c68684231ba2d7fadc0f772,Paddy Fields,53.285875,-6.1548680000000004,Chinese Restaurant,True
452,183,53.32551333333333,-6.271235294117648,17,7,4c77f7e3a8683704e79f0b4d,New Empire,53.327109,-6.264885,Chinese Restaurant,True
776,507,53.35460933333334,-6.254705882352941,44,2,4c79004c93ef236af6f6ad0f,Admiral Restaurant,53.35242916581768,-6.258837263955962,Eastern European Restaurant,True
785,516,53.35460933333334,-6.254705882352941,44,11,4c795e6a794e224bbc3a6528,Arirang,53.35361451018311,-6.25892763757398,Chinese Restaurant,True
506,237,53.335212,-6.287764705882353,10,8,4c7d5f825af8b60c9e668f10,Camile Thai,53.33330673233266,-6.2914944261128865,Thai Restaurant,True
282,13,53.27701999999999,-6.205117647058825,3,1,4c8a270c6418a1435d05ddce,La Dolce Vita,53.27696025964829,-6.21069731646056,Italian Restaurant,True
281,12,53.27701999999999,-6.205117647058825,3,0,4c8b54cfe51e6dcbdb5f71de,China Sichuan,53.27815936931125,-6.210854937801117,Chinese Restaurant,True
438,169,53.31581466666667,-6.238176470588236,3,2,4c8fa366daa93704767d56b1,Sunkist,53.314027743546454,-6.2371204818998285,Asian Restaurant,True
408,139,53.306116,-6.205117647058825,2,1,4c908fef0b9e3704df7e685e,Talavera,53.304867884516156,-6.205765662761637,Italian Restaurant,True
342,73,53.28671866666666,-6.205117647058825,8,3,4c979921533aa0938062db45,Indian Summer,53.28837058163624,-6.204974055290222,Indian Restaurant,True
476,207,53.32551333333333,-6.254705882352941,23,14,4c992890775abfb788b54267,Kinara Kitchen,53.32583498794115,-6.255525545236027,Indian Restaurant,True
273,4,53.27701999999999,-6.254705882352941,2,0,4ca764a797c8a1cd92d479a5,Anise,53.27656503414109,-6.248533140708858,Asian Restaurant,True
885,616,53.37400666666666,-6.221647058823531,8,3,4cab7d3a44a8224be3602e40,Celestinos,53.376266,-6.217459,French Restaurant,True
795,526,53.35460933333334,-6.254705882352941,44,21,4cb5c9ea56fca1cd7e6a5118,The Italian Connection,53.35036410569785,-6.256649022658013,Italian Restaurant,True
480,211,53.32551333333333,-6.254705882352941,23,18,4cb8c915a33bb1f742cb83fd,Bamboo,53.32188571738666,-6.2529809,Chinese Restaurant,True
322,53,53.28671866666666,-6.238176470588236,23,7,4cc2f345306e224b3c7e936c,The Port House Ibericos,53.288567963542064,-6.243655725289661,Tapas Restaurant,True
427,158,53.31581466666667,-6.287764705882353,5,1,4cc59b8f91413704dc5dca55,Passion Palace,53.31965715798906,-6.290863443316593,Karaoke Bar,False
927,658,53.38370533333333,-6.238176470588236,7,5,4ccc505854f0b1f7cb7b15ca,Magic Wok,53.3849625,-6.245250105857849,Chinese Restaurant,True
919,650,53.38370533333333,-6.287764705882353,1,0,4ccc5202511b236a2381f0c9,Valentino's Restaurant,53.383106000000005,-6.280939,Italian Restaurant,True
490,221,53.335212,-6.320823529411764,4,0,4ccc8dd3c0378cfada878748,Jamaal 5 In 1,53.33931257500268,-6.320509974511733,Chinese Restaurant,True
285,16,53.27701999999999,-6.138999999999999,3,1,4ccdbf2cc9b84688c3e0c4c3,China Star,53.278322542678595,-6.142174179837662,Chinese Restaurant,True
286,17,53.27701999999999,-6.138999999999999,3,2,4ccdbfa8511b236aad38f9c9,Spice Cottage,53.278301232917464,-6.142174002852756,Indian Restaurant,True
836,567,53.364307999999994,-6.271235294117648,11,5,4cd07415de0f6dcbd0d86a63,New Century Chinese,53.36570699999999,-6.271607,Chinese Restaurant,True
437,168,53.31581466666667,-6.238176470588236,3,1,4cd5ac25886cb60cb57f8589,Casa Pasta,53.3190624951913,-6.236335691795037,Italian Restaurant,True
294,25,53.28671866666666,-6.370411764705883,20,4,4cdaf58fa1bba35dffd991e5,The New Leaf,53.287585,-6.365797,Chinese Restaurant,True
597,328,53.344910666666664,-6.42,2,0,4cdc3321930af04d4b038f97,Good Year Chinese,53.3473,-6.422528,Asian Restaurant,True
269,0,53.27701999999999,-6.337352941176469,1,0,4cdc443d39172d43109e83d8,Fortune Chinese Takeaway,53.27562214897886,-6.3306885807900395,Chinese Restaurant,True
463,194,53.32551333333333,-6.254705882352941,23,1,4cdd9beaf8a4a1431027d1bc,The Butcher Grill,53.324288021599635,-6.252727790636183,Steakhouse,False
259,259,53.34264973733427,-6.258467676493898,38,37,4cefb9d7ed62721e7ff861fd,Yum Thai,53.341845764651204,-6.258461808139115,Thai Restaurant,True
1009,27,53.34378020200047,-6.265592702638228,27,20,4cf2b71688de370440c47a2b,South Asian Tandoori,53.34340600000001,-6.264573,Indian Restaurant,True
295,26,53.28671866666666,-6.370411764705883,20,5,4cf9493f7945224b1cf878e7,Tamara,53.28614020512242,-6.376200914382935,Thai Restaurant,True
541,272,53.335212,-6.271235294117648,50,33,4cfa7b3a2d80a143a7f944d8,Marques De Caceres,53.334358954724024,-6.263867597616758,Italian Restaurant,True
495,226,53.335212,-6.304294117647059,4,1,4d001be5ffcea143ce622b91,Rose Garden,53.33674156183367,-6.29892110824585,Chinese Restaurant,True
946,677,53.393404000000004,-6.304294117647059,1,0,4d0cf644be6d6ea8134902b5,Da Nero,53.390167542093906,-6.300651239067025,Italian Restaurant,True
350,81,53.29641733333333,-6.353882352941175,1,0,4d0e3aa53905b1f7bc9f9e4b,Eastern Flavours,53.294810801296514,-6.350165846649152,Malay Restaurant,True
716,447,53.344910666666664,-6.238176470588236,14,5,4d270f8d55a8b60c901cc0c0,Café Bar H,53.34366530418776,-6.238594425888983,Tapas Restaurant,True
494,225,53.335212,-6.304294117647059,4,0,4d28c418c406721e4cc274b6,Keng Seng Chinese Takeaway,53.336193601771384,-6.298553916783688,Asian Restaurant,True
491,222,53.335212,-6.320823529411764,4,1,4d2b8426467d6ea8aadce095,Golden Wok,53.339144999999995,-6.322451999999999,Chinese Restaurant,True
900,631,53.38370533333333,-6.403470588235294,12,7,4d2f53b049bb721e169e8695,Shimla,53.382701231070754,-6.408333778381348,Indian Restaurant,True
933,664,53.38370533333333,-6.172058823529412,2,1,4d3a1745beb7b1f7d2c1e571,Mint Cottage,53.379813782500925,-6.1750886093211355,Asian Restaurant,True
954,685,53.393404000000004,-6.205117647058825,1,0,4d45b920e198721eb3adc88b,Jazz Chinese & Thai Restaurant,53.38984904002695,-6.200880752322434,Chinese Restaurant,True
599,330,53.344910666666664,-6.353882352941175,4,0,4d480a49ea3f37041f4d260a,Lam's Chinese Takeaway,53.34124303,-6.35372803,Chinese Restaurant,True
729,460,53.35460933333334,-6.386941176470589,6,2,4d495dd95241236aafd87404,Ginzeng,53.353177795748024,-6.39071159745663,Chinese Restaurant,True
595,326,53.335212,-6.221647058823531,2,0,4d4c00d0855b54816207e38f,Fusion Bistro At John Clarke And Sons,53.338601000000004,-6.222286,Indian Restaurant,True
421,152,53.31581466666667,-6.304294117647059,5,0,4d5435992f638cfa1ed26b6a,Green Cottage,53.314615,-6.301038,Chinese Restaurant,True
447,178,53.32551333333333,-6.271235294117648,17,2,4d543973dcb1a1432c6dbcbf,Ho Ho,53.32222423980898,-6.267240394286227,Chinese Restaurant,True
580,311,53.335212,-6.254705882352941,24,22,4d60388c9f67f04d9b4876fb,Taste of Everest,53.3377341,-6.251679,Indian Restaurant,True
268,268,53.34264973733427,-6.250944088211986,7,6,4d63ba7761dda1435bef2018,Mizzoni's,53.34168056342047,-6.248326377036988,Italian Restaurant,True
827,558,53.364307999999994,-6.304294117647059,2,1,4d6430b5b470a143363016fe,Millennium Chinese Takeaway,53.361219430726955,-6.298878192901611,Chinese Restaurant,True
243,243,53.34264973733427,-6.258467676493898,38,21,4d6629c44bfb2d4308ba3cb4,Terrazzo Italia,53.342176,-6.262121433333332,Italian Restaurant,True
978,709,53.4225,-6.238176470588236,2,1,4d66526b05a7f04d9228b18f,Diep Noodle Bar,53.42662380667634,-6.2399129394907495,Noodle House,False
420,151,53.31581466666667,-6.320823529411764,4,3,4d6a8ec2342b8cfaee6ed82c,Evergreen,53.313134204860795,-6.3207435607910165,Chinese Restaurant,True
382,113,53.29641733333333,-6.155529411764706,14,12,4d713c8269356ea84ed95dd9,Radhuni,53.29388389666436,-6.152699884908158,Indian Restaurant,True
858,589,53.364307999999994,-6.221647058823531,3,0,4d723cf8311f6ea8356ed8ea,Casa Pasta,53.362676802285776,-6.218384981603018,Italian Restaurant,True
462,193,53.32551333333333,-6.254705882352941,23,0,4d7fd9a5e7e1721edc53fa0b,La Bodega,53.3240742057365,-6.251773712393442,Tapas Restaurant,True
869,600,53.37400666666666,-6.337352941176469,2,1,4d8257debaf9a35d8c59a821,Geisha,53.37578152727931,-6.332109215907521,Asian Restaurant,True
429,160,53.31581466666667,-6.287764705882353,5,3,4d83a83be83fa143c40252a1,Thai Thai Takeaway,53.31910799999999,-6.291027,Thai Restaurant,True
492,223,53.335212,-6.320823529411764,4,2,4d85017be83fa143ecba70a1,Fine Rice,53.33568914056653,-6.326701142914411,Chinese Restaurant,True
788,519,53.35460933333334,-6.254705882352941,44,14,4d89edb51508a143e46a181e,Long Thanh Chinese & Vietnamese Takaway,53.35625666343513,-6.248004430649607,Asian Restaurant,True
432,163,53.31581466666667,-6.271235294117648,5,1,4d8a2cb126a36ea8732aefad,Spice Guru,53.31239648104145,-6.2748663575954415,Indian Restaurant,True
718,449,53.344910666666664,-6.238176470588236,14,7,4d8a30cd76e1236a95fb1443,Piccola Sicilia,53.342873,-6.244598000000001,Italian Restaurant,True
381,112,53.29641733333333,-6.155529411764706,14,11,4d8bb468342b37042905865c,Amerta,53.29416866882988,-6.153589101392022,Chinese Restaurant,True
868,599,53.37400666666666,-6.337352941176469,2,0,4d90647a1d06b1f7ffe5723b,Bombay Pantry,53.37445711887211,-6.3310659252313535,Indian Restaurant,True
841,572,53.364307999999994,-6.271235294117648,11,10,4d9080bfc479a35dd4cc7297,Camile Thai,53.36225143276685,-6.2726819907406846,Thai Restaurant,True
443,174,53.32551333333333,-6.320823529411764,2,1,4d98e6a49079b1f75bed360a,Castello,53.32431313939518,-6.3268394037543665,Chinese Restaurant,True
865,596,53.37400666666666,-6.353882352941175,3,0,4d9e219ebaae54812a310265,Wongs,53.372502000000004,-6.360543,Chinese Restaurant,True
886,617,53.37400666666666,-6.221647058823531,8,4,4da1f96cbf22a143ae1aa8f8,China Garden,53.376165462019,-6.224350613348602,Chinese Restaurant,True
297,28,53.28671866666666,-6.370411764705883,20,7,4da4934cd686b60cd8ede228,Tip Top,53.28819915445289,-6.364396081334357,Asian Restaurant,True
882,613,53.37400666666666,-6.221647058823531,8,0,4dbdb3f6cda109aa6cb9a3e7,China Kitchen Takeaway,53.37696578054052,-6.22337288791408,Chinese Restaurant,True
752,483,53.35460933333334,-6.287764705882353,20,13,4dbde535f7b1ab37dd81aa02,Feedme,53.353412,-6.2855620000000005,American Restaurant,True
124,124,53.34717159599906,-6.267473499976692,50,27,4dbeba0f43a1d8504bc514eb,Ramos,53.34733386508614,-6.263965211695836,Greek Restaurant,True
980,711,53.4225,-6.138999999999999,3,1,4dbef9ec1e72b351caed544d,Sea Palace,53.42171855014973,-6.136263401800388,Chinese Restaurant,True
942,673,53.393404000000004,-6.386941176470589,8,4,4dc2a6add4c07da169fcb69b,Ginzeng,53.39326598588152,-6.39106673163313,Asian Restaurant,True
961,692,53.40310266666667,-6.304294117647059,2,1,4dc96d26e4cd1818d5b7ef26,Royal Plaza Chinese Restaurant & Takeaway,53.401908,-6.297269,Chinese Restaurant,True
415,146,53.31581466666667,-6.386941176470589,5,4,4dd0143945ddbe15f8b180d2,Shakira Indian,53.31928406057256,-6.39164214916488,Indian Restaurant,True
842,573,53.364307999999994,-6.254705882352941,9,0,4dd95a1c1838b8561d171e86,Diep At Home,53.3624136812532,-6.2589119732758896,Thai Restaurant,True
609,340,53.344910666666664,-6.287764705882353,5,3,4deb520c52b11677f052bfa0,Chesterfields Brasserie,53.347863731938276,-6.290980638043162,French Restaurant,True
301,32,53.28671866666666,-6.370411764705883,20,11,4deea81e18380c912df6e6f1,Choices Chinese Take-Away,53.288189546507425,-6.3637484990364195,Chinese Restaurant,True
392,123,53.29641733333333,-6.138999999999999,13,8,4e00e22162843b639cf9d5a5,Shakira,53.29321549579733,-6.138252223232123,Indian Restaurant,True
485,216,53.32551333333333,-6.238176470588236,2,0,4e00f32b1495692a4bb7730f,Dakshin,53.322249,-6.2366220000000006,Indian Restaurant,True
358,89,53.29641733333333,-6.287764705882353,7,0,4e04e56952b1cef647d576a0,Delhi Lounge,53.29901134243414,-6.284444120783558,Indian Restaurant,True
413,144,53.31581466666667,-6.386941176470589,5,2,4e062db81838eb15aef932be,Caravel,53.313389965910595,-6.393171319562428,Chinese Restaurant,True
859,590,53.364307999999994,-6.221647058823531,3,1,4e0ccfb68877c535e471a22e,Maharajah,53.362508999999996,-6.218021,Indian Restaurant,True
460,191,53.32551333333333,-6.271235294117648,17,15,4e0dbc8f62e1d5a30cf9a348,The Patisserie,53.328418000000006,-6.274544000000001,Middle Eastern Restaurant,True
745,476,53.35460933333334,-6.287764705882353,20,6,4e0fb74062843e04afb84613,Canton City,53.351202180844425,-6.282842186107688,Chinese Restaurant,True
351,82,53.29641733333333,-6.320823529411764,1,0,4e10e79ad4c07597ff7c7673,Sunflower,53.299140487529705,-6.321322466998045,Chinese Restaurant,True
584,315,53.335212,-6.238176470588236,13,2,4e173f096284ea7246ec4a2f,Tolteca,53.33315483482381,-6.2433536575045885,Mexican Restaurant,True
270,1,53.27701999999999,-6.320823529411764,1,0,4e187af9ae6092c2765228da,Lucky Star Take Away,53.27843669922445,-6.317239711828694,Chinese Restaurant,True
898,629,53.38370533333333,-6.403470588235294,12,5,4e19e6e952b123a586e49a24,Ravello's,53.383058,-6.410108,Italian Restaurant,True
94,94,53.34264973733427,-6.274997088258603,12,9,4e1cc74b483b6f94577b637c,mamak shisha,53.34136962890625,-6.272705554962157,Indian Restaurant,True
323,54,53.28671866666666,-6.238176470588236,23,8,4e1d997245ddc696bb3b15bd,wagamama,53.288489559176035,-6.243587167020847,Asian Restaurant,True
1014,32,53.34378020200047,-6.265592702638228,27,25,4e20a349628469a5740d6229,King Charlies,53.34416914333574,-6.265112575985938,Asian Restaurant,True
1011,29,53.34378020200047,-6.265592702638228,27,22,4e25d063aeb7df1e0f4d281e,Russo's Ristorante Italiano,53.344127219842136,-6.264980550620508,Italian Restaurant,True
749,480,53.35460933333334,-6.287764705882353,20,10,4e25fa261f6e58da2b1aff79,Mi Thai,53.351565,-6.283238,Thai Restaurant,True
409,140,53.306116,-6.188588235294117,1,0,4e29cb1a6284b96d7b77f8d6,Wong's Kitchen,53.30526577982224,-6.188008931886232,Chinese Restaurant,True
388,119,53.29641733333333,-6.138999999999999,13,4,4e2d8613b0fbc2edac36ee11,Camile Thai,53.294885239384755,-6.142158242986636,Thai Restaurant,True
441,172,53.32551333333333,-6.386941176470589,1,0,4e3436fdaeb72268626515bf,The Wokshop Chinese Takeaway,53.322528000000005,-6.392551999999999,Chinese Restaurant,True
819,550,53.35460933333334,-6.238176470588236,5,1,4e398411b61c438b5487b701,Akwaaba,53.352742000000006,-6.244516,African Restaurant,True
640,371,53.344910666666664,-6.271235294117648,50,29,4e404831c65b4ec27606eaed,Afsana Tandori,53.344623179459425,-6.264246437240659,Indian Restaurant,True
820,551,53.35460933333334,-6.238176470588236,5,2,4e4d44cb8877d762630bceb5,Don Mimi,53.35729,-6.242905,Italian Restaurant,True
907,638,53.38370533333333,-6.386941176470589,3,2,4e4da145d4c0b6da5d652b6e,Hung Wun,53.38366543814431,-6.382139504788213,Chinese Restaurant,True
849,580,53.364307999999994,-6.254705882352941,9,7,4e51526118383eb2af3bee76,Mintleaf,53.36749238555852,-6.2556729517623175,Indian Restaurant,True
219,219,53.34717159599906,-6.258467676493898,22,19,4e564738ae6040e96e003930,Pop Noodle,53.346920999999995,-6.260547,Asian Restaurant,True
600,331,53.344910666666664,-6.353882352941175,4,1,4e59269052b1b78b81988af4,Far East Restaurant,53.34244271200613,-6.35684066917804,Chinese Restaurant,True
450,181,53.32551333333333,-6.271235294117648,17,5,4e5a85dbb0fbdca30a0c2f54,Ginger Indian Takeaway,53.3256382,-6.2643963,Indian Restaurant,True
564,295,53.335212,-6.254705882352941,24,6,4e5fed911495676d54a4f5f9,Mao at Home,53.337841137984626,-6.252384184993284,Asian Restaurant,True
100,100,53.34717159599906,-6.267473499976692,50,3,4e650d6ba80951b3199d2e8b,Nando's,53.34882883,-6.267252099999999,Portuguese Restaurant,True
499,230,53.335212,-6.287764705882353,10,1,4e6bfe3ae4cd4bedeb70fa07,Namaste India,53.33336800000001,-6.291668,Indian Restaurant,True
937,668,53.393404000000004,-6.42,1,0,4e7634a98998ed82a4fbc0d4,Magic Wok,53.39074745999889,-6.420788279888513,Asian Restaurant,True
370,101,53.29641733333333,-6.155529411764706,14,0,4e7e6634b634d08cfe481e2b,Victoria Karaoke,53.2940754301614,-6.153010876651321,Chinese Restaurant,True
486,217,53.32551333333333,-6.238176470588236,2,1,4e839ec0a17c2b629476f2d5,Wongs Chinese Restaurant,53.32172253994769,-6.2365007400512695,Chinese Restaurant,True
422,153,53.31581466666667,-6.304294117647059,5,1,4e83d8fe722e98c0b8ab1a1d,Michael's Trust,53.31643347882449,-6.3064264590036645,Dim Sum Restaurant,True
857,588,53.364307999999994,-6.238176470588236,7,6,4e9470e077c82b6a71f0d092,Indian Taste,53.36266212842651,-6.242942291168274,Indian Restaurant,True
178,178,53.34264973733427,-6.267473499976692,50,31,4e972b9b8b811f0c66850e1a,The Oriental Café,53.343176,-6.264316,Asian Restaurant,True
902,633,53.38370533333333,-6.403470588235294,12,9,4ea1d5d65c5cd12b3560b209,Revellos Resturant,53.3829,-6.4101360000000005,Mediterranean Restaurant,True
369,100,53.29641733333333,-6.205117647058825,2,1,4ea1f7736da1455cac291548,Suriya Thai,53.29758100000001,-6.207642,Asian Restaurant,True
489,220,53.335212,-6.337352941176469,1,0,4ea6f920cc219396a4a128be,Excellent Chinese Take Away,53.33540359920953,-6.333446083981383,Chinese Restaurant,True
856,587,53.364307999999994,-6.238176470588236,7,5,4eac710c82315d0ca5324deb,Flaming Wok,53.36271275532342,-6.238650888432219,Asian Restaurant,True
184,184,53.34264973733427,-6.267473499976692,50,37,4eadfff682315d0ca5d7dc16,Kaifa,53.342148969120124,-6.2638920397774625,Middle Eastern Restaurant,True
814,545,53.35460933333334,-6.254705882352941,44,40,4eb58aa030f8d0f18c650a4f,Lee Kee,53.353634468211204,-6.259146732973606,Chinese Restaurant,True
456,187,53.32551333333333,-6.271235294117648,17,11,4eb6e1b8e5fa17fc8763c68c,Dwarka,53.325286,-6.265162999999999,Indian Restaurant,True
818,549,53.35460933333334,-6.238176470588236,5,0,4eb99898f5b994cb99b44895,Da Mimmo,53.35734653107336,-6.243005343455378,Italian Restaurant,True
847,578,53.364307999999994,-6.254705882352941,9,5,4ebae03a77c8100292c677cf,Ruposhi Indian Restaurant,53.36190360831677,-6.260117430492428,Indian Restaurant,True
292,23,53.28671866666666,-6.370411764705883,20,2,4ec7c3a893ad41338d247b0e,Mahr Restaurant,53.286164650622,-6.375183738904183,Middle Eastern Restaurant,True
915,646,53.38370533333333,-6.370411764705883,11,7,4ecd4488775b0e780e27ca62,El Cordolbes,53.385671090779255,-6.373803047806705,Spanish Restaurant,True
360,91,53.29641733333333,-6.287764705882353,7,2,4ecfe23b7ee5be844a8c42ef,Top Tops Chinese,53.298863166875094,-6.28519112346364,Chinese Restaurant,True
118,118,53.34717159599906,-6.267473499976692,50,21,4ed16bde722e01c5839cc361,Griller,53.348562869074534,-6.2671510499746885,Middle Eastern Restaurant,True
36,36,53.33747292933239,-6.2674743554232935,19,9,4ed384998b81b4739a23c200,Momo's,53.338537116173974,-6.265662280703013,Middle Eastern Restaurant,True
751,482,53.35460933333334,-6.287764705882353,20,12,4ed69a24b6346530cf6ba287,Kashmir,53.352696735583976,-6.284183472010431,Indian Restaurant,True
835,566,53.364307999999994,-6.271235294117648,11,4,4edaa327d3e346be34a8ff42,Pearl River,53.36082032840362,-6.272586600942897,Asian Restaurant,True
887,618,53.37400666666666,-6.221647058823531,8,5,4ee3cc74722ea7b944919ecf,New Emperor,53.3753159585952,-6.21840419479805,Chinese Restaurant,True
300,31,53.28671866666666,-6.370411764705883,20,10,4ee4527ce5faffd731923ae3,Hakataya Noodle Shop,53.28684499999999,-6.371788,Noodle House,False
943,674,53.393404000000004,-6.386941176470589,8,5,4ee5138cf9abfc722741576c,Forchetta,53.39563332033091,-6.390232485036794,Italian Restaurant,True
368,99,53.29641733333333,-6.205117647058825,2,0,4eecdec2775b3c580ccd6deb,Yo Thai,53.296671259218705,-6.210903339606808,Asian Restaurant,True
84,84,53.34717159599906,-6.274997088258603,6,5,4eed5ebb0e01899effadb845,italisian,53.34579,-6.2756099999999995,Italian Restaurant,True
854,585,53.364307999999994,-6.238176470588236,7,3,4ef361e0469075d093ab585c,Gorgeous food,53.36261420758825,-6.242522976763147,Asian Restaurant,True
720,451,53.344910666666664,-6.238176470588236,14,9,4f02005de5faf2869dc559f5,Pearse Brasserie,53.34321454162751,-6.244142406166559,French Restaurant,True
468,199,53.32551333333333,-6.254705882352941,23,6,4f0884b1e4b026656e4a19b1,Emerald Court,53.3260010886811,-6.255703720916798,Chinese Restaurant,True
302,33,53.28671866666666,-6.370411764705883,20,12,4f0c7ab6e4b0a87afad6b41f,Kundan Tandoori,53.28767199412159,-6.365452569823539,Indian Restaurant,True
778,509,53.35460933333334,-6.254705882352941,44,4,4f1817ace4b0094a03a65b25,Wok On Inn,53.35111999511719,-6.250206470489503,Noodle House,False
816,547,53.35460933333334,-6.254705882352941,44,42,4f1945f3e4b0f066f685b1f8,The store room,53.3540821,-6.2587457,Brazilian Restaurant,True
602,333,53.344910666666664,-6.353882352941175,4,3,4f1fe7d3771650cfa5b0a685,West Lake,53.34499208413685,-6.3590240478515625,Asian Restaurant,True
332,63,53.28671866666666,-6.238176470588236,23,17,4f1ffb03771650cfa5b2d5c5,Konkan Indian Restaurant,53.28912897933071,-6.243109703063965,Indian Restaurant,True
359,90,53.29641733333333,-6.287764705882353,7,1,4f1ffbcd771650cfa5b2ec01,An Lins Garden,53.29965857336731,-6.2847161293029785,Chinese Restaurant,True
883,614,53.37400666666666,-6.221647058823531,8,1,4f201059771650cfa5b56d13,Feng Shou Chinese,53.37244815934989,-6.222338676452638,Chinese Restaurant,True
744,475,53.35460933333334,-6.287764705882353,20,5,4f2036fee5e8df85ac396661,Flame Hut,53.35744171313552,-6.28892183303833,Indian Restaurant,True
763,494,53.35460933333334,-6.271235294117648,15,4,4f214dc4d5fb4c7dde3fad04,Anatolia Turkish Kebab House,53.35562316696374,-6.265575885772705,Turkish Restaurant,True
962,693,53.40310266666667,-6.271235294117648,1,0,4f215242d5fb4c7dde4021f3,Panda Kitchen,53.405540957548574,-6.276304721832275,Chinese Restaurant,True
948,679,53.393404000000004,-6.287764705882353,2,1,4f2152eed5fb4c7dde403441,BQ Inn Chinese,53.39034142811244,-6.2879133224487305,Chinese Restaurant,True
920,651,53.38370533333333,-6.271235294117648,2,0,4f216cc0d5fb4c7dde42b478,Excellent Chinese,53.382496449804655,-6.2772274017333975,Chinese Restaurant,True
363,94,53.29641733333333,-6.287764705882353,7,5,4f218387d5fb4c7dde45051d,Chens Chinese,53.29935080233096,-6.2850379943847665,Chinese Restaurant,True
901,632,53.38370533333333,-6.403470588235294,12,8,4f218861d5fb4c7dde458d63,Indie at Home,53.38418586579584,-6.39904260635376,Indian Restaurant,True
905,636,53.38370533333333,-6.386941176470589,3,0,4f2277444fc60fecfea5c8dc,Foo Lok,53.38423705917339,-6.387498378753662,Chinese Restaurant,True
903,634,53.38370533333333,-6.403470588235294,12,10,4f2277974fc60fecfea5d2ae,Mizzoni's,53.384249857508145,-6.398634910583496,Italian Restaurant,True
893,624,53.38370533333333,-6.403470588235294,12,0,4f2278344fc60fecfea5e4ed,Spice Heaven,53.384198664146005,-6.39829158782959,Indian Restaurant,True
959,690,53.40310266666667,-6.370411764705883,2,1,4f22786c4fc60fecfea5ea82,Yu Hong House,53.39946435599043,-6.374194622039795,Chinese Restaurant,True
966,697,53.40310266666667,-6.188588235294117,2,0,4f227d994fc60fecfea6803f,Di Lucias Darndale,53.40125544454362,-6.190817356109619,Italian Restaurant,True
38,38,53.33747292933239,-6.2674743554232935,19,11,4f2287dce5e82cb9b63d3307,Feast from East,53.33871465804014,-6.266069412231445,Indian Restaurant,True
735,466,53.35460933333334,-6.370411764705883,5,2,4f228bafe5e82cb9b63da88d,Curry & Rice,53.3555847461372,-6.371383666992188,Indian Restaurant,True
734,465,53.35460933333334,-6.370411764705883,5,1,4f228df1e5e82cb9b63df312,Spicy Hut,53.3513070108645,-6.3689374923706055,Indian Restaurant,True
411,142,53.31581466666667,-6.386941176470589,5,0,4f228fcde5e82cb9b63e2c4f,Khan's Balti House,53.314339239679725,-6.388399600982666,Indian Restaurant,True
311,42,53.28671866666666,-6.353882352941175,2,1,4f229365e5e82cb9b63e9f9c,Golden World,53.28802585096114,-6.3597965240478525,Chinese Restaurant,True
310,41,53.28671866666666,-6.353882352941175,2,0,4f2293cde5e82cb9b63eabbf,Phoenix Dragon,53.286678969567994,-6.359903812408447,Chinese Restaurant,True
299,30,53.28671866666666,-6.370411764705883,20,9,4f22978ce5e82cb9b63f1212,India Gate,53.289834453472004,-6.368165016174316,Indian Restaurant,True
821,552,53.35460933333334,-6.238176470588236,5,3,4f22a0ffe5e82cb9b640498a,Indian Taste,53.353766120728295,-6.236135959625244,Indian Restaurant,True
822,553,53.35460933333334,-6.238176470588236,5,4,4f22a37fe5e82cb9b6409efd,Lin Kee,53.358146058762514,-6.241886615753174,Chinese Restaurant,True
934,665,53.38370533333333,-6.155529411764706,2,0,4f22c1a0c2ee23b9ebf03869,Good Fortune Chinese,53.38509453909667,-6.153266429901122,Chinese Restaurant,True
353,84,53.29641733333333,-6.304294117647059,6,1,4f22d07a754aa9d4032c0012,Shirleys Kitchen,53.298132520213244,-6.304028034210205,Chinese Restaurant,True
738,469,53.35460933333334,-6.304294117647059,1,0,4f22d0f0754aa9d4032c0e23,The Rising Phoenix,53.35730084261321,-6.299114227294923,Chinese Restaurant,True
773,504,53.35460933333334,-6.271235294117648,15,14,4f22d5e0754aa9d4032cb38e,Food Corner,53.350243914242185,-6.27194881439209,Italian Restaurant,True
493,224,53.335212,-6.320823529411764,4,3,4f22d6e6754aa9d4032cd424,Rasa Ethnic Cuisine,53.33941931313444,-6.32164478302002,Indian Restaurant,True
840,571,53.364307999999994,-6.271235294117648,11,9,4f22dc68754aa9d4032d8f52,Zen Wei Ton,53.36512485444066,-6.2717342376708975,Chinese Restaurant,True
876,607,53.37400666666666,-6.254705882352941,7,3,4f22dcca754aa9d4032d9bda,Starry Kitchen,53.371923279029595,-6.252915859222412,Chinese Restaurant,True
981,712,53.4225,-6.138999999999999,3,2,4f245c5fe4b04f6e691f58fd,Oriental Kitchen,53.42090862931343,-6.13857281367289,Chinese Restaurant,True
746,477,53.35460933333334,-6.287764705882353,20,7,4f2d9c1be4b00ef1a54fe60a,Basilico,53.35360673832546,-6.285787153582678,Italian Restaurant,True
931,662,53.38370533333333,-6.205117647058825,3,2,4f2eccf7e4b0ccb9143bfd40,Madhobi,53.3805270690928,-6.20995907144451,Indian Restaurant,True
860,591,53.364307999999994,-6.221647058823531,3,2,4f31ab27e4b02344c3057dc7,Kort's Dinner Table,53.36613753793527,-6.228301058144317,Swiss Restaurant,True
418,149,53.31581466666667,-6.320823529411764,4,1,4f33b968e4b001055213aa25,I Chi,53.313636857234535,-6.323070752721798,Asian Restaurant,True
562,293,53.335212,-6.254705882352941,24,4,4f3a7165e4b03d32dfae2a35,Yum Thai,53.33783140907517,-6.2528855117213835,Thai Restaurant,True
518,249,53.335212,-6.271235294117648,50,10,4f436f57e4b0804937c83734,Neon,53.335410738191186,-6.265217505941831,Thai Restaurant,True
719,450,53.344910666666664,-6.238176470588236,14,8,4f4753bbe4b0d6373fb52b02,Petit Dejeuner,53.346743292469355,-6.24367096729944,French Restaurant,True
926,657,53.38370533333333,-6.238176470588236,7,4,4f48066fe4b08f45dc5b8f5c,India Link,53.385721,-6.233884,Indian Restaurant,True
376,107,53.29641733333333,-6.155529411764706,14,6,4f4b98ba4fc67bfa5b613baa,Victoria Asian Cuisine,53.293784893388704,-6.150670051574707,Chinese Restaurant,True
338,69,53.28671866666666,-6.221647058823531,1,0,4f4bb088c2ee9f42a13eb189,Gong Chinese,53.289577918768494,-6.223368644714356,Chinese Restaurant,True
417,148,53.31581466666667,-6.320823529411764,4,0,4f4cf3216d868cc34b3b50e6,i-chi Asian Buffet,53.312390655767544,-6.320786476135254,Asian Restaurant,True
970,701,53.40310266666667,-6.172058823529412,3,2,4f4cf48c6d868cc34b3b6ed7,Pagoda Garden,53.4000784519875,-6.171162128448486,Thai Restaurant,True
271,2,53.27701999999999,-6.287764705882353,1,0,4f4cf5b36d868cc34b3b87b1,Golden Wok,53.278019432499285,-6.286604404449463,Chinese Restaurant,True
31,31,53.33747292933239,-6.2674743554232935,19,4,4f4d08386d868cc34b3ce68b,Arancino,53.33935525406154,-6.265897750854492,Italian Restaurant,True
823,554,53.35460933333334,-6.188588235294117,2,0,4f4d0a7b6d868cc34b3d0fb6,Central Kitchen,53.358146058762514,-6.192598342895508,Indian Restaurant,True
833,564,53.364307999999994,-6.271235294117648,11,2,4f4d0b236d868cc34b3d18c0,Aladdin Kebabs,53.35993888601223,-6.2726783752441415,Indian Restaurant,True
305,36,53.28671866666666,-6.370411764705883,20,15,4f5a5301e4b05eee2c022412,Oche,53.28759515054764,-6.3683724834324185,Thai Restaurant,True
603,334,53.344910666666664,-6.337352941176469,1,0,4f63a1cce4b02cbb7e430c2f,Mr. Wu,53.34282540440134,-6.339406782033223,Asian Restaurant,True
179,179,53.34264973733427,-6.267473499976692,50,32,4f64e410e4b0c7552d3d904b,Kordu,53.344606999999996,-6.267291,Greek Restaurant,True
892,623,53.37400666666666,-6.172058823529412,1,0,4f71e27ae4b0125a714fdbaa,Chicago Town,53.37664399999999,-6.175914,Italian Restaurant,True
23,23,53.33295107066761,-6.274996232812003,14,10,4f7762e0e4b0f52db911652d,Feta & Fajitas,53.33203613342163,-6.277646794769423,Greek Restaurant,True
430,161,53.31581466666667,-6.287764705882353,5,4,4f8080f5e4b020c7bdf919a1,Red Rice,53.319644,-6.290234,Chinese Restaurant,True
972,703,53.40310266666667,-6.155529411764706,2,1,4f8d8667e5e81a37dd944e24,Ravellos Pizza & Pasta,53.402595863400094,-6.15317108692052,Italian Restaurant,True
899,630,53.38370533333333,-6.403470588235294,12,6,4f8d8738e5e81a37dd9466e2,Curry Fusion,53.383622734580314,-6.39754056930542,Indian Restaurant,True
320,51,53.28671866666666,-6.238176470588236,23,5,4f8d96e7e4b02aede0821250,Ristorante Del Arte,53.28824349697014,-6.242369775206794,Italian Restaurant,True
475,206,53.32551333333333,-6.254705882352941,23,13,4fa3db7de4b0d9052471aa51,La Reserve,53.32473288338605,-6.253719195026883,French Restaurant,True
366,97,53.29641733333333,-6.238176470588236,2,0,4fa8097ee4b0fc2afce3e2ba,China Dynasty,53.29735499611507,-6.2335738584726545,Chinese Restaurant,True
91,91,53.34264973733427,-6.274997088258603,12,6,4fac47fee4b054e6d9386333,Dragon Inn,53.34292056493222,-6.276550250971012,Chinese Restaurant,True
287,18,53.28671866666666,-6.42,2,0,4fb39a13e4b06686488110cd,lake view cafe,53.29044137138775,-6.4236975091949455,Indian Restaurant,True
770,501,53.35460933333334,-6.271235294117648,15,11,4fb80d46e4b0a1f0da96cfba,New Victoria,53.35670237648098,-6.2649541136090185,Asian Restaurant,True
606,337,53.344910666666664,-6.287764705882353,5,0,4fc35b2de4b058bc48dacffe,Ri Ri Chinese Take Away,53.34744879401025,-6.289199105290601,Chinese Restaurant,True
256,256,53.34264973733427,-6.258467676493898,38,34,4fc611dbe4b035dd6514adc7,Peri Peri Restaurant,53.343348999999996,-6.2618529999999994,Brazilian Restaurant,True
733,464,53.35460933333334,-6.370411764705883,5,0,4fc640ede4b0a39ab1033501,The Roma,53.35580695003956,-6.37094565906934,Italian Restaurant,True
789,520,53.35460933333334,-6.254705882352941,44,15,4fcfbd2ce4b07502ba8f89eb,Wok In a Box,53.35400797407267,-6.2581617953436925,Chinese Restaurant,True
947,678,53.393404000000004,-6.287764705882353,2,0,4fe21924e4b0bfba62f3e462,New World,53.389934,-6.286255000000001,Chinese Restaurant,True
455,186,53.32551333333333,-6.271235294117648,17,10,4ff08319e4b03098558e34d9,Camile Thai,53.32561272812375,-6.265108946406852,Thai Restaurant,True
861,592,53.364307999999994,-6.205117647058825,1,0,50023ec9e4b0d5040ec774cb,The Brunch Club Bistro Coffee Shop Takeaway,53.36357879638672,-6.2107601165771475,Italian Restaurant,True
1021,39,53.341519272668066,-6.265592702638228,7,5,50167956e4b05d9dc94823c8,wokin,53.34130608364815,-6.2647253892744414,Asian Restaurant,True
412,143,53.31581466666667,-6.386941176470589,5,1,50267898e4b0b57d71a686f4,Pandinis,53.31430753166403,-6.392257124778342,Italian Restaurant,True
393,124,53.29641733333333,-6.138999999999999,13,9,502aac48e4b085356ac10abb,Let's Pizza,53.2926,-6.135372,Italian Restaurant,True
881,612,53.37400666666666,-6.238176470588236,2,1,502fec15e4b0bde726ab34da,Ocean Chinese,53.3714714050293,-6.238446235656737,Chinese Restaurant,True
696,427,53.344910666666664,-6.254705882352941,50,35,503224d8e4b07f473b1be4ef,Pablo Picante,53.34566671771749,-6.261936343032111,Burrito Place,False
501,232,53.335212,-6.287764705882353,10,3,5037e513e4b0be420eebda5c,Fusco's,53.338099,-6.282773000000001,Italian Restaurant,True
180,180,53.34264973733427,-6.267473499976692,50,33,5069cecce4b0e86559e13651,marhaba,53.343999739940045,-6.267268868620985,Asian Restaurant,True
965,696,53.40310266666667,-6.205117647058825,1,0,50707d9be4b0513ffd19936e,Thanh Cong,53.403117,-6.206807,Chinese Restaurant,True
479,210,53.32551333333333,-6.254705882352941,23,17,507c5531e4b04505d1fec1b7,Mak At D6,53.3251171036113,-6.255344134954406,Dim Sum Restaurant,True
298,29,53.28671866666666,-6.370411764705883,20,8,508921abe4b020a19df11d30,Mao at Home,53.286976,-6.369301999999999,Asian Restaurant,True
798,529,53.35460933333334,-6.254705882352941,44,24,5094ed27e4b00a7cdd9ff659,潮福城,53.35362243652344,-6.258842468261719,Chinese Restaurant,True
713,444,53.344910666666664,-6.238176470588236,14,2,509cf91ee4b005ecff5c79f2,J2 Grill & Sushi,53.34771247771018,-6.243839757690938,Sushi Restaurant,True
969,700,53.40310266666667,-6.172058823529412,3,1,509ea423e4b08f34f8a34653,Yan (成功),53.404058,-6.170612,Chinese Restaurant,True
731,462,53.35460933333334,-6.386941176470589,6,4,50a3dec8e4b04e2d5c75bdc7,Nando's,53.352948,-6.3908176,Portuguese Restaurant,True
805,536,53.35460933333334,-6.254705882352941,44,31,50acd23be4b013e1bd0982c7,Bonza Pies,53.35149311082451,-6.25167940777317,Australian Restaurant,True
939,670,53.393404000000004,-6.386941176470589,8,1,50b9fe9ee4b0e015e5109be3,Nando's,53.39185529,-6.39072843,Portuguese Restaurant,True
117,117,53.34717159599906,-6.267473499976692,50,20,50bdf9d5e4b090d00b4ad81b,Wokin Noodle Bar,53.34727343486594,-6.265513959491843,Asian Restaurant,True
754,485,53.35460933333334,-6.287764705882353,20,15,50ca48a4e4b029bc957515bc,Chess,53.35598425219721,-6.287510356723389,Chinese Restaurant,True
779,510,53.35460933333334,-6.254705882352941,44,5,50d0caece4b01ebdbbeb691a,Pho Viet,53.352908,-6.260928,Vietnamese Restaurant,True
500,231,53.335212,-6.287764705882353,10,2,50d52117e4b0275bcc9d598b,Tandoori Masala,53.33395896954936,-6.292034145321133,Indian Restaurant,True
727,458,53.35460933333334,-6.386941176470589,6,0,50d75916e4b0e2533efc27d0,saburritos,53.35314559936523,-6.3908514976501465,Burrito Place,False
396,127,53.29641733333333,-6.138999999999999,13,12,50e88367e4b03e4441fdd047,Travel Cafe & Restaurant,53.29496717575539,-6.1356437112421025,Italian Restaurant,True
1015,33,53.34378020200047,-6.265592702638228,27,26,50eefe47e4b02636f5b8cfc5,South American Shop,53.344221187420864,-6.264713994806727,Argentinian Restaurant,True
851,582,53.364307999999994,-6.238176470588236,7,0,510819d6e4b05f603562d825,Tuk,53.363161669171475,-6.235936168873423,Asian Restaurant,True
764,495,53.35460933333334,-6.271235294117648,15,5,510d1f4be4b0a3ee4992d796,Keyif Kebab,53.35619944109486,-6.2653723691488485,Turkish Restaurant,True
374,105,53.29641733333333,-6.155529411764706,14,4,510e895ae4b0681bb84ff304,That's Amore,53.293615596258576,-6.154144223422519,Italian Restaurant,True
897,628,53.38370533333333,-6.403470588235294,12,4,511802c8e4b01c594ae3f934,KK Kitchen,53.38309097290039,-6.4010515213012695,African Restaurant,True
473,204,53.32551333333333,-6.254705882352941,23,11,512e100be4b00b7b11fa76c1,Noodlemee,53.324962088865355,-6.2537853455132755,Asian Restaurant,True
743,474,53.35460933333334,-6.287764705882353,20,4,51325776e4b06bad518f2ae8,New Sunrise Takeaway,53.35157775878906,-6.2832093238830575,Chinese Restaurant,True
834,565,53.364307999999994,-6.271235294117648,11,3,513268bae4b0e80cdbe24461,Vagya Restaurant,53.36808660172249,-6.270544540274985,Indian Restaurant,True
377,108,53.29641733333333,-6.155529411764706,14,7,513f7002e4b0023ee1486f8c,Chef Ville,53.293925,-6.152712999999999,Indian Restaurant,True
846,577,53.364307999999994,-6.254705882352941,9,4,514a46fae4b08933b7f0fea7,Thaicoon,53.36351546963329,-6.257776497495358,Thai Restaurant,True
232,232,53.34264973733427,-6.258467676493898,38,10,5159cbe9e4b086af777dfcce,Spice of India,53.34270410072397,-6.262168760242707,Indian Restaurant,True
355,86,53.29641733333333,-6.304294117647059,6,3,5159e573e4b04e4afa989025,Diep,53.29836705942237,-6.303728434471745,Asian Restaurant,True
433,164,53.31581466666667,-6.271235294117648,5,2,5160856fe4b05edd0be4727d,Mehek,53.313522999999996,-6.273174,Indian Restaurant,True
810,541,53.35460933333334,-6.254705882352941,44,36,5165a47ee4b060e54f4e460c,Noodle Box,53.35026562472307,-6.254476598558804,Chinese Restaurant,True
804,535,53.35460933333334,-6.254705882352941,44,30,5173df34498e908f7171b658,İstanbull Kebab & Pizza,53.35068371594879,-6.255038357801063,Turkish Restaurant,True
96,96,53.34264973733427,-6.274997088258603,12,11,5182955e498e966ce304b89a,Curry and Kebab,53.34280370895336,-6.276685715900081,Indian Restaurant,True
760,491,53.35460933333334,-6.271235294117648,15,1,518cf426498edfc9a8f0d3cb,Chopsticks Hallal,53.35212081183981,-6.267596190195503,Chinese Restaurant,True
375,106,53.29641733333333,-6.155529411764706,14,5,519001ec498ed1b8e5242aa0,L'amore,53.29395294189453,-6.153779983520508,Italian Restaurant,True
671,402,53.344910666666664,-6.254705882352941,50,10,51955e89498e30a47e57d4e0,Banyi Japanese Dining,53.345854132753885,-6.261795992818935,Japanese Restaurant,True
442,173,53.32551333333333,-6.320823529411764,2,0,51abc771498ef2b8d2110365,Excellent,53.32531899999999,-6.321192,Chinese Restaurant,True
806,537,53.35460933333334,-6.254705882352941,44,32,51ac9576498e76e3330dea0d,Il Capo,53.35119316524831,-6.251792358914129,Italian Restaurant,True
505,236,53.335212,-6.287764705882353,10,7,51cc787d498e238bdf346d3b,Pen Tower Takeaway,53.334230000000005,-6.292174,Chinese Restaurant,True
977,708,53.4225,-6.238176470588236,2,0,51d44395498e147a981eaa57,Wine & Deli Bar,53.42561680621449,-6.240523896886251,Italian Restaurant,True
917,648,53.38370533333333,-6.370411764705883,11,9,51d72b0d498e73f759bccdd1,Wan's Chinese Takeaway,53.385868,-6.37622,Chinese Restaurant,True
737,468,53.35460933333334,-6.370411764705883,5,4,51ddc7ff498e4db6b8137b45,Far East Chinese-Takeaway,53.35551476844271,-6.3712942698568025,Asian Restaurant,True
313,44,53.28671866666666,-6.304294117647059,1,0,51f3088d498e0e11b7614a5f,Ming's,53.28964778495181,-6.309858156889829,Chinese Restaurant,True
440,171,53.32551333333333,-6.42,1,0,51f58faf498e4473f7496b5a,Roma Takeaway,53.32558778089103,-6.425764786466801,Italian Restaurant,True
938,669,53.393404000000004,-6.386941176470589,8,0,51f69f1d498e46db4941d44e,Milano,53.391571,-6.390697,Italian Restaurant,True
967,698,53.40310266666667,-6.188588235294117,2,1,51fb7690498e402ddbbde322,Hy,53.40512709890457,-6.182400920435888,American Restaurant,True
855,586,53.364307999999994,-6.238176470588236,7,4,520f7b6011d2383ea592a6e6,Italian's Kitchen,53.363621794467115,-6.234676703013316,Italian Restaurant,True
289,20,53.28671866666666,-6.403470588235294,1,0,520fda6b11d2ac3f4d161d17,Golden Palace,53.285008662734796,-6.40664891516405,Chinese Restaurant,True
765,496,53.35460933333334,-6.271235294117648,15,6,5215fe5311d2e14934e2c2fb,Samba Brazilian Restaurant & Steak House,53.35558878092542,-6.2656891877899845,Brazilian Restaurant,True
187,187,53.34264973733427,-6.267473499976692,50,40,521a7a6911d2b4626a1719fb,Lebanese Chef,53.342955488409004,-6.264371750132773,Lebanese Restaurant,True
449,180,53.32551333333333,-6.271235294117648,17,4,5220a53a11d21d8bc29c3d4b,Hx46,53.327560096995455,-6.2772526911862725,Asian Restaurant,True
220,220,53.34717159599906,-6.258467676493898,22,20,5220d50411d2293cbeef1654,Terra Madre,53.34674386710065,-6.261849757652849,Italian Restaurant,True
378,109,53.29641733333333,-6.155529411764706,14,8,5220e7d911d2609f4f24375e,Panlasang Pinoy,53.294038,-6.152616,Filipino Restaurant,True
276,7,53.27701999999999,-6.221647058823531,6,1,523207c911d2688bcaff978e,Michie Sushi,53.277301765503815,-6.217334117905308,Sushi Restaurant,True
957,688,53.40310266666667,-6.386941176470589,1,0,52359a9811d29d5ffe663c3b,Guernika,53.402078426995004,-6.385381966752924,Portuguese Restaurant,True
1030,48,53.34717159599906,-6.267473499976692,8,7,52359c6011d2d4fcaa276407,Doppio Zero,53.34737458117922,-6.26776555224751,Pizza Place,False
777,508,53.35460933333334,-6.254705882352941,44,3,524d9fff498e92eacf9b0f9a,HanYang,53.353735,-6.258744999999999,Asian Restaurant,True
803,534,53.35460933333334,-6.254705882352941,44,29,525b1f75498e5585e4320142,LAO Hot Pot,53.353644755796324,-6.258949832153032,Asian Restaurant,True
345,76,53.28671866666666,-6.205117647058825,8,6,525fd818498edd3e88589aff,Mao,53.28923894971028,-6.199404715075795,Thai Restaurant,True
566,297,53.335212,-6.254705882352941,24,8,5267b2d011d2eabfd20279ff,Etto,53.338266350160225,-6.253948036936138,Modern European Restaurant,True
577,308,53.335212,-6.254705882352941,24,19,526c131b11d29c8e89095503,La Mére zou,53.337506000000005,-6.260892,French Restaurant,True
308,39,53.28671866666666,-6.370411764705883,20,18,527b8b9311d2c62ce0071ff6,Ginthai Thai and Asian,53.285574,-6.366688,Asian Restaurant,True
57,57,53.33295107066761,-6.2674743554232935,19,11,527e607911d2e567d2a2ae35,Feijoada do Edinho,53.33197402954102,-6.264771938323975,Brazilian Restaurant,True
774,505,53.35460933333334,-6.254705882352941,44,0,528d27d811d26b17eaddeaaa,Wallace's Asti,53.3588544865113,-6.2544496809390475,Italian Restaurant,True
258,258,53.34264973733427,-6.258467676493898,38,36,528e701711d2da6dcb610905,The Dawson Brasserie,53.34069964683128,-6.258316133783293,French Restaurant,True
979,710,53.4225,-6.138999999999999,3,0,528fc2dd11d25591ae8dd662,India Link,53.421921999999995,-6.136138,Indian Restaurant,True
826,557,53.364307999999994,-6.304294117647059,2,0,52b608e5498ee1f535fed8b2,Lucky Dragon,53.36727523803711,-6.299032688140869,Chinese Restaurant,True
12,12,53.33747292933239,-6.274996232812003,4,3,52cdba8c498e68e237f69cac,Diep At Home,53.3375997433955,-6.273403292392348,Thai Restaurant,True
557,288,53.335212,-6.271235294117648,50,49,52fd36e5498e09774f8c4f90,Jerusalem,53.335446206140034,-6.26533395771762,Middle Eastern Restaurant,True
828,559,53.364307999999994,-6.287764705882353,3,0,52fe89ba498ee61e2f7f50b4,Flaming Phoenix,53.36693954467773,-6.293468475341798,Chinese Restaurant,True
825,556,53.364307999999994,-6.320823529411764,1,0,52ffcd1411d24e4a0c83b280,Phoenix Court,53.36509722749197,-6.319276590267772,Chinese Restaurant,True
911,642,53.38370533333333,-6.370411764705883,11,3,5307a31f11d232abde343251,Taste of Italy,53.386545862829536,-6.375731557552996,Italian Restaurant,True
736,467,53.35460933333334,-6.370411764705883,5,3,530a63fc11d2d04bbf0a66d7,Kung Fu Kitchen,53.351299,-6.367733,Chinese Restaurant,True
414,145,53.31581466666667,-6.386941176470589,5,3,530e46d9498ec7991a2c7ca0,legendry,53.31435312652197,-6.391877617669763,Chinese Restaurant,True
191,191,53.34264973733427,-6.267473499976692,50,44,533340b1498e0ba1748b2cf4,Fiorentina,53.34419504332779,-6.267323440726006,Italian Restaurant,True
343,74,53.28671866666666,-6.205117647058825,8,4,533fe26b498e410951343db0,C Aprille Restaurant,53.28863208701853,-6.199477143435987,Italian Restaurant,True
481,212,53.32551333333333,-6.254705882352941,23,19,53405f97498e5a7d3ece42c0,salt lick,53.324790829612894,-6.253622709719124,Arepa Restaurant,True
474,205,53.32551333333333,-6.254705882352941,23,12,5345abe3498e77a76cdbbce8,Rasoi Indian To Go,53.32516999999999,-6.254991,Indian Restaurant,True
722,453,53.344910666666664,-6.238176470588236,14,11,535d454b498e0b69caa657b7,Sevinc'in Mutfağı,53.3451985168631,-6.238322651194076,Turkish Restaurant,True
676,407,53.344910666666664,-6.254705882352941,50,15,536f54b1498e2e4d0701fab8,Il Fornaio,53.34430612313669,-6.261965891808409,Coffee Shop,False
434,165,53.31581466666667,-6.271235294117648,5,3,537f99c6498e77bc15ea01e4,I Monelli,53.31196800000001,-6.274808,Italian Restaurant,True
156,156,53.34264973733427,-6.267473499976692,50,9,5386097c498e5a8cd9ed588a,Duck,53.342037,-6.2639074,Chinese Restaurant,True
953,684,53.393404000000004,-6.254705882352941,5,4,538a4154498eed7dcdb0a20f,Camile Thai,53.39293636511947,-6.2489770483585785,Thai Restaurant,True
141,141,53.34717159599906,-6.267473499976692,50,44,539dec23498e79c674757e84,woking,53.34723,-6.265327,Asian Restaurant,True
958,689,53.40310266666667,-6.370411764705883,2,0,53ac67be498e6076ef186db1,Fiorentina,53.40340997788327,-6.364640800011531,Italian Restaurant,True
424,155,53.31581466666667,-6.304294117647059,5,3,53b9d76d498e69be2ef8b2d9,Elbahia,53.31329727172852,-6.3018245697021475,Moroccan Restaurant,True
604,335,53.344910666666664,-6.304294117647059,2,0,53c2e439498e0dff1b410a87,Cigerci Kenan Usta,53.34432983398438,-6.297975540161133,Argentinian Restaurant,True
576,307,53.335212,-6.254705882352941,24,18,53ccf397498ebb12c15b2ed0,adelcourt,53.333059999999996,-6.248889999999988,Arepa Restaurant,True
1012,30,53.34378020200047,-6.265592702638228,27,23,53dbdc77498ef9ec1881d5ac,Hai Lan,53.34420678555415,-6.265408809061962,Korean Restaurant,True
307,38,53.28671866666666,-6.370411764705883,20,17,53e77c44498ec76ed5e7ad4e,El Porko Loco,53.287002627815426,-6.371656802863478,Burrito Place,False
423,154,53.31581466666667,-6.304294117647059,5,2,53edf289498edca69005b7c4,Aussie Outback,53.314988,-6.30084,Australian Restaurant,True
812,543,53.35460933333334,-6.254705882352941,44,38,53f0dab8498ec8bf7602a3ef,Kanoodle,53.35326158781666,-6.259529067308017,Asian Restaurant,True
930,661,53.38370533333333,-6.205117647058825,3,1,542d8abd498e09e9d070c498,Swords Garden Chinese,53.380890411769364,-6.208029823762346,Chinese Restaurant,True
226,226,53.34264973733427,-6.258467676493898,38,4,54426aa3498e28f66d4b4353,Dolce Sicily,53.340942000000005,-6.2587720000000004,Café,False
318,49,53.28671866666666,-6.238176470588236,23,3,545655bc498ea5abfa04928a,Hailan Japanese Restaurant,53.289328688435795,-6.243751643526089,Japanese Restaurant,True
93,93,53.34264973733427,-6.274997088258603,12,8,546df571498e2e24993c2dad,Caffé Comino,53.34318542480469,-6.27616024017334,Italian Restaurant,True
290,21,53.28671866666666,-6.370411764705883,20,0,5470d887498ea81c5eda84e4,Aussie Outback,53.28640365536811,-6.375031074699957,Australian Restaurant,True
242,242,53.34264973733427,-6.258467676493898,38,20,547b3524498edded454a52db,Spicy Of Indian,53.342752000000004,-6.2621459999999995,Indian Restaurant,True
950,681,53.393404000000004,-6.254705882352941,5,1,5481fb53498e2f6041a68a84,Nando's,53.39233338,-6.250452,Portuguese Restaurant,True
575,306,53.335212,-6.254705882352941,24,17,5491f838498e664c8de3a566,Xico,53.33791902130906,-6.252706059790393,Mexican Restaurant,True
799,530,53.35460933333334,-6.254705882352941,44,25,54c2b476498e10787b85a779,Jojo's,53.35365295410156,-6.258663654327393,Chinese Restaurant,True
457,188,53.32551333333333,-6.271235294117648,17,12,54dcc071498e03fa29876e33,Tolteca,53.32322799615692,-6.26560913487961,Mexican Restaurant,True
496,227,53.335212,-6.304294117647059,4,2,54de14f2498eb547d6348463,Rialto Malaysian Chinese Takeaway,53.33594989436363,-6.297903704182995,Chinese Restaurant,True
309,40,53.28671866666666,-6.370411764705883,20,19,54f5ff25498eee88538f37a6,Nando's,53.28704026,-6.37179924,Portuguese Restaurant,True
502,233,53.335212,-6.287764705882353,10,4,550348e0498ec719aad1b212,Tranquilo Restaurant,53.33779416830379,-6.293926437175504,Asian Restaurant,True
782,513,53.35460933333334,-6.254705882352941,44,8,5507450c498e5ec9cae81e19,Dera Restaurant,53.35369113853729,-6.260155284658482,North Indian Restaurant,True
793,524,53.35460933333334,-6.254705882352941,44,19,550894e3498e623642aa87fa,Masala Twist,53.357330000000005,-6.256747,Indian Restaurant,True
458,189,53.32551333333333,-6.271235294117648,17,13,551050ff498e575e67a9ee6a,Tadka House,53.32557497749746,-6.2651685864586115,North Indian Restaurant,True
813,544,53.35460933333334,-6.254705882352941,44,39,5516a003498ee5f4d3de819e,Sichuan Chili King,53.353456742048365,-6.2591599027811275,Szechuan Restaurant,True
925,656,53.38370533333333,-6.238176470588236,7,3,55185fc7498e3df96a15a19b,Beaumont Chinese,53.386011860098286,-6.234090177357838,Chinese Restaurant,True
830,561,53.364307999999994,-6.287764705882353,3,2,552444d0498eba4f9a69f34e,Rainbow,53.361276000000004,-6.284698000000001,Chinese Restaurant,True
726,457,53.35460933333334,-6.403470588235294,2,1,5529096e498ed7107333157f,Café Gusto,53.355487583660405,-6.401711868154153,Italian Restaurant,True
136,136,53.34717159599906,-6.267473499976692,50,39,552d6a9e498ecac13b8041c4,Bread & Bones,53.346992517533685,-6.265332956476661,Asian Restaurant,True
875,606,53.37400666666666,-6.254705882352941,7,2,553bee00498e3d6a13ae59a8,casa del toro,53.371601,-6.253125,Tapas Restaurant,True
721,452,53.344910666666664,-6.238176470588236,14,10,5543e3cb498e294ba1d2e0a8,EAST,53.34794853570335,-6.243669612957497,Asian Restaurant,True
964,695,53.40310266666667,-6.238176470588236,2,1,556f4bd6498e1869dcad82b4,Oka Restaurant,53.40403996592916,-6.234055537494048,Asian Restaurant,True
428,159,53.31581466666667,-6.287764705882353,5,2,5592e052498e105321945369,Jade House,53.319823,-6.291151,Chinese Restaurant,True
172,172,53.34264973733427,-6.267473499976692,50,25,55a15c0f498e2941786f677c,Taste at Rustic,53.34301646067142,-6.264292795324801,Japanese Restaurant,True
277,8,53.27701999999999,-6.221647058823531,6,2,55a7f682498e11da1a9ac2af,Mango Tree,53.277420250174465,-6.216207580165262,Thai Restaurant,True
807,538,53.35460933333334,-6.254705882352941,44,33,55c60783498ebb44905b36ab,Yang's Chinese Restaurant,53.35369873046875,-6.25847053527832,Chinese Restaurant,True
339,70,53.28671866666666,-6.205117647058825,8,0,55c6417c498ef932c0156dc3,Utsav,53.288389,-6.2050410000000005,Indian Restaurant,True
895,626,53.38370533333333,-6.403470588235294,12,2,55c673bb498e3f3d63383d6e,Chef Thai & Chinese Take Away,53.383165000000005,-6.400195,Chinese Restaurant,True
361,92,53.29641733333333,-6.287764705882353,7,3,55cb8033498e415e2f6bc6e4,Camile Thai,53.295646,-6.2852,Thai Restaurant,True
410,141,53.31581466666667,-6.403470588235294,1,0,56045779498eb2f1f44ef66d,Canton house,53.31375298122103,-6.401302333117214,Cantonese Restaurant,True
588,319,53.335212,-6.238176470588236,13,6,561b974c498e1a6725986220,Zakura Noodle & Sushi,53.33382739335188,-6.244926075095207,Japanese Restaurant,True
49,49,53.33295107066761,-6.2674743554232935,19,3,561bc967498e07b11e7af1f1,Aoki,53.33218643734303,-6.264652180158588,Sushi Restaurant,True
848,579,53.364307999999994,-6.254705882352941,9,6,56463175498e4ed35d1d9794,Jalapeno,53.363617000000005,-6.257989,Burrito Place,False
567,298,53.335212,-6.254705882352941,24,9,564e46d4498edada2eba2dbf,Suesey Street,53.33273148349633,-6.25246199337057,French Restaurant,True
582,313,53.335212,-6.238176470588236,13,0,566c1714498ed2e93ae45b66,Angelina's,53.334645414807795,-6.244350540548963,Italian Restaurant,True
89,89,53.34264973733427,-6.274997088258603,12,4,5672be5e498e4d44f79a29a1,Luncheonette,53.34300906065551,-6.278230218225316,Modern European Restaurant,True
192,192,53.34264973733427,-6.267473499976692,50,45,56754cfb498ec861116926c6,Aperitivo,53.34441563196972,-6.2672810463536335,Italian Restaurant,True
352,83,53.29641733333333,-6.304294117647059,6,0,568abd09498e2cdedbd1984e,Fifty50,53.298377,-6.304201,Mediterranean Restaurant,True
976,707,53.4225,-6.386941176470589,2,1,568b28c7498e00fbbda9c5fa,Village Park,53.420007,-6.382546,Asian Restaurant,True
829,560,53.364307999999994,-6.287764705882353,3,1,568d60ee498ea3880d955e4e,Gourmet Kitchen,53.366875,-6.292783999999999,Chinese Restaurant,True
922,653,53.38370533333333,-6.238176470588236,7,0,5696b273498e7ea36bb83d63,Delight City,53.38578586542122,-6.233859505042101,Chinese Restaurant,True
601,332,53.344910666666664,-6.353882352941175,4,2,5697f9ff498ed9c3ae05f349,Food Inn,53.34258014653294,-6.358006549957211,Chinese Restaurant,True
340,71,53.28671866666666,-6.205117647058825,8,1,56a002e0498eea01c3fd6df1,Aoshima,53.28858214209204,-6.205334192227345,Sushi Restaurant,True
916,647,53.38370533333333,-6.370411764705883,11,8,56a7e0dc498e492870c4a94f,Foo Lok,53.385642000000004,-6.3732690000000005,Chinese Restaurant,True
880,611,53.37400666666666,-6.238176470588236,2,0,56b3f745498e123dc7de9838,Hong Kee,53.37707189982343,-6.2420101740783345,Chinese Restaurant,True
586,317,53.335212,-6.238176470588236,13,4,56b75a2a498eab3cc1c52b3d,Kerala Kitchen,53.33385499886855,-6.244952209992049,Indian Restaurant,True
120,120,53.34717159599906,-6.267473499976692,50,23,56d89dc8cd1054a0b3ffc1a9,10 Thousand Asian Food Restaurant,53.34788589335125,-6.264045503758554,Asian Restaurant,True
592,323,53.335212,-6.238176470588236,13,10,56eb0b85498e64058fc58fa4,Saba,53.333481567747704,-6.243921730883121,Thai Restaurant,True
190,190,53.34264973733427,-6.267473499976692,50,43,56ed9201498e4f224492f47f,Rafa's Temaki,53.3446483283918,-6.267454842498932,Sushi Restaurant,True
306,37,53.28671866666666,-6.370411764705883,20,16,56ef08b6498eaa1cd8ca98f9,Aussie BBQ,53.286725,-6.370458999999999,Australian Restaurant,True
581,312,53.335212,-6.254705882352941,24,23,56f283dd498e3e22fd1e1961,Zambrero,53.33378710542946,-6.261518329237043,Mexican Restaurant,True
730,461,53.35460933333334,-6.386941176470589,6,3,56f55dc6498e3c2fc3dfacd3,TGI Fridays,53.35615153316499,-6.391611658186903,American Restaurant,True
77,77,53.344910666666664,-6.271235294117648,14,12,56ffbb64498e5a57bf33c14e,Pinocchio,53.34469,-6.268174,Italian Restaurant,True
612,343,53.344910666666664,-6.271235294117648,50,1,5700f986498ed4402814a8b3,Rosa Madre,53.3448742573452,-6.263819740173807,Italian Restaurant,True
923,654,53.38370533333333,-6.238176470588236,7,1,570bdb4dcd1027f1f262a7ff,Gourmet Kitchen,53.38169397628185,-6.241286002251888,Chinese Restaurant,True
288,19,53.28671866666666,-6.42,2,1,570cf2d4498e74ac2c96a7d6,Cantina,53.287878000000006,-6.423742,Mexican Restaurant,True
327,58,53.28671866666666,-6.238176470588236,23,12,5717c937498e9e93458efbd4,Zizzi,53.28866800000001,-6.244164,Italian Restaurant,True
346,77,53.28671866666666,-6.205117647058825,8,7,57263a05498e6edbc260367a,Casanova's Wood Fired Pizza,53.288433966854384,-6.1993155168920575,Pizza Place,False
416,147,53.31581466666667,-6.337352941176469,1,0,572b7116498ef9d37f3535e6,Roundabout,53.316844999999994,-6.333111,Chinese Restaurant,True
563,294,53.335212,-6.254705882352941,24,5,57338e54498e8afca1fa859a,Cirillo's,53.337865530716456,-6.2525190586981765,Italian Restaurant,True
1029,47,53.34717159599906,-6.267473499976692,8,6,573db5d8498ec17ea1b8c78f,Brothers Dosirak,53.34766236760908,-6.2681210956150855,Korean Restaurant,True
918,649,53.38370533333333,-6.370411764705883,11,10,573e06f5498eaa418ed898bb,Camile,53.38611517365744,-6.375256776809692,Thai Restaurant,True
391,122,53.29641733333333,-6.138999999999999,13,7,5745e213498e05fa7a1a1fe6,Delhi Rasoi,53.295077,-6.143999,Indian Restaurant,True
767,498,53.35460933333334,-6.271235294117648,15,8,5749f1ae498e18da8ec4b45b,El Patron,53.350662,-6.2708497,Mexican Restaurant,True
896,627,53.38370533333333,-6.403470588235294,12,3,576fefb2498e954081d88591,Hidden Treasure Cuisine,53.38485,-6.39769,Asian Restaurant,True
55,55,53.33295107066761,-6.2674743554232935,19,9,5785572ccd1097a7fec86161,El Rio,53.332687,-6.2639747,Burrito Place,False
870,601,53.37400666666666,-6.304294117647059,1,0,578e1a42498e9417e55278e7,Gringo's,53.375655,-6.30122,Mexican Restaurant,True
732,463,53.35460933333334,-6.386941176470589,6,5,579f3111498e3273878f1ea1,Milano,53.3526749,-6.3936426,Pizza Place,False
781,512,53.35460933333334,-6.254705882352941,44,7,57af6f81498e4bc46e9f8be7,Sopot,53.35737099999999,-6.256776,Polish Restaurant,True
453,184,53.32551333333333,-6.271235294117648,17,8,57b88b55498ecea4b73c7b80,Grill 201,53.322424912626865,-6.265789389217389,Modern European Restaurant,True
448,179,53.32551333333333,-6.271235294117648,17,3,57c1a724498e34ec25fb458d,Umi Falafel,53.32460317198452,-6.26523995106604,Falafel Restaurant,True
296,27,53.28671866666666,-6.370411764705883,20,6,57daa008498ef451cce7758d,Peachtree East,53.288430000000005,-6.373954,Modern European Restaurant,True
802,533,53.35460933333334,-6.254705882352941,44,28,57ed6233498e7d49d3f13efa,Saigon CITY,53.35195,-6.2497,Vietnamese Restaurant,True
41,41,53.33747292933239,-6.2674743554232935,19,14,57f544f4498e9282a9682873,Afghan Restaurant,53.338609999999996,-6.2658777,Afghan Restaurant,True
801,532,53.35460933333334,-6.254705882352941,44,27,57fcbb5b498e972faf710c7f,Wok Station,53.353837,-6.2583400000000005,Cantonese Restaurant,True
755,486,53.35460933333334,-6.287764705882353,20,16,5800c867d67cc1f3e9e14078,BQR Marketfood,53.353714000000004,-6.285719,American Restaurant,True
389,120,53.29641733333333,-6.138999999999999,13,5,580e8aa338fa0defaa95700a,Avocado Chinese Asian Kitchen,53.29302,-6.1371107,Asian Restaurant,True
278,9,53.27701999999999,-6.221647058823531,6,3,582893d626d44f3396db30c1,Musashi,53.27687882072121,-6.218559808283636,Japanese Restaurant,True
516,247,53.335212,-6.271235294117648,50,8,582caf96d21e034889796cf3,Hang Dai Chinese,53.33521738452204,-6.265130536287104,Chinese Restaurant,True
425,156,53.31581466666667,-6.304294117647059,5,4,583b41936cea3f6266fba9d4,May Man,53.314539,-6.300661,Chinese Restaurant,True
283,14,53.27701999999999,-6.205117647058825,3,2,583b61f24bafb719b00c6373,Wraps & Rolls,53.277717,-6.211282,Mediterranean Restaurant,True
871,602,53.37400666666666,-6.271235294117648,2,0,583dbe6555d6226148dce65c,Cafe Italya,53.375588,-6.269895,Italian Restaurant,True
928,659,53.38370533333333,-6.238176470588236,7,6,58432675d25ded6f329c8e2c,Far East Chinese Takeaway,53.387809999999995,-6.2386265,Asian Restaurant,True
894,625,53.38370533333333,-6.403470588235294,12,1,584b08ef4ca49b33ed3e8c52,Blue Elephant,53.383029,-6.409406,Asian Restaurant,True
329,60,53.28671866666666,-6.238176470588236,23,14,584d647f23188e0c091c75b7,OXÂCA,53.288341,-6.243661,Mexican Restaurant,True
319,50,53.28671866666666,-6.238176470588236,23,4,5867aeb392ca4c7f6f9c542b,Kanoodle,53.287312,-6.242662,Noodle House,False
303,34,53.28671866666666,-6.370411764705883,20,13,5884ed2889151d20aa95e603,Ginzeng,53.286543,-6.372649,Asian Restaurant,True
321,52,53.28671866666666,-6.238176470588236,23,6,58aae156e18e6533fdb0b0cc,Long Sin Takeaway,53.28903406018087,-6.24320840848668,Asian Restaurant,True
293,24,53.28671866666666,-6.370411764705883,20,3,58ad8c2bfc73d42fbcd7fb87,Mams Indian Restaurant,53.28599120987711,-6.375691294670105,Indian Restaurant,True
949,680,53.393404000000004,-6.254705882352941,5,0,58b40bb6076be15eeb6dc5e7,Zao Restaurant - Authentic Thai Cuisine,53.39196757630766,-6.248023509979247,Asian Restaurant,True
889,620,53.37400666666666,-6.221647058823531,8,7,58d429be95383907db504ac0,Camile Thai,53.376315000000005,-6.217547,Thai Restaurant,True
62,62,53.33295107066761,-6.2674743554232935,19,16,58d66a8cc30f7951971ab325,Pow Bao,53.331881,-6.264429,Asian Restaurant,True
808,539,53.35460933333334,-6.254705882352941,44,34,58d80c55f85724052006a30b,Shi Wang Yun,53.353744999999996,-6.2584615,Chinese Restaurant,True
574,305,53.335212,-6.254705882352941,24,16,58d8ff008ee560562cbe6fe3,Kokoro,53.338333999999996,-6.253349,Japanese Restaurant,True
158,158,53.34264973733427,-6.267473499976692,50,11,58dc0cad88cfcc5545560b99,Nolita,53.342469825259286,-6.264786963524928,Italian Restaurant,True
106,106,53.34717159599906,-6.267473499976692,50,9,58de509744587f5a0861ef98,Takara,53.347916889134396,-6.264157286811007,Japanese Restaurant,True
555,286,53.335212,-6.271235294117648,50,47,58e00b14d772f933eabee308,Morö Kitchen,53.335156000000005,-6.265043,Moroccan Restaurant,True
464,195,53.32551333333333,-6.254705882352941,23,2,58e8df44e9233e15915951da,Nightmarket,53.323893000000005,-6.251195,Thai Restaurant,True
750,481,53.35460933333334,-6.287764705882353,20,11,58f0f0c6588e360d80d6d03f,The Chilli Shack,53.353768,-6.285789,American Restaurant,True
579,310,53.335212,-6.254705882352941,24,21,58f8ef3698fbfc224d0d1092,Urchin,53.339164000000004,-6.257169,Seafood Restaurant,True
1010,28,53.34378020200047,-6.265592702638228,27,21,5900e885d7627e48e58ee50f,Kostas,53.344324,-6.265789,Greek Restaurant,True
694,425,53.344910666666664,-6.254705882352941,50,33,5923d7f90d2be70573f5c755,Zambrero,53.343695,-6.247475,Burrito Place,False
344,75,53.28671866666666,-6.205117647058825,8,5,593c074767af3a7da0e8c065,Camile Thai,53.288531000000006,-6.199284,Thai Restaurant,True
326,57,53.28671866666666,-6.238176470588236,23,11,5948e2b117556232c316e2ab,Marvin.ie,53.2891674600388,-6.243635416030884,Chinese Restaurant,True
334,65,53.28671866666666,-6.238176470588236,23,19,594ba38795da0c08d9ea0a25,SweetChurro,53.288083573500614,-6.242761015892028,Dessert Shop,False
975,706,53.4225,-6.386941176470589,2,0,59a5b0bee97dfb1045fd5eb6,Chef,53.41984300000001,-6.3818269999999995,Chinese Restaurant,True
401,132,53.306116,-6.287764705882353,4,2,59a6de63e1f228199504b19a,Burrito Bros,53.309433,-6.2843113,Burrito Place,False
461,192,53.32551333333333,-6.271235294117648,17,16,59b1aab5872f7d6a67267db4,Shakshuka,53.32216,-6.266478,Middle Eastern Restaurant,True
712,443,53.344910666666664,-6.238176470588236,14,1,59e796441ffe973e32b2195d,Boojum,53.34433016754471,-6.2374962994606,Burrito Place,False
884,615,53.37400666666666,-6.221647058823531,8,2,59e7b2c7a6031c48a48a2669,Fragrant City,53.372756,-6.222273,Chinese Restaurant,True
126,126,53.34717159599906,-6.267473499976692,50,29,59f483fd6cf01a350b17b2a3,Baba’s Deli,53.348665000000004,-6.267675,South Indian Restaurant,True
742,473,53.35460933333334,-6.287764705882353,20,3,5a01e3a54c954c769eb4d718,Hub Himalayan,53.357552,-6.288525,Asian Restaurant,True
587,318,53.335212,-6.238176470588236,13,5,5a036cc60531e87774aa7096,Sanook,53.333513,-6.243873000000001,Thai Restaurant,True
280,11,53.27701999999999,-6.221647058823531,6,5,5a073694b8fd9d6364bb25cb,Zambrero,53.276978,-6.2166233,Burrito Place,False
904,635,53.38370533333333,-6.403470588235294,12,11,5a2af5eb9be5227578c4f470,Biryani House,53.383143999999994,-6.398265,Indian Restaurant,True
974,705,53.41280133333333,-6.221647058823531,2,1,5a3a817a029a550551ddd213,The Italian Kitchen,53.41198760270909,-6.218605041503906,Italian Restaurant,True
879,610,53.37400666666666,-6.254705882352941,7,6,5a47d6392632ec1141d12f30,San Sab,53.371515,-6.253085,Thai Restaurant,True
973,704,53.41280133333333,-6.221647058823531,2,0,5a5c91055455b2768becafd5,The Italian Kitchen,53.411629481386385,-6.218208074569702,Italian Restaurant,True
367,98,53.29641733333333,-6.238176470588236,2,1,5a6f0a506a595012d8344f9a,Hx46,53.297256999999995,-6.233606,Asian Restaurant,True
383,114,53.29641733333333,-6.155529411764706,14,13,5a75ad5d2a7ab621d860bb6c,Bresson,53.293903,-6.153316,French Restaurant,True
372,103,53.29641733333333,-6.155529411764706,14,2,5a7b722d66fc655fc95352a6,Le Plancha,53.293873,-6.153703,French Restaurant,True
809,540,53.35460933333334,-6.254705882352941,44,35,5a7f3ff96bdee61a7bd4668a,+55 Sushi Bar,53.35368100000001,-6.25925,Japanese Restaurant,True
935,666,53.38370533333333,-6.155529411764706,2,1,5a7f4b9f3731ee3973f0a42b,Taro Ramen & Sushi Bar,53.385433,-6.153918,Sushi Restaurant,True
406,137,53.306116,-6.238176470588236,4,3,5a85df551213840da21d1143,Steps Of Rome,53.304990000000004,-6.245334,Italian Restaurant,True
758,489,53.35460933333334,-6.287764705882353,20,19,5a88264235f9833786f43137,Mooz,53.351358999999995,-6.28282,Grocery Store,False
741,472,53.35460933333334,-6.287764705882353,20,2,5ab6bf5a772fbc38392ef591,Lin Kee,53.357457999999994,-6.289065,Asian Restaurant,True
780,511,53.35460933333334,-6.254705882352941,44,6,5ae1e0b4f427de002c58c145,Woodfire Cafe,53.356829000000005,-6.260313,Italian Restaurant,True
81,81,53.34717159599906,-6.274997088258603,6,2,5ae2faf22b984400390b1995,Tokyo Kitchen,53.34929399999999,-6.276035,Sushi Restaurant,True
759,490,53.35460933333334,-6.271235294117648,15,0,5ae5bbf68ad62e002c8d5333,Wood Fire Cafe,53.356205,-6.265698,Italian Restaurant,True
878,609,53.37400666666666,-6.254705882352941,7,5,5ae9a6db31ac6c002c92b934,Mr. Burrito,53.371343,-6.2531870000000005,Mexican Restaurant,True
43,43,53.33747292933239,-6.2674743554232935,19,16,5af0369522d490002c79540c,Bao House,53.338963,-6.266096,Chinese Restaurant,True
914,645,53.38370533333333,-6.370411764705883,11,6,5afdcbf52f97ec002c1c40a1,Masala,53.385673,-6.373323,Indian Restaurant,True
341,72,53.28671866666666,-6.205117647058825,8,2,5b1bcc26851de5002c26fa49,Narra Thai & Asian Restaurant,53.288598,-6.2045900000000005,Thai Restaurant,True
504,235,53.335212,-6.287764705882353,10,6,5b1c29c51755620039013886,Morocco Gate,53.33817,-6.283017,Moroccan Restaurant,True
465,196,53.32551333333333,-6.254705882352941,23,3,5b2aad2b237dee002c6b1bee,Pizza Yard,53.323209999999996,-6.249854599999999,Pizza Place,False
1050,68,53.348302060665254,-6.2693544967926895,21,19,5b2b8a200d8a0f002c245861,Marrakesh,53.348738,-6.268871,Moroccan Restaurant,True
386,117,53.29641733333333,-6.138999999999999,13,2,5b52560acabcff002cb6e012,Soup,53.293820999999994,-6.13985,Ramen Restaurant,True
786,517,53.35460933333334,-6.254705882352941,44,12,5b673ce18496ca002c49c230,Mosa Tea Shop,53.35374,-6.259039,Asian Restaurant,True
397,128,53.306116,-6.320823529411764,2,0,5b79d2c1bfc6d0002ca2f235,D2U Chinese Restaurant,53.307726,-6.319539,Chinese Restaurant,True
459,190,53.32551333333333,-6.271235294117648,17,14,5b8999813731ee003940424b,Lil Portie,53.325363,-6.266945,Caribbean Restaurant,True
832,563,53.364307999999994,-6.271235294117648,11,1,5b8ec7833c858d00392194bf,Nagoya,53.3607,-6.2739177,Asian Restaurant,True
274,5,53.27701999999999,-6.254705882352941,2,1,5b93fcf18c812a002cc66622,Mao Ballinteer,53.274944,-6.2539735,Asian Restaurant,True
837,568,53.364307999999994,-6.271235294117648,11,6,5ba643ab79f6c7002c793200,Yeeros,53.365230000000004,-6.27148,Souvlaki Shop,False
936,667,53.38370533333333,-6.138999999999999,1,0,5bad3dd851950e002ce451f5,LA GUSTOSA,53.38559300000001,-6.140373,Italian Restaurant,True
787,518,53.35460933333334,-6.254705882352941,44,13,5bb892cfc36588002cb1d207,Benvindo,53.352531000000006,-6.249817,Brazilian Restaurant,True
467,198,53.32551333333333,-6.254705882352941,23,5,5bfd49185ba046002c52116e,Gigi Of Ranelagh,53.32467,-6.253746499999999,Italian Restaurant,True
815,546,53.35460933333334,-6.254705882352941,44,41,5bfd93485455b2002cd121b1,Fortune Terrace,53.353025,-6.261516,Chinese Restaurant,True
254,254,53.34264973733427,-6.258467676493898,38,32,5c017fc5250cab003970cebf,sushida,53.343191000000004,-6.2619419999999995,Japanese Restaurant,True
224,224,53.34264973733427,-6.258467676493898,38,2,5c07ecc2e9b9a500252f9c13,Xian Street Food,53.34105246667946,-6.259748786687852,Chinese Restaurant,True
419,150,53.31581466666667,-6.320823529411764,4,2,5c0d828e419a9e002c978681,Green Masala,53.316137,-6.316751999999999,Indian Restaurant,True
877,608,53.37400666666666,-6.254705882352941,7,4,5c0ecf7ac97f28002cc25306,Sheng Jing,53.37230400000001,-6.252848999999999,Chinese Restaurant,True
279,10,53.27701999999999,-6.221647058823531,6,4,5c101390bed483002cbe1b01,Shan Suey House,53.276270999999994,-6.223886,Chinese Restaurant,True
852,583,53.364307999999994,-6.238176470588236,7,1,5c1595d067f62b002c38aec7,Tasty Garden,53.362869999999994,-6.243258999999999,Chinese Restaurant,True
356,87,53.29641733333333,-6.304294117647059,6,4,5c251bd97c891c0034d9ee36,The Wine Bar,53.294709999999995,-6.2994895,Tapas Restaurant,True
739,470,53.35460933333334,-6.287764705882353,20,0,5c2cfa91811045002cfc6c5b,Grano,53.351298,-6.282957,Italian Restaurant,True
800,531,53.35460933333334,-6.254705882352941,44,26,5c2f6211dee770002c7ea8e4,Bowls by Kwanghi Chan,53.353279,-6.259434,Asian Restaurant,True
426,157,53.31581466666667,-6.287764705882353,5,0,5c51f743c5309300398bc72c,Honkaku,53.319027,-6.291453400000001,Sushi Restaurant,True
373,104,53.29641733333333,-6.155529411764706,14,3,5c5f1f32968f310039c90425,Osteria 99,53.293602,-6.1547217000000005,Italian Restaurant,True
850,581,53.364307999999994,-6.254705882352941,9,8,5c6ddf29178a2a002ca8087e,Delight Coffee Bar,53.3674674,-6.2552501,Coffee Shop,False
775,506,53.35460933333334,-6.254705882352941,44,1,5c7ecd03da2e00002c486549,El Grito Mexican Taqueria,53.35739,-6.2566180000000005,Mexican Restaurant,True
910,641,53.38370533333333,-6.370411764705883,11,2,5c8aa82e2632ec002c1c5fcf,Diep at Home,53.385909999999996,-6.376380999999999,Thai Restaurant,True
740,471,53.35460933333334,-6.287764705882353,20,1,5c9266baa306190039a42f7b,Ramen Kitchen,53.353108,-6.2851300000000005,Asian Restaurant,True
608,339,53.344910666666664,-6.287764705882353,5,2,5cbb0deee706550025155af5,Street Kitchen,53.346419999999995,-6.2924747000000005,Burrito Place,False
90,90,53.34264973733427,-6.274997088258603,12,5,5cbb821aacb00b002c0d1e39,Variety Jones,53.343011,-6.276333999999999,Modern European Restaurant,True
863,594,53.364307999999994,-6.172058823529412,2,1,5cc2e6764c9be6002cad0e07,Yangs Chinese Restaurant,53.3664564580649,-6.173637807369232,Asian Restaurant,True
257,257,53.34264973733427,-6.258467676493898,38,35,5cc34a9d1f74400039eb49f8,Maneki,53.340799,-6.258362,Japanese Restaurant,True
371,102,53.29641733333333,-6.155529411764706,14,1,5cc8a9db894eac002c1ce522,Elephant & Castle,53.293890000000005,-6.150786,American Restaurant,True
761,492,53.35460933333334,-6.271235294117648,15,2,5cd68a7d947c05002c5c8a4f,Padoca Dublin,53.351772,-6.2690325,Brazilian Restaurant,True
556,287,53.335212,-6.271235294117648,50,48,5cdefcae135b39002cdd098e,Franks,53.335037,-6.265097,Wine Bar,False
929,660,53.38370533333333,-6.205117647058825,3,0,5ce04f191c0b340039390367,Taza Restaurant,53.384064,-6.2070107000000005,Indian Restaurant,True
1022,40,53.341519272668066,-6.265592702638228,7,6,5cff8fe6031320002c10c63c,Verde,53.341159999999995,-6.2653419999999995,Mexican Restaurant,True
913,644,53.38370533333333,-6.370411764705883,11,5,5d120d2467226600263af6f8,Shibuyashi,53.386146,-6.376062,Japanese Restaurant,True
791,522,53.35460933333334,-6.254705882352941,44,17,5d4883aca4ace900072b1444,Turkish Kebab House,53.353868999999996,-6.258430000000001,Turkish Restaurant,True
387,118,53.29641733333333,-6.138999999999999,13,3,5d570ceb0c23f20008bbfca8,Madhouse,53.294865,-6.1425486,Mexican Restaurant,True
267,267,53.34264973733427,-6.250944088211986,7,5,5d59a9d2ba0d6f000756221f,The Carriage,53.341806000000005,-6.249048999999999,American Restaurant,True
385,116,53.29641733333333,-6.138999999999999,13,1,5d5ac5d32605c80008e5ffcf,Dall'Italia Pastabar,53.292804000000004,-6.137648,Italian Restaurant,True
48,48,53.33295107066761,-6.2674743554232935,19,2,5d77d664b337040007601d5b,Doolally,53.33160600000001,-6.264708000000001,Indian Restaurant,True
390,121,53.29641733333333,-6.138999999999999,13,6,5d7f956c7ad2be0008a840b6,Nando's,53.2937621,-6.1349767,Portuguese Restaurant,True
543,274,53.335212,-6.271235294117648,50,35,5d81280baff0cf0008cf795e,Passion 4 Food,53.334972,-6.265111,Doner Restaurant,True
488,219,53.335212,-6.370411764705883,2,1,5da468cde9b1f200089d0d32,The Tavern,53.331407999999996,-6.371525,Pub,False
717,448,53.344910666666664,-6.238176470588236,14,6,5dbdee525dec290008897dd4,the brasserie @ the marker,53.344198,-6.239211,Modern European Restaurant,True
711,442,53.344910666666664,-6.238176470588236,14,0,5dc6aadbabd6c100080f1eac,Mackenzie’s,53.344069999999995,-6.23538,Modern European Restaurant,True
497,228,53.335212,-6.304294117647059,4,3,5dc728590f04120007ee4285,Daphne’s,53.336913,-6.2991790000000005,Italian Restaurant,True
796,527,53.35460933333334,-6.254705882352941,44,22,5dd00e4891b5d200076a7bd1,Intercontinental Food Court,53.353997,-6.258037,African Restaurant,True
728,459,53.35460933333334,-6.386941176470589,6,1,5dd7f3ca9336a8000850e27a,Philliez Kitchen,53.353170999999996,-6.390615,Sandwich Place,False
498,229,53.335212,-6.287764705882353,10,0,5ded6897c0480100084e13c8,Fayrouz,53.338149,-6.282769,Middle Eastern Restaurant,True
331,62,53.28671866666666,-6.238176470588236,23,16,5df9077b442f890008fc4b1e,YO! Kitchen Dundrum,53.28705084419072,-6.2423221885915146,Japanese Restaurant,True
478,209,53.32551333333333,-6.254705882352941,23,16,5dfe0f2bc0c70800086a9400,Zaytoon,53.324987,-6.254029,Middle Eastern Restaurant,True
888,619,53.37400666666666,-6.221647058823531,8,6,5e037fb188607d0008c2620a,Waki Noodle & Sushi Bar,53.376872999999996,-6.2232785,Japanese Restaurant,True
906,637,53.38370533333333,-6.386941176470589,3,1,5e1638823a9ff900086eea16,Yagya,53.383731000000004,-6.381926,Indian Restaurant,True
402,133,53.306116,-6.287764705882353,4,3,5e2390fb5b863c000830b504,Apetito Tapas & Wine Bar,53.309838,-6.284375,Tapas Restaurant,True
451,182,53.32551333333333,-6.271235294117648,17,6,5e3f0cd48438200008bb8228,Ramen Co,53.322626,-6.265512999999999,Noodle House,False
753,484,53.35460933333334,-6.287764705882353,20,14,5e6b82ed7e5b0200088f6416,Ramen Co,53.353198,-6.285088,Ramen Restaurant,True
756,487,53.35460933333334,-6.287764705882353,20,17,5e6b830d44ee2d000755f95b,Ramen Co,53.353159,-6.285102999999999,Noodle House,False
79,79,53.34717159599906,-6.274997088258603,6,0,5e824361c91df60008dcaa57,Zucconi Restaurant,53.348755000000004,-6.2776523,Japanese Restaurant,True
772,503,53.35460933333334,-6.271235294117648,15,13,5ea3c7259fd7e70008d8ac78,Bombay Flame,53.350359999999995,-6.271637999999999,Indian Restaurant,True
747,478,53.35460933333334,-6.287764705882353,20,8,5f08ec0ff554670e3df40116,Cow Lane Tapas,53.35328199999999,-6.285858,Tapas Restaurant,True
769,500,53.35460933333334,-6.271235294117648,15,10,5f1763c14388026479a3ec0c,By Brazil,53.350480000000005,-6.271513,Brazilian Restaurant,True
403,134,53.306116,-6.238176470588236,4,0,5f4805395fcb012fa3185683,Street,53.305009999999996,-6.245433,Indian Restaurant,True
445,176,53.32551333333333,-6.271235294117648,17,0,5f4940582a137b6540d7551e,Sushida,53.32258,-6.26591,Japanese Restaurant,True
255,255,53.34264973733427,-6.258467676493898,38,33,5f5e55fd0bf2df5fc0be7ba0,Bah33°,53.34145,-6.2588305,Brazilian Restaurant,True
757,488,53.35460933333334,-6.287764705882353,20,18,5f80a9d9c0146e296bfe4ef4,Kerala Kitchen,53.352378,-6.284016,Indian Restaurant,True
1051,69,53.348302060665254,-6.2693544967926895,21,20,5f901525bd1cc65e69fa308f,Pinoy Sari Sari,53.34823000000001,-6.2698282999999995,Filipino Restaurant,True
724,455,53.344910666666664,-6.238176470588236,14,13,5f9810d91f67181f27facf49,YOI Ramen,53.340751000000004,-6.236173,Japanese Restaurant,True
594,325,53.335212,-6.238176470588236,13,12,5fa048824d56ff718f80e9b5,Ciao Woodfire Pizza,53.337174,-6.233803,Pizza Place,False
482,213,53.32551333333333,-6.254705882352941,23,20,5fa7090108db5a66e15a3b96,Firebyrd,53.324666,-6.253812,Fried Chicken Joint,False
