,lat_centre,long_centre,num_venues,venue_iter,venue_id,venue_name,lat_venue,long_venue,category
0,43.648765157624126,-79.3865478123164,10,0,5b6c842bc36588002c80a934,Cafe Landwer,43.64875349932059,-79.3853673607289,Café
1,43.648765157624126,-79.3865478123164,10,1,50468014e4b01c18bb731df8,Bosk at Shangri-La,43.649022736761516,-79.38582635521233,Asian Restaurant
2,43.648765157624126,-79.3865478123164,10,2,505125b2e4b0253ca4e47351,Momofuku Noodle Bar,43.6493658716176,-79.38621652451032,Noodle House
3,43.648765157624126,-79.3865478123164,10,3,509563c4e4b0d88896d7f022,Roll & Roll Sushi Bar,43.64944184366353,-79.3862581900891,Sushi Restaurant
4,43.648765157624126,-79.3865478123164,10,4,5b1a76586f0aa2002c5d9a0c,Kojin,43.64939770725357,-79.38609106624851,Colombian Restaurant
5,43.648765157624126,-79.3865478123164,10,5,4afa1f33f964a520e91622e3,Fune Japanese Restaurant,43.64851365544565,-79.38645657820041,Japanese Restaurant
6,43.648765157624126,-79.3865478123164,10,6,55453dc6498e6091e1ec81ee,El Patio,43.64806749852837,-79.38732385647928,Mexican Restaurant
7,43.648765157624126,-79.3865478123164,10,7,4e5d20011495d25a3a05409f,Wraps On The Go,43.64859231777946,-79.38569187727573,Middle Eastern Restaurant
8,43.648765157624126,-79.3865478123164,10,8,4c9bc2ed0e9bb1f7f8a7cd5f,JC Food Market,43.64921175406505,-79.38691641682182,Grocery Store
9,43.648765157624126,-79.3865478123164,10,9,50ee0a06e4b05c1c647da597,Roll in roll,43.64883975487759,-79.38718070336772,Sushi Restaurant
10,43.64989562229032,-79.388099654192,17,0,509bb871e4b09c7ac93f6642,JaBistro,43.64968685893743,-79.38809001547467,Sushi Restaurant
11,43.64989562229032,-79.388099654192,17,1,4ad8b9c2f964a5200f1421e3,Ginger,43.65030593749864,-79.38918869467479,Vietnamese Restaurant
12,43.64989562229032,-79.388099654192,17,2,5c9aaa3f66f3cd002c95bd58,Hakata Ikkousha Ramen,43.650299,-79.388753,Ramen Restaurant
13,43.64989562229032,-79.388099654192,17,3,5e4d583af17d04000790c7f0,Ikkousha Ramen Chicken,43.650203,-79.389012,Ramen Restaurant
14,43.64989562229032,-79.388099654192,17,4,5d5c73f50b7f1c0008538eb1,Azkadenya - Mezza Diner,43.650406,-79.388305,Middle Eastern Restaurant
15,43.64989562229032,-79.388099654192,17,5,5c9b9feeb54618002ccfe24d,Hakata Shoryuken Ramen,43.650398,-79.388128,Ramen Restaurant
16,43.64989562229032,-79.388099654192,17,6,527c18df11d23b4792c0b610,Touhenboku Ramen 唐変木,43.650240045793076,-79.38918912216322,Ramen Restaurant
17,43.64989562229032,-79.388099654192,17,7,4b07e8d4f964a520050123e3,Baba Geddo,43.649944,-79.389321,Mediterranean Restaurant
18,43.64989562229032,-79.388099654192,17,8,5ec32f7320eec10008acad2e,Makan,43.6501478361562,-79.38905596727636,Asian Restaurant
19,43.64989562229032,-79.388099654192,17,9,4ad8a5a7f964a5203c1321e3,Little India Restaurant,43.65031880877208,-79.38899760320798,Indian Restaurant
20,43.64989562229032,-79.388099654192,17,10,5f0cc0fb6106cd3252e81205,Dim Sum Town,43.65045007652224,-79.38902422785759,Chinese Restaurant
21,43.64989562229032,-79.388099654192,17,11,57bce934498e7db7d9144aa2,pho vistro,43.65027350830537,-79.38910063808092,Vietnamese Restaurant
22,43.64989562229032,-79.388099654192,17,12,4cbc7842adcd548177952ea2,Mr Burrito,43.649992102728596,-79.38928213188512,Burrito Place
23,43.64989562229032,-79.388099654192,17,13,4f0240df6da1cd035b2227eb,Mucho Burrito Fresh Mexican Grill,43.650158,-79.389157,Mexican Restaurant
24,43.64989562229032,-79.388099654192,17,14,4e8e12ca5c5c312990ee7627,Maridz,43.65023422241211,-79.3887710571289,Middle Eastern Restaurant
25,43.64989562229032,-79.388099654192,17,15,5616fcef498ef562ec3d2414,Mi Taco Taqueria,43.65037975034535,-79.38866594153846,Taco Place
26,43.64989562229032,-79.388099654192,17,16,5f0cbfd1483d8a2de5d0db4a,Dumplings on Queen,43.65044813577139,-79.3890081346035,Chinese Restaurant
27,43.64763469295793,-79.388099654192,11,0,529612de11d2ab526191ccc9,Pai,43.64792310735613,-79.38857932631602,Thai Restaurant
28,43.64763469295793,-79.388099654192,11,1,5321f4d9e4b07946702e6e08,Byblos Toronto,43.647615054171766,-79.3883810317138,Mediterranean Restaurant
29,43.64763469295793,-79.388099654192,11,2,52ec621e498ec68fa15ee922,Copacabana Grilled Brazilian,43.64833259480477,-79.3881514766071,Brazilian Restaurant
30,43.64763469295793,-79.388099654192,11,3,4d486522ea3f370452692a0a,Shoeless Joe's,43.6469366820462,-79.3882786894992,Sports Bar
31,43.64763469295793,-79.388099654192,11,4,4ad4c061f964a520a9f720e3,Burrito Boyz,43.6484455955513,-79.3879951787513,Burrito Place
32,43.64763469295793,-79.388099654192,11,5,4fa30748e4b0ddb34ffa7a98,Experiencia de Tapas Auténtocos,43.647741913059896,-79.38813304564451,Tapas Restaurant
33,43.64763469295793,-79.388099654192,11,6,55453dc6498e6091e1ec81ee,El Patio,43.64806749852837,-79.38732385647928,Mexican Restaurant
34,43.64763469295793,-79.388099654192,11,7,530960ae498e99b5948d34ce,Shibui,43.648186353212296,-79.38825950081004,Asian Restaurant
35,43.64763469295793,-79.388099654192,11,8,4cdc9b92cea2224b527e8c4c,Gayzu,43.648142,-79.388722,Asian Restaurant
36,43.64763469295793,-79.388099654192,11,9,52570ad7498ec65c3f43afc4,Wanye Gretsky's,43.647337115291734,-79.38861137514365,American Restaurant
37,43.64763469295793,-79.388099654192,11,10,4ac4e289f964a520699f20e3,Yuzu No Hana,43.6483011115534,-79.3883359381972,Sushi Restaurant
38,43.64989562229032,-79.38499597044078,6,0,4b846dd4f964a520dc3431e3,Little Anthony's,43.65029624519052,-79.38451301997945,Italian Restaurant
39,43.64989562229032,-79.38499597044078,6,1,506a3830e4b0677a1f9d8eda,Ninki Izakaya,43.65022782352305,-79.38486260004564,Japanese Restaurant
40,43.64989562229032,-79.38499597044078,6,2,4ad4c05ff964a52011f720e3,Mediterra,43.65050064403315,-79.3845867325828,Indian Restaurant
41,43.64989562229032,-79.38499597044078,6,3,5ac00e650336932abc8ea4b1,Little Khao,43.650317,-79.383917,Thai Restaurant
42,43.64989562229032,-79.38499597044078,6,4,4f88cf84e4b002b90ab3b9b9,LA's Italian + Bar,43.65053979517576,-79.38460322737672,Italian Restaurant
43,43.64989562229032,-79.38499597044078,6,5,4e048b98315168be7fd7ee4d,Estiatorio Volos,43.65032912559998,-79.38453301297716,Greek Restaurant
44,43.64763469295793,-79.38499597044078,13,0,5462ac56498e128ccafe8fea,Pizzeria Libretto,43.64833354686235,-79.38511050184168,Pizza Place
45,43.64763469295793,-79.38499597044078,13,1,5ab92abbc8b2fb4de1784f66,Kanga,43.647871,-79.384377,Australian Restaurant
46,43.64763469295793,-79.38499597044078,13,2,500995dfe4b004b2323fcc8b,Sushi Shop,43.647473,-79.383951,Restaurant
47,43.64763469295793,-79.38499597044078,13,3,4b7ad983f964a520c3402fe3,Modern Wok,43.64733928217316,-79.38435103029407,Chinese Restaurant
48,43.64763469295793,-79.38499597044078,13,4,5231f19c11d2222d9452ed92,Movie's Classic Grill,43.647369384765625,-79.3841323852539,American Restaurant
49,43.64763469295793,-79.38499597044078,13,5,51cb1865498e6fe61898a169,Sushi Shop,43.64719838811793,-79.38400391464425,Sushi Restaurant
50,43.64763469295793,-79.38499597044078,13,6,5bf6e6309de23b00394e1075,Kanga Aussie Meat Pies,43.647651,-79.384177,Pie Shop
51,43.64763469295793,-79.38499597044078,13,7,4c053ca039d476b0f79132a7,Thai Express,43.648116,-79.384479,Restaurant
52,43.64763469295793,-79.38499597044078,13,8,56d5e145cd104de18818dd5b,bosc,43.648025,-79.38414,French Restaurant
53,43.64763469295793,-79.38499597044078,13,9,5ab92abcb3c9617149a075e8,Kanga Sunlife,43.647871,-79.384377,Australian Restaurant
54,43.64763469295793,-79.38499597044078,13,10,52b08cc211d287ee4798e52f,Teriyaki Experience,43.6479718402743,-79.38415236861843,Asian Restaurant
55,43.64763469295793,-79.38499597044078,13,11,4c7d2611d598a093b3e8c162,Bento Zushi,43.6474764445407,-79.38455924125307,Asian Restaurant
56,43.64763469295793,-79.38499597044078,13,12,4cfd1beb084f5481dda88909,Mr. Souvlaki,43.647473,-79.383951,Restaurant
57,43.648765157624126,-79.37985218768361,10,0,4cf3ed7a7e0da1cd1d7a9f97,Villa Madina,43.648842,-79.379996,Restaurant
58,43.648765157624126,-79.37985218768361,10,1,4bbba093e436ef3b4a955564,Bento Nouveau,43.64872477519558,-79.37929175183983,Sushi Restaurant
59,43.648765157624126,-79.37985218768361,10,2,5b189725d552c7002c0d64c0,Ram's Indian kitchen,43.648025841,-79.379818887,Indian Restaurant
60,43.648765157624126,-79.37985218768361,10,3,4e8f34d861afcfde295d013e,China Wall,43.64902,-79.380185,Chinese Restaurant
61,43.648765157624126,-79.37985218768361,10,4,4c02fcd6187ec928d014b57b,Toku Gawa,43.64860602082152,-79.38093581254306,Japanese Restaurant
62,43.648765157624126,-79.37985218768361,10,5,5baa5fa64940bc0039e15013,Thai Express,43.648842,-79.379996,Restaurant
63,43.648765157624126,-79.37985218768361,10,6,5b23fcfba795bd002cd282c6,Fabbrica,43.648459,-79.38063,Italian Restaurant
64,43.648765157624126,-79.37985218768361,10,7,4b6b0283f964a5205aec2be3,Clipper Cafe,43.648444006808354,-79.3804612922872,American Restaurant
65,43.648765157624126,-79.37985218768361,10,8,4bbf610782a2ef3b04ac2cd2,KFC,43.6493,-79.3794,Fast Food Restaurant
66,43.648765157624126,-79.37985218768361,10,9,4cc8798ab3f5224b6d39ef20,China Wok,43.648124357760885,-79.37912129571566,Chinese Restaurant
67,43.64989562229032,-79.38140402955922,11,0,55fc571f498ec35023360858,Cactus Club Cafe,43.6495520142626,-79.38167072512041,American Restaurant
68,43.64989562229032,-79.38140402955922,11,1,4fea497c121d2480d3579412,Indian Biriyani House,43.650050280518336,-79.38066244125366,Indian Restaurant
69,43.64989562229032,-79.38140402955922,11,2,4adc5c6af964a520da2b21e3,Mercatto,43.6502431921682,-79.38081989149896,Italian Restaurant
70,43.64989562229032,-79.38140402955922,11,3,5a8ef236c47cf915458856ad,Kid Lee,43.649068,-79.381284,Asian Restaurant
71,43.64989562229032,-79.38140402955922,11,4,4ba90db8f964a5203f073ae3,Sweet Lulu,43.65055650489936,-79.38117543224395,Asian Restaurant
72,43.64989562229032,-79.38140402955922,11,5,572bccbdcd10a82034cb71ab,Katana on Bay,43.650299,-79.380858,Sushi Restaurant
73,43.64989562229032,-79.38140402955922,11,6,5632426a498e0433cad5aa04,Ruby Thai (First Canadian Place),43.64909140219368,-79.38159990145141,Thai Restaurant
74,43.64989562229032,-79.38140402955922,11,7,4ba2ab4af964a520650e38e3,Vineyard Jamaican Restaurant,43.64955,-79.38078,Caribbean Restaurant
75,43.64989562229032,-79.38140402955922,11,8,4c2cd87179d3b7130f79e43c,SweetLulu,43.65057180991095,-79.38123273009326,Asian Restaurant
76,43.64989562229032,-79.38140402955922,11,9,57e1b5dc498e82e2078fbcd1,Calii Love,43.64916558,-79.38170804,American Restaurant
77,43.64989562229032,-79.38140402955922,11,10,4e319f60483b1bbfc5afbb4f,Taste of Mediterranean,43.649786336067024,-79.38248634338379,Mediterranean Restaurant
78,43.64763469295793,-79.38140402955922,4,0,4d88bdf87139b1f74713a7d4,Umi Sushi Express,43.64720360358605,-79.3822120459431,Sushi Restaurant
79,43.64763469295793,-79.38140402955922,4,1,51d304de498ec2af20de6461,Eat Canteen,43.64728753620902,-79.38170009838223,Chinese Restaurant
80,43.64763469295793,-79.38140402955922,4,2,4bf41b7ccad2c9287b859b99,Toronto A La Cart - Carib Fusion,43.64713718426998,-79.38182106390799,Caribbean Restaurant
81,43.64763469295793,-79.38140402955922,4,3,5b897e92db1d81002c91df8c,Fabbrica Rustic Italian,43.647161,-79.381691,Italian Restaurant
82,43.64989562229032,-79.378300345808,12,0,5efad3a2bc546e000841cfb4,Box'd by Paramount,43.64949444321736,-79.37829405069351,Mediterranean Restaurant
83,43.64989562229032,-79.378300345808,12,1,4fa40d10e4b00f71941698e0,Jimmy The Greek,43.649692320098,-79.37855493924378,Greek Restaurant
84,43.64989562229032,-79.378300345808,12,2,4beb2c0ba9900f475b7a1740,Ninki Sushi,43.649812174244005,-79.37951837924346,Japanese Restaurant
85,43.64989562229032,-79.378300345808,12,3,4fb6b9b8e4b05a76e31722ee,tiki-ming,43.649256154633015,-79.37760917120127,Chinese Restaurant
86,43.64989562229032,-79.378300345808,12,4,4d137f8c7a8ba1433cb3d169,Touch - Indian Cuisine,43.64986899674456,-79.37821832718096,Indian Restaurant
87,43.64989562229032,-79.378300345808,12,5,4c1a5be68b3aa5932f7a955f,Asian Gourmet,43.649288,-79.378183,Chinese Restaurant
88,43.64989562229032,-79.378300345808,12,6,56a7c010498ebcb1bdb39b8f,freshii,43.64979993156992,-79.37828550630843,Vegetarian / Vegan Restaurant
89,43.64989562229032,-79.378300345808,12,7,4dd3d24345dd98b61e74f6af,SenseAsian Pan-Asian Resto,43.64961044882256,-79.37891234907097,Asian Restaurant
90,43.64989562229032,-79.378300345808,12,8,4b5a3107f964a5202bb328e3,Thai Express,43.6497393194015,-79.37892482660588,Thai Restaurant
91,43.64989562229032,-79.378300345808,12,9,4bbe0c134e069c745a829fe3,Metropolitan Resto Bar,43.65006166044848,-79.3771814107564,Italian Restaurant
92,43.64989562229032,-79.378300345808,12,10,50d25e10e4b0e555f8962edd,sushi mountain,43.649383544921875,-79.37812042236328,Sushi Restaurant
93,43.64989562229032,-79.378300345808,12,11,5e5800bc52a8d000076a2884,Basil Box,43.649387,-79.377815,Asian Restaurant
94,43.64763469295793,-79.378300345808,19,0,4ae73054f964a5203ca921e3,Ki Modern Japanese + Bar,43.647223,-79.3793738,Japanese Restaurant
95,43.64763469295793,-79.378300345808,19,1,56293965498ef6305b58713a,Sushi Shop,43.647261,-79.378599,Restaurant
96,43.64763469295793,-79.378300345808,19,2,4cb602883ac93704388dd00a,Jimmy the Greek,43.646848301100114,-79.37849792714539,Greek Restaurant
97,43.64763469295793,-79.378300345808,19,3,5b5b7dd3e4c459002c24ea96,Koha Kitchen,43.6476,-79.37893,Asian Restaurant
98,43.64763469295793,-79.378300345808,19,4,5a4fe0bf872f7d61a9ca2f72,Pick 6ix,43.64764548097961,-79.37726694070217,Sushi Restaurant
99,43.64763469295793,-79.378300345808,19,5,4ae7228cf964a520baa821e3,Jimmy the Greek,43.647926620476134,-79.3790828055797,Greek Restaurant
100,43.64763469295793,-79.378300345808,19,6,593eaed83fcee814ad86f9dc,Paramount Fine Foods,43.647077,-79.378648,Middle Eastern Restaurant
101,43.64763469295793,-79.378300345808,19,7,4cc5b9fb42d1b60cd5462513,Piazza Manna,43.646880584334326,-79.37843763516237,Italian Restaurant
102,43.64763469295793,-79.378300345808,19,8,5e4c289426ce5900099da893,Jerk Grill,43.648007,-79.378909,Caribbean Restaurant
103,43.64763469295793,-79.378300345808,19,9,5b3bc17b3092be002c65a66f,Thai Kitchen,43.646807,-79.378751,Thai Restaurant
104,43.64763469295793,-79.378300345808,19,10,4c28d35597d00f47387140ea,Thai Island,43.64687091962083,-79.37848796874363,Asian Restaurant
105,43.64763469295793,-79.378300345808,19,11,4db5e84443a1369cb5da528a,Z-Teca Gourmet Burritos,43.6480141803431,-79.37911924716222,Burrito Place
106,43.64763469295793,-79.378300345808,19,12,4ceeab5013aea143900b6f9f,Edo Japan,43.647686657642204,-79.37906630980225,Japanese Restaurant
107,43.64763469295793,-79.378300345808,19,13,533ef879498eb2a4a221e606,tararind,43.648094,-79.379003,Indian Restaurant
108,43.64763469295793,-79.378300345808,19,14,4bacfbe4f964a52041213be3,Tamarind: The Indian Kitchen,43.646859,-79.378707,Indian Restaurant
109,43.64763469295793,-79.378300345808,19,15,5cdbf770e679bc002c2378a2,Manchu Wok,43.647368,-79.377372,Chinese Restaurant
110,43.64763469295793,-79.378300345808,19,16,5f5d55fbde7b3d799b56f780,Roti Mahal,43.64751,-79.40309,Indian Restaurant
111,43.64763469295793,-79.378300345808,19,17,4cc8798ab3f5224b6d39ef20,China Wok,43.648124357760885,-79.37912129571566,Chinese Restaurant
112,43.64763469295793,-79.378300345808,19,18,4ad4c060f964a52057f720e3,Jump,43.64814738516352,-79.37875242540652,American Restaurant
113,43.648765157624126,-79.37364458650995,8,0,4ada5d5bf964a520e92121e3,The Hot House Restaurant & Bar,43.64882370529773,-79.37370210886002,American Restaurant
114,43.648765157624126,-79.37364458650995,8,1,4bad71d1f964a5208e513be3,Le Papillon on Front,43.64846271478169,-79.37333196401596,French Restaurant
115,43.648765157624126,-79.37364458650995,8,2,4c167878955976b04099a4f6,Pita Way,43.64899805091993,-79.37416693389117,Mediterranean Restaurant
116,43.648765157624126,-79.37364458650995,8,3,54593679498e9c3b842c216d,Loaded Pierogi,43.647965,-79.373427,Comfort Food Restaurant
117,43.648765157624126,-79.37364458650995,8,4,5c4375851953f3002cd43c69,Bento Sushi,43.64921877878929,-79.37268428506741,Sushi Restaurant
118,43.648765157624126,-79.37364458650995,8,5,4b62188bf964a52021352ae3,Ichiban Sushi,43.648591,-79.374284,Sushi Restaurant
119,43.648765157624126,-79.37364458650995,8,6,4ba5616ff964a520390139e3,Berber SOCIAL,43.648113752405834,-79.37404622657372,Moroccan Restaurant
120,43.648765157624126,-79.37364458650995,8,7,50b7c53616485cd9efad60d5,Sukhothai,43.64848710249909,-79.37454735245633,Thai Restaurant
121,43.64989562229032,-79.37519642838556,12,0,4cb1169939458cfab0c908a0,Carisma,43.64961671774303,-79.3754337751762,Italian Restaurant
122,43.64989562229032,-79.37519642838556,12,1,4af63562f964a5203d0222e3,Bikkuri Japanese,43.649564308142,-79.37632789169632,Sushi Restaurant
123,43.64989562229032,-79.37519642838556,12,2,5a2afbca1ffe9731e4739c93,Quesada Burritos & Tacos,43.65001599378208,-79.37462678132368,Tex-Mex Restaurant
124,43.64989562229032,-79.37519642838556,12,3,595ec15909e2831d70f13015,Copetin Restaurant And Bar,43.649849,-79.374087,Spanish Restaurant
125,43.64989562229032,-79.37519642838556,12,4,5c7969857dc9e1002c4e3819,Chadani Indian Cuisine,43.649153,-79.374814,Indian Restaurant
126,43.64989562229032,-79.37519642838556,12,5,4ee8e91777c83054d940af71,My Sushi,43.649514052109694,-79.375382179241,Japanese Restaurant
127,43.64989562229032,-79.37519642838556,12,6,4ae623e3f964a52002a521e3,Quesada Mexican Grill,43.64993863703611,-79.37449577742274,Mexican Restaurant
128,43.64989562229032,-79.37519642838556,12,7,4defa605c65bf3f03e9b8230,Mr. Sushi,43.65026041719557,-79.37626431487176,Sushi Restaurant
129,43.64989562229032,-79.37519642838556,12,8,4c4f1d3251c2c928264a759f,Freshii,43.649869111595315,-79.37467619716499,Salad Place
130,43.64989562229032,-79.37519642838556,12,9,54ded5ca498e2889d496cadd,Stori Aperetivo Bar,43.649566,-79.374705,Italian Restaurant
131,43.64989562229032,-79.37519642838556,12,10,4b6a083df964a52002c32be3,La Maquette,43.649977175797034,-79.37402224802157,French Restaurant
132,43.64989562229032,-79.37519642838556,12,11,4b6cbee3f964a5202f512ce3,Thai Dish,43.649312145542204,-79.37506324761496,Thai Restaurant
133,43.64763469295793,-79.37519642838556,10,0,4ada4b1ef964a520022121e3,The Old Spaghetti Factory,43.64696445846655,-79.37440258334287,Italian Restaurant
134,43.64763469295793,-79.37519642838556,10,1,4ad4c061f964a520acf720e3,The Sultan's Tent and Cafe Moroc,43.647927833506316,-79.37434095390434,Moroccan Restaurant
135,43.64763469295793,-79.37519642838556,10,2,4c0690630ed3c9288035787d,Takesushi,43.647114,-79.374356,Japanese Restaurant
136,43.64763469295793,-79.37519642838556,10,3,504c05bae4b04977de931d68,Torroni's,43.648061,-79.374492,Italian Restaurant
137,43.64763469295793,-79.37519642838556,10,4,52b639a1498ee8a081b3991a,the sultun's tant,43.647442,-79.374906,Moroccan Restaurant
138,43.64763469295793,-79.37519642838556,10,5,4eb812340aaf1abee067d8ee,Bibab Express Sushi n Rolls,43.647768473383785,-79.37441438333167,Sushi Restaurant
139,43.64763469295793,-79.37519642838556,10,6,56cf532ccd10556c3934b819,Bibap Express,43.647777219953134,-79.37608602446167,Korean Restaurant
140,43.64763469295793,-79.37519642838556,10,7,547bbfc8498e3bbc461bf215,Uncle Tony's Pizza and Pasta,43.64828690534951,-79.37500477402445,Italian Restaurant
141,43.64763469295793,-79.37519642838556,10,8,5f5d4f9049517e2355510a80,Cool Runnings,43.6477561326436,-79.37622556462884,Caribbean Restaurant
142,43.64763469295793,-79.37519642838556,10,9,4eb5f5a3f9f40c39c59cb5b5,Bibab Express,43.64777722179773,-79.37606402937946,Asian Restaurant
143,43.64989562229032,-79.37209274463434,4,0,57a7743dcd10f200168459f4,Paramount Middle Eastern Cuisine,43.649043,-79.372388,Middle Eastern Restaurant
144,43.64989562229032,-79.37209274463434,4,1,5c4375851953f3002cd43c69,Bento Sushi,43.64921877878929,-79.37268428506741,Sushi Restaurant
145,43.64989562229032,-79.37209274463434,4,2,580e536b38fa8cf0e4dbba46,b.good,43.64922739104706,-79.37198281288147,American Restaurant
146,43.64989562229032,-79.37209274463434,4,3,4b72e2bdf964a520798d2de3,Biagio Ristorante,43.65041145399134,-79.37242463953218,Italian Restaurant
147,43.64763469295793,-79.37209274463434,3,0,4cd97b2c3ec4b1f7c9e1c33f,Pasta Mia,43.64842988092669,-79.37157692342767,Italian Restaurant
148,43.64763469295793,-79.37209274463434,3,1,4cdd8afb78ddf04dfbf29498,St. Lawrence Pizza and Pasta,43.64837838784134,-79.37157761069746,Italian Restaurant
149,43.64763469295793,-79.37209274463434,3,2,4bd1d73eb221c9b6514ed6d0,Teriyaki quik sushi,43.64845254569627,-79.37184637587276,Japanese Restaurant
150,43.65102608695652,-79.37674838709678,9,0,4b49183ff964a520a46526e3,Terroni,43.650927,-79.375602,Italian Restaurant
151,43.65102608695652,-79.37674838709678,9,1,4b999927f964a5207c8635e3,NAMI,43.650853361785124,-79.37588746641697,Japanese Restaurant
152,43.65102608695652,-79.37674838709678,9,2,4b2d7d0ff964a520b5d724e3,Mirto,43.650702,-79.376307,Italian Restaurant
153,43.65102608695652,-79.37674838709678,9,3,5ab2701f8a6f174548365a84,El Chapo,43.65069,-79.3766,Taco Place
154,43.65102608695652,-79.37674838709678,9,4,5567413f498ecc78be674ec7,Rose City Kitchen,43.65087708047274,-79.37644344381555,Mediterranean Restaurant
155,43.65102608695652,-79.37674838709678,9,5,5a720be279187146c15b9f7e,Plancha,43.650567,-79.377326,Mediterranean Restaurant
156,43.65102608695652,-79.37674838709678,9,6,4b268b4cf964a520427d24e3,Lettieri,43.6508437676421,-79.37724625757879,Café
157,43.65102608695652,-79.37674838709678,9,7,4defa605c65bf3f03e9b8230,Mr. Sushi,43.65026041719557,-79.37626431487176,Sushi Restaurant
158,43.65102608695652,-79.37674838709678,9,8,4c38f3fc0a71c9b6f6ad41c9,B.L.D Restaurant,43.6508315945072,-79.37663892404116,New American Restaurant
159,43.65215655162272,-79.37830028739019,6,0,57d0a3fb498e0fb29e892eed,Leña,43.651722,-79.379205,Latin American Restaurant
160,43.65215655162272,-79.37830028739019,6,1,4c251062db519521621d2c3a,La Bettola Di Terroni,43.65199330592565,-79.37805579614488,Italian Restaurant
161,43.65215655162272,-79.37830028739019,6,2,50526f60e4b01eeee478fcfa,Labettola,43.651600076991706,-79.37890135186609,Italian Restaurant
162,43.65215655162272,-79.37830028739019,6,3,4de827e4d4c0faa56428a51a,Yulla Asian Fusion Restaurant,43.651587,-79.379232,Asian Restaurant
163,43.65215655162272,-79.37830028739019,6,4,4b50adaff964a520062d27e3,Bob's Bulgogi,43.65190800954796,-79.37752300562582,Korean Restaurant
164,43.65215655162272,-79.37830028739019,6,5,55b3c6d4498ef7058f756628,Sushi Q,43.65188788534948,-79.37791709674049,Sushi Restaurant
165,43.64989562229032,-79.37830028739019,12,0,5efad3a2bc546e000841cfb4,Box'd by Paramount,43.64949444321736,-79.37829405069351,Mediterranean Restaurant
166,43.64989562229032,-79.37830028739019,12,1,4fa40d10e4b00f71941698e0,Jimmy The Greek,43.649692320098,-79.37855493924378,Greek Restaurant
167,43.64989562229032,-79.37830028739019,12,2,4beb2c0ba9900f475b7a1740,Ninki Sushi,43.649812174244005,-79.37951837924346,Japanese Restaurant
168,43.64989562229032,-79.37830028739019,12,3,4fb6b9b8e4b05a76e31722ee,tiki-ming,43.649256154633015,-79.37760917120127,Chinese Restaurant
169,43.64989562229032,-79.37830028739019,12,4,4d137f8c7a8ba1433cb3d169,Touch - Indian Cuisine,43.64986899674456,-79.37821832718096,Indian Restaurant
170,43.64989562229032,-79.37830028739019,12,5,4c1a5be68b3aa5932f7a955f,Asian Gourmet,43.649288,-79.378183,Chinese Restaurant
171,43.64989562229032,-79.37830028739019,12,6,56a7c010498ebcb1bdb39b8f,freshii,43.64979993156992,-79.37828550630843,Vegetarian / Vegan Restaurant
172,43.64989562229032,-79.37830028739019,12,7,4dd3d24345dd98b61e74f6af,SenseAsian Pan-Asian Resto,43.64961044882256,-79.37891234907097,Asian Restaurant
173,43.64989562229032,-79.37830028739019,12,8,4b5a3107f964a5202bb328e3,Thai Express,43.6497393194015,-79.37892482660588,Thai Restaurant
174,43.64989562229032,-79.37830028739019,12,9,4bbe0c134e069c745a829fe3,Metropolitan Resto Bar,43.65006166044848,-79.3771814107564,Italian Restaurant
175,43.64989562229032,-79.37830028739019,12,10,50d25e10e4b0e555f8962edd,sushi mountain,43.649383544921875,-79.37812042236328,Sushi Restaurant
176,43.64989562229032,-79.37830028739019,12,11,5e5800bc52a8d000076a2884,Basil Box,43.649387,-79.377815,Asian Restaurant
177,43.65215655162272,-79.37519648680338,4,0,574ad72238fa943556d93b8e,Gyu-Kaku Japanese BBQ,43.651422275497914,-79.37504693687086,Japanese Restaurant
178,43.65215655162272,-79.37519648680338,4,1,4d39cef3fa736ea80522108a,Wild Wing,43.65258151107285,-79.37554844064869,Sports Bar
179,43.65215655162272,-79.37519648680338,4,2,4b44d003f964a520f3fc25e3,Springrolls Go,43.651874,-79.375457,Asian Restaurant
180,43.65215655162272,-79.37519648680338,4,3,4cae06d32303a1431282ebf0,Spring Rolls,43.652059959600045,-79.37547500431533,Thai Restaurant
181,43.64989562229032,-79.37519648680338,12,0,4cb1169939458cfab0c908a0,Carisma,43.64961671774303,-79.3754337751762,Italian Restaurant
182,43.64989562229032,-79.37519648680338,12,1,4af63562f964a5203d0222e3,Bikkuri Japanese,43.649564308142,-79.37632789169632,Sushi Restaurant
183,43.64989562229032,-79.37519648680338,12,2,5a2afbca1ffe9731e4739c93,Quesada Burritos & Tacos,43.65001599378208,-79.37462678132368,Tex-Mex Restaurant
184,43.64989562229032,-79.37519648680338,12,3,595ec15909e2831d70f13015,Copetin Restaurant And Bar,43.649849,-79.374087,Spanish Restaurant
185,43.64989562229032,-79.37519648680338,12,4,5c7969857dc9e1002c4e3819,Chadani Indian Cuisine,43.649153,-79.374814,Indian Restaurant
186,43.64989562229032,-79.37519648680338,12,5,4ee8e91777c83054d940af71,My Sushi,43.649514052109694,-79.375382179241,Japanese Restaurant
187,43.64989562229032,-79.37519648680338,12,6,4ae623e3f964a52002a521e3,Quesada Mexican Grill,43.64993863703611,-79.37449577742274,Mexican Restaurant
188,43.64989562229032,-79.37519648680338,12,7,4defa605c65bf3f03e9b8230,Mr. Sushi,43.65026041719557,-79.37626431487176,Sushi Restaurant
189,43.64989562229032,-79.37519648680338,12,8,4c4f1d3251c2c928264a759f,Freshii,43.649869111595315,-79.37467619716499,Salad Place
190,43.64989562229032,-79.37519648680338,12,9,54ded5ca498e2889d496cadd,Stori Aperetivo Bar,43.649566,-79.374705,Italian Restaurant
191,43.64989562229032,-79.37519648680338,12,10,4b6a083df964a52002c32be3,La Maquette,43.649977175797034,-79.37402224802157,French Restaurant
192,43.64989562229032,-79.37519648680338,12,11,4b6cbee3f964a5202f512ce3,Thai Dish,43.649312145542204,-79.37506324761496,Thai Restaurant
193,43.653287016288914,-79.39945103812285,18,0,4b119787f964a520188023e3,Dumpling House,43.65386003934455,-79.3985583639792,Dumpling Restaurant
194,43.653287016288914,-79.39945103812285,18,1,573cf7fb498ea0619b6c64dd,El Rey,43.652764,-79.400048,Cocktail Bar
195,43.653287016288914,-79.39945103812285,18,2,4adb9051f964a520032921e3,Last Temptation,43.653179950412465,-79.40014398389074,Bar
196,43.653287016288914,-79.39945103812285,18,3,4af45a8af964a52097f121e3,Banh Mi Nguyen Huong,43.653628006211044,-79.3983759881993,Vietnamese Restaurant
197,43.653287016288914,-79.39945103812285,18,4,4ad89afef964a520c21221e3,Pho Pasteur,43.65268522608909,-79.39901009743289,Vietnamese Restaurant
198,43.653287016288914,-79.39945103812285,18,5,4b622bf1f964a5200b3a2ae3,Chinese Traditional Buns,43.652714116168525,-79.39900618361557,Chinese Restaurant
199,43.653287016288914,-79.39945103812285,18,6,4ba7e405f964a5203bbc39e3,Ajisen Ramen 味千拉麵,43.65391272417607,-79.39859327119643,Ramen Restaurant
200,43.653287016288914,-79.39945103812285,18,7,59eccc99dff8150ccdd70355,Kim Vietnamese Restaurant,43.652748,-79.399377,Vietnamese Restaurant
201,43.653287016288914,-79.39945103812285,18,8,4b93fd98f964a520835f34e3,Tibet Cafe & Bar,43.6539054314834,-79.40027640666096,Chinese Restaurant
202,43.653287016288914,-79.39945103812285,18,9,5bde3d364940bc002cc7f4fc,Q1 Pho Famous,43.652828,-79.399021,Vietnamese Restaurant
203,43.653287016288914,-79.39945103812285,18,10,5baa2409a92d98002c86e451,Uzuncayir Diskotek,43.654057,-79.39889,Udon Restaurant
204,43.653287016288914,-79.39945103812285,18,11,4b772c00f964a52097842ee3,Sang Ho Seafood Restaurant,43.65274725995042,-79.39902086744584,Chinese Restaurant
205,43.653287016288914,-79.39945103812285,18,12,51b604a0498e2384782ee1ef,Yoo J Express Restaurant (Purple Place! ),43.652564476551404,-79.3989031071905,Chinese Restaurant
206,43.653287016288914,-79.39945103812285,18,13,5f1f3bb0e03d5e56ee39bd67,The Our & The Fuzz,43.653168,-79.39993,Bar
207,43.653287016288914,-79.39945103812285,18,14,4bd8713e0b779c745b2a07a0,Banh Mi Ba Le,43.652682829524515,-79.39907807640702,Vietnamese Restaurant
208,43.653287016288914,-79.39945103812285,18,15,5c7c172783e380002c5b909d,Shanghai Shikumen Fine Cuisine,43.652847,-79.398938,Asian Restaurant
209,43.653287016288914,-79.39945103812285,18,16,5c251b0ee97dfb002c3897ea,Shi Miaodao Yunnan Rice Noodles,43.65353,-79.39851,Noodle House
210,43.653287016288914,-79.39945103812285,18,17,5f7aa9a4ee0b6a51b2b89fdb,KL Kitchen Indo-Malay Cuisine,43.65303872353378,-79.3984651565006,Malay Restaurant
211,43.65441748095511,-79.40100299684087,33,0,4aedf32af964a52091d021e3,Golden Patty,43.6546590586465,-79.4011788108254,Caribbean Restaurant
212,43.65441748095511,-79.40100299684087,33,1,51ee9af9498e52f163fef9fa,Latin Taste,43.65463168932103,-79.40154732555573,Latin American Restaurant
213,43.65441748095511,-79.40100299684087,33,2,5176c8aae4b090a07b80071d,Pancho y Emiliano,43.65447207921505,-79.401968986357,Mexican Restaurant
214,43.65441748095511,-79.40100299684087,33,3,50427a03e4b08d9f5931f593,Seven Lives - Tacos y Mariscos,43.65441817160925,-79.40054467846261,Mexican Restaurant
215,43.65441748095511,-79.40100299684087,33,4,5f6e80b54b658e2faa8b42d4,Abu Hummus,43.654503,-79.40173,Middle Eastern Restaurant
216,43.65441748095511,-79.40100299684087,33,5,578fb4ce498ed3b80015a859,Wafels and More,43.65465108367296,-79.40197747917576,Belgian Restaurant
217,43.65441748095511,-79.40100299684087,33,6,4ad4c05cf964a520e6f520e3,Jumbo Empanadas,43.65483086424975,-79.40209828955608,Empanada Restaurant
218,43.65441748095511,-79.40100299684087,33,7,4c675aa98e9120a1e1c3da64,Churros Ricos Churros,43.65454102138377,-79.4021575190483,Latin American Restaurant
219,43.65441748095511,-79.40100299684087,33,8,4afe2593f964a520552e22e3,Amadeu's,43.65398686115579,-79.40188429397054,Portuguese Restaurant
220,43.65441748095511,-79.40100299684087,33,9,4bb3764beb3e95217e24cb0a,The Original Hungary Thai,43.654341289114214,-79.40195513823983,Thai Restaurant
221,43.65441748095511,-79.40100299684087,33,10,4e59552418a8c204750ac904,Havana Cuba Grill & Bar,43.654645833275175,-79.40162658691405,Cuban Restaurant
222,43.65441748095511,-79.40100299684087,33,11,57797932498e65da29093dc7,Kooyi Korean grill,43.654108,-79.401717,Korean Restaurant
223,43.65441748095511,-79.40100299684087,33,12,4b228905f964a520884824e3,Fresh Wood Grill,43.654617,-79.40163,American Restaurant
224,43.65441748095511,-79.40100299684087,33,13,5ab25e10829b0c6f68bd83d6,Juanmoto,43.65413273242091,-79.40091848373413,Korean Restaurant
225,43.65441748095511,-79.40100299684087,33,14,4e57f282887710a8481de1f3,Mexican Dry Food,43.654659271240234,-79.40155029296875,Mexican Restaurant
226,43.65441748095511,-79.40100299684087,33,15,5b5a8a32a35dce002c25a80b,Koi Koi Sake Bar,43.654867,-79.400578,Sake Bar
227,43.65441748095511,-79.40100299684087,33,16,51a0fbfe498e1d8e22f91bc9,Columbus Express,43.65432317740567,-79.4019651161298,Latin American Restaurant
228,43.65441748095511,-79.40100299684087,33,17,4f2b4de6e4b009e97062d55e,Pizzeria Via Mercanti,43.65407077215065,-79.40192005863022,Italian Restaurant
229,43.65441748095511,-79.40100299684087,33,18,5b020496a22db7002c9bfd93,Bonafide,43.654124,-79.401743,Tapas Restaurant
230,43.65441748095511,-79.40100299684087,33,19,5842fefc83622d20349c3a65,Waffles And More,43.65468,-79.40211,Belgian Restaurant
231,43.65441748095511,-79.40100299684087,33,20,5787fac2498edc44c7ed0d2c,Northern fried chicken,43.654791,-79.400731,New American Restaurant
232,43.65441748095511,-79.40100299684087,33,21,4b93fd98f964a520835f34e3,Tibet Cafe & Bar,43.6539054314834,-79.40027640666096,Chinese Restaurant
233,43.65441748095511,-79.40100299684087,33,22,4f7df010e4b02ba243265caf,avo,43.65485299201639,-79.40203108288985,Portuguese Restaurant
234,43.65441748095511,-79.40100299684087,33,23,581cbc55d84d39216bfe92a4,Pow Wow Cafe,43.65410919456478,-79.40177892237044,Taco Place
235,43.65441748095511,-79.40100299684087,33,24,538a1dcf498e7ba2b28abe94,Akram's,43.65465438697701,-79.40153633104143,Middle Eastern Restaurant
236,43.65441748095511,-79.40100299684087,33,25,5186c473498eaef7db0704b5,shawermama,43.65471916030694,-79.40183867970805,Middle Eastern Restaurant
237,43.65441748095511,-79.40100299684087,33,26,510d827ee4b01d3af0025660,Rasta Pasta,43.65420716538317,-79.40046891984555,Caribbean Restaurant
238,43.65441748095511,-79.40100299684087,33,27,4ff7825ce4b083d14c54be85,Los Perros,43.654275,-79.401813,Latin American Restaurant
239,43.65441748095511,-79.40100299684087,33,28,4ca4c9001ee76dcb68bd04de,La Tortilleria,43.65446200503267,-79.40200531670824,Mexican Restaurant
240,43.65441748095511,-79.40100299684087,33,29,4b1bf527f964a520a1ff23e3,Emporium Latino,43.6548176585734,-79.4020900110632,Latin American Restaurant
241,43.65441748095511,-79.40100299684087,33,30,56d885cbcd105695600464d1,Torteria San Cosme,43.65470199390117,-79.40064636669985,Mexican Restaurant
242,43.65441748095511,-79.40100299684087,33,31,5f95ec0fc8e3f6005c1dee94,Lekker,43.654694,-79.40192,Belgian Restaurant
243,43.65441748095511,-79.40100299684087,33,32,5cb8a8999b0473003966c9c5,Taquería Gus,43.654264,-79.401852,Taco Place
244,43.65215655162272,-79.40100299684087,1,0,541b3a0c498ea1eb4f13f069,Tree Top African Cafe,43.652136906544214,-79.40216851348869,African Restaurant
245,43.65441748095511,-79.39789907940482,20,0,4b119787f964a520188023e3,Dumpling House,43.65386003934455,-79.3985583639792,Dumpling Restaurant
246,43.65441748095511,-79.39789907940482,20,1,4b483433f964a5200b4a26e3,Taste of China,43.65403781840842,-79.39859786327129,Chinese Restaurant
247,43.65441748095511,-79.39789907940482,20,2,593306a5123a1963f5f94453,Fudao Noodle House,43.654645274716124,-79.39887355126278,Noodle House
248,43.65441748095511,-79.39789907940482,20,3,4ad4c060f964a52056f720e3,Pho Hung,43.654434,-79.398883,Vietnamese Restaurant
249,43.65441748095511,-79.39789907940482,20,4,59fb6250603d2a17c4fbf9b6,August 8,43.65461641307909,-79.3985709479031,Sushi Restaurant
250,43.65441748095511,-79.39789907940482,20,5,4af45a8af964a52097f121e3,Banh Mi Nguyen Huong,43.653628006211044,-79.3983759881993,Vietnamese Restaurant
251,43.65441748095511,-79.39789907940482,20,6,4ad4c060f964a5207ff720e3,Rol San Restaurant 龍笙棧,43.65431754076345,-79.39864998374682,Dim Sum Restaurant
252,43.65441748095511,-79.39789907940482,20,7,565a38df498ea8fe5920979c,Chine Legendary Hot Pot & Noodles 重慶秦媽,43.65444281087195,-79.39870944812398,Hotpot Restaurant
253,43.65441748095511,-79.39789907940482,20,8,4ae29812f964a520288f21e3,Swatow Restaurant 汕頭小食家,43.65386562507761,-79.39833353339202,Chinese Restaurant
254,43.65441748095511,-79.39789907940482,20,9,5d20225ba24dd70023494fb1,Papa Spicy / 劉公烤魚,43.65509,-79.39857,Chinese Restaurant
255,43.65441748095511,-79.39789907940482,20,10,4b252789f964a5200c6d24e3,Pho Cali,43.654054007507895,-79.39852928227386,Vietnamese Restaurant
256,43.65441748095511,-79.39789907940482,20,11,5154f598e4b0ebc85742fea7,Gooktown,43.654049,-79.398654,Chinese Restaurant
257,43.65441748095511,-79.39789907940482,20,12,5c75d328d4cc98002c990bae,Awastea 阿華師,43.653795,-79.398111,Noodle House
258,43.65441748095511,-79.39789907940482,20,13,4ba7e405f964a5203bbc39e3,Ajisen Ramen 味千拉麵,43.65391272417607,-79.39859327119643,Ramen Restaurant
259,43.65441748095511,-79.39789907940482,20,14,5c5d1b68f1936e002cba0ca4,大斌家串串火锅 (Dabinjia),43.65439,-79.398895,Hotpot Restaurant
260,43.65441748095511,-79.39789907940482,20,15,5b2ea3bfa89b5a00249467c9,刘公烤鱼,43.655052,-79.398654,Chinese Restaurant
261,43.65441748095511,-79.39789907940482,20,16,4bf1c1ab3fa220a116ac1820,Tri Pacific Limited,43.654039,-79.398406,Chinese Restaurant
262,43.65441748095511,-79.39789907940482,20,17,5baa2409a92d98002c86e451,Uzuncayir Diskotek,43.654057,-79.39889,Udon Restaurant
263,43.65441748095511,-79.39789907940482,20,18,58ed7fb80319b8502bfa2425,Papa Spicy,43.655051,-79.39864,Chinese Restaurant
264,43.65441748095511,-79.39789907940482,20,19,554e92d4498ebef356a88908,Super Noodle Express 嘉家兰州拉面,43.65446746754959,-79.39874917946675,Noodle House
265,43.65215655162272,-79.39789907940482,23,0,4b072e9df964a52009f922e3,Sky Dragon Chinese Restaurant 龍翔酒樓,43.65278331265585,-79.39817372355205,Dim Sum Restaurant
266,43.65215655162272,-79.39789907940482,23,1,4b4617f4f964a520221626e3,Owl of Minerva,43.652777329709636,-79.39816151985623,Korean Restaurant
267,43.65215655162272,-79.39789907940482,23,2,4b0177f5f964a520b34222e3,Xe Lua Vietnamese Cuisine 火車頭,43.65176783974445,-79.39781109434253,Vietnamese Restaurant
268,43.65215655162272,-79.39789907940482,23,3,4ae7710bf964a52057ab21e3,Canteen Restaurant,43.6528214686215,-79.39827498252554,Chinese Restaurant
269,43.65215655162272,-79.39789907940482,23,4,5c33c7cd8194fc002c66f72e,Green Tea Restaurant Downtown,43.652487830335545,-79.39750134944916,Chinese Restaurant
270,43.65215655162272,-79.39789907940482,23,5,54f8c507498e2cca2f0eb4f1,R&D,43.65139546032762,-79.39731103382934,Asian Restaurant
271,43.65215655162272,-79.39789907940482,23,6,4af1c3a4f964a520f2e221e3,Bun Saigon Vietnamese Restaurant,43.651676463481216,-79.39765619789816,Vietnamese Restaurant
272,43.65215655162272,-79.39789907940482,23,7,4c98e1be2778224b94f8a768,Taste Garden Cantonese Seafood House,43.652293165180595,-79.39782560774081,Chinese Restaurant
273,43.65215655162272,-79.39789907940482,23,8,4b266f05f964a520657b24e3,Goldstone Noodle Restaurant 金石,43.6522783893466,-79.39803917534071,Noodle House
274,43.65215655162272,-79.39789907940482,23,9,4fb6bc86e4b012942f45ec5c,Rebozos Mexican food,43.65277558586548,-79.39839734370697,Mexican Restaurant
275,43.65215655162272,-79.39789907940482,23,10,5adc9ee91c062d658dfeacee,Dim Sum Plus,43.651968,-79.397929,Dim Sum Restaurant
276,43.65215655162272,-79.39789907940482,23,11,51040cf1e4b026c3bf8b507d,Ana Ana,43.65295994346366,-79.39813896346794,Asian Restaurant
277,43.65215655162272,-79.39789907940482,23,12,4ed9d9f246907c1b41ff496f,Vietnamese cuisine,43.651772097191106,-79.39777613042362,Asian Restaurant
278,43.65215655162272,-79.39789907940482,23,13,4d629b821496370486910095,Dan Dan Noodles,43.652524,-79.397836,Asian Restaurant
279,43.65215655162272,-79.39789907940482,23,14,5b3ffdf166f3cd002c129df1,Chongqing Liuyishou Hotpot,43.651705,-79.397895,Chinese Restaurant
280,43.65215655162272,-79.39789907940482,23,15,54fce36c498eebc206762bcc,Homemade Ramen 蘭州拉麵,43.65233637238558,-79.39777996857809,Noodle House
281,43.65215655162272,-79.39789907940482,23,16,4e5feafbc65b2dc89e867a95,Bunderground,43.65299396815252,-79.39790806987726,Chinese Restaurant
282,43.65215655162272,-79.39789907940482,23,17,516f4ffde4b0d649deda4674,Master Mix,43.65222833773805,-79.39764968827049,Hotpot Restaurant
283,43.65215655162272,-79.39789907940482,23,18,4b736797f964a520e0ac2de3,Tea Shop 168,43.65225917812216,-79.3977602404162,Bubble Tea Shop
284,43.65215655162272,-79.39789907940482,23,19,51b604a0498e2384782ee1ef,Yoo J Express Restaurant (Purple Place! ),43.652564476551404,-79.3989031071905,Chinese Restaurant
285,43.65215655162272,-79.39789907940482,23,20,5d86690c6d03900008e7341e,Bao,43.652354,-79.398129,Chinese Restaurant
286,43.65215655162272,-79.39789907940482,23,21,4f404cdde4b0f4e3faec687c,Kuni Sushi Ya,43.65228588220273,-79.39773641154456,Sushi Restaurant
287,43.65215655162272,-79.39789907940482,23,22,5286834311d2ec214a69aeee,YooJ,43.65295641516667,-79.39770466314094,Asian Restaurant
288,43.653287016288914,-79.39275541349005,1,0,4b9a9949f964a52013c535e3,Espresso Etc,43.65401226517639,-79.39287751582636,Café
289,43.65441748095511,-79.39430737220808,2,0,5cedac507564f7002c310321,Yang's Braised Chicken Rice(ChinaTown)杨铭宇黄焖鸡米饭,43.653717,-79.39503,Chinese Restaurant
290,43.65441748095511,-79.39430737220808,2,1,5205690f11d28fa530d360a0,moose tea & smoothie,43.65364456176758,-79.3941879272461,Asian Restaurant
291,43.65441748095511,-79.39120345477203,17,0,54cab165498e6d15ec8cc305,Sumac,43.654353,-79.391086,Persian Restaurant
292,43.65441748095511,-79.39120345477203,17,1,50a44c58e4b0755d99fc1484,Salmon Lovers,43.654459,-79.39098,Japanese Restaurant
293,43.65441748095511,-79.39120345477203,17,2,550aed46498e1a8b2922acaa,Pho Express,43.653757,-79.390912,Vietnamese Restaurant
294,43.65441748095511,-79.39120345477203,17,3,526fe29411d2aeb3803013b0,The Fresh Italian Eatery,43.653889,-79.390785,Italian Restaurant
295,43.65441748095511,-79.39120345477203,17,4,56beb8d4cd10d44646f967c4,Fiesta Burrito,43.65376,-79.391018,Mexican Restaurant
296,43.65441748095511,-79.39120345477203,17,5,52f3d10c498e1496bd122f65,WOW Korean,43.65373022049511,-79.39086553834427,Asian Restaurant
297,43.65441748095511,-79.39120345477203,17,6,4b563b3cf964a5207d0628e3,New Sakura,43.65383654001572,-79.39092351605734,Japanese Restaurant
298,43.65441748095511,-79.39120345477203,17,7,4adf3764f964a520637821e3,Mission Burrito,43.65378337114667,-79.39114080611785,Burrito Place
299,43.65441748095511,-79.39120345477203,17,8,5ac3c5562d2fd9761f71f7f7,Jerk King,43.65421,-79.390103,Caribbean Restaurant
300,43.65441748095511,-79.39120345477203,17,9,4c15280ea5eb76b0c4d9c2b7,Tasty Chinese Food,43.65375663396815,-79.39075710760176,Chinese Restaurant
301,43.65441748095511,-79.39120345477203,17,10,4b19573bf964a52086db23e3,Gallery Sushi,43.6544805461278,-79.39063459151606,Sushi Restaurant
302,43.65441748095511,-79.39120345477203,17,11,5bbd028a947c05002cdf305e,Kababia,43.654053,-79.391244,Middle Eastern Restaurant
303,43.65441748095511,-79.39120345477203,17,12,4e4bea9d62e1ce23e57b9ed7,Souvlaki House,43.653648376464844,-79.39078521728516,Greek Restaurant
304,43.65441748095511,-79.39120345477203,17,13,4afc3b84f964a520b92022e3,Sushi & B.B.Q,43.654292,-79.391024,Sushi Restaurant
305,43.65441748095511,-79.39120345477203,17,14,4c375cc93849c928ec8cbdb1,Red Red Noodles,43.65369107053185,-79.39066761401908,Vietnamese Restaurant
306,43.65441748095511,-79.39120345477203,17,15,509d9368e4b0eaa915689a6b,Thai Bright,43.65380179347436,-79.39073908674092,Thai Restaurant
307,43.65441748095511,-79.39120345477203,17,16,5ec042e924a45f00086563df,Dzo,43.65438,-79.39174,Vietnamese Restaurant
308,43.65946083968163,-79.38140477119371,5,0,51755dc7498ece19b7261641,Banh Mi Boys,43.659292,-79.381949,Sandwich Place
309,43.65946083968163,-79.38140477119371,5,1,5cadd69f3092be0039a9ba17,Chi Chop,43.65873,-79.382057,Taiwanese Restaurant
310,43.65946083968163,-79.38140477119371,5,2,5bf8c212829b0c002c848c44,BarBurrito,43.66003,-79.38234,Burrito Place
311,43.65946083968163,-79.38140477119371,5,3,4be057862aed2d7ffeffc76f,Tummy Time,43.6588144248406,-79.38208498814286,Middle Eastern Restaurant
312,43.65946083968163,-79.38140477119371,5,4,59ecdaae029a5529f5e8773c,Boston Pizza,43.659338317692985,-79.38226037293168,Pizza Place
313,43.657199910349235,-79.38140477119371,27,0,5a08dc830e5da8316c2d6b88,H Mart,43.65756619799771,-79.3815375088334,Grocery Store
314,43.657199910349235,-79.38140477119371,27,1,4adc9148f964a520512d21e3,Chipotle Mexican Grill,43.65686,-79.38091,Mexican Restaurant
315,43.657199910349235,-79.38140477119371,27,2,5cdafb89ccad6b00399df3bc,Rolltation Sushi Burrito,43.6567086718623,-79.38091993331908,Asian Restaurant
316,43.657199910349235,-79.38140477119371,27,3,4ad4c061f964a52095f720e3,Salad King,43.65760101432665,-79.38161963017174,Thai Restaurant
317,43.657199910349235,-79.38140477119371,27,4,4bc8fa3a511f95218cd9acc7,California Thai,43.65636652255975,-79.38097794058562,Thai Restaurant
318,43.657199910349235,-79.38140477119371,27,5,55c93164498e50ddbfd48345,Basil Box,43.65774644233037,-79.38162767228032,Asian Restaurant
319,43.657199910349235,-79.38140477119371,27,6,5064c3dde4b07c5a18986283,Five Guys,43.657116518476315,-79.38085267976494,Burger Joint
320,43.657199910349235,-79.38140477119371,27,7,4f80c70fe4b0ac16a219e263,Ginger,43.6579231306468,-79.38166539589534,Vietnamese Restaurant
321,43.657199910349235,-79.38140477119371,27,8,533458f8498ee52eacd27807,Patties Express,43.657832414035745,-79.38183777062407,Caribbean Restaurant
322,43.657199910349235,-79.38140477119371,27,9,5e1793a9c63a2b0008da977b,Choco Churros,43.657522,-79.381329,Mexican Restaurant
323,43.657199910349235,-79.38140477119371,27,10,4c9a482dd4b1b1f75debce35,Fresh Ginger,43.65776776147356,-79.3813921854217,Vietnamese Restaurant
324,43.657199910349235,-79.38140477119371,27,11,51e3482e498e637129020ccd,Shisha Club,43.657385223776004,-79.38035847013651,Turkish Restaurant
325,43.657199910349235,-79.38140477119371,27,12,5deafc3289d1b10008c90050,Zhang's Kitchen,43.65763,-79.382324,Chinese Restaurant
326,43.657199910349235,-79.38140477119371,27,13,5b3d47cf234724002c65208f,Hurry Curry,43.657398,-79.380891,Indian Restaurant
327,43.657199910349235,-79.38140477119371,27,14,50f05848e4b0213e59d170e6,Temaki Lounge,43.656357,-79.381,Japanese Restaurant
328,43.657199910349235,-79.38140477119371,27,15,568dcf20498e1601e2f8b87f,Ali Baba's - Yonge north of Dundas,43.65791597172264,-79.38168923893144,Middle Eastern Restaurant
329,43.657199910349235,-79.38140477119371,27,16,5a554a51b3d8e279e51a9d93,Mi’hito Sushi Laboratory,43.65708,-79.381587,Sushi Restaurant
330,43.657199910349235,-79.38140477119371,27,17,5ed7db57df4d490008a02c27,Arabian Bites,43.657229,-79.381051,Middle Eastern Restaurant
331,43.657199910349235,-79.38140477119371,27,18,5e38dc26678a870007f39098,Charcoal Grill,43.657341,-79.380973,Pakistani Restaurant
332,43.657199910349235,-79.38140477119371,27,19,527dae3a498eaaa7f8fd063e,Milestones,43.65677017037749,-79.3805082043499,Restaurant
333,43.657199910349235,-79.38140477119371,27,20,5e443fae08024e0008f5d8d4,Go Cup,43.657358,-79.381063,Korean Restaurant
334,43.657199910349235,-79.38140477119371,27,21,5d0feeada8da670023958c16,Mazeh,43.657363,-79.380973,Middle Eastern Restaurant
335,43.657199910349235,-79.38140477119371,27,22,5bda51badee770002cb9a78b,Kabob Hut,43.657629,-79.381633,Shawarma Place
336,43.657199910349235,-79.38140477119371,27,23,4b8062e2f964a520a66d30e3,Tatami Sushi,43.65746596617573,-79.3809574842453,Sushi Restaurant
337,43.657199910349235,-79.38140477119371,27,24,4f638514e4b03be10235f104,Joe's Buffet Palace,43.65804526092245,-79.3818051473709,Indian Restaurant
338,43.657199910349235,-79.38140477119371,27,25,5fba640ad408796951561afa,Jollibee,43.657316,-79.381266,Filipino Restaurant
339,43.657199910349235,-79.38140477119371,27,26,5f8e19350079ea1340f964d7,Thindi,43.657322,-79.380964,Indian Restaurant
340,43.65946083968163,-79.37830059305794,6,0,599cb69eb5461876d54ab713,Katsuya,43.65986035759321,-79.37878806223506,Japanese Restaurant
341,43.65946083968163,-79.37830059305794,6,1,4e692aa11838f93d2c8c101e,Mishi,43.659123,-79.377337,Japanese Restaurant
342,43.65946083968163,-79.37830059305794,6,2,5807d6ab38fa0d52342ab18a,The Original Gyro Grill,43.659966,-79.378866,Greek Restaurant
343,43.65946083968163,-79.37830059305794,6,3,5e2a32696fe2f80008e42b68,Dr. Laffa,43.659952,-79.378091,Kosher Restaurant
344,43.65946083968163,-79.37830059305794,6,4,5e5015344694c00008c57565,Edomae Kiyomi,43.660035,-79.378105,Sushi Restaurant
345,43.65946083968163,-79.37830059305794,6,5,54595c88498eba1310e924ae,Steak & Cheese Factory,43.65991,-79.37929,Burger Joint
346,43.657199910349235,-79.37830059305794,3,0,560081e4498e303df1bb4905,Rockwell Cafe,43.65637969970703,-79.37834930419922,Caribbean Restaurant
347,43.657199910349235,-79.37830059305794,3,1,5c6f99406fd626002cc5cbf0,Hummussiah,43.657173,-79.37843,Halal Restaurant
348,43.657199910349235,-79.37830059305794,3,2,4bd884d2f645c9b60c23a8e0,Michi Roll and Sushi,43.657136952133385,-79.37826196080671,Sushi Restaurant
349,43.66789559240674,-79.38654682318786,16,0,4ad4c060f964a52086f720e3,7 West Cafe,43.66866503275271,-79.38682953936424,Café
350,43.66789559240674,-79.38654682318786,16,1,4bedf8b5e24d20a17b567214,Kothur Indian Cuisine,43.66787229558206,-79.38565911153148,Indian Restaurant
351,43.66789559240674,-79.38654682318786,16,2,4ec5dd47be7ba4fc6c8d2ba0,Hwarang,43.667857,-79.385743,Korean Restaurant
352,43.66789559240674,-79.38654682318786,16,3,4b64ef04f964a520c2da2ae3,Ruchi Taste of India,43.667729,-79.385782,Indian Restaurant
353,43.66789559240674,-79.38654682318786,16,4,5a0b7e12dd70c5214c310fa6,K-Wok,43.667835,-79.38599,Korean Restaurant
354,43.66789559240674,-79.38654682318786,16,5,512ea723e4b09363a3263223,Meet Dumplings,43.6678514919191,-79.38576327152461,Chinese Restaurant
355,43.66789559240674,-79.38654682318786,16,6,4e52a293483bf6d4ed3a4665,Wow! Sushi,43.668514,-79.386686,Sushi Restaurant
356,43.66789559240674,-79.38654682318786,16,7,5160b5dbe4b011345f5eb13b,Aji Sai Plus,43.66744867210171,-79.38554424257251,Japanese Restaurant
357,43.66789559240674,-79.38654682318786,16,8,56971946498ef01aa44663db,P'karos,43.667824692497845,-79.3854169668936,Tapas Restaurant
358,43.66789559240674,-79.38654682318786,16,9,506777eae4b0fb7004933461,Glarab,43.667814,-79.385709,Middle Eastern Restaurant
359,43.66789559240674,-79.38654682318786,16,10,4fcd193a754a56793a2651a5,Tasty Asian Cuisine,43.66794921757952,-79.3856406211853,Asian Restaurant
360,43.66789559240674,-79.38654682318786,16,11,4d685c44342b8cfa252eb92c,Basha,43.66785481869072,-79.38572810066741,Middle Eastern Restaurant
361,43.66789559240674,-79.38654682318786,16,12,5cd70bba947c05002c8dc887,Ooshee Mediterranean Oven,43.668518,-79.386764,Mediterranean Restaurant
362,43.66789559240674,-79.38654682318786,16,13,58e2f9a2b210144d3c5e690b,Kobi,43.668426,-79.386284,Korean Restaurant
363,43.66789559240674,-79.38654682318786,16,14,51cb6be4498eae9071c61df0,TKRE,43.667564748645155,-79.3856423934672,Indian Restaurant
364,43.66789559240674,-79.38654682318786,16,15,4adf45d4f964a520fb7821e3,Okonomi House お好みハウス,43.66844763699195,-79.38688420443032,Japanese Restaurant
365,43.669026057072934,-79.38809915957005,8,0,5b2d934e59c423002c0c6db6,Eataly,43.66975356278464,-79.3887197971344,Gourmet Shop
366,43.669026057072934,-79.38809915957005,8,1,4adcc289f964a520812f21e3,Scaccia Restaurant,43.66879380295752,-79.38829648072713,Italian Restaurant
367,43.669026057072934,-79.38809915957005,8,2,55249bd2498ebecfb8a6e32c,The One Eighty,43.668575406997014,-79.38821001834413,American Restaurant
368,43.669026057072934,-79.38809915957005,8,3,4adf40e2f964a520c67821e3,Sushi Club,43.66849078866492,-79.38788692648214,Sushi Restaurant
369,43.669026057072934,-79.38809915957005,8,4,5e233b945159da00083b5fea,La Pescheria,43.669484,-79.389152,Seafood Restaurant
370,43.669026057072934,-79.38809915957005,8,5,4b461accf964a5208d1626e3,Burrito Loco,43.668315,-79.388771,Burrito Place
371,43.669026057072934,-79.38809915957005,8,6,582612a970fc421beb228e3b,Holt's Gourmet,43.669813,-79.388414,American Restaurant
372,43.669026057072934,-79.38809915957005,8,7,5c5459d44acb19002c0c015e,一个人的夜里,43.669674,-79.387566,Cambodian Restaurant
373,43.66676512774054,-79.38809915957005,4,0,4c792e4981bca093af5efc14,Crown Princess Fine Dining 伯爵名宴,43.66645492941117,-79.38769789187712,Chinese Restaurant
374,43.66676512774054,-79.38809915957005,4,1,4c23ec2fc11dc9b6d5a92424,Hakutsuru Sake,43.666111032191786,-79.38794061353927,Japanese Restaurant
375,43.66676512774054,-79.38809915957005,4,2,4b6ced40f964a5205a5e2ce3,5th Elementt,43.666329,-79.388783,Indian Restaurant
376,43.66676512774054,-79.38809915957005,4,3,4c812766d4e23704a5eb5a88,Green Princess,43.666061,-79.388546,Asian Restaurant
377,43.669026057072934,-79.38499448680567,14,0,5a8205e33e67416e2bd13fb9,Naan & Kabob,43.66900468266943,-79.38621916870052,Afghan Restaurant
378,43.669026057072934,-79.38499448680567,14,1,4ae787b9f964a52020ac21e3,Tokyo Kitchen,43.66878262373862,-79.38515305215851,Japanese Restaurant
379,43.669026057072934,-79.38499448680567,14,2,59c54d4f2d2fd97564d4cfc8,Onnki Donburi,43.669757426551236,-79.3845741987884,Japanese Restaurant
380,43.669026057072934,-79.38499448680567,14,3,527428a5498e8e23580dbe15,Miss Korea,43.668949890121645,-79.38616491615092,Korean Restaurant
381,43.669026057072934,-79.38499448680567,14,4,5acd155ea879216dfece538d,Constantine,43.668772727073986,-79.38528710685651,Mediterranean Restaurant
382,43.669026057072934,-79.38499448680567,14,5,4c21397599282d7f4d4565b0,Sukhi Biryani House,43.66947836385186,-79.38597609141183,Indian Restaurant
383,43.669026057072934,-79.38499448680567,14,6,4bed7c2d6e8c20a1cb6a7061,Tokyo Kitchen,43.668888,-79.385346,Japanese Restaurant
384,43.669026057072934,-79.38499448680567,14,7,4d3e1d9d44f5a093c61ddbbb,Oga Noodles House,43.6693,-79.384279,Korean Restaurant
385,43.669026057072934,-79.38499448680567,14,8,5c5a57144a1cc0002c10c920,你的回忆里,43.668381,-79.385218,Filipino Restaurant
386,43.669026057072934,-79.38499448680567,14,9,4b62563df964a52004432ae3,Zyng Asian Grill,43.66874459026651,-79.38609486619072,Asian Restaurant
387,43.669026057072934,-79.38499448680567,14,10,4b048151f964a520b75422e3,Green Mango,43.66931689981435,-79.38591730317971,Thai Restaurant
388,43.669026057072934,-79.38499448680567,14,11,512d43ebe4b05f7d41d9353c,Tacqueria,43.668903,-79.385959,Mexican Restaurant
389,43.669026057072934,-79.38499448680567,14,12,506656f4e4b01301eb9dd78e,Fire Chicken,43.669048213192795,-79.38577435023112,Korean Restaurant
390,43.669026057072934,-79.38499448680567,14,13,5c5a5704bcbf7a003912311d,只有我和你的世界,43.668521,-79.384267,Filipino Restaurant
391,43.66676512774054,-79.38499448680567,15,0,534c20fa498ee7bc010834ce,Sansotei Ramen 三草亭,43.666734794517005,-79.3853530009483,Ramen Restaurant
392,43.66676512774054,-79.38499448680567,15,1,4a72360ef964a52098da1fe3,Ethiopian House,43.6665987043968,-79.38566906742606,Ethiopian Restaurant
393,43.66676512774054,-79.38499448680567,15,2,53b36066498e7258bfd57470,Fat Bastard Burrito,43.66642499243207,-79.3851777812395,Burrito Place
394,43.66676512774054,-79.38499448680567,15,3,4b209711f964a520513324e3,Koyoi,43.666615623554506,-79.38559610449073,Japanese Restaurant
395,43.66676512774054,-79.38499448680567,15,4,56b2d293498eb0d4376389a8,The Boil Bar,43.66709552997839,-79.38567280769347,Seafood Restaurant
396,43.66676512774054,-79.38499448680567,15,5,51be65e5498e60d2da4e346a,Wabar,43.66757714374821,-79.38531462279731,Korean Restaurant
397,43.66676512774054,-79.38499448680567,15,6,4ba3a9bcf964a520815138e3,Wrap & Grab Lebanese Cuisine,43.6660400448863,-79.3851900100708,Middle Eastern Restaurant
398,43.66676512774054,-79.38499448680567,15,7,54dfdc56498e7c46e19d4675,bumkins,43.666279,-79.384572,French Restaurant
399,43.66676512774054,-79.38499448680567,15,8,5160b5dbe4b011345f5eb13b,Aji Sai Plus,43.66744867210171,-79.38554424257251,Japanese Restaurant
400,43.66676512774054,-79.38499448680567,15,9,534467dc498e1cde2b84c8ea,M'zaar,43.66722395670854,-79.38551584879632,Middle Eastern Restaurant
401,43.66676512774054,-79.38499448680567,15,10,55844498498e9a8f040f48c8,mazaar,43.667204,-79.385669,Middle Eastern Restaurant
402,43.66676512774054,-79.38499448680567,15,11,4f05d53f2c5b4138bf82dffc,Guac,43.6665398988787,-79.38465821000187,Mexican Restaurant
403,43.66676512774054,-79.38499448680567,15,12,5d6d78260933680008fd80bb,Butter Chicken Roti,43.666699,-79.385449,Indian Restaurant
404,43.66676512774054,-79.38499448680567,15,13,5fa5d4f690605a33ba9d457e,ZIBA Berlin Doner,43.666168,-79.385236,Doner Restaurant
405,43.66676512774054,-79.38499448680567,15,14,5a69ba9112138476a91996f8,Dal Moro's Fresh Pasta To Go,43.66664070494267,-79.38540023837237,Italian Restaurant
406,43.67015652173913,-79.38965161290322,12,0,5b2d934e59c423002c0c6db6,Eataly,43.66975356278464,-79.3887197971344,Gourmet Shop
407,43.67015652173913,-79.38965161290322,12,1,5f45981adcb38b795c9bbbb4,Il Patio Di Eataly By Aperol,43.66977,-79.388916,Italian Restaurant
408,43.67015652173913,-79.38965161290322,12,2,4cf6fff6b9792d434e835595,Manchu Wok,43.670662,-79.388741,Chinese Restaurant
409,43.67015652173913,-79.38965161290322,12,3,4d30a9655f806dcbb6db1bac,Metropolis Cafe,43.67059136676369,-79.38920850191734,Korean Restaurant
410,43.67015652173913,-79.38965161290322,12,4,4cf7dfafeb096ea81d03cd48,Teriyaki Experience,43.67080227557458,-79.38882029989607,Japanese Restaurant
411,43.67015652173913,-79.38965161290322,12,5,5cf0206306fb60002c4118ac,Bento Sushi,43.670106627317715,-79.38921328581785,Sushi Restaurant
412,43.67015652173913,-79.38965161290322,12,6,4c98e3324804a1434677ef0e,Yummy Garden,43.6704,-79.3896,Korean Restaurant
413,43.67015652173913,-79.38965161290322,12,7,5e233b945159da00083b5fea,La Pescheria,43.669484,-79.389152,Seafood Restaurant
414,43.67015652173913,-79.38965161290322,12,8,554ea8bd498efa064ec03031,Paramount Fine Foods,43.67067671443592,-79.38986486034777,Middle Eastern Restaurant
415,43.67015652173913,-79.38965161290322,12,9,4c61844113791b8dd22352af,Clubhouse Cafe,43.670544,-79.389638,Korean Restaurant
416,43.67015652173913,-79.38965161290322,12,10,4be05c674f15c928d2f7ca0b,Sushi on the run,43.67067925541649,-79.38913368614006,Sushi Restaurant
417,43.67015652173913,-79.38965161290322,12,11,5fa320626224656e543d1ae1,Box’d POP-UP Yorkville,43.67087106551735,-79.39026206731796,Middle Eastern Restaurant
418,43.67128698640533,-79.3912040077609,19,0,5ae78971f62e09002c452f06,Sofia,43.67059161989592,-79.39184887035938,Italian Restaurant
419,43.67128698640533,-79.3912040077609,19,1,4d0d035a903d37042c51c155,Dynasty Chinese Cuisine,43.67114125499929,-79.39082722487748,Dim Sum Restaurant
420,43.67128698640533,-79.3912040077609,19,2,4d7c569786cfa1438065c8a0,Utsav Indian Cuisine,43.671154335539164,-79.39080151220948,Indian Restaurant
421,43.67128698640533,-79.3912040077609,19,3,4b97bb72f964a520671235e3,KOKO Share Bar,43.671033938155546,-79.39145701257964,Asian Restaurant
422,43.67128698640533,-79.3912040077609,19,4,5064fc5be4b07c5a18b31860,C House Lounge Cafe,43.671015792834446,-79.39065661821083,Lounge
423,43.67128698640533,-79.3912040077609,19,5,4e78e8a2b993adb6be32117f,Zaza paninoteca,43.670738995673325,-79.39115903081854,Italian Restaurant
424,43.67128698640533,-79.3912040077609,19,6,5ad6346f7564f758e0c8c7f2,Ceylon Spice,43.670822,-79.39109,Sri Lankan Restaurant
425,43.67128698640533,-79.3912040077609,19,7,4d35c67e97fa5941b5ba603e,Sorrel Restaurant,43.67105534505626,-79.39145835503048,New American Restaurant
426,43.67128698640533,-79.3912040077609,19,8,4b58978bf964a520116028e3,Utsav,43.67097511365512,-79.39075558043812,Indian Restaurant
427,43.67128698640533,-79.3912040077609,19,9,4addf19ef964a520916621e3,True Restaurant,43.671073,-79.390808,Italian Restaurant
428,43.67128698640533,-79.3912040077609,19,10,4eb6b7c49a52ad1e3f7b2915,松柏軒,43.671045,-79.39078,Asian Restaurant
429,43.67128698640533,-79.3912040077609,19,11,4b679ab8f964a5204a572be3,Vaticano Trattoria,43.670737686963555,-79.39104315158808,Italian Restaurant
430,43.67128698640533,-79.3912040077609,19,12,4bdcdbc93904a593ca13509e,Chimichanga,43.671176,-79.390773,Mexican Restaurant
431,43.67128698640533,-79.3912040077609,19,13,4af30f13f964a52030ea21e3,Trattoria Nervosa,43.67101871082308,-79.39108133032904,Italian Restaurant
432,43.67128698640533,-79.3912040077609,19,14,4cf923af01568cfabf9324e7,Scollard Variety and Deli,43.67166769782551,-79.39205477197565,American Restaurant
433,43.67128698640533,-79.3912040077609,19,15,57e6f47c498eab3c7661f7b1,Ahla-w-sahla,43.671196,-79.390058,Middle Eastern Restaurant
434,43.67128698640533,-79.3912040077609,19,16,56561665498ecb549bd814e8,Chabrol,43.67108129272544,-79.39179567701271,French Restaurant
435,43.67128698640533,-79.3912040077609,19,17,4ad4c05ff964a5203af720e3,Yamato Japanese Restaurant,43.67068330431913,-79.39105580388929,Japanese Restaurant
436,43.67128698640533,-79.3912040077609,19,18,5fa320626224656e543d1ae1,Box’d POP-UP Yorkville,43.67087106551735,-79.39026206731796,Middle Eastern Restaurant
437,43.669026057072934,-79.3912040077609,1,0,5fb17fb6d576842485470862,Amal Toronto,43.669429,-79.392301,Lebanese Restaurant
438,43.67128698640533,-79.38809921804554,15,0,5605d124498e0f46d602ee3a,Kathmandu Restaurant,43.671023138679175,-79.3879571077354,Indian Restaurant
439,43.67128698640533,-79.38809921804554,15,1,4b737d37f964a520f6b02de3,Blu Ristorante and Lounge,43.671685168801105,-79.38861384709223,Italian Restaurant
440,43.67128698640533,-79.38809921804554,15,2,4cf6fff6b9792d434e835595,Manchu Wok,43.670662,-79.388741,Chinese Restaurant
441,43.67128698640533,-79.38809921804554,15,3,526c11a7498ec0ae6e087cc0,بيت الخليج || Bet Alkhalej,43.671607340262426,-79.38766570983755,Middle Eastern Restaurant
442,43.67128698640533,-79.38809921804554,15,4,4ba11c80f964a520d59837e3,Xtreme Taste,43.67113857986035,-79.38761222067072,Mediterranean Restaurant
443,43.67128698640533,-79.38809921804554,15,5,4e9a28752c5b4d6405424a47,Lee Chen Asian Diner,43.6712884023723,-79.38737380901318,Dumpling Restaurant
444,43.67128698640533,-79.38809921804554,15,6,4b8d54fff964a5201cf532e3,Sunny Garden,43.6707042174724,-79.38845157623291,Korean Restaurant
445,43.67128698640533,-79.38809921804554,15,7,51683a3be4b085a0b54cc19b,Modern Cuisine,43.670791481118904,-79.38875432370943,Korean Restaurant
446,43.67128698640533,-79.38809921804554,15,8,4cf7dfafeb096ea81d03cd48,Teriyaki Experience,43.67080227557458,-79.38882029989607,Japanese Restaurant
447,43.67128698640533,-79.38809921804554,15,9,51488caee4b02efdcdc3faaf,Little Hut Café,43.670754924793826,-79.38783615022884,Swiss Restaurant
448,43.67128698640533,-79.38809921804554,15,10,54dce752498e87de9bf0db07,The Vine Leaf,43.67147098407354,-79.38810555536827,Mediterranean Restaurant
449,43.67128698640533,-79.38809921804554,15,11,4b7ae150f964a5204c432fe3,Eat a Pita,43.67110180827571,-79.38764082372644,Middle Eastern Restaurant
450,43.67128698640533,-79.38809921804554,15,12,518933e7498e765ce5715a40,Sushi on the Go,43.67070499699115,-79.38802308449053,Sushi Restaurant
451,43.67128698640533,-79.38809921804554,15,13,4adc982df964a520ae2d21e3,Esther's Soup Kitchen,43.67099100066419,-79.3880140126241,Soup Place
452,43.67128698640533,-79.38809921804554,15,14,4d31f35bb6093704f388f1df,I Piaceri Del Caffe,43.67136079391253,-79.38797909999234,Italian Restaurant
453,43.669026057072934,-79.38809921804554,8,0,5b2d934e59c423002c0c6db6,Eataly,43.66975356278464,-79.3887197971344,Gourmet Shop
454,43.669026057072934,-79.38809921804554,8,1,4adcc289f964a520812f21e3,Scaccia Restaurant,43.66879380295752,-79.38829648072713,Italian Restaurant
455,43.669026057072934,-79.38809921804554,8,2,55249bd2498ebecfb8a6e32c,The One Eighty,43.668575406997014,-79.38821001834413,American Restaurant
456,43.669026057072934,-79.38809921804554,8,3,4adf40e2f964a520c67821e3,Sushi Club,43.66849078866492,-79.38788692648214,Sushi Restaurant
457,43.669026057072934,-79.38809921804554,8,4,5e233b945159da00083b5fea,La Pescheria,43.669484,-79.389152,Seafood Restaurant
458,43.669026057072934,-79.38809921804554,8,5,4b461accf964a5208d1626e3,Burrito Loco,43.668315,-79.388771,Burrito Place
459,43.669026057072934,-79.38809921804554,8,6,582612a970fc421beb228e3b,Holt's Gourmet,43.669813,-79.388414,American Restaurant
460,43.669026057072934,-79.38809921804554,8,7,5c5459d44acb19002c0c015e,一个人的夜里,43.669674,-79.387566,Cambodian Restaurant
461,43.77537391304348,-79.41545806451613,6,0,4f2aef27e4b050ce91bf20a5,Golden Shawarma,43.77503326515722,-79.41440451427333,Greek Restaurant
462,43.77537391304348,-79.41545806451613,6,1,5b2ed1e8464d65002c1e0e37,Cafe Vite,43.775693,-79.414646,Vietnamese Restaurant
463,43.77537391304348,-79.41545806451613,6,2,4b69fc3df964a520cfbf2be3,Dandanah Shawarma,43.775223813918984,-79.41426710188576,Middle Eastern Restaurant
464,43.77537391304348,-79.41545806451613,6,3,4d9a4ddde0a1721e89eab5bb,Peacock Express Indian Food,43.776057,-79.415169,Indian Restaurant
465,43.77537391304348,-79.41545806451613,6,4,4d892f62401a224b6ba68718,Roll.com,43.775288006642036,-79.41425610888591,Korean Restaurant
466,43.77537391304348,-79.41545806451613,6,5,5fb2bf0b718dd247c760d0d2,Jian Bing Club,43.77549,-79.41479,Chinese Restaurant
467,43.77650437770968,-79.41390294080763,26,0,5b00c07c418686002c4f12f4,Sang-Ji Fried Bao,43.776573,-79.41442,Dumpling Restaurant
468,43.77650437770968,-79.41390294080763,26,1,5df44913b66e960008dc515f,Big Mao 大牌冒菜,43.776157,-79.41432,Szechuan Restaurant
469,43.77650437770968,-79.41390294080763,26,2,58a0ab8004f4d7127735a1ce,Sansotei Ramen 三草亭,43.77670850946814,-79.41392739650291,Ramen Restaurant
470,43.77650437770968,-79.41390294080763,26,3,543cb4f5498ee8034fabc321,ZenQ,43.77673092310047,-79.41452506160952,Bubble Tea Shop
471,43.77650437770968,-79.41390294080763,26,4,5572302c498eedcba6f42177,Naniwa Taro,43.776714,-79.414,Japanese Restaurant
472,43.77650437770968,-79.41390294080763,26,5,4b57b1d7f964a520573c28e3,My Sushi,43.77662098191559,-79.41470188191623,Sushi Restaurant
473,43.77650437770968,-79.41390294080763,26,6,54073d31498ec70927104793,VIPs sushi,43.776751367599054,-79.41438802479763,Japanese Restaurant
474,43.77650437770968,-79.41390294080763,26,7,5b00b63db9a5a8002c1f1458,Flaming Kitchen,43.776287,-79.414406,Asian Restaurant
475,43.77650437770968,-79.41390294080763,26,8,5df023a993de1900085e0d3c,大舌头麻辣烫 DA SHE TOU MALATANG,43.775784680002126,-79.41431477665901,Chinese Restaurant
476,43.77650437770968,-79.41390294080763,26,9,56b53ecc498e39e706480692,Little Master,43.777008,-79.41485,Chinese Restaurant
477,43.77650437770968,-79.41390294080763,26,10,52eff887498ea0ec05fa9961,Angus Pho House 越來香,43.777010158757875,-79.41471437081292,Vietnamese Restaurant
478,43.77650437770968,-79.41390294080763,26,11,4b5bdcc6f964a520591a29e3,King Sushi,43.775781,-79.413403,Sushi Restaurant
479,43.77650437770968,-79.41390294080763,26,12,5cc08ad689b06a0039b82d61,Two Nine Tea,43.775863,-79.414239,Bubble Tea Shop
480,43.77650437770968,-79.41390294080763,26,13,4bf88f865ec320a1c40c89d3,Wiki Star,43.77575288219598,-79.41370645722384,Chinese Restaurant
481,43.77650437770968,-79.41390294080763,26,14,5dd97420e100e0000799d7aa,Chung Chun Rice Dog,43.776818,-79.41363,Korean Restaurant
482,43.77650437770968,-79.41390294080763,26,15,5b857ce067a9fe002ca8815d,One Two Snack,43.775932,-79.413284,Taiwanese Restaurant
483,43.77650437770968,-79.41390294080763,26,16,5ae4ca9c67e5f2002ca83e99,Chu Resto,43.776253,-79.41457,Noodle House
484,43.77650437770968,-79.41390294080763,26,17,5c16db964b78c5002ce9d361,Bei Jing Restaurant,43.77565,-79.41425,Chinese Restaurant
485,43.77650437770968,-79.41390294080763,26,18,5e594e5b6c502e0007435300,付小姐在成都,43.777069,-79.414659,Szechuan Restaurant
486,43.77650437770968,-79.41390294080763,26,19,518ebb79498e32e3d201f78c,Talise Exquisite Homestyke Food & Sandwiches,43.776357,-79.414648,Eastern European Restaurant
487,43.77650437770968,-79.41390294080763,26,20,5db776f40b9d880007fe2045,Old Taste 徽小厨,43.776573,-79.414371,Chinese Restaurant
488,43.77650437770968,-79.41390294080763,26,21,59c69c0df5e9d70dc10f55ee,Chengdu Taste,43.77585,-79.41429,Chinese Restaurant
489,43.77650437770968,-79.41390294080763,26,22,54b867ef498e86b346168d1f,Tasty Hut,43.7761866542509,-79.41477827493227,Chinese Restaurant
490,43.77650437770968,-79.41390294080763,26,23,5532ead9498e3cd7914f75ee,Artisan Noodle 老碗,43.77626534484827,-79.41462986904645,Chinese Restaurant
491,43.77650437770968,-79.41390294080763,26,24,56eed380498eab944bd8e330,牛大碗 (Big Beef Bowl),43.776879,-79.414482,Chinese Restaurant
492,43.77650437770968,-79.41390294080763,26,25,4fef85e4e4b053eae10e5b3d,Hot Pot on Yonge 小肥牛,43.776991839383385,-79.41475896689856,Chinese Restaurant
493,43.774243448377284,-79.41390294080763,15,0,4bc0b301920eb7138e59192c,Taftan Kebab,43.77449750901109,-79.41429074551137,Middle Eastern Restaurant
494,43.774243448377284,-79.41390294080763,15,1,543d5b07498e006131fa3449,Hakata Shoryuken Ramen,43.77351855289592,-79.41387203910281,Ramen Restaurant
495,43.774243448377284,-79.41390294080763,15,2,53365b04498e1331002e4d2c,Bar Koyoi,43.77494335172162,-79.4143055773749,Japanese Restaurant
496,43.774243448377284,-79.41390294080763,15,3,4f2aef27e4b050ce91bf20a5,Golden Shawarma,43.77503326515722,-79.41440451427333,Greek Restaurant
497,43.774243448377284,-79.41390294080763,15,4,5dc0e499b3f7fa0008a9065a,大舌头麻辣烫,43.774979,-79.414185,Chinese Restaurant
498,43.774243448377284,-79.41390294080763,15,5,5a178d77c0af5707fb2f35fc,Go Topoki,43.774804,-79.414154,Korean Restaurant
499,43.774243448377284,-79.41390294080763,15,6,549f0c7c498effe1e006ed00,Royal Dumpling,43.7744,-79.4142,Chinese Restaurant
500,43.774243448377284,-79.41390294080763,15,7,5c1c6a85ee7120002cc974ec,Superhot Sofun,43.77357099523637,-79.41424906253815,Noodle House
501,43.774243448377284,-79.41390294080763,15,8,51bfa810498e83be18840c26,Arigato Chicken Pocha Pocha,43.77341114187812,-79.41395929739502,Korean Restaurant
502,43.774243448377284,-79.41390294080763,15,9,5d79b20272c40900082e59dc,Szechuan Beef Pot 蜀小匠,43.77479,-79.41401,Szechuan Restaurant
503,43.774243448377284,-79.41390294080763,15,10,5ac800ff5c68383eb44644e4,Hot Impression 川渝印象,43.773422,-79.4141,Chinese Restaurant
504,43.774243448377284,-79.41390294080763,15,11,4d2f34045055a35d049599ca,Mot Na Son 맛나손,43.774390412729005,-79.41427066714837,Korean Restaurant
505,43.774243448377284,-79.41390294080763,15,12,5d6c61a64d67cb0008414e44,蜀小匠牛排火锅&书亦烧仙草#完美舍蕾体验,43.774944,-79.41424,Restaurant
506,43.774243448377284,-79.41390294080763,15,13,528ad96811d21847fb5d5a2a,만두랑 Mandurang,43.77451968716115,-79.41315680228784,Korean Restaurant
507,43.774243448377284,-79.41390294080763,15,14,4df50c2b52b100c2d80009e1,Matnason,43.7745937,-79.4143529,Korean Restaurant
508,43.77876530704207,-79.41390299960854,6,0,4bbfdb854cdfc9b6d0199221,Lim Ga Ne 임가네,43.778352684061865,-79.41500008106232,Korean Restaurant
509,43.77876530704207,-79.41390299960854,6,1,5d4cbbf778bb0e0007819f76,Yonge Bistro 央食亭,43.778545,-79.414955,Japanese Restaurant
510,43.77876530704207,-79.41390299960854,6,2,4dffd7dbd22d5ec6f2769473,Kokoya 꼬꼬야,43.778318,-79.414802,Fried Chicken Joint
511,43.77876530704207,-79.41390299960854,6,3,5989dd910ff4f91c112619af,Hot Star Large Fried Chicken,43.77851535933755,-79.41499471664429,Fried Chicken Joint
512,43.77876530704207,-79.41390299960854,6,4,51169163e4b0590accf3a7ec,Onga,43.778263092041016,-79.41471862792969,Korean Restaurant
513,43.77876530704207,-79.41390299960854,6,5,5b50cc0da42362002c708c62,Jin's Mi-Fen 津 米粉馆,43.77822,-79.41487,Noodle House
514,43.77650437770968,-79.41390299960854,26,0,5b00c07c418686002c4f12f4,Sang-Ji Fried Bao,43.776573,-79.41442,Dumpling Restaurant
515,43.77650437770968,-79.41390299960854,26,1,5df44913b66e960008dc515f,Big Mao 大牌冒菜,43.776157,-79.41432,Szechuan Restaurant
516,43.77650437770968,-79.41390299960854,26,2,58a0ab8004f4d7127735a1ce,Sansotei Ramen 三草亭,43.77670850946814,-79.41392739650291,Ramen Restaurant
517,43.77650437770968,-79.41390299960854,26,3,543cb4f5498ee8034fabc321,ZenQ,43.77673092310047,-79.41452506160952,Bubble Tea Shop
518,43.77650437770968,-79.41390299960854,26,4,5572302c498eedcba6f42177,Naniwa Taro,43.776714,-79.414,Japanese Restaurant
519,43.77650437770968,-79.41390299960854,26,5,4b57b1d7f964a520573c28e3,My Sushi,43.77662098191559,-79.41470188191623,Sushi Restaurant
520,43.77650437770968,-79.41390299960854,26,6,54073d31498ec70927104793,VIPs sushi,43.776751367599054,-79.41438802479763,Japanese Restaurant
521,43.77650437770968,-79.41390299960854,26,7,5b00b63db9a5a8002c1f1458,Flaming Kitchen,43.776287,-79.414406,Asian Restaurant
522,43.77650437770968,-79.41390299960854,26,8,5df023a993de1900085e0d3c,大舌头麻辣烫 DA SHE TOU MALATANG,43.775784680002126,-79.41431477665901,Chinese Restaurant
523,43.77650437770968,-79.41390299960854,26,9,56b53ecc498e39e706480692,Little Master,43.777008,-79.41485,Chinese Restaurant
524,43.77650437770968,-79.41390299960854,26,10,52eff887498ea0ec05fa9961,Angus Pho House 越來香,43.777010158757875,-79.41471437081292,Vietnamese Restaurant
525,43.77650437770968,-79.41390299960854,26,11,4b5bdcc6f964a520591a29e3,King Sushi,43.775781,-79.413403,Sushi Restaurant
526,43.77650437770968,-79.41390299960854,26,12,5cc08ad689b06a0039b82d61,Two Nine Tea,43.775863,-79.414239,Bubble Tea Shop
527,43.77650437770968,-79.41390299960854,26,13,4bf88f865ec320a1c40c89d3,Wiki Star,43.77575288219598,-79.41370645722384,Chinese Restaurant
528,43.77650437770968,-79.41390299960854,26,14,5dd97420e100e0000799d7aa,Chung Chun Rice Dog,43.776818,-79.41363,Korean Restaurant
529,43.77650437770968,-79.41390299960854,26,15,5b857ce067a9fe002ca8815d,One Two Snack,43.775932,-79.413284,Taiwanese Restaurant
530,43.77650437770968,-79.41390299960854,26,16,5ae4ca9c67e5f2002ca83e99,Chu Resto,43.776253,-79.41457,Noodle House
531,43.77650437770968,-79.41390299960854,26,17,5c16db964b78c5002ce9d361,Bei Jing Restaurant,43.77565,-79.41425,Chinese Restaurant
532,43.77650437770968,-79.41390299960854,26,18,5e594e5b6c502e0007435300,付小姐在成都,43.777069,-79.414659,Szechuan Restaurant
533,43.77650437770968,-79.41390299960854,26,19,518ebb79498e32e3d201f78c,Talise Exquisite Homestyke Food & Sandwiches,43.776357,-79.414648,Eastern European Restaurant
534,43.77650437770968,-79.41390299960854,26,20,5db776f40b9d880007fe2045,Old Taste 徽小厨,43.776573,-79.414371,Chinese Restaurant
535,43.77650437770968,-79.41390299960854,26,21,59c69c0df5e9d70dc10f55ee,Chengdu Taste,43.77585,-79.41429,Chinese Restaurant
536,43.77650437770968,-79.41390299960854,26,22,54b867ef498e86b346168d1f,Tasty Hut,43.7761866542509,-79.41477827493227,Chinese Restaurant
537,43.77650437770968,-79.41390299960854,26,23,5532ead9498e3cd7914f75ee,Artisan Noodle 老碗,43.77626534484827,-79.41462986904645,Chinese Restaurant
538,43.77650437770968,-79.41390299960854,26,24,56eed380498eab944bd8e330,牛大碗 (Big Beef Bowl),43.776879,-79.414482,Chinese Restaurant
539,43.77650437770968,-79.41390299960854,26,25,4fef85e4e4b053eae10e5b3d,Hot Pot on Yonge 小肥牛,43.776991839383385,-79.41475896689856,Chinese Restaurant
540,43.77876530704207,-79.41079263458973,1,0,4cc3ac71d43ba143bb0f62f8,Sut Gwa Sokeum,43.779414,-79.411382,Korean Restaurant
541,43.80406956521739,-79.28642580645162,2,0,4bad434ef964a5207a3f3be3,Full House Chinese Cuisine 炳勝農家菜,43.80459670304366,-79.28714764552099,Chinese Restaurant
542,43.80406956521739,-79.28642580645162,2,1,4b8033b8f964a520ed5b30e3,Vietnam Noodle Star 越華菀,43.80451639521751,-79.28731966720959,Vietnamese Restaurant
543,43.805200029883586,-79.28798167696944,36,0,4bad434ef964a5207a3f3be3,Full House Chinese Cuisine 炳勝農家菜,43.80459670304366,-79.28714764552099,Chinese Restaurant
544,43.805200029883586,-79.28798167696944,36,1,4b8033b8f964a520ed5b30e3,Vietnam Noodle Star 越華菀,43.80451639521751,-79.28731966720959,Vietnamese Restaurant
545,43.805200029883586,-79.28798167696944,36,2,594ad1ed112c6c523a00adf6,Sha Xian Delicacies 沙县小吃,43.805724,-79.28898,Chinese Restaurant
546,43.805200029883586,-79.28798167696944,36,3,5143eeece4b0315274d027bb,Aberdeen Delicatessen 香港仔美食,43.80493844423408,-79.28845578179929,Dessert Shop
547,43.805200029883586,-79.28798167696944,36,4,53ed4370498e4e94573b359f,Enjoy Noodle King 省港澳,43.80502700805664,-79.2870101928711,Noodle House
548,43.805200029883586,-79.28798167696944,36,5,4fd51a65e4b09c51ff01d93b,精舞鴨膊,43.80487060546875,-79.28799438476562,Asian Restaurant
549,43.805200029883586,-79.28798167696944,36,6,4bd3364fa8b3a593955e695f,Konner Chinese Restaurant 玉樓東,43.80511163265573,-79.2876161018525,Chinese Restaurant
550,43.805200029883586,-79.28798167696944,36,7,513a8f95e4b0ec8650199570,Aroma Delight Palace,43.80498123168945,-79.28840637207031,Chinese Restaurant
551,43.805200029883586,-79.28798167696944,36,8,5c1c68a356c89f002c19351a,superhot,43.80451447370012,-79.28778290748596,Szechuan Restaurant
552,43.805200029883586,-79.28798167696944,36,9,5a6fe4f16eda027c747c3411,Korean Restaurant OUR,43.804463,-79.287836,Korean Restaurant
553,43.805200029883586,-79.28798167696944,36,10,4de2a1eed4c0704405711c5c,Dacheng Chinese Cuisine Restaurant,43.80481645235618,-79.28835153579712,Chinese Restaurant
554,43.805200029883586,-79.28798167696944,36,11,50e9e6ece4b005f7aeca199a,Qin's Place 小味燒烤涮,43.805122,-79.287629,Chinese Restaurant
555,43.805200029883586,-79.28798167696944,36,12,4d61d0c7922960fca7f67e8b,Shaanxi Legend 漢唐府,43.805154458271126,-79.28893365297094,Chinese Restaurant
556,43.805200029883586,-79.28798167696944,36,13,5133f1e2e4b00e1a726d54cb,Bu Jian Bu San Restaurant,43.805164,-79.288768,Asian Restaurant
557,43.805200029883586,-79.28798167696944,36,14,5176c35be4b0888c41e85fdb,Health Gourmet 食全食美,43.80546923821083,-79.28791215928922,Chinese Restaurant
558,43.805200029883586,-79.28798167696944,36,15,4fdd2ca8e4b05197cd8cc8e6,圆明园,43.804453898278844,-79.28799798154667,Chinese Restaurant
559,43.805200029883586,-79.28798167696944,36,16,502449cbe4b0953b3d8a06b1,Owl of Minerva,43.80434034282142,-79.2877655512685,Korean Restaurant
560,43.805200029883586,-79.28798167696944,36,17,59b0872c3731ee4154e3956f,Sichuan Kungfu Fish,43.804443,-79.288001,Szechuan Restaurant
561,43.805200029883586,-79.28798167696944,36,18,547a490b498edded453956bc,汉食坊 Han Shi Fang,43.805053,-79.288621,Chinese Restaurant
562,43.805200029883586,-79.28798167696944,36,19,50ce0f9ee4b0cc5bc7050261,稫田 Inada Japanese Restaurant,43.805091,-79.287424,Japanese Restaurant
563,43.805200029883586,-79.28798167696944,36,20,5805371338fad92a6f69eb6f,Qing Feng Bun,43.805294,-79.28886,Chinese Restaurant
564,43.805200029883586,-79.28798167696944,36,21,5ce81f6c67a9fe002cae7892,Dandelion Noodle,43.804893,-79.2878,Noodle House
565,43.805200029883586,-79.28798167696944,36,22,5341deef498eb562ecd5b265,BBQ Harbin,43.805526,-79.288076,BBQ Joint
566,43.805200029883586,-79.28798167696944,36,23,5e1164557cee8d000806bacc,雲臨海鮮館 Yunlin Seafood Restaurant,43.804724,-79.288711,Chinese Restaurant
567,43.805200029883586,-79.28798167696944,36,24,5659d531498e36a60dee12ec,阿香米線 a! Xiang,43.804945905814016,-79.28872450370055,Noodle House
568,43.805200029883586,-79.28798167696944,36,25,5210188a11d25e7b65e59173,Qin's Place 天安食府,43.805184,-79.287614,Chinese Restaurant
569,43.805200029883586,-79.28798167696944,36,26,53404157498ed73083ad125c,Rain & Sunny Restaurant 雨晴面館,43.80506,-79.288459,Chinese Restaurant
570,43.805200029883586,-79.28798167696944,36,27,5c33cc76646e38002c5008c3,马路边边（Legend Of Spice）,43.80463,-79.288669,Chinese Restaurant
571,43.805200029883586,-79.28798167696944,36,28,57d34d9f498e462efc8a27b6,Beijing Restaurant 京味肉饼,43.805267,-79.28876,Chinese Restaurant
572,43.805200029883586,-79.28798167696944,36,29,53efb8b4498e9da9306f5987,Enjoy Noodle King 省港澳傳統竹升雲吞面食家,43.80495071411133,-79.2885513305664,Noodle House
573,43.805200029883586,-79.28798167696944,36,30,59176098396de017a3712633,Liuyishou Hot Pot,43.804787,-79.28722,Chinese Restaurant
574,43.805200029883586,-79.28798167696944,36,31,4e874f6d4901f7cfcfc941b6,La Mere Restaurant 老媽肉餅,43.80527654724577,-79.28857589735566,Chinese Restaurant
575,43.805200029883586,-79.28798167696944,36,32,5dab9a00c56b7800088f1983,小龙坎老火锅士嘉堡店,43.805889,-79.288237,Hotpot Restaurant
576,43.805200029883586,-79.28798167696944,36,33,59d81b7ba8eb606df9004d75,Flaming Kitchen 一伙堂,43.804787,-79.28835,Asian Restaurant
577,43.805200029883586,-79.28798167696944,36,34,5675a8ca498eed25e33986c9,Japanese Ramen King,43.804684,-79.288414,Ramen Restaurant
578,43.805200029883586,-79.28798167696944,36,35,5e22490c72902b0007dea2a8,醉串串 Chengdu Spicy,43.80501,-79.28765,Hotpot Restaurant
579,43.80293910055119,-79.28798167696944,3,0,5b494d28d69ed0002cc1866e,Yunshang Rice Noodle(Scarborough)云尚米线,43.803596,-79.28812,Noodle House
580,43.80293910055119,-79.28798167696944,3,1,5d546a1513b6bc000809be81,Yang's Braised Chicken Rice,43.80382533720427,-79.28796529769897,Chinese Restaurant
581,43.80293910055119,-79.28798167696944,3,2,5d5c95d83abe8f000857fea2,Yang's Braised Chicken Rice(Scarborough)杨铭宇黄焖鸡米饭,43.803577,-79.288155,Chinese Restaurant
582,43.80633049454978,-79.28953754748724,22,0,4bad5b81f964a520b9493be3,Korean Grill House,43.8061159635344,-79.28855482599485,Korean Restaurant
583,43.80633049454978,-79.28953754748724,22,1,4b6ca4e3f964a520fc482ce3,Marathon Donuts & Coffee 馬力雄,43.80626915640563,-79.2885778177555,Coffee Shop
584,43.80633049454978,-79.28953754748724,22,2,4b89d3e3f964a520814f32e3,Dumpling King 東北餃子王,43.80682529076022,-79.28920024647647,Dumpling Restaurant
585,43.80633049454978,-79.28953754748724,22,3,594ad1ed112c6c523a00adf6,Sha Xian Delicacies 沙县小吃,43.805724,-79.28898,Chinese Restaurant
586,43.80633049454978,-79.28953754748724,22,4,5b1db0ac4a7aae002cb90d32,Pho Quinn,43.806709,-79.289508,Vietnamese Restaurant
587,43.80633049454978,-79.28953754748724,22,5,5133f1b1e4b0ed89418edd84,Tian Fu,43.806383896410594,-79.28874101550207,Chinese Restaurant
588,43.80633049454978,-79.28953754748724,22,6,4e28b163d22d848a146618b4,Wai Yu Lau Restaurant,43.806566,-79.289054,Chinese Restaurant
589,43.80633049454978,-79.28953754748724,22,7,4bda319863c5c9b6f6392368,Made In China Hot Pot 馥苑火鍋,43.80623511734908,-79.28851445678866,Hotpot Restaurant
590,43.80633049454978,-79.28953754748724,22,8,586ec9a77ff1e46976dc5894,Yunnan Steam Fish Pot,43.806208,-79.288868,Chinese Restaurant
591,43.80633049454978,-79.28953754748724,22,9,4b25c94ef964a520307624e3,Szechuan Legend 半畝園,43.80618160884892,-79.28837298831918,Chinese Restaurant
592,43.80633049454978,-79.28953754748724,22,10,4cfbe66bd8468cfae543f76b,Pho Sure Viethai Cuisine 一哥越泰美食,43.80577270802951,-79.28902745246887,Asian Restaurant
593,43.80633049454978,-79.28953754748724,22,11,59bc2d4eb2958f1f5197dbe3,Dear & Fro,43.80674443394315,-79.28882896900177,Dessert Shop
594,43.80633049454978,-79.28953754748724,22,12,52c4758b498e7b98ec72852b,Oishii Ramen 戰國拉面,43.80605,-79.288841,Ramen Restaurant
595,43.80633049454978,-79.28953754748724,22,13,4da618580437d0a79345c8af,Pho 一哥,43.80598142520277,-79.28870248796066,Vietnamese Restaurant
596,43.80633049454978,-79.28953754748724,22,14,4cc9e797b7d9a1432502f936,Korean bbq restaurant,43.80588826749549,-79.28901621176465,Korean Restaurant
597,43.80633049454978,-79.28953754748724,22,15,4b1af4faf964a5206cf523e3,Hot Party Restaurant,43.806962,-79.289277,Chinese Restaurant
598,43.80633049454978,-79.28953754748724,22,16,4b9443fcf964a520037234e3,Korean Barbecue Restaurant,43.806057,-79.288624,Korean Restaurant
599,43.80633049454978,-79.28953754748724,22,17,4ff4dac1e4b0f1c6178ed2c8,Y S Dumplings,43.805956352091876,-79.2887960548194,Dumpling Restaurant
600,43.80633049454978,-79.28953754748724,22,18,4fc985e3e4b0f70aa734ef0b,華仔記,43.80622614726163,-79.28967667948947,Asian Restaurant
601,43.80633049454978,-79.28953754748724,22,19,50df9944e4b028f658ba99c7,辛湘匯,43.807012,-79.289535,Asian Restaurant
602,43.80633049454978,-79.28953754748724,22,20,50cfa41ae4b0055c72e80819,小瀋陽私房菜,43.806121,-79.288774,Asian Restaurant
603,43.80633049454978,-79.28953754748724,22,21,4c2b684577cfe21e4368b4f1,Ka Wor Yuen BBQ 嘉和園燒臘飯店,43.80649940207996,-79.28907125091995,Chinese Restaurant
604,43.80746095921598,-79.29109347689321,1,0,4d84f3f650913704e4598b5b,Golden Pinnacle Food,43.807289,-79.290857,Chinese Restaurant
605,43.805200029883586,-79.28798161808128,36,0,4bad434ef964a5207a3f3be3,Full House Chinese Cuisine 炳勝農家菜,43.80459670304366,-79.28714764552099,Chinese Restaurant
606,43.805200029883586,-79.28798161808128,36,1,4b8033b8f964a520ed5b30e3,Vietnam Noodle Star 越華菀,43.80451639521751,-79.28731966720959,Vietnamese Restaurant
607,43.805200029883586,-79.28798161808128,36,2,594ad1ed112c6c523a00adf6,Sha Xian Delicacies 沙县小吃,43.805724,-79.28898,Chinese Restaurant
608,43.805200029883586,-79.28798161808128,36,3,5143eeece4b0315274d027bb,Aberdeen Delicatessen 香港仔美食,43.80493844423408,-79.28845578179929,Dessert Shop
609,43.805200029883586,-79.28798161808128,36,4,53ed4370498e4e94573b359f,Enjoy Noodle King 省港澳,43.80502700805664,-79.2870101928711,Noodle House
610,43.805200029883586,-79.28798161808128,36,5,4fd51a65e4b09c51ff01d93b,精舞鴨膊,43.80487060546875,-79.28799438476562,Asian Restaurant
611,43.805200029883586,-79.28798161808128,36,6,4bd3364fa8b3a593955e695f,Konner Chinese Restaurant 玉樓東,43.80511163265573,-79.2876161018525,Chinese Restaurant
612,43.805200029883586,-79.28798161808128,36,7,513a8f95e4b0ec8650199570,Aroma Delight Palace,43.80498123168945,-79.28840637207031,Chinese Restaurant
613,43.805200029883586,-79.28798161808128,36,8,5c1c68a356c89f002c19351a,superhot,43.80451447370012,-79.28778290748596,Szechuan Restaurant
614,43.805200029883586,-79.28798161808128,36,9,5a6fe4f16eda027c747c3411,Korean Restaurant OUR,43.804463,-79.287836,Korean Restaurant
615,43.805200029883586,-79.28798161808128,36,10,4de2a1eed4c0704405711c5c,Dacheng Chinese Cuisine Restaurant,43.80481645235618,-79.28835153579712,Chinese Restaurant
616,43.805200029883586,-79.28798161808128,36,11,50e9e6ece4b005f7aeca199a,Qin's Place 小味燒烤涮,43.805122,-79.287629,Chinese Restaurant
617,43.805200029883586,-79.28798161808128,36,12,4d61d0c7922960fca7f67e8b,Shaanxi Legend 漢唐府,43.805154458271126,-79.28893365297094,Chinese Restaurant
618,43.805200029883586,-79.28798161808128,36,13,5133f1e2e4b00e1a726d54cb,Bu Jian Bu San Restaurant,43.805164,-79.288768,Asian Restaurant
619,43.805200029883586,-79.28798161808128,36,14,5176c35be4b0888c41e85fdb,Health Gourmet 食全食美,43.80546923821083,-79.28791215928922,Chinese Restaurant
620,43.805200029883586,-79.28798161808128,36,15,4fdd2ca8e4b05197cd8cc8e6,圆明园,43.804453898278844,-79.28799798154667,Chinese Restaurant
621,43.805200029883586,-79.28798161808128,36,16,502449cbe4b0953b3d8a06b1,Owl of Minerva,43.80434034282142,-79.2877655512685,Korean Restaurant
622,43.805200029883586,-79.28798161808128,36,17,59b0872c3731ee4154e3956f,Sichuan Kungfu Fish,43.804443,-79.288001,Szechuan Restaurant
623,43.805200029883586,-79.28798161808128,36,18,547a490b498edded453956bc,汉食坊 Han Shi Fang,43.805053,-79.288621,Chinese Restaurant
624,43.805200029883586,-79.28798161808128,36,19,50ce0f9ee4b0cc5bc7050261,稫田 Inada Japanese Restaurant,43.805091,-79.287424,Japanese Restaurant
625,43.805200029883586,-79.28798161808128,36,20,5805371338fad92a6f69eb6f,Qing Feng Bun,43.805294,-79.28886,Chinese Restaurant
626,43.805200029883586,-79.28798161808128,36,21,5ce81f6c67a9fe002cae7892,Dandelion Noodle,43.804893,-79.2878,Noodle House
627,43.805200029883586,-79.28798161808128,36,22,5341deef498eb562ecd5b265,BBQ Harbin,43.805526,-79.288076,BBQ Joint
628,43.805200029883586,-79.28798161808128,36,23,5e1164557cee8d000806bacc,雲臨海鮮館 Yunlin Seafood Restaurant,43.804724,-79.288711,Chinese Restaurant
629,43.805200029883586,-79.28798161808128,36,24,5659d531498e36a60dee12ec,阿香米線 a! Xiang,43.804945905814016,-79.28872450370055,Noodle House
630,43.805200029883586,-79.28798161808128,36,25,5210188a11d25e7b65e59173,Qin's Place 天安食府,43.805184,-79.287614,Chinese Restaurant
631,43.805200029883586,-79.28798161808128,36,26,53404157498ed73083ad125c,Rain & Sunny Restaurant 雨晴面館,43.80506,-79.288459,Chinese Restaurant
632,43.805200029883586,-79.28798161808128,36,27,5c33cc76646e38002c5008c3,马路边边（Legend Of Spice）,43.80463,-79.288669,Chinese Restaurant
633,43.805200029883586,-79.28798161808128,36,28,57d34d9f498e462efc8a27b6,Beijing Restaurant 京味肉饼,43.805267,-79.28876,Chinese Restaurant
634,43.805200029883586,-79.28798161808128,36,29,53efb8b4498e9da9306f5987,Enjoy Noodle King 省港澳傳統竹升雲吞面食家,43.80495071411133,-79.2885513305664,Noodle House
635,43.805200029883586,-79.28798161808128,36,30,59176098396de017a3712633,Liuyishou Hot Pot,43.804787,-79.28722,Chinese Restaurant
636,43.805200029883586,-79.28798161808128,36,31,4e874f6d4901f7cfcfc941b6,La Mere Restaurant 老媽肉餅,43.80527654724577,-79.28857589735566,Chinese Restaurant
637,43.805200029883586,-79.28798161808128,36,32,5dab9a00c56b7800088f1983,小龙坎老火锅士嘉堡店,43.805889,-79.288237,Hotpot Restaurant
638,43.805200029883586,-79.28798161808128,36,33,59d81b7ba8eb606df9004d75,Flaming Kitchen 一伙堂,43.804787,-79.28835,Asian Restaurant
639,43.805200029883586,-79.28798161808128,36,34,5675a8ca498eed25e33986c9,Japanese Ramen King,43.804684,-79.288414,Ramen Restaurant
640,43.805200029883586,-79.28798161808128,36,35,5e22490c72902b0007dea2a8,醉串串 Chengdu Spicy,43.80501,-79.28765,Hotpot Restaurant
641,43.8232,-79.29932903225807,9,0,4bf80e7e5efe2d7f36016a34,Tak Fu Seafood Restaurant 德福點心皇,43.822633229713155,-79.29895769982762,Chinese Restaurant
642,43.8232,-79.29932903225807,9,1,56cf8583cd1001f23e7e1669,Aka-Oni Izakaya,43.82237214320176,-79.2989053275379,Japanese Restaurant
643,43.8232,-79.29932903225807,9,2,54dfe50b498ee09005f06680,湘村发現,43.82245134502741,-79.29882918080976,Asian Restaurant
644,43.8232,-79.29932903225807,9,3,4c80031ed4e237042ec85088,Vietnamese Delicacy,43.822723997185975,-79.29902730080833,Asian Restaurant
645,43.8232,-79.29932903225807,9,4,4bdccc1f3904a5930ad24f9e,Hunan Style Restaurant 湘村發現,43.82244153223142,-79.29904931411558,Chinese Restaurant
646,43.8232,-79.29932903225807,9,5,536fac9d11d2034c97a3db0f,Royale Fine Dining Banquet 皇家御宴,43.822865349581605,-79.30028576699264,Chinese Restaurant
647,43.8232,-79.29932903225807,9,6,4c964ed258d4b60caddc3929,wonderful seafood,43.822637,-79.299041,Chinese Restaurant
648,43.8232,-79.29932903225807,9,7,5b820adeccad6b002c9e2292,锦州烧烤,43.823041,-79.300477,BBQ Joint
649,43.8232,-79.29932903225807,9,8,4ba41baef964a520538238e3,Ga Bin Korean Restaurant,43.8224750799657,-79.29904372607609,Korean Restaurant
650,43.8243304646662,-79.30088540126434,13,0,5d363d6dc2424b0008d6e542,Legend Lee BBQ,43.82481720260793,-79.30052161219464,Chinese Restaurant
651,43.8243304646662,-79.30088540126434,13,1,58856abf951e7d6cfb46f289,The Owl Of Minera,43.824883,-79.30083,Asian Restaurant
652,43.8243304646662,-79.30088540126434,13,2,50662c4ae4b0f328df4ab5e4,渝味府,43.824272,-79.300953,Chinese Restaurant
653,43.8243304646662,-79.30088540126434,13,3,57fd56b9498e3e6724c3862e,The Captain's Boil,43.82480559196185,-79.3004858493805,Seafood Restaurant
654,43.8243304646662,-79.30088540126434,13,4,4f3477d6e4b04e887d0ec631,Chong King Legend,43.824757,-79.301122,Chinese Restaurant
655,43.8243304646662,-79.30088540126434,13,5,5cbbbafc81a0ea002c223953,青蔬,43.8247,-79.30073,Chinese Restaurant
656,43.8243304646662,-79.30088540126434,13,6,54f3b612498e2fcc7dc85398,Grilled Fish Chalet 多多巫山烤魚,43.82495668896843,-79.30037560630107,Asian Restaurant
657,43.8243304646662,-79.30088540126434,13,7,4bc777cf8b7c9c74be8336cf,Kyushou Japanese Noodles,43.824985,-79.300537,Japanese Restaurant
658,43.8243304646662,-79.30088540126434,13,8,53320157498ecd46c853d285,Grlled Fish Chalet,43.8249884305284,-79.30037560630106,Cantonese Restaurant
659,43.8243304646662,-79.30088540126434,13,9,537a3115498e48d2ddf3d8a6,皇家御宴,43.8248176574707,-79.30162811279297,Dim Sum Restaurant
660,43.8243304646662,-79.30088540126434,13,10,55d21bdb498ee68ff61d4db6,The Bowl Noodle Bar,43.82505030376412,-79.30146524304548,Noodle House
661,43.8243304646662,-79.30088540126434,13,11,56103072498ebe207b827b52,東方官蘭州牛肉拉面,43.82383733399099,-79.30040312253698,Asian Restaurant
662,43.8243304646662,-79.30088540126434,13,12,5c0424a957a537002ccce15a,Owl Of Minerva Scarborough,43.824912,-79.300639,Korean Restaurant
663,43.8220695353338,-79.30088540126434,9,0,4caf95811463a143c8b695a9,Authentic Szechuan Cuisine,43.822842,-79.300803,Chinese Restaurant
664,43.8220695353338,-79.30088540126434,9,1,5942caa6780eee225abf38b7,椰林四季椰子鸡 (Coconut Seasons),43.822671,-79.300893,Hotpot Restaurant
665,43.8220695353338,-79.30088540126434,9,2,4dc71a64fa76d685ce0aa294,The Starwalk,43.8226893266161,-79.30060123919615,Asian Restaurant
666,43.8220695353338,-79.30088540126434,9,3,520baaf2498e6619954daf31,Fu Kou Le,43.82265,-79.300928,Dim Sum Restaurant
667,43.8220695353338,-79.30088540126434,9,4,5c4e355c234724002c3167a8,Coconut Seasons,43.82289,-79.301075,Hotpot Restaurant
668,43.8220695353338,-79.30088540126434,9,5,56098725498e563adb86907d,Imagine Noodle 东方宫兰州牛肉拉面,43.822696685791016,-79.30074310302734,Noodle House
669,43.8220695353338,-79.30088540126434,9,6,53545e6f498eb7e88dcc18a0,Verdant Garden Chinese Restaurant 翠苑,43.82283436642583,-79.30083237476724,Cantonese Restaurant
670,43.8220695353338,-79.30088540126434,9,7,5995f683123a1921c3a2a898,Harmony Resturant,43.8227,-79.300802,Chinese Restaurant
671,43.8220695353338,-79.30088540126434,9,8,5377f1e4498eb08ce29491b4,川味堂,43.822652,-79.300527,Szechuan Restaurant
672,43.8243304646662,-79.2977726632518,1,0,53b5d9bd498ec20e7df53111,鹿園魚湯,43.82363191290035,-79.29792112543842,Cantonese Restaurant
673,43.8220695353338,-79.2977726632518,23,0,4c3e3eaf6faac9b636f60d76,Silverstar Food Court 國際美食廣場,43.822018222616194,-79.29880784326527,Food Court
674,43.8220695353338,-79.2977726632518,23,1,5f3425dd93ea8442f7d817e0,Lao Fuzhou,43.821743,-79.29854,Fujian Restaurant
675,43.8220695353338,-79.2977726632518,23,2,5c7efdf9037be1002c52f22d,Gourmet Kitchen 粵港小炒,43.821637,-79.298232,Chinese Restaurant
676,43.8220695353338,-79.2977726632518,23,3,4dbf450b43a147cd6ebd843a,New Canton Kitchen 廣東小炒,43.82182011805523,-79.29868273765992,Chinese Restaurant
677,43.8220695353338,-79.2977726632518,23,4,5aff720e031320002cf3a041,紅樹林私房菜 Delicious Paradise Kitchen,43.821518,-79.29817,Chinese Restaurant
678,43.8220695353338,-79.2977726632518,23,5,53b5f264498e33ae0a1aa90c,Deer Garden Signatures 鹿園魚湯米線,43.821897657501694,-79.29885716994849,Noodle House
679,43.8220695353338,-79.2977726632518,23,6,56cf8583cd1001f23e7e1669,Aka-Oni Izakaya,43.82237214320176,-79.2989053275379,Japanese Restaurant
680,43.8220695353338,-79.2977726632518,23,7,55d21a48498e87a8404156ba,Noodle bar,43.82191467285156,-79.29844665527344,Asian Restaurant
681,43.8220695353338,-79.2977726632518,23,8,56d334ef498ea69d3cd0b83f,Love'In Noodle 爱尚面,43.82143961583665,-79.29794313900639,Noodle House
682,43.8220695353338,-79.2977726632518,23,9,5cf70bf606fb60002c43de4d,钢管厂五区小郡肝串串香 Gang Guan Hotpot,43.822155,-79.298514,Hotpot Restaurant
683,43.8220695353338,-79.2977726632518,23,10,5569d97d498ea805f7555607,Freedom Noodle House,43.821679,-79.298258,Chinese Restaurant
684,43.8220695353338,-79.2977726632518,23,11,4fd29bc2e4b034e1f9b1b681,食八方壽司吧,43.822238950753544,-79.29882918080976,Japanese Restaurant
685,43.8220695353338,-79.2977726632518,23,12,5914f797a30619669e946c76,Origination Noodle House,43.821989,-79.29853,Noodle House
686,43.8220695353338,-79.2977726632518,23,13,54dfe50b498ee09005f06680,湘村发現,43.82245134502741,-79.29882918080976,Asian Restaurant
687,43.8220695353338,-79.2977726632518,23,14,4ed02cbe4690a03b5d1f450a,Dong Yi Foods 東一排骨,43.82177149626978,-79.29861455033699,Asian Restaurant
688,43.8220695353338,-79.2977726632518,23,15,4de19d272271bfb84488d407,Honey Tea H.K. 甜蜜蜜港式西餐,43.82195687380101,-79.29884569082569,Cantonese Restaurant
689,43.8220695353338,-79.2977726632518,23,16,5d0430454ac28a002c56ba93,Pho Star,43.821667,-79.29844,Vietnamese Restaurant
690,43.8220695353338,-79.2977726632518,23,17,57a12f6b498ef59469bf68d1,The Fortune Hotpot 尚上签·串串香,43.821761,-79.297869,Chinese Restaurant
691,43.8220695353338,-79.2977726632518,23,18,4e7133387d8b943464119d27,Asian Kitchen,43.82180121957134,-79.29889522085598,Asian Restaurant
692,43.8220695353338,-79.2977726632518,23,19,5caa6542a8eb60002c5f6ce9,Nine's Bun 九九包子鋪,43.821632,-79.29835,Chinese Restaurant
693,43.8220695353338,-79.2977726632518,23,20,59a5d063e96d0c47fb62786b,Potman Hotpot 鍋匠火鍋,43.82199574921029,-79.29842054843903,Hotpot Restaurant
694,43.8220695353338,-79.2977726632518,23,21,4cfc375c7f2db1f715c731d4,Truly Korean,43.822238950753544,-79.29882918080976,Korean Restaurant
695,43.8220695353338,-79.2977726632518,23,22,57243b9d498ee93a26c844b5,Chat Bar 九号小院,43.82216204895564,-79.29886602709634,Dongbei Restaurant
