,Unnamed: 0,lat_centre,long_centre,num_venues,venue_iter,venue_id,venue_name,lat_venue,long_venue,category
145,145,56.95836092933239,24.115199080620428,24,16,4b4c57cbf964a5202db126e3,Lielais Ķīnas mūris,56.95679342171522,24.114154756558104,Chinese Restaurant
306,72,56.9276,24.02814117647059,5,0,4ba897d1f964a52096e139e3,Gan Bei,56.92909718931725,24.034989609564146,Japanese Restaurant
690,456,56.9561,24.137552941176466,39,3,4ba8c7cdf964a52052ee39e3,Xin Či ķīniešu bistro,56.9593601783288,24.14315419848404,Chinese Restaurant
813,579,56.9656,24.15578823529412,15,1,4bb483a4bd4b9c7428ac32f5,Gan Bei,56.966691732713755,24.16183677602632,Sushi Restaurant
510,276,56.9466,24.119317647058825,50,17,4bbde752f57ba593b397aeb9,Trattoria del Popolo,56.94761448874724,24.111439109197978,Italian Restaurant
694,460,56.9561,24.137552941176466,39,7,4bbe04288ec3d13ad7c31c28,Woki Toki,56.956527975836096,24.13182077323149,Asian Restaurant
454,220,56.9466,24.101082352941173,49,10,4bc2f817f8219c74f06bb510,Vecmeita ar Kaķi,56.95090505965167,24.102178405149754,Eastern European Restaurant
664,430,56.9561,24.119317647058825,50,27,4bc4c67a920eb71350411f2c,Kabuki,56.955883205441474,24.126433453317155,Japanese Restaurant
893,659,56.9846,24.137552941176466,5,0,4bc9e3f3fb84c9b6b9d01b3e,Gan Bei,56.98729935693522,24.13167162593559,Sushi Restaurant
450,216,56.9466,24.101082352941173,49,6,4bcc38c6b6c49c748a539391,Soraksans,56.94935356007765,24.102407894224058,Korean Restaurant
908,674,56.9846,24.210494117647055,11,0,4bf129d817880f47cbf82937,Gan Bei,56.98241869282362,24.205002894880547,Asian Restaurant
447,213,56.9466,24.101082352941173,49,3,4c025f3a187ec9287017b47b,Province,56.947570959994344,24.107504065313886,Eastern European Restaurant
428,194,56.9466,24.064611764705887,11,10,4c1fa638a34cd13a7b0f7d74,"Restorāns ""Māja""",56.943092142394754,24.066287717209978,Eastern European Restaurant
469,235,56.9466,24.101082352941173,49,25,4c3dedbff2dd9c74d5a07e0c,Desiderata,56.94823944661416,24.107570805564862,Eastern European Restaurant
298,64,56.9181,24.17402352941177,2,0,4c4ec0f3d667d13ab101e6a0,Lido | Krievu Sēta | Русский Двор,56.91840067164272,24.169159491534625,Russian Restaurant
452,218,56.9466,24.101082352941173,49,8,4c7126529375a09364f20837,Il Patio,56.948573759849204,24.108380037960547,Italian Restaurant
445,211,56.9466,24.101082352941173,49,1,4c87a4fdd8086dcb90caa352,Lido Alus sēta,56.948981999999994,24.106775,Eastern European Restaurant
316,82,56.9276,24.101082352941173,11,1,4c8bac6be51e6dcbb47874de,Gan Bei,56.92535717282978,24.105391149512226,Sushi Restaurant
705,471,56.9561,24.137552941176466,39,18,4c8dee4ba8de224b4ce62201,Edamistaba KAKAO,56.95620829293103,24.13095474243164,Eastern European Restaurant
928,694,56.9941,24.137552941176466,1,0,4c98caa04804a1430585ee0e,Širhans,56.996001990909036,24.132610811288423,Middle Eastern Restaurant
35,35,56.94886092933239,24.115200130083927,31,19,4c9f3ab0542b224b8a67fb9f,pascucci,56.949300169944756,24.112050533294678,Italian Restaurant
418,184,56.9466,24.064611764705887,11,0,4ca1b0c346978cfa4c09be7f,Fei Fei,56.94536716261778,24.064278200030746,Asian Restaurant
693,459,56.9561,24.137552941176466,39,6,4ca8bcb576d3a0934cd2186b,Uzbekistāna | Узбекистан,56.95676347961529,24.130708003047914,Middle Eastern Restaurant
716,482,56.9561,24.137552941176466,39,29,4cab02e22f08236af9518261,Caffe Bellagio,56.95889929625843,24.132328033447266,Italian Restaurant
457,223,56.9466,24.101082352941173,49,13,4cb09948db32f04de910c14d,Rozengrāls | Authentic Medieval Restaurant,56.94842319196593,24.10651132156364,Eastern European Restaurant
718,484,56.9561,24.137552941176466,39,31,4cb71c18589f236a3b4e3c3d,Restorāns Tamada,56.95714399999999,24.133736,Middle Eastern Restaurant
484,250,56.9466,24.101082352941173,49,40,4ccc75ed54f0b1f730a916ca,Restaurant Le Dome,56.949821052915894,24.10334365190386,Seafood Restaurant
822,588,56.9656,24.15578823529412,15,10,4ccd8892b571b60cfe58d965,Kebabs Fix,56.96659697713915,24.16172944780324,Kebab Restaurant
328,94,56.9276,24.15578823529412,4,2,4cceb197566aa093e0862efd,Orhideja,56.931365237928546,24.1549364243721,Eastern European Restaurant
348,114,56.9371,24.046376470588235,3,2,4ccefeca7c2ff04d66f0a77e,Loft Bar,56.93588672417448,24.04060264236568,Sushi Restaurant
812,578,56.9656,24.15578823529412,15,0,4cd3dd96558a3704d090c3a6,Trešā brīvdiena,56.965425668931466,24.153940156519766,Eastern European Restaurant
376,142,56.9371,24.137552941176466,4,2,4cd9236b53a7f04dc58f6616,Thali,56.93464909229489,24.143008964087272,Indian Restaurant
587,353,56.9561,24.009905882352943,2,0,4ce160773644a093c4c85c9f,Zelta Pakavs,56.95309491063915,24.00796333741459,Eastern European Restaurant
566,332,56.9466,24.19225882352941,7,6,4ce7d488baa6a1cd34042a6c,Sushi Time,56.94768321928386,24.194780150645123,Sushi Restaurant
610,376,56.9561,24.101082352941173,39,12,4cee4689b80da09313c32600,Briedis,56.959267000000004,24.105479000000003,Eastern European Restaurant
374,140,56.9371,24.137552941176466,4,0,4cefe05b4cd4236a3a0bb563,Gan Bei,56.9350556136725,24.14408728038465,Sushi Restaurant
197,197,56.95836092933239,24.12343621349723,31,20,4cf0025513aea14385ee769f,Habibi,56.95696829999999,24.123508930205602,Asian Restaurant
903,669,56.9846,24.19225882352941,5,0,4cfe242a7f2db1f70e943bd4,Hesburger,56.981528976321,24.192629747570614,Fast Food Restaurant
311,77,56.9276,24.064611764705887,2,0,4d00f3e32685a35d788ecb90,Bieriņkrogs,56.92702791141747,24.061963259602646,Eastern European Restaurant
803,569,56.9656,24.137552941176466,20,11,4d0255c13be26dcb190578e4,Old Shanghai,56.967170667633006,24.130306016397927,Chinese Restaurant
317,83,56.9276,24.101082352941173,11,2,4d18b013b15cb1f76a10bd21,Asia Express,56.927224458121344,24.102896985501204,Asian Restaurant
464,230,56.9466,24.101082352941173,49,20,4d1de64c5acaa35ddcd3b135,Olive Oil Trading Co.,56.9510465566423,24.102335695247664,Italian Restaurant
689,455,56.9561,24.137552941176466,39,2,4d2ed7766fc6f04d7eae8445,Da Sergio,56.9582521483685,24.130716960059534,Italian Restaurant
347,113,56.9371,24.046376470588235,3,1,4d38170b803ba35db26f98fc,V. Kuze Cafe,56.933992,24.0424107,Eastern European Restaurant
11,11,56.9466,24.119317647058825,16,11,4d3ddbd9ae942d4340839f9a,"Pelmeni-Haus ""Baba Jaga""",56.946484651415425,24.11979033433945,Eastern European Restaurant
773,539,56.9656,24.101082352941173,10,7,4d3eb6b98edf3704ea45c6a5,Bufete,56.965406960208476,24.094791937310962,Eastern European Restaurant
601,367,56.9561,24.101082352941173,39,3,4d516be8e0275481f174aab6,Cafe Leonardo,56.95907981806086,24.10041441516392,Italian Restaurant
600,366,56.9561,24.101082352941173,39,2,4d57f86eafe4b60cc0fd4a61,Provansa,56.958684042673454,24.10559659374445,French Restaurant
442,208,56.9466,24.082847058823532,15,13,4d5cfe4aff226a3125997c69,Pipars,56.94937741500843,24.08294156326117,Eastern European Restaurant
38,38,56.94886092933239,24.115200130083927,31,22,4d8cc00fca75b60c2ce3d8a8,Caffe Pascucci Valnu,56.949241,24.111966,Italian Restaurant
897,663,56.9846,24.137552941176466,5,4,4d90e759830160fc6d746235,Odisejs,56.983834479974966,24.13490295410156,Eastern European Restaurant
596,362,56.9561,24.082847058823532,2,0,4d94b3ec14a654814e74174c,Fabrikas Restorāns,56.95788727218552,24.084822651901103,Modern European Restaurant
633,399,56.9561,24.101082352941173,39,35,4d974590744f3704e006d057,Antica Roma,56.95954295413683,24.10555736647096,Italian Restaurant
335,101,56.9276,24.17402352941177,12,5,4d9ddfdb50aa41bd077514e1,Hesburger,56.92862594301778,24.180780769329505,Fast Food Restaurant
549,315,56.9466,24.137552941176466,9,6,4dd6be281f6ee1468311554d,Redfred,56.94773886572665,24.13793209211478,American Restaurant
565,331,56.9466,24.19225882352941,7,5,4e21d62bd1647406320a9a39,kebabs Jurmala,56.94785296529154,24.18886880974453,Kebab Restaurant
699,465,56.9561,24.137552941176466,39,12,4e314c13c65b93ca1a42c950,Mikado Sushi,56.95866684152233,24.13807892769964,Sushi Restaurant
243,9,56.8991,24.082847058823532,6,1,4e34438db0fb59390e91dfe4,VANS kafejnica,56.899562052506276,24.08445725774512,Middle Eastern Restaurant
482,248,56.9466,24.101082352941173,49,38,4e4157c8b3adee0e38fd90a6,Mikelandželo,56.94902353228578,24.102061986923214,Italian Restaurant
193,193,56.95836092933239,24.12343621349723,31,16,4e4158f8d164f2d277c1afcb,Ju-Me,56.95624721741636,24.12458609194661,Chinese Restaurant
448,214,56.9466,24.101082352941173,49,4,4e44fee6d164821e11697412,T.G.I. Friday's,56.94856292959116,24.108389868305316,American Restaurant
206,206,56.95836092933239,24.12343621349723,31,29,4e4e913da80997aa8a2c157e,Avlabars  Gruzīnu virtuve,56.95988705,24.12123841666667,Middle Eastern Restaurant
769,535,56.9656,24.101082352941173,10,3,4e5622cc7d8b60849c4abac6,Širhans,56.96781460790461,24.10640581841354,Eastern European Restaurant
453,219,56.9466,24.101082352941173,49,9,4e71f6cc81dca8eb66735c3f,Indian Raja,56.94768015551768,24.1086956982456,Indian Restaurant
866,632,56.9751,24.17402352941177,8,4,4e96be005503e24777b99340,Afrodite Cafe,56.972980423929,24.167937549556388,Australian Restaurant
77,77,56.94886092933239,24.123435164033733,31,19,4e97da3c30f87b6eac992886,@vanittii,56.95019222934793,24.12565006700598,African Restaurant
691,457,56.9561,24.137552941176466,39,4,4ea806a29a526de96a871514,Vīgante,56.9545073206486,24.132255545894388,Eastern European Restaurant
546,312,56.9466,24.137552941176466,9,3,4eaaa79d82312ec2f6930818,Kafeniica (Cafe) Maajas Virtuve,56.94945438873866,24.132096764329138,Eastern European Restaurant
918,684,56.9846,24.210494117647055,11,10,4eafbc06f5b99d24263a42ba,Woki Toki,56.982487083069906,24.20526426277605,Chinese Restaurant
726,492,56.9561,24.15578823529412,4,0,4eb1ae09b63435b07dcf20b4,Sushi Studio,56.9561944756581,24.14878698341336,Sushi Restaurant
491,257,56.9466,24.101082352941173,49,47,4eb288be9adfb95b77c54e2c,Restaurant Bourse,56.949738314959134,24.10526870458665,French Restaurant
433,199,56.9466,24.082847058823532,15,4,4eb3b5c3be7bfc284987e340,Woki Toki,56.94942801536442,24.082660471007728,Asian Restaurant
748,514,56.9561,24.19225882352941,4,3,4eb95832722e09311d584c69,"Azerbaijan, Atputas centrs",56.95625135270957,24.19848054807324,Asian Restaurant
42,42,56.94886092933239,24.115200130083927,31,26,4ec805d05c5ce271be3b4685,Vernashen | Armēņu Restorāns,56.94927,24.111511,Middle Eastern Restaurant
297,63,56.9181,24.101082352941173,6,5,4ee75c24be7b4845a6fb12d6,Valis,56.91803359985352,24.10408973693848,Eastern European Restaurant
746,512,56.9561,24.19225882352941,4,1,4ef305629a52fadb3423a5c9,Riviera,56.95273349794122,24.19287116507319,French Restaurant
375,141,56.9371,24.137552941176466,4,1,4f0ac565e4b05dd3a575003a,mājas virtuve,56.93962097167969,24.13667106628418,American Restaurant
847,613,56.9751,24.137552941176466,12,1,4f27b517e4b015cb4e100b7e,Nāburgi,56.97473924974893,24.14335185582939,African Restaurant
144,144,56.95836092933239,24.115199080620428,24,15,4f3e675de4b08346ef3902d5,Yang Sheang,56.956983722904866,24.11267744859618,Chinese Restaurant
299,65,56.9181,24.17402352941177,2,1,4f68cc36e4b094ea6d686ae6,у рукмана,56.91481018066406,24.174894332885746,Asian Restaurant
472,238,56.9466,24.101082352941173,49,28,4f6c8372bb3d8e65c2130aeb,"Restorāns ""S. Brevings""",56.94910516599325,24.10655065583305,Eastern European Restaurant
111,111,56.9561,24.119317647058825,39,21,4f6cd251e4b068929eeec106,Denisses Plaza,56.95655657487018,24.12079336809221,Australian Restaurant
256,22,56.8991,24.210494117647055,6,0,4f6f3aaee4b0463c955ac1e0,weezytis,56.89998240498646,24.210470964708012,Asian Restaurant
159,159,56.95383907066761,24.115199080620428,24,6,4f71981ce4b0d1b3a41d5654,Augs Pie 123. Kabineta,56.95285861139839,24.112781357096186,American Restaurant
341,107,56.9276,24.17402352941177,12,11,4f8b5cdce4b0089deab66256,манащин хсса пдрс прдтр,56.9273681640625,24.17663383483887,Asian Restaurant
824,590,56.9656,24.15578823529412,15,12,4f906924e4b040e3a85e672e,NR28 Cafe for friend's,56.962931476940774,24.151003913416986,South American Restaurant
941,707,57.0131,24.15578823529412,2,1,4f96c47fe4b0b10b9cbabf3b,Kabuki,57.0133914822156,24.160278996690725,African Restaurant
728,494,56.9561,24.15578823529412,4,2,4f9c079de4b0e1cbfecbf876,Pie parka,56.95913259967549,24.152282442111808,Eastern European Restaurant
468,234,56.9466,24.101082352941173,49,24,4fa550dae4b0bbcd49d4b480,Vertigo,56.94897822202012,24.105915271410108,Arepa Restaurant
200,200,56.95836092933239,24.12343621349723,31,23,4fb0fc9de4b04792c440f864,"EkoRestorans ""Ajurveda""",56.95866156594462,24.120595921639115,Indian Restaurant
700,466,56.9561,24.137552941176466,39,13,4fc8f23ee4b09bba3313a6bb,"""Andalūzija"" spãņu restorans un tapas bãrs",56.95673486840531,24.131794295763125,Tapas Restaurant
950,716,57.0321,24.101082352941173,5,3,4fce21bce4b030cb09cd4206,Sendai Sushi,57.03383759920924,24.101308476924576,Sushi Restaurant
899,665,56.9846,24.15578823529412,4,1,4fce5d10e4b083992e385c98,Wok Cafe,56.983109,24.158977,Asian Restaurant
483,249,56.9466,24.101082352941173,49,39,4fd1c451e4b00874272b37d0,foodzone,56.948975661579674,24.10178066188263,Arepa Restaurant
489,255,56.9466,24.101082352941173,49,45,4fd1c55ae4b0fd4c8ffe5690,Da Guido,56.948918000000006,24.102252,Italian Restaurant
636,402,56.9561,24.101082352941173,39,38,4fd8aaefe4b09507d5adc739,Fly cafe,56.959047361509064,24.10564386102797,Sushi Restaurant
569,335,56.9466,24.210494117647055,6,2,4fdb6379e4b00f85fe5a59a3,Dream,56.942590793743136,24.20686161332819,American Restaurant
325,91,56.9276,24.101082352941173,11,10,4fdefbaee4b0627bb6dca442,Garuda,56.92706080002285,24.102394985060343,Vegetarian / Vegan Restaurant
916,682,56.9846,24.210494117647055,11,8,4feedb8de4b0647d7c63211f,Turk Kebab,56.983522057534856,24.204810399844412,Kebab Restaurant
606,372,56.9561,24.101082352941173,39,8,4ff41acde4b0b3e697ab405b,Kafejnīca Lira,56.955312449292,24.105643752343727,Eastern European Restaurant
737,503,56.9561,24.17402352941177,15,7,4ffdb02de4b0279c5b876c33,Picas,56.95994171185313,24.17572337608133,Italian Restaurant
81,81,56.94886092933239,24.123435164033733,31,23,4ffe7eb0e4b028be1e904a91,shaverma pie reinja,56.94905471801758,24.1265926361084,Australian Restaurant
759,525,56.9656,24.064611764705887,6,2,501110fce4b0eba4bab70697,"Kafejnīca ""Shempele""",56.965610399346076,24.069840751525742,Eastern European Restaurant
466,232,56.9466,24.101082352941173,49,22,5012e205e4b0befd12a27df2,Dinner in the Sky,56.9467918588798,24.106088771342478,Modern European Restaurant
964,730,57.0796,24.15578823529412,1,0,501b8a78e4b01951efd1479b,Veikals-Bārs,57.08202773808378,24.15910761446732,Arepa Restaurant
303,69,56.9276,23.991670588235287,1,0,5020e3a7e4b05bc1265032db,airCafe,56.92794031416607,23.986929270234466,Eastern European Restaurant
604,370,56.9561,24.101082352941173,39,6,5025142fe4b0a2be7f7ccd09,Sia Vivagro,56.9548587487296,24.10434642481369,African Restaurant
757,523,56.9656,24.064611764705887,6,0,5032036ce4b0b5d01e58e395,Ēdnīca,56.96677666759594,24.072123358829945,Eastern European Restaurant
312,78,56.9276,24.064611764705887,2,1,5034b66ce4b0808b40e837b1,Ēdnīca Renault,56.92708193757144,24.05721397120358,Australian Restaurant
300,66,56.9181,24.19225882352941,1,0,5036062ee4b0e092ef6ce3fe,kofe6ka 5tnici,56.921672394742224,24.19064282075995,Afghan Restaurant
158,158,56.95383907066761,24.115199080620428,24,5,503dfbcae4b00b7a241ab00c,Tokio,56.95289075508871,24.11321594699452,Japanese Restaurant
571,337,56.9466,24.210494117647055,6,4,505832e9e4b0a6de98a99e0f,Eeddiena Valstiiba,56.950433999999994,24.207292000000002,Asian Restaurant
165,165,56.95383907066761,24.115199080620428,24,12,505c38dde4b017c6442e0f3e,Matematicpark,56.952713,24.112087,Asian Restaurant
697,463,56.9561,24.137552941176466,39,10,505d93dfe4b0c677836c3644,astoņkāju midzenis,56.95249266062324,24.13647323513502,African Restaurant
618,384,56.9561,24.101082352941173,39,20,508825e3e4b0339e5b5b2bde,Alhambra,56.955546,24.100595000000002,Mediterranean Restaurant
922,688,56.9846,24.246964705882355,7,2,508eb300e4b0504e33503ea6,Eida hood,56.98724746704102,24.25331687927246,Caribbean Restaurant
804,570,56.9656,24.137552941176466,20,12,5092bfcfe4b05b90a71a5e31,Brīvības 151,56.965816028074855,24.142792416581802,Eastern European Restaurant
888,654,56.9751,24.246964705882355,9,6,50a4c944e4b016b109bb4076,Ezerkrastu Ēdnīca,56.97473550174545,24.25240770196019,Asian Restaurant
558,324,56.9466,24.17402352941177,4,2,50a90472e4b0f191c1d80c3c,rūtas green palace,56.94273011032188,24.17288417963448,Mexican Restaurant
246,12,56.8991,24.082847058823532,6,4,50ae8190e4b0211a310f1528,"ресторан ""У Джона""",56.90204112155706,24.086437323545013,Ethiopian Restaurant
545,311,56.9466,24.137552941176466,9,2,50afe60be4b09d9e0729188c,Узбекистан,56.94981510293775,24.137129125367387,Asian Restaurant
752,518,56.9656,24.009905882352943,5,1,50b77664e4b08ce3c68b60e7,Spēlē muzikanti,56.965600601844294,24.010770022252675,Eastern European Restaurant
767,533,56.9656,24.101082352941173,10,1,50d5cfb2e4b07f4e5db1e8af,Portofino Rīga,56.96118463039241,24.100187115293625,Italian Restaurant
572,338,56.9466,24.210494117647055,6,5,50d9c270e4b05cc5ef0bd9b8,Sushi Shop,56.945616824920705,24.208752402028857,Sushi Restaurant
860,626,56.9751,24.15578823529412,4,2,50da2761e4b06bd2fc543b8e,skrilex un bulciņas ON!,56.97111129760742,24.15896987915039,African Restaurant
315,81,56.9276,24.101082352941173,11,0,50daf905e4b0b7ab9b646897,Galleria D'arte,56.92622538525204,24.102420850074648,Italian Restaurant
778,544,56.9656,24.119317647058825,16,2,50df6276e4b0a2ae20fa5058,Sushi home,56.963209059728214,24.12389053029163,Sushi Restaurant
27,27,56.94886092933239,24.115200130083927,31,11,50eada37e4b0620209e9352a,Mmuki,56.94795988004348,24.11143887831823,Eastern European Restaurant
709,475,56.9561,24.137552941176466,39,22,50f404d9e4b05845b753b1e1,cotton karaļvalsts,56.95920775043978,24.133089388023357,Asian Restaurant
739,505,56.9561,24.17402352941177,15,9,50f52059e4b08acd5a984bc6,Azeri,56.958259,24.180088,Asian Restaurant
832,598,56.9656,24.17402352941177,11,5,50fabe7be4b01174279d1e78,sushi restorans Agimonti,56.967095065143994,24.181592825953178,Japanese Restaurant
749,515,56.9561,24.22872941176471,1,0,510273abe4b0466781735123,Kafejnīca,56.95439891936358,24.22800717511858,Eastern European Restaurant
266,32,56.90859999999999,24.082847058823532,9,4,51092cb3e4b07159e4643d87,sunny,56.90557662868893,24.08274315996555,American Restaurant
868,634,56.9751,24.17402352941177,8,6,510d084ee4b05ed0df7dc38c,yohji,56.974205017089844,24.17243194580078,Eastern European Restaurant
800,566,56.9656,24.137552941176466,20,8,510d7561e4b0ee65866daa61,Helēnas tantes virtuve,56.96590058577929,24.13821066044045,Middle Eastern Restaurant
688,454,56.9561,24.137552941176466,39,1,5117bcebf31c21dd2f360b3b,Da Roberta,56.95488502530622,24.13435963798027,Italian Restaurant
480,246,56.9466,24.101082352941173,49,36,511c9987e4b0b784eedee890,Jūlijai nedod,56.94701766967773,24.10920715332031,African Restaurant
554,320,56.9466,24.15578823529412,4,2,512b65dee4b0fd966e8317f9,"Kafejnīca ""Santa Un Barbara""",56.945818742165024,24.14902084104123,Eastern European Restaurant
956,722,57.0416,24.046376470588235,1,0,513468a9e4b07cce54437df4,jurskolas ednica,57.03800034062994,24.049899170559502,Vietnamese Restaurant
379,145,56.9371,24.15578823529412,4,1,513638e7e4b080cc18a848b4,Gastronom,56.93528531444861,24.160753697809444,Spanish Restaurant
960,726,57.0701,24.101082352941173,1,0,513a26c9e4b054473b1a1c67,Piazza Arcade,57.071678299463656,24.099852636279675,Italian Restaurant
568,334,56.9466,24.210494117647055,6,1,513be302e4b0cb998b14fcee,MC Alanito Hood,56.943952780033115,24.213411920691147,French Restaurant
703,469,56.9561,24.137552941176466,39,16,51405796e4b0da62c3f8d49f,Sushi & Wok | Rīga,56.95546305625149,24.136604661189505,Asian Restaurant
244,10,56.8991,24.082847058823532,6,2,514219c6e4b07d53c5e856d2,'B' Residence,56.899158677077416,24.090821290563913,Cajun / Creole Restaurant
488,254,56.9466,24.101082352941173,49,44,51434c15e4b02fe84ca40e48,Vinarium Civitatis Regensis,56.948390026959544,24.10627884298986,Eastern European Restaurant
712,478,56.9561,24.137552941176466,39,25,5149ecefe4b025faaab1cef6,Gold - Cafe,56.95748596502353,24.13735705759316,Chinese Restaurant
854,620,56.9751,24.137552941176466,12,8,515e8e27e4b05803adbc79e0,Kafejnīca 1.Stāvā,56.97713924587264,24.13138728560429,Chinese Restaurant
925,691,56.9846,24.246964705882355,7,5,51683b26e4b00191987829ec,Salieri restorāns,56.98308294653678,24.249181148894014,Portuguese Restaurant
294,60,56.9181,24.101082352941173,6,2,5179969ce4b02bb45543bede,Karstās Dream Palace,56.914656237918976,24.10365496489834,Latin American Restaurant
392,158,56.9371,24.210494117647055,7,3,517c24f3e4b01fb949bbc229,Keldiša 34,56.937912,24.212768,Eastern European Restaurant
490,256,56.9466,24.101082352941173,49,46,517d80fe498ef6c9eed20f3b,mūkusalas 27,56.943533398486146,24.09650123494673,Asian Restaurant
82,82,56.94886092933239,24.123435164033733,31,24,517ea84c498e8b83561fa95f,Cheese Restorāns,56.949597999999995,24.12181,Eastern European Restaurant
456,222,56.9466,24.101082352941173,49,12,5181446c498e994dc3d4d5d9,Key to Riga,56.94996608427288,24.105511389737323,Eastern European Restaurant
377,143,56.9371,24.137552941176466,4,3,51921566454a8a1ab5bfb73b,Sushimania.lv - Sushi delivery in Riga,56.940783926527864,24.135310649871826,Sushi Restaurant
771,537,56.9656,24.101082352941173,10,5,51933c5a498ed87eabdbb63b,Turkebab,56.96257846028824,24.1060333488056,Turkish Restaurant
597,363,56.9561,24.082847058823532,2,1,51934b7b498e587ce32625ea,MLĶF ēdnīca,56.95305109316587,24.0785291112134,Eastern European Restaurant
372,138,56.9371,24.119317647058825,2,0,51985aa3498e0a870620f068,RIMI TELTS,56.938729948277256,24.123234563266074,Ethiopian Restaurant
932,698,56.9941,24.2652,2,0,51a9a335498e00f388fd8c4d,Brāļa telts,56.99085600000001,24.269658,American Restaurant
595,361,56.9561,24.064611764705887,3,2,51ac5d1c498ee7f31d6633c3,INUĻA,56.959006667857686,24.062832177386788,Eastern European Restaurant
861,627,56.9751,24.15578823529412,4,3,51bb06cf498ed8ebfcab7cf6,Chechaco,56.970792,24.157597,Eastern European Restaurant
765,531,56.9656,24.082847058823532,3,2,51c5df13498ebd07541559f7,Koyo,56.96475219726562,24.07662010192871,Eastern European Restaurant
795,561,56.9656,24.137552941176466,20,3,51d068d0498e983007ddc607,Mikadosushi.lv,56.96369,24.137817000000002,Sushi Restaurant
845,611,56.9751,24.119317647058825,1,0,51d2aacd498e384b76af3597,Pie Miikstaa,56.97448435424978,24.111839840982935,Afghan Restaurant
938,704,57.0036,24.2652,1,0,51d6832b498e009c3bf0c057,Tetamammas Palace,57.00682824433972,24.268715896860307,Eastern European Restaurant
797,563,56.9656,24.137552941176466,20,5,51e5adbe498e30815990fe37,Restorāns Meijers,56.96264227774557,24.137674514188124,Eastern European Restaurant
937,703,57.0036,24.17402352941177,2,1,51f2c185498e9390410e9f7a,Keizarmeza Terase,57.00319290161133,24.17785835266113,Eastern European Restaurant
904,670,56.9846,24.19225882352941,5,1,51f781cb498eb6d6be3c4022,Übers Paiko,56.987998859128865,24.191970222823194,Eastern European Restaurant
115,115,56.9561,24.119317647058825,39,25,51f95e1d498e7344a3332044,City Woks,56.956010731987895,24.118145625202647,Asian Restaurant
366,132,56.9371,24.082847058823532,16,10,51fbeaad498e92ddacdf8781,U.P.,56.93946838378906,24.08535194396973,American Restaurant
954,720,57.0321,24.119317647058825,3,2,51ffdfe1498e8817c1e1ea62,ganbei,57.0325187473294,24.117213704871663,Japanese Restaurant
323,89,56.9276,24.101082352941173,11,8,521dcb84498ed14ddea7ecad,Sushi Shop | Rīga Plaza,56.92735683584858,24.101865849473853,Japanese Restaurant
829,595,56.9656,24.17402352941177,11,2,52222a19498eba571728c20f,Fart Factory,56.96828299999999,24.175677,African Restaurant
721,487,56.9561,24.137552941176466,39,34,522f1e0511d21a81ca513cca,pie kaimiņu skuķes (mīļās odrijiņas),56.95802879086675,24.13159439500305,Indian Restaurant
420,186,56.9466,24.064611764705887,11,2,523c302911d2910cea1ff7b6,martin,56.94773483276367,24.07244110107422,Indian Restaurant
612,378,56.9561,24.101082352941173,39,14,523dad3411d26f01c13848cc,SushiCity,56.95567925414687,24.10008939774721,Sushi Restaurant
934,700,57.0036,24.101082352941173,1,0,5245531611d28a6acf2b3500,Restorāns Pie Resnās,57.005427000000005,24.104542000000002,Afghan Restaurant
605,371,56.9561,24.101082352941173,39,7,52481c4011d2e4d32ce7b411,Sushi City,56.955573738476474,24.100078002761556,Sushi Restaurant
444,210,56.9466,24.101082352941173,49,0,52512336498e13088fe4a0a7,Tokyo City,56.948220471451734,24.106759589422765,Sushi Restaurant
262,28,56.90859999999999,24.082847058823532,9,0,525443e111d2a7c149e61f3e,bat kojas virtuve 5.stavs,56.91091918945313,24.078996658325195,Afghan Restaurant
819,585,56.9656,24.15578823529412,15,7,5261a95311d2928060fee1ac,solanka bars,56.966652447988565,24.147900037085986,Cuban Restaurant
436,202,56.9466,24.082847058823532,15,7,52679252498e0ebc36aa0999,Pusdienslaikā,56.948804074710175,24.082381215220018,Eastern European Restaurant
223,223,56.95383907066761,24.12343621349723,26,15,526a4f4c498ec61b01ae5e0d,quiche lorraine,56.95322036743164,24.124467849731445,French Restaurant
820,586,56.9656,24.15578823529412,15,8,526df88c498e2f3f3872d511,Woki Toki,56.964644720911885,24.1553941678758,Asian Restaurant
946,712,57.0321,24.046376470588235,1,0,526ea00b498e60aae02b1b9e,Gvatar,57.032659630020206,24.04778555914062,Turkish Restaurant
872,638,56.9751,24.19225882352941,5,2,528b5fa811d2930120ff3563,Valta Chill spots,56.976257,24.185081,American Restaurant
164,164,56.95383907066761,24.115199080620428,24,11,5293222111d23c402162cd22,"Kafejnīca ""pie Vārpiņas",56.953140000000005,24.113017000000003,Asian Restaurant
416,182,56.9466,24.046376470588235,2,0,5294846911d250ebb82b7701,31. Kabinets | PVP,56.94441223144531,24.05231475830078,Arepa Restaurant
708,474,56.9561,24.137552941176466,39,21,52ab40a7498e0dc9312078e2,eLkafe,56.954680697547595,24.133282394269905,Eastern European Restaurant
485,251,56.9466,24.101082352941173,49,41,52ac5b02498ea90b29d19b4e,Hwesburgers @old_riga,56.94801330566406,24.10756683349609,American Restaurant
850,616,56.9751,24.137552941176466,12,4,52b5cd68498ea5d362a3ec74,Elite sushi,56.971658447351494,24.13315374767154,Sushi Restaurant
764,530,56.9656,24.082847058823532,3,1,52b5d05a498eb22a97398837,Nairobi shopping mall,56.96226431126458,24.0819174095499,Afghan Restaurant
896,662,56.9846,24.137552941176466,5,3,52bc42f911d2dc72f260ea15,ganbei,56.985946737397114,24.133158027813987,Japanese Restaurant
634,400,56.9561,24.101082352941173,39,36,52d13900498ed85d13ca814b,Ресторан узбекской кухни Анор,56.958955937943,24.105755841337714,Asian Restaurant
251,17,56.8991,24.101082352941173,6,3,52d1acd2498e97b641fdc4c1,100 pret 100,56.90006635065863,24.09608799974109,Afghan Restaurant
837,603,56.9656,24.17402352941177,11,10,52dc4dbe498ed28a1f405706,eža miga,56.96833801269531,24.1774959564209,Afghan Restaurant
202,202,56.95836092933239,24.12343621349723,31,25,52df7c3c498e60f5c2d71b57,барчик,56.95914840698242,24.12114524841309,Caribbean Restaurant
865,631,56.9751,24.17402352941177,8,3,52ef951b11d242fa3b802b0e,"Kafejnīca ""Pie Lodziņa""",56.972161811540424,24.172933335388347,Modern European Restaurant
108,108,56.9561,24.119317647058825,39,18,52f9ecca11d215812deeac84,Cigar Room,56.95578100000001,24.118604,Russian Restaurant
322,88,56.9276,24.101082352941173,11,7,52fe44d7498eb2eeb0217f56,Ristorante italiano,56.926132513506005,24.10237050091452,Italian Restaurant
343,109,56.9276,24.210494117647055,1,0,530c57b3498e19bd009175b3,Tokyo city piegade,56.929749246089706,24.212365798096467,Eastern European Restaurant
170,170,56.95383907066761,24.115199080620428,24,17,5316eec0498ee70fc9269b04,RV1Ğ ēdnīcas rinda,56.95294998405829,24.1127647064962,Afghan Restaurant
711,477,56.9561,24.137552941176466,39,24,531b11ac498e837f3ef6899f,Neolite,56.954992000000004,24.133766,Eastern European Restaurant
873,639,56.9751,24.19225882352941,5,3,5321d6e0498e4f169482408b,ceplis,56.97215186054478,24.186963810985127,African Restaurant
351,117,56.9371,24.064611764705887,7,2,5330276e498ed943a7e27e58,Šah Dag kafejnīca,56.93662137831234,24.062434578501747,Middle Eastern Restaurant
798,564,56.9656,24.137552941176466,20,6,533fe15d498e503a0fcdd74e,netto spoķiks,56.96660232543945,24.13076400756836,Afghan Restaurant
632,398,56.9561,24.101082352941173,39,34,5343e76f498e570540a67990,2 kul soliņš priekš Alises un Līvas,56.954117000000004,24.106619,Asian Restaurant
611,377,56.9561,24.101082352941173,39,13,535665ef498e506aae8b9088,ROMA,56.959275,24.105423000000002,Italian Restaurant
863,629,56.9751,24.17402352941177,8,1,5358b57a498eaff20fd9cd5a,boņuks,56.97783586170033,24.173486268839298,Afghan Restaurant
307,73,56.9276,24.02814117647059,5,1,535e227f498ea4b8bc795c16,Turkish Snus,56.929024,24.035128,Arepa Restaurant
462,228,56.9466,24.101082352941173,49,18,535ea347498ee364e154cdcc,Restorāns “Suite”,56.95016231525349,24.103095181244715,Eastern European Restaurant
949,715,57.0321,24.101082352941173,5,2,53664a21498ef8bbfd029a30,Katana Sušī Bārs,57.03539305350235,24.09854414117393,Asian Restaurant
948,714,57.0321,24.101082352941173,5,1,5370aff011d2034c97c13ed2,* Keitijas music studio or just virtuve *,57.03087997436523,24.10773468017578,African Restaurant
836,602,56.9656,24.17402352941177,11,9,5377a2ab498e43c7d01bfea2,kaku caurums,56.96559238674747,24.169389268999637,African Restaurant
467,233,56.9466,24.101082352941173,49,23,537cb5b3498ee189b9ff694a,Valtera restorāna terase,56.94987582251972,24.103015517044486,Eastern European Restaurant
698,464,56.9561,24.137552941176466,39,11,539cbd7c498eb12d43c8dd5e,Betty's Lounge,56.95546509146482,24.136683509795557,German Restaurant
393,159,56.9371,24.210494117647055,7,4,53a59d34498e65f063d74045,keldisa 22(Mareka Rezidence),56.93800354003906,24.20856475830078,Austrian Restaurant
26,26,56.94886092933239,24.115200130083927,31,10,53ba9108498e9ba407f188f2,Budha Restaurant,56.95109402221913,24.11482853074299,Indian Restaurant
342,108,56.9276,24.19225882352941,1,0,53c79977498e17e45082c85d,"Restorāns ""Pasta Banka""",56.926512262914144,24.188729803503858,Dim Sum Restaurant
939,705,57.0131,24.119317647058825,1,0,53cf7cf0498e5672a50c0e92,Zabigalofka,57.009620809160566,24.122973655253908,Russian Restaurant
321,87,56.9276,24.101082352941173,11,6,53cfdb4d498e307da1f0276e,D'ante,56.92603199999999,24.101993,Italian Restaurant
730,496,56.9561,24.17402352941177,15,0,53d7e766498e6237e9844d88,PiemajasMiskaste,56.9590072631836,24.175254821777344,Arepa Restaurant
221,221,56.95383907066761,24.12343621349723,26,13,53d7f63e498ea2c33f2b0bfd,Pakistānas kebabs,56.952099480826256,24.122995227493373,Kebab Restaurant
378,144,56.9371,24.15578823529412,4,0,53e340b4498e538892501767,ēdiens ❤❤👌,56.93951034545898,24.157041549682614,African Restaurant
876,642,56.9751,24.22872941176471,6,0,53e546c8498ec9c3ab44d433,u Denisa karoc,56.97148895263672,24.23299217224121,Arepa Restaurant
779,545,56.9656,24.119317647058825,16,3,53eba9e6498eeef7ebfa26be,narvesen arēna,56.96709823608398,24.11956596374512,African Restaurant
487,253,56.9466,24.101082352941173,49,43,53ef7491498e3f089ce15c4f,Avgustin,56.94926834106445,24.10647773742676,Modern European Restaurant
789,555,56.9656,24.119317647058825,16,13,53f345e7498e40a032e29233,竹 [Take],56.962322688056936,24.123100136283302,Japanese Restaurant
536,302,56.9466,24.119317647058825,50,43,53f74ea3498eacb60d1522c6,Sale&Pepe,56.947551651303996,24.111659071092763,Italian Restaurant
255,21,56.8991,24.137552941176466,2,1,54012f95498e3112f098619f,"Kitchen, lot of food, heaven.",56.90134811401367,24.14333724975586,Afghan Restaurant
808,574,56.9656,24.137552941176466,20,16,540941e7498e5eb221af3903,La Petite France,56.96685247014693,24.13808863468763,French Restaurant
46,46,56.94886092933239,24.115200130083927,31,30,540b2ec1498e634754b0cbc8,Sale&PepeKafe',56.94910733390544,24.11145896049083,Italian Restaurant
817,583,56.9656,24.15578823529412,15,5,5410a0cb498e02014a168608,216. zivju cehs,56.96452454991949,24.162095150533037,Ethiopian Restaurant
222,222,56.95383907066761,24.12343621349723,26,14,5412b59e498edb7c423d7ef3,Himalaju Āzijas virtuve,56.95430498528682,24.123038195782676,Himalayan Restaurant
619,385,56.9561,24.101082352941173,39,21,5412ccec498ee9ca9327c7e5,Restorané del Germané,56.95413694617175,24.107013412129284,Jewish Restaurant
875,641,56.9751,24.210494117647055,1,0,5415d0d5498ec124d5f40f87,darzciema kaulainais koks,56.97813034057617,24.21457862854004,American Restaurant
842,608,56.9656,24.19225882352941,5,4,54182e46498e4d3bb759bb86,emijas dzertuve,56.96583162921565,24.19609581583262,Asian Restaurant
460,226,56.9466,24.101082352941173,49,16,54199c0b498efed5afde73c3,MUUSU,56.94824396099752,24.1087608828207,Modern European Restaurant
864,630,56.9751,24.17402352941177,8,2,541ffb0c498e871a2c068e0d,YOHJI restaurant - infinity fitness spa&healt club,56.974284999999995,24.172222,Modern European Restaurant
900,666,56.9846,24.15578823529412,4,2,54218128498ead834b0c1653,alises hood,56.985088,24.156235000000002,African Restaurant
43,43,56.94886092933239,24.115200130083927,31,27,5427ffbd498ed8ce5dc9cb5c,Sushi city,56.948755126889566,24.113008970261873,Sushi Restaurant
622,388,56.9561,24.101082352941173,39,24,54280048498e51a58d662bfd,sushy city,56.95579549688338,24.09939375265246,Sushi Restaurant
263,29,56.90859999999999,24.082847058823532,9,1,543bb5f4498ec74796097e0c,Direct,56.912060927453965,24.086377986310996,Afghan Restaurant
553,319,56.9466,24.15578823529412,4,1,54414b6f498e8d71416d996b,Gan bei,56.949404,24.153979999999997,Asian Restaurant
371,137,56.9371,24.082847058823532,16,15,54463c21498e9497034c83c9,Cīrules kabinets it is,56.93576028705422,24.07517580131969,Arepa Restaurant
301,67,56.9181,24.2652,1,0,544cef66498e57364d1b8129,omes dzīvoklītis🍰🏡,56.91799545288086,24.264738082885746,American Restaurant
194,194,56.95836092933239,24.12343621349723,31,17,545205c6498eb8a585e4e2d7,"Kafejnīca ""Круиз""",56.959215939489496,24.119768508621068,American Restaurant
45,45,56.94886092933239,24.115200130083927,31,29,5459f452498ea8ab346991fe,Slepanais pagrabiņš,56.948674,24.111428,French Restaurant
621,387,56.9561,24.101082352941173,39,23,545c829f498e19b5da99200f,Alkanna kafejnīca,56.954589,24.100466,American Restaurant
41,41,56.94886092933239,24.115200130083927,31,25,54678fad498eac74bd401da1,Sushi Point,56.947345999999996,24.112701,Asian Restaurant
811,577,56.9656,24.137552941176466,20,19,5469ed2b498e5ae11a95b96f,Noras būris,56.9642219543457,24.135234832763672,African Restaurant
583,349,56.9466,24.246964705882355,4,3,5478947a498e8f49361ddf68,99,56.95013349599913,24.24521307391394,American Restaurant
264,30,56.90859999999999,24.082847058823532,9,2,5479ef20498e3f576febe38a,yolo picērija 🍕🍱,56.90659,24.080803,Asian Restaurant
756,522,56.9656,24.02814117647059,1,0,547aa54f498e2e7d1292c933,под Имантой,56.962573,24.03138,Arepa Restaurant
357,123,56.9371,24.082847058823532,16,1,5485466d498ecdf0dbab5110,Beizakas kabinets yolo,56.93655776977539,24.07559585571289,Argentinian Restaurant
443,209,56.9466,24.082847058823532,15,14,54881995498ea6687fd26b20,bufet. #koraskola,56.94531397013423,24.075426828157592,Jewish Restaurant
582,348,56.9466,24.246964705882355,4,2,548dab97498ecb54dad821f4,Dreiliņi,56.943464300154474,24.247351787990326,Argentinian Restaurant
131,131,56.95836092933239,24.115199080620428,24,2,548f1308498e9acd7d50c770,Rossini 2,56.959235353071364,24.11301280063246,Italian Restaurant
809,575,56.9656,24.137552941176466,20,17,54946a90498ea3488d9e50e4,italian bar,56.9676419003999,24.14209960014453,Italian Restaurant
564,330,56.9466,24.19225882352941,7,4,5496fd76498edf459cc5796e,El Mexicano,56.94873695437168,24.18826394190373,Mexican Restaurant
723,489,56.9561,24.137552941176466,39,36,549d3a32498ef340b33d187a,Vistu mājiņa,56.956192,24.135233,African Restaurant
574,340,56.9466,24.22872941176471,7,1,54a4121d498e347458df9d6e,Lūcijas Hoods,56.945762071585115,24.236019379825144,American Restaurant
259,25,56.8991,24.210494117647055,6,3,54aaaec3498ee74ea1c7901f,Šašliki,56.90042456253029,24.21622106437545,Russian Restaurant
362,128,56.9371,24.082847058823532,16,6,54ab8b96498e292b4b8b90af,Ahujenā Bufete 👌😍,56.9363892655011,24.07698386074168,American Restaurant
268,34,56.90859999999999,24.082847058823532,9,6,54b7f323498eee8f4d2f57e8,Nestle Oil,56.91046740344065,24.08717083837548,Greek Restaurant
620,386,56.9561,24.101082352941173,39,22,54b92918498e8e5ef206c765,Double Coffee,56.95864130134957,24.105345364557706,Modern European Restaurant
838,604,56.9656,24.19225882352941,5,0,54baa8c4498ee71589ef20bc,Gribča Picu Darbnīca,56.965207621021825,24.192640072243034,Italian Restaurant
841,607,56.9656,24.19225882352941,5,3,54baa931498ef8a5b25b90fa,Gribča Picu Darbnoca,56.96748733520508,24.193878173828125,Italian Restaurant
280,46,56.90859999999999,24.19225882352941,6,2,54bac331498e7c86d1a0de3d,Studentu Paradīze(Pie Tomiņa),56.9063845412365,24.18711410986891,Afghan Restaurant
148,148,56.95836092933239,24.115199080620428,24,19,54bf71ef498e899b8ddbfead,Bocelli,56.9576365406172,24.111444828378733,Italian Restaurant
391,157,56.9371,24.210494117647055,7,2,54c79b14498eb9899f0d38bd,Dostlar,56.939292,24.204432,Turkish Restaurant
435,201,56.9466,24.082847058823532,15,6,54d09a2a498e1641466d6d3b,EDMV kafejnīca,56.94527095889895,24.077304164069638,Afghan Restaurant
425,191,56.9466,24.064611764705887,11,7,54d1e5d5498e4d3403638511,u gali #edaestjvsegda,56.94644438230937,24.066761161348325,Argentinian Restaurant
835,601,56.9656,24.17402352941177,11,8,54d3be94498ecc001759ee77,Моя Кухня,56.96897339739627,24.173522703452896,Mongolian Restaurant
552,318,56.9466,24.15578823529412,4,0,54d987fe498ef17d68794539,Lage Co,56.94951078132781,24.153821445125157,Asian Restaurant
715,481,56.9561,24.137552941176466,39,28,54db5488498e981c8be10b51,Mikado,56.95735973697051,24.13860134878236,Japanese Restaurant
205,205,56.95836092933239,24.12343621349723,31,28,54dfa91c498e9d4d76fb394e,Granada,56.957069465920355,24.123534618924488,Mediterranean Restaurant
831,597,56.9656,24.17402352941177,11,4,54dfe8ac498e0e161e8adc05,Mājokļa Jautājums,56.96200180053711,24.178890228271484,Asian Restaurant
548,314,56.9466,24.137552941176466,9,5,54e42906498eefaf2ea241b4,taci,56.94651016212353,24.14472801606641,Mexican Restaurant
547,313,56.9466,24.137552941176466,9,4,54e42926498e8f4430595c8f,kurtu,56.946846017305134,24.139236862597343,Mexican Restaurant
196,196,56.95836092933239,24.12343621349723,31,19,54e4c092498e7cf9d42cad67,как-то в Одессе,56.95633974863491,24.124509115145372,Jewish Restaurant
86,86,56.94886092933239,24.123435164033733,31,28,54eb3d52498e12af65acb25e,Kabuki,56.950405168193114,24.121747401484807,Asian Restaurant
825,591,56.9656,24.15578823529412,15,13,54edf956498e27464c95b8a8,TIKI.LV,56.9697162017563,24.155465386939355,Argentinian Restaurant
724,490,56.9561,24.137552941176466,39,37,54eee5f6498ec9c89e8a8fa7,Sestās Restorančiks,56.95825936959194,24.14143369751185,American Restaurant
240,6,56.8991,24.046376470588235,1,0,54f0aef1498ea31299c07735,Patas ♥Princešu Pils ♥,56.89897537231445,24.04684829711914,Afghan Restaurant
313,79,56.9276,24.082847058823532,2,0,54f2173f498eb81e0d95c787,Maziņās Slavenā Virtuve,56.9254837628926,24.084292603173914,Asian Restaurant
802,568,56.9656,24.137552941176466,20,10,54f5bb6e498e42d85831a042,5 dzīvnieku miteklis,56.96368026733398,24.13648796081543,American Restaurant
919,685,56.9846,24.22872941176471,1,0,54f61a41498ef7d80422d016,Virtuve kur viss ir vislabāk 🍟🍔,56.98596540861158,24.227088751930733,American Restaurant
287,53,56.9181,24.046376470588235,3,0,54fb2c0b498e3399ffc9f359,Hercogs,56.918886327066815,24.039226223651706,Eastern European Restaurant
195,195,56.95836092933239,24.12343621349723,31,18,5501d5f4498e0ef46214730b,Kādreiz Odesā,56.95634324884302,24.124551473851408,Ukrainian Restaurant
744,510,56.9561,24.17402352941177,15,14,55034365498e3553f07d2299,metriņa penthouse,56.953343000000004,24.167749,American Restaurant
160,160,56.95383907066761,24.115199080620428,24,7,5505aa45498efeb43b30e8bf,Tokyo City,56.95216696398969,24.11438824283237,Chinese Restaurant
340,106,56.9276,24.17402352941177,12,10,550995e8498e04ef460bb034,"Kafejnīca ""Šeherezade""",56.92649459838867,24.171646118164066,Turkish Restaurant
810,576,56.9656,24.137552941176466,20,18,55117b55498ef1a8aefdd0f8,Katrīnas istaba 🔥👍,56.96385407698337,24.130620715907522,African Restaurant
390,156,56.9371,24.210494117647055,7,1,5516bfe2498e3be5c4e88020,bračkas rezidence pļavniekos,56.938066000000006,24.20899,Arepa Restaurant
235,1,56.8896,24.137552941176466,1,0,5516e41f498e208a938ce8a8,Kārļa privātais resturans,56.892593000000005,24.139557,American Restaurant
722,488,56.9561,24.137552941176466,39,35,551ac970498e13c2fdeedda6,Vitas Gulta 👪,56.95569110293891,24.13812553304781,Argentinian Restaurant
935,701,57.0036,24.15578823529412,1,0,551d221e498e614682944cc0,Ibija Cafe,57.00030136108398,24.15968513488769,American Restaurant
276,42,56.90859999999999,24.119317647058825,3,2,551df30e498ee9d454f62dda,Daily Snack,56.909118654013355,24.12687547132834,American Restaurant
432,198,56.9466,24.082847058823532,15,3,552f4b9c498e8418507e1cdd,susļiks musļika,56.945131,24.07625,Asian Restaurant
936,702,57.0036,24.17402352941177,2,0,5532761c498ed9e3d67ad19a,Kārļa Lielais Ledusskapis,57.00431693644523,24.16661762012848,Eastern European Restaurant
791,557,56.9656,24.119317647058825,16,15,55373f74498e02768beae8bf,RTPV Ekspresis uz Valmieru,56.963081864749775,24.12144754218328,African Restaurant
290,56,56.9181,24.064611764705887,2,0,553fc0fb498e78fccd34915a,Paleju māja,56.916284221158115,24.065751159866146,Arepa Restaurant
729,495,56.9561,24.15578823529412,4,3,55492bf4498eeab4eca5fac0,📍 fancy šķūnis,56.957381000000005,24.148978,French Restaurant
7,7,56.9466,24.119317647058825,16,7,555219e9498e1e8aace8c6d4,double coffee #work,56.94690068392082,24.11939483054772,Jewish Restaurant
426,192,56.9466,24.064611764705887,11,8,55535efe498ee51e2a8dc130,Fei Fei,56.945285601369115,24.064456133129696,Middle Eastern Restaurant
152,152,56.95836092933239,24.115199080620428,24,23,555480ee498e2805c366def7,Bhajans kafē,56.958565,24.111233,Indian Restaurant
882,648,56.9751,24.246964705882355,9,0,55598284498e02e9b03ec737,RSMPV Caffe,56.978491344612465,24.25116126849261,Asian Restaurant
336,102,56.9276,24.17402352941177,12,6,555d6ada498e13a58c63a149,stulbās B klases autobuss 😏😂🙏😕,56.929593999999994,24.17853,American Restaurant
593,359,56.9561,24.064611764705887,3,0,555ddc97498e3451c62c7362,Emy šefpavāru virtuve 👍,56.95275395507379,24.063240247773038,Afghan Restaurant
713,479,56.9561,24.137552941176466,39,26,556027cf498ef94ca3862f23,JĒKABPILS-DAUGAVPILS,56.95259907713231,24.13465044256441,Austrian Restaurant
890,656,56.9751,24.246964705882355,9,8,556047d2498e139d8ea5894c,"""GET SMART CAFE""",56.97594451904297,24.253765106201172,American Restaurant
953,719,57.0321,24.119317647058825,3,1,5566f5bf498e808c26e0b10f,Vilciens Zemitāni - Lilaste,57.034485166003826,24.12551180745397,Afghan Restaurant
701,467,56.9561,24.137552941176466,39,14,556c4d33498ef8e9d1f0d44d,Labākās omītes mājas 💎,56.9584852264598,24.14104213392607,American Restaurant
923,689,56.9846,24.246964705882355,7,3,55706788498ecafe50987ce4,nikolas house,56.985277,24.244692999999998,Austrian Restaurant
707,473,56.9561,24.137552941176466,39,20,5576da55498e118c62374464,Gan Bei,56.95515830439664,24.13165047206719,Japanese Restaurant
285,51,56.9181,24.02814117647059,2,0,55772b88498e24b1a7f565b2,virtuve 🍓🍌,56.915863708038515,24.028616690534765,Romanian Restaurant
843,609,56.9751,24.046376470588235,2,0,5579508f498e50e3e2185047,Andruhas&Slavjāna bāze 🍅🍄🍋🍊,56.97403072559652,24.03921596188724,Caribbean Restaurant
589,355,56.9561,24.02814117647059,3,0,557aa062498e93226aab548e,krievu autiņš. 🙆🏼👌🏽,56.956157999999995,24.035878,Austrian Restaurant
617,383,56.9561,24.101082352941173,39,19,557d8b42498ec1b1d9821eaa,Urth Caffe,56.95190048217773,24.10242080688477,American Restaurant
471,237,56.9466,24.101082352941173,49,27,557d8c90498e50e3ed2cb925,Urth Caffe,56.9499626159668,24.10208320617676,American Restaurant
254,20,56.8991,24.137552941176466,2,0,557fe0ba498ea158d50cb036,Woki Toki - A7,56.896299913962096,24.138586027987778,Asian Restaurant
61,61,56.94886092933239,24.123435164033733,31,3,558d3c87498e31b679782fe5,The Best kebabu spots ❤,56.949039101472934,24.12655906649753,New American Restaurant
320,86,56.9276,24.101082352941173,11,5,558d72b1498e0bfd5f3daa5a,Gan Bei🍱,56.925386258507395,24.105833607271105,Sushi Restaurant
324,90,56.9276,24.101082352941173,11,9,559d09dd498ebd10c97dec44,Agn Kaka,56.927252807276886,24.10455022794678,Afghan Restaurant
940,706,57.0131,24.15578823529412,2,0,559f9f7c498eaf96e36303ef,Mežaparka Food Zone,57.01343579200584,24.15666365047734,Ethiopian Restaurant
731,497,56.9561,24.17402352941177,15,1,55a0f0cf498ea5a1abcc264d,Dikse,56.95265579223633,24.17177963256836,Asian Restaurant
815,581,56.9656,24.15578823529412,15,3,55acbccf498e6e43ca4c5ce6,"""Majonēze""",56.965986256512615,24.153719426377844,Eastern European Restaurant
821,587,56.9656,24.15578823529412,15,9,55ae2188498e7e70be58d058,Kaki Sraki,56.965017680591046,24.155137538909912,Chinese Restaurant
867,633,56.9751,24.17402352941177,8,5,55b1a886498e8379c3fe2c48,Kates rezidence teikā,56.978430861776324,24.176089332204427,African Restaurant
805,571,56.9656,24.137552941176466,20,13,55b3e65c498e697abd84197a,Alberta Mājas,56.96253081828287,24.137926490311894,Afghan Restaurant
337,103,56.9276,24.17402352941177,12,7,55b54da1498e57005a482e86,Bro Place.,56.931634333878996,24.17607900780895,African Restaurant
902,668,56.9846,24.17402352941177,1,0,55ba0765498e7822b3ff5f5a,Zaļais Dīvāns 😂 💪,56.98715517510042,24.17256841974511,Asian Restaurant
562,328,56.9466,24.19225882352941,7,2,55bf7422498e3b3678bab949,Ēdiens & Co,56.943788,24.189483,Modern European Restaurant
151,151,56.95836092933239,24.115199080620428,24,22,55cc93ba498e26f4dc384d94,Rįviera,56.95827570603765,24.111505812135164,Mediterranean Restaurant
732,498,56.9561,24.17402352941177,15,2,55d1a2e6498e5b80008750cc,3grupas Edināšanas Speciālistu Kambaris .,56.952468031387184,24.17395717222843,Ethiopian Restaurant
851,617,56.9751,24.137552941176466,12,5,55db3c9a498e2a191c8014a4,pipels,56.9754194320161,24.134589289491586,African Restaurant
245,11,56.8991,24.082847058823532,6,3,55dcf3ee498e67591fdd1e2a,Betijas Ledusskapis,56.89987360122446,24.08982754578609,English Restaurant
710,476,56.9561,24.137552941176466,39,23,55e24ba9498ea4db39408549,Rebekas Hoods 😍,56.95581186324493,24.1376803944296,Dim Sum Restaurant
848,614,56.9751,24.137552941176466,12,2,55e49028498ec10bca29922f,Brasas Stroika,56.972300208099185,24.14048365299841,Filipino Restaurant
784,550,56.9656,24.119317647058825,16,8,55e7f82c498ef3e5b223ffcc,Cietuma Lux Ēdnīca,56.96149398574933,24.120807227353566,Belgian Restaurant
88,88,56.94886092933239,24.123435164033733,31,30,55ed6572498e808c9801ef0a,Bezdegunes kabinets,56.94918823242188,24.12232780456543,Russian Restaurant
929,695,56.9941,24.17402352941177,1,0,55ee9102498ee0668ba0dbe3,Celjaa uz skolu 😖😖😖,56.99346519653994,24.17988169646417,Caribbean Restaurant
479,245,56.9466,24.101082352941173,49,35,55f28825498eb521b6090937,rv3g |barības izdošana,56.946669205692615,24.10914750434196,Afghan Restaurant
914,680,56.9846,24.210494117647055,11,6,55f2ce65498e93d5f9023785,Zivs Dibens 🐠,56.98078438447558,24.212185036795866,Australian Restaurant
406,172,56.9466,24.009905882352943,12,6,55f9a0fa498ed274809bf6f5,palodze💁🏼😂❤️💥,56.94727782191378,24.012517611398554,Afghan Restaurant
424,190,56.9466,24.064611764705887,11,6,55fc6049498ef83ca5686546,Alus Pagrabins,56.9437370300293,24.06641960144043,Russian Restaurant
958,724,57.0511,24.064611764705887,1,0,55fd0ac6498e02b96812f765,Fvhnn,57.05291748046875,24.066242218017575,Australian Restaurant
409,175,56.9466,24.009905882352943,12,9,55fd317c498ef74c23a93bec,Fift Harmony vieta ❤️😂💁🏼,56.947295999999994,24.012556,German Restaurant
408,174,56.9466,24.009905882352943,12,8,55fd3ee5498ef87edba8a91a,Ķjip ārā,56.947276,24.012569,German Restaurant
402,168,56.9466,24.009905882352943,12,2,55fe6308498ef8eb5512270e,Virtuves palodze,56.947269999999996,24.012609,German Restaurant
401,167,56.9466,24.009905882352943,12,1,55fee43c498edd651e7a1899,vanniņa,56.94724401567106,24.012597546299897,German Restaurant
404,170,56.9466,24.009905882352943,12,4,55ff8db3498eb6c6ff3f39f1,Pašā gultiņas vidū ❤️,56.94724300000001,24.012588,German Restaurant
870,636,56.9751,24.19225882352941,5,0,56010a78498e2c01aa9cbe67,RTV ēdnīca,56.97633709832628,24.18452692109177,Cambodian Restaurant
405,171,56.9466,24.009905882352943,12,5,5601980e498e24dd5446ceb9,Kūkiņ,56.947272999999996,24.012618,German Restaurant
407,173,56.9466,24.009905882352943,12,7,5601b7f7498e6a1837426a75,Pie gultiņas,56.947334999999995,24.012537,German Restaurant
382,148,56.9371,24.19225882352941,7,0,56028fb7498e1615e7b19575,✌🌍,56.93513812550413,24.196446125288574,German Restaurant
403,169,56.9466,24.009905882352943,12,3,5602e418498e2dde31734038,prinetra pasaule,56.947226,24.012537,German Restaurant
411,177,56.9466,24.009905882352943,12,11,5606d1bf498e2b2f60a551ae,"Vieta , kur mums pārtijs",56.947322,24.012994,German Restaurant
959,725,57.0511,24.17402352941177,1,0,5607a274498e5d8af30dd0f3,šefpavāra A.M. virtuve,57.0543212890625,24.16860771179199,Modern European Restaurant
385,151,56.9371,24.19225882352941,7,3,56094a87498e66c681f28df0,Dublina✌,56.93501578980587,24.19650081564036,German Restaurant
269,35,56.90859999999999,24.082847058823532,9,7,56095926498ef664d56cde08,RCK Kojas |četrisimt un divi|,56.911716381689565,24.079975926158472,French Restaurant
921,687,56.9846,24.246964705882355,7,1,560a66b6498e6ee56a066b1a,rjv mazās skolas sporta zāle,56.9822428892732,24.248678936428014,Asian Restaurant
410,176,56.9466,24.009905882352943,12,10,560aa595498e655d62ca1fc3,brāļa karaļvalstība,56.947256,24.012586,German Restaurant
856,622,56.9751,24.137552941176466,12,10,560e49b7498e239b191235e5,Kulinārijas izvirtību kālngals,56.975594688049746,24.13286760582222,Belgian Restaurant
627,393,56.9561,24.101082352941173,39,29,560ebf12498ea48fff634fd5,Ēdiena kambaris,56.96048412445903,24.100533006448835,American Restaurant
267,33,56.90859999999999,24.082847058823532,9,5,561171b4498e7850865b59ac,lifts,56.910299637690365,24.07976158677205,Filipino Restaurant
370,136,56.9371,24.082847058823532,16,14,561239fb498e24d0712b474e,fbps ēdnīca 🍴,56.93607154763361,24.07483068522608,Afghan Restaurant
413,179,56.9466,24.02814117647059,4,1,56124123498e53f28e312477,kambaris,56.946505,24.02018,German Restaurant
415,181,56.9466,24.02814117647059,4,3,5612417c498e447ac403025e,kambaris,56.94746899999999,24.021129000000002,German Restaurant
400,166,56.9466,24.009905882352943,12,0,5612d3e6498ef8419e18009a,Gulta,56.94738100000001,24.012601,German Restaurant
253,19,56.8991,24.101082352941173,6,5,56139168498e55cc2e416936,94.vidusskolas kafeinīca🍲,56.898790000000005,24.094139000000002,Belgian Restaurant
75,75,56.94886092933239,24.123435164033733,31,17,5613f101498e1e25225d8993,Zelta Dolina,56.94854384886829,24.12403817984293,Middle Eastern Restaurant
783,549,56.9656,24.119317647058825,16,7,561b8955498e99e2d94c0c13,skulmes midzenis,56.961400871389216,24.12081881192697,Caribbean Restaurant
816,582,56.9656,24.15578823529412,15,4,561d4778498ed8ec11230c80,Garšvielu noliktava. #505,56.96423501198414,24.162148395888988,Ethiopian Restaurant
742,508,56.9561,24.17402352941177,15,12,561e1922498e92f9e215cacc,Riharda kotlešu valstība ēdnīcā,56.952519116764705,24.173081184487877,Asian Restaurant
924,690,56.9846,24.246964705882355,7,4,561f2c9a498ea19570a037bf,Virtuve. 😍,56.98456975568872,24.24223103761496,New American Restaurant
631,397,56.9561,24.101082352941173,39,33,5620e427498efb1e8cb50481,Kafējnīca😌✨🍴,56.957029000000006,24.103838,American Restaurant
575,341,56.9466,24.22872941176471,7,2,5623a19d498e732a61e0d1e5,Alises rezidence,56.94356918334961,24.225893020629886,Asian Restaurant
270,36,56.90859999999999,24.082847058823532,9,8,5624ede1498e6263083efb17,3 Stāvā Virtuve Rck Kojās!,56.91165161132813,24.080265045166016,Italian Restaurant
265,31,56.90859999999999,24.082847058823532,9,3,56251cbf498eab4f4504ccb9,Rck Koju Virtuve,56.911664229689656,24.07874482091516,American Restaurant
591,357,56.9561,24.02814117647059,3,2,5629f578498e027ba7458f08,Rīgas 69. Vsk Elles Ēdnīca,56.95579056646294,24.02599989423377,Ukrainian Restaurant
20,20,56.94886092933239,24.115200130083927,31,4,562a53d7498e154e02dc90cf,Sale & Pepe Italiano Ristorante,56.949120163258684,24.111453987557727,Italian Restaurant
329,95,56.9276,24.15578823529412,4,3,562a570e498e68c8d7a51ea6,Lidiņš💋😎✨👌🏾,56.92710699999999,24.16027,American Restaurant
786,552,56.9656,24.119317647058825,16,10,562f92e2498e63cc576b4ff2,Kaut Kāda Kafeijnīca Pie Arēnas,56.9668325412619,24.12494774539436,American Restaurant
892,658,56.9846,24.119317647058825,1,0,56320427498e0433ca166e68,Zalas Ganibas,56.98070458429265,24.116678154162432,Eastern European Restaurant
768,534,56.9656,24.101082352941173,10,2,5634c9a5498e152937c3d605,Gan Bei,56.96786880493164,24.105403900146484,Cajun / Creole Restaurant
431,197,56.9466,24.082847058823532,15,2,563735ba498ec7728556a7b4,RTU EEF | Ķīniešu Restorāns,56.95064963967924,24.079897739301465,Chinese Restaurant
261,27,56.8991,24.210494117647055,6,5,563a268ccd10942f96837944,EliE,56.8982521493493,24.204843632348844,Belgian Restaurant
906,672,56.9846,24.19225882352941,5,3,563b8c1acd10e0c62ef09ac2,Omes ledusskapis ❤️,56.982445174056146,24.19669250419599,American Restaurant
258,24,56.8991,24.210494117647055,6,2,563ba79acd10b65abc70e6ad,Rukša Leduskapis,56.9009880763802,24.204643322515988,Belgian Restaurant
398,164,56.9371,24.246964705882355,1,0,563cf813cd10872623ce39b7,Ances Hata 👣👑,56.93621100910175,24.250391859169486,Asian Restaurant
550,316,56.9466,24.137552941176466,9,7,563e3812cd107e69969cbf22,Saņčo rezidence💞,56.950421999999996,24.136123,Australian Restaurant
790,556,56.9656,24.119317647058825,16,14,5642e0b8498eb42b4d329b7a,Woki Toki,56.96283231396531,24.12472258585354,Asian Restaurant
602,368,56.9561,24.101082352941173,39,4,56433d28498edeae9fda9ce0,Mammas darba kafējnīca🍽🍴,56.95810986270508,24.101998019736662,American Restaurant
594,360,56.9561,24.064611764705887,3,1,5649a811498e2673f9f225c2,Ēšanas Spots🍭🍭🍭,56.95824432373047,24.060754776000977,Korean Restaurant
279,45,56.90859999999999,24.19225882352941,6,1,564acfc8498eb267a9d1fe9b,Tēta Pankūku Virtuve🍴,56.907905318013114,24.18452575172639,Russian Restaurant
794,560,56.9656,24.137552941176466,20,2,564d0b6e498ee2cb3164f6be,Ēveles iela 6.,56.96837724378254,24.1329121231765,Austrian Restaurant
576,342,56.9466,24.22872941176471,7,3,564d9fcc498e0eb14fafffb8,sinčas pinčas virtuvē 🍴🍕,56.94512555525485,24.236412189958077,Indian Chinese Restaurant
920,686,56.9846,24.246964705882355,7,0,564f4d61498e222d852669cb,Mikrorajons | Jugla,56.9858512878418,24.24489402770996,Afghan Restaurant
438,204,56.9466,24.082847058823532,15,9,56532d6f498e779f35e1c66a,619. klasīte 🔞❣🎹,56.944736,24.076816,Tibetan Restaurant
544,310,56.9466,24.137552941176466,9,1,56541a45498e4e0b63fa5889,njam,56.942918000000006,24.137715,Belgian Restaurant
437,203,56.9466,24.082847058823532,15,8,56599d8b498ebf764eea7b02,Ķīniešu Ēdieni,56.9493636387805,24.083265624601136,Cantonese Restaurant
901,667,56.9846,24.15578823529412,4,3,565bf959498e983dd14ff91b,Mežaparka Balle,56.986572265625,24.15870857238769,American Restaurant
909,675,56.9846,24.210494117647055,11,1,565c6986498e5e36e6bd008a,Jugla,56.98545270430585,24.209184602290968,Cambodian Restaurant
741,507,56.9561,24.17402352941177,15,11,565c882538fae7c095333f6f,9. stāva virtuve| 904.,56.95278351221895,24.173825322568394,New American Restaurant
239,5,56.8896,24.17402352941177,3,2,565d99a4498e19281354b215,Kates virtuves galds🍽,56.893153000000005,24.174132999999998,Modern European Restaurant
603,369,56.9561,24.101082352941173,39,5,5661c3d6498e895246c0502f,Ģimenes lamborgini,56.95859485390294,24.106029843108047,Australian Restaurant
629,395,56.9561,24.101082352941173,39,31,5661daac498eb6bd9a62e31c,Рестик 🍕,56.95571999999999,24.109085999999998,French Restaurant
630,396,56.9561,24.101082352941173,39,32,5661daec498ebe13ad957688,пиццерия 🍕,56.955778896708686,24.10905083625445,Italian Restaurant
775,541,56.9656,24.101082352941173,10,9,56649cf838fa1e55a98d58c9,miskaste,56.966063,24.104879,Afghan Restaurant
327,93,56.9276,24.15578823529412,4,1,5666ac4e498e192175adf878,Школьная блеваловка,56.92720149787637,24.161716815192513,Afghan Restaurant
963,729,57.0796,24.119317647058825,1,0,5666e249498e560b4e10e27a,Ēdamā zona😋,57.08013153076172,24.11883544921875,American Restaurant
168,168,56.95383907066761,24.115199080620428,24,15,566b3f45498eb590c616db9b,muteres skapja 2. stāvs ☝🏾️,56.952344999999994,24.1141,Mexican Restaurant
167,167,56.95383907066761,24.115199080620428,24,14,566b489c498e14f352bb876d,secret crib 🔞✋🏽,56.952448,24.114151,Mexican Restaurant
157,157,56.95383907066761,24.115199080620428,24,4,566bcfde498e5c5447faaabc,hw galds 📚,56.952539,24.113787,Mexican Restaurant
176,176,56.95383907066761,24.115199080620428,24,23,566c3f8d498eba8f2ffed563,virtuve🕋,56.952616000000006,24.113928,Italian Restaurant
171,171,56.95383907066761,24.115199080620428,24,18,566c5eaa498e7d638f781b71,manas istabas durvisss 🚪,56.952633,24.113802,Italian Restaurant
163,163,56.95383907066761,24.115199080620428,24,10,566c85cd498ec2bbba0cd5b0,kāpņu telpa,56.952466,24.113971,Italian Restaurant
174,174,56.95383907066761,24.115199080620428,24,21,566c96a2498e7981186d364d,diivaans🛋,56.952447,24.113895,Italian Restaurant
787,553,56.9656,24.119317647058825,16,11,566fd3fe498e780d67a3987b,7.b ēdnīca jeb kāpnes🍺,56.961252,24.121343,African Restaurant
355,121,56.9371,24.064611764705887,7,6,56728e94498e0b66c13fe1c2,Mana Mīļā Virtuve ❤😍,56.936431170867046,24.06015463995809,Belgian Restaurant
915,681,56.9846,24.210494117647055,11,7,5672f81a498e8b94b978b5ed,Alfas woki Toki,56.986464666575486,24.20719072431365,Asian Restaurant
702,468,56.9561,24.137552941176466,39,15,5675660a498ee8858447cebb,Mirage,56.95666017443867,24.133338476312183,Eastern European Restaurant
399,165,56.9371,24.2652,1,0,56799793498e5c3e8675185b,Dāvīša Pağis,56.934819999999995,24.262701,Korean Restaurant
344,110,56.9371,24.009905882352943,1,0,567c02ce498ee565c8a1cb39,Brālēna Villa,56.939631999999996,24.00704,Asian Restaurant
563,329,56.9466,24.19225882352941,7,3,5682a71b498e48c1c959c93d,Rossini,56.945728815168046,24.190902532807197,Italian Restaurant
295,61,56.9181,24.101082352941173,6,3,56854c0c498e8626d00ae1a7,Rīga City Svētku galds,56.914157948093354,24.10026373483097,American Restaurant
236,2,56.8896,24.15578823529412,1,0,5686bd2f498e1315b68d8ffe,Rāmavas Dīķis,56.886228544040925,24.157518003424034,Australian Restaurant
373,139,56.9371,24.119317647058825,2,1,5687c654498eaff180e06379,Galleria Riga Terrace,56.93849495792853,24.119376245792047,Modern European Restaurant
763,529,56.9656,24.082847058823532,3,0,568d1d29498e2bc90f420e6c,Pie Ledusskapīša😏😏,56.966797,24.087677,Australian Restaurant
884,650,56.9751,24.246964705882355,9,2,568d44de498ea13528764f7c,6.stāva kafejnīca 🇫🇷,56.97245780730958,24.240433103797837,French Restaurant
381,147,56.9371,24.15578823529412,4,3,568d4672498ef37a8728becc,Ēdam galds pie Džūlijas,56.94001,24.153123,Caribbean Restaurant
706,472,56.9561,24.137552941176466,39,19,568e3137498e08c597589194,burbulis yo,56.95683969142289,24.12976055805069,American Restaurant
714,480,56.9561,24.137552941176466,39,27,568e458d498ecf817225ba17,wtf,56.955206999999994,24.137003,American Restaurant
839,605,56.9656,24.19225882352941,5,1,568ea454498e6acb7ca8d0d3,Nav laimes,56.96656266341526,24.186609306016397,New American Restaurant
532,298,56.9466,24.119317647058825,50,39,568eb5fa498ec74349d7173d,Escargot Cafe,56.94705923146986,24.111667783437465,Spanish Restaurant
272,38,56.90859999999999,24.101082352941173,3,1,56913af8498eec2ab423c9da,Pipuka Spots,56.904959999999996,24.101967000000002,Asian Restaurant
129,129,56.95836092933239,24.115199080620428,24,0,569154d3498e8f20fed2a393,Casa Nostra,56.95771272331726,24.11126920722234,Italian Restaurant
642,408,56.9561,24.119317647058825,50,5,5693953a498ee1363a3a0327,COD,56.95609878775871,24.126143941750392,Japanese Restaurant
238,4,56.8896,24.17402352941177,3,1,5693dbe9498e277c2991037f,☆Emīla Virtuvīte☆,56.886384098103406,24.17275563386094,Sri Lankan Restaurant
237,3,56.8896,24.17402352941177,3,0,569560be498edfe75eb756ea,Tumšā Virtuve,56.886384098103406,24.17275563386094,New American Restaurant
855,621,56.9751,24.137552941176466,12,9,5696720b498e4f03366370fa,Anna's Šikā Virtuve,56.975135287778606,24.145488191280037,Afghan Restaurant
361,127,56.9371,24.082847058823532,16,5,56972a8e498e51464e596507,Mīļa Virtuvīte🍲🍝💖😛,56.934539077471285,24.077373279916447,American Restaurant
338,104,56.9276,24.17402352941177,12,8,5697dcec498ed9c3adcbc289,Ķīniešu Bufete,56.927926568113826,24.178921416998683,Chinese Restaurant
895,661,56.9846,24.137552941176466,5,2,5698178a498ec7583dda4508,Folkklubs Ala Tualete,56.98682050013337,24.135775240175967,African Restaurant
853,619,56.9751,24.137552941176466,12,7,569a739e498e7bd11060d949,sveg istaba,56.975857,24.138948000000003,African Restaurant
774,540,56.9656,24.101082352941173,10,8,569cd402498e4f29b4c4e70f,Nedaudz bomzīgie soliņi,56.96195600000001,24.10589,Asian Restaurant
614,380,56.9561,24.101082352941173,39,16,56a07a06498eb1368e55b16a,Gan Bei,56.953652000000005,24.106435,Asian Restaurant
380,146,56.9371,24.15578823529412,4,2,56a227b6498e6ed135b96ff4,roza tualetes,56.93589594445946,24.15064868817923,Asian Restaurant
414,180,56.9466,24.02814117647059,4,2,56a23861498e197a8dcd0080,Patricijas ledusskapis,56.944648,24.026355,Afghan Restaurant
463,229,56.9466,24.101082352941173,49,19,56a5f9de498e8d3651a2560d,EL SANTO X,56.950310948889225,24.102108047762503,Mexican Restaurant
931,697,56.9941,24.246964705882355,1,0,56a6055b498e2c2c7a2368aa,Mareka Netīrā Virtuve🍊🍉🍞🍟🍝🍖🍗🍔🍳🍻🍷🍵,56.992947023548524,24.242485172993458,New American Restaurant
586,352,56.9561,23.991670588235287,2,1,56a897a038face0a37197d2a,Pašnāvību Kabinets a.k.a Krievu valoda,56.95636700000001,23.998463,Ethiopian Restaurant
477,243,56.9466,24.101082352941173,49,33,56adbe73498ee7b0fad18693,Superīgā Gūlta 😊😊❤❤👍,56.948135,24.105072,Burmese Restaurant
590,356,56.9561,24.02814117647059,3,1,56ae4d92498ea498b2cbbedd,Flying Fish,56.9559247829311,24.03503265686559,Sushi Restaurant
107,107,56.9561,24.119317647058825,39,17,56afa0fb38fa96195dedb61e,Laquerello,56.95635298539129,24.119360010745286,Italian Restaurant
364,130,56.9371,24.082847058823532,16,8,56b440f8498ee69bfe1c323f,Fbps ēdnīca 🍴🍕🍔🍟🍗🍷,56.93619357282219,24.075396015136104,Afghan Restaurant
887,653,56.9751,24.246964705882355,9,5,56b47324498e1798d193aeaf,Patrishas hata,56.97523,24.250515,Afghan Restaurant
365,131,56.9371,24.082847058823532,16,9,56b47483498e6f4bdbebb108,1.stāva Gaitenis,56.93619606649229,24.075727060490927,Burmese Restaurant
857,623,56.9751,24.137552941176466,12,11,56b5cb7c498e098009147da2,Fugu Suši,56.971698345649536,24.133256222406363,Sushi Restaurant
577,343,56.9466,24.22872941176471,7,4,56b79e90498e72671a1aa471,Sandras Ēdienu Paradīze 😊💯💯,56.945440271404934,24.236552949121556,American Restaurant
885,651,56.9751,24.246964705882355,9,3,56b8d34e498eb46e0f71e574,5. Stāva restorāns 🍝☕❤,56.97258000000001,24.24014,French Restaurant
277,43,56.90859999999999,24.17402352941177,1,0,56b9ca46498eae8f7242be9b,Maģiskā virtuve ✨,56.91247586030664,24.17786408876924,Modern European Restaurant
293,59,56.9181,24.101082352941173,6,1,56bdd7d8498e3f0357c59b7e,slepenais spots,56.915542,24.105442,American Restaurant
291,57,56.9181,24.064611764705887,2,1,56be1487498e4b2167facd52,Mana кухня 🍴,56.918405124378125,24.06854844534079,Modern European Restaurant
354,120,56.9371,24.064611764705887,7,5,56bef3facd10ca8b7a2381ef,Restorāns Vīnoga,56.935616,24.070118,Modern European Restaurant
271,37,56.90859999999999,24.101082352941173,3,0,56bf6590cd10e3e8d0c213dd,Banketoss,56.906859999999995,24.101809,Belgian Restaurant
281,47,56.90859999999999,24.19225882352941,6,3,56c02c46cd100eb96ab4ed2b,Emīla Kulinārijas šovs 🎂🍜🍕🍝,56.910816000000004,24.185417,Russian Restaurant
883,649,56.9751,24.246964705882355,9,1,56c1a4c5cd10a333b5803270,640 virtuve 🍴🍕,56.97322926770812,24.241281336835737,Himalayan Restaurant
573,339,56.9466,24.22872941176471,7,0,56c2131ecd1062e5f3c0dad3,pluspunkts | Dreiliņi,56.94659435566248,24.234192055364012,American Restaurant
282,48,56.90859999999999,24.19225882352941,6,4,56c2ecaccd109448bd0e0e75,rlvs ednīca,56.909732,24.193092,Eastern European Restaurant
284,50,56.90859999999999,24.210494117647055,1,0,56c347e1cd105aa9845f3623,Ķenģa Hoods🙈🙉,56.907237131230715,24.217376657465486,Caribbean Restaurant
234,0,56.8896,24.082847058823532,1,0,56c3721acd1039b13ee57f22,Ņammas Čammas Virtuvīte🙌🏼🍉🍟,56.891453000000006,24.076654,Asian Restaurant
215,215,56.95383907066761,24.12343621349723,26,7,56c57885cd1068423fb51442,Falafels un kebabs,56.951917,24.124487,Pakistani Restaurant
241,7,56.8991,24.064611764705887,1,0,56c6b520cd10e72c699d4c22,Ņammas Čammas Virtuvīte😌💕🙈🍪,56.900840505681785,24.071566698766727,Cajun / Creole Restaurant
579,345,56.9466,24.22872941176471,7,6,56c97e9ccd1080d7a3fdb4d7,Alises Ēdiena Vieta,56.94758857516987,24.236324605041176,New American Restaurant
296,62,56.9181,24.101082352941173,6,4,56cacc83498e958a8a00c365,Prusakas Nārnija,56.9171011660502,24.103727792599177,Russian Restaurant
844,610,56.9751,24.046376470588235,2,1,56cb569ccd1025e52bd36e5c,Kates virtuvīte 😏🍷🍟🍕,56.97106925248038,24.043794396082557,Belgian Restaurant
957,723,57.0416,24.101082352941173,1,0,56cd61f0498ed9b8c60f84eb,Help,57.037885217703284,24.098247462116557,American Restaurant
624,390,56.9561,24.101082352941173,39,26,56cffad8cd101e08532edc03,Kotletītes pascal ;D,56.95348468658578,24.10434807332096,American Restaurant
417,183,56.9466,24.046376470588235,2,1,56d0126acd10744a24f573e4,Общество латышей имени Ингриды Целитане,56.949043,24.0529,Italian Restaurant
828,594,56.9656,24.17402352941177,11,1,56d300becd10d6b76dcf4ce8,Gaidam Rēķinu,56.96621700000001,24.179716,American Restaurant
898,664,56.9846,24.15578823529412,4,0,56d44abecd10a69f3fca5f77,Coolio Pagalms,56.983815387451465,24.16355109244065,Australian Restaurant
352,118,56.9371,24.064611764705887,7,3,56d67b69cd108f0e0348b249,Kuhņa,56.937299033855965,24.06775536104825,Kosher Restaurant
557,323,56.9466,24.17402352941177,4,1,56d7fb2b498e47d7c6680b0e,латышский,56.945831000000005,24.169418,Austrian Restaurant
891,657,56.9751,24.2652,1,0,56e16a20cd1041ccaa2be963,sushibar,56.976288228065755,24.264446965374326,Sushi Restaurant
747,513,56.9561,24.19225882352941,4,2,56e41cbd498e09da16300926,Balkons,56.954110363062064,24.19136936284616,American Restaurant
628,394,56.9561,24.101082352941173,39,30,56e427fa498e13426b56f17f,Vecrīgas Kafejnīca,56.95309,24.102406,American Restaurant
881,647,56.9751,24.22872941176471,6,5,56e46b9f498e8b403fa924ad,mammas mašīna,56.973071999999995,24.232056,African Restaurant
740,506,56.9561,24.17402352941177,15,10,56e68f64498ea7d9eec6d569,rtrit galds cipsi pepsi 218kabinets,56.952248,24.173607999999998,Caribbean Restaurant
733,499,56.9561,24.17402352941177,15,3,56e69617498e0feda7f6a701,2 stavs labarotarijas,56.952139,24.173675,Ethiopian Restaurant
314,80,56.9276,24.082847058823532,2,1,56e6b002498e302d2b0bb1ad,"Restorāns ""omes havčiks""",56.92906289784402,24.088727888845625,Italian Restaurant
930,696,56.9941,24.22872941176471,1,0,56e6c670498ec9e0d6d44159,Restorans*,56.99265,24.230253,Filipino Restaurant
397,163,56.9371,24.22872941176471,2,1,56e74a46498e22d4dc0628b7,maja gulta salnas iela28,56.94089007644286,24.226609727540442,Cajun / Creole Restaurant
734,500,56.9561,24.17402352941177,15,4,56e806a6cd10ac786b59e800,RTRIT ciemos pie Indras,56.952957,24.17449,Afghan Restaurant
750,516,56.9561,24.246964705882355,1,0,56e81927498e282c28775e49,kases maximas,56.956828,24.239562,Afghan Restaurant
359,125,56.9371,24.082847058823532,16,3,56f2666f498edfbced7882d0,Veco makaronu fabrika,56.93601621298807,24.07512000856341,Afghan Restaurant
247,13,56.8991,24.082847058823532,6,5,56f96613498e651007ade66f,Virtuve,56.8987487675329,24.08753949110277,New American Restaurant
871,637,56.9751,24.19225882352941,5,1,56fd64f9498e1d867361afde,Холодильник Мой Любимый,56.97812,24.190928,Modern European Restaurant
229,229,56.95383907066761,24.12343621349723,26,21,56fe390f498ef604016ec95c,Turkkebab,56.953782,24.12097,Turkish Restaurant
661,427,56.9561,24.119317647058825,50,24,56fe98aa498e3a183784e7af,Fudzijama,56.960353667632646,24.120316815571844,Japanese Restaurant
635,401,56.9561,24.101082352941173,39,37,5707327e498e269d0fa90622,Atvērts Logs!,56.958943809251785,24.10087652879076,Chinese Restaurant
551,317,56.9466,24.137552941176466,9,8,570ce660498e3af072a6cafc,Rolanda Lidemaņa māsas kvarķira .,56.950098,24.140362,American Restaurant
383,149,56.9371,24.19225882352941,7,1,570ced57498e753ccc41cc0d,Ceļā Uz Maķiti,56.94071093102537,24.195676924884058,American Restaurant
310,76,56.9276,24.02814117647059,5,4,570e62d6498efe0918e54c21,Elzas Saldējumu Rūpnīca,56.928998238154676,24.03524810225567,African Restaurant
260,26,56.8991,24.210494117647055,6,4,57114ddf498e10840060681b,Mana virtuvīte,56.90071,24.213644,English Restaurant
305,71,56.9276,24.009905882352943,2,1,571254be498eb84e849bb854,"Restorāns BEST WESTERN HOTEL ""Māra""",56.93138355812786,24.00995790924872,American Restaurant
607,373,56.9561,24.101082352941173,39,9,5714705ccd1050ab6b49799d,Emīlijas Cepumiņš,56.9550751255885,24.109115277028074,Cajun / Creole Restaurant
419,185,56.9466,24.064611764705887,11,1,5715b8f4cd1037bdb83e2174,Rvvģ Caurums,56.94408046239892,24.065048340639496,Cajun / Creole Restaurant
395,161,56.9371,24.210494117647055,7,6,571b9979498e2192c2aa9804,"sushi ""Hotei""",56.935349,24.20842,Sushi Restaurant
780,546,56.9656,24.119317647058825,16,4,5727063238fa6e0abcc4a9be,Sku,56.965706000000004,24.120142,African Restaurant
743,509,56.9561,24.17402352941177,15,13,57270c5fcd1040df674805df,violeta,56.952904000000004,24.174312,Australian Restaurant
288,54,56.9181,24.046376470588235,3,1,57279dcd498e94e2f6d7d66b,Ancānu Māja,56.918040000000005,24.053333,Austrian Restaurant
283,49,56.90859999999999,24.19225882352941,6,5,572902f9498efd09b53c9cc6,LZD,56.909327000000005,24.184773,American Restaurant
945,711,57.0226,24.2652,2,1,572a3b39498eedbbe6daba0e,Kur top mājasdarbi📚😑,57.024026,24.265054,Mexican Restaurant
782,548,56.9656,24.119317647058825,16,6,572b0b2c498e801154a9a306,Ghuhnja,56.965603,24.120055999999998,Asian Restaurant
788,554,56.9656,24.119317647058825,16,12,572b16ae498eacaa4445527d,Huiņa,56.965576,24.120012,Austrian Restaurant
289,55,56.9181,24.046376470588235,3,2,572e3d88498e33a3b1dff9f0,Rizhions,56.917473,24.049376000000002,Australian Restaurant
947,713,57.0321,24.101082352941173,5,0,57305a06498e935b4220e638,Trešā stāva gaitenis,57.031459999999996,24.102860999999997,Sushi Restaurant
475,241,56.9466,24.101082352941173,49,31,5730a30f498e77d16f55e5c8,Garden Palace Terrace,56.946598,24.106967,Turkish Restaurant
745,511,56.9561,24.19225882352941,4,0,57389b63498e9e5d0ac834ed,mazajs veikals,56.957756,24.184635,American Restaurant
584,350,56.9466,24.2652,1,0,573a2b74498e7471b5c5416d,MĀJA,56.94237,24.265263,Austrian Restaurant
481,247,56.9466,24.101082352941173,49,37,573de498498e5dc488a0ee05,"Restorāns ""Per sé""",56.950119167398604,24.10572924020564,French Restaurant
927,693,56.9941,24.119317647058825,1,0,5740a0d8498e60c1cc41a761,Pie velniņa kokā,56.995121,24.124084,Sushi Restaurant
801,567,56.9656,24.137552941176466,20,9,5742e3d7498e6e81b1ce0931,DSN Kafejnīca,56.963393999999994,24.143476,Eastern European Restaurant
911,677,56.9846,24.210494117647055,11,3,57432a74498e01142a5a02d9,No,56.986633,24.213911,Dim Sum Restaurant
944,710,57.0226,24.2652,2,0,57434ff9498ec610cad77349,Svētku galds🎂🎈,57.023939,24.265048999999998,Italian Restaurant
942,708,57.0226,23.991670588235287,1,0,5749757c498e3402fa938b44,Dzintara Kafeinīca,57.023982999999994,23.994022,American Restaurant
561,327,56.9466,24.19225882352941,7,1,574af7da498e6a1b7e2385f0,Extra PizZa,56.948085999999996,24.195047,American Restaurant
961,727,57.0796,24.101082352941173,2,0,574b2da3498ea9ee01e6bc66,"Kafejnīca ""Promenāde""",57.07996547578696,24.10841345787048,American Restaurant
394,160,56.9371,24.210494117647055,7,5,574d6bb9498e8781e518ae8a,VANS,56.933273,24.209538000000002,Afghan Restaurant
219,219,56.95383907066761,24.12343621349723,26,11,574d8c7a498e865fefab8ba6,May Kichent,56.9536,24.12389,French Restaurant
874,640,56.9751,24.19225882352941,5,4,574e7ef8498eda528cc4f47f,Alexx Pagalma Zaborņiks,56.974424158764926,24.188033469035915,Sushi Restaurant
738,504,56.9561,24.17402352941177,15,8,57559057498ea1e3aa548cf2,SUSHI LUX,56.953728000000005,24.170507,Asian Restaurant
470,236,56.9466,24.101082352941173,49,26,5766b023498e84f6e8873360,SweetCafe,56.948919999999994,24.10653,French Restaurant
559,325,56.9466,24.17402352941177,4,3,57701b38cd109330348899ec,Beliy and SancheZ Dot,56.946335,24.176533,Austrian Restaurant
758,524,56.9656,24.064611764705887,6,1,57703873498e4365836d398e,Dajanas Spooots,56.96594,24.0596,Caribbean Restaurant
858,624,56.9751,24.15578823529412,4,0,57763aea498ead6d8c178df1,"Restorāns ""Storano""",56.97363453867396,24.162928755548286,Italian Restaurant
384,150,56.9371,24.19225882352941,7,2,577d1428498ebe020047141e,Tā mana nabaga virtuve,56.938972,24.198991,Modern European Restaurant
275,41,56.90859999999999,24.119317647058825,3,1,5780c872cd1018ed24b15c3d,Edija Hats,56.90971999999999,24.1138,American Restaurant
626,392,56.9561,24.101082352941173,39,28,578169fd498e1df4c483aa6c,Hshsb,56.956024,24.099741,Burmese Restaurant
203,203,56.95836092933239,24.12343621349723,31,26,5784be41498ebd9749677844,Yakuza Sushi & Asian Fusion Restoran,56.956654,24.124004,Asian Restaurant
192,192,56.95836092933239,24.12343621349723,31,15,5784c024498e7c3aa1025f9d,Yakuza Sushi & Asian Fusion Restoran,56.956547,24.124268,Asian Restaurant
190,190,56.95836092933239,24.12343621349723,31,13,5784e192498e1186fa3ba6f7,WEIDAO Classical Chinese Restaurant,56.960537,24.123724,Chinese Restaurant
720,486,56.9561,24.137552941176466,39,33,5786e8ee498e4f8b8ee5fd36,Danix Spotārs,56.95506999999999,24.134995,Jewish Restaurant
199,199,56.95836092933239,24.12343621349723,31,22,5787dfb5498e24ddd5d7c241,Meet-Point Pizzabar,56.958711472600356,24.12350573494877,Italian Restaurant
625,391,56.9561,24.101082352941173,39,27,578b76f2498e2cf4c29369fe,Melnā Cauruma Mājas,56.958923,24.100517,Japanese Restaurant
613,379,56.9561,24.101082352941173,39,15,578ce415498eeeaf30f91b0e,Strēlnieku Savienība,56.95891999999999,24.100514999999998,Mexican Restaurant
859,625,56.9751,24.15578823529412,4,1,578f2a84498e3fc89b1a2752,"""STORANO""",56.97362617190013,24.16267991065979,Italian Restaurant
776,542,56.9656,24.119317647058825,16,0,578f461d498e9aac7462a8e4,BENTO,56.96421705866421,24.119787876095266,Sushi Restaurant
257,23,56.8991,24.210494117647055,6,1,579084c9498e4ecadd77042d,Čavas crib,56.898166,24.211183,Afghan Restaurant
318,84,56.9276,24.101082352941173,11,3,57939b09498eec1c6c65080a,Pizza Panino Focaccia,56.927158745863494,24.103164493369537,Italian Restaurant
951,717,57.0321,24.101082352941173,5,4,5793aad2498edc50e46bdd8b,Kuhnya Lyubimogo,57.034348,24.101463,Caribbean Restaurant
755,521,56.9656,24.009905882352943,5,4,57971a33498e840ee99a5dc1,Virtuve,56.964256000000006,24.016413,American Restaurant
766,532,56.9656,24.101082352941173,10,0,579774b1498eaf4731c8246f,Restorāns FERMA,56.96253031934656,24.102319446785554,Modern European Restaurant
292,58,56.9181,24.101082352941173,6,0,5797b8a3498e1e6dedcd6d80,Hepa Spots,56.916000000000004,24.096666,Australian Restaurant
926,692,56.9846,24.246964705882355,7,6,57ab39b5498e8fc30bd59328,Vinetas kotlešu namiņš,56.981632,24.24638,Caribbean Restaurant
781,547,56.9656,24.119317647058825,16,5,57b715fa498e30ab6af914f8,Teppan suši bārs,56.964225,24.12077,Sushi Restaurant
826,592,56.9656,24.15578823529412,15,14,57bd6274498e50a38bf82a55,Mikado Sushi,56.96470600000001,24.150251,Chinese Restaurant
933,699,56.9941,24.2652,2,1,57be979338faf7b0f6f93523,Elēna's kuhņaa,56.99627099999999,24.270839000000002,American Restaurant
879,645,56.9751,24.22872941176471,6,3,57c52f49498e6998bdfb0d93,Italijaa,56.973779,24.236621,Italian Restaurant
878,644,56.9751,24.22872941176471,6,2,57c52f89498ecbc36b18e027,virtuves plaukts,56.97388,24.236655,Italian Restaurant
880,646,56.9751,24.22872941176471,6,4,57c52fc7498ecd018ae9473e,virtuves plaukti,56.973873,24.236395,Italian Restaurant
877,643,56.9751,24.22872941176471,6,1,57c5300acd102e70aa57bd05,но,56.973808,24.236401,Italian Restaurant
476,242,56.9466,24.101082352941173,49,32,57c576e0498e9cb25cebfaad,yoooooz,56.946462,24.107708,American Restaurant
840,606,56.9656,24.19225882352941,5,2,57cc3536498ebfce2f79b5fa,Iev's Lu HOOD,56.961929000000005,24.189748,Caribbean Restaurant
907,673,56.9846,24.19225882352941,5,4,57d03dd4498e4ddd91762939,Alfa,56.98132,24.197697,Burmese Restaurant
143,143,56.95836092933239,24.115199080620428,24,14,57e10618cd10e7ee71d028bc,Lotus,56.957962,24.114328,Asian Restaurant
717,483,56.9561,24.137552941176466,39,30,57e2d38d498ef9d916495fe5,melnais tunelis,56.955546999999996,24.135372,Japanese Restaurant
369,135,56.9371,24.082847058823532,16,13,57e2e9cbcd1069727e1ffdeb,4 stãva virtuve,56.9344322477164,24.078670109252208,Italian Restaurant
486,252,56.9466,24.101082352941173,49,42,57e5163a38fa0ba0bd774180,Garden,56.947713564532684,24.107525625429183,Eastern European Restaurant
753,519,56.9656,24.009905882352943,5,2,57e642bd498e2af8a6fc41cf,Pokemon GO,56.96448,24.016298000000003,American Restaurant
588,354,56.9561,24.009905882352943,2,1,57e820f4498ea2a143873af5,Rav 5. stāva Virtuve,56.95304,24.005041000000002,American Restaurant
905,671,56.9846,24.19225882352941,5,2,57eeb2ae498e757715224683,Lohi,56.980736,24.193117,American Restaurant
834,600,56.9656,24.17402352941177,11,7,57f51d27498e7c95a6619d28,Suck Emils Mayor,56.965187,24.176826000000002,American Restaurant
762,528,56.9656,24.064611764705887,6,5,57f6950b498eee91a5c0fa2b,Viruve,56.961548,24.062632,Pakistani Restaurant
570,336,56.9466,24.210494117647055,6,3,57f79bf3498ee0d0884879f9,Hesiiti pie mūsu galda,56.943165,24.206667000000003,American Restaurant
367,133,56.9371,24.082847058823532,16,11,57f95bc3498ec833f7f0d7d8,2 stãva istaba,56.934443,24.078646,Chinese Restaurant
353,119,56.9371,24.064611764705887,7,4,57fca7a2cd10f82fd9df9bb7,Smirdeklītis,56.936657,24.062328,Burmese Restaurant
78,78,56.94886092933239,24.123435164033733,31,20,58047a2c38fa1ab23a0eb136,Bufete 310,56.949183999999995,24.122267,Belgian Restaurant
727,493,56.9561,24.15578823529412,4,1,58079b8138fa4786386f1fe7,A.J Havātava,56.95256,24.151867000000003,Asian Restaurant
555,321,56.9466,24.15578823529412,4,3,58079d2a38fadfe01485b510,A. J. havātava,56.950291,24.151467,Asian Restaurant
785,551,56.9656,24.119317647058825,16,9,5807a771d67c9644e2ff97df,Bufete.arēnas.,56.967994999999995,24.121315,American Restaurant
252,18,56.8991,24.101082352941173,6,4,580e22aed67cd5bd3e45745c,Virtuve,56.89988,24.097063000000002,American Restaurant
249,15,56.8991,24.101082352941173,6,1,580e22e738fa79522def3043,Balkons,56.899919999999995,24.09705,American Restaurant
250,16,56.8991,24.101082352941173,6,2,581058fb38fa0d91e130912d,Pagalmiņš,56.89991800000001,24.097029,Afghan Restaurant
751,517,56.9656,24.009905882352943,5,0,58145a5338fa51e54c918d4d,Sila Pagalmiņš,56.964153,24.016367000000002,American Restaurant
754,520,56.9656,24.009905882352943,5,3,58145a7f38fafbedd61c5bb5,11.Stāvs (Sila Home),56.964153,24.016367000000002,American Restaurant
735,501,56.9561,24.17402352941177,15,5,5816597d38fae6c2c935828c,604 Virtuve,56.95287,24.174068,Pakistani Restaurant
761,527,56.9656,24.064611764705887,6,4,581a7b428edd3a0eac697fd0,Buļļu Pils Virtuve,56.964176,24.060760000000002,Eastern European Restaurant
760,526,56.9656,24.064611764705887,6,3,581a7b9652addb15ff4973a1,Buļļu Pils Virtuve,56.964206999999995,24.060955,Eastern European Restaurant
849,615,56.9751,24.137552941176466,12,3,58208ae2eb569a4887b0badc,Route 88,56.977993804767344,24.13658544768074,American Restaurant
458,224,56.9466,24.101082352941173,49,14,582831772a4e2b39f91f1a1f,Mamma Pasta,56.94759875742442,24.106928939170338,Italian Restaurant
105,105,56.9561,24.119317647058825,39,15,5835c22c02b60e012fc32ccb,Tbilisi restaurant,56.9559,24.118270000000003,Eastern European Restaurant
248,14,56.8991,24.101082352941173,6,0,58360bab37da1d46fb190488,Mellenes Gūlta,56.89991800000001,24.097029,American Restaurant
609,375,56.9561,24.101082352941173,39,11,58368d39966e55479d2a669d,"Rvt Level 2,5",56.953537,24.103804,Afghan Restaurant
440,206,56.9466,24.082847058823532,15,11,5836d31294c6904b80eb8588,Bocca Buona,56.94697060169586,24.077303494775123,Italian Restaurant
346,112,56.9371,24.046376470588235,3,0,5839f5b1f5957266590902a7,Patrišas Hood,56.93799,24.040617,Thai Restaurant
412,178,56.9466,24.02814117647059,4,0,583bf19b1d21ba48bf73d42c,Noliktava Jūrkalnes Ielā,56.942863,24.030922,Sushi Restaurant
386,152,56.9371,24.19225882352941,7,4,584489f0c5f8a71c82567dde,Paulas kuhnja be like,56.938038,24.199368,New American Restaurant
585,351,56.9561,23.991670588235287,2,0,584c9c999343e03b1631485b,Kaspara mājas,56.954993,23.992451000000003,American Restaurant
623,389,56.9561,24.101082352941173,39,25,584e0305349355671d3ee7c9,Captain Sushi,56.952920999999996,24.101857,Sushi Restaurant
345,111,56.9371,24.02814117647059,1,0,58514ff6b792071effa57780,Kičen,56.939316000000005,24.028032,American Restaurant
227,227,56.95383907066761,24.12343621349723,26,19,58540a5b03cf255eb3250118,Mūsu galdiņš .,56.955374,24.124418,Sushi Restaurant
461,227,56.9466,24.101082352941173,49,17,58626b8aea1c0d0332587655,Bwhbw,56.94965,24.105186,American Restaurant
772,538,56.9656,24.101082352941173,10,6,586a87d0ea1c0d23c667349b,Restaurant Sokrates,56.961489,24.099308999999998,Eastern European Restaurant
427,193,56.9466,24.064611764705887,11,9,58734e87d4ab735c99e0042e,bergas vārnas rēka,56.947109,24.062885,German Restaurant
869,635,56.9751,24.17402352941177,8,7,587d0caf01621707cc473278,B9 vakarinas,56.97251,24.167921,Italian Restaurant
422,188,56.9466,24.064611764705887,11,4,587f43f22896a2782c7a585b,muy bien fantastico,56.947258,24.063501000000002,Paella Restaurant
818,584,56.9656,24.15578823529412,15,6,587f6fdc8cb34e3b30bfa20b,mūsu galdiņs,56.966747999999995,24.162049,Sushi Restaurant
64,64,56.94886092933239,24.123435164033733,31,6,5891d546bbd6d119641ac554,El Machete,56.95058111082325,24.12544787679582,Mexican Restaurant
830,596,56.9656,24.17402352941177,11,3,589205799dc8d06afbdd79c8,Kuhņja,56.966442,24.177685,American Restaurant
912,678,56.9846,24.210494117647055,11,4,5899d4a2326c5a0cf1abc55a,Ēdiena paradīze,56.984891000000005,24.204131,Asian Restaurant
886,652,56.9751,24.246964705882355,9,4,589df59a34935555b05b7422,Samantas Virtuve,56.977062,24.251272,American Restaurant
142,142,56.95836092933239,24.115199080620428,24,13,58a04fd3076be12e036d0af3,Woki Toki,56.95752129456229,24.111947396917266,Chinese Restaurant
387,153,56.9371,24.19225882352941,7,5,58ada0d254386d1bcfed2779,Paulas ģeniālā virtuve,56.938778000000006,24.198891,New American Restaurant
388,154,56.9371,24.19225882352941,7,6,58af01de4bc2f172e74b9cde,Paulas ģeniālā virtuve,56.939002,24.198889,New American Restaurant
592,358,56.9561,24.046376470588235,1,0,58b812a6a6118c72d7f4fbd9,Stock Pot Pārdaugava,56.95452383550988,24.05252757793693,Asian Restaurant
736,502,56.9561,24.17402352941177,15,6,58baf78a0393cc5930f495e6,Mārča virtuvīte,56.95553,24.169764999999998,American Restaurant
615,381,56.9561,24.101082352941173,39,17,58d121e46431e531dd7f2adc,Pieczvaigžnu krodzinš,56.95966561165986,24.102909564971924,Eastern European Restaurant
84,84,56.94886092933239,24.123435164033733,31,26,592553c71c0b34629cdc9b06,China Restorāns,56.94899300000001,24.119552,Chinese Restaurant
962,728,57.0796,24.101082352941173,2,1,5947d28c08815818ea5bcbb6,Restorāns Promenāde,57.08053980308539,24.108123779296875,Eastern European Restaurant
201,201,56.95836092933239,24.12343621349723,31,24,595387ab75a6ea3c090f5562,Hong Hu Ķīniešu Virtuve,56.956554000000004,24.123741,Chinese Restaurant
421,187,56.9466,24.064611764705887,11,3,595bc26b6e4650291fd20562,SUSHI DELUXE,56.943293000000004,24.068737,Sushi Restaurant
210,210,56.95383907066761,24.12343621349723,26,2,595be050f62f2b5d403eb4d2,Tokyo City,56.95360106770318,24.126395302887378,Asian Restaurant
567,333,56.9466,24.210494117647055,6,0,595fbb46c824ae6362b954a4,Вишневый Сад | Kafejnīca/Pirts,56.946564,24.218637,Russian Restaurant
474,240,56.9466,24.101082352941173,49,30,596a3ef693bd637ca72fd2fd,Piazza Italiana,56.94937224672099,24.102421024817662,Italian Restaurant
161,161,56.95383907066761,24.115199080620428,24,8,597865ef4acb1904afeb0600,"Restorāns ""Konfūcijs""",56.951668000000005,24.115831,Chinese Restaurant
917,683,56.9846,24.210494117647055,11,9,598f0bacd807ee5ed186b422,Machete,56.982563,24.203785,Mexican Restaurant
465,231,56.9466,24.101082352941173,49,21,599866ca35d3fc52cdcbdcd7,MO RestBar,56.94916389059335,24.101665044854865,Asian Restaurant
793,559,56.9656,24.137552941176466,20,1,599a91e2747ecd268b09c07e,sushi express,56.96642110749085,24.14175004160603,Japanese Restaurant
792,558,56.9656,24.137552941176466,20,0,59c3e75bd0a1490dd2107916,Bento Sushi,56.96589884314653,24.13061769211691,Sushi Restaurant
368,134,56.9371,24.082847058823532,16,12,59d3ee4e9e0d540b4eda7cd1,Thai,56.93484,24.084557,Thai Restaurant
430,196,56.9466,24.082847058823532,15,1,59fdea0e947c052835568a74,Ze Sukin San,56.944096211352594,24.08010851962964,Japanese Restaurant
308,74,56.9276,24.02814117647059,5,2,5a03547b3362737c54f59edc,D’arte restorāns,56.92911538960973,24.035263525298486,Theme Restaurant
910,676,56.9846,24.210494117647055,11,2,5a1ebd1491eaca49f2b5930e,El Machete | Alfa,56.982383999999996,24.205008,Mexican Restaurant
319,85,56.9276,24.101082352941173,11,4,5a2a5c9a79187104ddc84961,My Plov,56.92711,24.103453,Middle Eastern Restaurant
599,365,56.9561,24.101082352941173,39,1,5a2a757e1ffed76b0c9c89b0,Singh’s P.Brieza,56.95896769121902,24.10561915278553,Indian Restaurant
278,44,56.90859999999999,24.19225882352941,6,0,5a2bd879dec1d670a0fcca3b,Pakistānas Kebabs | Ķengarags,56.90465890158604,24.190998710187184,Pakistani Restaurant
823,589,56.9656,24.15578823529412,15,11,5a33b300f427de60fc9f373b,Woki Toki | Domina Shopping,56.966824,24.161739999999998,Asian Restaurant
439,205,56.9466,24.082847058823532,15,10,5a4fb4305f68b95208f2d6c5,Sushi Express,56.949694471997105,24.083119997805323,Sushi Restaurant
862,628,56.9751,24.17402352941177,8,0,5a5dced935811b435b253008,Wok Street,56.97407,24.169076999999998,Asian Restaurant
40,40,56.94886092933239,24.115200130083927,31,24,5ad0848a3fcee870dcd7adbe,Shamna Ve Salta,56.949165,24.111588,Israeli Restaurant
696,462,56.9561,24.137552941176466,39,9,5ada13f2491be766acfc3c47,Hoku Sushi,56.95266289194184,24.13623332977295,Sushi Restaurant
641,407,56.9561,24.119317647058825,50,4,5afc27ef4acb19002c25d8b0,stockpot XL,56.959087873710224,24.11932427426739,Asian Restaurant
356,122,56.9371,24.082847058823532,16,0,5b157b6cbf7dde002c247123,Le Sommet,56.94151899999999,24.081622,French Restaurant
59,59,56.94886092933239,24.123435164033733,31,1,5b1a4c42f96b2c002cdd4a45,Banana Leaf,56.94974499999999,24.126102,South Indian Restaurant
172,172,56.95383907066761,24.115199080620428,24,19,5b3f9be1e0c0c9002c8f52a9,Dziesmu Svētku Restorāns,56.95576,24.113771,Modern European Restaurant
656,422,56.9561,24.119317647058825,50,19,5b851c89b1538e002c47c145,Hum Asian Kitchen,56.956193000000006,24.124728,Asian Restaurant
363,129,56.9371,24.082847058823532,16,7,5ba291c3237dee00398170d1,4. Stāva Virtuve,56.934414000000004,24.078298999999998,Asian Restaurant
478,244,56.9466,24.101082352941173,49,34,5bac738b4aa3f8002c7e0d82,Aprika Restaurant,56.951042,24.101608,Modern European Restaurant
719,485,56.9561,24.137552941176466,39,32,5bd983fc419a9e002c5a75d9,Hungrila,56.957203,24.1383,Indian Restaurant
507,273,56.9466,24.119317647058825,50,14,5c0a67ad3fffb40025c4850c,Ches Olivier Cafe,56.947777,24.111584,French Restaurant
894,660,56.9846,24.137552941176466,5,1,5c1cc7d8a87921002c92e357,Singh’s,56.987129,24.132071,Indian Restaurant
146,146,56.95836092933239,24.115199080620428,24,17,5c4c6e9946e1b6002cfd8579,La Historia,56.957714,24.114526,Mediterranean Restaurant
330,96,56.9276,24.17402352941177,12,0,5c544898029a55003afdb67b,O'Learys,56.923643460981,24.175028800963997,American Restaurant
519,285,56.9466,24.119317647058825,50,26,5c56f9253e6741002c347694,Turkish Grill House,56.947174,24.112328,Turkish Restaurant
434,200,56.9466,24.082847058823532,15,5,5c5e698fe0c0c9002c97afbb,Buhara,56.944235,24.079103,Middle Eastern Restaurant
695,461,56.9561,24.137552941176466,39,8,5c66e6a9febf31002c42093b,69 Inside Bar,56.959168999999996,24.133257999999998,Modern European Restaurant
332,98,56.9276,24.17402352941177,12,2,5ca5ec83c0cacb002c6d564f,Chi Restaurant,56.924659999999996,24.174938,Asian Restaurant
339,105,56.9276,24.17402352941177,12,9,5ca62e09a22db7002c5e7bd0,CHI,56.924271999999995,24.172995999999998,Asian Restaurant
334,100,56.9276,24.17402352941177,12,4,5ca716cc345cbe0039c31928,Sushi Express,56.924659,24.173264,Sushi Restaurant
331,97,56.9276,24.17402352941177,12,1,5ca862cce65d0c002ca67329,Gan Bei,56.924275,24.175047,Asian Restaurant
333,99,56.9276,24.17402352941177,12,3,5cd166083e67410039462b82,Khinkalnya,56.92371,24.175102,Caucasian Restaurant
56,56,56.9443390706676,24.115200130083927,11,9,5ce140e26fd626002cf414e1,Yaki,56.943999999999996,24.115092999999998,Asian Restaurant
704,470,56.9561,24.137552941176466,39,17,5cff7ff297e1690025e40c58,Asia Mix,56.95628000000001,24.13651,Asian Restaurant
389,155,56.9371,24.210494117647055,7,0,5d32d973521fa500081f16bc,PLOVBAR.LV,56.939025,24.205354,Asian Restaurant
799,565,56.9656,24.137552941176466,20,7,5d45c6c03dc4950008929d8a,Riga Curry House,56.963528000000004,24.136038,Indian Restaurant
556,322,56.9466,24.17402352941177,4,0,5d7785a470b7e300071ee0ad,Tobiko Sushi,56.9451,24.172739,Sushi Restaurant
302,68,56.9276,23.973435294117646,1,0,5d9866e869e2f90008bcc1b4,Ramen & Wok By Yakuza,56.92481,23.978783,Asian Restaurant
451,217,56.9466,24.101082352941173,49,7,5da02cfdbc323e0007607a1e,Bep Viet Virtuve,56.94911422804083,24.102059304714203,Vietnamese Restaurant
913,679,56.9846,24.210494117647055,11,5,5dbf08f349c3d90008faca30,Bento Sushi,56.983334,24.205192999999998,Sushi Restaurant
459,225,56.9466,24.101082352941173,49,15,5e04912c117a3c0008262367,Confucius Restaurant,56.950215,24.102172,Chinese Restaurant
134,134,56.95836092933239,24.115199080620428,24,5,5e2974ee4d619c000797e332,Space Falafel,56.958385,24.111423000000002,Jewish Restaurant
543,309,56.9466,24.137552941176466,9,0,5e501fb9b6d76b000807f214,Mitsubishi Outlander Kapsēta,56.945243999999995,24.132374,American Restaurant
127,127,56.9561,24.119317647058825,39,37,5f0078e7bbf9b34a6aa6b548,La Cantina,56.95588000000001,24.118468,Italian Restaurant
242,8,56.8991,24.082847058823532,6,0,5f0324d7a320a9115c694b3b,Bento,56.897287,24.080198,Asian Restaurant
955,721,57.0416,24.02814117647059,1,0,5f301b7f610f03719f73f85e,Turku Virtuve Sabina,57.041003,24.030392000000003,Turkish Restaurant
692,458,56.9561,24.137552941176466,39,5,5f47a94d9ebe6c5820cdd0ac,Tre Cafe,56.956604000000006,24.133116,Asian Restaurant
492,258,56.9466,24.101082352941173,49,48,5f774fefa36f807252f07da5,Kwakinn Dome Belgian Beer Cafe,56.949146,24.105932,Belgian Restaurant
