,Unnamed: 0,lat_centre,long_centre,num_venues,venue_iter,venue_id,venue_name,lat_venue,long_venue,category
811,490,37.963800000000006,23.7475,48,2,4adcdadef964a520095821e3,Σπονδή,37.965167911378906,23.743026015054536,French Restaurant
2562,266,37.97153907066761,23.7313177510723,39,24,4adcdae0f964a520af5821e3,Mpakaliarakia (Μπακαλιαράκια του Δαμιγού),37.9717461622792,23.730480484156924,Greek Restaurant
1261,940,37.9838,23.73416666666667,50,39,4adcdae0f964a520cb5821e3,Αθηναϊκόν,37.98388092826973,23.730195179840635,Greek Restaurant
2912,616,37.98153907066761,23.73131736286373,14,8,4adcdae0f964a520cc5821e3,Terrasse (La),37.98054223125457,23.732384446899854,Mediterranean Restaurant
1938,1617,38.0138,23.7875,11,7,4adcdae0f964a520ce5821e3,Kollias,38.01456258595816,23.784656388866466,Greek Restaurant
2591,295,37.9760609293324,23.737015582261034,21,14,4adcdae0f964a520d05821e3,Tudor Hall,37.976212275669226,23.734925095055047,Modern Greek Restaurant
771,450,37.963800000000006,23.72083333333333,43,29,4adcdae0f964a520d35821e3,Première,37.959461545508645,23.72167107222107,Mediterranean Restaurant
2986,690,37.98153907066761,23.737015970469603,26,25,4b017d5bf964a520d14222e3,Il Postino,37.982144630271506,23.73690640205401,Italian Restaurant
516,195,37.9538,23.69416666666667,22,2,4b0302b3f964a520df4b22e3,Λαδόκολλα,37.951606844162605,23.694645942026156,Greek Restaurant
2981,685,37.98153907066761,23.737015970469603,26,20,4b2e4458f964a520bfdd24e3,Via Skoufa,37.981334000000004,23.737304,Greek Restaurant
810,489,37.963800000000006,23.7475,48,1,4b4f0af6f964a52023f926e3,Ciao Italia,37.96802336006481,23.747028003328467,Italian Restaurant
1759,1438,38.00380000000001,23.7875,17,4,4b5a205ff964a520e3ae28e3,Κρίθαμος,38.0022987233681,23.787464420980374,Mediterranean Restaurant
2265,1944,38.04380000000001,23.76083333333333,15,2,4b5c8b7df964a520af3529e3,Ρακομελιό,38.0476924237865,23.762486011458375,Meze Restaurant
2323,27,37.9660609293324,23.71034852757833,16,3,4b64c31bf964a52025ce2ae3,Σαντορινιός,37.96808486588608,23.709884418372674,Greek Restaurant
2322,26,37.9660609293324,23.71034852757833,16,2,4b65a05cf964a520e6f62ae3,Κάππαρη,37.96735899883522,23.71220006753685,Greek Restaurant
77,77,37.9760609293324,23.723682248927695,29,12,4b688695f964a520e57d2be3,Αγορά της Αδριανού,37.97587797998653,23.724242276128866,Greek Restaurant
2967,671,37.98153907066761,23.737015970469603,26,6,4b78a206f964a5201ddb2ee3,Σκουφά & Ομήρου,37.98056765107914,23.737969105604897,Grilled Meat Restaurant
936,615,37.9738,23.72083333333333,50,4,4b7c1594f964a520f47b2fe3,Dioskouroi (Διόσκουροι),37.97352847977879,23.72516891347547,Greek Restaurant
1742,1421,38.00380000000001,23.774166666666666,31,18,4b7c5973f964a520008e2fe3,Ladoxydo,38.000217,23.777102,Greek Restaurant
180,180,37.9771913939986,23.729893249397932,18,16,4b892453f964a520fe1e32e3,Μινιατούρα,37.97741736473404,23.730059346811966,Greek Restaurant
978,657,37.9738,23.72083333333333,50,46,4b8fab4bf964a520345c33e3,Εξαπίνης,37.974638,23.726319,Greek Restaurant
785,464,37.963800000000006,23.73416666666667,24,0,4ba24a91f964a52056ea37e3,Το Τρίκυκλο,37.962334234171976,23.732446600652686,Greek Restaurant
1356,1035,37.9838,23.774166666666666,25,16,4ba40416f964a520097838e3,Ελαϊκόν,37.98208218268893,23.770206634550213,Meze Restaurant
491,170,37.9538,23.68083333333333,30,7,4bacb28df964a520c9043be3,Fontana restaurant,37.95231948449752,23.681952953338623,Greek Restaurant
1134,813,37.9738,23.774166666666666,31,29,4bbf94a2f8219c748f3ab010,I Politiki Gonia tou Mathiou,37.971151,23.774898999999998,Greek Restaurant
2435,139,37.97153907066761,23.723682248927695,3,0,4bc1b8c7abf495212663c193,Dionysos Zonar's,37.969471454836004,23.7226340097225,Greek Restaurant
1775,1454,38.0138,23.6675,5,3,4bcaf16b511f9521a88eb0c7,Παλατιανο,38.01128,23.664312,Mediterranean Restaurant
380,59,37.9438,23.7075,18,0,4bce002268f976b0903e6583,Amigos,37.945088588163536,23.71216111363192,Mexican Restaurant
396,75,37.9438,23.7075,18,16,4bd3455377b29c741d669082,La Pasteria,37.94562108858457,23.711028623080047,Italian Restaurant
2422,126,37.9760609293324,23.723682248927695,50,37,4bd439f1462cb713f7dddf07,Lithos (Λίθος),37.97823078705736,23.72357345733681,Meze Restaurant
2654,358,37.97153907066761,23.74465108440563,31,29,4bd46b936798ef3b658a618d,Κατσούρμπος,37.97206464416186,23.74400195497671,Cretan Restaurant
2279,1958,38.04380000000001,23.774166666666666,11,1,4bdde4c36198c9b6691b12ff,Αγγελάκια,38.043440720714386,23.77211695014729,Grilled Meat Restaurant
2714,418,37.986060929332396,23.717984029530395,5,2,4be40296f07b0f47b448f943,Μεταξού,37.985820931803616,23.715316731337065,Greek Restaurant
2364,68,37.9760609293324,23.71798441773897,24,3,4be57b4ccf200f472a3a133c,Το Στέκι του Ηλία Νο1,37.97707072614831,23.716018449837147,Greek Restaurant
2377,81,37.9760609293324,23.71798441773897,24,16,4be6a75dcf200f47c0bc143c,Ιριδα,37.97582601459154,23.71667745334162,Greek Restaurant
2357,61,37.9738,23.72083333333333,17,13,4be6e0c42468c92880c50143,Γευσεις Περιπατου,37.972868680644865,23.720624442775172,Greek Restaurant
1614,1293,38.00380000000001,23.6675,29,19,4be702d22457a593c36aad15,Ανατολίτικο,38.00585567951202,23.662962913513184,Greek Restaurant
2918,622,37.986060929332396,23.737015970469603,43,0,4bf189db52bda5935faab1b7,Άμα Λάχει στης Νεφέλης,37.98791855550785,23.73682103210383,Meze Restaurant
885,564,37.9738,23.6675,9,1,4bf6e8345317a5935b11fd7e,La Pasteria,37.9749996364714,23.668892276271468,Italian Restaurant
828,507,37.963800000000006,23.7475,48,19,4bf819c85317a5934d2bff7e,Ο Τεμπέλης και οι Φίλοι του,37.96629712,23.74797326,Grilled Meat Restaurant
640,319,37.9538,23.7475,22,14,4bfbc4ca65fbc9b6ebc4916c,Nistikos Mageiras,37.956545,23.749993,Greek Restaurant
2601,305,37.97153907066761,23.737015582261034,4,3,4c0551a773a8c9b6004c97e0,Cibus,37.97078519472443,23.73743712902069,Mediterranean Restaurant
2554,258,37.97153907066761,23.7313177510723,39,16,4c0562f4761ac9b62d731f74,Estia (Εστία),37.97186588337907,23.730977775743078,Greek Restaurant
2175,1854,38.03380000000001,23.76083333333333,15,12,4c07af8e8a81c9b683902790,Γευσιλατρης - Ψητοπωλειο,38.037324,23.764231,Greek Restaurant
2289,1968,38.04380000000001,23.7875,7,0,4c0e439298102d7f4152e306,La Pasteria,38.044215476866064,23.790553435510922,Italian Restaurant
1272,951,37.9838,23.7475,18,0,4c0e99dd336220a12b7bcc77,L'Abreuvoir,37.97993904870015,23.74709300364832,French Restaurant
1748,1427,38.00380000000001,23.774166666666666,31,24,4c0ec47b98102d7f9633e406,Moma,38.002457,23.779273999999997,Greek Restaurant
2125,1804,38.03380000000001,23.73416666666667,43,10,4c1687d6955976b01ab2a4f6,Μπάρμπα Αλέξης,38.03347843444712,23.73116838099756,Middle Eastern Restaurant
2398,102,37.9760609293324,23.723682248927695,50,13,4c18bc4ad4d9c928bac9ef29,Bairaktaris (Μπαϊρακτάρης),37.97634937905442,23.72630898238849,Grilled Meat Restaurant
802,481,37.963800000000006,23.73416666666667,24,17,4c1a79418b3aa59364ac955f,Κουτούκι Μπαρμπα-μήτσος,37.96094329090468,23.73269823341342,Greek Restaurant
1839,1518,38.0138,23.7075,42,1,4c1e0c72b306c928f06d66b7,Δάφνη,38.01224511847558,23.70318715981729,Greek Restaurant
2575,279,37.97153907066761,23.7313177510723,39,37,4c24f5e9905a0f4738a96060,Sirines (Σειρήνες),37.96958075582368,23.73068408310426,Greek Restaurant
1340,1019,37.9838,23.774166666666666,25,0,4c264e74f1272d7f1f5586c5,Ο Μεξικάνος,37.98183484302637,23.76908079501689,Mexican Restaurant
2268,1947,38.04380000000001,23.76083333333333,15,5,4c2b23bd197e95215aa4628d,Πόλις Γεύσεις,38.04256528419074,23.760874271392822,Greek Restaurant
1848,1527,38.0138,23.7075,42,10,4c2b9b15ae6820a1e6151843,Γκαλερί του μεζέ,38.012286628124215,23.703062992904183,Meze Restaurant
2060,1739,38.03380000000001,23.68083333333333,23,11,4c2cdae32219c928ebc7a648,La Scala,38.03751804189702,23.67888587200736,Italian Restaurant
1508,1187,37.99380000000001,23.7475,22,5,4c2cf0aeb34ad13a0b1fecce,TamTam,37.99580569243553,23.749334464462514,Greek Restaurant
1163,842,37.9838,23.7075,18,9,4c372b6793db0f47a83b1f92,Το άλλο,37.983111,23.712225,Greek Restaurant
2923,627,37.986060929332396,23.737015970469603,43,5,4c3ca1387d002d7f60b3ae18,Εξωστρεφής,37.98776486070664,23.737994370995608,Meze Restaurant
2434,138,37.9760609293324,23.723682248927695,50,49,4c3f75a4ff711b8da2f20e05,Metro Café,37.976258168210116,23.726038087707767,Greek Restaurant
321,0,37.9438,23.6675,13,0,4c402d52af052d7f84617b79,Ντογάκι,37.946918450997465,23.668943894894515,Greek Restaurant
3135,839,37.99153907066761,23.67798364112919,41,38,4c41bb10e26920a1add95ee7,Καφενες Του Λαγού,37.99208712305572,23.67830583731198,Greek Restaurant
1273,952,37.9838,23.7475,18,1,4c49e45b9e3e2d7fb4706449,Orizontes of Lycabettus (Ορίζοντες Λυκαβηττού),37.98180540388109,23.74346491348591,Mediterranean Restaurant
470,149,37.9438,23.774166666666666,12,6,4c584d376418a5934d51810e,Platanos,37.943325360885275,23.773976972610825,Greek Restaurant
1695,1374,38.00380000000001,23.73416666666667,36,21,4c5c79507735c9b690648c72,Platanos,38.00456326539351,23.73656825189339,Greek Restaurant
537,216,37.9538,23.7075,30,1,4c6ef0d7b5a5236aafaa4b52,Λαδόκολλα,37.95450037691426,23.712226516869887,Grilled Meat Restaurant
383,62,37.9438,23.7075,18,3,4c701eb7df6b8cfaca3bb74d,Κρητικός,37.94295048792821,23.7042766168442,Cretan Restaurant
1098,777,37.9738,23.76083333333333,23,16,4c76c0cb5cd6b1f771e43c94,Αθηναϊκές Ουσίες,37.974796398792044,23.76638200887475,Greek Restaurant
1589,1268,37.99380000000001,23.774166666666666,20,14,4c77b76959a3236a6782c218,Ταβέρνα Μπάμπης,37.99446961015353,23.77357024406303,Greek Restaurant
1590,1269,37.99380000000001,23.774166666666666,20,15,4c7e4b7a10916dcb92cb2b96,Τάκης,37.99793845886096,23.77332620678261,Greek Restaurant
571,250,37.9538,23.72083333333333,33,5,4c814374e602b1f7a31f917a,Tike,37.957233,23.717243,Middle Eastern Restaurant
896,575,37.9738,23.69416666666667,9,3,4c83c4d9d8086dcb10b88252,Mini Size,37.970018517378335,23.69716443908416,Mediterranean Restaurant
1841,1520,38.0138,23.7075,42,3,4c83f5dadc018cfa7d1add6c,La Pasteria,38.01200777855239,23.707821924109147,Italian Restaurant
1843,1522,38.0138,23.7075,42,5,4c87839451ada1cd984e4810,Λαδόκολλα,38.011664236472676,23.703991109917908,Greek Restaurant
1910,1589,38.0138,23.7475,20,0,4c91202a7088a143fe59ae43,Lefkes (Λεύκες),38.01362947328245,23.750787038466118,Greek Restaurant
352,31,37.9438,23.69416666666667,30,2,4c9b81b878ffa0933cb37575,Λευτέρης,37.946065526860096,23.69059603905172,Greek Restaurant
2078,1757,38.03380000000001,23.69416666666667,20,6,4c9f1af3542b224b2d83fa9f,Mavra Mesanihta,38.029790999999996,23.695853,Greek Restaurant
2572,276,37.97153907066761,23.7313177510723,39,34,4ca0a42619e4236a15186389,Trattoria,37.9717987873774,23.73106584421687,Italian Restaurant
814,493,37.963800000000006,23.7475,48,5,4ca373927f84224b0b06c558,Μικρή Βουλή,37.96586697255595,23.74361810454875,Greek Restaurant
1575,1254,37.99380000000001,23.774166666666666,20,0,4ca4e7b197c8a1cd8c2c62a5,China's Fantasy,37.99643429864428,23.77871323061729,Chinese Restaurant
2592,296,37.9760609293324,23.737015582261034,21,15,4cab04caf47ea14389a08721,GB Corner,37.97618107606673,23.735519349575046,Greek Restaurant
2291,1970,38.04380000000001,23.7875,7,2,4cacdac2f47ea14372ef9421,Far East Pack,38.04462912427355,23.789809799969483,Asian Restaurant
485,164,37.9538,23.68083333333333,30,1,4cae2ca239458cfa8551f09f,Το Κουτούκι,37.953070780536734,23.679083769964965,Greek Restaurant
3031,735,37.986060929332396,23.76368263713627,14,5,4cb073a1562d224bfd481688,Ψητοπωλειο Ο Ζαχαιος,37.98816392662549,23.763105869293213,Greek Restaurant
2145,1824,38.03380000000001,23.73416666666667,43,30,4cb07f5eeb65b1f7966b6ccd,Αμπελάκια,38.03403276724833,23.73755452963067,Greek Restaurant
2408,112,37.9760609293324,23.723682248927695,50,23,4cb09558ef1b37041ff93b00,Oineas (Οινέας),37.97810530697152,23.723703739321753,Greek Restaurant
1864,1543,38.0138,23.7075,42,26,4cb21181562d224b02ef2388,Μητσαρας,38.015121,23.70426,Greek Restaurant
616,295,37.9538,23.73416666666667,27,17,4cbaced24495721ec148527a,Ελληνικόν,37.956853729881686,23.735022572208127,Greek Restaurant
2651,355,37.97153907066761,23.74465108440563,31,26,4cc351d51e596dcbc4bac967,Aptaliko,37.971035,23.742607,Greek Restaurant
1853,1532,38.0138,23.7075,42,15,4cc9b95141e75481303d5e84,Χαλάλι,38.010068521297605,23.705557574589463,Greek Restaurant
1296,975,37.9838,23.76083333333333,50,6,4ccb247c54f0b1f7198f0dca,Ραέτι,37.98795443861701,23.759802151353945,Greek Restaurant
509,188,37.9538,23.68083333333333,30,25,4ccc74ceba79a1cd01783bcb,Το Στραβόξυλο,37.95044198171569,23.68193216678229,Greek Restaurant
487,166,37.9538,23.68083333333333,30,3,4ccc7c39ee23a14395751fa8,Ο Βόλος,37.950961014044935,23.68329221386161,Greek Restaurant
3185,889,37.9960609293324,23.763683025537468,17,12,4ccd56e7c0378cfaa2d78c48,Το Σκάλωμα,37.994663,23.765279,Greek Restaurant
1512,1191,37.99380000000001,23.7475,22,9,4ccdcac7063a721edfc1969a,Η Μουριά,37.9943279159814,23.751099404774003,Greek Restaurant
927,606,37.9738,23.7075,30,25,4ccf0e42511b236a195400ca,Οινομαγειρείο της Αλεξάνδρας,37.977376189743936,23.70999593656527,Greek Restaurant
878,557,37.963800000000006,23.774166666666666,6,0,4cd465e92944b1f718d156ec,Ritterburg,37.966499381233454,23.770026105386272,German Restaurant
432,111,37.9438,23.73416666666667,26,20,4cd49605b2a4370441677844,Ελλήσποντος,37.947826,23.734036,Greek Restaurant
1959,1638,38.0238,23.69416666666667,11,5,4cd5979f94848cfaa774e7b1,Roumeli,38.02655694,23.69728533,Greek Restaurant
1697,1376,38.00380000000001,23.73416666666667,36,23,4cd69735b2a437040c8f8544,Ταβέρνα Βαγγέλης,38.00522508,23.73147863333333,Greek Restaurant
1650,1329,38.00380000000001,23.72083333333333,24,0,4cdc356099026dcb19bc1181,Το Ρόδι,38.00453940610992,23.71574906728893,Middle Eastern Restaurant
1891,1570,38.0138,23.72083333333333,13,11,4cdd9f4ff8cdb1f77dd48512,Halali,38.01741885784253,23.720373257959558,Greek Restaurant
1934,1613,38.0138,23.7875,11,3,4cdda7bdaba88cfae41c3cd7,Άσπρο Πιάτο,38.015418722234045,23.79097045981122,Greek Restaurant
1283,962,37.9838,23.7475,18,11,4ce6d0b6948f224bb837e65d,Sale e Pepe,37.98055013554942,23.7452153061347,Italian Restaurant
393,72,37.9438,23.7075,18,13,4ce82f06f3bda14369cab7e4,Souvlitsa,37.943393,23.704110999999997,Middle Eastern Restaurant
1842,1521,38.0138,23.7075,42,4,4ce92a859f776ea8673e6222,Αρχοντικό,38.01375872881789,23.70600341731823,Meze Restaurant
2321,25,37.9660609293324,23.71034852757833,16,1,4ce937fef3bda1435d98bee4,Ραντεβού,37.96691420368187,23.71264839963797,Meze Restaurant
419,98,37.9438,23.73416666666667,26,7,4ced59578604a1cde7d8f1c0,Μαυροπίπερο,37.940016653717215,23.73592636876621,Greek Restaurant
1523,1202,37.99380000000001,23.7475,22,20,4ceed0f0b80da09375682900,Ta Katsarolakia,37.990666999999995,23.743928,Greek Restaurant
3060,764,37.98153907066761,23.76368263713627,29,20,4cf00bed8604a1cd9f8900c1,Pirouni & Koutali,37.98134784937879,23.76518575522659,Greek Restaurant
505,184,37.9538,23.68083333333333,30,21,4cf107fe7e0da1cd6a098f97,Το Ζεμπερέκι,37.95040062230666,23.681581481013154,Greek Restaurant
1274,953,37.9838,23.7475,18,2,4cf26824c9af6dcb74f79f7f,το ομορφο,37.980004548199794,23.74680194013134,Greek Restaurant
3010,714,37.986060929332396,23.757984029530398,9,6,4cf820f13875b1f79bdf913c,Το Στεκι Της Ελενας,37.985811121477326,23.75525244809731,Greek Restaurant
912,591,37.9738,23.7075,30,10,4d037b24a26854812e02b2bd,Οινομπερδέματα,37.97575042081116,23.71048637315361,Greek Restaurant
2947,651,37.986060929332396,23.737015970469603,43,29,4d03d576dc45a0933893e6c6,Σάββας Κεμπάπ,37.98662029336049,23.73474946292529,Kebab Restaurant
2412,116,37.9760609293324,23.723682248927695,50,27,4d069d9b54d0236ad30ffad5,Κρασοπουλιό του Κόκκορα,37.977702640909634,23.724130074528553,Greek Restaurant
1743,1422,38.00380000000001,23.774166666666666,31,19,4d07ce07fa9ab1f7b3f63071,Piperia,38.00405790101719,23.770897448601197,Greek Restaurant
1900,1579,38.0138,23.73416666666667,17,7,4d08ccf94adb370484e3fe54,Μαρτίνης,38.014424,23.735424,Greek Restaurant
1016,695,37.9738,23.73416666666667,50,34,4d0bcb05d823b1f7467feb5c,Ελαία,37.973114858913654,23.728649070025376,Greek Restaurant
1862,1541,38.0138,23.7075,42,24,4d0bfd46746aa1cdb5ba5022,Ta 3 Mezedakia,38.013713,23.708886,Meze Restaurant
1366,1045,37.99380000000001,23.6675,13,1,4d0dfa66eea9b60c0d6a613f,Ο Τάσος,37.99136566862403,23.66678904728155,Grilled Meat Restaurant
2945,649,37.986060929332396,23.737015970469603,43,27,4d0e252f3bbaa143741841da,Εφήμερον,37.987439489642384,23.73710865764205,Greek Restaurant
1348,1027,37.9838,23.774166666666666,25,8,4d0fb1f071e8a1cd113b7cbd,Athivolh,37.98206514238411,23.77033383564289,Greek Restaurant
646,325,37.9538,23.7475,22,20,4d111e790c786ea86e80ceab,Μανα Μου Ματζουρανα Μου,37.955079,23.74449755,Greek Restaurant
1479,1158,37.99380000000001,23.73416666666667,38,14,4d15e199302da1cdd894b293,Dionusos,37.996722999999996,23.733723,Greek Restaurant
1923,1602,38.0138,23.7475,20,13,4d1b127f6526a35de8770c16,Πίτες των Γεύσεων,38.01157435013338,23.751861794141913,Grilled Meat Restaurant
1969,1648,38.0238,23.7075,9,4,4d1b2f2e83c5a1cdecad294e,Πλακιας,38.02154253224981,23.70514823934764,Greek Restaurant
902,581,37.9738,23.7075,30,0,4d1b8ab3ddc8548150e1c060,Prosopa,37.975541,23.706344,Mediterranean Restaurant
2433,137,37.9760609293324,23.723682248927695,50,48,4d1b91de7e10a35da120f882,Σύλφιο,37.97827120639072,23.72344726473361,Greek Restaurant
504,183,37.9538,23.68083333333333,30,20,4d1e7800dd6a236a1e4c2738,Τα μπεγίρια,37.949861999999996,23.679495000000003,Greek Restaurant
599,278,37.9538,23.73416666666667,27,0,4d1f7df92eb1f04d8ea4e8c1,Ρακάδικο το Καταφύγιο,37.950415487063324,23.7332716225641,Meze Restaurant
910,589,37.9738,23.7075,30,8,4d2097a5dd6a236a5db03838,Υποβρύχιο,37.97690504091278,23.710147857334512,Greek Restaurant
367,46,37.9438,23.69416666666667,30,17,4d248955daa93704c83ac681,Οι γεύσεις του Διογένη,37.94184,23.699038,Cretan Restaurant
796,475,37.963800000000006,23.73416666666667,24,11,4d275eb08292236ae11b0fbb,Η Πλώρη,37.963074,23.729195999999998,Greek Restaurant
2282,1961,38.04380000000001,23.774166666666666,11,4,4d29a25f068e8cfa6f0fd24c,Steki,38.042500576558986,23.77104852001276,Greek Restaurant
629,308,37.9538,23.7475,22,3,4d2f0e87ad3a8cfa24199abd,Ελληνικον Οινομαγειρειο,37.9548884297397,23.745937605164247,Greek Restaurant
1593,1272,37.99380000000001,23.774166666666666,20,18,4d3494e85c2db60ca603d56c,Κυρά Μαρία,37.99450925,23.769054999999998,Greek Restaurant
2165,1844,38.03380000000001,23.76083333333333,15,2,4d375a9b0a0b721eb4559a9b,Στέκι Πατακιά,38.03105937996085,23.760168087849692,Greek Restaurant
528,207,37.9538,23.69416666666667,22,14,4d386e2c3d958cfa03e6b271,Το Στέκι Της Λίλιαν,37.952708,23.692014999999998,Greek Restaurant
500,179,37.9538,23.68083333333333,30,16,4d3890477ebf721e9a4271fb,Μεζεδοπωλειο ο Γιωργος,37.950055,23.678881,Meze Restaurant
1522,1201,37.99380000000001,23.7475,22,19,4d39ef7797e0a1cdf3e9683e,Το Τράμ,37.99110889891252,23.74374456302381,Greek Restaurant
909,588,37.9738,23.7075,30,7,4d3a0214039eb60cff1fe79c,Malvazia,37.97496641616333,23.70856798458146,Greek Restaurant
471,150,37.9438,23.774166666666666,12,7,4d3ae5236de7721e360cf349,Μάσα Μπούκα,37.94668048069743,23.773237547887806,Greek Restaurant
354,33,37.9438,23.69416666666667,30,4,4d3c777c84d46ea8bc45fe5c,Ποσειδών,37.94399734718371,23.693078329911245,Greek Restaurant
2406,110,37.9760609293324,23.723682248927695,50,21,4d3ed0ac6b3d236a0ee77564,Έναστρον,37.97811779675752,23.724408311943158,Greek Restaurant
1353,1032,37.9838,23.774166666666666,25,13,4d405fff255d8cfa622d6505,Γαλαξίας,37.983445437094744,23.76904964447021,Greek Restaurant
2586,290,37.9760609293324,23.737015582261034,21,9,4d415a3c915a3704c19b1e7f,Sofia's Valaoritou Cafe,37.977134,23.737610999999998,Italian Restaurant
1344,1023,37.9838,23.774166666666666,25,4,4d416d837a516ea865c5c382,Garden,37.98253197195897,23.770272668908945,Greek Restaurant
2034,1713,38.0238,23.76083333333333,3,2,4d43f2d8c3e5f04d27299520,Ταβερνα Ο Σωτηρης,38.0223014684193,23.75756232003362,Greek Restaurant
179,179,37.9771913939986,23.729893249397932,18,15,4d44645f3616b60c90d9e3c2,Φίλεμα,37.976961748590156,23.73009987489313,Meze Restaurant
1951,1630,38.0238,23.68083333333333,10,7,4d4469d61ed56dcb9028af54,La Riviera pizzeria ristorante,38.022812407272674,23.68568632225789,Italian Restaurant
1491,1170,37.99380000000001,23.73416666666667,38,26,4d44abac1928a35d077abb70,St' Astra East,37.99107948176325,23.733022389880446,Asian Restaurant
187,187,37.9749304646662,23.729893249397932,9,5,4d4563febf61a1cd0dc812ac,Mono,37.97466202889922,23.72954662689014,Mediterranean Restaurant
408,87,37.9438,23.72083333333333,14,10,4d456f251ed56dcb52f8ba54,Πιπερόριζα,37.94145171893183,23.722389668929072,Greek Restaurant
644,323,37.9538,23.7475,22,18,4d45e60dbefe236acfb803e3,Το Μυστικό,37.95610756962697,23.7428797306593,Greek Restaurant
1129,808,37.9738,23.774166666666666,31,24,4d497502f53c8cfa302d1847,Τζανέτος Εδέσμειον,37.976452987246425,23.775545779761305,Greek Restaurant
1363,1042,37.9838,23.774166666666666,25,23,4d4c5816a33fb1f70c7dbd80,Alximies,37.981964435608006,23.769692907477797,Greek Restaurant
1899,1578,38.0138,23.73416666666667,17,6,4d4c70b49f79f04d747b242b,Αστροφεγγιά,38.01487591014649,23.739066897531572,Greek Restaurant
2136,1815,38.03380000000001,23.73416666666667,43,21,4d4c70f200d28cfa815dc574,Ρεμπέτικο Στέκι,38.03389555453553,23.73746395111084,Meze Restaurant
1276,955,37.9838,23.7475,18,4,4d4d9c3a1a2d721e6d42991d,Spiros & Vasilis,37.98317369141579,23.752586007289768,French Restaurant
1857,1536,38.0138,23.7075,42,19,4d4e93bbdeabf04da9ddc324,4 Εποχές,38.01282259138016,23.705758410579442,Greek Restaurant
1444,1123,37.99380000000001,23.72083333333333,25,4,4d4f0f5ee0f2a1cdd0a5938d,Κοτταρού,37.99349701140372,23.71859377302379,Greek Restaurant
1761,1440,38.00380000000001,23.7875,17,6,4d4fe192529dcbff09e2d4c4,Ρένα Της Φτελιάς,38.00544573814296,23.78571385996641,Mediterranean Restaurant
1495,1174,37.99380000000001,23.73416666666667,38,30,4d552f76cff7721ec297a6f5,Gallo Nero,37.991471722688615,23.73326737807381,Italian Restaurant
2116,1795,38.03380000000001,23.73416666666667,43,1,4d56e205611aa35d4ff14639,Λεμονόκηπος,38.03465314324714,23.73937874317051,Greek Restaurant
2227,1906,38.04380000000001,23.7075,4,1,4d57e3a7e319a1cddee00934,ΜΑΔΑΡΕΣ,38.043667648361655,23.71171480780005,Greek Restaurant
1442,1121,37.99380000000001,23.72083333333333,25,2,4d5ae9b9e092a35d6bf90f0c,Γη,37.992385,23.724406,Greek Restaurant
346,25,37.9438,23.68083333333333,16,12,4d5ff5d473e76a313b65d096,Ο Καλοφαγάς,37.943776,23.684936999999998,Greek Restaurant
496,175,37.9538,23.68083333333333,30,12,4d6021ecef378cfa8f6279a6,Εν Μοσχάτω,37.95260008587181,23.67967357732665,Greek Restaurant
617,296,37.9538,23.73416666666667,27,18,4d611cf6ef378cfa3f9086a6,Nonna Pina Trattoria,37.952695981984185,23.73147795149054,Italian Restaurant
560,239,37.9538,23.7075,30,24,4d6407afd6b26ea8c307567a,Το Πατρικό,37.949927681292365,23.706110073161806,Greek Restaurant
882,561,37.963800000000006,23.774166666666666,6,4,4d66ad208386548117f9fa53,Masa,37.965645,23.77272,Greek Restaurant
125,125,37.9771913939986,23.725106750602063,17,3,4d66b671a282a1cd72853164,Αρόδου,37.978072958475146,23.725261046531077,Meze Restaurant
1617,1296,38.00380000000001,23.6675,29,22,4d67a63ffd1b8cfa584320f0,Ενός Κοκκόρου Γνώση,38.00592889323715,23.66345102418604,Greek Restaurant
178,178,37.9771913939986,23.729893249397932,18,14,4d69008882cba0936e03d5d8,"Triantagyllos, Lekka 22",37.977286,23.730258,Greek Restaurant
1002,681,37.9738,23.73416666666667,50,20,4d690b4e4c463704907d9cb3,Pasaji,37.97754256330325,23.734186773466128,Modern European Restaurant
248,248,37.9838,23.73416666666667,11,8,4d6926cbc1655481c517e881,Αγκλέουρας,37.984686288732064,23.734197738925964,Greek Restaurant
519,198,37.9538,23.69416666666667,22,5,4d696f1d2acd6ea82f203ac0,Μεταξύ μας,37.956630050385286,23.68973892151565,Greek Restaurant
770,449,37.963800000000006,23.72083333333333,43,28,4d6de5b438363704310ca0d0,Είς την Πόλιν,37.9640383362182,23.71733991075723,Greek Restaurant
695,374,37.963800000000006,23.7075,50,3,4d6e6b3503cba35d258f21f5,Ο Πεζόδρομος,37.96791025949729,23.70867933192596,Greek Restaurant
2942,646,37.986060929332396,23.737015970469603,43,24,4d70db3c95acb1f751bb0bb9,Αυλή,37.986423668867886,23.737627735608736,Greek Restaurant
1925,1604,38.0138,23.7475,20,15,4d728fd2d976236a847a0879,Όμορφη Νύχτα,38.01033263137136,23.7483175948892,Greek Restaurant
851,530,37.963800000000006,23.7475,48,42,4d7767a07484b60c15923bd9,Ο Δημος,37.96238809502962,23.74488927736604,Greek Restaurant
1160,839,37.9838,23.7075,18,6,4d792694f20c236a0956a641,Μπιέλα,37.98331480470801,23.711737268627328,Greek Restaurant
1609,1288,38.00380000000001,23.6675,29,14,4d793f3aa56e37048c247967,Διαχρονικό,38.005863328392294,23.663981611628127,Meze Restaurant
892,571,37.9738,23.6675,9,8,4d7a870d54f18cfae157b656,Σουρωτηρι,37.9767399050408,23.664753380880786,Greek Restaurant
1471,1150,37.99380000000001,23.73416666666667,38,6,4d7b9d4e86cfa1431aebb7a0,Ηλίας 1958,37.99131158999553,23.738387271814467,Greek Restaurant
1498,1177,37.99380000000001,23.73416666666667,38,33,4d7bfdd334f7721ebd75bd25,Φαίδρα,37.99009405538956,23.73347688803849,Greek Restaurant
623,302,37.9538,23.73416666666667,27,24,4d7caf455a396dcb387b79fb,Καπετάνιος,37.951094862021954,23.73499932887036,Greek Restaurant
113,113,37.9771913939986,23.722257747253327,28,19,4d7d4a7379c4b1f715d10af3,ΔΙΠΥΛΟ,37.97720680606986,23.722358996771327,Greek Restaurant
2555,259,37.97153907066761,23.7313177510723,39,17,4d7e49659df3f04dd8a5c194,Kosmikon (Κοσμικόν),37.97173235711063,23.7303731850275,Greek Restaurant
1892,1571,38.0138,23.72083333333333,13,12,4d835eb69324236a12a1a20e,Γυράδικο Ideal,38.016484494794014,23.725376687495107,Greek Restaurant
1624,1303,38.00380000000001,23.68083333333333,14,0,4d83b43199b78cfa3afca61f,Matina,38.00699270609986,23.683064693644862,Italian Restaurant
815,494,37.963800000000006,23.7475,48,6,4d83ea5d509137049bf2735b,Η Παλιά Αθήνα,37.962666492031616,23.74618512894604,Meze Restaurant
111,111,37.9771913939986,23.722257747253327,28,17,4d89f84c1508a1432a85191e,Attalos (Άτταλος),37.976346876928275,23.722108062703782,Greek Restaurant
1439,1118,37.99380000000001,23.7075,11,10,4d8f246ed4ec8cfa07468489,Η γωνιά του Πλάτωνα,37.994214130296776,23.70814097735927,Greek Restaurant
2264,1943,38.04380000000001,23.76083333333333,15,1,4d948a8114a654812f32134c,Ο Βολιώτης 3,38.04694486702469,23.76065205768746,Tsipouro Restaurant
1753,1432,38.00380000000001,23.774166666666666,31,29,4d987456b188721e50ed2737,Λαδόξυδο,38.000338289560005,23.777387669555477,Greek Restaurant
595,274,37.9538,23.72083333333333,33,29,4d9f46f39bf0a35dab820d0b,η θρακα της γειτονιας,37.950857530116615,23.723705498070718,Greek Restaurant
2378,82,37.9760609293324,23.71798441773897,24,17,4da0ce7b540ea1cdd6b959de,Φενεός,37.97584292174981,23.71664290569393,Meze Restaurant
1996,1675,38.0238,23.73416666666667,21,10,4da1c496d686b60cf764ab28,Ποδηλατο Της Γευσης,38.021984087218684,23.737927981440173,Greek Restaurant
2177,1856,38.03380000000001,23.76083333333333,15,14,4da353cfb1c937048013f8a1,Steki Patakia,38.03112,23.760122,Greek Restaurant
1928,1607,38.0138,23.7475,20,18,4da5ee667ccc816eddfab17b,Χαγιάτι,38.014564496720155,23.749950395939628,Greek Restaurant
2073,1752,38.03380000000001,23.69416666666667,20,1,4da71417fa8ca994285532e6,Goloso,38.03425047589649,23.695857524871826,Italian Restaurant
542,221,37.9538,23.7075,30,6,4da729d443a102190d7bca11,Πρωταθλητές,37.95374450212983,23.706324084351632,Greek Restaurant
680,359,37.963800000000006,23.69416666666667,13,1,4da832306a2364c7a34e08f1,Ο Κωστής,37.9673641559235,23.696437146724048,Greek Restaurant
1412,1091,37.99380000000001,23.68083333333333,50,34,4da869e85da3ef8bf15d6973,Τα Πηρούνια,37.99299369598538,23.675322665951636,Greek Restaurant
898,577,37.9738,23.69416666666667,9,5,4daa00dd0437dccbd7fb2337,"""Moukos"" Tavern",37.97189923403282,23.69439167925363,Greek Restaurant
2090,1769,38.03380000000001,23.69416666666667,20,18,4dac4cfd6a2303012f3558e4,Ψαροκόκαλο,38.035970955987786,23.689374292166804,Greek Restaurant
3216,920,37.99153907066761,23.763683025537468,31,26,4dac95185da32d679da566f8,Polystafyllo,37.99285631844608,23.76552276429275,Greek Restaurant
609,288,37.9538,23.73416666666667,27,10,4daebeb590a00606e2ab418e,Μεσημεριανές Νοστιμιές,37.95426495217494,23.736322570469433,Greek Restaurant
162,162,37.9760609293324,23.7313177510723,20,18,4daec8dc8154d1d4886ceed7,Αθηναϊκόν,37.975348456486074,23.73146644330848,Greek Restaurant
1492,1171,37.99380000000001,23.73416666666667,38,27,4db07ac08154905aadad4f3c,Γευσιγνωσία,37.99125187,23.7379669,Greek Restaurant
1131,810,37.9738,23.774166666666666,31,26,4db07fbb43a1bea42bb7292d,Διχτάκι,37.974361471178106,23.77762380013409,Greek Restaurant
360,39,37.9438,23.69416666666667,30,10,4db1daf1f7b1bd003ae6ee77,Πέρα Βρέχει,37.947916761933634,23.693636213205593,Greek Restaurant
1612,1291,38.00380000000001,23.6675,29,17,4db1e0b14b22ba776d8d5c22,Άρωμα,38.00589097033996,23.6638586255767,Tsipouro Restaurant
1691,1370,38.00380000000001,23.73416666666667,36,17,4db40544a86e8d27077c5ed8,Ψίθυροι Γεύσεων,38.001287,23.73838,Greek Restaurant
529,208,37.9538,23.69416666666667,22,15,4db88bc6cda10f31e619bf12,Παπαγάλος,37.957109071899644,23.69425974842865,Greek Restaurant
1712,1391,38.00380000000001,23.7475,9,2,4db9a1188154ce84dc2c4ac0,Francos,38.003226,23.746307,Italian Restaurant
1596,1275,38.00380000000001,23.6675,29,1,4dbc7f976e810768bf60c0ab,Νοστιμιές,38.006782479576884,23.664437522400174,Greek Restaurant
1861,1540,38.0138,23.7075,42,23,4dbc977ff7b1ab37dd6355c6,Έτσι και αλλιώς,38.01384886697465,23.70568286560717,Meze Restaurant
1597,1276,38.00380000000001,23.6675,29,2,4dbd8ec75da3ff58ec65b8db,Quarter,38.00690954945168,23.664351202759594,Italian Restaurant
400,79,37.9438,23.72083333333333,14,2,4dbee5b14b222080d3cae1d4,"Ψητοπωλείο - Ελληνική κουζίνα ""Ο Αλέκος"" (Αλέκος)",37.94252528147265,23.717699151260284,Grilled Meat Restaurant
2077,1756,38.03380000000001,23.69416666666667,20,5,4dc191e4e4cda3b87f250a1f,Massa Grilla,38.03039959,23.69773564,Grilled Meat Restaurant
2074,1753,38.03380000000001,23.69416666666667,20,2,4dc1b806e4cda3b87f287fc0,Η Στάνη Του Βλάχου,38.03622484190676,23.69339921105234,Greek Restaurant
1355,1034,37.9838,23.774166666666666,25,15,4dc2ec68d4c07da16a03f6ff,Αλχημειες,37.9816746021239,23.769386732090197,Tapas Restaurant
514,193,37.9538,23.69416666666667,22,0,4dc4489045dd2645525301bc,Βαλεντίνα,37.95223926071795,23.69007795727817,Russian Restaurant
1865,1544,38.0138,23.7075,42,27,4dc6b561887717c88042860f,Balsamico,38.01064128146293,23.705607320624328,Greek Restaurant
469,148,37.9438,23.774166666666666,12,5,4dc6fa3852b1e8f9f7fa7402,Τα 7 Κατσικάκια,37.94657954874968,23.77229404480505,Grilled Meat Restaurant
327,6,37.9438,23.6675,13,6,4dc98a2252b197468f00fb9f,Στέφανος,37.94721796831979,23.669174909591675,Greek Restaurant
1745,1424,38.00380000000001,23.774166666666666,31,21,4dce65d21f6eb1227078e3bd,Κιβωτός,38.005326768921776,23.776452199524932,Greek Restaurant
2407,111,37.9760609293324,23.723682248927695,50,22,4dcee6dafa7664b7c6b45c3b,Μαύρος Γάτος,37.97807463327167,23.723277579899502,Greek Restaurant
108,108,37.9771913939986,23.722257747253327,28,14,4dcf9e45183899ddfaf10d27,Ηριδανός,37.97629928917719,23.72223766803133,Greek Restaurant
1660,1339,38.00380000000001,23.72083333333333,24,10,4dd027ced4c065592fa955fc,Τα άγραφα,38.006462097352745,23.72517795957777,Greek Restaurant
2183,1862,38.03380000000001,23.774166666666666,21,5,4dd129e4887785124438192b,Kali Kardia,38.036588,23.77518,Greek Restaurant
351,30,37.9438,23.69416666666667,30,1,4dd158c9d4c065592fc3f9b0,Γιαγιά Ελισάβετ,37.94399111507821,23.69120392237201,Greek Restaurant
3187,891,37.9960609293324,23.763683025537468,17,14,4dd2dc61fa7611af69e70b31,Ψησταριά Ο Νίκος,37.9968273639668,23.763170242308878,Greek Restaurant
825,504,37.963800000000006,23.7475,48,16,4dd5957efa76ad96d0f7c46d,Dafi's,37.964218071573775,23.747347810061196,Greek Restaurant
2208,1887,38.04380000000001,23.68083333333333,17,4,4dd6b802e4cd37c89399ccad,Pitta S'olous,38.04487227735764,23.678212854188978,Greek Restaurant
1146,825,37.9838,23.68083333333333,8,0,4dd7b3807d8b322663f57d18,IKEA Restaurant (Εστιατόριο IKEA),37.98115979829151,23.679784897232288,Scandinavian Restaurant
1972,1651,38.0238,23.7075,9,7,4ddaaab28877f1151035f98e,Γωνια της γευσης,38.02651688670097,23.708878989813684,Greek Restaurant
2171,1850,38.03380000000001,23.76083333333333,15,8,4de9246de4cd15735408832f,Το Στέκι του Νίκου,38.03177219529086,23.76111017246555,Greek Restaurant
341,20,37.9438,23.68083333333333,16,7,4debac9fd164ef597d0af69c,Γαρμιιη,37.943734,23.680452,Greek Restaurant
1856,1535,38.0138,23.7075,42,18,4df8f89eaeb70af3f2787003,Ο Κήπος Της Ζωής,38.01788488,23.70516397,Greek Restaurant
1855,1534,38.0138,23.7075,42,17,4dfa004a6284226247b4e6bb,Anammena Karvouna,38.01372528076172,23.707938194274906,Greek Restaurant
134,134,37.9771913939986,23.725106750602063,17,12,4dff8d44ae605b47b175fe5f,Ta Karafakia,37.9773392,23.725147,Greek Restaurant
1711,1390,38.00380000000001,23.7475,9,1,4dff999a18388670a23c5ea2,Το Κουτουκι,38.001402,23.747761999999998,Greek Restaurant
1519,1198,37.99380000000001,23.7475,22,16,4e02449bc65b896d1170326b,Κένταυρος,37.993169590943744,23.7495231628418,Grilled Meat Restaurant
358,37,37.9438,23.69416666666667,30,8,4e0390dad4c07481580f47b8,Ψαροπουλα,37.94358163096715,23.69633802600152,Seafood Restaurant
3273,977,38.01153907066761,23.691316197081818,25,24,4e04f383ae600b41505c373a,Φράτζηκος,38.01177121404879,23.69061675528656,Grilled Meat Restaurant
786,465,37.963800000000006,23.73416666666667,24,1,4e05c44e483b98d417057d8b,Λοστρέ Κουζίνα,37.96250008496384,23.73225164837553,Greek Restaurant
1277,956,37.9838,23.7475,18,5,4e0624cdd1640223a49481ed,Ψητοσυνάντηση,37.98767544236688,23.745452087424635,Greek Restaurant
2206,1885,38.04380000000001,23.68083333333333,17,2,4e07796045ddb2875c4aef5b,Το Καντάρι,38.04289052187521,23.683575235098786,Meze Restaurant
1926,1605,38.0138,23.7475,20,16,4e104c5222713f7d7bc6f753,Kivotos,38.013610236077035,23.743814291887126,Greek Restaurant
746,425,37.963800000000006,23.72083333333333,43,4,4e14b75fe4cd473c96927c0b,Ψητοπωλείον,37.96569240225679,23.725710007881908,Greek Restaurant
550,229,37.9538,23.7075,30,14,4e1586568877cd57120e5c15,Μπάρμπα Δήμος,37.95364235649237,23.704514822768587,Greek Restaurant
931,610,37.9738,23.7075,30,29,4e15e1cc7d8b7c3377066f56,Ρόδα,37.977123222093184,23.70620089728175,Greek Restaurant
837,516,37.963800000000006,23.7475,48,28,4e16d44db0fb42f98735cb6d,Μαγερειό,37.96341031658953,23.751374008401772,Greek Restaurant
611,290,37.9538,23.73416666666667,27,12,4e17609b88777e96476607f9,Apaititiko,37.950187,23.737505,Greek Restaurant
2269,1948,38.04380000000001,23.76083333333333,15,6,4e18b02c1f6eb955987cd7a3,Ο Μερακλής,38.04526331019553,23.76431417905295,Greek Restaurant
503,182,37.9538,23.68083333333333,30,19,4e1c971aae605fbe03862093,"Το ""Στέκι""",37.953771922868455,23.67961475061062,Greek Restaurant
2093,1772,38.03380000000001,23.7075,20,1,4e1dbfbae4cd450a85741f62,Cocorico,38.03528711067615,23.70661312792597,Greek Restaurant
592,271,37.9538,23.72083333333333,33,26,4e1ddae62271ff848feac0cf,Η Ωραία Ρούμελη,37.952293842370416,23.716410819466084,Greek Restaurant
3066,770,37.98153907066761,23.76368263713627,29,26,4e1e40211838e9f93a407096,Μεζεδοταβέρνα Μπάκας,37.979440999999994,23.76408,Middle Eastern Restaurant
789,468,37.963800000000006,23.73416666666667,24,4,4e24699018a88345f06a5e3c,Ολύμπιον,37.96651030494002,23.7343914165593,Greek Restaurant
861,540,37.963800000000006,23.76083333333333,21,4,4e24a0afb0fbdf9ba7c950e3,Στέκι του Λάμπρου,37.96784612832376,23.758631466990277,Meze Restaurant
1947,1626,38.0238,23.68083333333333,10,3,4e287bddaeb75df8caacb019,Πολίτικες Νοστιμιές,38.023348,23.684337,Middle Eastern Restaurant
2975,679,37.98153907066761,23.737015970469603,26,14,4e2979af52b1c37d35cc3600,σίνα Κουζίνα,37.982195028155594,23.73666998658608,Greek Restaurant
459,138,37.9438,23.76083333333333,13,8,4e29e5bfb61cd01083636c29,Kalikatzaraki,37.9424153,23.759586399999996,Greek Restaurant
112,112,37.9771913939986,23.722257747253327,28,18,4e31a777d22da36981381a84,Καλή Ζωή,37.97678230618797,23.72194135760609,Meze Restaurant
2722,426,37.98153907066761,23.717984029530395,27,5,4e32e024a8097f47f4a2d86d,Μυκηνών Γωνία,37.98196702508728,23.71525097280469,Greek Restaurant
2062,1741,38.03380000000001,23.68083333333333,23,13,4e32fae9d164be7ec594a773,Ο τζάμπας νο2,38.033459,23.684670999999998,Greek Restaurant
538,217,37.9538,23.7075,30,2,4e33042688772aabd8a7a361,Πρεμιέρα,37.95485079241257,23.712579962020197,Russian Restaurant
1682,1361,38.00380000000001,23.73416666666667,36,8,4e382406d22d4cf95ee7dda6,Σάββας Κεμπάπ,37.999912531338055,23.733284105580925,Kebab Restaurant
3043,747,37.98153907066761,23.76368263713627,29,3,4e3855ffb0fbcceaf0ea200a,Noodle Bar,37.98023256775788,23.764555176250358,Asian Restaurant
502,181,37.9538,23.68083333333333,30,18,4e38628e1838d056d27c6ae3,Ατλάντα,37.95027215240161,23.678348064422607,Grilled Meat Restaurant
1600,1279,38.00380000000001,23.6675,29,5,4e386d4e45dd9ef03f0ca8f7,δύο και νακαίοι,38.00279309286907,23.663498288923254,Meze Restaurant
589,268,37.9538,23.72083333333333,33,23,4e3dac68fa76455375bbb35d,Anteti,37.957008,23.718688,Greek Restaurant
1095,774,37.9738,23.76083333333333,23,13,4e4cad581fc7bd85f5ec7056,το στέκι των γεύσεων,37.97737352924185,23.761518001556396,Greek Restaurant
1924,1603,38.0138,23.7475,20,14,4e53a3aec65bea7986d5258c,Μεζεδοπωλείο της Ειρήνης,38.01564372712461,23.75084093975316,Greek Restaurant
679,358,37.963800000000006,23.69416666666667,13,0,4e56303b52b12ddfc1dd165f,Αμοργιανό Πέρασμα,37.96020610025272,23.69706848608506,Tsipouro Restaurant
842,521,37.963800000000006,23.7475,48,33,4e57863bb61c5534c281e9a1,Παλιάκης,37.965958606659655,23.74358124704859,Greek Restaurant
2281,1960,38.04380000000001,23.774166666666666,11,3,4e5a786018a8c20475195424,Φασόλι,38.04769582834629,23.774531832641262,Mediterranean Restaurant
1125,804,37.9738,23.774166666666666,31,20,4e5fcb93a809d2e6f3707cf4,Ο Θανάσης,37.974611067975005,23.777541409962488,Greek Restaurant
2581,285,37.9760609293324,23.737015582261034,21,4,4e6289032271573ad7aa55a3,The Buthcher Shop,37.976499,23.735745,Greek Restaurant
860,539,37.963800000000006,23.76083333333333,21,3,4e64ca1045ddda352a913b8f,Αθηναϊκές Ουσίες,37.96487295090426,23.75651836395264,Greek Restaurant
1514,1193,37.99380000000001,23.7475,22,11,4e65ec7a52b1260c149613ab,Ηπειρου Γευσεις,37.99418869616968,23.746458578953263,Greek Restaurant
2718,422,37.98153907066761,23.717984029530395,27,1,4e688530b99320740ff006b2,ΡΑΚΟΡ,37.98039088076639,23.717081847182854,Greek Restaurant
2086,1765,38.03380000000001,23.69416666666667,20,14,4e68ff6bd22df5c11f8ed715,San Remo Italian Food,38.03344456999154,23.69568759164247,Italian Restaurant
2762,466,37.986060929332396,23.723682637136267,26,18,4e6b1847d4c01ce017dd1511,Βουλγαρικό Καφενείο,37.986498926527524,23.726474766450877,Bulgarian Restaurant
1626,1305,38.00380000000001,23.68083333333333,14,2,4e6bceaaaeb7c31e43a6b83f,Το Πικάντικο,38.00569534301758,23.68456649780273,Greek Restaurant
2014,1693,38.0238,23.7475,25,7,4e6bda508877ce9597bcd422,Το Διασελο,38.02632399595665,23.75005625118917,Greek Restaurant
465,144,37.9438,23.774166666666666,12,1,4e6cc1591f6e84ca4c814dd8,Μπαλκόνι στις Κυκλάδες,37.943059996337816,23.77231737728423,Seafood Restaurant
515,194,37.9538,23.69416666666667,22,1,4e724fee1f6ecfe82c351f2e,Τα Μεζεκλίκια,37.95623718954529,23.69300468920115,Meze Restaurant
846,525,37.963800000000006,23.7475,48,37,4e73daca8998ed82a3ad4f97,Σάββας Κεμπάπ,37.96399931088197,23.74778249018001,Kebab Restaurant
2203,1882,38.04380000000001,23.6675,1,0,4e75f6571838f9188a117b7c,Ρούμελη,38.04236737502116,23.668089222352013,Greek Restaurant
1515,1194,37.99380000000001,23.7475,22,12,4e77328ffa76059701c3d105,Γωνια Του Γκυζη,37.994321191214475,23.751121087789983,Greek Restaurant
1717,1396,38.00380000000001,23.7475,9,7,4e78db4cae60e5ae0078fdd3,Πειρασμος,38.00281196817432,23.74486212383212,Greek Restaurant
1345,1024,37.9838,23.774166666666666,25,5,4e790318d22de127d7b47117,Το κουτούκι του Αμοργιανού,37.981241749951906,23.770142090890012,Greek Restaurant
2025,1704,38.0238,23.7475,25,18,4e7ceadd29c2e8fcd92ed722,Οι μουριές του Μπέφα,38.02721028906205,23.74789922512623,Greek Restaurant
1275,954,37.9838,23.7475,18,3,4e7daf9902d57c9c0e8f5548,Veranda,37.98024293469084,23.744192573699422,Meze Restaurant
2229,1908,38.04380000000001,23.7075,4,3,4e7f02e8dab454c37a277994,Ξηρόμερο,38.043059864841496,23.706366010681425,Greek Restaurant
619,298,37.9538,23.73416666666667,27,20,4e7f44a5f790845961d890c8,Το Οινομαντείο Του Αχιλλέα,37.952542485583336,23.733863454760908,Greek Restaurant
518,197,37.9538,23.69416666666667,22,4,4e80d5d461af380273da2075,Τα Μπριζολάκια Του Μητσάρα,37.953623142868345,23.696384942320343,Greek Restaurant
1467,1146,37.99380000000001,23.73416666666667,38,2,4e81636d00395825ecc46e25,Διόνυσος,37.99773,23.735128,Greek Restaurant
541,220,37.9538,23.7075,30,5,4e8325b8b634192148033bc7,Γευσιγνωσια,37.95482138249605,23.708263010984393,Greek Restaurant
654,333,37.9538,23.76083333333333,20,6,4e836d8e775b368bbc089386,Fagadiko,37.95617198298128,23.762741000000002,Greek Restaurant
326,5,37.9438,23.6675,13,5,4e876ee82c5bafd664fefb05,Αρμενιστής Μεζεδοπωλείο,37.946613239137115,23.671603531147444,Greek Restaurant
2202,1881,38.03380000000001,23.7875,4,3,4e8995abb634263379fb4991,Ταβερνα  Κισσος,38.033072133221694,23.78677132891735,Greek Restaurant
553,232,37.9538,23.7075,30,17,4e91f9adb63456ab960067ef,Απάνω Μαχαλάς,37.955356529896186,23.702625716092452,Meze Restaurant
803,482,37.963800000000006,23.73416666666667,24,18,4e957f0fd22df0eb8bbc9199,Παυλής,37.96414163504927,23.73370351118589,Greek Restaurant
250,250,37.9838,23.73416666666667,11,10,4e957f63dab450040c5a7404,Βασιλικός,37.983215416111044,23.733862597304324,Greek Restaurant
2943,647,37.986060929332396,23.737015970469603,43,25,4e95c5e2722ed789ed24589e,Η Γωνιά του Οδυσσέα,37.98622877728162,23.73585566834139,Greek Restaurant
2228,1907,38.04380000000001,23.7075,4,2,4e975da84690641441e438b7,"Μαδαρες,κρητικη Ταβερνα Μουσειο",38.04373,23.712215,Cretan Restaurant
598,277,37.9538,23.72083333333333,33,32,4e98951ae5fa393c4deb90b8,Fagopoti,37.953151706440146,23.718432382605535,Greek Restaurant
2212,1891,38.04380000000001,23.68083333333333,17,8,4e98b331cc218247d9051f00,Ψητονοστημιές,38.04281997680664,23.682842254638672,Fast Food Restaurant
2236,1915,38.04380000000001,23.73416666666667,5,2,4e99e08ef790b2a91912e86b,Τα Χέρια Της Αφροδίτης,38.045554296795146,23.73213116278052,Greek Restaurant
83,83,37.9760609293324,23.723682248927695,29,18,4e9aca395503cfce745cc41d,Ποικίλη Στοά,37.97647140692517,23.722958595476122,Greek Restaurant
2013,1692,38.0238,23.7475,25,6,4e9d81768b81791d97bc4c1d,Galeone,38.02224314406981,23.74771486865957,Italian Restaurant
1431,1110,37.99380000000001,23.7075,11,2,4e9fffbd5503cfb476723431,Κλασικό,37.99052375104646,23.70611289069287,Greek Restaurant
1126,805,37.9738,23.774166666666666,31,21,4ea1dbd7e3008f7d91d4f737,Gyrobank,37.977102240573366,23.77433721763197,Greek Restaurant
610,289,37.9538,23.73416666666667,27,11,4ea1e8dc9adff634396f8c62,Sinousies,37.95075962807829,23.73530730301352,Greek Restaurant
1681,1360,38.00380000000001,23.73416666666667,36,7,4ea2ab07d3e32e6868109a15,Ο Πλάτανος,38.005153997173174,23.737701360090302,Greek Restaurant
2560,264,37.97153907066761,23.7313177510723,39,22,4ea2b45d775b5c3e833f1d01,Taberna n laira,37.973322461866786,23.730246045004733,Greek Restaurant
1715,1394,38.00380000000001,23.7475,9,5,4ea3eb0e0aaf711181395729,Faidra,38.003419226330855,23.74445928343836,Greek Restaurant
1124,803,37.9738,23.774166666666666,31,19,4ea436279a527d6517cbcfdf,Alimenta,37.97412038540879,23.773889816520064,Greek Restaurant
1955,1634,38.0238,23.69416666666667,11,1,4ea738b72c5b8e25bdfc41d3,Makis (Μάκης),38.01973063215347,23.69336677219855,Greek Restaurant
1673,1352,38.00380000000001,23.72083333333333,24,23,4ea857c393adf18a207eb1a0,ΠΑΝΔΑΙΣΙΑ ΓΕΥΣΕΩΝ,38.004139527688814,23.722691839371933,Greek Restaurant
580,259,37.9538,23.72083333333333,33,14,4eabfde00aafb00bd9301a42,Λούκουλος,37.95487031727121,23.71585228594504,Greek Restaurant
2284,1963,38.04380000000001,23.774166666666666,11,6,4eac04449adfbd5e5dc26f24,Ταβερνα Νικολας,38.04254290330011,23.77142619835108,Greek Restaurant
790,469,37.963800000000006,23.73416666666667,24,5,4eaef042d3e32ee0def9d60c,China Town,37.96660810858744,23.733228454990048,Chinese Restaurant
153,153,37.9760609293324,23.7313177510723,20,9,4eb3e7b629c212fb6bb732d8,Αποστόλης Τάκης,37.975411,23.731602,Greek Restaurant
1675,1354,38.00380000000001,23.73416666666667,36,1,4eb4170a6c2590eb8774e88a,Habiba,38.00679033963914,23.734859868822447,Moroccan Restaurant
641,320,37.9538,23.7475,22,15,4eb44eb429c212fb6be986f7,Το Ειροινοδικειο,37.95380813096106,23.75108928621593,Greek Restaurant
2609,313,37.9760609293324,23.74465108440563,16,0,4eb456bb61af0dda8fe033a6,Malconi's,37.97825731191735,23.74484546151065,Italian Restaurant
854,533,37.963800000000006,23.7475,48,45,4eb47007cc2143e8278f01f5,Sala Di Gusto,37.96207256785565,23.752268848558966,Italian Restaurant
1960,1639,38.0238,23.69416666666667,11,6,4eb965677ee5024d80ad4806,Το Σπιτικό Της Βάσως,38.02268857901566,23.69193350510784,Greek Restaurant
1909,1588,38.0138,23.73416666666667,17,16,4ebab63bd3e3705543d865ee,Ο Πρέσβης των Γεύσεων,38.01811379316606,23.735512812704183,Greek Restaurant
1749,1428,38.00380000000001,23.774166666666666,31,25,4ebad74ab8f7b4886a21b58e,Φαγητοδρομίες,38.00480991267741,23.77759103238395,Greek Restaurant
824,503,37.963800000000006,23.7475,48,15,4ebc31e6b8f7074b34c6c405,Ο Κώστας,37.964267300039744,23.74388402074128,Greek Restaurant
928,607,37.9738,23.7075,30,26,4ebd8dc093ad3578f0bcf556,Piedra,37.974839219568416,23.708588433849762,Mediterranean Restaurant
714,393,37.963800000000006,23.7075,50,22,4ec4014c0e612db288427079,Πέτρος Ψητοπωλείο,37.959716460282365,23.707542431084065,Greek Restaurant
349,28,37.9438,23.68083333333333,16,15,4ec41e0a30f8194514b9253a,Μερακλίκι,37.947482,23.678866,Greek Restaurant
1482,1161,37.99380000000001,23.73416666666667,38,17,4ec6680e6c251306ca1af9ef,Εστιατοριο Μπουτρης,37.99478660014995,23.73189633417852,Greek Restaurant
1068,747,37.9738,23.7475,50,36,4ec6b0730e017e2f98f1f68a,Μεϊδάνι,37.9703,23.747526999999998,Greek Restaurant
2949,653,37.986060929332396,23.737015970469603,43,31,4ec6cf3f02d5888e9b0feb5f,Σαρακήνικο,37.98678705671684,23.73554618259152,Greek Restaurant
417,96,37.9438,23.73416666666667,26,5,4ec7f4f7d3e3e131f2d04932,Θοδωρής,37.943884108426474,23.73964216544651,Greek Restaurant
1286,965,37.9838,23.7475,18,14,4ec8084b77c8be49235113f6,2,37.980012,23.746929,Greek Restaurant
2231,1910,38.04380000000001,23.72083333333333,4,1,4ec904f449010f98ce54a775,natura (Γευσήλιον),38.041868091313134,23.720942735024718,Greek Restaurant
436,115,37.9438,23.73416666666667,26,24,4ecbf5a799119fe1aea03d18,Φοίνικες,37.94381175808686,23.738904195382123,Greek Restaurant
913,592,37.9738,23.7075,30,11,4ecc09650e011bec7b02cde2,Σαρακίνικο,37.97726285732318,23.710012870325066,Tsipouro Restaurant
1359,1038,37.9838,23.774166666666666,25,19,4ecd41c00e01bd353b1d47f4,to velouxi (kallitexnis),37.98161779537182,23.769462268019158,Greek Restaurant
365,44,37.9438,23.69416666666667,30,15,4ecfe71d9a52262b822487ad,Asari,37.940879020597045,23.696908998948974,Greek Restaurant
587,266,37.9538,23.72083333333333,33,21,4ed29a8b9adf2544598e0fae,Π-οινολόγιο,37.95208096645194,23.71671813057489,Greek Restaurant
1132,811,37.9738,23.774166666666666,31,27,4ed383fe4690a03b60f9696d,Εδεσμειον,37.9774916,23.7716677,Greek Restaurant
2883,587,37.986060929332396,23.73131736286373,50,29,4ed91bff02d5244e2ee49f9f,Λεμόνι & Ρίγανη,37.98471517498725,23.731158353382906,Greek Restaurant
1979,1658,38.0238,23.72083333333333,12,5,4edb77f77ee5e8e3e81cc600,Πυροφάνι,38.022303568482826,23.72288360129538,Greek Restaurant
762,441,37.963800000000006,23.72083333333333,43,20,4edbb0139adfe5cbe0b71a31,Αυλή,37.962105809576734,23.720622291257058,Greek Restaurant
2974,678,37.98153907066761,23.737015970469603,26,13,4edf49fd0e612072ea420960,Το Καποδιστριακο,37.98078869750989,23.735504871238014,Mediterranean Restaurant
712,391,37.963800000000006,23.7075,50,20,4edfe40cf7903c92ccf426c9,Cockatoo,37.959541796454175,23.70764851570129,Greek Restaurant
929,608,37.9738,23.7075,30,27,4ee11a8c61aff91575f00124,Symplektis,37.97696758991045,23.709933757781982,Greek Restaurant
2167,1846,38.03380000000001,23.76083333333333,15,4,4ee3b9d56c25be962fbbb862,Golden Petalo,38.03268315040188,23.764540788997174,Greek Restaurant
659,338,37.9538,23.76083333333333,20,11,4ee650c4e5faffd73366b1de,Το Μαγαζί Του Σπύρου,37.95524834262614,23.76470929376415,Greek Restaurant
1358,1037,37.9838,23.774166666666666,25,18,4ee8aadd5c5c99a2dc36c107,Galaxias (Γαλαξίας),37.983484899404075,23.76871852916781,Greek Restaurant
1648,1327,38.00380000000001,23.7075,3,1,4ee91a04d3e31fdba280a583,Bellissimo,38.00022180586907,23.706856717059807,Greek Restaurant
918,597,37.9738,23.7075,30,16,4eea42329a526a13628900af,Συμπλέκτης,37.97697551456466,23.70985525670592,Greek Restaurant
540,219,37.9538,23.7075,30,4,4eea44179a526a13628b5df0,Η Καρδίτσα,37.955609142168846,23.71100004360744,Greek Restaurant
1285,964,37.9838,23.7475,18,13,4eed0bf88231688f1decd427,DYO,37.979991557273955,23.74707991671634,Mediterranean Restaurant
3280,984,38.0160609293324,23.697017136251517,7,6,4ef0c09793ad3fada17a561e,Το Στέκι Του Κώστα,38.01768627593098,23.698912831012983,Greek Restaurant
397,76,37.9438,23.7075,18,17,4ef2231d5c5cd8c3b221f82e,Μεζεδοπωλείο Του Κουτρούλη,37.94261108013696,23.70241698824925,Greek Restaurant
1884,1563,38.0138,23.72083333333333,13,4,4ef3804e61af302a96caee8e,ο Σπανός,38.01126215623115,23.722356546385374,Greek Restaurant
507,186,37.9538,23.68083333333333,30,23,4ef642de2c5b0445fff2dce2,Μη σε μέλει,37.949932000000004,23.679372,Tsipouro Restaurant
2417,121,37.9760609293324,23.723682248927695,50,32,4ef76b679911b01ddb8bed13,Βολιώτικο Τσιπουράδικο,37.978214152655866,23.72349045758415,Tsipouro Restaurant
372,51,37.9438,23.69416666666667,30,22,4ef78f67d3e354f0bd452d2d,Κληματαριά,37.943503787622056,23.68896973427153,Greek Restaurant
1973,1652,38.0238,23.7075,9,8,4ef79ab5e5fa4f286b8afab7,Το κλειδί,38.02004094695529,23.709460143648855,Greek Restaurant
2110,1789,38.03380000000001,23.7075,20,18,4ef98ecc6da1f7b662d3d0d0,Φαγοποτείο,38.0315022964974,23.703282854452592,Greek Restaurant
1282,961,37.9838,23.7475,18,10,4efe37d2e300fdc04760e6d1,Καλλίστη,37.98653153506082,23.74417754962181,Greek Restaurant
1974,1653,38.0238,23.72083333333333,12,0,4f034b0b61af974bd149c007,Αδάμ ο Γυρολόγος,38.020850037706985,23.71989916777682,Grilled Meat Restaurant
1102,781,37.9738,23.76083333333333,23,20,4f035bf830f89923359cc4d9,Σπιτικό Έδεσμα,37.97621275093414,23.761234598333164,Greek Restaurant
1762,1441,38.00380000000001,23.7875,17,7,4f0485e877c8940e2497476d,Σάββας Κεμπάπ,38.0020429376965,23.7910028046603,Kebab Restaurant
2190,1869,38.03380000000001,23.774166666666666,21,12,4f0854cbe4b0d6422ab6e480,Οι Φίλοι,38.03790825914282,23.7726057151003,Greek Restaurant
1168,847,37.9838,23.7075,18,14,4f091379e4b05f830e3bb7be,Tzakaki,37.981740327922076,23.71138357573113,Greek Restaurant
545,224,37.9538,23.7075,30,9,4f0a0a9ae4b0a2229c817f46,Ορφέας,37.953964511051375,23.703811671384912,Greek Restaurant
1578,1257,37.99380000000001,23.774166666666666,20,3,4f0b1da1e4b0596c915df22c,Χωριό,37.997122657403885,23.771844549423317,Greek Restaurant
1863,1542,38.0138,23.7075,42,25,4f0c85a2754aa3fc50adc6e8,Η Βέσπα,38.01440264827283,23.70755086904881,Meze Restaurant
800,479,37.963800000000006,23.73416666666667,24,15,4f0f9497e4b0472042e29c6a,Σπύρος,37.962554828733246,23.729287247895574,Greek Restaurant
366,45,37.9438,23.69416666666667,30,16,4f1031fae4b03856eef30f2e,Plan B,37.9440739293143,23.69917773338335,Greek Restaurant
2087,1766,38.03380000000001,23.69416666666667,20,15,4f11bb07e4b0d85e52747d51,Macedonia,38.0358745,23.6950058,Greek Restaurant
636,315,37.9538,23.7475,22,10,4f11c358e4b01eefee8257fa,"ψησταρια ""η παρεα""",37.95442447424527,23.75266397230203,Greek Restaurant
1580,1259,37.99380000000001,23.774166666666666,20,5,4f159f82e4b0297e5a62a83a,Καταφύγιο Νοστιμιασ,37.99622614925888,23.77735280734837,Greek Restaurant
338,17,37.9438,23.68083333333333,16,4,4f15aa00e4b0042058964ec6,K.Grill,37.94378898614754,23.685230849113125,Grilled Meat Restaurant
1169,848,37.9838,23.7075,18,15,4f171abce4b0865b0d3e55b6,Μαρμίτα - Παραδοσιακός Καφενές,37.98337158256313,23.711668319100905,Greek Restaurant
3217,921,37.99153907066761,23.763683025537468,31,27,4f186da7e4b0094a040e4827,Pasta με νου,37.99197245857047,23.76402394753592,Italian Restaurant
863,542,37.963800000000006,23.76083333333333,21,6,4f1b14f7e4b0838231bcdf11,Εις Υγειαν,37.96063835880189,23.763075988049756,Greek Restaurant
1154,833,37.9838,23.7075,18,0,4f1c298be4b0f271e762711d,Θεσσαλοί,37.984354342379795,23.71224268307983,Greek Restaurant
2796,500,37.98153907066761,23.723682637136267,34,26,4f1c3907e4b044fd36524bc8,Μινώταυρος,37.98033897630895,23.72343564281303,Grilled Meat Restaurant
1499,1178,37.99380000000001,23.73416666666667,38,34,4f1da942e4b0817d3efbca49,Ακρον Γευσεις,37.990969,23.730125,Greek Restaurant
1956,1635,38.0238,23.69416666666667,11,2,4f2068a6e4b0512ede9ca983,ο Κώστας,38.02185466897551,23.69036279901433,Grilled Meat Restaurant
1104,783,37.9738,23.76083333333333,23,22,4f21aa09e4b0b5801bd4f0d2,Κίτρινος Σκίουρος,37.97587040489017,23.75590672181767,Brazilian Restaurant
3054,758,37.98153907066761,23.76368263713627,29,14,4f21bad4e4b05183c937305a,Καραγιάννης,37.97965835633319,23.76310272721327,Grilled Meat Restaurant
593,272,37.9538,23.72083333333333,33,27,4f254b6be4b04f6e6a0bb6e7,κουτουκι Ποινολογιο,37.952657145590095,23.716572854727666,Greek Restaurant
3045,749,37.98153907066761,23.76368263713627,29,5,4f2595cde4b006e5c3522e43,Karagiannis,37.97961860350433,23.764650557099234,Greek Restaurant
2779,483,37.98153907066761,23.723682637136267,34,9,4f296034e4b09b014099b336,Δίπορτο,37.98065784354256,23.72601928845468,Greek Restaurant
385,64,37.9438,23.7075,18,5,4f2c3f2ee4b00637a6147410,Σμυρνιος,37.94564261266835,23.710197281751853,Greek Restaurant
1113,792,37.9738,23.774166666666666,31,8,4f2c55ece4b0f215a5a67448,Μαγιοπουλα,37.97500720000001,23.7792187,Greek Restaurant
110,110,37.9771913939986,23.722257747253327,28,16,4f2d4d32e4b059914edc99c0,Κουδουνάκι,37.97769820939799,23.72249373118384,Greek Restaurant
1436,1115,37.99380000000001,23.7075,11,7,4f2d9b7fe4b094acc4ebedcf,Μανώλιας,37.99150270764768,23.710941932655796,Greek Restaurant
652,331,37.9538,23.76083333333333,20,4,4f2db816e4b062ad2b621274,Ο Βούργιας,37.95561608265596,23.763140454188534,Tapas Restaurant
3240,944,38.0138,23.69416666666667,20,19,4f2df2dae4b0118a86649d33,Μακαρονάδικο,38.01390020753046,23.694664809027785,Italian Restaurant
1961,1640,38.0238,23.69416666666667,11,7,4f2ece4ee4b0a2ac581cb703,Ο Θεσσαλος,38.021794557674326,23.690376074602355,Greek Restaurant
1966,1645,38.0238,23.7075,9,1,4f356fa3e4b093c6b4b638d4,"Ό,τι καλό",38.02179187215754,23.703550168570924,Greek Restaurant
1890,1569,38.0138,23.72083333333333,13,10,4f36743ce4b01139d4a42a34,Σβέλτος,38.013968844228785,23.72001878723618,Grilled Meat Restaurant
2185,1864,38.03380000000001,23.774166666666666,21,7,4f36cab9e4b0d408a3c8816c,Φαγοπότι,38.0380000090981,23.772582473416616,Greek Restaurant
1603,1282,38.00380000000001,23.6675,29,8,4f36e984e4b0e313d3023436,Γευστικόν,38.00357974440188,23.671556990534643,Grilled Meat Restaurant
2246,1925,38.04380000000001,23.7475,24,7,4f36f23ae4b0edf91c7d9106,Πριγκηπέσα,38.040754048267075,23.750444302738146,Meze Restaurant
1622,1301,38.00380000000001,23.6675,29,27,4f398a83e4b0b6d3badfc078,Jasmin,38.004170612045826,23.664049872388617,Chinese Restaurant
1779,1458,38.0138,23.68083333333333,11,2,4f3ac702e4b026b7f79b7200,Θωμάς,38.017145934670616,23.67792199601446,Greek Restaurant
645,324,37.9538,23.7475,22,19,4f3d59b0e4b0a9248302f745,Νίκης Γεύσεις,37.95516282050167,23.74649884615407,Greek Restaurant
778,457,37.963800000000006,23.72083333333333,43,36,4f3d609fe4b0d8b9dab5f63e,Αντιποινα,37.9604463,23.7207283,Greek Restaurant
3162,866,37.9960609293324,23.757983641129194,4,0,4f3ea742e4b065204aaabc29,"Ψητοπωλείο ""Ο Γιώργος""",37.998184011466726,23.757803044298782,Greek Restaurant
2802,506,37.98153907066761,23.723682637136267,34,32,4f4916dbe4b07d0dde6a12c1,Rajdhany,37.982176974182636,23.725619316101074,Indian Restaurant
668,347,37.9538,23.774166666666666,1,0,4f4b6d5fe4b0d5cfa142edc6,Ο ΜΠΑΚΑΛΌΓΑΤΟΣ- ΠΑΡΑΔΟΣΙΑΚΑ ΠΡΟΪΟΝΤΑ,37.9511418249783,23.77092069035965,Greek Restaurant
2048,1727,38.03380000000001,23.6675,1,0,4f4b9fcfe4b076e6e2e931c2,Άνεμος,38.035498393608286,23.670960686991332,Greek Restaurant
1289,968,37.9838,23.7475,18,17,4f4f5365e4b02966d433a474,Ο Ντακουλας των Εξαρχείων,37.98655956753781,23.746835867157806,Greek Restaurant
883,562,37.963800000000006,23.774166666666666,6,5,4f512ce6e4b0c41603043b5d,Μαστιχάτο,37.966361629386725,23.77140998840332,Greek Restaurant
1895,1574,38.0138,23.73416666666667,17,2,4f520eefe4b02d0eb2ebcc17,Η Ταβέρνα του Mala,38.01077971133709,23.730527758598328,Middle Eastern Restaurant
911,590,37.9738,23.7075,30,9,4f52929ce4b0e14ed7296f6c,Monopolio,37.970248104399424,23.709547267936703,Greek Restaurant
1288,967,37.9838,23.7475,18,16,4f5296c6e4b07e4c62d8eefb,Ρεμπέτικη Ιστορία,37.9872630781746,23.744860223737067,Tsipouro Restaurant
2132,1811,38.03380000000001,23.73416666666667,43,17,4f529e86e4b0d3a8f4ed45b9,Αλμύρα,38.03205131601287,23.735568790353785,Seafood Restaurant
2098,1777,38.03380000000001,23.7075,20,6,4f540824e4b0639bbb0f95d9,Romana,38.03534211675064,23.706990305622554,Italian Restaurant
1868,1547,38.0138,23.7075,42,30,4f5502bae4b0e14ed9e02bb8,Βόλος Τσιπουράδικο,38.012094309399096,23.707701367962475,Tsipouro Restaurant
1870,1549,38.0138,23.7075,42,32,4f57ae9ae4b08e27a00ed8f3,Το στέκι του Μητσάρα,38.01536560058594,23.70438003540039,Greek Restaurant
1919,1598,38.0138,23.7475,20,9,4f57b2b7e4b03aa91e14d047,Στην αυλή του Αντώνη,38.013911104903116,23.74799811627366,Greek Restaurant
653,332,37.9538,23.76083333333333,20,5,4f58b127e4b0ff11594e3453,"Μεζεδοπωλείο ""Αύρα""",37.95591487785575,23.75993303427024,Meze Restaurant
2746,450,37.986060929332396,23.723682637136267,26,2,4f58b90fe4b0271fff315e2d,Εστιατόριο ΜΑΚΕΔΟΝΙΑ,37.98681341821564,23.726079623244534,Greek Restaurant
1896,1575,38.0138,23.73416666666667,17,3,4f59f3ace4b03005852c6f2c,Σπιτικό Πακέτο,38.01561702238005,23.736370684063395,Greek Restaurant
638,317,37.9538,23.7475,22,12,4f5e6dade4b03d7201ca124f,Pro's Cuisine,37.95634497132423,23.749410003267144,Italian Restaurant
2083,1762,38.03380000000001,23.69416666666667,20,11,4f5f9cb3e4b0cd59814a6057,Mixalis,38.03309210995344,23.695705025420327,Greek Restaurant
1985,1664,38.0238,23.72083333333333,12,11,4f623b8fe4b0bedb2ac39db8,σπιτικό (γιάννης ),38.02483749389648,23.719158172607425,Greek Restaurant
1680,1359,38.00380000000001,23.73416666666667,36,6,4f6246f0e4b0b665d04f9331,Lalibela,38.00757690842261,23.73699566962515,Ethiopian Restaurant
2623,327,37.9760609293324,23.74465108440563,16,14,4f64e688e4b0ce431d953d50,50-50 Kolonaki,37.97730365701205,23.745115895653328,Greek Restaurant
3272,976,38.01153907066761,23.691316197081818,25,23,4f65eff8e4b0eae10bab1b97,Μπριζολόπιτες,38.01013916764996,23.69295629286427,Grilled Meat Restaurant
1767,1446,38.00380000000001,23.7875,17,12,4f74a93ce4b02f4e52e21e80,Σχάρα Λεμόνι,38.00203216469149,23.790536365741914,Greek Restaurant
456,135,37.9438,23.76083333333333,13,5,4f776862e4b040208c316d5e,"Ταβερνα ""Μην απαντας""",37.940186800302776,23.763314769928154,Greek Restaurant
1766,1445,38.00380000000001,23.7875,17,11,4f80a81ce4b0b2237c595448,Παντελης,38.005614295556406,23.785795203808174,Greek Restaurant
925,604,37.9738,23.7075,30,23,4f80cf30e4b0c0cb03d4e177,Πιάτσα Καλαμάκι Κεμπάμπ,37.97551743573186,23.71155790842437,Greek Restaurant
1785,1464,38.0138,23.68083333333333,11,8,4f81cdefe4b0a458bb52c760,Ο Δημήτρης,38.01285270420392,23.677108678396028,Greek Restaurant
391,70,37.9438,23.7075,18,11,4f834df0e4b050ced884806c,oinomageirio eleni,37.94161845518082,23.70533419636747,Greek Restaurant
3136,840,37.99153907066761,23.67798364112919,41,39,4f85d593e4b0da7774837358,Ρακοθεωρίες,37.991793743598016,23.677244441710833,Meze Restaurant
389,68,37.9438,23.7075,18,9,4f886869e4b0ab5c86f83263,Αρμενιστής,37.939932,23.706494,Greek Restaurant
477,156,37.9538,23.6675,8,1,4f887772e4b0a95f9301c007,Αλατοπίπερο,37.951073725012115,23.667079501354927,Greek Restaurant
468,147,37.9438,23.774166666666666,12,4,4f89f7c4e4b09582a2dd47c1,Διβρη,37.946710360133345,23.773639968979396,Greek Restaurant
1592,1271,37.99380000000001,23.774166666666666,20,17,4f8db00ee4b013a9846a9768,"ΣΟΥΒΛΑΤΖΙΔΙΚΟ ""ΤΑ ΔΥΟ ΑΔΕΡΦΙΑ""",37.993418873209905,23.7745173400495,Greek Restaurant
761,440,37.963800000000006,23.72083333333333,43,19,4f905c79e4b0814062307e0b,ψητοπωλείο Η Βλάχα,37.965617,23.725704999999998,Greek Restaurant
1653,1332,38.00380000000001,23.72083333333333,24,3,4f91a4fbe4b0b745b242a8f5,Η Γωνιά του Κάδμου,38.00044179908061,23.719847736084205,Greek Restaurant
2283,1962,38.04380000000001,23.774166666666666,11,5,4f92aa96e4b0082565273150,Κοκκινη Ντοματα,38.04565646363597,23.779194690770826,Greek Restaurant
1354,1033,37.9838,23.774166666666666,25,14,4f9aa3a9e4b01da4fec8cee7,Γαλαξιας Γευσεων,37.983568175571726,23.76864880359641,Greek Restaurant
462,141,37.9438,23.76083333333333,13,11,4fa1989ee4b0baf5e987db23,Ο Πιπεριάς & η Πιπερίτσα,37.939586181653574,23.761234598333164,Greek Restaurant
2761,465,37.986060929332396,23.723682637136267,26,17,4fa234b5e4b0b50902c8ca58,Rodopi,37.985446,23.723363,Greek Restaurant
2041,1720,38.0238,23.7875,13,6,4fa438e5e4b0d6f4bbc7325d,Ο Θησαυρός των Γεύσεων,38.02424872206519,23.790957856780675,Greek Restaurant
3245,949,38.0160609293324,23.691316197081818,8,4,4fa52df4e4b0b487cdd1a64b,αδανων,38.01738171411285,23.690527168801907,Greek Restaurant
2285,1964,38.04380000000001,23.774166666666666,11,7,4fa578ece4b052ea29b48897,"ταβέρνα ""Ο ΝΙΚΟΛΑΣ""",38.04442668090737,23.77044423410515,Greek Restaurant
1462,1141,37.99380000000001,23.72083333333333,25,22,4fad74a4e4b03d702fba734c,Τριχωνίδα,37.995366721951406,23.721738839704305,Greek Restaurant
3024,728,37.98153907066761,23.757984029530398,13,11,4fae2e12e4b0e047b1e927e6,Loukoullos,37.981831364669254,23.75583076221125,Greek Restaurant
2044,1723,38.0238,23.7875,13,9,4faeb378e4b0fc5eab061a30,Πρυτανείο,38.02711590457413,23.788816537490447,Mediterranean Restaurant
594,273,37.9538,23.72083333333333,33,28,4fb0426be4b003eb685e9a99,Mageirevoume twraaaa,37.95086577801596,23.723761056493768,Greek Restaurant
2180,1859,38.03380000000001,23.774166666666666,21,2,4fb14fbde4b0c92a88bf265d,Xasapiko,38.033931244007746,23.76989805201217,Greek Restaurant
2589,293,37.9760609293324,23.737015582261034,21,12,4fb1598ee4b091b463a4d2dd,The Parliament @ NJV Plaza Hotel,37.97636713386608,23.73466372489929,Mediterranean Restaurant
618,297,37.9538,23.73416666666667,27,19,4fb55311e4b06fa0ec08b3cc,Προς Ανάφη,37.95189005466026,23.730094961938146,Greek Restaurant
1441,1120,37.99380000000001,23.72083333333333,25,1,4fb78f17e4b09cd3068b6f8f,Cucina Katerinioza,37.993937019635894,23.72439445041255,Mediterranean Restaurant
2066,1745,38.03380000000001,23.68083333333333,23,17,4fb7cc7ee4b03c1439d742cc,Στου Μπάμπη,38.035425,23.679222,Seafood Restaurant
1707,1386,38.00380000000001,23.73416666666667,36,33,4fbb8c5fe4b0389cf813cb62,Φιλόξενο Σπίτι,38.002392,23.733429,Greek Restaurant
551,230,37.9538,23.7075,30,15,4fbba6f37b0c964547adaba5,τραπεζαρία,37.95551726922667,23.712658882141113,Greek Restaurant
2036,1715,38.0238,23.7875,13,1,4fbbb5e8e4b0d498b41a7b9e,Σπίτι Neat Eat & Cafe,38.02720242974251,23.784488439559933,Mediterranean Restaurant
2106,1785,38.03380000000001,23.7075,20,14,4fbbe9ace4b0c673b6a6e676,Μαγειριό,38.03078016471081,23.708756956327896,Greek Restaurant
1516,1195,37.99380000000001,23.7475,22,13,4fbfec08e4b02131f9feb033,Μεζεδοπωλείο το Πάρκο,37.9936426438425,23.744988059710607,Meze Restaurant
2137,1816,38.03380000000001,23.73416666666667,43,22,4fc0d8fee4b014a2d66f66b5,Καφέ Μεζέ Μυρωδιές και Γεύσεις,38.03518937086477,23.738511140500986,Greek Restaurant
1138,817,37.9838,23.6675,10,2,4fc15906e4b05b85031b6baf,Νεα Συντροφιά,37.98714307169251,23.665805277324303,Greek Restaurant
2600,304,37.97153907066761,23.737015582261034,4,2,4fc21af8e4b0c1dd0a1cedb4,Αίγλη Εστιατόριο,37.97080712138607,23.73734663126125,Greek Restaurant
1369,1048,37.99380000000001,23.6675,13,4,4fc25ef1e4b045c5b58c2cce,Θρακα,37.991899273044545,23.669902423866372,Greek Restaurant
1906,1585,38.0138,23.73416666666667,17,13,4fc27633e4b07a4edddc5161,Polinostimo,38.01237385067768,23.73746311702868,Greek Restaurant
1652,1331,38.00380000000001,23.72083333333333,24,2,4fc3a84ce4b08ebeff3fcf56,"Ψητοπωλείο ""Ο Μερακλής""",38.00172607122365,23.720435317732225,Greek Restaurant
1704,1383,38.00380000000001,23.73416666666667,36,30,4fc65104e4b005fcba6e32c0,Ψητοπωλείο Θωμάς,38.005336799490316,23.731530249344484,Greek Restaurant
1701,1380,38.00380000000001,23.73416666666667,36,27,4fc7b51de4b088f388d8d8b5,Klimataria (Κληματαριά),38.00739238232105,23.734319460792012,Greek Restaurant
1846,1525,38.0138,23.7075,42,8,4fc910a3e4b08079218ace81,Ψητοπωλείο Μπάρμπα-Γιάννης,38.016540084298896,23.710128378674828,Greek Restaurant
2056,1735,38.03380000000001,23.68083333333333,23,7,4fc9825be4b068022f0da034,Αρχοντικό,38.03317349585578,23.681324492937733,Greek Restaurant
2244,1923,38.04380000000001,23.7475,24,5,4fcf4a67e4b01830c32ed67c,Αλλοτινά - Πιτα Φλωρίνης,38.04163670412726,23.751798186067724,Greek Restaurant
1087,766,37.9738,23.76083333333333,23,5,4fcfa742e4b0a254619c43e5,Ilissiakon,37.97686858321124,23.761478641236657,Greek Restaurant
520,199,37.9538,23.69416666666667,22,6,4fd46e36a17cc6f7fcadcaee,Το λημερι του ΠΑΒΟΥ,37.95399453195533,23.69583606719971,Greek Restaurant
466,145,37.9438,23.774166666666666,12,2,4fd4938ae4b02bbdc60e2a7f,Τα Αστέρια,37.944426313459786,23.773538442996426,Greek Restaurant
1943,1622,38.0238,23.6675,2,1,4fd4c97ee4b0dde496b410ef,το τρεχαντηρι,38.02137851899147,23.671860907243467,Greek Restaurant
1368,1047,37.99380000000001,23.6675,13,3,4fd4fcb1e4b0191b9c9ae018,Κούμος,37.992351,23.672495,Greek Restaurant
1170,849,37.9838,23.7075,18,16,4fd63876e4b008dc37159c46,Το Στέκι Του Βοτανικου,37.97985102736689,23.70561894293007,Greek Restaurant
1690,1369,38.00380000000001,23.73416666666667,36,16,4fd7465ae4b03d97234eb636,Στην Κουζινα Της Μαμας,38.00553958831758,23.73635325160429,Greek Restaurant
3159,863,37.99380000000001,23.76083333333333,12,9,4fda2cade4b0c5e9ba04168f,Red Elephant,37.99409979818835,23.762018497651443,Indian Restaurant
1099,778,37.9738,23.76083333333333,23,17,4fe37da1e4b0fa547b1b5419,cipolla rossa,37.975531376731475,23.764110811071085,Italian Restaurant
1365,1044,37.99380000000001,23.6675,13,0,4fe5da0fe4b0b901afd658e1,Το Νησί,37.99512454704162,23.671532260147508,Seafood Restaurant
563,242,37.9538,23.7075,30,27,4fe993d5e4b0faf491b86ab6,Ο Μερακλής,37.95159962588393,23.70864654505507,Greek Restaurant
677,356,37.963800000000006,23.68083333333333,5,3,4fec5969e4b047239ad42c5b,Άλλη Φάση,37.963340759277344,23.675352096557614,Greek Restaurant
1150,829,37.9838,23.68083333333333,8,4,4fee008fe4b078413a43673d,Παρμαξής,37.986255223918064,23.679549485063546,Greek Restaurant
1725,1404,38.00380000000001,23.774166666666666,31,1,4ff18abbe4b0e65c8e1b4225,Ombra,38.003983967018435,23.775286646609906,Italian Restaurant
1346,1025,37.9838,23.774166666666666,25,6,4ff31fbae4b0ef07e6e723d0,Eudylon,37.98375333988762,23.774000214232586,Greek Restaurant
350,29,37.9438,23.69416666666667,30,0,4ff4991de4b0fe7c1ffc3a78,Ο Πεζούλας,37.94132171166882,23.68972842197929,Seafood Restaurant
1922,1601,38.0138,23.7475,20,12,4ff88eb7e4b03705ced2af61,Κιβωτός,38.014606055675685,23.74357605156629,Greek Restaurant
484,163,37.9538,23.68083333333333,30,0,4ff8a1aee4b003534ca5e33e,Το Δίχτυ,37.95178,23.67961,Greek Restaurant
1152,831,37.9838,23.68083333333333,8,6,4ffa85aee4b0a7f74204a47e,Αριστη,37.98209058681242,23.682036772083173,Greek Restaurant
3051,755,37.98153907066761,23.76368263713627,29,11,4ffb3353e4b02b9716e21e2e,China Wok Time,37.979604776588275,23.764633757151152,Asian Restaurant
1930,1609,38.0138,23.76083333333333,1,0,4ffc6c1de4b070f1c96184d8,Η Γωνιά Της Γεύσης,38.015589484749064,23.757568130620772,Greek Restaurant
329,8,37.9438,23.6675,13,8,5001c99ee4b023056d893682,Το Τζάκι,37.946484839613696,23.670076769850677,Greek Restaurant
1517,1196,37.99380000000001,23.7475,22,14,500313a4e4b062a7b314ec5b,Ο ΣΚΑΝΤΣΟΓΥΡΟΣ,37.993173039145276,23.74885217799414,Greek Restaurant
2745,449,37.986060929332396,23.723682637136267,26,1,50072e4be4b0b3c661e670fd,Πειραϊκι,37.985281132844726,23.72633530417608,Greek Restaurant
1137,816,37.9838,23.6675,10,1,500860d8e4b0e7c99cfa0a10,Το Ρολόι,37.98529273723934,23.666589839661945,Tsipouro Restaurant
2084,1763,38.03380000000001,23.69416666666667,20,12,500b9dc8e4b0ddfaa722a502,Perfetto Di Pasta,38.03592575270813,23.68930234444039,Italian Restaurant
421,100,37.9438,23.73416666666667,26,9,500f0ebbe4b0546f46421424,Πιτα Τime,37.943346951533385,23.73334323844487,Greek Restaurant
2219,1898,38.04380000000001,23.68083333333333,17,15,5011b57ee4b09cb7de9395f5,Το Ασματοπωλείον Αλλιώς,38.041997308087005,23.683925475458498,Greek Restaurant
1504,1183,37.99380000000001,23.7475,22,1,5012e004e4b07c3cf242dc6b,Leilimlei,37.99307296411939,23.742240298405925,Middle Eastern Restaurant
2100,1779,38.03380000000001,23.7075,20,8,50183a0fe4b0f6e3fb92102b,Ψητοπωλείο ΧΑΛΑΛΙ,38.035976502132634,23.71105524899951,Greek Restaurant
420,99,37.9438,23.73416666666667,26,8,501f9c6de4b0a7e9a8243d19,Φλοίσβος,37.945719861740635,23.73510973471574,Greek Restaurant
1706,1385,38.00380000000001,23.73416666666667,36,32,502a1363e4b0b12f245b47df,"ΨΗΣΤΑΡΙΑ ""Ο Γιώργος""",38.00630187988281,23.73743629455566,Greek Restaurant
2038,1717,38.0238,23.7875,13,3,503be1d6e4b096b492786474,Pars,38.022887738013296,23.791899611814127,Persian Restaurant
2277,1956,38.04380000000001,23.76083333333333,15,14,50425beae4b01446ab2f5c3d,Μπαιρακταρης,38.04711958542096,23.75925900875889,Greek Restaurant
2069,1748,38.03380000000001,23.68083333333333,23,20,504342a6e4b05127f885fe4b,Το Δεξιμι Της Αλωας,38.036953000000004,23.679254,Greek Restaurant
1090,769,37.9738,23.76083333333333,23,8,5043bdbbe4b00690bb5827cd,Πίτα Νικ,37.97473429861819,23.765929499084624,Greek Restaurant
1598,1277,38.00380000000001,23.6675,29,3,5044cdeae4b08ae7cb58db36,Πέστο κ' έγινε,38.0028864471234,23.66341000199677,Meze Restaurant
768,447,37.963800000000006,23.72083333333333,43,26,5045db40e4b06002d99a54fa,Μεσόγειος,37.9619975197528,23.719722426287728,Greek Restaurant
120,120,37.9771913939986,23.722257747253327,28,26,504a35c8e4b0d1cf331a44ef,Κουκουβάγια,37.977380678429384,23.722953332886892,Greek Restaurant
2164,1843,38.03380000000001,23.76083333333333,15,1,504a5b78e4b0273936c12e70,Το Αλλιώτικο του Βόλου,38.03735428589554,23.76352936299902,Tsipouro Restaurant
452,131,37.9438,23.76083333333333,13,1,504ccc56e4b0548542652685,Το Στεκι του Χιωτη,37.94200224660665,23.758823215943323,Greek Restaurant
454,133,37.9438,23.76083333333333,13,3,504cf64be4b01b58f47e94a1,Ο Λαμπρος,37.944297965643436,23.75806784087582,Greek Restaurant
667,346,37.9538,23.76083333333333,20,19,504f9658e4b044b0249653d1,Καντούνι,37.9540190422755,23.76081042825543,Greek Restaurant
2275,1954,38.04380000000001,23.76083333333333,15,12,5050d095e4b0473d5f6cfa48,Τα Μεζεκλίκια,38.043343,23.757087,Greek Restaurant
890,569,37.9738,23.6675,9,6,50560f5ce4b096ad9a515563,Καλαμάκι Bowl,37.97544479370117,23.66973304748535,Greek Restaurant
627,306,37.9538,23.7475,22,1,5058d723e4b0052727497ae5,Μαγυράκος,37.955101578166655,23.7527605728172,Greek Restaurant
2053,1732,38.03380000000001,23.68083333333333,23,4,505b800de4b0b95179844931,Αίγαγρος,38.03350346197022,23.683024710048066,Cretan Restaurant
2194,1873,38.03380000000001,23.774166666666666,21,16,505cba0be4b0d44483f69367,To koupaki,38.03498555407901,23.769154313778984,Greek Restaurant
395,74,37.9438,23.7075,18,15,505cbab1e4b01fac87ff1db4,Βασιλικός,37.942787824272024,23.702035411635798,Greek Restaurant
1140,819,37.9838,23.6675,10,4,505cceabe4b027df9bace69f,Ο Χρήστος,37.98514032820715,23.664212693168405,Greek Restaurant
440,119,37.9438,23.7475,13,2,505dfc3fe4b00e379a64c7f2,"Ψητοπωλείο ""Ο Γιάννης""",37.941346446522815,23.746667356682728,Greek Restaurant
498,177,37.9538,23.68083333333333,30,14,50605534e4b0533a7304b6d2,green MANH Delivery,37.95015201132614,23.681130192143673,Greek Restaurant
1191,870,37.9838,23.72083333333333,50,19,5060a0b2e4b09e9784a966cd,Μετάξι,37.97981476083472,23.721680729913665,Greek Restaurant
3163,867,37.9960609293324,23.757983641129194,4,1,506212a7e4b0d4ca52a5b55e,Το Κονάκι,37.99763901207979,23.757167199957372,Grilled Meat Restaurant
374,53,37.9438,23.69416666666667,30,24,5062eb73e4b0b17916ea89b3,Βοσπορίτισσα,37.943038369782506,23.697791263461102,Greek Restaurant
441,120,37.9438,23.7475,13,3,50634f05e4b0d415bfc4f524,Του πατρός και του ιού,37.94456379143086,23.74337267559802,Greek Restaurant
1144,823,37.9838,23.6675,10,8,5065fad6e4b07b97884e251e,Mihas,37.9857173,23.670310999999998,Greek Restaurant
916,595,37.9738,23.7075,30,14,50677cd1e4b08b3220b1036a,Οι Γευσεις Της Εδεμ,37.977338,23.709996,Greek Restaurant
673,352,37.963800000000006,23.6675,5,4,50680b2d498ef43ce6abfc3a,Το Στέκι του Αχιλλέα,37.96109107482578,23.67184928421732,Greek Restaurant
1518,1197,37.99380000000001,23.7475,22,15,5068323fe4b02c5031990f80,Ψησταριά ο Σπύρος,37.995059967041016,23.75255012512207,Greek Restaurant
2102,1781,38.03380000000001,23.7075,20,10,50686360e4b0e8655914d944,Το Δεκαπεντάλεπτο,38.033203783285984,23.708057634030123,Greek Restaurant
686,365,37.963800000000006,23.69416666666667,13,7,5069a0ede4b02e9a84d213cb,master,37.961891174316406,23.697696685791016,Greek Restaurant
864,543,37.963800000000006,23.76083333333333,21,7,506b2cb229a66b69e799a7e4,Η Αλανιάρα κότα,37.965752628201045,23.755831718444824,Greek Restaurant
379,58,37.9438,23.69416666666667,30,29,506b47b4e4b033782b387cb0,Tristrato,37.944065964360135,23.69296210415284,Greek Restaurant
361,40,37.9438,23.69416666666667,30,11,506b6795e4b04fe7216d0b0f,Του Κρασιού τα Παραμύθια,37.944124,23.690838,Greek Restaurant
2081,1760,38.03380000000001,23.69416666666667,20,9,506d9456e4b0f42ca363742c,Mexicano,38.033994034594095,23.697407721693395,Mexican Restaurant
926,605,37.9738,23.7075,30,24,506f10a4e4b035622b50d4e8,καπετάν Μιχάλης,37.970306396484375,23.70569038391113,Greek Restaurant
2024,1703,38.0238,23.7475,25,17,506f30c3e4b0a6dae8c36820,Ηλιογευστον,38.023461803022045,23.752652351019684,Greek Restaurant
363,42,37.9438,23.69416666666667,30,13,5075c8fae4b053dba8c3c5d6,Αλκυόνες,37.9412562327423,23.698047967038345,Greek Restaurant
1994,1673,38.0238,23.73416666666667,21,8,5077288ae4b09578dcdaeb6d,Πείνακας,38.024538539334976,23.736022034772812,Greek Restaurant
656,335,37.9538,23.76083333333333,20,8,507997bbe4b0ce42c65d7e49,Σιώκος,37.956790570273654,23.762431569585452,Greek Restaurant
792,471,37.963800000000006,23.73416666666667,24,7,5079c526e4b036360b5ea9c6,Πεζόδρομος Μουσικό Μεζεδοπωλείο,37.96331011654612,23.732000929799252,Meze Restaurant
1873,1552,38.0138,23.7075,42,35,5079ce6fe4b0dad8227ef6fd,Xαλαλι,38.01192260432785,23.706734683116746,Greek Restaurant
2063,1742,38.03380000000001,23.68083333333333,23,14,507d9615e4b0e7d79bf97dd1,Ταβερνα Σταματης,38.03719273471773,23.677108678396028,Greek Restaurant
832,511,37.963800000000006,23.7475,48,23,507eee3de4b0b83c38973843,ψητοπωλειο ο σπορακος,37.96316801153226,23.75121131002864,Greek Restaurant
1889,1568,38.0138,23.72083333333333,13,9,5081afc4e4b0607ce8544fb0,Βολιώτης,38.01468784343687,23.723981872807393,Tsipouro Restaurant
336,15,37.9438,23.68083333333333,16,2,50828d2ee4b0f99e5b0e5f44,Ρακί Μεζέ,37.943658315082715,23.685155399227618,Meze Restaurant
852,531,37.963800000000006,23.7475,48,43,50867dd1e4b0805bb789bc17,Ladolemono (Λαδολεμονο),37.963581078469225,23.75164129847752,Greek Restaurant
2088,1767,38.03380000000001,23.69416666666667,20,16,5087ff05e4b0b879815337a0,Μυθική  Κατσαρόλα,38.03392792971835,23.696007210814386,Greek Restaurant
117,117,37.9771913939986,23.722257747253327,28,23,508998afe4b02ba9b05fc639,Ελλαδικόν,37.97732436820364,23.723354289361964,Greek Restaurant
3058,762,37.98153907066761,23.76368263713627,29,18,508afafce4b0f38c003ca31b,οι πιτες των γευσεων,37.97936188756865,23.76423864238316,Greek Restaurant
844,523,37.963800000000006,23.7475,48,35,508be47ee4b0ca23f5e10a9a,Geusiteleia,37.96167295741281,23.744959006082965,Greek Restaurant
1086,765,37.9738,23.76083333333333,23,4,508c3fa4e4b01167eb218db0,Απλά Σπιτικό,37.976123997242986,23.76133250805749,Greek Restaurant
437,116,37.9438,23.73416666666667,26,25,508d8a27e4b0ad933cc85546,ΤΟ ΕΚΛΕΚΤΟΝ,37.944927465192414,23.73499351803576,Greek Restaurant
1453,1132,37.99380000000001,23.72083333333333,25,13,50903c94e4b0b197b9c65abd,Συσσιτιο,37.9976,23.719,Greek Restaurant
2009,1688,38.0238,23.7475,25,2,5092c83de4b0f717017604b2,Νίκος ο Καλαβρυτινός,38.023697435606095,23.752937864714365,Greek Restaurant
2952,656,37.986060929332396,23.737015970469603,43,34,5093b38a16486514c7331013,Εξωστρεφής Downstairs,37.98625129877024,23.73452561259881,Meze Restaurant
1464,1143,37.99380000000001,23.72083333333333,25,24,5095e4a3e4b03f1e919df245,Πατσατζίδικο ΗΛΠΑΠ,37.996788,23.722371,Patsa Restaurant
3299,1003,38.01153907066761,23.697017136251517,20,18,50976631e4b02645e0aa448f,Σταμάτης Πεινιρλι,38.011255547536365,23.6989360759118,Greek Restaurant
2247,1926,38.04380000000001,23.7475,24,8,50995bbd498edea363a364b8,Jia Xe,38.044098197592525,23.750990505013586,Chinese Restaurant
478,157,37.9538,23.6675,8,2,509a4cf0e4b07ae84fa6136c,Fwtis,37.95743075635097,23.670826456952852,Greek Restaurant
1437,1116,37.99380000000001,23.7075,11,8,509fa9bde4b01b68872ef10a,Οινωδία,37.995964078201254,23.712144828076905,Greek Restaurant
369,48,37.9438,23.69416666666667,30,19,509fbc5be4b0912bf39aba6a,Ευγένιος,37.94691710878921,23.695559743921,Eastern European Restaurant
2970,674,37.98153907066761,23.737015970469603,26,9,50a0e574e4b0d459dd815a9e,Πάνω Κάτω,37.97958046163808,23.73760418889089,Greek Restaurant
1599,1278,38.00380000000001,23.6675,29,4,50a1763d8055ddb1fee96134,Lemonaki Myrodato,38.00427811266242,23.6640908970465,Meze Restaurant
3249,953,38.01153907066761,23.691316197081818,25,0,50a40d5be4b06e4d8e249f19,Αγροτικόν,38.01121130370707,23.68869278358303,Greek Restaurant
2047,1726,38.0238,23.7875,13,12,50a7e889e4b0d062c5752622,My Way Grill,38.023914000000005,23.792026999999997,Greek Restaurant
1703,1382,38.00380000000001,23.73416666666667,36,29,50a9228b498ea24de1831bf3,Φίλεμα,38.005142429914216,23.737794332963468,Greek Restaurant
1127,806,37.9738,23.774166666666666,31,22,50abc0b0e4b05055ba2f52ab,Makaronopolis,37.97646808601177,23.775213667322458,Italian Restaurant
3277,981,38.0160609293324,23.697017136251517,7,3,50abebfae4b0e93b4c614c16,Καρδιτσιώτης,38.017738342285156,23.698766708374023,Greek Restaurant
1998,1677,38.0238,23.73416666666667,21,12,50ad3afbe4b02050b5a8206f,soula's kafenio,38.02693557739258,23.73512458801269,Greek Restaurant
660,339,37.9538,23.76083333333333,20,12,50afd5ace4b004e6d2504780,Το κουτουκι του 54,37.9539610815597,23.76250129598222,Greek Restaurant
1929,1608,38.0138,23.7475,20,19,50b20e37e4b078aafc7d151c,Λιθόστρωτο,38.01172808943701,23.752309523075567,Greek Restaurant
2105,1784,38.03380000000001,23.7075,20,13,50b214a6e4b0fdf0a2069cfc,Σινάνης,38.03044617998799,23.70620005789824,Greek Restaurant
569,248,37.9538,23.72083333333333,33,3,50b3922ae4b0848ab8b9c264,το πλατειάκι μας,37.9539257230621,23.718829683670524,Grilled Meat Restaurant
2953,657,37.986060929332396,23.737015970469603,43,35,50b3f7cde4b0a5d718544bc9,Μεϊντάνι,37.98677726403553,23.735379772378202,Meze Restaurant
1119,798,37.9738,23.774166666666666,31,14,50b536b2e4b039753170280f,Τα Καλαβρυτα,37.972912565772866,23.775609694026908,Greek Restaurant
1145,824,37.9838,23.6675,10,9,50b88452e4b026fe4a29ff40,Συμποσιο,37.98518137732093,23.666973403064524,Greek Restaurant
573,252,37.9538,23.72083333333333,33,7,50c0cec8e4b08c1f644b6455,Ο Νάκος,37.954067548565405,23.72367389213439,Greek Restaurant
752,431,37.963800000000006,23.72083333333333,43,10,50c0f9f7e4b03ab86fe4c978,Μικρή Βενετία,37.96279110973635,23.72227927530303,Meze Restaurant
1935,1614,38.0138,23.7875,11,4,50c0ffa0e4b0aa42c917cc5e,Ο Hλίας,38.009790256727364,23.78892900412309,Greek Restaurant
1100,779,37.9738,23.76083333333333,23,18,50c27bd9e4b0bc536d49a7a8,Το Κουτούκι του Καλλίνικου,37.976917289857504,23.75999695043773,Greek Restaurant
608,287,37.9538,23.73416666666667,27,9,50c39dcee4b04cc46d7811da,Απομερα,37.9513,23.7345,Greek Restaurant
1434,1113,37.99380000000001,23.7075,11,5,50c3cef0e4b076c8e424e5c9,Το Τρένο,37.99130197019864,23.711563719513176,Meze Restaurant
1500,1179,37.99380000000001,23.73416666666667,38,35,50c62469e4b01b1b6f699ee1,η γεύση,37.993229,23.729701000000002,Greek Restaurant
889,568,37.9738,23.6675,9,5,50cb3764e4b03ef0703b42d3,Εστιατόρια Μούσσες Θωμάς,37.977090999999994,23.665771,Greek Restaurant
1280,959,37.9838,23.7475,18,8,50ce23f7e4b0b76ce0870a3b,Κονσερβοκούτι,37.98686239453448,23.743802693118386,Greek Restaurant
415,94,37.9438,23.73416666666667,26,3,50ce3efce4b07c1548a2b176,Γαία Καφεποτείον,37.94340348461439,23.738459319249355,Greek Restaurant
2665,369,37.9760609293324,23.750348915594362,18,9,50d204f3e4b0ac8572570989,Mpoukalakia,37.97679598604552,23.752553570109445,Greek Restaurant
2022,1701,38.0238,23.7475,25,15,50d4e27ee4b079542dc21da4,Μικρό Ηρώδειο,38.025976400088545,23.74380267041055,Greek Restaurant
1964,1643,38.0238,23.69416666666667,11,10,50d4e3cfe4b00d64164e8c1e,Το Μιτάτο,38.027840366977436,23.696222227242323,Greek Restaurant
325,4,37.9438,23.6675,13,4,50d7206a498ee2829b598134,Κουζίνα Catering,37.944999271869314,23.671448289664504,Greek Restaurant
2085,1764,38.03380000000001,23.69416666666667,20,13,50d8d158e4b0ce6f758c1a17,Vlaxos,38.036118,23.693228,Greek Restaurant
1130,809,37.9738,23.774166666666666,31,25,50d8f3cfe4b0ecbb0f3becff,Πεινολόγιο,37.97646974176913,23.77584444274187,Greek Restaurant
1709,1388,38.00380000000001,23.73416666666667,36,35,50dca2abe4b03eb1a6af0c35,Ασία,38.00182330298593,23.731936730209608,Turkish Restaurant
3012,716,37.986060929332396,23.757984029530398,9,8,50dd9575498efa5d3fc3ee2c,Μανώλης,37.98676527659985,23.75569130764265,Greek Restaurant
3300,1004,38.01153907066761,23.697017136251517,20,19,50ddef02e4b0e421dbb9b325,Φαγητοδρομίες,38.01046803213619,23.697518135260392,Greek Restaurant
2271,1950,38.04380000000001,23.76083333333333,15,8,50e08560e4b0a94f5f275314,Κύτρο,38.04644775390625,23.76458740234375,Greek Restaurant
575,254,37.9538,23.72083333333333,33,9,50e1faaee4b0e421f6eb4da3,Το Φαγοπότι,37.95437547766829,23.71772924938353,Greek Restaurant
1869,1548,38.0138,23.7075,42,31,50e20266e4b047165bbd8bcc,Γλωσσολύτες Μουσικό Μεζεδοπωλείο,38.01301574707031,23.70192909240723,Greek Restaurant
564,243,37.9538,23.7075,30,28,50e20a60e4b0eb1ff530a1a1,Ζορμπάς,37.951959603448906,23.709562501437944,Greek Restaurant
2057,1736,38.03380000000001,23.68083333333333,23,8,50e5c644e4b01e9072188a87,Leventis,38.0357,23.6856,Greek Restaurant
1167,846,37.9838,23.7075,18,13,50e89254e4b0d16a02200a11,Το Κανταρι,37.982218500721714,23.70946010127197,Greek Restaurant
642,321,37.9538,23.7475,22,16,50e8a241e4b05301ce45b55e,To Mustiko,37.95373061225772,23.745305066960263,Greek Restaurant
582,261,37.9538,23.72083333333333,33,16,50e9f293e4b05fbb82ede08a,Το Πεινολόγιο (Θεσσαλία),37.95129776000977,23.71962928771973,Greek Restaurant
1854,1533,38.0138,23.7075,42,16,50f086b1e4b0f85b82413bf8,τσιπουρομαχίες,38.01440048217773,23.704708099365234,Tsipouro Restaurant
115,115,37.9771913939986,23.722257747253327,28,21,50f2bae6e4b0d3754e152619,Mummy's Cooking,37.977213861267366,23.722110742215214,Greek Restaurant
2046,1725,38.0238,23.7875,13,11,50f56332e4b0ba7319828648,Απέναντι,38.0280246070395,23.789368510015983,Greek Restaurant
1718,1397,38.00380000000001,23.7475,9,8,50f5b9fae4b060d13046cb5a,αθος,38.0069989464359,23.749857425196577,Greek Restaurant
442,121,37.9438,23.7475,13,4,50f85ba5e4b09b9b61096ccb,A Grill,37.944694190645684,23.74333781113849,Greek Restaurant
1986,1665,38.0238,23.73416666666667,21,0,50f87a57e4b0dbf7d1cf2b09,Αρόλιθος,38.0225386440444,23.738568892175177,Meze Restaurant
1493,1172,37.99380000000001,23.73416666666667,38,28,50f94bf6e4b01f651c237342,Λέσχη Καθηγητών ΑΣΟΕΕ,37.99388712345173,23.73185565809825,Greek Restaurant
1334,1013,37.9838,23.76083333333333,50,44,50fbe529e4b0b7770fe1d41f,Η Θράκα,37.97953268884158,23.762048074237992,Greek Restaurant
1768,1447,38.00380000000001,23.7875,17,13,50fe83a0e4b0096f9f41f32c,grandmother's table,38.00421524047852,23.78962135314941,Greek Restaurant
2798,502,37.98153907066761,23.723682637136267,34,28,5102de5229a61991eb423a18,Nasir Ahamed Naeem,37.98137360299733,23.72322678565979,Pakistani Restaurant
1904,1583,38.0138,23.73416666666667,17,11,5102e65be4b051d6b12d7ed3,Τσιμπιδας,38.01167,23.738213000000002,Greek Restaurant
2769,473,37.986060929332396,23.723682637136267,26,25,5103d4e8e4b0280b03e452a8,Balkan,37.98541623922433,23.722988198679246,Eastern European Restaurant
1941,1620,38.0138,23.7875,11,10,5103f171e4b0a221c9e122ef,Εμαγιέ,38.015415999999995,23.791042,Greek Restaurant
2094,1773,38.03380000000001,23.7075,20,2,51044b37e4b0f8cf19af76b7,Της Μηλιάς το Λάζο,38.0323869563619,23.70934387903041,Greek Restaurant
1458,1137,37.99380000000001,23.72083333333333,25,18,5105484ee4b051d6c15ff599,ο Γαβρίλης,37.992196231398076,23.72299982060953,Greek Restaurant
453,132,37.9438,23.76083333333333,13,2,51056ddbe4b02656c750f370,Το Σπιτικό της Απόλαυσης,37.94269943237305,23.76027870178223,Greek Restaurant
2239,1918,38.04380000000001,23.7475,24,0,5106e0c1e4b06568caac4468,Peperi (Πέπερι),38.04341023218828,23.75315487384796,Greek Restaurant
1583,1262,37.99380000000001,23.774166666666666,20,8,510c0a0ae4b0779161852d9b,Σκαντζόχοιρος,37.996826,23.773236999999998,Meze Restaurant
1357,1036,37.9838,23.774166666666666,25,17,510c4ca1e4b04cfd277fa36b,Peinakio (Πεινάκιο),37.98205411576903,23.7700963744432,Greek Restaurant
2064,1743,38.03380000000001,23.68083333333333,23,15,510f00e4e4b0c180cd4241d5,Κρητικη Κουζινα,38.037029103399504,23.67799783065652,Cretan Restaurant
1631,1310,38.00380000000001,23.68083333333333,14,7,511115b2e4b0ed5bb5b71e12,Το Στέκι Του Σπύρου,38.0012092590332,23.68405532836914,Greek Restaurant
1669,1348,38.00380000000001,23.72083333333333,24,19,51115cafe4b06f1f35f441c1,Γιαννιώτικο,38.00403502257992,23.724127146648282,Greek Restaurant
877,556,37.963800000000006,23.76083333333333,21,20,511175ade4b06821d2171646,Ψησταριά Κώστας,37.960726121115336,23.760194509451875,Greek Restaurant
585,264,37.9538,23.72083333333333,33,19,5111f4c8e4b04052321bc3c8,Athens Atrium Restaurant,37.954558,23.717899,Greek Restaurant
1907,1586,38.0138,23.73416666666667,17,14,51124e12e4b0f8a5c2e38a09,"Εστιατόριο ""Σαμαρτζής""",38.01379,23.735229999999998,Greek Restaurant
871,550,37.963800000000006,23.76083333333333,21,14,5112cfa4e4b079bb42b919dc,Ψησταριά Λιβαδεια,37.959572273911945,23.760206130568037,Greek Restaurant
590,269,37.9538,23.72083333333333,33,24,5117dcf0e4b03e9927153999,Beijing Roast Duck,37.955734601835815,23.717119091709442,Chinese Restaurant
2051,1730,38.03380000000001,23.68083333333333,23,2,511ab943e4b08d6c8a99f012,Ψητοπωλείο Βενέτης,38.03257751464844,23.67728614807129,Greek Restaurant
2226,1905,38.04380000000001,23.7075,4,0,511ff9bde4b02c9c5f5744bc,Ιναχος,38.04610397804822,23.70346881211412,Greek Restaurant
2071,1750,38.03380000000001,23.68083333333333,23,22,512124e2e4b002b6f127d81c,"mesetzidiko ""o mpampis""",38.03238680923685,23.68106045516296,Greek Restaurant
2234,1913,38.04380000000001,23.73416666666667,5,0,51228a6ee4b06dc36e7471b0,"Ψητοπωλειο ""Ο ΣΤΕΦΑΝΟΣ""",38.0451380511824,23.729378777838846,Greek Restaurant
2052,1731,38.03380000000001,23.68083333333333,23,3,51228d5de4b0e64a4981fba4,Ο Βολιώτης,38.03762843927564,23.678967392794103,Tsipouro Restaurant
2139,1818,38.03380000000001,23.73416666666667,43,24,512919c9e4b051c7155f2f38,Μεζεδοπωλειο Αλμύρα,38.0323097665041,23.735591118123637,Meze Restaurant
875,554,37.963800000000006,23.76083333333333,21,18,512cbb37e4b08e4cb9725099,Φορμίωνος Υεύσεις,37.96508675469044,23.756353716515182,Greek Restaurant
435,114,37.9438,23.73416666666667,26,23,512d11b8e4b0de0f1e2262ac,η γωνια της γευσης,37.943803926082,23.735754736828767,Greek Restaurant
831,510,37.963800000000006,23.7475,48,22,51364289e4b0fe6e02f600f3,"Ψησταριά ""Ο Χρήστος""",37.966317,23.747997,Greek Restaurant
840,519,37.963800000000006,23.7475,48,31,51364f0fe4b082d2763444a2,ΜΠΟΝΙΤΑ,37.96622,23.748998,Italian Restaurant
838,517,37.963800000000006,23.7475,48,29,5138f0d4e4b0a107b99cc684,Ο ΠΕΖΟΔΡΟΜΟΣ,37.96553449364756,23.752233984685102,Greek Restaurant
1153,832,37.9838,23.68083333333333,8,7,5138f599e4b019c70f51ce52,Ταβέρνα Παρμαξής,37.986403,23.679266000000002,Greek Restaurant
1601,1280,38.00380000000001,23.6675,29,6,5138f783e4b01d4659751df5,Φεγγαρόπετρα,38.002527572586864,23.67076143048284,Greek Restaurant
794,473,37.963800000000006,23.73416666666667,24,9,5138f7c2e4b0e3c7b6c8b82a,Μαγικες Κατσαρολες,37.9656982421875,23.73029708862305,Greek Restaurant
1920,1599,38.0138,23.7475,20,10,51390e8fe4b0aa76fdea4f79,Κυνιδαριότικος Σύλλογος Νάξου,38.014792,23.752693,Greek Restaurant
915,594,37.9738,23.7075,30,13,513a2b30e4b054473b444857,En Tram (Εν Τραμ),37.975412487398046,23.70841991131898,Greek Restaurant
651,330,37.9538,23.76083333333333,20,3,513a4ea9e4b043e869b1992e,Σιώκος,37.95318776140057,23.763227612065567,Greek Restaurant
827,506,37.963800000000006,23.7475,48,18,513cd4ade4b099fece264eff,Πρωταθλητές,37.96390879315638,23.747678418729173,Grilled Meat Restaurant
2011,1690,38.0238,23.7475,25,4,5140cbd4e4b0249df6b45df5,To Vareli,38.020625,23.745172,Greek Restaurant
870,549,37.963800000000006,23.76083333333333,21,13,51422093e4b09f7dd6fc6625,Ψητογωνία,37.96737463700214,23.76404108488776,Grilled Meat Restaurant
1898,1577,38.0138,23.73416666666667,17,5,5144ea4ee4b0d65feb98c134,Κουτουκι Καλαμπαλικι,38.01142440082601,23.73365702439427,Greek Restaurant
853,532,37.963800000000006,23.7475,48,44,5148ce85e4b05d386617db48,Στράτα,37.967434999999995,23.744705,Greek Restaurant
2954,658,37.986060929332396,23.737015970469603,43,36,5149be6de4b07b89b10424db,Ο Τσέλιγκας,37.985234000000005,23.736887,Greek Restaurant
1097,776,37.9738,23.76083333333333,23,15,514a1c11e4b010b2dcf6b592,Η Ωραία Τήνος,37.977800249388025,23.762356032645183,Greek Restaurant
445,124,37.9438,23.7475,13,7,514a471ae4b02ad9b3c05b55,Villa μεζέδες,37.944070135182784,23.743628348231244,Greek Restaurant
2050,1729,38.03380000000001,23.68083333333333,23,1,51507822fe70d4f5a6e49bc0,Ανδρέας,38.0354905745299,23.68475049734116,Grilled Meat Restaurant
2161,1840,38.03380000000001,23.7475,5,3,5153588ee4b012dfe1aaad90,Πεντανόστιμο,38.03239236725826,23.747806254022894,Greek Restaurant
672,351,37.963800000000006,23.6675,5,3,51542970e4b05e27dd9d639f,Asterix,37.965423473303616,23.66374797522072,Greek Restaurant
1879,1558,38.0138,23.7075,42,41,5155d149e4b0c4a4dd3af317,Μπαρμπα Γιαννης,38.01650699957578,23.70699618438954,Meze Restaurant
430,109,37.9438,23.73416666666667,26,18,515602e0e4b046bb0e663943,Θαλεια,37.94415,23.738191,Greek Restaurant
1760,1439,38.00380000000001,23.7875,17,5,51599fe8e4b06ee01eb0ec66,Διοσκουροι,38.00383105720547,23.787718400933,Greek Restaurant
2135,1814,38.03380000000001,23.73416666666667,43,20,5159e003e4b02bc22b04e837,Σούσουρο,38.030616760253906,23.73600006103516,Greek Restaurant
1372,1051,37.99380000000001,23.6675,13,7,515f1d0fe4b0b7826716acb1,Ψητόπωλειο Ο Αλεκος,37.992326,23.671359,Greek Restaurant
774,453,37.963800000000006,23.72083333333333,43,32,5167076fe4b0e7536ba53ee4,Ολυμπίου Αμάλθεια,37.963072,23.721657,Greek Restaurant
2588,292,37.9760609293324,23.737015582261034,21,11,516852d6e4b0c53c237b0aff,Γιαντες,37.97806,23.73631,Mediterranean Restaurant
2096,1775,38.03380000000001,23.7075,20,4,5168570ae4b03f0133cabb25,Ζηλευτό,38.03757095336914,23.705907821655273,Mediterranean Restaurant
1143,822,37.9838,23.6675,10,7,5168625e498eae5592625b84,Black Red,37.986289,23.663411,Greek Restaurant
1723,1402,38.00380000000001,23.76083333333333,5,4,516a9febe4b0ac78b9ce8687,Ovelistirio,38.00548922123717,23.76490685100833,Greek Restaurant
1942,1621,38.0238,23.6675,2,0,516ab56a498ef5fb9ed16573,Το Παραδοσιακο,38.02151804820189,23.671831849677638,Greek Restaurant
655,334,37.9538,23.76083333333333,20,7,516c278fe4b075b2e2175041,Αυρα,37.95583049165617,23.76015383554326,Greek Restaurant
2091,1770,38.03380000000001,23.69416666666667,20,19,516d9db7e4b0f8311e6002b5,DSQ,38.0346794128418,23.69021987915039,Italian Restaurant
458,137,37.9438,23.76083333333333,13,7,51719c0ae4b0708b1ef51943,Καλικαντζαράκι,37.94224158556511,23.758823215943323,Grilled Meat Restaurant
1747,1426,38.00380000000001,23.774166666666666,31,23,51754959e4b00121015ff902,"Τάκης ""Καλό Σπιτικό Φαγάκι""",37.99951466207789,23.77282651104381,Greek Restaurant
2240,1919,38.04380000000001,23.7475,24,1,517837d6e4b0c6af6c5acf65,Αρχονταράκι,38.042356925037225,23.751900021049188,Greek Restaurant
2220,1899,38.04380000000001,23.68083333333333,17,16,517ac967e4b0d7f64debb8f5,Σχοινοβάτης,38.04133373693706,23.68459036357915,Meze Restaurant
1668,1347,38.00380000000001,23.72083333333333,24,18,517fb18ee4b00ad002bcc264,"Μεζεδοπωλείο ""Η Πελοπόννησος""",38.004714,23.716708999999998,Greek Restaurant
1101,780,37.9738,23.76083333333333,23,19,51817c8d5262ee0a1c1d7e3b,Γραμμές των Οριζόντων,37.97549937859626,23.763491369266518,Greek Restaurant
801,480,37.963800000000006,23.73416666666667,24,16,518248b0498e35b66eac7293,Παρνασσός,37.96501563771684,23.730408749797867,Greek Restaurant
355,34,37.9438,23.69416666666667,30,5,5184010c498ed4872e62d1f9,Ελιές,37.94607510904309,23.690586669717646,Greek Restaurant
895,574,37.9738,23.69416666666667,9,2,51841bfee4b06e8e93185867,Κοχύλι,37.971861019562176,23.69697621366372,Greek Restaurant
2198,1877,38.03380000000001,23.774166666666666,21,20,51843133498e75097dff8634,Πριν Το Πάσχα,38.03787107289357,23.772437212870226,Greek Restaurant
2197,1876,38.03380000000001,23.774166666666666,21,19,51891d45abd830534bc06070,Αντάμα,38.03397160925768,23.769114017486572,Greek Restaurant
1658,1337,38.00380000000001,23.72083333333333,24,8,518fda2c498e204717000b26,Γιάννης,38.004208,23.723330999999998,Greek Restaurant
1608,1287,38.00380000000001,23.6675,29,13,518ff77c498e59f774a36847,λελα,38.000175852513365,23.668589015674,Greek Restaurant
2686,390,37.97153907066761,23.750348915594362,14,12,51926df2498ed7b0a72955c1,Ellinko,37.973363,23.750612,Greek Restaurant
2176,1855,38.03380000000001,23.76083333333333,15,13,519288b7498ed7b0a843c55d,Γευση Και Ουσια,38.032726000000004,23.760285,Greek Restaurant
2092,1771,38.03380000000001,23.7075,20,0,5197a411498e8ad73a7b990e,Ίλιον Grill Γεύσεις,38.029481816005244,23.707109676834673,Greek Restaurant
664,343,37.9538,23.76083333333333,20,16,5197d8bf498e47b45c3cb911,ΕΛΛ-ΟΙΝΩΝ ΠΑΡΑΔΟΣΕΙΣ,37.95485351264754,23.76342516986669,Greek Restaurant
348,27,37.9438,23.68083333333333,16,14,5197eaee498e28471dfe0270,Ο Κήπος Με Τα Λάχανα,37.947669,23.678787,Greek Restaurant
2120,1799,38.03380000000001,23.73416666666667,43,5,5198c266498e4d7daac29460,Byράκι,38.03581301631947,23.736155652725234,Meze Restaurant
1883,1562,38.0138,23.72083333333333,13,3,519e6129498e937de55bdb21,Γυράδικο,38.0137267884546,23.722982387714016,Greek Restaurant
3144,848,37.99153907066761,23.683683025537466,8,2,519ff20c498e6dbb347ac31c,Το Λουκουμι,37.989915920376475,23.685331828804642,Greek Restaurant
647,326,37.9538,23.7475,22,21,51aa4a4e498e877bbcd01589,Μπρουσκούνια,37.95520684403789,23.74664838787385,Meze Restaurant
2939,643,37.986060929332396,23.737015970469603,43,21,51ae6aea501944acb341e276,Εξ Αρχής,37.98644627954614,23.734951670992277,Greek Restaurant
1902,1581,38.0138,23.73416666666667,17,9,51af519b498e9b2888199394,Samartzis Restaurant,38.01324844360352,23.735334396362305,Greek Restaurant
835,514,37.963800000000006,23.7475,48,26,51af85b4498ef95b029d4400,πάμε πάνο,37.96642,23.748213,Greek Restaurant
2256,1935,38.04380000000001,23.7475,24,17,51b0d672498e0349f3c02fcb,Αρχονταρίκι,38.042260999999996,23.751870999999998,Meze Restaurant
1642,1321,38.00380000000001,23.69416666666667,9,4,51b2098b498ec9c1dbe709ac,Roof Garden,38.00559235959792,23.697541380219,South American Restaurant
1604,1283,38.00380000000001,23.6675,29,9,51b23a63498e058bb3f5c65b,Λαδόκολλα,38.00214834109885,23.663290398592014,Greek Restaurant
657,336,37.9538,23.76083333333333,20,9,51b7685b498e1d02ec569241,Βούργιας,37.9553082582663,23.76333220149893,Greek Restaurant
2010,1689,38.0238,23.7475,25,3,51ba0761498e91c3f4c6bec9,Ο Παντελης,38.022372913243295,23.74610952852087,Greek Restaurant
2181,1860,38.03380000000001,23.774166666666666,21,3,51c0b7af498e3425b4c4c0c9,Panaitolio Restaurant,38.035511,23.775077,Greek Restaurant
2016,1695,38.0238,23.7475,25,9,51c6d691498ea67eb474a72d,Ταβέρνα Ο Νίκος,38.026818,23.74471,Greek Restaurant
1361,1040,37.9838,23.774166666666666,25,21,51ca8743498e7051c885e80e,Ταβέρνα Λεβέντης,37.987194787426745,23.77348308790452,Greek Restaurant
634,313,37.9538,23.7475,22,8,51cc7e55498eb5a3db999599,Το Κουτούκι του Νικόλα,37.957326,23.748206,Greek Restaurant
1351,1030,37.9838,23.774166666666666,25,11,51cdf125ccda4632474541fb,Μαρουβας,37.981749920068594,23.76925349235535,Mediterranean Restaurant
614,293,37.9538,23.73416666666667,27,15,51d33416498e147a8fe61cfd,Στεκι Του Κωστα,37.95148592323982,23.73523757303443,Greek Restaurant
1486,1165,37.99380000000001,23.73416666666667,38,21,51d5d8bc498e004faff3a4fb,Το Αστάρι,37.996919385636026,23.732552961902307,Greek Restaurant
1313,992,37.9838,23.76083333333333,50,23,51d6b8cc498e776f25120da3,Raeti,37.98791470400165,23.75991560258684,Greek Restaurant
2079,1758,38.03380000000001,23.69416666666667,20,7,51d96ba0498e1aa1cf4b25a0,Η αργώ,38.02960586547852,23.69540596008301,Greek Restaurant
3059,763,37.98153907066761,23.76368263713627,29,19,51e6e4f1498eebe26a5f456e,Διανθος,37.981891999999995,23.764523,Greek Restaurant
1949,1628,38.0238,23.68083333333333,10,5,51e82e4b498e2ce9674d3749,Τριγυρο Πλατεια,38.025427478615796,23.67666700745548,Greek Restaurant
839,518,37.963800000000006,23.7475,48,30,51e86020498e075e2d54816e,Αθηνων Γευσεις,37.967425,23.744951,Greek Restaurant
1576,1255,37.99380000000001,23.774166666666666,20,1,51ecf38b498ee472fc64ea24,Ριγανη Και Δυοσμος,37.993780856268685,23.77474975598047,Mediterranean Restaurant
628,307,37.9538,23.7475,22,2,51ed93c5498e90e31095c0d9,Κάτι τι... στον Υμηττό,37.954757965354844,23.745778880420986,Grilled Meat Restaurant
2001,1680,38.0238,23.73416666666667,21,15,51f058a6498ed0db52f28661,Στέκι Εποχών,38.021568,23.734832,Greek Restaurant
2058,1737,38.03380000000001,23.68083333333333,23,9,51f97ade498ebc3c20862b82,Ο Τσελιγκας,38.037079999999996,23.677252,Greek Restaurant
856,535,37.963800000000006,23.7475,48,47,51fabdf8011c887eb71c2d7a,Πιάτσα Τσιπουράκι,37.966002150131004,23.743595480918888,Tsipouro Restaurant
2261,1940,38.04380000000001,23.7475,24,22,51febccd498ebaa70790d895,"Ψητοπωλείο ""Ο Κώστας""",38.04072071847101,23.745139138548698,Greek Restaurant
424,103,37.9438,23.73416666666667,26,12,5204e3fa498e0e38306f9f35,Μαγειρεματα,37.94086448846679,23.730856187723326,Greek Restaurant
1287,966,37.9838,23.7475,18,15,5212810311d28123bef46d1f,Mythos,37.98180258656145,23.75086267048905,Greek Restaurant
1656,1335,38.00380000000001,23.72083333333333,24,6,521513da11d2f91ce60f1235,Αυτό μας Έλειπε,38.00153616480544,23.718788585706026,Tsipouro Restaurant
2778,482,37.98153907066761,23.723682637136267,34,8,5218b32f11d2f9bf3dd9a977,Meidanis (Στου Μεϊδάνη),37.980281080892226,23.725827186314906,Greek Restaurant
1776,1455,38.0138,23.6675,5,4,5219ea5811d2b4b46ed62bf3,Η Κληματαρια,38.017706,23.669468,Greek Restaurant
2054,1733,38.03380000000001,23.68083333333333,23,5,522100cf11d2113fc6dca0cd,ainos,38.03343963623047,23.67763710021973,Greek Restaurant
804,483,37.963800000000006,23.73416666666667,24,19,5221064811d231a0627e07c0,Παρνασσός 1965,37.9652907965471,23.730476367353077,Greek Restaurant
414,93,37.9438,23.73416666666667,26,2,52233ed6498e69ee51bc1225,Τα Φιλετάκια του Φιξ,37.947496418553904,23.735505515260638,Greek Restaurant
1362,1041,37.9838,23.774166666666666,25,22,5229d59211d267ae4a585896,Grazy peach (BIOS Restaurant ),37.983742,23.774524,Greek Restaurant
1352,1031,37.9838,23.774166666666666,25,12,522a4ac011d22c9b3ffe38c8,ellaikon,37.983445905402064,23.769020673203396,Greek Restaurant
457,136,37.9438,23.76083333333333,13,6,522e1fad498e7ffc055edd60,Ο Χιώτης,37.940795,23.758975,Greek Restaurant
1094,773,37.9738,23.76083333333333,23,12,522f72fd11d2e7a7d63b049d,anthos,37.977635844104064,23.76221657980389,Greek Restaurant
2109,1788,38.03380000000001,23.7075,20,17,5230cf1c11d221424845a860,Κρίταμο,38.02963499344112,23.70712550431736,Meze Restaurant
9,9,37.9738,23.73416666666667,11,9,52321406498e6d691bdf9e40,Ευγενία,37.974106,23.733558,Greek Restaurant
620,299,37.9538,23.73416666666667,27,21,5234b045498ed2132005e4c3,Η πίττα του Μερακλή,37.950278999999995,23.735609,Greek Restaurant
494,173,37.9538,23.68083333333333,30,10,5234b30511d25bafc84d52e5,Ολυμπία,37.95272445678711,23.67894744873047,Tsipouro Restaurant
1694,1373,38.00380000000001,23.73416666666667,36,20,5238c7be7e48d4c2b9b290ed,Ouzeri - kafenes - simeio sinandisis allodapon,38.001472152522936,23.73694896697998,Greek Restaurant
2793,497,37.98153907066761,23.723682637136267,34,23,523aefab498e44c83396646f,Безымянный Ресторанчик,37.98135899547135,23.726468955523487,Greek Restaurant
2095,1774,38.03380000000001,23.7075,20,3,523c94ca498edcd749a9edf3,Καλλιοπάκι,38.035942999999996,23.706989,Meze Restaurant
345,24,37.9438,23.68083333333333,16,11,523d955f11d218da51f5b6b1,Παλιά Ξάνθη,37.94319244488623,23.686313949446102,Tsipouro Restaurant
1024,703,37.9738,23.73416666666667,50,42,5241e7e411d285ad0e3cf8a6,Psara,37.97302948305721,23.728665481577657,Greek Restaurant
1141,820,37.9838,23.6675,10,5,524b0f6011d2b1a74f0a852d,Μια Στάση Εδώ,37.986292249373385,23.6697151922796,Greek Restaurant
3116,820,37.99153907066761,23.67798364112919,41,19,524df34f8bbd82eeaea43df2,Βραστό-Πατσάς 24hr,37.990108735429295,23.6775541305542,Patsa Restaurant
1210,889,37.9838,23.72083333333333,50,38,525019d811d2757226c36bf5,καλτ ταβερνειο,37.97957229614258,23.722028732299805,Greek Restaurant
822,501,37.963800000000006,23.7475,48,13,5255bc9411d21da79bd45de7,Ωραία Ελλάς,37.966306271922186,23.74425103265677,Meze Restaurant
1149,828,37.9838,23.68083333333333,8,3,52570ddd11d28914a1a53039,π,37.9858476575491,23.68321067464161,Greek Restaurant
845,524,37.963800000000006,23.7475,48,36,52583b48498e27cf96cbe760,Paella Barcelona,37.96767855957873,23.744615472551953,Paella Restaurant
1885,1564,38.0138,23.72083333333333,13,5,5259388511d2b20fd92ebbd1,Καφε ουζερι η γωνια,38.01370622647628,23.72322763456831,Greek Restaurant
2249,1928,38.04380000000001,23.7475,24,10,52598db411d255831292a2f4,Αρχονταράκι,38.0443288048999,23.75294288300159,Greek Restaurant
1963,1642,38.0238,23.69416666666667,11,9,525bfa4c11d2124c8723cb1e,ΜΑΚΑΡΟΝΑΔΕΣ,38.02084207746925,23.693932588472748,Italian Restaurant
1634,1313,38.00380000000001,23.68083333333333,14,10,5262cdd111d27c7ca5455040,Απτάλικο,38.00488246639893,23.67882886708459,Greek Restaurant
675,354,37.963800000000006,23.68083333333333,5,1,52695296498e596ac88fe3ab,Ορεστης,37.961498165542494,23.681542802430812,Greek Restaurant
1713,1392,38.00380000000001,23.7475,9,3,526bbd2211d24f4dd3ffb260,Αμπάρι του Πεντάρα,38.0072021484375,23.74971008300781,Greek Restaurant
2791,495,37.98153907066761,23.723682637136267,34,21,526cf70b11d24e4787c7297b,Nuri Indian Restaurant,37.9803,23.725212,Indian Restaurant
1700,1379,38.00380000000001,23.73416666666667,36,26,5273ef9211d2503405e554f0,Ελλήνων πέλαγος,38.0009880065918,23.73261260986328,Greek Restaurant
666,345,37.9538,23.76083333333333,20,18,5273fd1f11d2241e930a70ef,La Nostra Trattoria,37.956148,23.758726,Italian Restaurant
1364,1043,37.9838,23.774166666666666,25,24,52753a3b11d2f813d028e07b,Pekino Restaurant,37.98130449084701,23.771036899136487,Chinese Restaurant
2535,239,37.9760609293324,23.7313177510723,50,47,527cc1b7498e63a48e9c7649,Τό Άνθος,37.977584863317425,23.731315247023296,Greek Restaurant
1582,1261,37.99380000000001,23.774166666666666,20,7,5282801411d25213d27f498c,Το Πικαντικο,37.99814678501693,23.774924067860923,Greek Restaurant
2111,1790,38.03380000000001,23.7075,20,19,5288928e498efe66b41a47dd,Οινοποιήματα,38.030895,23.708593,Greek Restaurant
2595,299,37.9760609293324,23.737015582261034,21,18,528a765911d2158e411a1596,Ελιά & Τσίπουρο,37.977219681568535,23.73699825221111,Tsipouro Restaurant
1722,1401,38.00380000000001,23.76083333333333,5,3,528fb4b4498e9f59b68f7731,Σταθησ,38.000205,23.763199,Greek Restaurant
2089,1768,38.03380000000001,23.69416666666667,20,17,5291f4e1498eb14ac78f52c0,Αργώ Τσιπουράδικο,38.033623,23.69605,Tsipouro Restaurant
3107,811,37.99153907066761,23.67798364112919,41,10,5293a39211d25aa98d7da649,Ο Χρηστος,37.98948811935593,23.678642901000487,Greek Restaurant
2280,1959,38.04380000000001,23.774166666666666,11,2,529645f911d2c01eb4fbbc96,ΜεζεδοΜαγειες του Νικολα,38.042496,23.771406,Greek Restaurant
791,470,37.963800000000006,23.73416666666667,24,6,52994d0a11d283046e72d28a,Οινομαγειρείο Το Σπιτικό,37.96253,23.729193,Greek Restaurant
438,117,37.9438,23.7475,13,0,529e106111d23184efd06359,Κροκόδειλος,37.94411326042803,23.743514161513268,Meze Restaurant
3278,982,38.0160609293324,23.697017136251517,7,4,529e3ec0498eab0e9c7a8414,Το Ρακαριό,38.017634,23.698798999999998,Greek Restaurant
450,129,37.9438,23.7475,13,12,52a0b928498e1fd1547a9c9b,Ψητοπωλειο Η Πλατεία,37.94607422972976,23.743454025994676,Greek Restaurant
1408,1087,37.99380000000001,23.68083333333333,50,30,52a36fff11d2da852a4a5b5c,Ευ Ζην,37.99025867000624,23.681258043251862,Greek Restaurant
1763,1442,38.00380000000001,23.7875,17,8,52a3813b11d2da852b7ac424,42 B Bistrot,38.007011999999996,23.787905,German Restaurant
1620,1299,38.00380000000001,23.6675,29,25,52a7526611d2ad09191ebb71,ΡΑΚΙ και ψύχραιμοι,38.006794410182216,23.66423105518807,Greek Restaurant
1429,1108,37.99380000000001,23.7075,11,0,52a7709c498ee459e6b9b696,guropitoulis,37.99562204174282,23.71110276125275,Greek Restaurant
876,555,37.963800000000006,23.76083333333333,21,19,52a77a3d11d272b1fabf7fb7,"Μεζεδοπωλείο ""Η Λόξα""",37.95936125466655,23.76051990060769,Greek Restaurant
1531,1210,37.99380000000001,23.76083333333333,50,6,52acb73f498e057b3bee1239,Streetwok,37.99326927134753,23.76576032114439,Asian Restaurant
1432,1111,37.99380000000001,23.7075,11,3,52adba52498ea34d8596f909,cafe μεζεδοπολειο ο Πλατων,37.993059,23.709647,Greek Restaurant
1665,1344,38.00380000000001,23.72083333333333,24,15,52b21204498ea21905285f52,Μπερδέματα,38.00658795803384,23.71700868215152,Greek Restaurant
1875,1554,38.0138,23.7075,42,37,52b4a7d4498ecc4f7b76c45a,Όπα Λέω,38.010461355408886,23.70658940457713,Mediterranean Restaurant
201,201,37.9771913939986,23.73274225274667,11,10,52bc5369498ed57ba92294a1,ΑΡΤΙΖΑΝ,37.97681909950153,23.73199072569639,Greek Restaurant
2114,1793,38.03380000000001,23.72083333333333,3,2,52be056b498edf02408d390f,μεζεδοπωλειο μουριες,38.03163417708723,23.723935385169987,Meze Restaurant
107,107,37.9771913939986,23.722257747253327,28,13,52bf58ae498e01893b211e84,Στοά του Κώστα,37.97797488204154,23.72193060196871,Greek Restaurant
2649,353,37.97153907066761,23.74465108440563,31,24,52c71b3811d24f3848c5209f,Οιναποθήκη,37.97059315111312,23.74249525267009,Greek Restaurant
1901,1580,38.0138,23.73416666666667,17,8,52c73552498ec0823f72cb85,Μαμ Μαμ,38.011392,23.735113000000002,Greek Restaurant
2979,683,37.98153907066761,23.737015970469603,26,18,52c81c42498e73da136a5315,The Grocery,37.980618544758116,23.73797176844085,Greek Restaurant
1739,1418,38.00380000000001,23.774166666666666,31,15,52c8504a498eab8ce816af35,Το Αγνάντι,38.00425532085053,23.77637085422574,Greek Restaurant
1927,1606,38.0138,23.7475,20,17,52c95653498e4252017a0ac2,Κουτουκι η Ναξος,38.013216,23.750693,Greek Restaurant
561,240,37.9538,23.7075,30,25,52cafc60498e5d88aea0cfe8,challet restaurant,37.954936,23.708375,Italian Restaurant
1915,1594,38.0138,23.7475,20,5,52d1402111d2998bdcd7212e,Τσιπουρομεζέδες,38.01774597167969,23.74988555908203,Tsipouro Restaurant
1615,1294,38.00380000000001,23.6675,29,20,52d2dca011d20cfd6093a5b3,Ίριδα (Αίθουσα Δεξιώσεων),38.001831044072205,23.66353875762741,Greek Restaurant
1157,836,37.9838,23.7075,18,3,52d83179498e33565644773f,Εις το παυσίλυπον,37.98338424201712,23.711526077152733,Meze Restaurant
903,582,37.9738,23.7075,30,1,52d85aa1498e2843640b8bc9,Andaman,37.9701397180948,23.70436739372213,Thai Restaurant
906,585,37.9738,23.7075,30,4,52ded1de11d2ec0e9aaf6a16,Βόλτα,37.97256431239117,23.710383854040078,Greek Restaurant
1082,761,37.9738,23.76083333333333,23,0,52e2d45d498e0dd528dfdd8a,Ιλίσια Παιδεία,37.9748073306006,23.766319074259034,Greek Restaurant
1142,821,37.9838,23.6675,10,6,52e3f05b498e2f5892cc66fe,"Ψητοπωλείο ""Ο ΖΑΡΑΚΑΣ""",37.98452104168622,23.66996635073371,Greek Restaurant
1976,1655,38.0238,23.72083333333333,12,2,52e42066498ef836a358b97e,Γκολ στη Γεύση,38.021147567552255,23.72019311712941,Greek Restaurant
497,176,37.9538,23.68083333333333,30,13,52e5113b498ec75b7235418e,Τρεις Ελιές,37.94987146233603,23.679433255544506,Greek Restaurant
1618,1297,38.00380000000001,23.6675,29,23,52e93ba511d21676c6ef6888,Μεζεράκη,38.007130094370474,23.664832038009987,Greek Restaurant
1859,1538,38.0138,23.7075,42,21,52ea5729498e96a61438bb86,Δυτική Όχθη,38.01482772827149,23.70989227294922,Greek Restaurant
390,69,37.9438,23.7075,18,10,52f4e21f498e301b7abf5476,Πορφύρες,37.946590588496406,23.71059326681432,Greek Restaurant
1957,1636,38.0238,23.69416666666667,11,3,52f57e27498e2bec839d7e03,Μεράκι,38.02189232431101,23.6984711777462,Meze Restaurant
1757,1436,38.00380000000001,23.7875,17,2,52f68fba498e677d5cf18543,Το Βαγόνι,38.001097660158244,23.791242055890283,Meze Restaurant
1586,1265,37.99380000000001,23.774166666666666,20,11,52f69243498eb76b9d0374b7,Σκατζοχοιρος,37.99674818316228,23.77320418809971,Greek Restaurant
2188,1867,38.03380000000001,23.774166666666666,21,10,52fa4a3d498e15f659256e21,Ψητοπωλείο Πάρης,38.03672183384987,23.77039775054493,Greek Restaurant
2956,660,37.986060929332396,23.737015970469603,43,38,52fbd8b2498edc0794043c3d,Στα Ντουζένια,37.98673483487322,23.734935409686265,Greek Restaurant
1117,796,37.9738,23.774166666666666,31,12,5303ac1e498e6f8b7cb06f77,τα 6 αδερφια,37.976539611816406,23.774890899658203,Greek Restaurant
750,429,37.963800000000006,23.72083333333333,43,8,5304e6e711d2bfed1e9575c9,Σκουμπρί,37.965617852559255,23.72578882234891,Seafood Restaurant
517,196,37.9538,23.69416666666667,22,3,5304ef72498e27dd55a52207,Ο Βασίλης,37.95560818234368,23.697273955517158,Greek Restaurant
2070,1749,38.03380000000001,23.68083333333333,23,21,530b8327498eefe045feae31,Τζάμπας - Ψητοπωλει´ο,38.034084,23.679009,Greek Restaurant
90,90,37.9760609293324,23.723682248927695,29,25,5315a3fd498eefbe4aa6cdea,ο παλιάτσος,37.976323,23.723744,Meze Restaurant
2850,554,37.9838,23.73416666666667,50,46,532394ca498e3d2de6cd404d,Αντέστε,37.984862574952885,23.734050772438717,Greek Restaurant
1981,1660,38.0238,23.72083333333333,12,7,53241ce7498e2362a08266b6,metropolitan expo hall 4,38.02369038496041,23.72561474851052,Greek Restaurant
2121,1800,38.03380000000001,23.73416666666667,43,6,5324ac0d498eaaf30f47db0e,Agavita,38.031985999999996,23.737,Mexican Restaurant
681,360,37.963800000000006,23.69416666666667,13,2,5324afab498ed923ef297890,Καραντί,37.964766716205176,23.69946489709036,Greek Restaurant
1933,1612,38.0138,23.7875,11,2,5325f792498efb6504853178,mandaloun,38.014505208346094,23.784281559254108,Middle Eastern Restaurant
418,97,37.9438,23.73416666666667,26,6,53271780498e1119b5a5543e,Τσιπουράδικο της Στοάς,37.94078548887796,23.731844036360464,Tsipouro Restaurant
343,22,37.9438,23.68083333333333,16,9,53274590498e74f533f40ece,Ψητοπωλείο Στέφανος,37.947581189983026,23.680438633358353,Greek Restaurant
1649,1328,38.00380000000001,23.7075,3,2,532b16a4498e0014b2a4c6e4,Το Μοναστήρι,38.00087407609238,23.709686734570976,Greek Restaurant
603,282,37.9538,23.73416666666667,27,4,53308ef3498ebea7a1c00eb6,pitahouse,37.956056,23.735681,Greek Restaurant
850,529,37.963800000000006,23.7475,48,41,5331a60b498eb4e6ddabb99c,Το τσιπουράκι του Θωμά,37.96692276000977,23.74716377258301,Tsipouro Restaurant
2153,1832,38.03380000000001,23.73416666666667,43,38,5334814f498e36eab723f84c,οινοποσιες,38.03229141235352,23.73556137084961,Greek Restaurant
1866,1545,38.0138,23.7075,42,28,53348bb1498e08768853d719,vespa,38.01432444251128,23.707885287769532,Greek Restaurant
2148,1827,38.03380000000001,23.73416666666667,43,33,5336b9a2498e3dfce60abed1,Γευσιπλοια,38.03216235599977,23.73562108780643,Greek Restaurant
1489,1168,37.99380000000001,23.73416666666667,38,24,5339565f498e18ae9fa4f9ce,Εστιατοριο Ο.Π.Α,37.99407095907437,23.732207907314372,Greek Restaurant
2749,453,37.986060929332396,23.723682637136267,26,5,533aa2fe498edecb7f79b833,Κικιρίκου,37.986964,23.725295000000003,Greek Restaurant
1755,1434,38.00380000000001,23.7875,17,0,53428944498e0a5cf6fbd9bc,Φυσαρμόνικα Μεζεδοποτείον,38.0010447411739,23.78786750163121,Meze Restaurant
1630,1309,38.00380000000001,23.68083333333333,14,6,5343e46e498ef97603881df3,ΜπΡΑΚΑτσάΚΙ,38.00488557544951,23.67555584240932,Greek Restaurant
1782,1461,38.0138,23.68083333333333,11,5,5345057f11d2e22f3d649c98,in da kitchen,38.01364517211914,23.67975234985352,Greek Restaurant
806,485,37.963800000000006,23.73416666666667,24,21,534992c4498e6d7985777eaf,Incanto,37.966181771018476,23.736010413125854,Italian Restaurant
1874,1553,38.0138,23.7075,42,36,534e99fe498e4a0ba0abf4ef,Κώστας,38.01567459106445,23.70698356628418,Greek Restaurant
1886,1565,38.0138,23.72083333333333,13,6,534eb1f4498e079b1e2f209b,Το Ματζόρε,38.0175895690918,23.72283172607422,Moroccan Restaurant
2670,374,37.9760609293324,23.750348915594362,18,14,5350f902498eea387b2bb0c8,Diferente,37.97646270244301,23.751116448401113,Latin American Restaurant
479,158,37.9538,23.6675,8,3,5357f4d5498eea6208ebbd03,Μέλπεια,37.95027253031922,23.66643873885421,Greek Restaurant
2272,1951,38.04380000000001,23.76083333333333,15,9,535bb39011d26bc301bb00e7,Η Ψησταριά του Κυριάκου,38.04469255389665,23.76291965416873,Greek Restaurant
523,202,37.9538,23.69416666666667,22,9,535bded4498e1df9f6d32794,Bar Meze,37.95642765937864,23.69639075357223,Meze Restaurant
904,583,37.9738,23.7075,30,2,53615ffa498e48c8f6524200,Το Λαμπόρι,37.97305460229392,23.708194500253754,Greek Restaurant
1452,1131,37.99380000000001,23.72083333333333,25,12,5363cf5c498ee84c7abf6c0b,Damian,37.992008,23.724204999999998,Polish Restaurant
643,322,37.9538,23.7475,22,17,5364f729498e00ff048ef883,Πλατεία Υμηττού 22,37.95475514500578,23.74598169281775,Greek Restaurant
2119,1798,38.03380000000001,23.73416666666667,43,4,5368eb4d498e2748cadbb30f,Ντεμέκ Μεζεδοπωλείο,38.03153029388663,23.736232921339603,Greek Restaurant
922,601,37.9738,23.7075,30,20,536a157f498e991e4a3f66f2,Το μαγειρείο του Μπάμπη,37.977607730551746,23.70621168019123,Greek Restaurant
2383,87,37.9760609293324,23.71798441773897,24,22,536bc1fa498e99c3ef0bdf59,Mikra Asia,37.975765,23.716874,Meze Restaurant
566,245,37.9538,23.72083333333333,33,0,536e4408498ee96803451137,Pizzeria Dei Fratelli,37.95455976334347,23.715762075579864,Italian Restaurant
413,92,37.9438,23.73416666666667,26,1,53725b16498eb5e1011d9ca6,Μουσταρδόμελο,37.939745320159005,23.731909862947873,Grilled Meat Restaurant
382,61,37.9438,23.7075,18,2,5373aaba498e01140173f43b,Μελίνα,37.9401199204059,23.70670115730072,Tsipouro Restaurant
2770,474,37.98153907066761,23.723682637136267,34,0,5374e6b9498e90c75ce9c0b4,Καραμανλίδικα του Φάνη,37.98016872811729,23.725757130252514,Meze Restaurant
797,476,37.963800000000006,23.73416666666667,24,12,5376c3a0498e0cf67f719b1e,Α´ννα,37.962558,23.729432,Greek Restaurant
2782,486,37.98153907066761,23.723682637136267,34,12,537ca630498e5331f9edf6cb,Αναψυκτήριο,37.979354,23.723076000000002,Greek Restaurant
1791,1470,38.0138,23.69416666666667,50,3,537e6a2d498e3b8f366a532a,Φαμελιά,38.01395223327612,23.688698983179968,Meze Restaurant
2146,1825,38.03380000000001,23.73416666666667,43,31,537f6d74498ede9f52b73818,Το ηπιότερο,38.03436878263464,23.73922348022461,Greek Restaurant
1637,1316,38.00380000000001,23.68083333333333,14,13,5381151b498e7fd31bd08168,ΜΟΥΣΕΣ Μουσικό Μεζεδοπωλείο,38.0050890471061,23.6803863305575,Greek Restaurant
1773,1452,38.0138,23.6675,5,1,5381e5fe498e11151192d5e3,Άρωμα Ελλάδος,38.011589530515494,23.664160598571673,Greek Restaurant
1483,1162,37.99380000000001,23.73416666666667,38,18,5383204c498e60dfd7b902d2,Krouskas,37.99311298906517,23.72942670940024,Greek Restaurant
1281,960,37.9838,23.7475,18,9,53837196498e17831b28d585,Τα Άγραφα,37.987177280037756,23.744477327274065,Greek Restaurant
2951,655,37.986060929332396,23.737015970469603,43,33,5384f137498efc318a8df581,Ψηλορείτης,37.98667482693337,23.734877301330428,Greek Restaurant
526,205,37.9538,23.69416666666667,22,12,53860bc7498edc5f92e5c39c,Chef Panda,37.95267,23.691921,Chinese Restaurant
1945,1624,38.0238,23.68083333333333,10,1,538cd1da498e1f530098f359,Κρέας στην Πυρά,38.026352972178366,23.68152777921145,Grilled Meat Restaurant
2123,1802,38.03380000000001,23.73416666666667,43,8,538e099f498e2e5d44dace64,Γυμνάσιο μεζεδοπωλείο,38.03677094545115,23.738423522707386,Meze Restaurant
506,185,37.9538,23.68083333333333,30,22,539078a3498edf251ca2c5d6,TABEPNA To Koytoyki,37.953157,23.679142000000002,Greek Restaurant
2115,1794,38.03380000000001,23.73416666666667,43,0,5390f32e498e4b40507ddeac,Μέλισσες,38.03587559328212,23.73618008822661,Meze Restaurant
1654,1333,38.00380000000001,23.72083333333333,24,4,5394749c498ee0e5e0c6cc60,Αχταρμάς,38.00500869750977,23.7196102142334,Greek Restaurant
2230,1909,38.04380000000001,23.72083333333333,4,0,5394a207498e82b504ac585e,Τσιγκουίνος,38.042023082669694,23.72414457950654,Greek Restaurant
1096,775,37.9738,23.76083333333333,23,14,53962693498e085ff3c4816b,ταρτουφο,37.9774,23.757997,Greek Restaurant
1699,1378,38.00380000000001,23.73416666666667,36,25,539b4a4f498e06f4cc6dc708,LNKO,38.00316401308113,23.735493249579786,Grilled Meat Restaurant
855,534,37.963800000000006,23.7475,48,46,539ec2e0498ea6a8233c9049,Μυρωδιές,37.966118671706454,23.74599331424658,Greek Restaurant
3244,948,38.0160609293324,23.691316197081818,8,3,539ee596498eae48dd9f4813,"Εστιατοριο ""ΘΩΜΑΣ""",38.016869,23.688657,Greek Restaurant
1139,818,37.9838,23.6675,10,3,53a1e667498ee918a16e47b7,"ψητοπωλειο ""καλως ηλθατε""",37.98495710229361,23.665410089945738,Greek Restaurant
1449,1128,37.99380000000001,23.72083333333333,25,9,53a31948498eb59f8a57459e,Riyadh Bangla Rstaurant,37.99302,23.723041000000002,Pakistani Restaurant
324,3,37.9438,23.6675,13,3,53a34669498e183ecb11b9ea,ΧΡΥΣΟ ΣΚΟΥΦΑΚΙ,37.946215,23.66909,Greek Restaurant
3189,893,37.9960609293324,23.763683025537468,17,16,53ac6972498e8319710403fa,Έτσι και αλλιώς,37.99418,23.76452,Meze Restaurant
1606,1285,38.00380000000001,23.6675,29,11,53b13a85498e2e77eae292b3,Λαδοριγανη,38.007149667951566,23.66478243882056,Greek Restaurant
2594,298,37.9760609293324,23.737015582261034,21,17,53b6e304498e8768028a6e51,Το Τσιπουράδικο,37.9766845703125,23.736387252807614,Tsipouro Restaurant
2170,1849,38.03380000000001,23.76083333333333,15,7,53b7e312498e018010b13cfb,Τσιπουρομεζές Βόλου,38.0369758605957,23.76349449157715,Tsipouro Restaurant
3065,769,37.98153907066761,23.76368263713627,29,25,53c29d27498e439f230b11e8,πράσινη γωνιά,37.98224512580492,23.765284533768376,Greek Restaurant
1860,1539,38.0138,23.7075,42,22,53c2e377498efad0b587b00a,Μαλανος,38.012649703377726,23.71022135633481,Greek Restaurant
1893,1572,38.0138,23.73416666666667,17,0,53c81a7e498e652c5782eb2b,Περιμπανού,38.01523923683557,23.738217114959635,Meze Restaurant
685,364,37.963800000000006,23.69416666666667,13,6,53d17486498ecb9b012d1579,Benaki Museum Roof Garden,37.960659271742436,23.693729193698964,Greek Restaurant
1591,1270,37.99380000000001,23.774166666666666,20,16,53d8a72f498ebc2761afe8ac,Mea Cupa,37.99099618760879,23.77057932388185,Greek Restaurant
1343,1022,37.9838,23.774166666666666,25,3,53d93e85498e963227b23c12,Μαγκανος,37.981687484369004,23.770101417751604,Meze Restaurant
2217,1896,38.04380000000001,23.68083333333333,17,13,53da8cbb498e7c622eece92f,Ψητολιχουδιές,38.04466852157192,23.67900321023105,Grilled Meat Restaurant
416,95,37.9438,23.73416666666667,26,4,53dfa86b498e8fd8d8f4fbc7,Home Burger,37.941557540599945,23.738253386286548,American Restaurant
756,435,37.963800000000006,23.72083333333333,43,14,53f5df02498ecdca24b824e2,Indian Chef,37.96278130956409,23.724580400778546,Indian Restaurant
1989,1668,38.0238,23.73416666666667,21,3,53fa3ca7498e154811beab6c,Ρούκουνας,38.02122949267049,23.737953803719396,Meze Restaurant
766,445,37.963800000000006,23.72083333333333,43,24,53ff0e0f498ef7b24d8b4e36,Ταβέρνα 1ος-2ος Όροφος,37.96395492553711,23.72603988647461,Modern European Restaurant
1632,1311,38.00380000000001,23.68083333333333,14,8,540227c1498ed36cb8d345a3,Η μπουκάλα,38.004792,23.685743,Meze Restaurant
596,275,37.9538,23.72083333333333,33,30,54032587498ed36cb8eabf98,Κουρελού,37.94970718580128,23.721082636947287,Meze Restaurant
880,559,37.963800000000006,23.774166666666666,6,2,540b4a6e498ebedbd48cac0d,Ξαθέρι,37.96626289242161,23.77173623764525,Cretan Restaurant
3219,923,37.99153907066761,23.763683025537468,31,29,5415d59c498ed5a1b578364d,Vismina (ex Vismag),37.99141693115234,23.76455307006836,Filipino Restaurant
777,456,37.963800000000006,23.72083333333333,43,35,54187f4b498ef43fe6efc873,Ala Boliotika,37.960549807320255,23.71853116984395,Meze Restaurant
1778,1457,38.0138,23.68083333333333,11,1,5425a3ed498e25c6413ec7ed,the best souvlaki-ΘΩΜΑΣ,38.017191539264395,23.677788618489828,Grilled Meat Restaurant
624,303,37.9538,23.73416666666667,27,25,542b12a8498ef9fba49680cd,Καταφύγιο,37.94966208390697,23.7360859538265,Cretan Restaurant
881,560,37.963800000000006,23.774166666666666,6,3,542fce68498e7edd4deaeb39,πριν το χαραμα,37.966552734375,23.77061462402344,Meze Restaurant
362,41,37.9438,23.69416666666667,30,12,54382eb3498e11e37728aed6,Το μαγαζί του Φαλήρου,37.941861928026846,23.69913946873385,Greek Restaurant
874,553,37.963800000000006,23.76083333333333,21,17,543e96ed498e0624206463f0,Γυρο- Παρεα,37.96021481554842,23.76236765371362,Grilled Meat Restaurant
1736,1415,38.00380000000001,23.774166666666666,31,12,543fad5e498ee6ad957f1e16,IKI Sushi Lounge,37.99991805135584,23.771664407663067,Sushi Restaurant
85,85,37.9760609293324,23.723682248927695,29,20,54427e40498ef5d7f4b0a900,Ανεφ Λογου Μοναστηρακι,37.976406,23.723143,Meze Restaurant
86,86,37.9760609293324,23.723682248927695,29,21,54427e63498eb1ca748afc34,Ανευ Λογου Μοναστηρακι,37.976411999999996,23.723185,Meze Restaurant
1454,1133,37.99380000000001,23.72083333333333,25,14,5442c330498e32a2f170cf79,BeeRaki,37.990264188393226,23.7205824536864,Meze Restaurant
1937,1616,38.0138,23.7875,11,6,5442c60c498eb42496706ef9,DeCOUNTI,38.01424810461104,23.784058530505906,French Restaurant
1628,1307,38.00380000000001,23.68083333333333,14,4,544a9ea4498e7ab7948e9cbc,Η Μπουκάλα,38.004776,23.685634,Greek Restaurant
2186,1865,38.03380000000001,23.774166666666666,21,8,54564b2e498eb158b600f4c7,New Bamboo,38.035538,23.776007,Chinese Restaurant
2004,1683,38.0238,23.73416666666667,21,18,5459341b498eba1310e62732,Παρ' ολίγον Πατησίων,38.019815620142296,23.73456716537476,Mediterranean Restaurant
2076,1755,38.03380000000001,23.69416666666667,20,4,545bc964498eac0b659c618a,το ψηστήρι,38.032459998337906,23.696018833326182,Greek Restaurant
2129,1808,38.03380000000001,23.73416666666667,43,14,545f824a498eb8917ccb9b65,Twist East,38.0341686343735,23.737230580360603,Turkish Restaurant
460,139,37.9438,23.76083333333333,13,9,5466584d498e1d8581ebfaf2,Ο Οντάς,37.944918770177026,23.75834093814057,Meze Restaurant
2059,1738,38.03380000000001,23.68083333333333,23,10,546a4ba1498e74242992d128,Το Σπέσιαλ,38.0357831354814,23.6768621755086,Greek Restaurant
2659,363,37.9760609293324,23.750348915594362,18,3,547e15f0498ef05487ce4923,Cookoovaya,37.976918264367214,23.75166517693736,Modern Greek Restaurant
3061,765,37.98153907066761,23.76368263713627,29,21,5482281c498eb267503346e0,Μπριζολάδικο Cold Beer,37.981073851906594,23.763407738298984,Grilled Meat Restaurant
1741,1420,38.00380000000001,23.774166666666666,31,17,548a230e498ed35b86ff45ee,Kiku,38.00341952670611,23.77517005246233,Japanese Restaurant
1461,1140,37.99380000000001,23.72083333333333,25,21,54913a25498ed4fb40670694,έν Ελλάδι center,37.993685,23.726395,Grilled Meat Restaurant
1122,801,37.9738,23.774166666666666,31,17,54a01452498e80876e6adde1,Μελίττα,37.972412230458275,23.77827084469285,Greek Restaurant
1991,1670,38.0238,23.73416666666667,21,5,54a15f27498ed51d881f1b77,Μάριος καφέ μεζέ,38.024715069327726,23.736392427767328,Meze Restaurant
1162,841,37.9838,23.7075,18,8,54a7034c498eae35a2d43884,Ταμπάκικα,37.98449683674409,23.71220874998064,Tsipouro Restaurant
1799,1478,38.0138,23.69416666666667,50,11,54aeede1498e8725063cbf18,Κούπα,38.01374059296131,23.689304902685823,Tsipouro Restaurant
493,172,37.9538,23.68083333333333,30,9,54b97a48498ed7cb80e29a16,Κοντυλιές,37.956064000000005,23.677861,Cretan Restaurant
2040,1719,38.0238,23.7875,13,5,54ba67ed498ea0b841510dea,Damianos,38.023801138114116,23.7925060269098,Seafood Restaurant
578,257,37.9538,23.72083333333333,33,12,54c29aa4498e259a3c0cfabb,Τα Φιλαράκια,37.955163,23.716876,Meze Restaurant
869,548,37.963800000000006,23.76083333333333,21,12,54cf7cce498e10f455e3bb57,Agora Restaurant,37.96259691614182,23.75860241411251,Mediterranean Restaurant
1878,1557,38.0138,23.7075,42,40,54dcb532498eabd104a13e96,spanos,38.014453,23.709094,Greek Restaurant
1952,1631,38.0238,23.68083333333333,10,8,54dd1721498e8cc4a66b2658,Chicken Club,38.02813586866157,23.68155442525129,Grilled Meat Restaurant
1257,936,37.9838,23.73416666666667,50,35,54df52f5498eabc8349f8f3c,Microu Lee,37.98693673882588,23.73425319226019,Chinese Restaurant
1978,1657,38.0238,23.72083333333333,12,4,54dfcb87498e4adcc4dfc60e,grammes,38.019385,23.720049,Meze Restaurant
3250,954,38.01153907066761,23.691316197081818,25,1,54f5fa8c498e223e6bba02f5,Πρωτοράκι,38.011652881875065,23.688959541705948,Tsipouro Restaurant
3257,961,38.01153907066761,23.691316197081818,25,8,54f63896498e1b0a7972297d,Γιαγιά ΚούΚου,38.01155278270472,23.68918611621187,Tsipouro Restaurant
930,609,37.9738,23.7075,30,28,54f733dc498e1b0a798701ce,Γιασεμάκι,37.977346999999995,23.709819,Meze Restaurant
1639,1318,38.00380000000001,23.69416666666667,9,1,54f9c914498ea35fdd1f98d8,τσιμπα πιες,38.00305,23.690579999999997,Meze Restaurant
2669,373,37.9760609293324,23.750348915594362,18,13,550ec99d498ec8c459e038ce,Cross,37.97437674320109,23.750839427844905,Mediterranean Restaurant
334,13,37.9438,23.68083333333333,16,0,5512fe78498ef8fef56cc2ac,L'Ovelha Negra,37.94519010942949,23.68437841062375,Meze Restaurant
2766,470,37.986060929332396,23.723682637136267,26,22,551eea1b498ee3db6d008e37,μηλοχρυσος,37.986507,23.72573,Greek Restaurant
1643,1322,38.00380000000001,23.69416666666667,9,5,55257a45498eb290b78e66fb,Απογείωση Γεύσεων,38.00312155095429,23.692659917064677,Middle Eastern Restaurant
600,279,37.9538,23.73416666666667,27,1,552d6e59498ecac13b81165b,Χύμα2,37.95051406000026,23.73561334696167,Meze Restaurant
135,135,37.9771913939986,23.725106750602063,17,13,552ebb04498eade00dcae4c2,Indian Tandoori Masala,37.97766872801056,23.72421458836029,Indian Restaurant
1962,1641,38.0238,23.69416666666667,11,8,553a89aa498e76c5b625aa31,Alfeios,38.02111053810805,23.693932588472748,Greek Restaurant
765,444,37.963800000000006,23.72083333333333,43,23,553aadd7498e298c556ac8a9,Γιουμπάμπα,37.963348650989396,23.721526306931626,Meze Restaurant
2286,1965,38.04380000000001,23.774166666666666,11,8,554e6869498e91aefed83bae,Ηφαιστία,38.04587320595618,23.7759581965045,Meze Restaurant
1147,826,37.9838,23.68083333333333,8,1,554e6c21498e6819b49f879e,Το μικιό,37.9860939730514,23.680514181839648,Cretan Restaurant
2112,1791,38.03380000000001,23.72083333333333,3,0,5553b9e4498e1ca56a3b0a64,τσιπουραδικο μύδι στρείδι & αλλα,38.03174591064453,23.721813201904297,Tsipouro Restaurant
2068,1747,38.03380000000001,23.68083333333333,23,19,55560f12498ecb1f130f7ee3,Mpairaki,38.03455788342679,23.677306267912016,Tsipouro Restaurant
781,460,37.963800000000006,23.72083333333333,43,39,555e3a42498ef8a6b65014eb,Μεζεδόφωνο,37.965980529785156,23.725482940673828,Meze Restaurant
3220,924,37.99153907066761,23.763683025537468,31,30,556234eb498e8b9be561eb8e,Istories Geuseon,37.99320096199148,23.765075355657906,Greek Restaurant
1921,1600,38.0138,23.7475,20,11,5564f981498efd65db8f6f20,JOJO νοστιμιές,38.013922422414296,23.750049780661758,Grilled Meat Restaurant
2150,1829,38.03380000000001,23.73416666666667,43,35,556a28b2498efad948bef394,Γευσηπλοΐα,38.032058131448004,23.73573149352293,Meze Restaurant
749,428,37.963800000000006,23.72083333333333,43,7,55732c3b498e6be2641580e2,Η Φάμπρικα του Ευφρόσυνου,37.963261027958815,23.724115900548085,Greek Restaurant
720,399,37.963800000000006,23.7075,50,28,55759e7d498eedc14b8f6a0b,Ρακάδικο Ερατούς,37.96001761930437,23.707774579524994,Greek Restaurant
1513,1192,37.99380000000001,23.7475,22,10,5578b0cf498ec5c4a28eb4d9,Mi La Re,37.99643013685414,23.7432451297647,Tsipouro Restaurant
588,267,37.9538,23.72083333333333,33,22,557c8cdb498ec783b548f535,Ρεμπελος,37.9554,23.7255,Greek Restaurant
1641,1320,38.00380000000001,23.69416666666667,9,3,558af012498e72e3b725ae04,Το Μεζεδοπωλείον,38.00131593362924,23.69231123944651,Meze Restaurant
2425,129,37.9760609293324,23.723682248927695,50,40,558f0055498e85237bfbc1f5,Ψυρρηκοκό,37.978230358652965,23.72350704243525,Meze Restaurant
2583,287,37.9760609293324,23.737015582261034,21,6,55a28622498e507185bcb74f,mare marina,37.975714,23.736499,Greek Restaurant
2571,275,37.97153907066761,23.7313177510723,39,33,55a3c43c498e529c4bbb6925,Avocado,37.972089000000004,23.730829,Cretan Restaurant
1565,1244,37.99380000000001,23.76083333333333,50,40,55b0092d498e6ae3326facb7,Ονειρία,37.9932119402249,23.765737752721986,Meze Restaurant
886,565,37.9738,23.6675,9,2,55b0e3bb498ef393fc408ef9,Σπιτικό,37.974039000000005,23.662278,Greek Restaurant
1845,1524,38.0138,23.7075,42,7,55bd17be498eae66e81fdcd8,Won Ton,38.013043089285176,23.706885929811268,Chinese Restaurant
1847,1526,38.0138,23.7075,42,9,55d38c9e498e30476c8f41bc,Αγιονέρι,38.012865738078,23.706860650206828,Greek Restaurant
2061,1740,38.03380000000001,23.68083333333333,23,12,55eb50ae498eb1e2489121b7,Nea Galini,38.029872,23.683504,Italian Restaurant
2006,1685,38.0238,23.73416666666667,21,20,55f02f9a498e02b2b346ff86,Λαδόκολλα,38.0273510398284,23.732634237357463,Grilled Meat Restaurant
1474,1153,37.99380000000001,23.73416666666667,38,9,55f49df5498e412be08ebfbc,Patission 129,37.997694954155065,23.73272478302453,Greek Restaurant
586,265,37.9538,23.72083333333333,33,20,55f86f4d498e059977b44dcd,ΚΙΤΡΟ,37.9554654116067,23.72484189337147,Meze Restaurant
2067,1746,38.03380000000001,23.68083333333333,23,18,55fea328498e203b27116173,Τα μπερδέματα,38.03709671812889,23.67916593045095,Meze Restaurant
79,79,37.9760609293324,23.723682248927695,29,14,5608373c498e5cc56bb8b64b,Papper Moon,37.97628513469619,23.723203204348607,Italian Restaurant
2734,438,37.98153907066761,23.717984029530395,27,17,56130f45498e2ad59e492c65,Falafel,37.98112272356585,23.716224192534103,Middle Eastern Restaurant
89,89,37.9760609293324,23.723682248927695,29,24,5613e25f498e55cc2f1b0b6b,Pepper Moon,37.97650909423828,23.723302841186523,Italian Restaurant
1871,1550,38.0138,23.7075,42,33,56198601498e7f3379761e53,Κρεσέντο,38.013984136178706,23.708648459661397,Comfort Food Restaurant
1629,1308,38.00380000000001,23.68083333333333,14,5,56215e74498e65fbec6a665b,ΝΤΑΛΓΚΑΣ,38.00066938127567,23.68425091291873,Mediterranean Restaurant
2771,475,37.98153907066761,23.723682637136267,34,1,5622233d498eeefe0c596870,Zampanó,37.97943253043622,23.723219733497032,Modern Greek Restaurant
1774,1453,38.0138,23.6675,5,2,5622d66c498e6b4b3095e2b6,Παραβάτες,38.01552963256836,23.671974182128906,Meze Restaurant
2141,1820,38.03380000000001,23.73416666666667,43,26,562c1565498e294c741a5b26,μουσικός καφενές,38.030628,23.735765,Greek Restaurant
475,154,37.9438,23.774166666666666,12,11,562e6385498e0eb287eb40f2,AllDay Cafe - Bar Milano,37.944877025106095,23.76979927433884,Italian Restaurant
1091,770,37.9738,23.76083333333333,23,9,56463c44498e93b428f9d05b,στης Βίκυς τα τραπεζώματα,37.97073257347762,23.756859238516146,Indian Restaurant
368,47,37.9438,23.69416666666667,30,18,5647a00d498ec30b2151f254,Μεθεόρτιον,37.943863,23.693134,Greek Restaurant
2801,505,37.98153907066761,23.723682637136267,34,31,564cd707498e0fc5904b824e,Royal Curry House,37.98331486135977,23.724284042352174,Indian Restaurant
622,301,37.9538,23.73416666666667,27,23,564de974498ec696fb9b0cbc,Η κα´ρπου,37.957999,23.735041,Grilled Meat Restaurant
612,291,37.9538,23.73416666666667,27,13,564de9c1498e8842ff6d4134,Η κάρπου,37.957989000000005,23.73505,Grilled Meat Restaurant
2330,34,37.9660609293324,23.71034852757833,16,10,565067cc498ef83b9e0fdb20,1935,37.966696,23.712339,Meze Restaurant
2168,1847,38.03380000000001,23.76083333333333,15,5,5654388a498e376ab1af830d,Το Κουτούκι Του Χαλκιά,38.03534269334235,23.762526512146,Greek Restaurant
1721,1400,38.00380000000001,23.76083333333333,5,2,5658ca99498e95bfddc1f152,"Μεζεδοπωλείο ""Η Απόλαυση""",38.00045277834885,23.76198996885793,Grilled Meat Restaurant
340,19,37.9438,23.68083333333333,16,6,565a109a498e2696e77b5419,Περίπτωση,37.944340999999994,23.686092000000002,Greek Restaurant
2075,1754,38.03380000000001,23.69416666666667,20,3,565f38db498e87e043488638,Μπαχαράκι,38.033660947053825,23.69592240860974,Meze Restaurant
1932,1611,38.0138,23.7875,11,1,56602030498e9da2a575ad41,GAKU Sushi - Izakaya,38.01467291796148,23.78506640762245,Sushi Restaurant
1106,785,37.9738,23.774166666666666,31,1,56607eda498ebd0edf0f150c,Κικιρίκου,37.974346000000004,23.769142000000002,Greek Restaurant
2169,1848,38.03380000000001,23.76083333333333,15,6,566c066d498e458589e3dfa2,Μπούκοβο,38.033475,23.759656,Meze Restaurant
908,587,37.9738,23.7075,30,6,56700e95498ef3bcca6747b8,SETT,37.9742485842165,23.70775043964386,American Restaurant
1398,1077,37.99380000000001,23.68083333333333,50,20,5676dd85498e410103bb99fc,Μέρες ραδιοφώνου,37.990722999999996,23.681015,Meze Restaurant
2983,687,37.98153907066761,23.737015970469603,26,22,56770da9498e3b0c1dc69069,Παραληγουσα,37.979763408484956,23.738166224293646,Greek Restaurant
2657,361,37.9760609293324,23.750348915594362,18,1,5679c79c498e5a11fca9e97e,Simul,37.977821656593704,23.75048216011643,Modern European Restaurant
2783,487,37.98153907066761,23.723682637136267,34,13,567f056f498e1c85f1d53d51,Στην πλατεία Θεάτρου,37.98052761300922,23.72509757489437,Meze Restaurant
891,570,37.9738,23.6675,9,7,568957e1498eed21cf1e949d,souvlaki hall,37.975491,23.669479,Grilled Meat Restaurant
2184,1863,38.03380000000001,23.774166666666666,21,6,568ae7c1498e8c7912713bd1,Οι Γεύσεις Της Κύμης,38.03656323620357,23.77369226266057,Greek Restaurant
2221,1900,38.04380000000001,23.69416666666667,5,0,5692554e498eaf25cbf96ef1,αλεπου,38.040768344387395,23.6948972597912,Greek Restaurant
375,54,37.9438,23.69416666666667,30,25,569e3d25498e73b3edd4f6bd,Βοσπορίτισσα,37.943166,23.697806,Meze Restaurant
161,161,37.9760609293324,23.7313177510723,20,17,56a3fc2e38fac19ab7263f2e,Στο ΝΕΟΚΛΑΣΙΚΟ,37.97664706002088,23.731634845036968,Mediterranean Restaurant
897,576,37.9738,23.69416666666667,9,4,56a9377a498e380db1a77194,Μεζεδοπωλείο «Το Νούφαρο»,37.971652114629634,23.695862889289856,Meze Restaurant
2567,271,37.97153907066761,23.7313177510723,39,29,56b0b45c498e65d9b79079f2,μικρο πολιτικο ψητόπωλειο,37.969556009356815,23.73060087989873,Middle Eastern Restaurant
1756,1435,38.00380000000001,23.7875,17,1,56b257aa498e6583281aa4a3,Shisan Sushi Bar,38.002002899843795,23.79066781294821,Sushi Restaurant
2045,1724,38.0238,23.7875,13,10,56b3bfdd498ec64f6961d015,KONG,38.0238679401415,23.79259701079689,Asian Restaurant
1758,1437,38.00380000000001,23.7875,17,3,56c4c4dacd10fa82404ad49f,1one,38.001590214963116,23.790659776701002,Italian Restaurant
1465,1144,37.99380000000001,23.73416666666667,38,0,56c62c83498e85c69910cd2b,Anadolu,37.991224191351144,23.738061109682175,Turkish Restaurant
1427,1106,37.99380000000001,23.68083333333333,50,49,56c87324cd10c7b2ec5c3af6,Πινιάτα,37.99350479436167,23.68522722413508,Meze Restaurant
1466,1145,37.99380000000001,23.73416666666667,38,1,56d8b02acd1054a0b41fae8a,Κυβέλη,37.997799828375456,23.73532418436357,Meze Restaurant
570,249,37.9538,23.72083333333333,33,4,56e71dd6498ee55e2e04579e,Mr. Dim,37.954659789912476,23.71574638330357,Asian Restaurant
339,18,37.9438,23.68083333333333,16,5,56f02746498e8f651d0b0273,Η Τραπεζούντα,37.943095,23.686232999999998,Russian Restaurant
1108,787,37.9738,23.774166666666666,31,3,56f57238498e89d1956130f8,ΤΟ ΚΑΛΑΜΑΚΙ ΤΟΥ ΧΑΡΗ,37.976395000000004,23.776087,Greek Restaurant
2468,172,37.9738,23.73416666666667,50,30,56fe7832498eddd7c688e07a,Κυλικείο 9ος Όροφος,37.975460479122255,23.734220676469146,Greek Restaurant
1373,1052,37.99380000000001,23.6675,13,8,57001450498e6ec30330af89,Του κύκλου τα γυρίσματα,37.992402,23.66991,Meze Restaurant
3095,799,37.99380000000001,23.68083333333333,28,26,5700316b498ee4dc296e49f4,ΜΑΜΑΓΕΙΡΕΜΑΤΑ,37.99362194411697,23.681352138519287,Greek Restaurant
1724,1403,38.00380000000001,23.774166666666666,31,0,5707f372498e269d10be9468,El Jiron,38.00272947409719,23.77610113523631,Latin American Restaurant
2763,467,37.986060929332396,23.723682637136267,26,19,570b854e498e9c41ff57cad7,kafe theatro,37.986153,23.722624,Greek Restaurant
919,598,37.9738,23.7075,30,17,570bf9e7498e08a7985fab82,Τ Αηδονακια,37.969967,23.708496,Greek Restaurant
621,300,37.9538,23.73416666666667,27,22,570cdee1498e7635e3fd464b,Σπιτική Κουζίνα,37.95024898551503,23.73718419818686,Greek Restaurant
1155,834,37.9838,23.7075,18,1,570eaab8498e5a49b03627fb,Λάικα,37.98295022509512,23.71155265866211,Meze Restaurant
2189,1868,38.03380000000001,23.774166666666666,21,11,5710ddcc498e20f5e9ba45aa,PRIAMO,38.03164767931173,23.77660274505615,Italian Restaurant
2107,1786,38.03380000000001,23.7075,20,15,571ca880498e3e958d00ffaa,Τα καλάμια,38.03476,23.707667,Grilled Meat Restaurant
1659,1338,38.00380000000001,23.72083333333333,24,9,5723ade7498ee541341722b4,Ζαργάνα,38.004546999999995,23.72331,Meze Restaurant
661,340,37.9538,23.76083333333333,20,13,5723c3b2498e259d17f43406,Giasou,37.955225,23.762807000000002,Modern Greek Restaurant
1730,1409,38.00380000000001,23.774166666666666,31,6,57337885498e69afcb74bdff,Hachikō,38.00713405935128,23.77769227148572,Sushi Restaurant
663,342,37.9538,23.76083333333333,20,15,5736479b38fad9b0b79c823e,Αλαργινό Ταξίδι,37.955220000000004,23.76438,Meze Restaurant
508,187,37.9538,23.68083333333333,30,24,5740b005498eb87fd2daf254,Στου Μέρτηκα,37.950825,23.677534,Meze Restaurant
1342,1021,37.9838,23.774166666666666,25,2,5741ff35498ea2ba28804147,Napoli pizza,37.982359,23.768954,Italian Restaurant
1677,1356,38.00380000000001,23.73416666666667,36,3,5745df66498e2f012f73f2a1,Efesos Restaurant Cafe,38.007059999999996,23.735146,Modern Greek Restaurant
1448,1127,37.99380000000001,23.72083333333333,25,8,5755b404498ea71706666ed8,Krajewscy,37.992683,23.726114000000003,Polish Restaurant
1840,1519,38.0138,23.7075,42,2,575c6d69498e8d2b571cb214,Τρώγοντας Και Πίνοντας,38.012737,23.710213,Greek Restaurant
613,292,37.9538,23.73416666666667,27,14,5765affd498e2b87300cb367,Η γωνιά του Θανέλλη,37.951012,23.73479,Meze Restaurant
422,101,37.9438,23.73416666666667,26,10,5773cc5a498ed1267b4ec3b1,Πιροσκί Βερόνικα,37.94631,23.735435,Russian Restaurant
1602,1281,38.00380000000001,23.6675,29,7,577952cf498e05721cdd2e7b,Trattoria Casa Bianca,38.004680877844095,23.664240013777494,Italian Restaurant
639,318,37.9538,23.7475,22,13,577c0188cd100185877b0b5d,Αραλίκι,37.95451057423345,23.746025562286373,Meze Restaurant
2023,1702,38.0238,23.7475,25,16,57853da1498e3adc4aa7eb1f,Buono Gusto,38.021614,23.745695,Italian Restaurant
2242,1921,38.04380000000001,23.7475,24,3,5786b94b498e43208d5267a9,Το Κουτούκι Του Σωκράτη,38.04250370013282,23.752629108454226,Greek Restaurant
109,109,37.9771913939986,23.722257747253327,28,15,5794e787498e1f75fde412f5,Epta 7 Restaurant Bar,37.976951,23.72283,Italian Restaurant
2005,1684,38.0238,23.73416666666667,21,19,5797d672498ea92cb39c4c74,Ο Μπακαλόγατος,38.027184000000005,23.732544,Kebab Restaurant
2020,1699,38.0238,23.7475,25,13,57990820498e2e15ab1875a4,Ρακομπερδεματα,38.022053,23.7482,Greek Restaurant
1505,1184,37.99380000000001,23.7475,22,2,57a78589498e24abca9fa4df,Το Πάνθεον,37.996677000000005,23.745132,Greek Restaurant
2538,242,37.97153907066761,23.7313177510723,39,0,57ac472e498ed15346eec9f2,Cave of Acropolis – Greek Tavern,37.9709641930796,23.729019742679906,Greek Restaurant
2556,260,37.97153907066761,23.7313177510723,39,18,57c1668b498e1efc0e18dade,Tabepna Ta,37.97163997094781,23.730287258268948,Greek Restaurant
2118,1797,38.03380000000001,23.73416666666667,43,3,57cb25ca498e5969f6e706d4,Koi Sushi Bar,38.035866026394956,23.73877854694936,Sushi Restaurant
1685,1364,38.00380000000001,23.73416666666667,36,11,57dd9672498ed2476376cb05,Pame Tsipouro Pame Kafeneio,38.00116582851111,23.73869603226313,Greek Restaurant
914,593,37.9738,23.7075,30,12,57e6bc6e498e715ce4b8dbb5,lazanon,37.976743,23.706654999999998,Italian Restaurant
1488,1167,37.99380000000001,23.73416666666667,38,23,57e7a664498e8b0290340601,Ημερουλι,37.991676,23.72962,Caucasian Restaurant
495,174,37.9538,23.68083333333333,30,11,57faadda498e5fcfe3dd0ae2,Η Ταΐστρα,37.95057,23.680502,Greek Restaurant
344,23,37.9438,23.68083333333333,16,10,57fca434cd104122dd1829b2,Ramen restaurant,37.945094,23.686063,Ramen Restaurant
2155,1834,38.03380000000001,23.73416666666667,43,40,57fd1b57498e3bc5cd9674e2,Spaggettit,38.031228999999996,23.736456,Italian Restaurant
2192,1871,38.03380000000001,23.774166666666666,21,14,57fe92ba498e47287f01802d,Noodle House,38.034434999999995,23.77701,Asian Restaurant
2419,123,37.9760609293324,23.723682248927695,50,34,5806590f38fa451aaa292cb2,The Greco's Project,37.976275084836494,23.726017850373253,Greek Restaurant
1657,1336,38.00380000000001,23.72083333333333,24,7,580cea2fd67c230d494c83de,Ο γιος του Γιάννη,38.004014,23.724082,Grilled Meat Restaurant
559,238,37.9538,23.7075,30,23,5814997238fa00276558f97e,Chick House,37.954730525577936,23.71207281947136,Grilled Meat Restaurant
2997,701,37.9838,23.76083333333333,17,10,5818ec1e38fa59db1956af19,Maha Raja,37.984229,23.761585999999998,Indian Restaurant
392,71,37.9438,23.7075,18,12,581e0dae1ff7964776c90fcb,The Master Of BBQ,37.945766,23.708698000000002,Grilled Meat Restaurant
1279,958,37.9838,23.7475,18,7,582074996401963ccd2a3dd7,K.GRILL,37.98207818521257,23.74344809419252,Grilled Meat Restaurant
1521,1200,37.99380000000001,23.7475,22,18,5823722156e6051e7068f04d,IL RITROVO,37.99403,23.750885,Italian Restaurant
2128,1807,38.03380000000001,23.73416666666667,43,13,5824cf0670fc421bebc722fe,Σκηνικό Γεύσεων,38.03221,23.735579,Greek Restaurant
2521,225,37.9760609293324,23.7313177510723,50,33,5827057fd1efa65794dacf2a,Osaka Sushi Bar,37.975657730805565,23.728817582466558,Sushi Restaurant
443,122,37.9438,23.7475,13,5,582b62361b95ff77daddd241,Ο Μπούφος,37.941628,23.742514,Meze Restaurant
2253,1932,38.04380000000001,23.7475,24,14,582dc712d21e034889a2fb80,Fresca1000,38.041336,23.748806,Greek Restaurant
2043,1722,38.0238,23.7875,13,8,5830a396fbe8ff78e1b18458,Lamour fine Dinning,38.02225,23.788111999999998,Modern European Restaurant
1662,1341,38.00380000000001,23.72083333333333,24,12,5830c1898ee5605dc548d37b,Θες Αλλιωτικο,38.004704,23.718067,Greek Restaurant
2103,1782,38.03380000000001,23.7075,20,11,583463672a19826c5b332362,Η Κουζίνα της Σοφίας,38.033676,23.708445,Greek Restaurant
1983,1662,38.0238,23.72083333333333,12,9,583a970a8d8e996292199432,Fatima's,38.02155505253266,23.72137069702148,Moroccan Restaurant
1042,721,37.9738,23.7475,50,10,58409153d0bb3e551306eeb0,Το σουβλάκι της Madame Sousou,37.97800172728068,23.74635247948946,Greek Restaurant
2621,325,37.9760609293324,23.74465108440563,16,12,584beeefd8f3e9271eaa3863,mediterranean cuisine,37.976633,23.742575,Mediterranean Restaurant
3062,766,37.98153907066761,23.76368263713627,29,22,5851a79f076be125b3c0ab52,Cookoo,37.980026,23.763873999999998,Italian Restaurant
2636,340,37.97153907066761,23.74465108440563,31,11,5855becfc0df765a6c0bed9e,Υπόγεια Ταβέρνα,37.97065,23.742418,Greek Restaurant
748,427,37.963800000000006,23.72083333333333,43,6,58597debda54ae2215b303a3,Ο Λόλος,37.96330952374331,23.72163502591177,Meze Restaurant
1616,1295,38.00380000000001,23.6675,29,21,585cedb24bc2f1753b6e2082,Μπακάλικο λίγο απ'όλα,38.004324,23.663775,Grilled Meat Restaurant
2097,1776,38.03380000000001,23.7075,20,5,585ee13913af1c32d0ef260c,σαν Όνειρο,38.034534,23.707453,Greek Restaurant
1647,1326,38.00380000000001,23.7075,3,0,585ee8a651666a7a04326c2e,Μυρτιά,38.00602412579927,23.70681661129764,Grilled Meat Restaurant
2274,1953,38.04380000000001,23.76083333333333,15,11,587b6dc2e612f226c84fd77d,Περί Κρεάτων Γεύσεις,38.044415,23.75829,Greek Restaurant
2794,498,37.98153907066761,23.723682637136267,34,24,58910b4a2ec36420bafaa372,Πλατεία Θεατρου,37.980598,23.724963,Meze Restaurant
2633,337,37.97153907066761,23.74465108440563,31,8,589218f6288b6a0e7802df71,Cupola,37.970409853831406,23.74218797543775,Italian Restaurant
2382,86,37.9760609293324,23.71798441773897,24,21,589619bd266c1121f0021a4a,athens beer restaurant,37.974919,23.716207999999998,Greek Restaurant
1852,1531,38.0138,23.7075,42,14,589621e8d8f3e92fa751c8ab,Agni,38.01043,23.705568,Indian Restaurant
1683,1362,38.00380000000001,23.73416666666667,36,9,589b0268e11095432a384231,Poka & Podi,38.001244,23.737717,Italian Restaurant
1903,1582,38.0138,23.73416666666667,17,10,58a8955d297c163b942454c7,Το Στέκι του Αλέξη,38.015976,23.730326,Romanian Restaurant
1164,843,37.9838,23.7075,18,10,58a9a2e50b56562fdcec566e,ο ωραιος βοτανικος,37.983517,23.711243,Meze Restaurant
2215,1894,38.04380000000001,23.68083333333333,17,11,58af6593005a0f2e1984cc7b,Στον 5ο Ουρανο!,38.046473999999996,23.68329,Greek Restaurant
2934,638,37.986060929332396,23.737015970469603,43,16,58b452d9a8b75911ad194ddc,To Steki tis Mirtws (Το Στέκι της Μυρτώς),37.98679238253253,23.735543489456177,Meze Restaurant
2963,667,37.98153907066761,23.737015970469603,26,2,58c2ac696ad73d0d9997b6cf,Κιουζίν,37.979566746229686,23.737833607176906,Greek Restaurant
1266,945,37.9838,23.73416666666667,50,44,58ce770ef840857e7d2f013f,Παλιά Ομόνοια,37.984318,23.728604999999998,Greek Restaurant
1679,1358,38.00380000000001,23.73416666666667,36,5,58d046bce309e12fbd765551,Ρόκα & Ρόδι,38.001090000000005,23.737758,Italian Restaurant
1156,835,37.9838,23.7075,18,2,58e003d4a8b75966fd04d61b,Το Λυχνάρι,37.981716,23.711267000000003,Greek Restaurant
2685,389,37.97153907066761,23.750348915594362,14,11,58e29e12d0bb3e2f454617bd,Athens View & Horizon,37.972978999999995,23.751442,Greek Restaurant
763,442,37.963800000000006,23.72083333333333,43,21,58e7ec99a4367c7b43d9c81f,Μαραμπού,37.963914,23.72193,Meze Restaurant
2764,468,37.986060929332396,23.723682637136267,26,20,59022c6a396de02ff8c24ffd,Ps Restaurant,37.986153,23.72156,Greek Restaurant
163,163,37.9760609293324,23.7313177510723,20,19,5903688966611669713100ae,Poké | Hawaiian Sushi,37.97554619396405,23.731656985132023,Hawaiian Restaurant
2729,433,37.98153907066761,23.717984029530395,27,12,59160ec8396de017a32b4223,Στέκι Πινόκλης,37.982102091234545,23.71542485833413,Greek Restaurant
1708,1387,38.00380000000001,23.73416666666667,36,34,591619df10345b1353f4be3a,Το Κάτι Άλλο,38.00074,23.737574,Greek Restaurant
1936,1615,38.0138,23.7875,11,5,59208575012358512f3a02d4,Sindibad,38.009503530900005,23.78836377432191,Middle Eastern Restaurant
2065,1744,38.03380000000001,23.68083333333333,23,16,59287ec3dec1d625061e6424,Ρεμπελιό,38.036359999999995,23.677876,Meze Restaurant
121,121,37.9771913939986,23.722257747253327,28,27,592de02d3b4e0068eccc76cc,Atlantikos,37.977562,23.723021,Seafood Restaurant
92,92,37.9760609293324,23.723682248927695,29,27,5936b5bd1108ba67b3a95d94,Cafe Musses,37.976132,23.723087,Greek Restaurant
2245,1924,38.04380000000001,23.7475,24,6,5936f995b9a5a87f309e54e2,Το Σουβλάκι Της Κ. Ντίνας,38.042797,23.751032000000002,Greek Restaurant
194,194,37.9771913939986,23.73274225274667,11,3,5938ce5adff8153e7c36a6ff,Bella Vista Restaurant,37.976545,23.732581,Greek Restaurant
373,52,37.9438,23.69416666666667,30,23,5946d54d26659b1af8137362,Dayının Yeri,37.941359999999996,23.689963,Greek Restaurant
200,200,37.9771913939986,23.73274225274667,11,9,596f9ca212c8f0189a0dd29d,Etnico,37.977554,23.731724,Indian Restaurant
1450,1129,37.99380000000001,23.72083333333333,25,10,59747a429d6a19214f7b4a50,Λαμπίρης,37.996407,23.722510999999997,Greek Restaurant
2767,471,37.986060929332396,23.723682637136267,26,23,5989bee3237dee07a12baac7,EL USTURA,37.985601773723026,23.725801706314087,Middle Eastern Restaurant
547,226,37.9538,23.7075,30,11,5992cc0995da0c6fec63b262,Dionisos,37.95357154377786,23.70284736156464,Greek Restaurant
1524,1203,37.99380000000001,23.7475,22,21,59995df131ac6c7b967cd684,Διανομη Κατοικον,37.992867,23.749184,Greek Restaurant
604,283,37.9538,23.73416666666667,27,5,599f20a5e97dfb71b7285f8f,Το Δεκαράκι Της Δάφνης,37.95086,23.73537,Meze Restaurant
848,527,37.963800000000006,23.7475,48,39,59b2e70516fa04346f979e21,Wok To Wolk,37.96658,23.748173,Asian Restaurant
1407,1086,37.99380000000001,23.68083333333333,50,29,59d14c65dee77042f86d614a,Τα Μπριζολάκια Της Πόλης,37.989670000000004,23.681679000000003,Grilled Meat Restaurant
154,154,37.9760609293324,23.7313177510723,20,10,59d78c5c1cf2e14bace07cce,Bollywood Masala,37.97596541757277,23.73052105307579,Indian Restaurant
81,81,37.9760609293324,23.723682248927695,29,16,59d942d2c0af5760519674f5,Kouzoulades (Κουζουλάδες),37.97691684733615,23.723521828651428,Meze Restaurant
2751,455,37.986060929332396,23.723682637136267,26,7,59da17dfa4b51b3d78d6f66c,Stolova,37.986736,23.725769,Middle Eastern Restaurant
884,563,37.9738,23.6675,9,0,59e7a5e8acc5f52d25823e5c,Το Άλλο Καφενείον,37.974585999999995,23.662634,Greek Restaurant
119,119,37.9771913939986,23.722257747253327,28,25,59fb7027a9e40206da7a3b93,Fresh Sushi Bar,37.976994,23.72285,Sushi Restaurant
2800,504,37.98153907066761,23.723682637136267,34,30,59fe237fa92d9866ebfc98af,titas,37.980375719173175,23.72512578964233,Indian Restaurant
713,392,37.963800000000006,23.7075,50,21,59ff0ab4286fda734f7c8625,Kitrino Podilato,37.959676,23.707592,Meze Restaurant
1585,1264,37.99380000000001,23.774166666666666,20,10,5a1d8dfe67e5f2622dcfd693,Σπιτική Κουζίνα,37.994698,23.769196,Greek Restaurant
2565,269,37.97153907066761,23.7313177510723,39,27,5a1d9146ad1789242369cea5,Sense,37.9695,23.730760999999998,Greek Restaurant
2914,618,37.98153907066761,23.73131736286373,14,10,5a22a37f178a2a17a8c0e092,Οι Καλαμιές,37.98304,23.729841,Greek Restaurant
2039,1718,38.0238,23.7875,13,4,5a299919e65d0c7f642c511b,La Argentina,38.023671,23.792146,Argentinian Restaurant
2559,263,37.97153907066761,23.7313177510723,39,21,5a313c6ee1791078c70aace9,L' Audrion,37.97174149030244,23.73105610439033,French Restaurant
7,7,37.9738,23.73416666666667,11,7,5a3a5f501c0b3429dfa7abda,Στοά Ξενοφώντος,37.974133,23.73341,Meze Restaurant
2611,315,37.9760609293324,23.74465108440563,16,2,5a46c931898bdc169aee6ad4,Brunello,37.97777169967132,23.74356383301741,Italian Restaurant
1738,1417,38.00380000000001,23.774166666666666,31,14,5a5924efd41bb712ee4ba0d6,Wolves Of Kitchen,38.00235149855865,23.77645893101405,Modern European Restaurant
1230,909,37.9838,23.73416666666667,50,8,5a5c6127838e595ef851a8b3,Pink Elephant DownTown,37.983954930192006,23.738431558012962,Indian Restaurant
2026,1705,38.0238,23.7475,25,19,5a62395cc876c803b32a4664,Ναξιώτισσα,38.021066999999995,23.7467,Greek Restaurant
3218,922,37.99153907066761,23.763683025537468,31,28,5a63470d18d43b05432e6e24,Indian Village,37.992964,23.765449,Indian Restaurant
742,421,37.963800000000006,23.72083333333333,43,0,5a6885a7b1538e09f12f6812,Tuk Tuk,37.96603247581046,23.725742103088283,Thai Restaurant
1159,838,37.9838,23.7075,18,5,5a6e0b0d16fa04628beb17c7,το πηνίο,37.984211,23.712298999999998,Vegetarian / Vegan Restaurant
555,234,37.9538,23.7075,30,19,5a6f85f9f193c029b112f687,Kashmir Restaurant,37.957240000000006,23.709149,Indian Restaurant
1689,1368,38.00380000000001,23.73416666666667,36,15,5a70bf03f0ca952a41f63580,Τρίστοιχο,38.000972999999995,23.732742000000002,Greek Restaurant
2143,1822,38.03380000000001,23.73416666666667,43,28,5a7b4f519e3b656f57a1b9fe,Evripidis Grill,38.033565,23.737508,Grilled Meat Restaurant
2739,443,37.98153907066761,23.717984029530395,27,22,5aac0bd658aa7f5afd0aa70a,Athiri Restaurant,37.980615,23.716827,Greek Restaurant
2332,36,37.9660609293324,23.71034852757833,16,12,5ac0be999ef8ef1176411e62,Babaca Moo,37.966587,23.71242,Meze Restaurant
2971,675,37.98153907066761,23.737015970469603,26,10,5acf6e18f62f2b0471482efa,Γύρο Γύρω,37.981933000000005,23.73657,Greek Restaurant
114,114,37.9771913939986,23.722257747253327,28,20,5acf7610805e3f1495315865,Oishi Fresh Sushi bar,37.97701410390608,23.72313022613525,Japanese Restaurant
2774,478,37.98153907066761,23.723682637136267,34,4,5ad9c0056336be2747518a74,Karamanlika,37.980105,23.725496,Restaurant
829,508,37.963800000000006,23.7475,48,20,5adf1d5b86bc490f4f2be69f,Δισκοπωλειο Ποτο & Ρακη,37.963229999999996,23.751144,Tsipouro Restaurant
87,87,37.9760609293324,23.723682248927695,29,22,5ae4e9344c9be6002c537e2a,summer φουαρ,37.976488,23.724095000000002,Thai Restaurant
858,537,37.963800000000006,23.76083333333333,21,1,5ae85d70dd8442002c5b5fcc,Mesopotamian Kebab Restaurant (ΜΕΣΟΠΟΤΑΜΙΑΝ ΚΕΜΠΑΠ ΕΣΤΙΑΤΟΡΙΟ),37.96220213531139,23.761188089847565,Kurdish Restaurant
2738,442,37.98153907066761,23.717984029530395,27,21,5af3346bc47cf9002cdc8b67,Taverna at Bios,37.980053000000005,23.717972,Greek Restaurant
2260,1939,38.04380000000001,23.7475,24,21,5af9b0bd3149b9002ca43ea2,Μεζεδοταβερνείο Η Ελένη,38.045,23.742939,Greek Restaurant
1970,1649,38.0238,23.7075,9,5,5b00a56765211f00398b347b,Πινελιά,38.027644,23.709326,Greek Restaurant
3148,852,37.99153907066761,23.683683025537466,8,6,5b0da688031320003983d26b,Madwok,37.991105,23.682087,Asian Restaurant
648,327,37.9538,23.76083333333333,20,0,5b3918563b8307002cdcd6fd,Βύρωνος Πολιτεία,37.95501587601785,23.759393138812367,Mediterranean Restaurant
2568,272,37.97153907066761,23.7313177510723,39,30,5b49d7056adbf5002c311cee,daphne’s restaurant,37.970813,23.730222,Modern Greek Restaurant
2210,1889,38.04380000000001,23.68083333333333,17,6,5b75b8ac12f0a9002c9a80f1,Τα Παιδιά,38.04436,23.679679999999998,Greek Restaurant
2578,282,37.9760609293324,23.737015582261034,21,1,5b8af559c876c8002cfc0c47,The Odeon Bistro,37.978042776125655,23.736421529249462,French Restaurant
2922,626,37.986060929332396,23.737015970469603,43,4,5b920c93780eee0036f49575,Ama Lachei,37.988033,23.736977,Tapas Restaurant
2152,1831,38.03380000000001,23.73416666666667,43,37,5b940b44e1f228002c02c534,Gymnasio mezedopolio,38.036596,23.738251,Meze Restaurant
2015,1694,38.0238,23.7475,25,8,5b96ba06cad1b6002c2f933d,Το Κόκκινο Ρόδι,38.021732,23.751272,Meze Restaurant
1161,840,37.9838,23.7075,18,7,5b9ac54bacb00b002c232dc5,ραφικι,37.983353,23.711785,Modern Greek Restaurant
1693,1372,38.00380000000001,23.73416666666667,36,19,5b9be47bc9f907002c32af76,Yankadi,38.003901305449226,23.73213797806329,African Restaurant
2653,357,37.97153907066761,23.74465108440563,31,28,5b9e9fbf112c6c002cf5b5a1,Magemeni Avli (Μαγεμένη Αυλή),37.971827000000005,23.744182000000002,Greek Restaurant
2376,80,37.9760609293324,23.71798441773897,24,15,5b9fa09006fb60002cee67b5,To Kousoulo,37.97518312163928,23.71837466955185,Mediterranean Restaurant
2879,583,37.986060929332396,23.73131736286373,50,25,5ba690bf088158002c00803f,Wreck Of Angels,37.987305,23.731239000000002,Greek Restaurant
510,189,37.9538,23.68083333333333,30,26,5bb904bccd441c002c3000ac,Kirgidis Food,37.950012,23.678322,Greek Restaurant
826,505,37.963800000000006,23.7475,48,17,5bd4b3022b274a002cdfad4a,Bab Marrakech,37.967476,23.744625,Moroccan Restaurant
1858,1537,38.0138,23.7075,42,20,5bd4cba86fd626002cfa1539,Μικρες Ιστοριες,38.010563,23.707518,Greek Restaurant
1469,1148,37.99380000000001,23.73416666666667,38,4,5bdf31e28c812a002c5b1711,The Big Bad Wolf,37.9918,23.731503,Greek Restaurant
1729,1408,38.00380000000001,23.774166666666666,31,5,5be48ece78782c002cc36280,Nolita,38.00318197638778,23.77607734869211,Italian Restaurant
353,32,37.9438,23.69416666666667,30,3,5bede428916bc1002cab0576,E&O Athens,37.940525,23.697048000000002,Asian Restaurant
492,171,37.9538,23.68083333333333,30,8,5bef3cf32b274a002c67bd32,Zaman Fou,37.94968,23.680351,Greek Restaurant
132,132,37.9771913939986,23.725106750602063,17,10,5c06ccb52b9844002cea0f82,Buddha Restaurant,37.977629354438,23.724243342876434,Indian Restaurant
879,558,37.963800000000006,23.774166666666666,6,1,5c0adff2396de0002cb9e813,Κοψίδι,37.965728999999996,23.77286,Grilled Meat Restaurant
535,214,37.9538,23.69416666666667,22,21,5c0d5e835d891b002da96a7a,Safir,37.951980999999996,23.696018,Middle Eastern Restaurant
1284,963,37.9838,23.7475,18,12,5c154c213abcaf002bee702c,Ο Πρόεδρος,37.980758,23.748754,Greek Restaurant
887,566,37.9738,23.6675,9,3,5c3a578cff0306002c5db82c,It's All Greek,37.97488,23.66798,Greek Restaurant
759,438,37.963800000000006,23.72083333333333,43,17,5c40d20f121384002ca48825,Lolos,37.963274,23.721721,Greek Restaurant
2213,1892,38.04380000000001,23.68083333333333,17,9,5c4bbdf09cadd9002c382f31,Λεμονανθος,38.040123,23.682175,Greek Restaurant
1501,1180,37.99380000000001,23.73416666666667,38,36,5c54ab97e7065500254bb567,Sofia Food,37.99232,23.729746,Greek Restaurant
482,161,37.9538,23.6675,8,6,5c5827b73149b9002cd20810,Estiatorio Pistaria,37.95469,23.670276,Greek Restaurant
2999,703,37.9838,23.76083333333333,17,12,5c5c7f00418686002c43bc47,Ονείρων Γεύσεις,37.98411,23.7614,Grilled Meat Restaurant
2172,1851,38.03380000000001,23.76083333333333,15,9,5c6720b447f876002c1fe9e9,Αρμενιστής,38.032315999999994,23.760365,Greek Restaurant
674,353,37.963800000000006,23.68083333333333,5,0,5c685cf76fd626002c2454eb,Τα Μεζεκλίκια Της Λαχαναγορας,37.960392,23.68058,Meze Restaurant
783,462,37.963800000000006,23.72083333333333,43,41,5c6876f85c6838002c7c9e97,Dio Dekares I Oka,37.96383,23.723497000000002,Greek Restaurant
10,10,37.9738,23.73416666666667,11,10,5c6fd030cbcdee002cfb2faa,LP Cobé,37.97348,23.733452,Brazilian Restaurant
1447,1126,37.99380000000001,23.72083333333333,25,7,5c7aaf3d3d4791002ce1b287,Bulgaria,37.996025,23.72556,Bulgarian Restaurant
769,448,37.963800000000006,23.72083333333333,43,27,5c9663e7c53093002cfb839a,Ανατολή,37.96164681344597,23.72319459915161,Middle Eastern Restaurant
403,82,37.9438,23.72083333333333,14,5,5cb37c6b66f3cd002c030e5e,Axari Kafenes,37.944511327759905,23.720505014061928,Greek Restaurant
562,241,37.9538,23.7075,30,26,5cb647dc1de765002c1b4d27,Ερως Εστι Σουβλακι,37.956818,23.704151,Greek Restaurant
1473,1152,37.99380000000001,23.73416666666667,38,8,5cb72f5d993981002b2db97c,Το Σχολαρχείο Της Κυψέλης,37.99774,23.735422,Meze Restaurant
2711,415,37.9838,23.72083333333333,24,23,5cb8c297aa6c95003973045a,Mironi Greek Restaurant,37.984695,23.721378,Greek Restaurant
8,8,37.9738,23.73416666666667,11,8,5cbaf9051987ec0039f1eb63,Brigante,37.974171000000005,23.734185,Italian Restaurant
185,185,37.9749304646662,23.729893249397932,9,3,5cc34dbe5d891b002c8eebfb,Μπαρμπουνάκι δια χειρός Παπαϊωάννου,37.975077,23.729505,Seafood Restaurant
1110,789,37.9738,23.774166666666666,31,5,5ccdcd060e3239002caa39b5,Η Ρίζα,37.974185999999996,23.770236999999998,Greek Restaurant
1750,1429,38.00380000000001,23.774166666666666,31,26,5ccdd3bc95d986002c89cc18,VeriΤable,38.000244,23.773019,French Restaurant
631,310,37.9538,23.7475,22,5,5ccfd31f5d891b002c05a476,P3 • Pizza Pasta Piazza,37.95462,23.746372,Italian Restaurant
1844,1523,38.0138,23.7075,42,6,5cd9a444ad1789002c73f54f,Ο Πρόεδρος,38.013027,23.706745,Middle Eastern Restaurant
1997,1676,38.0238,23.73416666666667,21,11,5cdb2490724750002d4a2d26,Voukamvilia,38.022556,23.731245,Mediterranean Restaurant
131,131,37.9771913939986,23.725106750602063,17,9,5ce891283fcee8002b80c06b,Jason’s Athens Weekend Hideout,37.977328,23.724422,Greek Restaurant
758,437,37.963800000000006,23.72083333333333,43,16,5cf2ce1f9e0d54002c5dae08,El Burro *Tacos Y Tequila*,37.962789,23.72179,Mexican Restaurant
799,478,37.963800000000006,23.73416666666667,24,14,5cfa3033b3d8e2002c94a92a,To Empeiro,37.962689000000005,23.729305,Greek Restaurant
2258,1937,38.04380000000001,23.7475,24,19,5d03c4bc947c05002c4242c1,η γωνία,38.042699,23.751339,Tsipouro Restaurant
2957,661,37.986060929332396,23.737015970469603,43,39,5d06386a1c0b34002ccc25df,Afghani Café,37.986877,23.734983,Afghan Restaurant
2941,645,37.986060929332396,23.737015970469603,43,23,5d10bb8ca0b78300239bb84b,ΚΑΠΑ,37.987089000000005,23.73499,Turkish Restaurant
138,138,37.9771913939986,23.725106750602063,17,16,5d17bf423f9ff700230366ad,Clockwork Monkey (Κουρδιστή Μαϊμού),37.977191999999995,23.725039000000002,Italian Restaurant
2526,230,37.9760609293324,23.7313177510723,50,38,5d4183c618a8ff0008094ea6,Chomolungma,37.97810083159569,23.731974810361862,Tibetan Restaurant
157,157,37.9760609293324,23.7313177510723,20,13,5d440acd816c1500085c12ca,Da Panda BBQ,37.975525,23.731588000000002,Asian Restaurant
2035,1714,38.0238,23.7875,13,0,5d4d9d2894da0b000731a332,Alio restaurant,38.023571999999994,23.792573,Italian Restaurant
747,426,37.963800000000006,23.72083333333333,43,5,5d51bcd0f6419c00089f3c7b,Umami Panda (Asian Food),37.963155,23.721716,Asian Restaurant
2558,262,37.97153907066761,23.7313177510723,39,20,5d6a9fd951bb400008583c00,Lemongrass,37.971788000000004,23.731188,Thai Restaurant
2099,1778,38.03380000000001,23.7075,20,7,5d7630fd49c470000882e48b,Η ΚΑΠΑΡΗ (ΙΛΙΟΝ),38.03599125576242,23.70690286159515,Greek Restaurant
2582,286,37.9760609293324,23.737015582261034,21,5,5d7b81e684f21d00088849af,Σπιτική Κουζίνα,37.977940000000004,23.736404,Greek Restaurant
2178,1857,38.03380000000001,23.774166666666666,21,0,5d7fad279bc95400085ad1dd,Damasco,38.03564,23.774892,Middle Eastern Restaurant
82,82,37.9760609293324,23.723682248927695,29,17,5d7fed4b55525f000743a414,Kyklamino,37.976498,23.723751,Greek Restaurant
2612,316,37.9760609293324,23.74465108440563,16,3,5da1fa8c783dac000878df08,Mailo's The Pasta Project,37.978165999999995,23.744944,Italian Restaurant
2648,352,37.97153907066761,23.74465108440563,31,23,5da22080448b4c00077a5eb3,Trattoria Italia D'Onofrio,37.97081,23.743195,Italian Restaurant
116,116,37.9771913939986,23.722257747253327,28,22,5dbd7b1d3724060008b98b9a,Ceci Hong Kong Restaurant,37.977105,23.723297,Chinese Restaurant
1502,1181,37.99380000000001,23.73416666666667,38,37,5dc09b4ac4a5930008283a75,Souvlaki Τυλιξε,37.99351,23.729837,Greek Restaurant
1948,1627,38.0238,23.68083333333333,10,4,5dc3efdbd617f80008cd4d3c,Arte Sabroso,38.025279,23.681279,Greek Restaurant
1734,1413,38.00380000000001,23.774166666666666,31,10,5dc7f9e998ae240008e90ce9,Villa Dioskouri,38.002278000000004,23.77645,Modern European Restaurant
548,227,37.9538,23.7075,30,12,5dd98adfb5e9bf0008e5177d,Η Μαρια Η Σιφνια,37.955166,23.708357,Greek Restaurant
788,467,37.963800000000006,23.73416666666667,24,3,5ddab05dec5a6600071770c6,Huaca Bar Restaurant,37.965959000000005,23.734534,Asian Restaurant
2476,180,37.9738,23.73416666666667,50,38,5ddad00ea5da1d0008408a50,Best Gyros,37.975775,23.733757999999998,Greek Restaurant
1988,1667,38.0238,23.73416666666667,21,2,5de0dfee11d8390008db1199,Παλιά Πλατεία,38.02326,23.735556,Greek Restaurant
2263,1942,38.04380000000001,23.76083333333333,15,0,5de958325e0bf1000839c5da,Καφενείο Ανδρομέδα,38.047104,23.76451,Meze Restaurant
2252,1931,38.04380000000001,23.7475,24,13,5dec07ce101ef60008c67987,Πεινωκιο,38.043583,23.751215,Meze Restaurant
1430,1109,37.99380000000001,23.7075,11,1,5df2a2d8db204c0007bf1bf5,Mo's Kitchen,37.995476000000004,23.710974,Italian Restaurant
2199,1878,38.03380000000001,23.7875,4,0,5df4bb7ca5bc0c000bb0f03c,TGI Fridays,38.034665999999994,23.791142,American Restaurant
1735,1414,38.00380000000001,23.774166666666666,31,11,5e07c424637ee6000714f72a,Tokyo Joe,38.006954,23.777641,Sushi Restaurant
2615,319,37.9760609293324,23.74465108440563,16,6,5e445e1de1617b0008e0708f,Μπιρμπίλω,37.977946,23.745094,Greek Restaurant
2768,472,37.986060929332396,23.723682637136267,26,24,5e4eacb8acc7c50008b58d0c,"Ψησταριά - Σνακ Μπαρ ""Ο Χρηστος""",37.986584,23.722095,Grilled Meat Restaurant
782,461,37.963800000000006,23.72083333333333,43,40,5e51a0d1008ecd000821af73,Grandpa,37.963138,23.721829999999997,Italian Restaurant
1341,1020,37.9838,23.774166666666666,25,1,5e5290cbcb16a9000897cdd5,Foofootos,37.982614,23.770476000000002,Restaurant
2104,1783,38.03380000000001,23.7075,20,12,5e57aadac2d8a800081e1836,Σισάνης,38.03077724293461,23.709185421466827,Greek Restaurant
2655,359,37.97153907066761,23.74465108440563,31,30,5e5eadd24726a4000b50a088,Madai Sushi Bar,37.97142,23.746148,Sushi Restaurant
2151,1830,38.03380000000001,23.73416666666667,43,36,5e629f3835ec69000810c578,Meat & Grill Stories,38.032195,23.737133,Grilled Meat Restaurant
543,222,37.9538,23.7075,30,7,5e652fb8feff54000723522a,Qartuli Tone Iberia,37.951977,23.704060000000002,Caucasian Restaurant
556,235,37.9538,23.7075,30,20,5e6786c73703e0000853355a,Taj Mahal Tandoori Halal Restaurant,37.957217621873625,23.70917871594429,Indian Restaurant
784,463,37.963800000000006,23.72083333333333,43,42,5ecd5c0631a2a100082a5b52,Pepito Cocina Mexicana & Tequileria,37.965728000000006,23.725870999999998,Mexican Restaurant
1881,1560,38.0138,23.72083333333333,13,1,5ed23711d0bff8000872756e,Νοστος,38.011585,23.721999999999998,Greek Restaurant
3271,975,38.01153907066761,23.691316197081818,25,22,5ed7d72048c5950008e630df,Μαντάμ Πελαζί,38.011314,23.6898,Modern Greek Restaurant
167,167,37.9771913939986,23.729893249397932,18,3,5ed7e6cea9781600081db769,Καφενείον ΣΙ-ΤΙ-ΣΗ,37.977218,23.728791,Meze Restaurant
921,600,37.9738,23.7075,30,19,5edbfa16c1943600089750d1,ο Δήμαρχος,37.969988,23.707727,Meze Restaurant
821,500,37.963800000000006,23.7475,48,12,5ee7b4ce8ad9840008b93341,Ροζ Πάνθηρας,37.96524,23.743658,Greek Restaurant
378,57,37.9438,23.69416666666667,30,28,5eecc7c37d243b0008c76c89,Βασιλικός Και Δυόσμος,37.947502,23.69277,Greek Restaurant
2907,611,37.98153907066761,23.73131736286373,14,3,5eee54701b8f000008e1a6c5,Muse Bistro,37.979815,23.729935,Mediterranean Restaurant
767,446,37.963800000000006,23.72083333333333,43,25,5ef2663f8129120008181715,Κουκάτσι,37.965176,23.726177,Cretan Restaurant
2903,607,37.986060929332396,23.73131736286373,50,49,5ef602a7a43b03000832605e,Mangal,37.986483,23.733835,Turkish Restaurant
1912,1591,38.0138,23.7475,20,2,5efcccecb552bc0007012a92,The Aliento experience,38.013217,23.750470999999997,Peruvian Restaurant
1171,850,37.9838,23.7075,18,17,5f075d44938b7c3b5e6e21b6,Λήθη,37.983101,23.711661,Meze Restaurant
1995,1674,38.0238,23.73416666666667,21,9,5f0c3463de8d001b7ec7ce3c,Giga's Tone,38.02062,23.73167,Caucasian Restaurant
649,328,37.9538,23.76083333333333,20,1,5f1c7d5f68935a58c3a1d7a4,AVE Italian Resto Bar,37.955162,23.759462,Italian Restaurant
3003,707,37.9838,23.76083333333333,17,16,5f2178a0bf10571f8de8c5fb,Homu Sushi Bar,37.98451938521887,23.76125782728195,Sushi Restaurant
412,91,37.9438,23.73416666666667,26,0,5f529619fe3ac3148adc9868,Το Κοράλι,37.94125,23.736223000000003,Greek Restaurant
2803,507,37.98153907066761,23.723682637136267,34,33,5f5e548cfd76be70addee246,Dosa House,37.980734000000005,23.725376,Indian Restaurant
1135,814,37.9738,23.774166666666666,31,30,5f6f73f4bab59726149b898a,Παυσιλυπον,37.976259999999996,23.776342,Meze Restaurant
3002,706,37.9838,23.76083333333333,17,15,5f6fa96fa5db1e718ad746c3,Ntelogo,37.984257,23.761433,Cretan Restaurant
2156,1835,38.03380000000001,23.73416666666667,43,41,5f759e5198df6d72aa259174,VillaColombiana,38.034170196215356,23.73757794499397,Latin American Restaurant
807,486,37.963800000000006,23.73416666666667,24,22,5f7ca3bde7bb3d7605f88cd9,Ρόδακας,37.963263,23.734415,Greek Restaurant
2671,375,37.9760609293324,23.750348915594362,18,15,5f89f10dcdbd5420a6a58c00,ΣΠΑΛΑ Αθήνα,37.97503,23.750378,Modern Greek Restaurant
1787,1466,38.0138,23.68083333333333,11,10,5f8b36b0f0d2f46905cf73a8,Ανεμολόγιο Εναλλακτικό Καφέ,38.015526,23.680511,Mediterranean Restaurant
190,190,37.9749304646662,23.729893249397932,9,8,5f8d835e8e46913f25a8fc9f,Symposio Resto Bar,37.974726000000004,23.730586,Mediterranean Restaurant
2673,377,37.9760609293324,23.750348915594362,18,17,5f931c1a30968d739ce744ab,Spala,37.975105,23.750657,Modern Greek Restaurant
2624,328,37.9760609293324,23.74465108440563,16,15,5f9c12fd551ee9255bc40fa2,Tokyo Joe,37.977292999999996,23.745217999999998,Japanese Restaurant
2157,1836,38.03380000000001,23.73416666666667,43,42,5fa1727a1f239d360ae2bf59,Παγώνι,38.036405318668535,23.73712062835693,Meze Restaurant
181,181,37.9771913939986,23.729893249397932,18,17,5fccfae1463a7966ed0e4899,Aliola’s Pasta Bar,37.977246,23.730842000000003,Italian Restaurant
1754,1433,38.00380000000001,23.774166666666666,31,30,5fce9395d85060731549dabc,VERi TABLE,38.000204100000005,23.7730138,French Restaurant
