,lat_centre,long_centre,num_venues,venue_iter,venue_id,venue_name,lat_venue,long_venue,category
0,37.973800000000004,23.734166666666667,11,0,52fe109e11d2544b4457ecc3,Attic Moon,37.97432498281981,23.733418243031917,Chinese Restaurant
1,37.973800000000004,23.734166666666667,11,1,57db952b498e06f2595731c3,Ikura Sushi Bar,37.97433045179978,23.73398780822754,Sushi Restaurant
2,37.973800000000004,23.734166666666667,11,2,57da9a5f498eba6fca7b703f,Makalo,37.973958,23.733046,Mediterranean Restaurant
3,37.973800000000004,23.734166666666667,11,3,5c4389648b98fd002ca125c8,Tarka,37.974617,23.733948,Indian Restaurant
4,37.973800000000004,23.734166666666667,11,4,5f2e90e740aa3f5055351c9e,Ouzeri by Papaioannou,37.97425,23.73492,Ouzeri
5,37.973800000000004,23.734166666666667,11,5,57d19f68cd10794b66599a92,明月楼,37.974319,23.733453,Szechuan Restaurant
6,37.973800000000004,23.734166666666667,11,6,4bb7a93ab35776b0daf6c701,Diros,37.974379,23.733413,Greek Restaurant
7,37.973800000000004,23.734166666666667,11,7,5a3a5f501c0b3429dfa7abda,Στοά Ξενοφώντος,37.974133,23.73341,Meze Restaurant
8,37.973800000000004,23.734166666666667,11,8,5cbaf9051987ec0039f1eb63,Brigante,37.974171,23.734185,Italian Restaurant
9,37.973800000000004,23.734166666666667,11,9,52321406498e6d691bdf9e40,Ευγενία,37.974106,23.733558,Greek Restaurant
10,37.973800000000004,23.734166666666667,11,10,5c6fd030cbcdee002cfb2faa,LP Cobé,37.97348,23.733452,Brazilian Restaurant
11,37.9749304646662,23.732742208869485,38,0,5dd98f213553810008e00c46,Ovio,37.974798,23.732581,Italian Restaurant
12,37.9749304646662,23.732742208869485,38,1,4b190be0f964a5206dd723e3,Ο Τζίτζικας κι ο Μέρμηγκας,37.97524044842995,23.732702323950086,Greek Restaurant
13,37.9749304646662,23.732742208869485,38,2,58ff5c7cc5b11c64c7c6dd2c,Pink Flamingo,37.97462825361661,23.732530539108858,Dim Sum Restaurant
14,37.9749304646662,23.732742208869485,38,3,5618bcdf498ebf51a4df1c9f,sushimou,37.974421959048975,23.73257754122888,Sushi Restaurant
15,37.9749304646662,23.732742208869485,38,4,5b5f49ba037be10039cafc98,Birdman Japanese Grill + Pub,37.974661908377946,23.732425321985858,Japanese Restaurant
16,37.9749304646662,23.732742208869485,38,5,5266749411d2b21985efa52c,Koi Sushi Bar,37.97463458804954,23.73309824755302,Sushi Restaurant
17,37.9749304646662,23.732742208869485,38,6,4fd29985e4b02d3b86708ba6,Ο Κώστας 1950,37.974988,23.731843,Souvlaki Shop
18,37.9749304646662,23.732742208869485,38,7,5569b13a498ef35cadd788bf,The Greco's Project,37.97515602699642,23.733291709071935,Greek Restaurant
19,37.9749304646662,23.732742208869485,38,8,5b0c4c230dd31f002445cd9c,Mamacita,37.97478766519791,23.731910450107286,Mexican Restaurant
20,37.9749304646662,23.732742208869485,38,9,4b7aab48f964a52061362fe3,Noodle Bar,37.97479828134886,23.731814736742862,Asian Restaurant
21,37.9749304646662,23.732742208869485,38,10,5a0cc2a54aa3f836de22aa94,Gaku Sushi Izakaya,37.97473313080803,23.73288646912729,Sushi Restaurant
22,37.9749304646662,23.732742208869485,38,11,5c3fbab6356b49002c8d7dca,So So So,37.974702,23.732862,Ramen Restaurant
23,37.9749304646662,23.732742208869485,38,12,5358098c498e6f7f0396679d,East Pearl,37.97473603528318,23.732983768117858,Chinese Restaurant
24,37.9749304646662,23.732742208869485,38,13,4e6a0f95d4c01ce01762e1ed,In Town Cafe,37.97538225706555,23.731905620975333,Greek Restaurant
25,37.9749304646662,23.732742208869485,38,14,5554dfc4498e0edfe593d6c1,Baba Ji,37.97496165001359,23.733156885597413,Indian Restaurant
26,37.9749304646662,23.732742208869485,38,15,52fe109e11d2544b4457ecc3,Attic Moon,37.97432498281981,23.733418243031917,Chinese Restaurant
27,37.9749304646662,23.732742208869485,38,16,4e84719177c8d65b905ebe60,Indian Kitchen,37.97469166282441,23.732457852801698,Indian Restaurant
28,37.9749304646662,23.732742208869485,38,17,5ceea9f6da7080002d0cea6b,O Kostos,37.974991,23.731826,Greek Restaurant
29,37.9749304646662,23.732742208869485,38,18,4bb0eb70f964a520276a3ce3,Dosirak,37.9748109999699,23.73233694708566,Korean Restaurant
30,37.9749304646662,23.732742208869485,38,19,56519742498eea8801812f28,Jing Chinese Restaurant (Jing Chinese Restaurant   京品食尚 酒家),37.97472844529157,23.733076260078892,Chinese Restaurant
31,37.9749304646662,23.732742208869485,38,20,5a43d3916a5950360c76c713,Taste The SIN,37.975384,23.732387,Breakfast Spot
32,37.9749304646662,23.732742208869485,38,21,51f121ec498e11d3fdaef431,The butcher's souvlaki,37.974708557128906,23.732954025268555,Souvlaki Shop
33,37.9749304646662,23.732742208869485,38,22,58493925f68d8d67bed01afb,Pide Pita,37.97501,23.732327,Snack Place
34,37.9749304646662,23.732742208869485,38,23,5d9396dc6957e60008dab0fb,V 1935 Mediterranean Tastes,37.975125,23.732347,Mediterranean Restaurant
35,37.9749304646662,23.732742208869485,38,24,5968fa541ffed7567bb7bbb2,Μπαρμπαδήμος,37.97526337530526,23.73275161076117,Kebab Restaurant
36,37.9749304646662,23.732742208869485,38,25,5be335ff3fcee80039df1770,Mr. Pug,37.974272,23.733149,Asian Restaurant
37,37.9749304646662,23.732742208869485,38,26,4ece9a625c5c9528f72d02f2,Meatropoleos 3,37.97511394405139,23.733657676335643,Grilled Meat Restaurant
38,37.9749304646662,23.732742208869485,38,27,57d19f68cd10794b66599a92,明月楼,37.974319,23.733453,Szechuan Restaurant
39,37.9749304646662,23.732742208869485,38,28,5d45de7ecaedea00084bb0de,Shiraki,37.974518,23.733112,Sushi Restaurant
40,37.9749304646662,23.732742208869485,38,29,4bb7a93ab35776b0daf6c701,Diros,37.974379,23.733413,Greek Restaurant
41,37.9749304646662,23.732742208869485,38,30,5a817a2b492814565711263b,Street Ball,37.97572616275323,23.732587695121765,Fast Food Restaurant
42,37.9749304646662,23.732742208869485,38,31,56c33d43cd106d138c7a2713,Εν Αθήναις-Αλεξάνδρα,37.97465876726533,23.732796907424923,Souvlaki Shop
43,37.9749304646662,23.732742208869485,38,32,5ed124340ac2020008703f06,Sushi Lunchi,37.974327,23.732526,Sushi Restaurant
44,37.9749304646662,23.732742208869485,38,33,4d6e3a6329586dcb8439aff1,Το Σουβλάκι του Χασάπη,37.9757543467611,23.732820261452176,Souvlaki Shop
45,37.9749304646662,23.732742208869485,38,34,582ff854ed0a3259e6ad6008,Το Χρυσό Στάχυ,37.975272,23.732189,Bougatsa Shop
46,37.9749304646662,23.732742208869485,38,35,4b9b8e84f964a520410f36e3,Politi.co,37.975325,23.733698,Greek Restaurant
47,37.9749304646662,23.732742208869485,38,36,4c128326b7b9c92889eea737,Παραδοσιακό Οινομαγειρείο,37.974724443457035,23.732676783445914,Magirio
48,37.9749304646662,23.732742208869485,38,37,547a3da2498ec574d66444da,Guapa,37.97453831484326,23.733058258891965,Paella Restaurant
49,37.97266953533381,23.732742208869485,10,0,4d9a14b1942ba0937d26aa8c,Σαΐτα,37.97245216545326,23.73207761401864,Taverna
50,37.97266953533381,23.732742208869485,10,1,507da2b9e4b0b49e1f960068,Makao,37.973514,23.732891,Italian Restaurant
51,37.97266953533381,23.732742208869485,10,2,4d36a7b1c47db1f70183e8a5,2Μαζί,37.973150668517,23.73298486653898,Modern Greek Restaurant
52,37.97266953533381,23.732742208869485,10,3,5e0601fbabfb320008fce7ab,Άνετον,37.97344,23.73305,Modern Greek Restaurant
53,37.97266953533381,23.732742208869485,10,4,52682e3511d2db45a4bdf085,Βόλτα,37.972530422536124,23.732785396301097,Greek Restaurant
54,37.97266953533381,23.732742208869485,10,5,58c5412172efa433ca4d740d,福云龙中餐厅 (Fuyunlong Restaurant),37.97278,23.73371,Chinese Restaurant
55,37.97266953533381,23.732742208869485,10,6,578e3b32498e9902531102fe,Matreshka,37.972595,23.733477,Russian Restaurant
56,37.97266953533381,23.732742208869485,10,7,5172ccde498ed50ccd653fca,Παλιά Αθήνα,37.97315550910704,23.73320958881775,Greek Restaurant
57,37.97266953533381,23.732742208869485,10,8,535e9f26498ee6a6d7414b5a,παληα αθηνα,37.97322082519531,23.733097076416016,Greek Restaurant
58,37.97266953533381,23.732742208869485,10,9,53f8d9a5498eaf3f62ce1146,Zonar's Le Cafe Athens,37.973232812799075,23.732939554938564,Greek Restaurant
59,37.9749304646662,23.73559112446385,5,0,5f2e90e740aa3f5055351c9e,Ouzeri by Papaioannou,37.97425,23.73492,Ouzeri
60,37.9749304646662,23.73559112446385,5,1,5cfceaf4121384002cbe41d3,春熙,37.97482,23.735119,Chinese Restaurant
61,37.9749304646662,23.73559112446385,5,2,56e70406498ead12da7c7f6d,Piatsa Syntagma,37.97492644854834,23.73513940133078,Souvlaki Shop
62,37.9749304646662,23.73559112446385,5,3,5e0e0190a79853000839d637,Chun Xi,37.9752,23.735344,Chinese Restaurant
63,37.9749304646662,23.73559112446385,5,4,594530ed9e0d540422ec286c,Origin Syntagma,37.974802,23.735189,Greek Restaurant
64,37.97266953533381,23.73559112446385,1,0,5505c621498e4fa986efaae1,Fu Yu Long,37.97270437586635,23.73566176359938,Chinese Restaurant
65,37.9760609293324,23.723682248927698,29,0,4ba0c685f964a520d97c37e3,Moma,37.97583893097079,23.724091146656285,Mediterranean Restaurant
66,37.9760609293324,23.723682248927698,29,1,4adcdae0f964a520ac5821e3,Το Κουτί,37.97597061725337,23.723771118844247,Mediterranean Restaurant
67,37.9760609293324,23.723682248927698,29,2,4ba62a48f964a520633839e3,Dioskouroi (Διόσκουροι),37.975856989363784,23.724736049244495,Meze Restaurant
68,37.9760609293324,23.723682248927698,29,3,4e554da9b0fb1e5686bcb43e,Δίοδος,37.975921186926996,23.723451673873804,Meze Restaurant
69,37.9760609293324,23.723682248927698,29,4,4c55c9fbf5f3d13ae7f35ffc,Καλλιπάτειρα,37.97657619999017,23.722865081786424,Meze Restaurant
70,37.9760609293324,23.723682248927698,29,5,4bcb119b68f976b05a4e6083,Διά Ταύτα,37.97583121306854,23.72444018005562,Greek Restaurant
71,37.9760609293324,23.723682248927698,29,6,4cf25c85e3b9a09366134453,Μούσες,37.97613769552911,23.722965469222252,Meze Restaurant
72,37.9760609293324,23.723682248927698,29,7,4cf2598cc9af6dcbb9a79f7f,Antica,37.97590552832831,23.723871010246164,Greek Restaurant
73,37.9760609293324,23.723682248927698,29,8,4c5d55207735c9b6afaf8e72,Cafe Avissinia (Καφέ Αβυσσινία),37.97657543670317,23.723673693800226,Café
74,37.9760609293324,23.723682248927698,29,9,507ee043e4b0889aa5bea583,Ο Καστέλος/ Κρητικό καφενείο,37.97597291909229,23.724690808777808,Greek Restaurant
75,37.9760609293324,23.723682248927698,29,10,52382cd011d2e399f3fd535b,Xrhstos,37.97570907542214,23.723499563373068,Greek Restaurant
76,37.9760609293324,23.723682248927698,29,11,4fca2000e4b0c11681fa9297,To Xani Tou Othona,37.976334,23.72326,Greek Restaurant
77,37.9760609293324,23.723682248927698,29,12,4b688695f964a520e57d2be3,Αγορά της Αδριανού,37.97587797998652,23.724242276128866,Greek Restaurant
78,37.9760609293324,23.723682248927698,29,13,5144382ee4b03dc12bbde64d,Ciccus,37.97589183540688,23.724222780873674,Café
79,37.9760609293324,23.723682248927698,29,14,5608373c498e5cc56bb8b64b,Papper Moon,37.97628513469619,23.723203204348614,Italian Restaurant
80,37.9760609293324,23.723682248927698,29,15,51b72170498e1471f43f0825,Καστέλο - Παραδοσιακό Καφενείο,37.97643,23.724558,Kafenio
81,37.9760609293324,23.723682248927698,29,16,59d942d2c0af5760519674f5,Kouzoulades (Κουζουλάδες),37.97691684733615,23.723521828651428,Meze Restaurant
82,37.9760609293324,23.723682248927698,29,17,5d7fed4b55525f000743a414,Kyklamino,37.976498,23.723751,Greek Restaurant
83,37.9760609293324,23.723682248927698,29,18,4e9aca395503cfce745cc41d,Ποικίλη Στοά,37.976471406925164,23.722958595476122,Greek Restaurant
84,37.9760609293324,23.723682248927698,29,19,5d4d40da48faba000827d7a8,Κυκλαμινο,37.976448,23.723944,Souvlaki Shop
85,37.9760609293324,23.723682248927698,29,20,54427e40498ef5d7f4b0a900,Ανεφ Λογου Μοναστηρακι,37.976406,23.723143,Meze Restaurant
86,37.9760609293324,23.723682248927698,29,21,54427e63498eb1ca748afc34,Ανευ Λογου Μοναστηρακι,37.976412,23.723185,Meze Restaurant
87,37.9760609293324,23.723682248927698,29,22,5ae4e9344c9be6002c537e2a,summer φουαρ,37.976488,23.724095,Thai Restaurant
88,37.9760609293324,23.723682248927698,29,23,4f63bd41e4b0aa8f666e167a,Στα Παλιατζίδικα,37.97655241664822,23.724528102244637,Meze Restaurant
89,37.9760609293324,23.723682248927698,29,24,5613e25f498e55cc2f1b0b6b,Pepper Moon,37.97650909423828,23.723302841186523,Italian Restaurant
90,37.9760609293324,23.723682248927698,29,25,5315a3fd498eefbe4aa6cdea,ο παλιάτσος,37.976323,23.723744,Meze Restaurant
91,37.9760609293324,23.723682248927698,29,26,57cb1d17498ea577c49c9782,ALL THAT JATZ,37.97662596880806,23.723324415148934,Souvlaki Shop
92,37.9760609293324,23.723682248927698,29,27,5936b5bd1108ba67b3a95d94,Cafe Musses,37.976132,23.723087,Greek Restaurant
93,37.9760609293324,23.723682248927698,29,28,5e5262083a1e610008b7755a,Όμορφη Πόλη,37.976097,23.72349,Taverna
94,37.977191393998595,23.72225774725333,28,0,4cd47113b2a4370494617744,Kuzina,37.9764285340136,23.721982100023503,Greek Restaurant
95,37.977191393998595,23.72225774725333,28,1,5bc8cfc1dff815002c095d18,Naanwich Indian Street Food,37.97706948408148,23.72323009429185,Indian Restaurant
96,37.977191393998595,23.72225774725333,28,2,4c4c786dc668e21ed1f490fb,Gyristroula (Γυριστρούλα),37.97699388745058,23.72121168189436,Grilled Meat Restaurant
97,37.977191393998595,23.72225774725333,28,3,5d0b8b3cfcc4ec0023bf68bf,Τα Καραμανλίδικα του Φάνη - Μεζετζίδικο,37.977063,23.722809,Meze Restaurant
98,37.977191393998595,23.72225774725333,28,4,53cbc288498ec6ddfb188418,Atlantikos (Ατλαντικός),37.97749104076038,23.722984637496985,Greek Restaurant
99,37.977191393998595,23.72225774725333,28,5,4adcdadff964a5202b5821e3,Carte Postale,37.9765381923282,23.721791833838278,Bar
100,37.977191393998595,23.72225774725333,28,6,4e6143408877954de7b06663,Καφενείο Ήβης,37.97759938787867,23.722640915149015,Kafenio
101,37.977191393998595,23.72225774725333,28,7,4c619ff6ec94a593875727ca,Indian Masala,37.97728227481989,23.721960480449905,Indian Restaurant
102,37.977191393998595,23.72225774725333,28,8,4c55c9fbf5f3d13ae7f35ffc,Καλλιπάτειρα,37.97657619999017,23.722865081786424,Meze Restaurant
103,37.977191393998595,23.72225774725333,28,9,4ed9feb9d3e346be33d1cad8,Diavlos (Δίαυλος),37.97677128224997,23.721290870084,Meze Restaurant
104,37.977191393998595,23.72225774725333,28,10,4dd93001d4c05d509713d978,Souvlaki Bar,37.976638513476736,23.721912548275878,Souvlaki Shop
105,37.977191393998595,23.72225774725333,28,11,50f99b30e4b024a8e8c3a720,Ι. Χ.  Μαγειρειο,37.97738507303341,23.72216885195924,Greek Restaurant
106,37.977191393998595,23.72225774725333,28,12,545608b2498ed7a6b8cfe32e,ErmouKitchen114,37.97721785652939,23.722540754171803,Greek Restaurant
107,37.977191393998595,23.72225774725333,28,13,52bf58ae498e01893b211e84,Στοά του Κώστα,37.97797488204155,23.72193060196871,Greek Restaurant
108,37.977191393998595,23.72225774725333,28,14,4dcf9e45183899ddfaf10d27,Ηριδανός,37.97629928917719,23.72223766803133,Greek Restaurant
109,37.977191393998595,23.72225774725333,28,15,5794e787498e1f75fde412f5,Epta 7 Restaurant Bar,37.976951,23.72283,Italian Restaurant
110,37.977191393998595,23.72225774725333,28,16,4f2d4d32e4b059914edc99c0,Κουδουνάκι,37.977698209397985,23.72249373118384,Greek Restaurant
111,37.977191393998595,23.72225774725333,28,17,4d89f84c1508a1432a85191e,Attalos (Άτταλος),37.97634687692827,23.72210806270378,Greek Restaurant
112,37.977191393998595,23.72225774725333,28,18,4e31a777d22da36981381a84,Καλή Ζωή,37.976782306187964,23.721941357606095,Meze Restaurant
113,37.977191393998595,23.72225774725333,28,19,4d7d4a7379c4b1f715d10af3,ΔΙΠΥΛΟ,37.97720680606986,23.722358996771327,Greek Restaurant
114,37.977191393998595,23.72225774725333,28,20,5acf7610805e3f1495315865,Oishi Fresh Sushi bar,37.97701410390608,23.723130226135254,Japanese Restaurant
115,37.977191393998595,23.72225774725333,28,21,50f2bae6e4b0d3754e152619,Mummy's Cooking,37.97721386126737,23.722110742215218,Greek Restaurant
116,37.977191393998595,23.72225774725333,28,22,5dbd7b1d3724060008b98b9a,Ceci Hong Kong Restaurant,37.977105,23.723297,Chinese Restaurant
117,37.977191393998595,23.72225774725333,28,23,508998afe4b02ba9b05fc639,Ελλαδικόν,37.97732436820364,23.723354289361957,Greek Restaurant
118,37.977191393998595,23.72225774725333,28,24,55ca4fb6498ed574bce354e9,kafenio ibis,37.977566,23.722762,Taverna
119,37.977191393998595,23.72225774725333,28,25,59fb7027a9e40206da7a3b93,Fresh Sushi Bar,37.976994,23.72285,Sushi Restaurant
120,37.977191393998595,23.72225774725333,28,26,504a35c8e4b0d1cf331a44ef,Κουκουβάγια,37.97738067842938,23.72295333288689,Greek Restaurant
121,37.977191393998595,23.72225774725333,28,27,592de02d3b4e0068eccc76cc,Atlantikos,37.977562,23.723021,Seafood Restaurant
122,37.977191393998595,23.725106750602066,17,0,52a5c4f311d210f9982fc2c1,Savvas Kebab (Σάββας Κεμπάπ),37.976846782087364,23.725106283369584,Kebab Restaurant
123,37.977191393998595,23.725106750602066,17,1,59e21c0a0e5da877707d35bd,Misafir,37.9768746306743,23.724947455311927,Middle Eastern Restaurant
124,37.977191393998595,23.725106750602066,17,2,5d2f288e4318c900084e50e6,Wok And Walk,37.976902,23.72535,Noodle House
125,37.977191393998595,23.725106750602066,17,3,4d66b671a282a1cd72853164,Αρόδου,37.978072958475146,23.725261046531077,Meze Restaurant
126,37.977191393998595,23.725106750602066,17,4,5b602be3d552c7002cfd9746,Sabbas,37.976511,23.725047,Greek Restaurant
127,37.977191393998595,23.725106750602066,17,5,538a6141498eed26a235f93e,Μισό Πιθάρι,37.976630643433516,23.72574840003791,Souvlaki Shop
128,37.977191393998595,23.725106750602066,17,6,51b72170498e1471f43f0825,Καστέλο - Παραδοσιακό Καφενείο,37.97643,23.724558,Kafenio
129,37.977191393998595,23.725106750602066,17,7,534fbbbc498ef2f18c368437,Καφενείο η Στοά,37.976904,23.725238,Kafenio
130,37.977191393998595,23.725106750602066,17,8,5e047995a4d1fb000821b2d2,Migada,37.97721580515127,23.725839257240295,Burrito Place
131,37.977191393998595,23.725106750602066,17,9,5ce891283fcee8002b80c06b,Jason’s Athens Weekend Hideout,37.977328,23.724422,Greek Restaurant
132,37.977191393998595,23.725106750602066,17,10,5c06ccb52b9844002cea0f82,Buddha Restaurant,37.977629354438,23.724243342876434,Indian Restaurant
133,37.977191393998595,23.725106750602066,17,11,4e00ed4bd4c0836163da1248,Παραδοσιακο Καφενειο,37.97678109226007,23.726044757653494,Kafenio
134,37.977191393998595,23.725106750602066,17,12,4dff8d44ae605b47b175fe5f,Ta Karafakia,37.9773392,23.725147,Greek Restaurant
135,37.977191393998595,23.725106750602066,17,13,552ebb04498eade00dcae4c2,Indian Tandoori Masala,37.97766872801056,23.72421458836029,Indian Restaurant
136,37.977191393998595,23.725106750602066,17,14,54515742498e77409dba7f68,Nonna,37.97761295525091,23.725757338435216,Magirio
137,37.977191393998595,23.725106750602066,17,15,4f63bd41e4b0aa8f666e167a,Στα Παλιατζίδικα,37.97655241664822,23.724528102244637,Meze Restaurant
138,37.977191393998595,23.725106750602066,17,16,5d17bf423f9ff700230366ad,Clockwork Monkey (Κουρδιστή Μαϊμού),37.977192,23.725039,Italian Restaurant
139,37.9749304646662,23.725106750602066,5,0,4dea2a4dfa76cc1b8adceb23,Μαίανδρος,37.97567631595717,23.725354795638964,Meze Restaurant
140,37.9749304646662,23.725106750602066,5,1,4c9f42140e9bb1f79fbbee5f,Εύχαρις,37.97570042117868,23.72546382937103,Greek Restaurant
141,37.9749304646662,23.725106750602066,5,2,4adcdadff964a520245821e3,Hard Rock Cafe Athens,37.9756712,23.7252445,American Restaurant
142,37.9749304646662,23.725106750602066,5,3,4da17da4c6e96ea889b7c15d,Kotili,37.975792765427045,23.725098311888235,Greek Restaurant
143,37.9749304646662,23.725106750602066,5,4,5cbe19d535d3fc002c1b9663,Euxaris,37.975747,23.725364,Taverna
144,37.9760609293324,23.7313177510723,20,0,589db95537318129d1585fbc,Σερσέ Λα Φαμ,37.97544060014718,23.730536119494403,Kafenio
145,37.9760609293324,23.7313177510723,20,1,5c6eb52658002c002c352357,ERGON House Athens,37.97526789884332,23.731592842896493,Gourmet Shop
146,37.9760609293324,23.7313177510723,20,2,503b44d2e4b0824d0c083dd9,Νεοκλασσικό,37.97657230174442,23.732102773504074,Souvlaki Shop
147,37.9760609293324,23.7313177510723,20,3,5d52a5062f162b000808b43e,Cardinale,37.975373,23.731205,Italian Restaurant
148,37.9760609293324,23.7313177510723,20,4,54f0b2c7498e311c66281257,Taqueria Maya,37.97552092300487,23.731670278797818,Mexican Restaurant
149,37.9760609293324,23.7313177510723,20,5,4e6a0f95d4c01ce01762e1ed,In Town Cafe,37.97538225706555,23.731905620975333,Greek Restaurant
150,37.9760609293324,23.7313177510723,20,6,57efc55a498e1c397bb5b46b,Smile Athens restau,37.975522,23.731159,Modern European Restaurant
151,37.9760609293324,23.7313177510723,20,7,5395a1c8498eae4bad9351f1,αποστόλης & τάκης,37.975583,23.731646,Greek Restaurant
152,37.9760609293324,23.7313177510723,20,8,585ff1f5424f935d0b247db6,Bail Burger Bar,37.97599501779573,23.731777667999268,American Restaurant
153,37.9760609293324,23.7313177510723,20,9,4eb3e7b629c212fb6bb732d8,Αποστόλης Τάκης,37.975411,23.731602,Greek Restaurant
154,37.9760609293324,23.7313177510723,20,10,59d78c5c1cf2e14bace07cce,Bollywood Masala,37.975965417572766,23.73052105307579,Indian Restaurant
155,37.9760609293324,23.7313177510723,20,11,4c34bfb93896e21ea213ec90,Ιθάκη Barbeque,37.97549200340196,23.73048563696387,Greek Restaurant
156,37.9760609293324,23.7313177510723,20,12,5909f6b860255e0cf762e6ce,Το Φαγάκι Της Γιαγιάς,37.976654,23.73215,Magirio
157,37.9760609293324,23.7313177510723,20,13,5d440acd816c1500085c12ca,Da Panda BBQ,37.975525,23.731588,Asian Restaurant
158,37.9760609293324,23.7313177510723,20,14,5cfbe136f5e9d7002cd8841a,To Newclassico,37.976673,23.732129,Greek Restaurant
159,37.9760609293324,23.7313177510723,20,15,57489954498ebf9e294ec7ac,GRÉXICO,37.975677233236034,23.73051089749894,Mexican Restaurant
160,37.9760609293324,23.7313177510723,20,16,50d882ebe4b00d642e1195a5,ΣουβΛΕΚΚΑ,37.97638358493101,23.732308905674568,Souvlaki Shop
161,37.9760609293324,23.7313177510723,20,17,56a3fc2e38fac19ab7263f2e,Στο ΝΕΟΚΛΑΣΙΚΟ,37.97664706002088,23.73163484503697,Mediterranean Restaurant
162,37.9760609293324,23.7313177510723,20,18,4daec8dc8154d1d4886ceed7,Αθηναϊκόν,37.975348456486074,23.731466443308477,Greek Restaurant
163,37.9760609293324,23.7313177510723,20,19,5903688966611669713100ae,Poké | Hawaiian Sushi,37.97554619396405,23.73165698513202,Hawaiian Restaurant
164,37.977191393998595,23.729893249397932,18,0,5f7f607daac5fe0c8ca294eb,Curry Express,37.977598,23.730379,Indian Restaurant
165,37.977191393998595,23.729893249397932,18,1,554dfb49498e894ce3e13bcd,Etnico,37.977649887902054,23.73061254652995,Burrito Place
166,37.977191393998595,23.729893249397932,18,2,4f48e24ee4b0c83960179fcb,Melilotos (Μελίλωτος),37.977335291564366,23.729105667698676,Modern Greek Restaurant
167,37.977191393998595,23.729893249397932,18,3,5ed7e6cea9781600081db769,Καφενείον ΣΙ-ΤΙ-ΣΗ,37.977218,23.728791,Meze Restaurant
168,37.977191393998595,23.729893249397932,18,4,54380f48498e0fa6d1f8867a,The Pasta Shop,37.97692305672462,23.728885842380574,Italian Restaurant
169,37.977191393998595,23.729893249397932,18,5,59721832286fda37b9b46fa9,Zisis (Ζήσης),37.97680315361432,23.72911442772039,Seafood Restaurant
170,37.977191393998595,23.729893249397932,18,6,5832073e26a40755da7a0f99,Shisan Sushi Bar,37.977492047632204,23.72920214711121,Sushi Restaurant
171,37.977191393998595,23.729893249397932,18,7,564e243b498e6e85200eeb7c,Street Souvlaki,37.97766097560455,23.730329003992686,Souvlaki Shop
172,37.977191393998595,23.729893249397932,18,8,5f45584658b4ee11900fce81,Louis Bistrot D’Athenes,37.976793,23.728878,Bistro
173,37.977191393998595,23.729893249397932,18,9,50d64537e4b0260d06226993,γεια σουVlucky,37.97738818050447,23.729548738186953,Souvlaki Shop
174,37.977191393998595,23.729893249397932,18,10,4d30734554b62c0f8ecbd405,Ταχυφαγείον Ελληνικόν,37.97767427066488,23.730278811939858,Souvlaki Shop
175,37.977191393998595,23.729893249397932,18,11,5aa274952619ee383b18caa8,Βαβέλ Καφενείο,37.976902,23.730122,Kafenio
176,37.977191393998595,23.729893249397932,18,12,51976699e4b0d3bbdf9f1420,Τα Κύθηρα,37.97757,23.730793,Coffee Shop
177,37.977191393998595,23.729893249397932,18,13,5c2dcfefc0f163002cabb403,Psaronostimies (Ψαρονοστιμιές),37.977740140935545,23.730672597557714,Street Food Gathering
178,37.977191393998595,23.729893249397932,18,14,4d69008882cba0936e03d5d8,"Triantagyllos, Lekka 22",37.977286,23.730258,Greek Restaurant
179,37.977191393998595,23.729893249397932,18,15,4d44645f3616b60c90d9e3c2,Φίλεμα,37.97696174859016,23.73009987489313,Meze Restaurant
180,37.977191393998595,23.729893249397932,18,16,4b892453f964a520fe1e32e3,Μινιατούρα,37.97741736473404,23.730059346811974,Greek Restaurant
181,37.977191393998595,23.729893249397932,18,17,5fccfae1463a7966ed0e4899,Aliola’s Pasta Bar,37.977246,23.730842,Italian Restaurant
182,37.9749304646662,23.729893249397932,9,0,589db95537318129d1585fbc,Σερσέ Λα Φαμ,37.97544060014718,23.730536119494403,Kafenio
183,37.9749304646662,23.729893249397932,9,1,4bf3c6f598ac0f47b42b63a8,Old Ithaki (Παλαιά Ιθάκη),37.974955255615896,23.730078892000208,Greek Restaurant
184,37.9749304646662,23.729893249397932,9,2,545f4fc5498e963255b65105,Palmie Bistro,37.97580400044144,23.729817127802747,Greek Restaurant
185,37.9749304646662,23.729893249397932,9,3,5cc34dbe5d891b002c8eebfb,Μπαρμπουνάκι δια χειρός Παπαϊωάννου,37.975077,23.729505,Seafood Restaurant
186,37.9749304646662,23.729893249397932,9,4,4c34bfb93896e21ea213ec90,Ιθάκη Barbeque,37.97549200340196,23.73048563696387,Greek Restaurant
187,37.9749304646662,23.729893249397932,9,5,4d4563febf61a1cd0dc812ac,Mono,37.97466202889922,23.72954662689014,Mediterranean Restaurant
188,37.9749304646662,23.729893249397932,9,6,4d3adbb00333a09319a95834,Stil Cafe,37.975719558330056,23.72983001010174,Café
189,37.9749304646662,23.729893249397932,9,7,57489954498ebf9e294ec7ac,GRÉXICO,37.975677233236034,23.73051089749894,Mexican Restaurant
190,37.9749304646662,23.729893249397932,9,8,5f8d835e8e46913f25a8fc9f,Symposio Resto Bar,37.974726,23.730586,Mediterranean Restaurant
191,37.977191393998595,23.732742252746668,11,0,503b44d2e4b0824d0c083dd9,Νεοκλασσικό,37.97657230174442,23.732102773504074,Souvlaki Shop
192,37.977191393998595,23.732742252746668,11,1,4d0cb314257d6dcb4d2a9767,Τριαντάφυλλος,37.97709517576543,23.73175254660637,Greek Restaurant
193,37.977191393998595,23.732742252746668,11,2,4d418aaf89616dcb530010b5,Κεντρικόν,37.977052681649496,23.733463026004493,Greek Restaurant
194,37.977191393998595,23.732742252746668,11,3,5938ce5adff8153e7c36a6ff,Bella Vista Restaurant,37.976545,23.732581,Greek Restaurant
195,37.977191393998595,23.732742252746668,11,4,5909f6b860255e0cf762e6ce,Το Φαγάκι Της Γιαγιάς,37.976654,23.73215,Magirio
196,37.977191393998595,23.732742252746668,11,5,5cfbe136f5e9d7002cd8841a,To Newclassico,37.976673,23.732129,Greek Restaurant
197,37.977191393998595,23.732742252746668,11,6,50d882ebe4b00d642e1195a5,ΣουβΛΕΚΚΑ,37.97638358493101,23.732308905674568,Souvlaki Shop
198,37.977191393998595,23.732742252746668,11,7,5539eff2498eda40128f4599,Σάββας Πολίτικη Μπουγάτσα,37.97746859835855,23.73262850309302,Bougatsa Shop
199,37.977191393998595,23.732742252746668,11,8,5836bfc8fc73d41260de0d19,Σπιτική Κουζίνα,37.97679280315327,23.732823905641034,Magirio
200,37.977191393998595,23.732742252746668,11,9,596f9ca212c8f0189a0dd29d,Etnico,37.977554,23.731724,Indian Restaurant
201,37.977191393998595,23.732742252746668,11,10,52bc5369498ed57ba92294a1,ΑΡΤΙΖΑΝ,37.976819099501526,23.73199072569639,Greek Restaurant
202,37.9749304646662,23.732742252746668,38,0,5dd98f213553810008e00c46,Ovio,37.974798,23.732581,Italian Restaurant
203,37.9749304646662,23.732742252746668,38,1,4b190be0f964a5206dd723e3,Ο Τζίτζικας κι ο Μέρμηγκας,37.97524044842995,23.732702323950086,Greek Restaurant
204,37.9749304646662,23.732742252746668,38,2,58ff5c7cc5b11c64c7c6dd2c,Pink Flamingo,37.97462825361661,23.732530539108858,Dim Sum Restaurant
205,37.9749304646662,23.732742252746668,38,3,5618bcdf498ebf51a4df1c9f,sushimou,37.974421959048975,23.73257754122888,Sushi Restaurant
206,37.9749304646662,23.732742252746668,38,4,5b5f49ba037be10039cafc98,Birdman Japanese Grill + Pub,37.974661908377946,23.732425321985858,Japanese Restaurant
207,37.9749304646662,23.732742252746668,38,5,5266749411d2b21985efa52c,Koi Sushi Bar,37.97463458804954,23.73309824755302,Sushi Restaurant
208,37.9749304646662,23.732742252746668,38,6,4fd29985e4b02d3b86708ba6,Ο Κώστας 1950,37.974988,23.731843,Souvlaki Shop
209,37.9749304646662,23.732742252746668,38,7,5569b13a498ef35cadd788bf,The Greco's Project,37.97515602699642,23.733291709071935,Greek Restaurant
210,37.9749304646662,23.732742252746668,38,8,5b0c4c230dd31f002445cd9c,Mamacita,37.97478766519791,23.731910450107286,Mexican Restaurant
211,37.9749304646662,23.732742252746668,38,9,4b7aab48f964a52061362fe3,Noodle Bar,37.97479828134886,23.731814736742862,Asian Restaurant
212,37.9749304646662,23.732742252746668,38,10,5a0cc2a54aa3f836de22aa94,Gaku Sushi Izakaya,37.97473313080803,23.73288646912729,Sushi Restaurant
213,37.9749304646662,23.732742252746668,38,11,5c3fbab6356b49002c8d7dca,So So So,37.974702,23.732862,Ramen Restaurant
214,37.9749304646662,23.732742252746668,38,12,5358098c498e6f7f0396679d,East Pearl,37.97473603528318,23.732983768117858,Chinese Restaurant
215,37.9749304646662,23.732742252746668,38,13,4e6a0f95d4c01ce01762e1ed,In Town Cafe,37.97538225706555,23.731905620975333,Greek Restaurant
216,37.9749304646662,23.732742252746668,38,14,5554dfc4498e0edfe593d6c1,Baba Ji,37.97496165001359,23.733156885597413,Indian Restaurant
217,37.9749304646662,23.732742252746668,38,15,52fe109e11d2544b4457ecc3,Attic Moon,37.97432498281981,23.733418243031917,Chinese Restaurant
218,37.9749304646662,23.732742252746668,38,16,4e84719177c8d65b905ebe60,Indian Kitchen,37.97469166282441,23.732457852801698,Indian Restaurant
219,37.9749304646662,23.732742252746668,38,17,5ceea9f6da7080002d0cea6b,O Kostos,37.974991,23.731826,Greek Restaurant
220,37.9749304646662,23.732742252746668,38,18,4bb0eb70f964a520276a3ce3,Dosirak,37.9748109999699,23.73233694708566,Korean Restaurant
221,37.9749304646662,23.732742252746668,38,19,56519742498eea8801812f28,Jing Chinese Restaurant (Jing Chinese Restaurant   京品食尚 酒家),37.97472844529157,23.733076260078892,Chinese Restaurant
222,37.9749304646662,23.732742252746668,38,20,5a43d3916a5950360c76c713,Taste The SIN,37.975384,23.732387,Breakfast Spot
223,37.9749304646662,23.732742252746668,38,21,51f121ec498e11d3fdaef431,The butcher's souvlaki,37.974708557128906,23.732954025268555,Souvlaki Shop
224,37.9749304646662,23.732742252746668,38,22,58493925f68d8d67bed01afb,Pide Pita,37.97501,23.732327,Snack Place
225,37.9749304646662,23.732742252746668,38,23,5d9396dc6957e60008dab0fb,V 1935 Mediterranean Tastes,37.975125,23.732347,Mediterranean Restaurant
226,37.9749304646662,23.732742252746668,38,24,5968fa541ffed7567bb7bbb2,Μπαρμπαδήμος,37.97526337530526,23.73275161076117,Kebab Restaurant
227,37.9749304646662,23.732742252746668,38,25,5be335ff3fcee80039df1770,Mr. Pug,37.974272,23.733149,Asian Restaurant
228,37.9749304646662,23.732742252746668,38,26,4ece9a625c5c9528f72d02f2,Meatropoleos 3,37.97511394405139,23.733657676335643,Grilled Meat Restaurant
229,37.9749304646662,23.732742252746668,38,27,57d19f68cd10794b66599a92,明月楼,37.974319,23.733453,Szechuan Restaurant
230,37.9749304646662,23.732742252746668,38,28,5d45de7ecaedea00084bb0de,Shiraki,37.974518,23.733112,Sushi Restaurant
231,37.9749304646662,23.732742252746668,38,29,4bb7a93ab35776b0daf6c701,Diros,37.974379,23.733413,Greek Restaurant
232,37.9749304646662,23.732742252746668,38,30,5a817a2b492814565711263b,Street Ball,37.97572616275323,23.732587695121765,Fast Food Restaurant
233,37.9749304646662,23.732742252746668,38,31,56c33d43cd106d138c7a2713,Εν Αθήναις-Αλεξάνδρα,37.97465876726533,23.732796907424923,Souvlaki Shop
234,37.9749304646662,23.732742252746668,38,32,5ed124340ac2020008703f06,Sushi Lunchi,37.974327,23.732526,Sushi Restaurant
235,37.9749304646662,23.732742252746668,38,33,4d6e3a6329586dcb8439aff1,Το Σουβλάκι του Χασάπη,37.9757543467611,23.732820261452176,Souvlaki Shop
236,37.9749304646662,23.732742252746668,38,34,582ff854ed0a3259e6ad6008,Το Χρυσό Στάχυ,37.975272,23.732189,Bougatsa Shop
237,37.9749304646662,23.732742252746668,38,35,4b9b8e84f964a520410f36e3,Politi.co,37.975325,23.733698,Greek Restaurant
238,37.9749304646662,23.732742252746668,38,36,4c128326b7b9c92889eea737,Παραδοσιακό Οινομαγειρείο,37.974724443457035,23.732676783445914,Magirio
239,37.9749304646662,23.732742252746668,38,37,547a3da2498ec574d66444da,Guapa,37.97453831484326,23.733058258891965,Paella Restaurant
240,37.9838,23.734166666666667,11,0,58b95bbe668af72c7bbec368,Πρίγκηπας,37.98361879198963,23.734433054924008,Souvlaki Shop
241,37.9838,23.734166666666667,11,1,4be6a534d4f7c9b623ee2620,Hasan MareNostrum Cafe Bar,37.98425724185128,23.73395562171936,Bar
242,37.9838,23.734166666666667,11,2,51165be2e4b063143c5092e6,Μαγειρευτό,37.98354691318046,23.733837604522705,Magirio
243,37.9838,23.734166666666667,11,3,4d9ed836925f236a88844144,Λειβαδια,37.98403503546351,23.734145135504008,Greek Restaurant
244,37.9838,23.734166666666667,11,4,518fee03498e9061f1de9f08,Η Ζούλα,37.98438520895463,23.73442136720029,Meze Restaurant
245,37.9838,23.734166666666667,11,5,4ee28186d3e3a823d605c620,Αγγελος,37.984169816893065,23.734557299838297,Greek Restaurant
246,37.9838,23.734166666666667,11,6,5297b3e411d2751d5c3931f8,Mpaxalaki,37.984458895486235,23.733680267790586,Greek Restaurant
247,37.9838,23.734166666666667,11,7,4fa3e4bbe4b0fed480a21a20,Vassilikos,37.983454336461186,23.734604191973126,Greek Restaurant
248,37.9838,23.734166666666667,11,8,4d6926cbc1655481c517e881,Αγκλέουρας,37.984686288732064,23.734197738925957,Greek Restaurant
249,37.9838,23.734166666666667,11,9,4deccf5552b11677f07637d0,Ouzeri 'To Pentagono',37.9833,23.7333,Ouzeri
250,37.9838,23.734166666666667,11,10,4e957f63dab450040c5a7404,Βασιλικός,37.98321541611105,23.733862597304324,Greek Restaurant
251,37.9849304646662,23.7327420147652,15,0,4b672e56f964a520d43f2be3,Λέσβος,37.98463559758934,23.732987515232015,Ouzeri
252,37.9849304646662,23.7327420147652,15,1,4ecb959549015d98b15a5996,Γιώργος-Μάνος,37.98563233065259,23.733401674493454,Souvlaki Shop
253,37.9849304646662,23.7327420147652,15,2,5dda7ae619f6a90008eb2c0f,Polis Stagidis Bakery,37.984904,23.73161,Bakery
254,37.9849304646662,23.7327420147652,15,3,57f7d571498e51817564ef15,Λεβάντα,37.984502,23.732909,Kurdish Restaurant
255,37.9849304646662,23.7327420147652,15,4,4fd3937ee4b06383cc56f867,Δούρειος Ίππος,37.98537488579673,23.733453644633315,Greek Restaurant
256,37.9849304646662,23.7327420147652,15,5,4edf73b36da10302877ab376,Tivoli,37.98438821874078,23.732698497418546,Greek Restaurant
257,37.9849304646662,23.7327420147652,15,6,5268fc5e11d239ab930c3a2a,Πειρασμός Γεύσης,37.98517236454493,23.732343770856794,Greek Restaurant
258,37.9849304646662,23.7327420147652,15,7,5297b3e411d2751d5c3931f8,Mpaxalaki,37.984458895486235,23.733680267790586,Greek Restaurant
259,37.9849304646662,23.7327420147652,15,8,59cfe572d4cc9807e34e0e9b,Curry Palace,37.985504,23.73188,Indian Restaurant
260,37.9849304646662,23.7327420147652,15,9,4adcdadff964a520425821e3,Petrino Restaurant,37.984701039523884,23.73191957765157,Italian Restaurant
261,37.9849304646662,23.7327420147652,15,10,5b517e2d4aa3f8002c243deb,Athena,37.984719,23.73325,Greek Restaurant
262,37.9849304646662,23.7327420147652,15,11,508fd596e4b006ec3faf97c6,Το Κουκουτσι,37.985005103525616,23.732372825173574,Greek Restaurant
263,37.9849304646662,23.7327420147652,15,12,4d9b09d1335ab60c4a12f1f9,Ουδέν Σχόλιον,37.984426,23.732703,Greek Restaurant
264,37.9849304646662,23.7327420147652,15,13,4c97b8d5f7cfa1cdf8d9d015,Πέτρινο,37.984771,23.731786,Greek Restaurant
265,37.9849304646662,23.7327420147652,15,14,586438c3076be150f62f4b37,Indigo City,37.98581,23.732965,Indian Restaurant
266,37.982669535333805,23.7327420147652,6,0,4ee1eee99a521fcbef2412b5,Φειδίου 2,37.98251827715817,23.73221866529566,Other Nightlife
267,37.982669535333805,23.7327420147652,6,1,5475c6e9498e5c0b571d5951,Λέσχη Σίτισης Εθνικής Τραπέζης Ελλάδος,37.982842,23.733554,Magirio
268,37.982669535333805,23.7327420147652,6,2,5101ab68e4b0854f85211e09,ver mondo,37.98293685913086,23.7337646484375,Greek Restaurant
269,37.982669535333805,23.7327420147652,6,3,4cf780bd71538cfa0cbcbb2e,Καπετάν Μιχάλης,37.98262266894787,23.732138207112907,Ouzeri
270,37.982669535333805,23.7327420147652,6,4,4deccf5552b11677f07637d0,Ouzeri 'To Pentagono',37.9833,23.7333,Ouzeri
271,37.982669535333805,23.7327420147652,6,5,50868401e4b056389946534d,Στοά Δειπνοσοφιστών,37.98277466915589,23.732111336265564,Greek Restaurant
272,37.9849304646662,23.735591318568133,11,0,4dea883bd164ef597cee179d,Γιάντες,37.98548737209639,23.73598268950343,Greek Restaurant
273,37.9849304646662,23.735591318568133,11,1,4f8744c2e4b03a0f23775f1c,Όξο Νου,37.98568702132219,23.734979495131004,Cretan Restaurant
274,37.9849304646662,23.735591318568133,11,2,53b6ebfb498e531e3f9caadb,Folia,37.98531302890842,23.7352021719462,Falafel Restaurant
275,37.9849304646662,23.735591318568133,11,3,4bdafcb53904a5930b25489e,Salero,37.985616810778545,23.735528280573057,Tapas Restaurant
276,37.9849304646662,23.735591318568133,11,4,5953f5b58173cb530e93ecf7,Metaxa2,37.984784,23.735726,Café
277,37.9849304646662,23.735591318568133,11,5,525ea312498e5b2de950120a,Ψηστο,37.985290460769434,23.7352277693087,Meze Restaurant
278,37.9849304646662,23.735591318568133,11,6,56dc92d9498e43e53e028cb3,Utopian Garden,37.98452492550526,23.7355397362112,Meze Restaurant
279,37.9849304646662,23.735591318568133,11,7,5135fa38e4b0c54b4a1ffe05,Μπερεκέτι,37.98498470175968,23.73563852028951,Tsipouro Restaurant
280,37.9849304646662,23.735591318568133,11,8,509ef0fee4b0872dbd913002,καφενειο ναυαρινου,37.984179469237894,23.735353789661165,Kafenio
281,37.9849304646662,23.735591318568133,11,9,4c1b7027eac020a1dbca44c2,Κυματοθραύστης,37.98459549118245,23.736391067504883,Magirio
282,37.9849304646662,23.735591318568133,11,10,4ed8e0645c5c96a2fc56f432,Mikraki,37.984838222942315,23.73490635550914,Greek Restaurant
283,37.982669535333805,23.735591318568133,4,0,51754ae6498ed2640eef2c6f,Καλό Ψημένο,37.98297637240901,23.735991848493605,Souvlaki Shop
284,37.982669535333805,23.735591318568133,4,1,4b891979f964a520a41c32e3,Kapari,37.98226035219983,23.73548743875056,Greek Restaurant
285,37.982669535333805,23.735591318568133,4,2,541357e3498e196e2fae231b,Lemoni grill house,37.98215139204333,23.735377032983468,Greek Restaurant
286,37.982669535333805,23.735591318568133,4,3,4bd53041637ba593fb1df670,Καφενείο Πανελλήνιο,37.98306150561223,23.735644331117072,Kafenio
287,37.986060929332396,23.73131736286373,9,0,536e786c11d2512548330ec9,Ατίταμος,37.9860577134869,23.732394425485168,Greek Restaurant
288,37.986060929332396,23.73131736286373,9,1,4ce68c85f3bda1433747ace4,Η Κρήτη,37.98535967502298,23.730943606116416,Cretan Restaurant
289,37.986060929332396,23.73131736286373,9,2,5cacb9b88194fc002cd2adcc,ο Μαχαλάς ‘εν ‘Εξαρχείω,37.986572,23.731892,Meze Restaurant
290,37.986060929332396,23.73131736286373,9,3,5f20028ae03d5e56ee3ba869,Αυθεντικό Ρωσικον Πιροσκι,37.985786,23.732231,Russian Restaurant
291,37.986060929332396,23.73131736286373,9,4,4f7d90a3e4b0bd0c0006a77f,Γορτυνία,37.98590686886701,23.73217525578825,Greek Restaurant
292,37.986060929332396,23.73131736286373,9,5,4ee9f6866c250521d178d168,Μαντί,37.985559,23.731866,Middle Eastern Restaurant
293,37.986060929332396,23.73131736286373,9,6,59cfe572d4cc9807e34e0e9b,Curry Palace,37.985504,23.73188,Indian Restaurant
294,37.986060929332396,23.73131736286373,9,7,4e522a5aa809cef5beb3484e,Σάββας Πολίτικη Μπουγάτσα,37.98576762004586,23.73167433925202,Bougatsa Shop
295,37.986060929332396,23.73131736286373,9,8,4f29926be4b03a3767e0fe62,Σαλίγκαρος,37.98685055903064,23.731558842521743,Meze Restaurant
296,37.98719139399859,23.729892667063307,2,0,4d9f75c2fc4f721eacc99f5f,Ναυάγιο Των Αγγέλων,37.98732187367729,23.730949161790647,Greek Restaurant
297,37.98719139399859,23.729892667063307,2,1,528dfb0811d2f60c92892f8b,Σπιτικη Γευση,37.987353934117905,23.72944414208576,Greek Restaurant
298,37.9849304646662,23.729892667063307,6,0,4ccd685ec9b84688a6e1c2c3,Livadeia (Λειβαδιά),37.9846291244914,23.730438839030057,Souvlaki Shop
299,37.9849304646662,23.729892667063307,6,1,539b1386498e51117d746a0f,Bread & Roses,37.98405350183659,23.729665118407734,Mediterranean Restaurant
300,37.9849304646662,23.729892667063307,6,2,4f01a9c6a69d45461f39ae90,Ερωτόκριτος,37.984690753728174,23.730505633867608,Greek Restaurant
301,37.9849304646662,23.729892667063307,6,3,50360381e4b0584f7db5f928,Grand Dionisos,37.98464219833796,23.72962427980285,Souvlaki Shop
302,37.9849304646662,23.729892667063307,6,4,568e700f498edab9fa74a84d,Κεφτέπολις,37.984795,23.730479,Grilled Meat Restaurant
303,37.9849304646662,23.729892667063307,6,5,4f5e05fae4b085f52f97f3b1,Σ' Αναμμένα Κάρβουνα,37.98549184436904,23.729867935180664,Souvlaki Shop
304,37.98719139399859,23.732742058664154,2,0,4da7119804377705c305f310,Μπούκα,37.98671313991022,23.732228983007943,Magirio
305,37.98719139399859,23.732742058664154,2,1,4e90c62cbe7b7962e9b03f92,Μποέμισσα,37.98647552629528,23.73335816258783,Other Nightlife
306,37.9849304646662,23.732742058664154,15,0,4b672e56f964a520d43f2be3,Λέσβος,37.98463559758934,23.732987515232015,Ouzeri
307,37.9849304646662,23.732742058664154,15,1,4ecb959549015d98b15a5996,Γιώργος-Μάνος,37.98563233065259,23.733401674493454,Souvlaki Shop
308,37.9849304646662,23.732742058664154,15,2,5dda7ae619f6a90008eb2c0f,Polis Stagidis Bakery,37.984904,23.73161,Bakery
309,37.9849304646662,23.732742058664154,15,3,57f7d571498e51817564ef15,Λεβάντα,37.984502,23.732909,Kurdish Restaurant
310,37.9849304646662,23.732742058664154,15,4,4fd3937ee4b06383cc56f867,Δούρειος Ίππος,37.98537488579673,23.733453644633315,Greek Restaurant
311,37.9849304646662,23.732742058664154,15,5,4edf73b36da10302877ab376,Tivoli,37.98438821874078,23.732698497418546,Greek Restaurant
312,37.9849304646662,23.732742058664154,15,6,5268fc5e11d239ab930c3a2a,Πειρασμός Γεύσης,37.98517236454493,23.732343770856794,Greek Restaurant
313,37.9849304646662,23.732742058664154,15,7,5297b3e411d2751d5c3931f8,Mpaxalaki,37.984458895486235,23.733680267790586,Greek Restaurant
314,37.9849304646662,23.732742058664154,15,8,59cfe572d4cc9807e34e0e9b,Curry Palace,37.985504,23.73188,Indian Restaurant
315,37.9849304646662,23.732742058664154,15,9,4adcdadff964a520425821e3,Petrino Restaurant,37.984701039523884,23.73191957765157,Italian Restaurant
316,37.9849304646662,23.732742058664154,15,10,5b517e2d4aa3f8002c243deb,Athena,37.984719,23.73325,Greek Restaurant
317,37.9849304646662,23.732742058664154,15,11,508fd596e4b006ec3faf97c6,Το Κουκουτσι,37.985005103525616,23.732372825173574,Greek Restaurant
318,37.9849304646662,23.732742058664154,15,12,4d9b09d1335ab60c4a12f1f9,Ουδέν Σχόλιον,37.984426,23.732703,Greek Restaurant
319,37.9849304646662,23.732742058664154,15,13,4c97b8d5f7cfa1cdf8d9d015,Πέτρινο,37.984771,23.731786,Greek Restaurant
320,37.9849304646662,23.732742058664154,15,14,586438c3076be150f62f4b37,Indigo City,37.98581,23.732965,Indian Restaurant
