,lat_centre,long_centre,num_venues,venue_iter,venue_id,venue_name,lat_venue,long_venue,category
0,37.963800000000006,23.7075,7,0,4e0e3137aeb7a5b33ee7910f,Τζακι,37.96313056799463,23.707791147472207,Greek Restaurant
1,37.963800000000006,23.7075,7,1,53665d23498eff6b63a20bcb,ΘΩΜΑΣ,37.963134765625,23.707088470458984,Greek Restaurant
2,37.963800000000006,23.7075,7,2,4f3d3ec0c2ee516cd8d502ee,Ταβέρνα Ο Καπετάνιος,37.96525771631658,23.705570266753885,Taverna
3,37.963800000000006,23.7075,7,3,554358c2498e281cfbb36517,Το Στέκι Του Θωμά,37.96300506591797,23.706796646118164,Tsipouro Restaurant
4,37.963800000000006,23.7075,7,4,55fdf629498e081c6ee2f40a,Κάπαρη,37.964702055821256,23.70605477921481,Taverna
5,37.963800000000006,23.7075,7,5,4ed0037530f81894addf7b64,Εκατη Μεζεδοπωλειο,37.9638186138922,23.70488092601949,Greek Restaurant
6,37.963800000000006,23.7075,7,6,4dcd7925183899ddfab977f3,Το Στέκι Μας,37.962170596957215,23.707896910026236,Greek Restaurant
7,37.9660609293324,23.704651472421673,12,0,5354ef0c498ecda328486a8f,Κεμπαπτζίδικον το Γνήσιον,37.967255,23.706267,Kebab Restaurant
8,37.9660609293324,23.704651472421673,12,1,4d5d7fe61ef2f04de14e00ce,Pitta Best,37.96732,23.706118,Souvlaki Shop
9,37.9660609293324,23.704651472421673,12,2,516c8479498e8ffe7051daad,Petraloni,37.967395069774376,23.704195208616657,Greek Restaurant
10,37.9660609293324,23.704651472421673,12,3,5110094fe4b03bf844c47ea2,Το Περιβολάκι,37.9675213613632,23.706453716416117,Meze Restaurant
11,37.9660609293324,23.704651472421673,12,4,4f2c390fe4b0d464879c0ae6,ο βατραχος,37.96563907889508,23.7049448487839,Greek Restaurant
12,37.9660609293324,23.704651472421673,12,5,5c9ce544a879210039e583c5,Καπετάνιος Μουσικό Μεζεδοπωλείο,37.965416,23.705431,Meze Restaurant
13,37.9660609293324,23.704651472421673,12,6,4f3d3ec0c2ee516cd8d502ee,Ταβέρνα Ο Καπετάνιος,37.96525771631658,23.705570266753885,Taverna
14,37.9660609293324,23.704651472421673,12,7,4d7e60a6870037045f2a7099,Zoe Restaurant,37.965765,23.704682,Greek Restaurant
15,37.9660609293324,23.704651472421673,12,8,571a65c0498efd3c549dc345,Ο ΦΩΤΗΣ,37.96752,23.706518,Souvlaki Shop
16,37.9660609293324,23.704651472421673,12,9,55fdf629498e081c6ee2f40a,Κάπαρη,37.964702055821256,23.70605477921481,Taverna
17,37.9660609293324,23.704651472421673,12,10,4ed0037530f81894addf7b64,Εκατη Μεζεδοπωλειο,37.9638186138922,23.70488092601949,Greek Restaurant
18,37.9660609293324,23.704651472421673,12,11,50314205e4b0298227148f60,Πετραλώνι,37.967500635938904,23.70611707295208,Meze Restaurant
19,37.96153907066761,23.704651472421673,5,0,4ccb1f55566aa0930ed218fd,Το Κουτούκι Του Γρίλλη,37.963019672990114,23.703364258958292,Greek Restaurant
20,37.96153907066761,23.704651472421673,5,1,50cb856be4b03ff3343f2b08,Μοτοσακό,37.961825723924186,23.704127338210487,Meze Restaurant
21,37.96153907066761,23.704651472421673,5,2,5414970b498ef93c7f35f6c7,Σταθμός Στον Γύρο,37.961689856424655,23.70416615277529,Souvlaki Shop
22,37.96153907066761,23.704651472421673,5,3,554358c2498e281cfbb36517,Το Στέκι Του Θωμά,37.96300506591797,23.706796646118164,Tsipouro Restaurant
23,37.96153907066761,23.704651472421673,5,4,58c80925bbd6d11fe6153ca0,Σπιτική Κουζίνα,37.95986781229357,23.705288122003733,Magirio
24,37.9660609293324,23.710348527578326,16,0,4f81f06ce4b023c63a145731,Ραδιουργίες,37.9649099159677,23.71008875835252,Greek Restaurant
25,37.9660609293324,23.710348527578326,16,1,4ce937fef3bda1435d98bee4,Ραντεβού,37.96691420368187,23.712648399637974,Meze Restaurant
26,37.9660609293324,23.710348527578326,16,2,4b65a05cf964a520e6f62ae3,Κάππαρη,37.96735899883523,23.712200067536852,Greek Restaurant
27,37.9660609293324,23.710348527578326,16,3,4b64c31bf964a52025ce2ae3,Σαντορινιός,37.96808486588608,23.709884418372674,Greek Restaurant
28,37.9660609293324,23.710348527578326,16,4,4fff1e35e4b046ea28198f95,Καφενείο,37.96717566443016,23.712735116067783,Kafenio
29,37.9660609293324,23.710348527578326,16,5,4dfd122c227185f38b972bda,Το Κρητικό Στέκι,37.964971488339025,23.709962436426494,Cretan Restaurant
30,37.9660609293324,23.710348527578326,16,6,4d84aeef7e8ef04dd0e00fbe,Παλιά Ιστορία,37.96674565945165,23.710366633896406,Tsipouro Restaurant
31,37.9660609293324,23.710348527578326,16,7,5a9b07cfdff815665eaaa3db,Αλώνι,37.96671,23.709362,Greek Restaurant
32,37.9660609293324,23.710348527578326,16,8,4d66b763f75c37048b7cdb9a,Μαυρέλης,37.965168,23.710196,Greek Restaurant
33,37.9660609293324,23.710348527578326,16,9,5ae75cdf840fc2002ce61650,Καλαμοποίηση,37.966384,23.709661,Grilled Meat Restaurant
34,37.9660609293324,23.710348527578326,16,10,565067cc498ef83b9e0fdb20,1935,37.966696,23.712339,Meze Restaurant
35,37.9660609293324,23.710348527578326,16,11,580cee7738fa83fae7264610,Χατριπυ,37.966232,23.710335,Greek Restaurant
36,37.9660609293324,23.710348527578326,16,12,5ac0be999ef8ef1176411e62,Babaca Moo,37.966587,23.71242,Meze Restaurant
37,37.9660609293324,23.710348527578326,16,13,5e51903d78f4e20008507d70,Bulldog,37.966156,23.709722,Grilled Meat Restaurant
38,37.9660609293324,23.710348527578326,16,14,5a64c70b0457b75950be1ab9,188,37.9659293453609,23.7089645035231,Meze Restaurant
39,37.9660609293324,23.710348527578326,16,15,4f4e1e75e4b052b87b880ce2,kotopoulo express,37.96793485907032,23.709172010421753,Greek Restaurant
40,37.96153907066761,23.710348527578326,8,0,586dd33ab6e67d0a6686189c,Mandragoras εστιατόριον,37.96192080254425,23.70925098587154,Greek Restaurant
41,37.96153907066761,23.710348527578326,8,1,5011a88ae4b0e259d20f7225,Γουρουνάκια Πιάτσα,37.96202045697508,23.71074172903112,Grilled Meat Restaurant
42,37.96153907066761,23.710348527578326,8,2,52165aeb11d236ecf65586d3,Τσουκάλι της Μαμάς,37.962234,23.71066,Magirio
43,37.96153907066761,23.710348527578326,8,3,578a1716498ea49336053c48,Jack the Potato,37.960454,23.708609,English Restaurant
44,37.96153907066761,23.710348527578326,8,4,4fd3b630e4b0ba023242a276,Ελαφίνα,37.96019318558342,23.708448966931492,Greek Restaurant
45,37.96153907066761,23.710348527578326,8,5,4d66797856746dcb2cfb46ff,Το Άριστον,37.96097581323358,23.709482432535662,Greek Restaurant
46,37.96153907066761,23.710348527578326,8,6,4ee067249911bd13a9025a3f,Καφενειο Καλλιθεας,37.959929089236674,23.71087219950554,Kafenio
47,37.96153907066761,23.710348527578326,8,7,4dcd7925183899ddfab977f3,Το Στέκι Μας,37.962170596957215,23.707896910026236,Greek Restaurant
48,37.973800000000004,23.72083333333333,17,0,5ab63a035455b239f95fe370,Καφενείον Ακροπόλεως,37.973562811094666,23.720247310269496,Meze Restaurant
49,37.973800000000004,23.72083333333333,17,1,4cd6e6abdfb4a1cd417a615c,Lontos,37.974628380664505,23.71975065550948,Mediterranean Restaurant
50,37.973800000000004,23.72083333333333,17,2,5f0ab2f68d6ed72efe6246bc,καφενειο ριζου,37.974466,23.719221,Kafenio
51,37.973800000000004,23.72083333333333,17,3,4c2cfa26260bc928c63619d3,Γεύομαι και Μαγεύομαι,37.97491550697727,23.718362258407677,Greek Restaurant
52,37.973800000000004,23.72083333333333,17,4,4e540e36fa766daceded9e96,Σκάλες,37.974637358964415,23.71925005067923,Meze Restaurant
53,37.973800000000004,23.72083333333333,17,5,5ded1969e6d04800080f4d2f,Hill Athens,37.974113,23.719868,Mediterranean Restaurant
54,37.973800000000004,23.72083333333333,17,6,5a2e42fc0457b71c1fb7c5ee,Coyacan,37.974921,23.718961,Mexican Restaurant
55,37.973800000000004,23.72083333333333,17,7,5b127756b8fd9d002c1e7886,Hokyo,37.975048,23.718672,Sushi Restaurant
56,37.973800000000004,23.72083333333333,17,8,521f966211d20e0e82ac7e43,Εις Υγείαν,37.974830627441406,23.719181060791016,Greek Restaurant
57,37.973800000000004,23.72083333333333,17,9,4f09c0f0e4b0cc066d8b9433,Abibayio (Αμπιμπάγιο),37.97508,23.718617,Meze Restaurant
58,37.973800000000004,23.72083333333333,17,10,59713522851de565ccbfecbd,Syntrimmi,37.97462,23.718273,Café
59,37.973800000000004,23.72083333333333,17,11,4f774469e4b015b23ce4fcf2,Παραδοσιακό Καφενείο,37.97455,23.718267,Kafenio
60,37.973800000000004,23.72083333333333,17,12,4c9f25c4542b224b1ed0fa9f,Μελίτης,37.97562277836384,23.719524783043887,Greek Restaurant
61,37.973800000000004,23.72083333333333,17,13,4be6e0c42468c92880c50143,Γευσεις Περιπατου,37.97286868064487,23.72062444277517,Greek Restaurant
62,37.973800000000004,23.72083333333333,17,14,54fb0827498e5e4468a0eb06,Καφεμπακαλικο Αστεροσκοπειο,37.97441482543945,23.719219207763672,Meze Restaurant
63,37.973800000000004,23.72083333333333,17,15,5d5299408d7df0000786ed26,Akropol Vintage,37.974111,23.719471,Taverna
64,37.973800000000004,23.72083333333333,17,16,59f60e97a8eb603f9659a5b9,Coyoacan Athens,37.97506739166823,23.719087171306047,South American Restaurant
65,37.9760609293324,23.717984417738965,24,0,4de7db3b1838131a855fbcc0,Το Στέκι του Ηλία Νο2,37.977078374278726,23.71823496406343,Greek Restaurant
66,37.9760609293324,23.717984417738965,24,1,4cd6e6abdfb4a1cd417a615c,Lontos,37.974628380664505,23.71975065550948,Mediterranean Restaurant
67,37.9760609293324,23.717984417738965,24,2,5f0ab2f68d6ed72efe6246bc,καφενειο ριζου,37.974466,23.719221,Kafenio
68,37.9760609293324,23.717984417738965,24,3,4be57b4ccf200f472a3a133c,Το Στέκι του Ηλία Νο1,37.97707072614831,23.716018449837144,Greek Restaurant
69,37.9760609293324,23.717984417738965,24,4,4c2cfa26260bc928c63619d3,Γεύομαι και Μαγεύομαι,37.97491550697727,23.718362258407677,Greek Restaurant
70,37.9760609293324,23.717984417738965,24,5,5102ea2ee4b01e27a801ffa2,Κάππαρη,37.97416052988966,23.717136796864633,Mediterranean Restaurant
71,37.9760609293324,23.717984417738965,24,6,4e540e36fa766daceded9e96,Σκάλες,37.974637358964415,23.71925005067923,Meze Restaurant
72,37.9760609293324,23.717984417738965,24,7,5a2e42fc0457b71c1fb7c5ee,Coyacan,37.974921,23.718961,Mexican Restaurant
73,37.9760609293324,23.717984417738965,24,8,4f92fcebe4b00fe65ec96d88,Παϊδάκια Ηλία,37.97708448982613,23.718444004634524,Greek Restaurant
74,37.9760609293324,23.717984417738965,24,9,565adc24498e1cb021bce5b6,Κούπα libre,37.975733191092694,23.71718909410438,Café
75,37.9760609293324,23.717984417738965,24,10,505cae9ae4b03366b9fbbc62,Riza (Ρίζα),37.975362898741075,23.71809770483313,Meze Restaurant
76,37.9760609293324,23.717984417738965,24,11,5b127756b8fd9d002c1e7886,Hokyo,37.975048,23.718672,Sushi Restaurant
77,37.9760609293324,23.717984417738965,24,12,521f966211d20e0e82ac7e43,Εις Υγείαν,37.974830627441406,23.719181060791016,Greek Restaurant
78,37.9760609293324,23.717984417738965,24,13,4f09c0f0e4b0cc066d8b9433,Abibayio (Αμπιμπάγιο),37.97508,23.718617,Meze Restaurant
79,37.9760609293324,23.717984417738965,24,14,59713522851de565ccbfecbd,Syntrimmi,37.97462,23.718273,Café
80,37.9760609293324,23.717984417738965,24,15,5b9fa09006fb60002cee67b5,To Kousoulo,37.97518312163928,23.71837466955185,Mediterranean Restaurant
81,37.9760609293324,23.717984417738965,24,16,4be6a75dcf200f47c0bc143c,Ιριδα,37.97582601459154,23.71667745334162,Greek Restaurant
82,37.9760609293324,23.717984417738965,24,17,4da0ce7b540ea1cdd6b959de,Φενεός,37.975842921749816,23.716642905693927,Meze Restaurant
83,37.9760609293324,23.717984417738965,24,18,4f774469e4b015b23ce4fcf2,Παραδοσιακό Καφενείο,37.97455,23.718267,Kafenio
84,37.9760609293324,23.717984417738965,24,19,4c9f25c4542b224b1ed0fa9f,Μελίτης,37.97562277836384,23.719524783043887,Greek Restaurant
85,37.9760609293324,23.717984417738965,24,20,54fb0827498e5e4468a0eb06,Καφεμπακαλικο Αστεροσκοπειο,37.97441482543945,23.719219207763672,Meze Restaurant
86,37.9760609293324,23.717984417738965,24,21,589619bd266c1121f0021a4a,athens beer restaurant,37.974919,23.716208,Greek Restaurant
87,37.9760609293324,23.717984417738965,24,22,536bc1fa498e99c3ef0bdf59,Mikra Asia,37.975765,23.716874,Meze Restaurant
88,37.9760609293324,23.717984417738965,24,23,59f60e97a8eb603f9659a5b9,Coyoacan Athens,37.97506739166823,23.719087171306047,South American Restaurant
89,37.9760609293324,23.723682248927698,50,0,50c49186e4b069afe3fb519f,Mirch,37.977029871362205,23.723681496112583,Indian Restaurant
90,37.9760609293324,23.723682248927698,50,1,4cd47113b2a4370494617744,Kuzina,37.9764285340136,23.721982100023503,Greek Restaurant
91,37.9760609293324,23.723682248927698,50,2,5bc8cfc1dff815002c095d18,Naanwich Indian Street Food,37.97706948408148,23.72323009429185,Indian Restaurant
92,37.9760609293324,23.723682248927698,50,3,4c4c786dc668e21ed1f490fb,Gyristroula (Γυριστρούλα),37.97699388745058,23.72121168189436,Grilled Meat Restaurant
93,37.9760609293324,23.723682248927698,50,4,52a5c4f311d210f9982fc2c1,Savvas Kebab (Σάββας Κεμπάπ),37.976846782087364,23.725106283369584,Kebab Restaurant
94,37.9760609293324,23.723682248927698,50,5,59e21c0a0e5da877707d35bd,Misafir,37.9768746306743,23.724947455311927,Middle Eastern Restaurant
95,37.9760609293324,23.723682248927698,50,6,5b095e203c858d002c4655f0,Heliaia,37.976286,23.722076,Greek Restaurant
96,37.9760609293324,23.723682248927698,50,7,5d0b8b3cfcc4ec0023bf68bf,Τα Καραμανλίδικα του Φάνη - Μεζετζίδικο,37.977063,23.722809,Meze Restaurant
97,37.9760609293324,23.723682248927698,50,8,53cbc288498ec6ddfb188418,Atlantikos (Ατλαντικός),37.97749104076038,23.722984637496985,Greek Restaurant
98,37.9760609293324,23.723682248927698,50,9,4adcdadff964a5202b5821e3,Carte Postale,37.9765381923282,23.721791833838278,Bar
99,37.9760609293324,23.723682248927698,50,10,4e6143408877954de7b06663,Καφενείο Ήβης,37.97759938787867,23.722640915149015,Kafenio
100,37.9760609293324,23.723682248927698,50,11,4c619ff6ec94a593875727ca,Indian Masala,37.97728227481989,23.721960480449905,Indian Restaurant
101,37.9760609293324,23.723682248927698,50,12,4dea2a4dfa76cc1b8adceb23,Μαίανδρος,37.97567631595717,23.725354795638964,Meze Restaurant
102,37.9760609293324,23.723682248927698,50,13,4c18bc4ad4d9c928bac9ef29,Bairaktaris (Μπαϊρακτάρης),37.97634937905442,23.72630898238849,Grilled Meat Restaurant
103,37.9760609293324,23.723682248927698,50,14,4c9f42140e9bb1f79fbbee5f,Εύχαρις,37.97570042117868,23.72546382937103,Greek Restaurant
104,37.9760609293324,23.723682248927698,50,15,5d2f288e4318c900084e50e6,Wok And Walk,37.976902,23.72535,Noodle House
105,37.9760609293324,23.723682248927698,50,16,4ba0c685f964a520d97c37e3,Moma,37.97583893097079,23.724091146656285,Mediterranean Restaurant
106,37.9760609293324,23.723682248927698,50,17,4adcdae0f964a520ac5821e3,Το Κουτί,37.97597061725337,23.723771118844247,Mediterranean Restaurant
107,37.9760609293324,23.723682248927698,50,18,4f800f41e4b0ac16a15bfe52,Καφενείον το 111,37.97706517044458,23.723625903499386,Meze Restaurant
108,37.9760609293324,23.723682248927698,50,19,4e554da9b0fb1e5686bcb43e,Δίοδος,37.975921186926996,23.723451673873804,Meze Restaurant
109,37.9760609293324,23.723682248927698,50,20,4ba62a48f964a520633839e3,Dioskouroi (Διόσκουροι),37.975856989363784,23.724736049244495,Meze Restaurant
110,37.9760609293324,23.723682248927698,50,21,4d3ed0ac6b3d236a0ee77564,Έναστρον,37.978117796757516,23.72440831194316,Greek Restaurant
111,37.9760609293324,23.723682248927698,50,22,4dcee6dafa7664b7c6b45c3b,Μαύρος Γάτος,37.97807463327167,23.723277579899506,Greek Restaurant
112,37.9760609293324,23.723682248927698,50,23,4cb09558ef1b37041ff93b00,Oineas (Οινέας),37.97810530697152,23.723703739321753,Greek Restaurant
113,37.9760609293324,23.723682248927698,50,24,4adcdadff964a520245821e3,Hard Rock Cafe Athens,37.9756712,23.7252445,American Restaurant
114,37.9760609293324,23.723682248927698,50,25,4c55c9fbf5f3d13ae7f35ffc,Καλλιπάτειρα,37.97657619999017,23.722865081786424,Meze Restaurant
115,37.9760609293324,23.723682248927698,50,26,4da17da4c6e96ea889b7c15d,Kotili,37.975792765427045,23.725098311888235,Greek Restaurant
116,37.9760609293324,23.723682248927698,50,27,4d069d9b54d0236ad30ffad5,Κρασοπουλιό του Κόκκορα,37.97770264090963,23.72413007452855,Greek Restaurant
117,37.9760609293324,23.723682248927698,50,28,4bcb119b68f976b05a4e6083,Διά Ταύτα,37.97583121306854,23.72444018005562,Greek Restaurant
118,37.9760609293324,23.723682248927698,50,29,4cf2598cc9af6dcbb9a79f7f,Antica,37.97590552832831,23.723871010246164,Greek Restaurant
119,37.9760609293324,23.723682248927698,50,30,4cf25c85e3b9a09366134453,Μούσες,37.97613769552911,23.722965469222252,Meze Restaurant
120,37.9760609293324,23.723682248927698,50,31,4ed9feb9d3e346be33d1cad8,Diavlos (Δίαυλος),37.97677128224997,23.721290870084,Meze Restaurant
121,37.9760609293324,23.723682248927698,50,32,4ef76b679911b01ddb8bed13,Βολιώτικο Τσιπουράδικο,37.97821415265587,23.723490457584152,Tsipouro Restaurant
122,37.9760609293324,23.723682248927698,50,33,4dd93001d4c05d509713d978,Souvlaki Bar,37.976638513476736,23.721912548275878,Souvlaki Shop
123,37.9760609293324,23.723682248927698,50,34,5806590f38fa451aaa292cb2,The Greco's Project,37.976275084836494,23.726017850373257,Greek Restaurant
124,37.9760609293324,23.723682248927698,50,35,4c5d55207735c9b6afaf8e72,Cafe Avissinia (Καφέ Αβυσσινία),37.97657543670317,23.723673693800226,Café
125,37.9760609293324,23.723682248927698,50,36,5b602be3d552c7002cfd9746,Sabbas,37.976511,23.725047,Greek Restaurant
126,37.9760609293324,23.723682248927698,50,37,4bd439f1462cb713f7dddf07,Lithos (Λίθος),37.978230787057356,23.72357345733681,Meze Restaurant
127,37.9760609293324,23.723682248927698,50,38,50f99b30e4b024a8e8c3a720,Ι. Χ.  Μαγειρειο,37.97738507303341,23.72216885195924,Greek Restaurant
128,37.9760609293324,23.723682248927698,50,39,543acfe2498e89864957931e,Λήθη,37.975992528624204,23.72508014206715,Kafenio
129,37.9760609293324,23.723682248927698,50,40,558f0055498e85237bfbc1f5,Ψυρρηκοκό,37.978230358652965,23.723507042435248,Meze Restaurant
130,37.9760609293324,23.723682248927698,50,41,5219eabb11d2195b5854c867,Καφενείον,37.977141615517255,23.723540240089115,Kafenio
131,37.9760609293324,23.723682248927698,50,42,507ee043e4b0889aa5bea583,Ο Καστέλος/ Κρητικό καφενείο,37.97597291909229,23.724690808777808,Greek Restaurant
132,37.9760609293324,23.723682248927698,50,43,538a6141498eed26a235f93e,Μισό Πιθάρι,37.976630643433516,23.72574840003791,Souvlaki Shop
133,37.9760609293324,23.723682248927698,50,44,52382cd011d2e399f3fd535b,Xrhstos,37.97570907542214,23.723499563373068,Greek Restaurant
134,37.9760609293324,23.723682248927698,50,45,545608b2498ed7a6b8cfe32e,ErmouKitchen114,37.97721785652939,23.722540754171803,Greek Restaurant
135,37.9760609293324,23.723682248927698,50,46,571b61e9498e166ab0589d63,Ρακοπωλειον,37.978052,23.723368,Taverna
136,37.9760609293324,23.723682248927698,50,47,4fca2000e4b0c11681fa9297,To Xani Tou Othona,37.976334,23.72326,Greek Restaurant
137,37.9760609293324,23.723682248927698,50,48,4d1b91de7e10a35da120f882,Σύλφιο,37.97827120639073,23.723447264733608,Greek Restaurant
138,37.9760609293324,23.723682248927698,50,49,4c3f75a4ff711b8da2f20e05,Metro Café,37.97625816821012,23.726038087707764,Greek Restaurant
139,37.97153907066761,23.723682248927698,3,0,4bc1b8c7abf495212663c193,Dionysos Zonar's,37.969471454836,23.7226340097225,Greek Restaurant
140,37.97153907066761,23.723682248927698,3,1,5b77eee21953f3002cc31fd5,Καφενείο Διόσκουροι,37.973434,23.725153,Kafenio
141,37.97153907066761,23.723682248927698,3,2,58da691a8ee560673a5254f1,Καρυάτιδες,37.969444,23.724113,Kafenio
142,37.973800000000004,23.734166666666667,50,0,5dd98f213553810008e00c46,Ovio,37.974798,23.732581,Italian Restaurant
143,37.973800000000004,23.734166666666667,50,1,4b190be0f964a5206dd723e3,Ο Τζίτζικας κι ο Μέρμηγκας,37.97524044842995,23.732702323950086,Greek Restaurant
144,37.973800000000004,23.734166666666667,50,2,58ff5c7cc5b11c64c7c6dd2c,Pink Flamingo,37.97462825361661,23.732530539108858,Dim Sum Restaurant
145,37.973800000000004,23.734166666666667,50,3,5618bcdf498ebf51a4df1c9f,sushimou,37.974421959048975,23.73257754122888,Sushi Restaurant
146,37.973800000000004,23.734166666666667,50,4,4c572e5d30d82d7fc43fd962,Evgenia - Paradosiako Oinomagirio (Παραδοσιακό Οινομαγειρείο),37.97376016393943,23.732127631413814,Magirio
147,37.973800000000004,23.734166666666667,50,5,5b5f49ba037be10039cafc98,Birdman Japanese Grill + Pub,37.974661908377946,23.732425321985858,Japanese Restaurant
148,37.973800000000004,23.734166666666667,50,6,5266749411d2b21985efa52c,Koi Sushi Bar,37.97463458804954,23.73309824755302,Sushi Restaurant
149,37.973800000000004,23.734166666666667,50,7,4fd29985e4b02d3b86708ba6,Ο Κώστας 1950,37.974988,23.731843,Souvlaki Shop
150,37.973800000000004,23.734166666666667,50,8,565f5549498e3bd762f366c0,New York Sandwiches,37.973970038175786,23.732992812427987,Sandwich Place
151,37.973800000000004,23.734166666666667,50,9,5569b13a498ef35cadd788bf,The Greco's Project,37.97515602699642,23.733291709071935,Greek Restaurant
152,37.973800000000004,23.734166666666667,50,10,5b0c4c230dd31f002445cd9c,Mamacita,37.97478766519791,23.731910450107286,Mexican Restaurant
153,37.973800000000004,23.734166666666667,50,11,4b7aab48f964a52061362fe3,Noodle Bar,37.97479828134886,23.731814736742862,Asian Restaurant
154,37.973800000000004,23.734166666666667,50,12,4dac8d9d8154abafc2da3839,Electra Roof Garden Restaurant,37.97394074621471,23.731452478236097,Greek Restaurant
155,37.973800000000004,23.734166666666667,50,13,4d9a14b1942ba0937d26aa8c,Σαΐτα,37.97245216545326,23.73207761401864,Taverna
156,37.973800000000004,23.734166666666667,50,14,5a0cc2a54aa3f836de22aa94,Gaku Sushi Izakaya,37.97473313080803,23.73288646912729,Sushi Restaurant
157,37.973800000000004,23.734166666666667,50,15,5c3fbab6356b49002c8d7dca,So So So,37.974702,23.732862,Ramen Restaurant
158,37.973800000000004,23.734166666666667,50,16,507da2b9e4b0b49e1f960068,Makao,37.973514,23.732891,Italian Restaurant
159,37.973800000000004,23.734166666666667,50,17,4d36a7b1c47db1f70183e8a5,2Μαζί,37.973150668517,23.73298486653898,Modern Greek Restaurant
160,37.973800000000004,23.734166666666667,50,18,5358098c498e6f7f0396679d,East Pearl,37.97473603528318,23.732983768117858,Chinese Restaurant
161,37.973800000000004,23.734166666666667,50,19,5554dfc4498e0edfe593d6c1,Baba Ji,37.97496165001359,23.733156885597413,Indian Restaurant
162,37.973800000000004,23.734166666666667,50,20,52fe109e11d2544b4457ecc3,Attic Moon,37.97432498281981,23.733418243031917,Chinese Restaurant
163,37.973800000000004,23.734166666666667,50,21,57db952b498e06f2595731c3,Ikura Sushi Bar,37.97433045179978,23.73398780822754,Sushi Restaurant
164,37.973800000000004,23.734166666666667,50,22,5a69c88247f8760decac14a8,Spitjack,37.97400196692808,23.732604897402656,Grilled Meat Restaurant
165,37.973800000000004,23.734166666666667,50,23,4e84719177c8d65b905ebe60,Indian Kitchen,37.97469166282441,23.732457852801698,Indian Restaurant
166,37.973800000000004,23.734166666666667,50,24,5ceea9f6da7080002d0cea6b,O Kostos,37.974991,23.731826,Greek Restaurant
167,37.973800000000004,23.734166666666667,50,25,4bb0eb70f964a520276a3ce3,Dosirak,37.9748109999699,23.73233694708566,Korean Restaurant
168,37.973800000000004,23.734166666666667,50,26,56519742498eea8801812f28,Jing Chinese Restaurant (Jing Chinese Restaurant   京品食尚 酒家),37.97472844529157,23.733076260078892,Chinese Restaurant
169,37.973800000000004,23.734166666666667,50,27,58d82df6dad26346b9bd1a8b,Da Panda 大牌档,37.97593827757599,23.733410777260158,Chinese Restaurant
170,37.973800000000004,23.734166666666667,50,28,5e0601fbabfb320008fce7ab,Άνετον,37.97344,23.73305,Modern Greek Restaurant
171,37.973800000000004,23.734166666666667,50,29,5a43d3916a5950360c76c713,Taste The SIN,37.975384,23.732387,Breakfast Spot
172,37.973800000000004,23.734166666666667,50,30,56fe7832498eddd7c688e07a,Κυλικείο 9ος Όροφος,37.97546047912226,23.734220676469146,Greek Restaurant
173,37.973800000000004,23.734166666666667,50,31,52682e3511d2db45a4bdf085,Βόλτα,37.972530422536124,23.732785396301097,Greek Restaurant
174,37.973800000000004,23.734166666666667,50,32,58c5412172efa433ca4d740d,福云龙中餐厅 (Fuyunlong Restaurant),37.97278,23.73371,Chinese Restaurant
175,37.973800000000004,23.734166666666667,50,33,57da9a5f498eba6fca7b703f,Makalo,37.973958,23.733046,Mediterranean Restaurant
176,37.973800000000004,23.734166666666667,50,34,51f121ec498e11d3fdaef431,The butcher's souvlaki,37.974708557128906,23.732954025268555,Souvlaki Shop
177,37.973800000000004,23.734166666666667,50,35,568ba510498e7cda3d2ba0d9,Bairaktaris (Μπαϊρακτάρης),37.975702029062624,23.7335254989738,Souvlaki Shop
178,37.973800000000004,23.734166666666667,50,36,5505c621498e4fa986efaae1,Fu Yu Long,37.97270437586635,23.73566176359938,Chinese Restaurant
179,37.973800000000004,23.734166666666667,50,37,58493925f68d8d67bed01afb,Pide Pita,37.97501,23.732327,Snack Place
180,37.973800000000004,23.734166666666667,50,38,5ddad00ea5da1d0008408a50,Best Gyros,37.975775,23.733758,Greek Restaurant
181,37.973800000000004,23.734166666666667,50,39,5d9396dc6957e60008dab0fb,V 1935 Mediterranean Tastes,37.975125,23.732347,Mediterranean Restaurant
182,37.973800000000004,23.734166666666667,50,40,578e3b32498e9902531102fe,Matreshka,37.972595,23.733477,Russian Restaurant
183,37.973800000000004,23.734166666666667,50,41,5c4389648b98fd002ca125c8,Tarka,37.974617,23.733948,Indian Restaurant
184,37.973800000000004,23.734166666666667,50,42,5172ccde498ed50ccd653fca,Παλιά Αθήνα,37.97315550910704,23.73320958881775,Greek Restaurant
185,37.973800000000004,23.734166666666667,50,43,5968fa541ffed7567bb7bbb2,Μπαρμπαδήμος,37.97526337530526,23.73275161076117,Kebab Restaurant
186,37.973800000000004,23.734166666666667,50,44,5be335ff3fcee80039df1770,Mr. Pug,37.974272,23.733149,Asian Restaurant
187,37.973800000000004,23.734166666666667,50,45,5f2e90e740aa3f5055351c9e,Ouzeri by Papaioannou,37.97425,23.73492,Ouzeri
188,37.973800000000004,23.734166666666667,50,46,5cfceaf4121384002cbe41d3,春熙,37.97482,23.735119,Chinese Restaurant
189,37.973800000000004,23.734166666666667,50,47,4ece9a625c5c9528f72d02f2,Meatropoleos 3,37.97511394405139,23.733657676335643,Grilled Meat Restaurant
190,37.973800000000004,23.734166666666667,50,48,57d19f68cd10794b66599a92,明月楼,37.974319,23.733453,Szechuan Restaurant
191,37.973800000000004,23.734166666666667,50,49,56e70406498ead12da7c7f6d,Piatsa Syntagma,37.97492644854834,23.73513940133078,Souvlaki Shop
192,37.9760609293324,23.7313177510723,50,0,5dd98f213553810008e00c46,Ovio,37.974798,23.732581,Italian Restaurant
193,37.9760609293324,23.7313177510723,50,1,4b190be0f964a5206dd723e3,Ο Τζίτζικας κι ο Μέρμηγκας,37.97524044842995,23.732702323950086,Greek Restaurant
194,37.9760609293324,23.7313177510723,50,2,58ff5c7cc5b11c64c7c6dd2c,Pink Flamingo,37.97462825361661,23.732530539108858,Dim Sum Restaurant
195,37.9760609293324,23.7313177510723,50,3,5618bcdf498ebf51a4df1c9f,sushimou,37.974421959048975,23.73257754122888,Sushi Restaurant
196,37.9760609293324,23.7313177510723,50,4,5b5f49ba037be10039cafc98,Birdman Japanese Grill + Pub,37.974661908377946,23.732425321985858,Japanese Restaurant
197,37.9760609293324,23.7313177510723,50,5,5266749411d2b21985efa52c,Koi Sushi Bar,37.97463458804954,23.73309824755302,Sushi Restaurant
198,37.9760609293324,23.7313177510723,50,6,589db95537318129d1585fbc,Σερσέ Λα Φαμ,37.97544060014718,23.730536119494403,Kafenio
199,37.9760609293324,23.7313177510723,50,7,4fd29985e4b02d3b86708ba6,Ο Κώστας 1950,37.974988,23.731843,Souvlaki Shop
200,37.9760609293324,23.7313177510723,50,8,5f7f607daac5fe0c8ca294eb,Curry Express,37.977598,23.730379,Indian Restaurant
201,37.9760609293324,23.7313177510723,50,9,554dfb49498e894ce3e13bcd,Etnico,37.977649887902054,23.73061254652995,Burrito Place
202,37.9760609293324,23.7313177510723,50,10,5c6eb52658002c002c352357,ERGON House Athens,37.97526789884332,23.731592842896493,Gourmet Shop
203,37.9760609293324,23.7313177510723,50,11,4f48e24ee4b0c83960179fcb,Melilotos (Μελίλωτος),37.977335291564366,23.729105667698676,Modern Greek Restaurant
204,37.9760609293324,23.7313177510723,50,12,503b44d2e4b0824d0c083dd9,Νεοκλασσικό,37.97657230174442,23.732102773504074,Souvlaki Shop
205,37.9760609293324,23.7313177510723,50,13,5d52a5062f162b000808b43e,Cardinale,37.975373,23.731205,Italian Restaurant
206,37.9760609293324,23.7313177510723,50,14,54380f48498e0fa6d1f8867a,The Pasta Shop,37.97692305672462,23.728885842380574,Italian Restaurant
207,37.9760609293324,23.7313177510723,50,15,5569b13a498ef35cadd788bf,The Greco's Project,37.97515602699642,23.733291709071935,Greek Restaurant
208,37.9760609293324,23.7313177510723,50,16,59721832286fda37b9b46fa9,Zisis (Ζήσης),37.97680315361432,23.72911442772039,Seafood Restaurant
209,37.9760609293324,23.7313177510723,50,17,5b0c4c230dd31f002445cd9c,Mamacita,37.97478766519791,23.731910450107286,Mexican Restaurant
210,37.9760609293324,23.7313177510723,50,18,5832073e26a40755da7a0f99,Shisan Sushi Bar,37.977492047632204,23.72920214711121,Sushi Restaurant
211,37.9760609293324,23.7313177510723,50,19,4b7aab48f964a52061362fe3,Noodle Bar,37.97479828134886,23.731814736742862,Asian Restaurant
212,37.9760609293324,23.7313177510723,50,20,4bf3c6f598ac0f47b42b63a8,Old Ithaki (Παλαιά Ιθάκη),37.974955255615896,23.730078892000208,Greek Restaurant
213,37.9760609293324,23.7313177510723,50,21,4dac8d9d8154abafc2da3839,Electra Roof Garden Restaurant,37.97394074621471,23.731452478236097,Greek Restaurant
214,37.9760609293324,23.7313177510723,50,22,5a0cc2a54aa3f836de22aa94,Gaku Sushi Izakaya,37.97473313080803,23.73288646912729,Sushi Restaurant
215,37.9760609293324,23.7313177510723,50,23,54f0b2c7498e311c66281257,Taqueria Maya,37.97552092300487,23.731670278797818,Mexican Restaurant
216,37.9760609293324,23.7313177510723,50,24,545f4fc5498e963255b65105,Palmie Bistro,37.97580400044144,23.729817127802747,Greek Restaurant
217,37.9760609293324,23.7313177510723,50,25,5c3fbab6356b49002c8d7dca,So So So,37.974702,23.732862,Ramen Restaurant
218,37.9760609293324,23.7313177510723,50,26,4d0cb314257d6dcb4d2a9767,Τριαντάφυλλος,37.97709517576543,23.73175254660637,Greek Restaurant
219,37.9760609293324,23.7313177510723,50,27,564e243b498e6e85200eeb7c,Street Souvlaki,37.97766097560455,23.730329003992686,Souvlaki Shop
220,37.9760609293324,23.7313177510723,50,28,5358098c498e6f7f0396679d,East Pearl,37.97473603528318,23.732983768117858,Chinese Restaurant
221,37.9760609293324,23.7313177510723,50,29,4e6a0f95d4c01ce01762e1ed,In Town Cafe,37.97538225706555,23.731905620975333,Greek Restaurant
222,37.9760609293324,23.7313177510723,50,30,5f45584658b4ee11900fce81,Louis Bistrot D’Athenes,37.976793,23.728878,Bistro
223,37.9760609293324,23.7313177510723,50,31,5554dfc4498e0edfe593d6c1,Baba Ji,37.97496165001359,23.733156885597413,Indian Restaurant
224,37.9760609293324,23.7313177510723,50,32,4e84719177c8d65b905ebe60,Indian Kitchen,37.97469166282441,23.732457852801698,Indian Restaurant
225,37.9760609293324,23.7313177510723,50,33,5827057fd1efa65794dacf2a,Osaka Sushi Bar,37.97565773080556,23.72881758246656,Sushi Restaurant
226,37.9760609293324,23.7313177510723,50,34,5ceea9f6da7080002d0cea6b,O Kostos,37.974991,23.731826,Greek Restaurant
227,37.9760609293324,23.7313177510723,50,35,4bb0eb70f964a520276a3ce3,Dosirak,37.9748109999699,23.73233694708566,Korean Restaurant
228,37.9760609293324,23.7313177510723,50,36,58d82df6dad26346b9bd1a8b,Da Panda 大牌档,37.97593827757599,23.733410777260158,Chinese Restaurant
229,37.9760609293324,23.7313177510723,50,37,56519742498eea8801812f28,Jing Chinese Restaurant (Jing Chinese Restaurant   京品食尚 酒家),37.97472844529157,23.733076260078892,Chinese Restaurant
230,37.9760609293324,23.7313177510723,50,38,5d4183c618a8ff0008094ea6,Chomolungma,37.97810083159569,23.731974810361862,Tibetan Restaurant
231,37.9760609293324,23.7313177510723,50,39,5a43d3916a5950360c76c713,Taste The SIN,37.975384,23.732387,Breakfast Spot
232,37.9760609293324,23.7313177510723,50,40,57efc55a498e1c397bb5b46b,Smile Athens restau,37.975522,23.731159,Modern European Restaurant
233,37.9760609293324,23.7313177510723,50,41,4d418aaf89616dcb530010b5,Κεντρικόν,37.977052681649496,23.733463026004493,Greek Restaurant
234,37.9760609293324,23.7313177510723,50,42,50d64537e4b0260d06226993,γεια σουVlucky,37.97738818050447,23.729548738186953,Souvlaki Shop
235,37.9760609293324,23.7313177510723,50,43,51f121ec498e11d3fdaef431,The butcher's souvlaki,37.974708557128906,23.732954025268555,Souvlaki Shop
236,37.9760609293324,23.7313177510723,50,44,568ba510498e7cda3d2ba0d9,Bairaktaris (Μπαϊρακτάρης),37.975702029062624,23.7335254989738,Souvlaki Shop
237,37.9760609293324,23.7313177510723,50,45,5395a1c8498eae4bad9351f1,αποστόλης & τάκης,37.975583,23.731646,Greek Restaurant
238,37.9760609293324,23.7313177510723,50,46,4fbffb6ee4b05190681b1b7b,Καφενείον Ρόδον,37.977323,23.731048,Kafenio
239,37.9760609293324,23.7313177510723,50,47,527cc1b7498e63a48e9c7649,Τό Άνθος,37.97758486331742,23.731315247023296,Greek Restaurant
240,37.9760609293324,23.7313177510723,50,48,585ff1f5424f935d0b247db6,Bail Burger Bar,37.97599501779573,23.731777667999268,American Restaurant
241,37.9760609293324,23.7313177510723,50,49,58493925f68d8d67bed01afb,Pide Pita,37.97501,23.732327,Snack Place
242,37.97153907066761,23.7313177510723,39,0,57ac472e498ed15346eec9f2,Cave of Acropolis – Greek Tavern,37.970964193079595,23.729019742679903,Greek Restaurant
243,37.97153907066761,23.7313177510723,39,1,4d73ace2ec075481abf199bf,Kafeneio (Καφενείο),37.97260347629719,23.7295028588634,Greek Restaurant
244,37.97153907066761,23.7313177510723,39,2,4f65dd13e4b036e3e94017b8,Spilia Tis Akropoleos (Σπηλιά της Ακροπόλεως),37.97095637596811,23.72903990337825,Taverna
245,37.97153907066761,23.7313177510723,39,3,4c1cb213fcf8c9b68c6daa0b,Thespis (Θέσπις),37.971264,23.729444,Taverna
246,37.97153907066761,23.7313177510723,39,4,4e34517b1f6e9e21ad4227d1,Glykys (Γλυκύς),37.97243410908604,23.73108284510336,Greek Restaurant
247,37.97153907066761,23.7313177510723,39,5,4bc3135cabf495211c36c393,Diogenes (Διογένης),37.97106833187731,23.729913507706108,Greek Restaurant
248,37.97153907066761,23.7313177510723,39,6,4adcdae0f964a520c35821e3,Daphne's,37.97093649540513,23.730111338069445,Greek Restaurant
249,37.97153907066761,23.7313177510723,39,7,4c7e24f45af8b60c9d859110,Plakiotissa (Πλακιώτισσα),37.96954915851221,23.73043149423434,Taverna
250,37.97153907066761,23.7313177510723,39,8,568c00a9498ef6e349449b4e,Scholarchio (Σχολαρχείο),37.972538941843574,23.72941393213429,Ouzeri
251,37.97153907066761,23.7313177510723,39,9,4fa03a86e4b07433042d3cc9,Erato (Ερατώ),37.97205431194264,23.73040074368785,Greek Restaurant
252,37.97153907066761,23.7313177510723,39,10,4d9a14b1942ba0937d26aa8c,Σαΐτα,37.97245216545326,23.73207761401864,Taverna
253,37.97153907066761,23.7313177510723,39,11,4e3c3ca8d22d102e85312d7d,Adrianos (Αδριανός),37.9715079785164,23.730057028979466,Greek Restaurant
254,37.97153907066761,23.7313177510723,39,12,4d36a7b1c47db1f70183e8a5,2Μαζί,37.973150668517,23.73298486653898,Modern Greek Restaurant
255,37.97153907066761,23.7313177510723,39,13,4f4fca2ee4b09d63ccdc4e98,Kalokerinos (Καλοκαιρινός),37.97300765618951,23.730831356889006,Taverna
256,37.97153907066761,23.7313177510723,39,14,4adcdae0f964a520cf5821e3,Taverna Akropol (Ταβέρνα Ακροπόλ),37.97183272079845,23.73124040762554,Taverna
257,37.97153907066761,23.7313177510723,39,15,4adcdae0f964a520ba5821e3,Taverna Plaka (Ταβέρνα Πλάκα),37.9720816807159,23.73140684317102,Taverna
258,37.97153907066761,23.7313177510723,39,16,4c0562f4761ac9b62d731f74,Estia (Εστία),37.971865883379074,23.73097777574308,Greek Restaurant
259,37.97153907066761,23.7313177510723,39,17,4d7e49659df3f04dd8a5c194,Kosmikon (Κοσμικόν),37.971732357110625,23.7303731850275,Greek Restaurant
260,37.97153907066761,23.7313177510723,39,18,57c1668b498e1efc0e18dade,Tabepna Ta,37.97163997094781,23.730287258268945,Greek Restaurant
261,37.97153907066761,23.7313177510723,39,19,52682e3511d2db45a4bdf085,Βόλτα,37.972530422536124,23.732785396301097,Greek Restaurant
262,37.97153907066761,23.7313177510723,39,20,5d6a9fd951bb400008583c00,Lemongrass,37.971788,23.731188,Thai Restaurant
263,37.97153907066761,23.7313177510723,39,21,5a313c6ee1791078c70aace9,L' Audrion,37.971741490302435,23.731056104390333,French Restaurant
264,37.97153907066761,23.7313177510723,39,22,4ea2b45d775b5c3e833f1d01,Taberna n laira,37.97332246186679,23.730246045004737,Greek Restaurant
265,37.97153907066761,23.7313177510723,39,23,4caef557562d224b97dc0988,Eris (Έρις),37.97093134235977,23.730025250388497,Café
266,37.97153907066761,23.7313177510723,39,24,4adcdae0f964a520af5821e3,Mpakaliarakia (Μπακαλιαράκια του Δαμιγού),37.9717461622792,23.73048048415692,Greek Restaurant
267,37.97153907066761,23.7313177510723,39,25,578e3b32498e9902531102fe,Matreshka,37.972595,23.733477,Russian Restaurant
268,37.97153907066761,23.7313177510723,39,26,5172ccde498ed50ccd653fca,Παλιά Αθήνα,37.97315550910704,23.73320958881775,Greek Restaurant
269,37.97153907066761,23.7313177510723,39,27,5a1d9146ad1789242369cea5,Sense,37.9695,23.730761,Greek Restaurant
270,37.97153907066761,23.7313177510723,39,28,50980344e4b0038a61bfc0c7,Νέος Ρήγας,37.9725077566441,23.730745780997346,Taverna
271,37.97153907066761,23.7313177510723,39,29,56b0b45c498e65d9b79079f2,μικρο πολιτικο ψητόπωλειο,37.96955600935682,23.730600879898727,Middle Eastern Restaurant
272,37.97153907066761,23.7313177510723,39,30,5b49d7056adbf5002c311cee,daphne’s restaurant,37.970813,23.730222,Modern Greek Restaurant
273,37.97153907066761,23.7313177510723,39,31,535e9f26498ee6a6d7414b5a,παληα αθηνα,37.97322082519531,23.733097076416016,Greek Restaurant
274,37.97153907066761,23.7313177510723,39,32,53f8d9a5498eaf3f62ce1146,Zonar's Le Cafe Athens,37.973232812799075,23.732939554938564,Greek Restaurant
275,37.97153907066761,23.7313177510723,39,33,55a3c43c498e529c4bbb6925,Avocado,37.972089,23.730829,Cretan Restaurant
276,37.97153907066761,23.7313177510723,39,34,4ca0a42619e4236a15186389,Trattoria,37.9717987873774,23.731065844216868,Italian Restaurant
277,37.97153907066761,23.7313177510723,39,35,4adcdadef964a520da5721e3,Scholarhio (Σχολαρχείο),37.97256389327033,23.729423354651974,Ouzeri
278,37.97153907066761,23.7313177510723,39,36,4dac5e5b0437dccbd831d826,Giouvetsakia (Γιουβετσάκια),37.971660465913125,23.730282085320336,Taverna
279,37.97153907066761,23.7313177510723,39,37,4c24f5e9905a0f4738a96060,Sirines (Σειρήνες),37.96958075582368,23.73068408310426,Greek Restaurant
280,37.97153907066761,23.7313177510723,39,38,4c0e8b207189c92852acd8b6,Vyzantino (Βυζαντινό),37.971975632335464,23.731218434154545,Taverna
281,37.9760609293324,23.737015582261034,21,0,5a26db762619ee1d4afa42d8,Opera Quarta,37.97703096270027,23.73632938377036,Italian Restaurant
282,37.9760609293324,23.737015582261034,21,1,5b8af559c876c8002cfc0c47,The Odeon Bistro,37.978042776125655,23.736421529249462,French Restaurant
283,37.9760609293324,23.737015582261034,21,2,51a3a080498eb54637f61a0b,Impasto,37.977016,23.739172,Pizza Place
284,37.9760609293324,23.737015582261034,21,3,5bdc5559dff815002c6e4b12,Ilios,37.977047,23.734568,Greek Restaurant
285,37.9760609293324,23.737015582261034,21,4,4e6289032271573ad7aa55a3,The Buthcher Shop,37.976499,23.735745,Greek Restaurant
286,37.9760609293324,23.737015582261034,21,5,5d7b81e684f21d00088849af,Σπιτική Κουζίνα,37.97794,23.736404,Greek Restaurant
287,37.9760609293324,23.737015582261034,21,6,55a28622498e507185bcb74f,mare marina,37.975714,23.736499,Greek Restaurant
288,37.9760609293324,23.737015582261034,21,7,59c79769c5b11c38a6430a74,Steakbar By Kiku,37.977763,23.738834,BBQ Joint
289,37.9760609293324,23.737015582261034,21,8,5cfceaf4121384002cbe41d3,春熙,37.97482,23.735119,Chinese Restaurant
290,37.9760609293324,23.737015582261034,21,9,4d415a3c915a3704c19b1e7f,Sofia's Valaoritou Cafe,37.977134,23.737611,Italian Restaurant
291,37.9760609293324,23.737015582261034,21,10,56e70406498ead12da7c7f6d,Piatsa Syntagma,37.97492644854834,23.73513940133078,Souvlaki Shop
292,37.9760609293324,23.737015582261034,21,11,516852d6e4b0c53c237b0aff,Γιαντες,37.97806,23.73631,Mediterranean Restaurant
293,37.9760609293324,23.737015582261034,21,12,4fb1598ee4b091b463a4d2dd,The Parliament @ NJV Plaza Hotel,37.97636713386608,23.734663724899292,Mediterranean Restaurant
294,37.9760609293324,23.737015582261034,21,13,567aa45c498e0dcfcef4dfb6,Μπουκιά & Συχώριο,37.97664133083174,23.739037843579958,Magirio
295,37.9760609293324,23.737015582261034,21,14,4adcdae0f964a520d05821e3,Tudor Hall,37.976212275669226,23.734925095055043,Modern Greek Restaurant
296,37.9760609293324,23.737015582261034,21,15,4cab04caf47ea14389a08721,GB Corner,37.976181076066744,23.735519349575043,Greek Restaurant
297,37.9760609293324,23.737015582261034,21,16,5e0e0190a79853000839d637,Chun Xi,37.9752,23.735344,Chinese Restaurant
298,37.9760609293324,23.737015582261034,21,17,53b6e304498e8768028a6e51,Το Τσιπουράδικο,37.9766845703125,23.736387252807617,Tsipouro Restaurant
299,37.9760609293324,23.737015582261034,21,18,528a765911d2158e411a1596,Ελιά & Τσίπουρο,37.977219681568535,23.73699825221111,Tsipouro Restaurant
300,37.9760609293324,23.737015582261034,21,19,594530ed9e0d540422ec286c,Origin Syntagma,37.974802,23.735189,Greek Restaurant
301,37.9760609293324,23.737015582261034,21,20,5f7b356864ea58299d762afb,Ουζερί 1960 By Papaioannou,37.977997,23.736397,Ouzeri
302,37.97153907066761,23.737015582261034,4,0,4fa6a135e4b0862c75e276d5,Fokianos' Cafe (Καφενείο του Φωκιανού),37.969667605124464,23.73826337956557,Kafenio
303,37.97153907066761,23.737015582261034,4,1,5505c621498e4fa986efaae1,Fu Yu Long,37.97270437586635,23.73566176359938,Chinese Restaurant
304,37.97153907066761,23.737015582261034,4,2,4fc21af8e4b0c1dd0a1cedb4,Αίγλη Εστιατόριο,37.970807121386066,23.737346631261246,Greek Restaurant
305,37.97153907066761,23.737015582261034,4,3,4c0551a773a8c9b6004c97e0,Cibus,37.97078519472443,23.73743712902069,Mediterranean Restaurant
306,37.973800000000004,23.7475,7,0,5a9a90334940bc2ab2713ba5,Athinais | greek & mediterranean cousine (Athinais),37.97191,23.747175,Magirio
307,37.973800000000004,23.7475,7,1,4dfb749a88775f8b52f916e8,Πολυπίτα,37.972799817458345,23.747787427617713,Souvlaki Shop
308,37.973800000000004,23.7475,7,2,4d32e0d772a8b1f78494a2d0,Fatsio,37.973020345065926,23.74735263227357,Greek Restaurant
309,37.973800000000004,23.7475,7,3,4d9ef5679bf0a35dc968050b,Στο Καφέ του Λουκά,37.972995460445325,23.747817875411705,Kafenio
310,37.973800000000004,23.7475,7,4,51056cbbe4b0637e16f7a9cf,Καφενείο Παλιά Σκοποβολή,37.971721306401754,23.748410565902756,Kafenio
311,37.973800000000004,23.7475,7,5,5169a1ad498e44df70c4af08,xatiri,37.97184753417969,23.747392654418945,Greek Restaurant
312,37.973800000000004,23.7475,7,6,5bddec4d8c812a002c13d8fb,vip 귀빈식당,37.972628,23.749427,Korean Restaurant
313,37.9760609293324,23.744651084405632,16,0,4eb456bb61af0dda8fe033a6,Malconi's,37.978257311917346,23.74484546151065,Italian Restaurant
314,37.9760609293324,23.744651084405632,16,1,58c1b22584c4ed64ef011154,Zurbaran,37.978055354248134,23.744299803480224,Cocktail Bar
315,37.9760609293324,23.744651084405632,16,2,5a46c931898bdc169aee6ad4,Brunello,37.977771699671315,23.743563833017415,Italian Restaurant
316,37.9760609293324,23.744651084405632,16,3,5da1fa8c783dac000878df08,Mailo's The Pasta Project,37.978166,23.744944,Italian Restaurant
317,37.9760609293324,23.744651084405632,16,4,4ba4c9f1f964a52004b538e3,Oikeio (Οικείο),37.977779768816475,23.7451134949034,Greek Restaurant
318,37.9760609293324,23.744651084405632,16,5,5a30423c772fbc3fffd07399,Όλα στη λαδοκολλα,37.978185084872656,23.74461733072191,Souvlaki Shop
319,37.9760609293324,23.744651084405632,16,6,5e445e1de1617b0008e0708f,Μπιρμπίλω,37.977946,23.745094,Greek Restaurant
320,37.9760609293324,23.744651084405632,16,7,4adcdae0f964a520aa5821e3,Το Καφενείο,37.977716700200716,23.743570454713616,Kafenio
321,37.9760609293324,23.744651084405632,16,8,5a4ebcf0a2a6ce74d5cce60f,Woowoo,37.97827707111736,23.744827438319742,Bar
322,37.9760609293324,23.744651084405632,16,9,4d46b6987e2e54810f2a768f,"Εστιατόριο ""Gloria""",37.977034,23.746838,Greek Restaurant
323,37.9760609293324,23.744651084405632,16,10,5ae349df8496ca002c9f60ec,Το Σουτζουκάκι,37.977506,23.746411,Magirio
324,37.9760609293324,23.744651084405632,16,11,546a645a498e78ad14b28cf0,Kenza Bar,37.97688854151125,23.74539645248977,Peruvian Restaurant
325,37.9760609293324,23.744651084405632,16,12,584beeefd8f3e9271eaa3863,mediterranean cuisine,37.976633,23.742575,Mediterranean Restaurant
326,37.9760609293324,23.744651084405632,16,13,57337efb498e4049f7bad46c,ATHINEA,37.977204388126616,23.745253086090088,Modern Greek Restaurant
327,37.9760609293324,23.744651084405632,16,14,4f64e688e4b0ce431d953d50,50-50 Kolonaki,37.97730365701205,23.745115895653335,Greek Restaurant
328,37.9760609293324,23.744651084405632,16,15,5f9c12fd551ee9255bc40fa2,Tokyo Joe,37.977293,23.745218,Japanese Restaurant
329,37.97153907066761,23.744651084405632,31,0,4fda2c73e4b022c15e22a24e,Το Μαύρο Πρόβατο του Press Café,37.97140914983523,23.745059468859708,Meze Restaurant
330,37.97153907066761,23.744651084405632,31,1,4f3d6e32e4b0a924831ac323,Μαύρος Γάτος,37.971489,23.744794,Greek Restaurant
331,37.97153907066761,23.744651084405632,31,2,4d57f1c91901224be4c784a6,Καραβίτης,37.97159143086739,23.743640230859413,Taverna
332,37.97153907066761,23.744651084405632,31,3,5d9f997ec1940f00087267be,Yoko Sushi & Bento,37.971266,23.744947,Sushi Restaurant
333,37.97153907066761,23.744651084405632,31,4,5aa70aad2a7ab65a75e7ffe3,Alficon,37.970851,23.743392,Modern Greek Restaurant
334,37.97153907066761,23.744651084405632,31,5,5a9a90334940bc2ab2713ba5,Athinais | greek & mediterranean cousine (Athinais),37.97191,23.747175,Magirio
335,37.97153907066761,23.744651084405632,31,6,4fa6909fe4b09571dff760a7,Piggy-πόπουλο,37.971167430852596,23.74645879662218,Souvlaki Shop
336,37.97153907066761,23.744651084405632,31,7,51be12ae498ee13d0b32b341,Κρεατοφαγείον,37.9721103227211,23.744411705851498,Grilled Meat Restaurant
337,37.97153907066761,23.744651084405632,31,8,589218f6288b6a0e7802df71,Cupola,37.97040985383141,23.74218797543775,Italian Restaurant
338,37.97153907066761,23.744651084405632,31,9,515b46e9e4b0f2fa0f18e448,ΚΑΦΕΝΕΙΟ ΕΛ ΤΑΧ ΡΙΡ,37.97118205682399,23.74662087102501,Hookah Bar
339,37.97153907066761,23.744651084405632,31,10,4e04690418a877730b76e59b,Γυροκατασταση,37.97134098,23.747008677777774,Souvlaki Shop
340,37.97153907066761,23.744651084405632,31,11,5855becfc0df765a6c0bed9e,Υπόγεια Ταβέρνα,37.97065,23.742418,Greek Restaurant
341,37.97153907066761,23.744651084405632,31,12,5107a954e4b054404b06534f,Βρούτος,37.97201439262325,23.74505894323281,Meze Restaurant
342,37.97153907066761,23.744651084405632,31,13,4f0f18fde4b01ae240af907f,Ο Γίγας,37.97069822032953,23.74708572741875,Greek Restaurant
343,37.97153907066761,23.744651084405632,31,14,5138d6bde4b02b0ccae8de38,Η Θηβα,37.97139310263033,23.744424419050233,Greek Restaurant
344,37.97153907066761,23.744651084405632,31,15,5bf5c8bac62b49002c5509d6,Karavites,37.971429,23.743533,Greek Restaurant
345,37.97153907066761,23.744651084405632,31,16,52508d9e2fc620faa55716ad,το χατίρι,37.9712588302828,23.74624013900757,Mediterranean Restaurant
346,37.97153907066761,23.744651084405632,31,17,4ffc6d76e4b027f6fed1228a,Πλατεία Καλαμακίου,37.972141568216344,23.74440698685531,Greek Restaurant
347,37.97153907066761,23.744651084405632,31,18,4cd06e1e5b5ca35d2ddd7bf0,Ηλίας,37.97180858200971,23.744330406188965,Greek Restaurant
348,37.97153907066761,23.744651084405632,31,19,4e04c5f5fa7643f3a0288642,Ο Θεοφιλος,37.97214691237788,23.74430239367375,Greek Restaurant
349,37.97153907066761,23.744651084405632,31,20,5a9464d39ba3e55b10ea4952,ελλούδα,37.970811,23.746735,Modern Greek Restaurant
350,37.97153907066761,23.744651084405632,31,21,5671328a498e6877798f8689,Italia,37.97081932212692,23.743277222052335,Italian Restaurant
351,37.97153907066761,23.744651084405632,31,22,5169a1ad498e44df70c4af08,xatiri,37.97184753417969,23.747392654418945,Greek Restaurant
352,37.97153907066761,23.744651084405632,31,23,5da22080448b4c00077a5eb3,Trattoria Italia D'Onofrio,37.97081,23.743195,Italian Restaurant
353,37.97153907066761,23.744651084405632,31,24,52c71b3811d24f3848c5209f,Οιναποθήκη,37.97059315111312,23.74249525267009,Greek Restaurant
354,37.97153907066761,23.744651084405632,31,25,55901d4b498e718474438ecc,Ο μαύρος γατος,37.97070902824996,23.742890383704566,Magirio
355,37.97153907066761,23.744651084405632,31,26,4cc351d51e596dcbc4bac967,Aptaliko,37.971035,23.742607,Greek Restaurant
356,37.97153907066761,23.744651084405632,31,27,534f9a10498e9af7dcc68e95,Πaso καφενειο bar,37.972015380859375,23.745018005371094,Kafenio
357,37.97153907066761,23.744651084405632,31,28,5b9e9fbf112c6c002cf5b5a1,Magemeni Avli (Μαγεμένη Αυλή),37.971827,23.744182,Greek Restaurant
358,37.97153907066761,23.744651084405632,31,29,4bd46b936798ef3b658a618d,Κατσούρμπος,37.97206464416186,23.74400195497671,Cretan Restaurant
359,37.97153907066761,23.744651084405632,31,30,5e5eadd24726a4000b50a088,Madai Sushi Bar,37.97142,23.746148,Sushi Restaurant
360,37.9760609293324,23.750348915594365,18,0,4de685082271f377c2ac962f,Vezené,37.97503542941217,23.750604634035145,Modern Greek Restaurant
361,37.9760609293324,23.750348915594365,18,1,5679c79c498e5a11fca9e97e,Simul,37.9778216565937,23.75048216011643,Modern European Restaurant
362,37.9760609293324,23.750348915594365,18,2,4b62f892f964a520815b2ae3,Αγορά Select,37.976079923856574,23.751503983566415,Mediterranean Restaurant
363,37.9760609293324,23.750348915594365,18,3,547e15f0498ef05487ce4923,Cookoovaya,37.97691826436721,23.75166517693736,Modern Greek Restaurant
364,37.9760609293324,23.750348915594365,18,4,4cef5548f368b1f7180e85f7,Byzantino Restaurant,37.97666940040532,23.75053949271871,Mediterranean Restaurant
365,37.9760609293324,23.750348915594365,18,5,4ce13ccef8cdb1f7dd7d9b12,Πίτα Παν,37.973942235745376,23.750503754443752,Souvlaki Shop
366,37.9760609293324,23.750348915594365,18,6,5c236a6a8c812a002ccbd813,Royal Greek Souvlaki,37.974613,23.750578,Souvlaki Shop
367,37.9760609293324,23.750348915594365,18,7,5a908e5a2c7eb9116f9ca5d2,VASSILENAS Restaurant,37.9751070059142,23.750499486923218,Greek Restaurant
368,37.9760609293324,23.750348915594365,18,8,584c4f2a0aac7524acd909a7,Βασίλαινας,37.97472048263405,23.75071137826864,Greek Restaurant
369,37.9760609293324,23.750348915594365,18,9,50d204f3e4b0ac8572570989,Mpoukalakia,37.97679598604552,23.75255357010944,Greek Restaurant
370,37.9760609293324,23.750348915594365,18,10,5d25da4a63220f0024bdae6a,Olive Oil Bar,37.97686,23.751348,Greek Restaurant
371,37.9760609293324,23.750348915594365,18,11,509cffc9e4b0f56d60125d72,Ταβέρνα της Κυρά Κατίνας,37.974482,23.751238,Taverna
372,37.9760609293324,23.750348915594365,18,12,50d462b25262005148417b2c,Μακεδονία,37.9757159295049,23.75215172767639,Bougatsa Shop
373,37.9760609293324,23.750348915594365,18,13,550ec99d498ec8c459e038ce,Cross,37.974376743201084,23.750839427844905,Mediterranean Restaurant
374,37.9760609293324,23.750348915594365,18,14,5350f902498eea387b2bb0c8,Diferente,37.97646270244301,23.751116448401113,Latin American Restaurant
375,37.9760609293324,23.750348915594365,18,15,5f89f10dcdbd5420a6a58c00,ΣΠΑΛΑ Αθήνα,37.97503,23.750378,Modern Greek Restaurant
376,37.9760609293324,23.750348915594365,18,16,4f4a0af4e4b082dc57f8388f,Facce Strane,37.9742930208513,23.750739779128857,Café
377,37.9760609293324,23.750348915594365,18,17,5f931c1a30968d739ce744ab,Spala,37.975105,23.750657,Modern Greek Restaurant
378,37.97153907066761,23.750348915594365,14,0,4df5edc1e4cda09e6daadc20,Oroscopo,37.97365113045366,23.750558005249967,Mediterranean Restaurant
379,37.97153907066761,23.750348915594365,14,1,4f9c2f67e4b043736fcfe11a,JuJu Bar Restaurant,37.97298830471942,23.75171826471916,Modern European Restaurant
380,37.97153907066761,23.750348915594365,14,2,5ce94ba386f4cc00369b98cd,Το Καπλάνι,37.972374,23.752861,Cretan Restaurant
381,37.97153907066761,23.750348915594365,14,3,4dded70e091a61e0ed600fa9,Kremmidi Kreatofagio,37.972055,23.750944,Greek Restaurant
382,37.97153907066761,23.750348915594365,14,4,4db9b32c6a2334682dae5055,KyrElias,37.970021,23.749212,Greek Restaurant
383,37.97153907066761,23.750348915594365,14,5,5cec580fb9b37b002c139c37,To Kaplani,37.972424,23.752918,Greek Restaurant
384,37.97153907066761,23.750348915594365,14,6,51056cbbe4b0637e16f7a9cf,Καφενείο Παλιά Σκοποβολή,37.971721306401754,23.748410565902756,Kafenio
385,37.97153907066761,23.750348915594365,14,7,53960930498eb409d6a4d15b,taverna mediterranean restaurant,37.973670959472656,23.750648498535156,Mediterranean Restaurant
386,37.97153907066761,23.750348915594365,14,8,514f11aee4b017660ce8aff0,Κρικελας,37.973487,23.750828,Greek Restaurant
387,37.97153907066761,23.750348915594365,14,9,57ae248a498e241e44cb8f87,varka,37.973731,23.750527,Fish Taverna
388,37.97153907066761,23.750348915594365,14,10,5bddec4d8c812a002c13d8fb,vip 귀빈식당,37.972628,23.749427,Korean Restaurant
389,37.97153907066761,23.750348915594365,14,11,58e29e12d0bb3e2f454617bd,Athens View & Horizon,37.972979,23.751442,Greek Restaurant
390,37.97153907066761,23.750348915594365,14,12,51926df2498ed7b0a72955c1,Ellinko,37.973363,23.750612,Greek Restaurant
391,37.97153907066761,23.750348915594365,14,13,4d5b38dadc5f224bbf47ae64,Ξύλινη Γωνιά,37.972217,23.751804,Magirio
392,37.9838,23.72083333333333,24,0,52b1fe5d498e37403ed8d524,Seychelles (Σεϋχέλλες),37.982321898196474,23.720262799116398,Mediterranean Restaurant
393,37.9838,23.72083333333333,24,1,5a551fa8002f4c455b42720c,Morgan All Jeans,37.985703,23.72006,Kafenio
394,37.9838,23.72083333333333,24,2,5107f41be4b0304f055eaf74,Το Αυγό του Κόκορα,37.98266969517708,23.71928494116472,Greek Restaurant
395,37.9838,23.72083333333333,24,3,4f80a305e4b009277f2c5829,Tamarind,37.982334775341855,23.7200395557855,Thai Restaurant
396,37.9838,23.72083333333333,24,4,4c112bd06b7e2d7fc4d22835,Fulihua,37.9834070622255,23.720826515264605,Chinese Restaurant
397,37.9838,23.72083333333333,24,5,52ea7cd211d224512050b446,Θυμιος,37.982936,23.72083,Greek Restaurant
398,37.9838,23.72083333333333,24,6,53a0a154498e0d932f15430e,Alexander The Great Teknoboyut A.Ş,37.9846653698719,23.72152383344749,Mediterranean Restaurant
399,37.9838,23.72083333333333,24,7,549714bb498e0e01ddb794f5,Dafuhao Restaurant 大富豪酒店,37.98351308783415,23.721284866333004,Chinese Restaurant
400,37.9838,23.72083333333333,24,8,5d51ba3fe844a20008968a93,Mironi,37.984827,23.721417,Greek Restaurant
401,37.9838,23.72083333333333,24,9,58f9f120dd70c5619b7c738d,Peninsular Gourmet (光头佬饭店),37.98164,23.721414,Chinese Restaurant
402,37.9838,23.72083333333333,24,10,5be60480b25fee002c4a201f,Tamarind Thai Kitchen,37.982187,23.720147,Thai Restaurant
403,37.9838,23.72083333333333,24,11,51575558e4b09bde4a96d64e,Virtus,37.985919,23.721055,Greek Restaurant
404,37.9838,23.72083333333333,24,12,4bfae751d0382d7f0ff3c80a,Alexander the Great Cafe,37.98494088979249,23.721479902422107,Café
405,37.9838,23.72083333333333,24,13,4d7285b1f7c38cfa5741a83d,Rich Man,37.98338755636004,23.720919491074714,Asian Restaurant
406,37.9838,23.72083333333333,24,14,5a7c8eac5c6838017f583c16,Η Άρτα,37.984843,23.720124,Taverna
407,37.9838,23.72083333333333,24,15,53413d38498eaccf41461267,Παραδοσιακο Κουτουκι Ο Θύμιος,37.98278045654297,23.720876693725586,Greek Restaurant
408,37.9838,23.72083333333333,24,16,5d46d57c0625120008a5d1f9,Gioto’s Greek Restaurant,37.984875,23.721771,Greek Restaurant
409,37.9838,23.72083333333333,24,17,504489f0e4b00a580595620c,Γιωτης,37.98512452645188,23.72179113851049,Greek Restaurant
410,37.9838,23.72083333333333,24,18,5157bb28e4b03dbb59730421,Palo's Bar,37.98590935012496,23.721099631660923,Greek Restaurant
411,37.9838,23.72083333333333,24,19,4c81488b2f1c236a285b2e43,To Metaxourgeio Taverna,37.982434,23.719541,Greek Restaurant
412,37.9838,23.72083333333333,24,20,4f241d7be4b012e02ec53985,Αστάρι,37.98293650405489,23.718452933329317,Greek Restaurant
413,37.9838,23.72083333333333,24,21,522779f111d20e5290063211,Σουβλάκι το Μεταξουργείο,37.98519,23.722736,Souvlaki Shop
414,37.9838,23.72083333333333,24,22,4f4be8d8e4b037cdb936169c,Καφενειο,37.983028,23.718481,Kafenio
415,37.9838,23.72083333333333,24,23,5cb8c297aa6c95003973045a,Mironi Greek Restaurant,37.984695,23.721378,Greek Restaurant
416,37.986060929332396,23.717984029530395,5,0,5a551fa8002f4c455b42720c,Morgan All Jeans,37.985703,23.72006,Kafenio
417,37.986060929332396,23.717984029530395,5,1,5bbcc4e07c891c002d5a90d5,Ο Τυπογράφος,37.98647,23.719654,Meze Restaurant
418,37.986060929332396,23.717984029530395,5,2,4be40296f07b0f47b448f943,Μεταξού,37.985820931803616,23.715316731337065,Greek Restaurant
419,37.986060929332396,23.717984029530395,5,3,56ce0db5cd109cb42e4ff6d3,Κόκκινος Κρίνος,37.98608588372604,23.72076451778412,Greek Restaurant
420,37.986060929332396,23.717984029530395,5,4,5a7c8eac5c6838017f583c16,Η Άρτα,37.984843,23.720124,Taverna
421,37.98153907066761,23.717984029530395,27,0,52b1fe5d498e37403ed8d524,Seychelles (Σεϋχέλλες),37.982321898196474,23.720262799116398,Mediterranean Restaurant
422,37.98153907066761,23.717984029530395,27,1,4e688530b99320740ff006b2,ΡΑΚΟΡ,37.9803908807664,23.717081847182858,Greek Restaurant
423,37.98153907066761,23.717984029530395,27,2,4f5f7428e4b03142f5d02c40,Elvis (Έλβις),37.98131327453013,23.716324932486216,Souvlaki Shop
424,37.98153907066761,23.717984029530395,27,3,5107f41be4b0304f055eaf74,Το Αυγό του Κόκορα,37.98266969517708,23.71928494116472,Greek Restaurant
425,37.98153907066761,23.717984029530395,27,4,532d8adf498ef60120816878,λούης,37.980880964133675,23.715360409705614,Kafenio
426,37.98153907066761,23.717984029530395,27,5,4e32e024a8097f47f4a2d86d,Μυκηνών Γωνία,37.98196702508727,23.71525097280469,Greek Restaurant
427,37.98153907066761,23.717984029530395,27,6,551b0e8b498e7d998d59d92c,Sabir,37.98101065411938,23.716549524048865,Kafenio
428,37.98153907066761,23.717984029530395,27,7,4f80a305e4b009277f2c5829,Tamarind,37.982334775341855,23.7200395557855,Thai Restaurant
429,37.98153907066761,23.717984029530395,27,8,5de02b2026eee00008737d33,Steve’s Deli Tavern,37.981777,23.716733,New American Restaurant
430,37.98153907066761,23.717984029530395,27,9,4c9e53f78afca093c5d4ff15,Τα Κανάρια,37.98082275776233,23.716709941425595,Bar
431,37.98153907066761,23.717984029530395,27,10,4c1912d798f4a593da84fff5,Aleria,37.98301666036783,23.717810232765572,Modern Greek Restaurant
432,37.98153907066761,23.717984029530395,27,11,51486cf4e4b0efe80aef8eba,Τσουλήθρα,37.982968913839706,23.7159771933861,Meze Restaurant
433,37.98153907066761,23.717984029530395,27,12,59160ec8396de017a32b4223,Στέκι Πινόκλης,37.982102091234545,23.715424858334135,Greek Restaurant
434,37.98153907066761,23.717984029530395,27,13,56990e34498e0eb5b51fadd9,Pipis place (Καφενείο Πίπις),37.982624,23.716465,Kafenio
435,37.98153907066761,23.717984029530395,27,14,58543ab95a586918eeb009c1,Στη ζούλα,37.982268,23.717354,Tsipouro Restaurant
436,37.98153907066761,23.717984029530395,27,15,57e599becd1097b6a53f570b,Εξωστρεφής στον Κεραμεικό,37.98186546657915,23.71589313414954,Meze Restaurant
437,37.98153907066761,23.717984029530395,27,16,5be60480b25fee002c4a201f,Tamarind Thai Kitchen,37.982187,23.720147,Thai Restaurant
438,37.98153907066761,23.717984029530395,27,17,56130f45498e2ad59e492c65,Falafel,37.981122723565846,23.716224192534106,Middle Eastern Restaurant
439,37.98153907066761,23.717984029530395,27,18,5d87b972bf88700008de8637,Chez Lucien,37.979805,23.718086,Bistro
440,37.98153907066761,23.717984029530395,27,19,526c11fa11d24f4dd9241e40,Μια ζωή την έχουμε,37.98211552063408,23.717112331933507,Meze Restaurant
441,37.98153907066761,23.717984029530395,27,20,508b0a0ce4b06da581be0e63,Μποεμισσα-Ρεβεταδικο Λαικα,37.98014198736712,23.71922849100992,Greek Restaurant
442,37.98153907066761,23.717984029530395,27,21,5af3346bc47cf9002cdc8b67,Taverna at Bios,37.980053,23.717972,Greek Restaurant
443,37.98153907066761,23.717984029530395,27,22,5aac0bd658aa7f5afd0aa70a,Athiri Restaurant,37.980615,23.716827,Greek Restaurant
444,37.98153907066761,23.717984029530395,27,23,4c81488b2f1c236a285b2e43,To Metaxourgeio Taverna,37.982434,23.719541,Greek Restaurant
445,37.98153907066761,23.717984029530395,27,24,4f241d7be4b012e02ec53985,Αστάρι,37.98293650405489,23.718452933329317,Greek Restaurant
446,37.98153907066761,23.717984029530395,27,25,4f4be8d8e4b037cdb936169c,Καφενειο,37.983028,23.718481,Kafenio
447,37.98153907066761,23.717984029530395,27,26,5ca0a768603d2a002c89811e,Exodus,37.98249,23.717619,Kafenio
448,37.986060929332396,23.723682637136267,26,0,4eb5c380823131626f69447d,Ακροβάτης,37.987706119132596,23.722567503282466,Café
449,37.986060929332396,23.723682637136267,26,1,50072e4be4b0b3c661e670fd,Πειραϊκι,37.985281132844726,23.726335304176082,Greek Restaurant
450,37.986060929332396,23.723682637136267,26,2,4f58b90fe4b0271fff315e2d,Εστιατόριο ΜΑΚΕΔΟΝΙΑ,37.98681341821564,23.726079623244537,Greek Restaurant
451,37.986060929332396,23.723682637136267,26,3,53a0a154498e0d932f15430e,Alexander The Great Teknoboyut A.Ş,37.9846653698719,23.72152383344749,Mediterranean Restaurant
452,37.986060929332396,23.723682637136267,26,4,5e23271473576f00089af9fb,Royal Spices,37.98582,23.722391,Indian Restaurant
453,37.986060929332396,23.723682637136267,26,5,533aa2fe498edecb7f79b833,Κικιρίκου,37.986964,23.725295,Greek Restaurant
454,37.986060929332396,23.723682637136267,26,6,547b360d498ea3fb993c411b,η Κρήτη,37.985351364837435,23.72510919677888,Cretan Restaurant
455,37.986060929332396,23.723682637136267,26,7,59da17dfa4b51b3d78d6f66c,Stolova,37.986736,23.725769,Middle Eastern Restaurant
456,37.986060929332396,23.723682637136267,26,8,5d51ba3fe844a20008968a93,Mironi,37.984827,23.721417,Greek Restaurant
457,37.986060929332396,23.723682637136267,26,9,5cb76b61c97f280038d3c73c,Anatolia (Roj Halat),37.98495,23.724035,Kurdish Restaurant
458,37.986060929332396,23.723682637136267,26,10,51575558e4b09bde4a96d64e,Virtus,37.985919,23.721055,Greek Restaurant
459,37.986060929332396,23.723682637136267,26,11,4bfae751d0382d7f0ff3c80a,Alexander the Great Cafe,37.98494088979249,23.721479902422107,Café
460,37.986060929332396,23.723682637136267,26,12,4dc5d2e8d164eb9c9ffa1736,Σπιτική Γωνιά,37.98728683213394,23.72238385795735,Greek Restaurant
461,37.986060929332396,23.723682637136267,26,13,5d46d57c0625120008a5d1f9,Gioto’s Greek Restaurant,37.984875,23.721771,Greek Restaurant
462,37.986060929332396,23.723682637136267,26,14,4d2060cd6e8c37047fe0f89f,Cafe Ouzeri,37.984097,23.724376,Ouzeri
463,37.986060929332396,23.723682637136267,26,15,504489f0e4b00a580595620c,Γιωτης,37.98512452645188,23.72179113851049,Greek Restaurant
464,37.986060929332396,23.723682637136267,26,16,5157bb28e4b03dbb59730421,Palo's Bar,37.98590935012496,23.721099631660923,Greek Restaurant
465,37.986060929332396,23.723682637136267,26,17,4fa234b5e4b0b50902c8ca58,Rodopi,37.985446,23.723363,Greek Restaurant
466,37.986060929332396,23.723682637136267,26,18,4e6b1847d4c01ce017dd1511,Βουλγαρικό Καφενείο,37.98649892652752,23.726474766450874,Bulgarian Restaurant
467,37.986060929332396,23.723682637136267,26,19,570b854e498e9c41ff57cad7,kafe theatro,37.986153,23.722624,Greek Restaurant
468,37.986060929332396,23.723682637136267,26,20,59022c6a396de02ff8c24ffd,Ps Restaurant,37.986153,23.72156,Greek Restaurant
469,37.986060929332396,23.723682637136267,26,21,522779f111d20e5290063211,Σουβλάκι το Μεταξουργείο,37.98519,23.722736,Souvlaki Shop
470,37.986060929332396,23.723682637136267,26,22,551eea1b498ee3db6d008e37,μηλοχρυσος,37.986507,23.72573,Greek Restaurant
471,37.986060929332396,23.723682637136267,26,23,5989bee3237dee07a12baac7,EL USTURA,37.98560177372302,23.725801706314083,Middle Eastern Restaurant
472,37.986060929332396,23.723682637136267,26,24,5e4eacb8acc7c50008b58d0c,"Ψησταριά - Σνακ Μπαρ ""Ο Χρηστος""",37.986584,23.722095,Grilled Meat Restaurant
473,37.986060929332396,23.723682637136267,26,25,5103d4e8e4b0280b03e452a8,Balkan,37.98541623922433,23.722988198679243,Eastern European Restaurant
474,37.98153907066761,23.723682637136267,34,0,5374e6b9498e90c75ce9c0b4,Καραμανλίδικα του Φάνη,37.98016872811729,23.72575713025251,Meze Restaurant
475,37.98153907066761,23.723682637136267,34,1,5622233d498eeefe0c596870,Zampanó,37.97943253043622,23.72321973349703,Modern Greek Restaurant
476,37.98153907066761,23.723682637136267,34,2,55156e65498eb8bdba7fd799,Της Θεάτρου Το Στέκι,37.980702812964815,23.725394499850893,Kafenio
477,37.98153907066761,23.723682637136267,34,3,4b7d546cf964a52088b82fe3,Klimataria (Κληματαριά),37.980602,23.724567,Taverna
478,37.98153907066761,23.723682637136267,34,4,5ad9c0056336be2747518a74,Karamanlika,37.980105,23.725496,Restaurant
479,37.98153907066761,23.723682637136267,34,5,54789376498ec574d645fc6a,Pak Tikka India,37.98100301737424,23.724050635746167,Pakistani Restaurant
480,37.98153907066761,23.723682637136267,34,6,4d346bcfc6cba35da356337a,雅典第二,37.98168649597832,23.72321605682373,Chinese Restaurant
481,37.98153907066761,23.723682637136267,34,7,4d735b1b27ddb60c1d6cdb1b,Μπριζολάκια του Τέλη,37.98040872304492,23.72337421896318,Grilled Meat Restaurant
482,37.98153907066761,23.723682637136267,34,8,5218b32f11d2f9bf3dd9a977,Meidanis (Στου Μεϊδάνη),37.98028108089223,23.725827186314906,Greek Restaurant
483,37.98153907066761,23.723682637136267,34,9,4f296034e4b09b014099b336,Δίπορτο,37.98065784354256,23.726019288454676,Greek Restaurant
484,37.98153907066761,23.723682637136267,34,10,57f7aaf4498eacc89ac07081,Malik Jee,37.981393693706984,23.725068948306216,Pakistani Restaurant
485,37.98153907066761,23.723682637136267,34,11,533fe6d9498e424c58709124,ΠΙΚΑΝΤΙΚΟ ,37.98098873210847,23.72592272806696,Souvlaki Shop
486,37.98153907066761,23.723682637136267,34,12,537ca630498e5331f9edf6cb,Αναψυκτήριο,37.979354,23.723076,Greek Restaurant
487,37.98153907066761,23.723682637136267,34,13,567f056f498e1c85f1d53d51,Στην πλατεία Θεάτρου,37.980527613009215,23.725097574894374,Meze Restaurant
488,37.98153907066761,23.723682637136267,34,14,53ad50c2498e40442f7d4b8d,Μασίς,37.982410183474116,23.724766351079968,Middle Eastern Restaurant
489,37.98153907066761,23.723682637136267,34,15,535fdd0311d21856e478baa9,Makkah Restaurant,37.98249723211748,23.725277714075816,Pakistani Restaurant
490,37.98153907066761,23.723682637136267,34,16,599acd4d018cbb23722e52b4,Taste Of India,37.980885,23.724974,Indian Restaurant
491,37.98153907066761,23.723682637136267,34,17,5470967d498e94529d3b055d,Αλεξάνδρεια,37.98149,23.724588,Middle Eastern Restaurant
492,37.98153907066761,23.723682637136267,34,18,58f9f120dd70c5619b7c738d,Peninsular Gourmet (光头佬饭店),37.98164,23.721414,Chinese Restaurant
493,37.98153907066761,23.723682637136267,34,19,50c9b178e4b0a60330564f7d,Restaurant Alexandros,37.98343067304433,23.723807544146315,Mediterranean Restaurant
494,37.98153907066761,23.723682637136267,34,20,5391afc8498ed1bfbbd0f13f,Red indian,37.981044,23.723811,Pakistani Restaurant
495,37.98153907066761,23.723682637136267,34,21,526cf70b11d24e4787c7297b,Nuri Indian Restaurant,37.9803,23.725212,Indian Restaurant
496,37.98153907066761,23.723682637136267,34,22,52b05ffa498e756d3e9c2320,Dhaka Palace,37.98266434712166,23.725684479746363,Indian Restaurant
497,37.98153907066761,23.723682637136267,34,23,523aefab498e44c83396646f,Безымянный Ресторанчик,37.98135899547135,23.726468955523483,Greek Restaurant
498,37.98153907066761,23.723682637136267,34,24,58910b4a2ec36420bafaa372,Πλατεία Θεατρου,37.980598,23.724963,Meze Restaurant
499,37.98153907066761,23.723682637136267,34,25,546caef2498e31fa52ae084f,Σαπφούς 5 Αθήνα,37.98143768310547,23.72342300415039,Pakistani Restaurant
500,37.98153907066761,23.723682637136267,34,26,4f1c3907e4b044fd36524bc8,Μινώταυρος,37.98033897630895,23.72343564281303,Grilled Meat Restaurant
501,37.98153907066761,23.723682637136267,34,27,56aa0852498ef5224dfe612a,Σουβλάκια Δ. Βασιλο´πουλος,37.980428,23.724185,Souvlaki Shop
502,37.98153907066761,23.723682637136267,34,28,5102de5229a61991eb423a18,Nasir Ahamed Naeem,37.98137360299733,23.72322678565979,Pakistani Restaurant
503,37.98153907066761,23.723682637136267,34,29,56aa0888498e7a909d329d58,Σουβλάκια Δ. Βασιλόπουλος,37.980444,23.724191,Souvlaki Shop
504,37.98153907066761,23.723682637136267,34,30,59fe237fa92d9866ebfc98af,titas,37.98037571917317,23.725125789642334,Indian Restaurant
505,37.98153907066761,23.723682637136267,34,31,564cd707498e0fc5904b824e,Royal Curry House,37.983314861359766,23.724284042352178,Indian Restaurant
506,37.98153907066761,23.723682637136267,34,32,4f4916dbe4b07d0dde6a12c1,Rajdhany,37.982176974182636,23.725619316101074,Indian Restaurant
507,37.98153907066761,23.723682637136267,34,33,5f5e548cfd76be70addee246,Dosa House,37.980734,23.725376,Indian Restaurant
508,37.9838,23.734166666666667,50,0,51754ae6498ed2640eef2c6f,Καλό Ψημένο,37.98297637240901,23.735991848493605,Souvlaki Shop
509,37.9838,23.734166666666667,50,1,4dea883bd164ef597cee179d,Γιάντες,37.98548737209639,23.73598268950343,Greek Restaurant
510,37.9838,23.734166666666667,50,2,58b95bbe668af72c7bbec368,Πρίγκηπας,37.98361879198963,23.734433054924008,Souvlaki Shop
511,37.9838,23.734166666666667,50,3,4b672e56f964a520d43f2be3,Λέσβος,37.98463559758934,23.732987515232015,Ouzeri
512,37.9838,23.734166666666667,50,4,4ecb959549015d98b15a5996,Γιώργος-Μάνος,37.98563233065259,23.733401674493454,Souvlaki Shop
513,37.9838,23.734166666666667,50,5,4b572b39f964a520472928e3,Prodorpion (Προδόρπιον),37.981679,23.73437,Souvlaki Shop
514,37.9838,23.734166666666667,50,6,4be6a534d4f7c9b623ee2620,Hasan MareNostrum Cafe Bar,37.98425724185128,23.73395562171936,Bar
515,37.9838,23.734166666666667,50,7,4ee1eee99a521fcbef2412b5,Φειδίου 2,37.98251827715817,23.73221866529566,Other Nightlife
516,37.9838,23.734166666666667,50,8,4f8744c2e4b03a0f23775f1c,Όξο Νου,37.98568702132219,23.734979495131004,Cretan Restaurant
517,37.9838,23.734166666666667,50,9,53b6ebfb498e531e3f9caadb,Folia,37.98531302890842,23.7352021719462,Falafel Restaurant
518,37.9838,23.734166666666667,50,10,4bdafcb53904a5930b25489e,Salero,37.985616810778545,23.735528280573057,Tapas Restaurant
519,37.9838,23.734166666666667,50,11,5e2acf4b8b43450008813cdc,Palestina Meze Bar,37.98517051146692,23.73418092727661,Middle Eastern Restaurant
520,37.9838,23.734166666666667,50,12,51165be2e4b063143c5092e6,Μαγειρευτό,37.98354691318046,23.733837604522705,Magirio
521,37.9838,23.734166666666667,50,13,4b76eccdf964a520156b2ee3,Mystic Pizza & Pasta,37.98582718715141,23.73534246307423,Pizza Place
522,37.9838,23.734166666666667,50,14,5953f5b58173cb530e93ecf7,Metaxa2,37.984784,23.735726,Café
523,37.9838,23.734166666666667,50,15,4eee9c36d3e3246bdcad96db,Τζερεμές,37.98583856804867,23.73532514159256,Kafenio
524,37.9838,23.734166666666667,50,16,5b88569a6e4650002cc30fa6,Cookoomela Grill,37.98572861508066,23.733590841293335,Vegetarian / Vegan Restaurant
525,37.9838,23.734166666666667,50,17,56698798498e8979962251b4,Petra's,37.983546781058664,23.731354384642522,German Restaurant
526,37.9838,23.734166666666667,50,18,4e295d15ae60078b2fd42b23,Ο Ανδρέας,37.984533256972554,23.73161296366509,Ouzeri
527,37.9838,23.734166666666667,50,19,525ea312498e5b2de950120a,Ψηστο,37.985290460769434,23.7352277693087,Meze Restaurant
528,37.9838,23.734166666666667,50,20,4d9ed836925f236a88844144,Λειβαδια,37.98403503546351,23.734145135504008,Greek Restaurant
529,37.9838,23.734166666666667,50,21,50585645e4b0479164730a79,Ωραία Άρτα,37.984186765171344,23.731559303705563,Kafenio
530,37.9838,23.734166666666667,50,22,5aa146f867af3a7106e0d01c,Puttanesca,37.983986,23.731855,Italian Restaurant
531,37.9838,23.734166666666667,50,23,591f455db23dfa1ac17aaa77,Kumpirista,37.985737,23.7335,Turkish Restaurant
532,37.9838,23.734166666666667,50,24,57f7d571498e51817564ef15,Λεβάντα,37.984502,23.732909,Kurdish Restaurant
533,37.9838,23.734166666666667,50,25,52712354498efc7b6e5ff72f,Ο Επιστήμονας,37.98209,23.734249,Greek Restaurant
534,37.9838,23.734166666666667,50,26,56dc92d9498e43e53e028cb3,Utopian Garden,37.98452492550526,23.7355397362112,Meze Restaurant
535,37.9838,23.734166666666667,50,27,5135fa38e4b0c54b4a1ffe05,Μπερεκέτι,37.98498470175968,23.73563852028951,Tsipouro Restaurant
536,37.9838,23.734166666666667,50,28,509ef0fee4b0872dbd913002,καφενειο ναυαρινου,37.984179469237894,23.735353789661165,Kafenio
537,37.9838,23.734166666666667,50,29,4b891979f964a520a41c32e3,Kapari,37.98226035219983,23.73548743875056,Greek Restaurant
538,37.9838,23.734166666666667,50,30,5d6b91fdd3702c0008ab7d5d,"""Soyvlaki O Kabboyras""",37.985992,23.734205,Souvlaki Shop
539,37.9838,23.734166666666667,50,31,4fd3937ee4b06383cc56f867,Δούρειος Ίππος,37.98537488579673,23.733453644633315,Greek Restaurant
540,37.9838,23.734166666666667,50,32,5475c6e9498e5c0b571d5951,Λέσχη Σίτισης Εθνικής Τραπέζης Ελλάδος,37.982842,23.733554,Magirio
541,37.9838,23.734166666666667,50,33,5aaa75060457b76f6ac06ba3,Καφενείο Νικηταρά 3,37.984047,23.731426,Kafenio
542,37.9838,23.734166666666667,50,34,4edf73b36da10302877ab376,Tivoli,37.98438821874078,23.732698497418546,Greek Restaurant
543,37.9838,23.734166666666667,50,35,5ab25015db2aeb71226c4f73,Το Βοσποράκι,37.984059,23.731438,Greek Restaurant
544,37.9838,23.734166666666667,50,36,4c1b7027eac020a1dbca44c2,Κυματοθραύστης,37.98459549118245,23.736391067504883,Magirio
545,37.9838,23.734166666666667,50,37,518fee03498e9061f1de9f08,Η Ζούλα,37.98438520895463,23.73442136720029,Meze Restaurant
546,37.9838,23.734166666666667,50,38,4ee28186d3e3a823d605c620,Αγγελος,37.984169816893065,23.734557299838297,Greek Restaurant
547,37.9838,23.734166666666667,50,39,5268fc5e11d239ab930c3a2a,Πειρασμός Γεύσης,37.98517236454493,23.732343770856794,Greek Restaurant
548,37.9838,23.734166666666667,50,40,5101ab68e4b0854f85211e09,ver mondo,37.98293685913086,23.7337646484375,Greek Restaurant
549,37.9838,23.734166666666667,50,41,5297b3e411d2751d5c3931f8,Mpaxalaki,37.984458895486235,23.733680267790586,Greek Restaurant
550,37.9838,23.734166666666667,50,42,541357e3498e196e2fae231b,Lemoni grill house,37.98215139204333,23.735377032983468,Greek Restaurant
551,37.9838,23.734166666666667,50,43,4bd53041637ba593fb1df670,Καφενείο Πανελλήνιο,37.98306150561223,23.735644331117072,Kafenio
552,37.9838,23.734166666666667,50,44,4ed8e0645c5c96a2fc56f432,Mikraki,37.984838222942315,23.73490635550914,Greek Restaurant
553,37.9838,23.734166666666667,50,45,4cf780bd71538cfa0cbcbb2e,Καπετάν Μιχάλης,37.98262266894787,23.732138207112907,Ouzeri
554,37.9838,23.734166666666667,50,46,532394ca498e3d2de6cd404d,Αντέστε,37.98486257495289,23.734050772438717,Greek Restaurant
555,37.9838,23.734166666666667,50,47,4adcdadff964a520425821e3,Petrino Restaurant,37.984701039523884,23.73191957765157,Italian Restaurant
556,37.9838,23.734166666666667,50,48,5df0d833bb55300008433844,ελληνικό μαγειρείο,37.983185,23.736616,Modern Greek Restaurant
557,37.9838,23.734166666666667,50,49,4fa3e4bbe4b0fed480a21a20,Vassilikos,37.983454336461186,23.734604191973126,Greek Restaurant
558,37.986060929332396,23.73131736286373,50,0,536e786c11d2512548330ec9,Ατίταμος,37.9860577134869,23.732394425485168,Greek Restaurant
559,37.986060929332396,23.73131736286373,50,1,4ce68c85f3bda1433747ace4,Η Κρήτη,37.98535967502298,23.730943606116416,Cretan Restaurant
560,37.986060929332396,23.73131736286373,50,2,4efe05970e01089c53e3764a,Καραγκιόζης,37.98600059717795,23.73266215976166,Kafenio
561,37.986060929332396,23.73131736286373,50,3,4b672e56f964a520d43f2be3,Λέσβος,37.98463559758934,23.732987515232015,Ouzeri
562,37.986060929332396,23.73131736286373,50,4,4ecb959549015d98b15a5996,Γιώργος-Μάνος,37.98563233065259,23.733401674493454,Souvlaki Shop
563,37.986060929332396,23.73131736286373,50,5,4df4a6d218a88611c6c0c27e,Τράτα,37.98421877664627,23.730938845918306,Fish Taverna
564,37.986060929332396,23.73131736286373,50,6,5c1951ddd176e90025956b78,Γιουσουρούμ,37.986238,23.733323,Magirio
565,37.986060929332396,23.73131736286373,50,7,4ccd685ec9b84688a6e1c2c3,Livadeia (Λειβαδιά),37.9846291244914,23.730438839030057,Souvlaki Shop
566,37.986060929332396,23.73131736286373,50,8,4da7119804377705c305f310,Μπούκα,37.98671313991022,23.732228983007943,Magirio
567,37.986060929332396,23.73131736286373,50,9,4d9f75c2fc4f721eacc99f5f,Ναυάγιο Των Αγγέλων,37.98732187367729,23.730949161790647,Greek Restaurant
568,37.986060929332396,23.73131736286373,50,10,5b88569a6e4650002cc30fa6,Cookoomela Grill,37.98572861508066,23.733590841293335,Vegetarian / Vegan Restaurant
569,37.986060929332396,23.73131736286373,50,11,4f01a9c6a69d45461f39ae90,Ερωτόκριτος,37.984690753728174,23.730505633867608,Greek Restaurant
570,37.986060929332396,23.73131736286373,50,12,5dda7ae619f6a90008eb2c0f,Polis Stagidis Bakery,37.984904,23.73161,Bakery
571,37.986060929332396,23.73131736286373,50,13,4e295d15ae60078b2fd42b23,Ο Ανδρέας,37.984533256972554,23.73161296366509,Ouzeri
572,37.986060929332396,23.73131736286373,50,14,50585645e4b0479164730a79,Ωραία Άρτα,37.984186765171344,23.731559303705563,Kafenio
573,37.986060929332396,23.73131736286373,50,15,5102bbeee4b05ec84e357981,Η Στοά,37.98424423621729,23.73101379009037,Ouzeri
574,37.986060929332396,23.73131736286373,50,16,5aa146f867af3a7106e0d01c,Puttanesca,37.983986,23.731855,Italian Restaurant
575,37.986060929332396,23.73131736286373,50,17,591f455db23dfa1ac17aaa77,Kumpirista,37.985737,23.7335,Turkish Restaurant
576,37.986060929332396,23.73131736286373,50,18,57f7d571498e51817564ef15,Λεβάντα,37.984502,23.732909,Kurdish Restaurant
577,37.986060929332396,23.73131736286373,50,19,50360381e4b0584f7db5f928,Grand Dionisos,37.98464219833796,23.72962427980285,Souvlaki Shop
578,37.986060929332396,23.73131736286373,50,20,4e4f9939c65bb313ba87ae90,Joy's,37.98611225776861,23.72853183077933,Souvlaki Shop
579,37.986060929332396,23.73131736286373,50,21,4fd3937ee4b06383cc56f867,Δούρειος Ίππος,37.98537488579673,23.733453644633315,Greek Restaurant
580,37.986060929332396,23.73131736286373,50,22,50e43261e4b019f65aa6d9b7,Trata,37.98421,23.730906,Fish Taverna
581,37.986060929332396,23.73131736286373,50,23,5aaa75060457b76f6ac06ba3,Καφενείο Νικηταρά 3,37.984047,23.731426,Kafenio
582,37.986060929332396,23.73131736286373,50,24,4edf73b36da10302877ab376,Tivoli,37.98438821874078,23.732698497418546,Greek Restaurant
583,37.986060929332396,23.73131736286373,50,25,5ba690bf088158002c00803f,Wreck Of Angels,37.987305,23.731239,Greek Restaurant
584,37.986060929332396,23.73131736286373,50,26,5ab25015db2aeb71226c4f73,Το Βοσποράκι,37.984059,23.731438,Greek Restaurant
585,37.986060929332396,23.73131736286373,50,27,5cacb9b88194fc002cd2adcc,ο Μαχαλάς ‘εν ‘Εξαρχείω,37.986572,23.731892,Meze Restaurant
586,37.986060929332396,23.73131736286373,50,28,528dfb0811d2f60c92892f8b,Σπιτικη Γευση,37.987353934117905,23.72944414208576,Greek Restaurant
587,37.986060929332396,23.73131736286373,50,29,4ed91bff02d5244e2ee49f9f,Λεμόνι & Ρίγανη,37.984715174987244,23.731158353382906,Greek Restaurant
588,37.986060929332396,23.73131736286373,50,30,5f20028ae03d5e56ee3ba869,Αυθεντικό Ρωσικον Πιροσκι,37.985786,23.732231,Russian Restaurant
589,37.986060929332396,23.73131736286373,50,31,4f7d90a3e4b0bd0c0006a77f,Γορτυνία,37.98590686886701,23.73217525578825,Greek Restaurant
590,37.986060929332396,23.73131736286373,50,32,56d32485cd1031ad7af11e90,ο Κάβουρας,37.988113,23.730616,Souvlaki Shop
591,37.986060929332396,23.73131736286373,50,33,4ee9f6866c250521d178d168,Μαντί,37.985559,23.731866,Middle Eastern Restaurant
592,37.986060929332396,23.73131736286373,50,34,5268fc5e11d239ab930c3a2a,Πειρασμός Γεύσης,37.98517236454493,23.732343770856794,Greek Restaurant
593,37.986060929332396,23.73131736286373,50,35,59cfe572d4cc9807e34e0e9b,Curry Palace,37.985504,23.73188,Indian Restaurant
594,37.986060929332396,23.73131736286373,50,36,568e700f498edab9fa74a84d,Κεφτέπολις,37.984795,23.730479,Grilled Meat Restaurant
595,37.986060929332396,23.73131736286373,50,37,4e522a5aa809cef5beb3484e,Σάββας Πολίτικη Μπουγάτσα,37.98576762004586,23.73167433925202,Bougatsa Shop
596,37.986060929332396,23.73131736286373,50,38,51d40132498e712ddbf163d4,Σπιτικό Φαγητό,37.9839147640653,23.73064699601265,Magirio
597,37.986060929332396,23.73131736286373,50,39,4f29926be4b03a3767e0fe62,Σαλίγκαρος,37.98685055903064,23.731558842521743,Meze Restaurant
598,37.986060929332396,23.73131736286373,50,40,4f5e05fae4b085f52f97f3b1,Σ' Αναμμένα Κάρβουνα,37.98549184436904,23.729867935180664,Souvlaki Shop
599,37.986060929332396,23.73131736286373,50,41,4adcdadff964a520425821e3,Petrino Restaurant,37.984701039523884,23.73191957765157,Italian Restaurant
600,37.986060929332396,23.73131736286373,50,42,5b517e2d4aa3f8002c243deb,Athena,37.984719,23.73325,Greek Restaurant
601,37.986060929332396,23.73131736286373,50,43,508fd596e4b006ec3faf97c6,Το Κουκουτσι,37.985005103525616,23.732372825173574,Greek Restaurant
602,37.986060929332396,23.73131736286373,50,44,4e90c62cbe7b7962e9b03f92,Μποέμισσα,37.98647552629528,23.73335816258783,Other Nightlife
603,37.986060929332396,23.73131736286373,50,45,5683d825498e297e7923e7c4,Μεζεδοπωλείο Ανέστης,37.983944,23.730945,Kafenio
604,37.986060929332396,23.73131736286373,50,46,4e2d53d218a80bb0586d019a,Ουζερι Καφενες,37.98439058536241,23.73080970068359,Ouzeri
605,37.986060929332396,23.73131736286373,50,47,53ecfbbb498e4b1880677c1f,O ANAPEAZ,37.984547910023096,23.73167552113408,Fish Taverna
606,37.986060929332396,23.73131736286373,50,48,4d9b09d1335ab60c4a12f1f9,Ουδέν Σχόλιον,37.984426,23.732703,Greek Restaurant
607,37.986060929332396,23.73131736286373,50,49,5ef602a7a43b03000832605e,Mangal,37.986483,23.733835,Turkish Restaurant
608,37.98153907066761,23.73131736286373,14,0,4ee1eee99a521fcbef2412b5,Φειδίου 2,37.98251827715817,23.73221866529566,Other Nightlife
609,37.98153907066761,23.73131736286373,14,1,4fc7c585e4b0acb7c549bfb7,Στοά Πρωία,37.980595761656126,23.731786295900612,Comfort Food Restaurant
610,37.98153907066761,23.73131736286373,14,2,53709412498e297074cb2616,Wabi-Sabi,37.983671036966335,23.73117124295585,Asian Restaurant
611,37.98153907066761,23.73131736286373,14,3,5eee54701b8f000008e1a6c5,Muse Bistro,37.979815,23.729935,Mediterranean Restaurant
612,37.98153907066761,23.73131736286373,14,4,56698798498e8979962251b4,Petra's,37.983546781058664,23.731354384642522,German Restaurant
613,37.98153907066761,23.73131736286373,14,5,531b2836498e837f3f32eec5,Καλαμιές Ψητοπωλείο,37.98312521873368,23.72991467136204,Souvlaki Shop
614,37.98153907066761,23.73131736286373,14,6,53a039a1498ea14ee5d666f6,Omonoia (Ομόνοια),37.983613044916005,23.730368073604236,Greek Restaurant
615,37.98153907066761,23.73131736286373,14,7,4adcdadff964a520145821e3,Olive Garden,37.98301922907277,23.731031901750725,Mediterranean Restaurant
616,37.98153907066761,23.73131736286373,14,8,4adcdae0f964a520cc5821e3,Terrasse (La),37.98054223125457,23.732384446899847,Mediterranean Restaurant
617,37.98153907066761,23.73131736286373,14,9,5475c6e9498e5c0b571d5951,Λέσχη Σίτισης Εθνικής Τραπέζης Ελλάδος,37.982842,23.733554,Magirio
618,37.98153907066761,23.73131736286373,14,10,5a22a37f178a2a17a8c0e092,Οι Καλαμιές,37.98304,23.729841,Greek Restaurant
619,37.98153907066761,23.73131736286373,14,11,4cf780bd71538cfa0cbcbb2e,Καπετάν Μιχάλης,37.98262266894787,23.732138207112907,Ouzeri
620,37.98153907066761,23.73131736286373,14,12,5ce69fd7b3d8e2002c44e416,Μπαρμπαδήμος,37.980033,23.731289,Souvlaki Shop
621,37.98153907066761,23.73131736286373,14,13,50868401e4b056389946534d,Στοά Δειπνοσοφιστών,37.98277466915589,23.732111336265564,Greek Restaurant
622,37.986060929332396,23.737015970469603,43,0,4bf189db52bda5935faab1b7,Άμα Λάχει στης Νεφέλης,37.98791855550784,23.73682103210383,Meze Restaurant
623,37.986060929332396,23.737015970469603,43,1,4dea883bd164ef597cee179d,Γιάντες,37.98548737209639,23.73598268950343,Greek Restaurant
624,37.986060929332396,23.737015970469603,43,2,4c2ce9012219c928cee0a648,Ροζαλία,37.98606682124666,23.735177541122304,Taverna
625,37.986060929332396,23.737015970469603,43,3,5c75975ff62e09002c91e3ba,Aylak,37.986172,23.735868,Turkish Restaurant
626,37.986060929332396,23.737015970469603,43,4,5b920c93780eee0036f49575,Ama Lachei,37.988033,23.736977,Tapas Restaurant
627,37.986060929332396,23.737015970469603,43,5,4c3ca1387d002d7f60b3ae18,Εξωστρεφής,37.98776486070664,23.737994370995608,Meze Restaurant
628,37.986060929332396,23.737015970469603,43,6,4f8744c2e4b03a0f23775f1c,Όξο Νου,37.98568702132219,23.734979495131004,Cretan Restaurant
629,37.986060929332396,23.737015970469603,43,7,4c728d2ead69b60c91b783b9,Αχιλλέας Βεργίνα,37.98623020290625,23.735097878048258,Greek Restaurant
630,37.986060929332396,23.737015970469603,43,8,53b6ebfb498e531e3f9caadb,Folia,37.98531302890842,23.7352021719462,Falafel Restaurant
631,37.986060929332396,23.737015970469603,43,9,4bdafcb53904a5930b25489e,Salero,37.985616810778545,23.735528280573057,Tapas Restaurant
632,37.986060929332396,23.737015970469603,43,10,4c2fb041ed37a5934fbe6703,Ρακουμέλ,37.986013800627205,23.735585429790042,Greek Restaurant
633,37.986060929332396,23.737015970469603,43,11,4b76eccdf964a520156b2ee3,Mystic Pizza & Pasta,37.98582718715141,23.73534246307423,Pizza Place
634,37.986060929332396,23.737015970469603,43,12,5953f5b58173cb530e93ecf7,Metaxa2,37.984784,23.735726,Café
635,37.986060929332396,23.737015970469603,43,13,4eee9c36d3e3246bdcad96db,Τζερεμές,37.98583856804867,23.73532514159256,Kafenio
636,37.986060929332396,23.737015970469603,43,14,4b8ec80bf964a520c93633e3,Τα Άγραφα,37.985883206722406,23.735463670155312,Greek Restaurant
637,37.986060929332396,23.737015970469603,43,15,525ea312498e5b2de950120a,Ψηστο,37.985290460769434,23.7352277693087,Meze Restaurant
638,37.986060929332396,23.737015970469603,43,16,58b452d9a8b75911ad194ddc,To Steki tis Mirtws (Το Στέκι της Μυρτώς),37.98679238253253,23.735543489456177,Meze Restaurant
639,37.986060929332396,23.737015970469603,43,17,5ac565b1d41bb75361029f32,Ο Ξενομπάτης,37.98671,23.735455,Bar
640,37.986060929332396,23.737015970469603,43,18,56dc92d9498e43e53e028cb3,Utopian Garden,37.98452492550526,23.7355397362112,Meze Restaurant
641,37.986060929332396,23.737015970469603,43,19,5135fa38e4b0c54b4a1ffe05,Μπερεκέτι,37.98498470175968,23.73563852028951,Tsipouro Restaurant
642,37.986060929332396,23.737015970469603,43,20,5d6b91fdd3702c0008ab7d5d,"""Soyvlaki O Kabboyras""",37.985992,23.734205,Souvlaki Shop
643,37.986060929332396,23.737015970469603,43,21,51ae6aea501944acb341e276,Εξ Αρχής,37.98644627954615,23.734951670992277,Greek Restaurant
644,37.986060929332396,23.737015970469603,43,22,4c1b7027eac020a1dbca44c2,Κυματοθραύστης,37.98459549118245,23.736391067504883,Magirio
645,37.986060929332396,23.737015970469603,43,23,5d10bb8ca0b78300239bb84b,ΚΑΠΑ,37.987089,23.73499,Turkish Restaurant
646,37.986060929332396,23.737015970469603,43,24,4d70db3c95acb1f751bb0bb9,Αυλή,37.98642366886789,23.737627735608736,Greek Restaurant
647,37.986060929332396,23.737015970469603,43,25,4e95c5e2722ed789ed24589e,Η Γωνιά του Οδυσσέα,37.98622877728162,23.73585566834139,Greek Restaurant
648,37.986060929332396,23.737015970469603,43,26,5bd994212619ee002cc96d71,Σουβλάκι Ο Κάββουρας,37.98621,23.734592,Souvlaki Shop
649,37.986060929332396,23.737015970469603,43,27,4d0e252f3bbaa143741841da,Εφήμερον,37.98743948964238,23.73710865764205,Greek Restaurant
650,37.986060929332396,23.737015970469603,43,28,5148c1ede4b0070209233c43,"Παραδοσιακόν Καφενείον ""Το Κέντρον""",37.98689880295632,23.73452865106235,Kafenio
651,37.986060929332396,23.737015970469603,43,29,4d03d576dc45a0933893e6c6,Σάββας Κεμπάπ,37.986620293360495,23.73474946292529,Kebab Restaurant
652,37.986060929332396,23.737015970469603,43,30,4ed8e0645c5c96a2fc56f432,Mikraki,37.984838222942315,23.73490635550914,Greek Restaurant
653,37.986060929332396,23.737015970469603,43,31,4ec6cf3f02d5888e9b0feb5f,Σαρακήνικο,37.98678705671684,23.73554618259152,Greek Restaurant
654,37.986060929332396,23.737015970469603,43,32,5df97a654470a000084f8d7f,Το Καφενείο Στουρνάρη 4 10683 Εξάρχεια,37.986958,23.73476,Kafenio
655,37.986060929332396,23.737015970469603,43,33,5384f137498efc318a8df581,Ψηλορείτης,37.98667482693337,23.734877301330428,Greek Restaurant
656,37.986060929332396,23.737015970469603,43,34,5093b38a16486514c7331013,Εξωστρεφής Downstairs,37.98625129877024,23.73452561259881,Meze Restaurant
657,37.986060929332396,23.737015970469603,43,35,50b3f7cde4b0a5d718544bc9,Μεϊντάνι,37.98677726403553,23.7353797723782,Meze Restaurant
658,37.986060929332396,23.737015970469603,43,36,5149be6de4b07b89b10424db,Ο Τσέλιγκας,37.985234,23.736887,Greek Restaurant
659,37.986060929332396,23.737015970469603,43,37,5153fce9e4b0bc53e0cd38fe,Καφενείο,37.98673250147918,23.734900544673526,Kafenio
660,37.986060929332396,23.737015970469603,43,38,52fbd8b2498edc0794043c3d,Στα Ντουζένια,37.98673483487322,23.734935409686262,Greek Restaurant
661,37.986060929332396,23.737015970469603,43,39,5d06386a1c0b34002ccc25df,Afghani Café,37.986877,23.734983,Afghan Restaurant
662,37.986060929332396,23.737015970469603,43,40,58617d792eb979748a34945c,πιτα του κοντου,37.986488,23.735029,Souvlaki Shop
663,37.986060929332396,23.737015970469603,43,41,58242325bcf73e6c69ccd562,Yakomo,37.985546,23.738027,Noodle House
664,37.986060929332396,23.737015970469603,43,42,4d41730b89616dcb60e10eb5,Μπάρμπα-Γιάννης,37.98637714704772,23.73643451179909,Magirio
665,37.98153907066761,23.737015970469603,26,0,54dde828498e74285a63ff81,Nakama Casual Sushi Bar,37.98164026708985,23.73673809182364,Sushi Restaurant
666,37.98153907066761,23.737015970469603,26,1,51754ae6498ed2640eef2c6f,Καλό Ψημένο,37.98297637240901,23.735991848493605,Souvlaki Shop
667,37.98153907066761,23.737015970469603,26,2,58c2ac696ad73d0d9997b6cf,Κιουζίν,37.97956674622969,23.737833607176906,Greek Restaurant
668,37.98153907066761,23.737015970469603,26,3,4b572b39f964a520472928e3,Prodorpion (Προδόρπιον),37.981679,23.73437,Souvlaki Shop
669,37.98153907066761,23.737015970469603,26,4,5a3650ad2632ec03744a2b14,Frankie,37.98058323505787,23.737988371604494,Italian Restaurant
670,37.98153907066761,23.737015970469603,26,5,4c1d0b65b489b713a483a9c7,Υποβρύχιο,37.98356205365834,23.738024782018755,Cretan Restaurant
671,37.98153907066761,23.737015970469603,26,6,4b78a206f964a5201ddb2ee3,Σκουφά & Ομήρου,37.98056765107914,23.737969105604897,Grilled Meat Restaurant
672,37.98153907066761,23.737015970469603,26,7,52712354498efc7b6e5ff72f,Ο Επιστήμονας,37.98209,23.734249,Greek Restaurant
673,37.98153907066761,23.737015970469603,26,8,4b891979f964a520a41c32e3,Kapari,37.98226035219983,23.73548743875056,Greek Restaurant
674,37.98153907066761,23.737015970469603,26,9,50a0e574e4b0d459dd815a9e,Πάνω Κάτω,37.97958046163808,23.73760418889089,Greek Restaurant
675,37.98153907066761,23.737015970469603,26,10,5acf6e18f62f2b0471482efa,Γύρο Γύρω,37.981933,23.73657,Greek Restaurant
676,37.98153907066761,23.737015970469603,26,11,570ce784498e249c9f522a86,Hi-Φαϊ Grill House,37.98062570544156,23.737953443320016,Souvlaki Shop
677,37.98153907066761,23.737015970469603,26,12,5824241df2c98b32f00516eb,yuki,37.983311,23.738479,Noodle House
678,37.98153907066761,23.737015970469603,26,13,4edf49fd0e612072ea420960,Το Καποδιστριακο,37.98078869750988,23.735504871238014,Mediterranean Restaurant
679,37.98153907066761,23.737015970469603,26,14,4e2979af52b1c37d35cc3600,σίνα Κουζίνα,37.98219502815559,23.736669986586076,Greek Restaurant
680,37.98153907066761,23.737015970469603,26,15,5081aa7be4b00b2c3f8c351c,Καφενείον του Θείου,37.981388586210294,23.736207981089535,Kafenio
681,37.98153907066761,23.737015970469603,26,16,5c3b30d54b78c5002cc27821,Colonial Ambos Mundos,37.981318,23.737222,Cocktail Bar
682,37.98153907066761,23.737015970469603,26,17,541357e3498e196e2fae231b,Lemoni grill house,37.98215139204333,23.735377032983468,Greek Restaurant
683,37.98153907066761,23.737015970469603,26,18,52c81c42498e73da136a5315,The Grocery,37.980618544758116,23.737971768440854,Greek Restaurant
684,37.98153907066761,23.737015970469603,26,19,4bd53041637ba593fb1df670,Καφενείο Πανελλήνιο,37.98306150561223,23.735644331117072,Kafenio
685,37.98153907066761,23.737015970469603,26,20,4b2e4458f964a520bfdd24e3,Via Skoufa,37.981334,23.737304,Greek Restaurant
686,37.98153907066761,23.737015970469603,26,21,5df0d833bb55300008433844,ελληνικό μαγειρείο,37.983185,23.736616,Modern Greek Restaurant
687,37.98153907066761,23.737015970469603,26,22,56770da9498e3b0c1dc69069,Παραληγουσα,37.97976340848496,23.738166224293643,Greek Restaurant
688,37.98153907066761,23.737015970469603,26,23,519220ad498e04fbdf20a700,Γύρο-Γύρω Όλοι,37.98091870744679,23.736638606974306,Souvlaki Shop
689,37.98153907066761,23.737015970469603,26,24,5ab37fc65a2c912ca662b565,Fagaki,37.981008,23.736282,Magirio
690,37.98153907066761,23.737015970469603,26,25,4b017d5bf964a520d14222e3,Il Postino,37.98214463027151,23.736906402054014,Italian Restaurant
691,37.9838,23.76083333333333,17,0,4e33f652483b5fa58751b782,Παπασιδέρης,37.98427389152401,23.762717395082053,Magirio
692,37.9838,23.76083333333333,17,1,50a38272e4b068340f351df4,Αγρίνιο - Γωνιά του Μπάμπη,37.98350475786926,23.76188274178901,Grilled Meat Restaurant
693,37.9838,23.76083333333333,17,2,4d792e0dc1d56ea80d11dc2b,New York Sandwiches,37.98466758197052,23.76096099327053,Sandwich Place
694,37.9838,23.76083333333333,17,3,5308beed498e1b654465747f,La fontana,37.98412194168223,23.76143753528595,Italian Restaurant
695,37.9838,23.76083333333333,17,4,4e16e4da45ddc623eb0cef52,Η Γωνιά του Μπάμπη,37.983813,23.762463,Greek Restaurant
696,37.9838,23.76083333333333,17,5,4e8f387b550342b5a3bc0110,O Pavlos,37.98287945901575,23.762977759446084,Greek Restaurant
697,37.9838,23.76083333333333,17,6,4bc2156c2a89ef3b652ff388,Τα Σάλωνα,37.98409359451011,23.760880911029506,Fast Food Restaurant
698,37.9838,23.76083333333333,17,7,519bd130498e2c04492b811a,Ο Δάσκαλος,37.98438675944305,23.761774978895893,Greek Restaurant
699,37.9838,23.76083333333333,17,8,57fba445498e5fcfe5a6eef5,Athens Towers,37.984126,23.761717,Souvlaki Shop
700,37.9838,23.76083333333333,17,9,582c5d175cc1d71dc6bc98ed,Σπιτική Κουζίνα,37.983397,23.760568,Magirio
701,37.9838,23.76083333333333,17,10,5818ec1e38fa59db1956af19,Maha Raja,37.984229,23.761586,Indian Restaurant
702,37.9838,23.76083333333333,17,11,5825f594eaf46a4e3284bb10,Paprika,37.984551,23.761225,Souvlaki Shop
703,37.9838,23.76083333333333,17,12,5c5c7f00418686002c43bc47,Ονείρων Γεύσεις,37.98411,23.7614,Grilled Meat Restaurant
704,37.9838,23.76083333333333,17,13,5093ea87e4b08367d8e3301d,Αλατσι,37.9820722216047,23.761199735051996,Greek Restaurant
705,37.9838,23.76083333333333,17,14,4e60a68a52b1260c1252ed20,Το Σπιτικο,37.983064,23.7594234426986,Greek Restaurant
706,37.9838,23.76083333333333,17,15,5f6fa96fa5db1e718ad746c3,Ntelogo,37.984257,23.761433,Cretan Restaurant
707,37.9838,23.76083333333333,17,16,5f2178a0bf10571f8de8c5fb,Homu Sushi Bar,37.98451938521887,23.761257827281952,Sushi Restaurant
708,37.986060929332396,23.757984029530395,9,0,4b2394ebf964a520f05624e3,Αγορά,37.986999697751244,23.75749058755716,Mediterranean Restaurant
709,37.986060929332396,23.757984029530395,9,1,5d3060b8a08f700008cae022,Naan Stop,37.986908,23.759792,Indian Restaurant
710,37.986060929332396,23.757984029530395,9,2,560fe3df498ea5442d4d723e,Balalaika,37.98703084033719,23.760251998901364,Russian Restaurant
711,37.986060929332396,23.757984029530395,9,3,5359156c498e0d3527709684,big bad wolf Αμπελόκηπους,37.98698685351582,23.759700611777554,Souvlaki Shop
712,37.986060929332396,23.757984029530395,9,4,51d054d6498e45e35952de52,Η Κουζινα Της Μαμας,37.98688577729188,23.75950305257813,Greek Restaurant
713,37.986060929332396,23.757984029530395,9,5,52850db2498efdf82def9b8f,Σεφταλιώτικο,37.98690761561656,23.760258425587633,Souvlaki Shop
714,37.986060929332396,23.757984029530395,9,6,4cf820f13875b1f79bdf913c,Το Στεκι Της Ελενας,37.98581112147732,23.75525244809731,Greek Restaurant
715,37.986060929332396,23.757984029530395,9,7,586aa8776ad73d6891db005c,Παραδοσιακός Νερόμυλος,37.98760415025947,23.759595394003554,Souvlaki Shop
716,37.986060929332396,23.757984029530395,9,8,50dd9575498efa5d3fc3ee2c,Μανώλης,37.986765276599854,23.755691307642653,Greek Restaurant
717,37.98153907066761,23.757984029530395,13,0,4fd8c612e4b014487fce4afb,Ραβαΐσι,37.97958259727761,23.75750891009455,Souvlaki Shop
718,37.98153907066761,23.757984029530395,13,1,50aaba15e4b02adc85a8d242,Kalamaki μου,37.98309264914949,23.75643548849873,Souvlaki Shop
719,37.98153907066761,23.757984029530395,13,2,4ca86d68a6e08cfa83e68e94,Ταβέρνα Παπαγιάννη,37.98022227567731,23.758733716963484,Taverna
720,37.98153907066761,23.757984029530395,13,3,5533f0cd498e24c6ea16b84a,Κουβαρντάς,37.98058183383416,23.759555347667543,Grilled Meat Restaurant
721,37.98153907066761,23.757984029530395,13,4,4f93158ee4b0e8f46564fa1a,Το Μαγκάλι,37.98012469303998,23.758887132245498,Grilled Meat Restaurant
722,37.98153907066761,23.757984029530395,13,5,589d8ec6dad2637469d16932,Γουδι Και Καλαμάκι,37.980606,23.759863,Souvlaki Shop
723,37.98153907066761,23.757984029530395,13,6,5b06f3a2dee770002c749817,Bulacan Halo-Halo,37.981674,23.759626,Filipino Restaurant
724,37.98153907066761,23.757984029530395,13,7,4e846552dab42c0cf3426652,Μαρμίτα στη Χόβολη,37.983455220231384,23.756634852938,Magirio
725,37.98153907066761,23.757984029530395,13,8,4ffc8f65e4b0cb44d91aa658,Papayannos,37.9814110095655,23.759195092501827,Greek Restaurant
726,37.98153907066761,23.757984029530395,13,9,57123843498e5f7026026dd8,Ραβαΐτσι,37.980887,23.759253,Souvlaki Shop
727,37.98153907066761,23.757984029530395,13,10,5023a98cf31cdc243cc72036,"Καφενείο - Ουζερί ""Ο Πλάτανος""",37.98011356100264,23.757065534591675,Kafenio
728,37.98153907066761,23.757984029530395,13,11,4fae2e12e4b0e047b1e927e6,Loukoullos,37.98183136466925,23.75583076221125,Greek Restaurant
729,37.98153907066761,23.757984029530395,13,12,4e60a68a52b1260c1252ed20,Το Σπιτικο,37.983064,23.7594234426986,Greek Restaurant
730,37.986060929332396,23.763682637136267,14,0,4b4b1b50f964a520679226e3,TGI Fridays,37.986942,23.761057,American Restaurant
731,37.986060929332396,23.763682637136267,14,1,4e33f652483b5fa58751b782,Παπασιδέρης,37.98427389152401,23.762717395082053,Magirio
732,37.986060929332396,23.763682637136267,14,2,516550071648bd747b35ecd3,China Town,37.985889,23.76475,Chinese Restaurant
733,37.986060929332396,23.763682637136267,14,3,4d8b89951508a1439bff3d1e,Viet Au,37.987292,23.764265,Vietnamese Restaurant
734,37.986060929332396,23.763682637136267,14,4,4f6e4277e4b06003332754d4,Ταβέρνα «Η Κρήτη»,37.9841764440853,23.7641514846696,Cretan Restaurant
735,37.986060929332396,23.763682637136267,14,5,4cb073a1562d224bfd481688,Ψητοπωλειο Ο Ζαχαιος,37.98816392662549,23.763105869293213,Greek Restaurant
736,37.986060929332396,23.763682637136267,14,6,582494b4c0633a2cc032f177,Μπαρμπαστέλιος,37.985964,23.765393,Souvlaki Shop
737,37.986060929332396,23.763682637136267,14,7,540f7edb498ee911e5ff8a27,Μάνα μου Μαντζουράνα μου,37.98582258203725,23.764877798477077,Magirio
738,37.986060929332396,23.763682637136267,14,8,51f810c1498ebc392f1586c7,Ο Άγιος,37.985110458034285,23.763326390975404,Coffee Shop
739,37.986060929332396,23.763682637136267,14,9,5341a4ad498e73849a1cc949,Κέντρο διασκέδασης ΚΡΗΤΗ,37.98496765001617,23.763372875161853,Greek Restaurant
740,37.986060929332396,23.763682637136267,14,10,525042f211d280debdb0e239,Των Καλών Ανθρώπων,37.98583042858235,23.764500115424642,Greek Restaurant
741,37.986060929332396,23.763682637136267,14,11,4d0d31b23bbaa1431f463bda,Ο Κρητικός,37.984155,23.763874,Greek Restaurant
742,37.986060929332396,23.763682637136267,14,12,5477135c498e156b221e1651,Το Φαγάκι τής Γιαγιάς,37.98684480957273,23.765809535980225,Magirio
743,37.986060929332396,23.763682637136267,14,13,5342b3b5498e81db2e122ee1,Tabepna H Kphth,37.984356,23.764852,Greek Restaurant
744,37.98153907066761,23.763682637136267,29,0,50843f41e4b0e99d0c7f157f,Ζυθοπωλείο Λαϊκό,37.9821640900765,23.76478594776517,Beer Garden
745,37.98153907066761,23.763682637136267,29,1,4d5811b35ba05481e2690c46,Λαϊκό Μεζεδοκαφενείο,37.982286538945736,23.764457679406938,Meze Restaurant
746,37.98153907066761,23.763682637136267,29,2,55b51d60498e697ac07f9f4a,Τα Σαρδελάκια,37.982412323837345,23.765668026754582,Ouzeri
747,37.98153907066761,23.763682637136267,29,3,4e3855ffb0fbcceaf0ea200a,Noodle Bar,37.98023256775788,23.764555176250354,Asian Restaurant
748,37.98153907066761,23.763682637136267,29,4,53de979e498e293f688f818d,Το Κιούπι,37.982273659141846,23.765964202360124,Magirio
749,37.98153907066761,23.763682637136267,29,5,4f2595cde4b006e5c3522e43,Karagiannis,37.97961860350433,23.76465055709923,Greek Restaurant
750,37.98153907066761,23.763682637136267,29,6,503383a5e4b0a4a978aa3988,Μεδουσα - Ουζερι,37.982178,23.765523,Greek Restaurant
751,37.98153907066761,23.763682637136267,29,7,5d3361679e6fe00008a88e28,Το Κονάκι,37.981222,23.764791,Greek Restaurant
752,37.98153907066761,23.763682637136267,29,8,4d5132e780df88bf9437f697,L' Artigiano,37.98081888755954,23.766283939146383,Pizza Place
753,37.98153907066761,23.763682637136267,29,9,4e8f387b550342b5a3bc0110,O Pavlos,37.98287945901575,23.762977759446084,Greek Restaurant
754,37.98153907066761,23.763682637136267,29,10,4ef351a549010b41f688a72c,O Meksikanos,37.981239903547234,23.763564622387484,Mexican Restaurant
755,37.98153907066761,23.763682637136267,29,11,4ffb3353e4b02b9716e21e2e,China Wok Time,37.97960477658827,23.764633757151152,Asian Restaurant
756,37.98153907066761,23.763682637136267,29,12,4e0124f51f6ef39c294255cb,Prunas,37.98283509846926,23.76561409806325,Souvlaki Shop
757,37.98153907066761,23.763682637136267,29,13,4d5831b3de8f6dcb77e10891,Ο Παύλος,37.98274498540895,23.76493590352835,Greek Restaurant
758,37.98153907066761,23.763682637136267,29,14,4f21bad4e4b05183c937305a,Καραγιάννης,37.97965835633319,23.76310272721327,Grilled Meat Restaurant
759,37.98153907066761,23.763682637136267,29,15,55a6a1f7498e0331aa7b7011,Massa Buca,37.98192909865188,23.764500115424642,Souvlaki Shop
760,37.98153907066761,23.763682637136267,29,16,4f26af7ae4b0fd183a080aa8,Παραδοσιακό Καφενείο,37.98226808927776,23.76428512648893,Kafenio
761,37.98153907066761,23.763682637136267,29,17,51a12154498e3a83e1d5b579,Πινόκιο,37.98198739501703,23.76454659950728,Greek Restaurant
762,37.98153907066761,23.763682637136267,29,18,508afafce4b0f38c003ca31b,οι πιτες των γευσεων,37.97936188756865,23.76423864238316,Greek Restaurant
763,37.98153907066761,23.763682637136267,29,19,51e6e4f1498eebe26a5f456e,Διανθος,37.981892,23.764523,Greek Restaurant
764,37.98153907066761,23.763682637136267,29,20,4cf00bed8604a1cd9f8900c1,Pirouni & Koutali,37.981347849378785,23.765185755226586,Greek Restaurant
765,37.98153907066761,23.763682637136267,29,21,5482281c498eb267503346e0,Μπριζολάδικο Cold Beer,37.981073851906594,23.763407738298984,Grilled Meat Restaurant
766,37.98153907066761,23.763682637136267,29,22,5851a79f076be125b3c0ab52,Cookoo,37.980026,23.763874,Italian Restaurant
767,37.98153907066761,23.763682637136267,29,23,536b440b498ed3110a3c3d3f,Μ παραδοσιακό καφενείο,37.98238404453722,23.76490104050221,Kafenio
768,37.98153907066761,23.763682637136267,29,24,5093ea87e4b08367d8e3301d,Αλατσι,37.9820722216047,23.761199735051996,Greek Restaurant
769,37.98153907066761,23.763682637136267,29,25,53c29d27498e439f230b11e8,πράσινη γωνιά,37.982245125804916,23.76528453376838,Greek Restaurant
770,37.98153907066761,23.763682637136267,29,26,4e1e40211838e9f93a407096,Μεζεδοταβέρνα Μπάκας,37.979441,23.76408,Middle Eastern Restaurant
771,37.98153907066761,23.763682637136267,29,27,53625aaf498eabf410a5fc21,Pitta Diva,37.981086,23.763314,Burger Joint
772,37.98153907066761,23.763682637136267,29,28,4ff0a13ae4b0e34c237cdea6,Ο Νίκος,37.982157149479036,23.765585210726673,Souvlaki Shop
773,37.99380000000001,23.680833333333332,28,0,4c9fb464d3c2b60cc700d7bc,Η πίττα του παππού,37.99249825583981,23.681815816929294,Souvlaki Shop
774,37.99380000000001,23.680833333333332,28,1,517c3abb498e3d7050622f84,Αχλάδια Αυλή,37.99352645736622,23.681412657683634,Greek Restaurant
775,37.99380000000001,23.680833333333332,28,2,505cd908e4b0c67783147eb0,Ρακολέμονο,37.994671460605666,23.680922793518462,Meze Restaurant
776,37.99380000000001,23.680833333333332,28,3,51695c4ae4b044abfc53b970,Πίτα της Ισμήνης,37.992997661143264,23.678493649293486,Souvlaki Shop
777,37.99380000000001,23.680833333333332,28,4,4dcaf55dae60f205440507ce,Πολύγευστο,37.993047,23.678685,Greek Restaurant
778,37.99380000000001,23.680833333333332,28,5,52b051f711d2336ac1574e83,Οινομαγειρέματα,37.99378,23.681232,Meze Restaurant
779,37.99380000000001,23.680833333333332,28,6,4f1b2663e4b03543a104815b,Αποβραδο,37.995833792795814,23.681101135069458,Greek Restaurant
780,37.99380000000001,23.680833333333332,28,7,5b8a7b39838e59002cc4ac5f,Αυλή,37.991962,23.680729,Bar
781,37.99380000000001,23.680833333333332,28,8,56e5e948498e302d2a560b5a,#Food,37.99283,23.678295,Souvlaki Shop
782,37.99380000000001,23.680833333333332,28,9,51d718d4498e01520e68be2b,Μπουκιά & Συγχώριο,37.99436979191597,23.682333153660238,Souvlaki Shop
783,37.99380000000001,23.680833333333332,28,10,56e5d07a498e7b8a5ca780e8,#food,37.99280546040901,23.67841044330649,Souvlaki Shop
784,37.99380000000001,23.680833333333332,28,11,5e45888bb6556f00083ab7c9,The Big Bad Wolf,37.992935,23.678291,Souvlaki Shop
785,37.99380000000001,23.680833333333332,28,12,5068783de4b0e86559241aa7,το κουτουκι,37.993812561035156,23.681127548217773,Greek Restaurant
786,37.99380000000001,23.680833333333332,28,13,4f2305e0e4b03bdcfb579a4e,Καβάλα Το Καλάμι,37.99364904383259,23.679061324600852,Greek Restaurant
787,37.99380000000001,23.680833333333332,28,14,55bcd57d498e40dc86ce1625,Τσικνάκος Ouzeri,37.99312788594598,23.679857490845638,Ouzeri
788,37.99380000000001,23.680833333333332,28,15,535cfd47498ec326b3602092,Θάλασσα,37.993092,23.679809,Greek Restaurant
789,37.99380000000001,23.680833333333332,28,16,4c7eaa30d860b60c2a9c5e9d,Καστάνης Ταβέρνα 1937,37.995786,23.681589,Greek Restaurant
790,37.99380000000001,23.680833333333332,28,17,4e74aa6e1838f918897dbb36,Saltsa,37.99273493108253,23.67905061537063,Souvlaki Shop
791,37.99380000000001,23.680833333333332,28,18,53a0205b498ef21941b69085,πλούταρχος,37.99276095722186,23.678335138716072,Souvlaki Shop
792,37.99380000000001,23.680833333333332,28,19,59d3ec6fb8fd9d62a3e024a5,Real Grill by Farm Katerina,37.991828,23.679678,Greek Restaurant
793,37.99380000000001,23.680833333333332,28,20,5643bf67498eb98e59d72cac,Αίγα,37.99313506274527,23.683222297426607,Meze Restaurant
794,37.99380000000001,23.680833333333332,28,21,4e73a3cb52b145ffbfa9d160,Νέον Εμπορικόν,37.99303381924833,23.67974707369841,Tsipouro Restaurant
795,37.99380000000001,23.680833333333332,28,22,4f2c70bee4b00ef1a4152e8f,Mr. Souvlaki,37.99293267058012,23.678462746296244,Souvlaki Shop
796,37.99380000000001,23.680833333333332,28,23,4ea12f3729c2abc8de3f4a17,Το Σερραϊκόν,37.9922882208485,23.67881712348591,Bougatsa Shop
797,37.99380000000001,23.680833333333332,28,24,56e5d0be498e05377af10fa2,#Food,37.99285066942972,23.67842206619354,Souvlaki Shop
798,37.99380000000001,23.680833333333332,28,25,59a59545e185f3743a7a2ebe,Μπάρμπας,37.992541,23.679035,Souvlaki Shop
799,37.99380000000001,23.680833333333332,28,26,5700316b498ee4dc296e49f4,ΜΑΜΑΓΕΙΡΕΜΑΤΑ,37.99362194411697,23.681352138519287,Greek Restaurant
800,37.99380000000001,23.680833333333332,28,27,4d28d65d467d6ea8f023ca95,City Kebab,37.992903466540305,23.68251891093534,Kebab Restaurant
801,37.99153907066761,23.677983641129195,41,0,4c73fe913adda143835903af,Ρακαδημία,37.99176249565549,23.677169389870535,Meze Restaurant
802,37.99153907066761,23.677983641129195,41,1,52b32fc1498e89a0b42f2b86,ρεμεζέ,37.99143856465549,23.67694896346126,Meze Restaurant
803,37.99153907066761,23.677983641129195,41,2,524479d7498ecd280e74c4e2,Ρακί Αμάν Μεζέ,37.99215712991981,23.67738401723959,Meze Restaurant
804,37.99153907066761,23.677983641129195,41,3,545d3148498ed2afb80c2d99,δεκαράκι,37.99234441643783,23.677509183424707,Meze Restaurant
805,37.99153907066761,23.677983641129195,41,4,4da1a6a89935a093383da46f,Μεζέ Μεζέ,37.99139345686413,23.67966458583109,Meze Restaurant
806,37.99153907066761,23.677983641129195,41,5,54fdf267498ee80a339485a3,ΑιγαλεΡάκι,37.992070516634485,23.677320098754368,Meze Restaurant
807,37.99153907066761,23.677983641129195,41,6,51695c4ae4b044abfc53b970,Πίτα της Ισμήνης,37.992997661143264,23.678493649293486,Souvlaki Shop
808,37.99153907066761,23.677983641129195,41,7,5053744ae4b07ba3e5c38aa3,Ποινολόγιο,37.99199642625852,23.67727363341929,Meze Restaurant
809,37.99153907066761,23.677983641129195,41,8,566c9910498e14f3555d8482,Chalet De Crepes,37.99144294545278,23.676905277349224,American Restaurant
810,37.99153907066761,23.677983641129195,41,9,4dcaf55dae60f205440507ce,Πολύγευστο,37.993047,23.678685,Greek Restaurant
811,37.99153907066761,23.677983641129195,41,10,5293a39211d25aa98d7da649,Ο Χρηστος,37.98948811935593,23.678642901000483,Greek Restaurant
812,37.99153907066761,23.677983641129195,41,11,513e2a7ce4b0334db7dee1b3,Τρείς Οκάδες,37.99220861369901,23.67744877234765,Meze Restaurant
813,37.99153907066761,23.677983641129195,41,12,5b8a7b39838e59002cc4ac5f,Αυλή,37.991962,23.680729,Bar
814,37.99153907066761,23.677983641129195,41,13,5a9dac7147f8762a4f4bcb2d,Τσίπου&Ράκι,37.991623,23.677074,Meze Restaurant
815,37.99153907066761,23.677983641129195,41,14,56e5e948498e302d2a560b5a,#Food,37.99283,23.678295,Souvlaki Shop
816,37.99153907066761,23.677983641129195,41,15,562bd869498e02e8ad304199,μηλοποταμος,37.99106640318943,23.679718016550705,Souvlaki Shop
817,37.99153907066761,23.677983641129195,41,16,56e5d07a498e7b8a5ca780e8,#food,37.99280546040901,23.67841044330649,Souvlaki Shop
818,37.99153907066761,23.677983641129195,41,17,5e45888bb6556f00083ab7c9,The Big Bad Wolf,37.992935,23.678291,Souvlaki Shop
819,37.99153907066761,23.677983641129195,41,18,520bf9cd11d2a68e79321420,Πιπερίτσα,37.991980460675265,23.67738762828023,Greek Restaurant
820,37.99153907066761,23.677983641129195,41,19,524df34f8bbd82eeaea43df2,Βραστό-Πατσάς 24hr,37.9901087354293,23.677554130554196,Patsa Restaurant
821,37.99153907066761,23.677983641129195,41,20,54418bb1498ebf0ee71a519c,ρακομελιές,37.99192810058594,23.677364349365234,Greek Restaurant
822,37.99153907066761,23.677983641129195,41,21,55bcd57d498e40dc86ce1625,Τσικνάκος Ouzeri,37.99312788594598,23.679857490845638,Ouzeri
823,37.99153907066761,23.677983641129195,41,22,535cfd47498ec326b3602092,Θάλασσα,37.993092,23.679809,Greek Restaurant
824,37.99153907066761,23.677983641129195,41,23,4e1f3d451838e9f93a49cac1,Piperizza,37.99200408398224,23.677330625738538,Meze Restaurant
825,37.99153907066761,23.677983641129195,41,24,519d1608498e4bc77979aea2,Μπακάλα,37.99168906010753,23.677180166704325,Meze Restaurant
826,37.99153907066761,23.677983641129195,41,25,4e74aa6e1838f918897dbb36,Saltsa,37.99273493108253,23.67905061537063,Souvlaki Shop
827,37.99153907066761,23.677983641129195,41,26,53a0205b498ef21941b69085,πλούταρχος,37.99276095722186,23.678335138716072,Souvlaki Shop
828,37.99153907066761,23.677983641129195,41,27,59d3ec6fb8fd9d62a3e024a5,Real Grill by Farm Katerina,37.991828,23.679678,Greek Restaurant
829,37.99153907066761,23.677983641129195,41,28,59ab031586bc49021b2bf55d,Τουρλουμπούκι,37.991656,23.67718,Meze Restaurant
830,37.99153907066761,23.677983641129195,41,29,4e73a3cb52b145ffbfa9d160,Νέον Εμπορικόν,37.99303381924833,23.67974707369841,Tsipouro Restaurant
831,37.99153907066761,23.677983641129195,41,30,5547ba0c498e448ae247b071,Παντοποτείον,37.99099377720605,23.68002617208357,Tsipouro Restaurant
832,37.99153907066761,23.677983641129195,41,31,53bd9fca498e9c6bc93b89ae,Rakopolis (Ρακόπολις),37.99209409056364,23.67738116255351,Greek Restaurant
833,37.99153907066761,23.677983641129195,41,32,52cba85a498e1901d88f9b01,West Grill & Coffee Bar,37.992708662377105,23.678301055149998,Souvlaki Shop
834,37.99153907066761,23.677983641129195,41,33,4f2c70bee4b00ef1a4152e8f,Mr. Souvlaki,37.99293267058012,23.678462746296244,Souvlaki Shop
835,37.99153907066761,23.677983641129195,41,34,4f46c2eae4b0a69aba41682b,Γυρο bank,37.991944017631305,23.67803851079076,Souvlaki Shop
836,37.99153907066761,23.677983641129195,41,35,4ea12f3729c2abc8de3f4a17,Το Σερραϊκόν,37.9922882208485,23.67881712348591,Bougatsa Shop
837,37.99153907066761,23.677983641129195,41,36,56e5d0be498e05377af10fa2,#Food,37.99285066942972,23.67842206619354,Souvlaki Shop
838,37.99153907066761,23.677983641129195,41,37,4d3dda0d8edf370485ffbda5,Ο Χρήστος,37.99211444136924,23.67872318497236,Souvlaki Shop
839,37.99153907066761,23.677983641129195,41,38,4c41bb10e26920a1add95ee7,Καφενες Του Λαγού,37.99208712305572,23.678305837311985,Greek Restaurant
840,37.99153907066761,23.677983641129195,41,39,4f85d593e4b0da7774837358,Ρακοθεωρίες,37.991793743598016,23.677244441710833,Meze Restaurant
841,37.99153907066761,23.677983641129195,41,40,59a59545e185f3743a7a2ebe,Μπάρμπας,37.992541,23.679035,Souvlaki Shop
842,37.9960609293324,23.68368302553747,4,0,4f1b2663e4b03543a104815b,Αποβραδο,37.995833792795814,23.681101135069458,Greek Restaurant
843,37.9960609293324,23.68368302553747,4,1,51d718d4498e01520e68be2b,Μπουκιά & Συγχώριο,37.99436979191597,23.682333153660238,Souvlaki Shop
844,37.9960609293324,23.68368302553747,4,2,55abea68498ecb84ea54b716,Ψήσου,37.996760414176045,23.681728767528814,Souvlaki Shop
845,37.9960609293324,23.68368302553747,4,3,4c7eaa30d860b60c2a9c5e9d,Καστάνης Ταβέρνα 1937,37.995786,23.681589,Greek Restaurant
846,37.99153907066761,23.68368302553747,8,0,53359357498e41e27880cf8b,Πίτα Καλαμάκι,37.99069547986498,23.68202138895006,Souvlaki Shop
847,37.99153907066761,23.68368302553747,8,1,4c9fb464d3c2b60cc700d7bc,Η πίττα του παππού,37.99249825583981,23.681815816929294,Souvlaki Shop
848,37.99153907066761,23.68368302553747,8,2,519ff20c498e6dbb347ac31c,Το Λουκουμι,37.98991592037648,23.685331828804642,Greek Restaurant
849,37.99153907066761,23.68368302553747,8,3,4ef537e3c5123a724eec2fad,Εμπορικόν,37.99078893389205,23.681106946484427,Greek Restaurant
850,37.99153907066761,23.68368302553747,8,4,5643bf67498eb98e59d72cac,Αίγα,37.99313506274527,23.683222297426607,Meze Restaurant
851,37.99153907066761,23.68368302553747,8,5,4fc7711ce4b0d7c7652721c2,Πάνθεον,37.99109661085413,23.68217818761773,Souvlaki Shop
852,37.99153907066761,23.68368302553747,8,6,5b0da688031320003983d26b,Madwok,37.991105,23.682087,Asian Restaurant
853,37.99153907066761,23.68368302553747,8,7,4d28d65d467d6ea8f023ca95,City Kebab,37.992903466540305,23.68251891093534,Kebab Restaurant
854,37.99380000000001,23.76083333333333,12,0,541193f9498eba589d7abdfd,Πιάτσα Καλαμάκι,37.99275951135729,23.763020038604736,Souvlaki Shop
855,37.99380000000001,23.76083333333333,12,1,4bf825165317a5936c47ff7e,Το Κουτούκι Του 54,37.99209150756622,23.760779516117935,Meze Restaurant
856,37.99380000000001,23.76083333333333,12,2,4d30b590a241f04dde11b727,Στο Καπάκι Ρακοπωλείο,37.99431768902468,23.761479932463036,Tsipouro Restaurant
857,37.99380000000001,23.76083333333333,12,3,4f387b20e4b0a67fed63584c,Fu Liu,37.99490000649944,23.76198183409708,Asian Restaurant
858,37.99380000000001,23.76083333333333,12,4,5800052038fab67ef0a60fa9,Τρίκαλο,37.992207,23.762617,Greek Restaurant
859,37.99380000000001,23.76083333333333,12,5,4f1f1e80e4b00ee750344488,Apolaisi,37.992949754749475,23.759275674819946,Greek Restaurant
860,37.99380000000001,23.76083333333333,12,6,5e22cdb9daee0b0008456e21,"Ο,Τι Να Ναι Καφεζυθοπωλειον",37.994022,23.762825,Tsipouro Restaurant
861,37.99380000000001,23.76083333333333,12,7,58cd5739260327583b653533,Η Στάση,37.993258,23.763474,Souvlaki Shop
862,37.99380000000001,23.76083333333333,12,8,59e13b440c9f3132ca94e4c7,Στρογγυλοφάναρο,37.993313,23.761587,Taverna
863,37.99380000000001,23.76083333333333,12,9,4fda2cade4b0c5e9ba04168f,Red Elephant,37.99409979818835,23.762018497651443,Indian Restaurant
864,37.99380000000001,23.76083333333333,12,10,4dc840cfc65be1b8e34ee4bf,Ο Μιχάλης (Κουτρούλης),37.995075692887646,23.761472633720487,Taverna
865,37.99380000000001,23.76083333333333,12,11,4fc4da58e4b0d6790eb3a757,Φέντιας,37.99420167737773,23.762745338298128,Greek Restaurant
866,37.9960609293324,23.757983641129194,4,0,4f3ea742e4b065204aaabc29,"Ψητοπωλείο ""Ο Γιώργος""",37.99818401146673,23.75780304429878,Greek Restaurant
867,37.9960609293324,23.757983641129194,4,1,506212a7e4b0d4ca52a5b55e,Το Κονάκι,37.99763901207979,23.75716719995737,Grilled Meat Restaurant
868,37.9960609293324,23.757983641129194,4,2,516ee812498e3157b4b36bb9,"Souvlaki ""O Giorgos""",37.99784861079538,23.757056798706667,Souvlaki Shop
869,37.9960609293324,23.757983641129194,4,3,54257470498e72832b1d766d,Διονύσης παραδοσιακό τσιπουράδικο,37.9963493347168,23.75741958618164,Greek Restaurant
870,37.99153907066761,23.757983641129194,7,0,5298f8b1498ec023d33b18ee,Μυλόλιθος,37.98985476364591,23.758675103857875,Greek Restaurant
871,37.99153907066761,23.757983641129194,7,1,4f1f1e80e4b00ee750344488,Apolaisi,37.992949754749475,23.759275674819946,Greek Restaurant
872,37.99153907066761,23.757983641129194,7,2,51cae2ba498ea4c8a6628f8e,Καφενείο El Greco,37.991038798147144,23.75720206350542,Kafenio
873,37.99153907066761,23.757983641129194,7,3,5154acf2e4b05488ea38b58c,Λυχνείον,37.99039097344235,23.75991560258684,Greek Restaurant
874,37.99153907066761,23.757983641129194,7,4,5ee3e5597b270800081fae5b,η γεύση,37.990055,23.756367,Souvlaki Shop
875,37.99153907066761,23.757983641129194,7,5,5f28579f81231e5ecdac273e,Η Γεύση,37.98993962366689,23.756373524665833,Souvlaki Shop
876,37.99153907066761,23.757983641129194,7,6,4f6628c7e4b0272f2d9fc045,Καφενείο Τα Βαρδούσια,37.99006722428415,23.759950465953047,Kafenio
877,37.9960609293324,23.763683025537468,17,0,55412d02498e0900a57281cc,ρελαντί,37.994229741022295,23.764457015232555,Meze Restaurant
878,37.9960609293324,23.763683025537468,17,1,5d110cff96effb0023eac77b,25Αρακι,37.994465,23.763699,Tsipouro Restaurant
879,37.9960609293324,23.763683025537468,17,2,5a7e14af1fa7634a4cf1d8bc,Καφενές,37.996751,23.761365,Kafenio
880,37.9960609293324,23.763683025537468,17,3,514da81ae4b01b9f0ec08b09,Μοντέρνοι Καιροί,37.99423011908313,23.764617562512523,Meze Restaurant
881,37.9960609293324,23.763683025537468,17,4,4f387b20e4b0a67fed63584c,Fu Liu,37.99490000649944,23.76198183409708,Asian Restaurant
882,37.9960609293324,23.763683025537468,17,5,4cddab7d78ddf04d17ba9598,Maltagliati,37.995926135163124,23.76224378677405,Italian Restaurant
883,37.9960609293324,23.763683025537468,17,6,4f4112f4e4b0f960368a5446,Καφενείο του Ντίνου,37.996859,23.761313,Kafenio
884,37.9960609293324,23.763683025537468,17,7,5a735b9e345cbe59f8eb9231,Ψησταριά Γιώργος Κουτρούλης,37.995952,23.762189,Souvlaki Shop
885,37.9960609293324,23.763683025537468,17,8,4e0cb858a809a0a62eb36192,Spring Rolls,37.99742039555352,23.763562685544017,Chinese Restaurant
886,37.9960609293324,23.763683025537468,17,9,56437eda498ebd8c2c3dda25,Τα Καλύβια,37.994773,23.763671,Mediterranean Restaurant
887,37.9960609293324,23.763683025537468,17,10,5e22cdb9daee0b0008456e21,"Ο,Τι Να Ναι Καφεζυθοπωλειον",37.994022,23.762825,Tsipouro Restaurant
888,37.9960609293324,23.763683025537468,17,11,52ec1010498eee433dd29fe1,Γυροκομείο,37.99532897413642,23.764886982820645,Souvlaki Shop
889,37.9960609293324,23.763683025537468,17,12,4ccd56e7c0378cfaa2d78c48,Το Σκάλωμα,37.994663,23.765279,Greek Restaurant
890,37.9960609293324,23.763683025537468,17,13,4dc840cfc65be1b8e34ee4bf,Ο Μιχάλης (Κουτρούλης),37.995075692887646,23.761472633720487,Taverna
891,37.9960609293324,23.763683025537468,17,14,4dd2dc61fa7611af69e70b31,Ψησταριά Ο Νίκος,37.996827363966794,23.76317024230888,Greek Restaurant
892,37.9960609293324,23.763683025537468,17,15,4fc4da58e4b0d6790eb3a757,Φέντιας,37.99420167737773,23.762745338298128,Greek Restaurant
893,37.9960609293324,23.763683025537468,17,16,53ac6972498e8319710403fa,Έτσι και αλλιώς,37.99418,23.76452,Meze Restaurant
894,37.99153907066761,23.763683025537468,31,0,541193f9498eba589d7abdfd,Πιάτσα Καλαμάκι,37.99275951135729,23.763020038604736,Souvlaki Shop
895,37.99153907066761,23.763683025537468,31,1,5aed8859f427de002c1ee634,Peking duck,37.993177858811286,23.763739852080842,Chinese Restaurant
896,37.99153907066761,23.763683025537468,31,2,5c71aebb3fffb40025b7caa8,Λος Αμπελες,37.990997,23.7626,Greek Restaurant
897,37.99153907066761,23.763683025537468,31,3,54399b5d498ea44ee28e9545,Όπως Παλιά,37.991819620750846,23.763218126138963,Meze Restaurant
898,37.99153907066761,23.763683025537468,31,4,57d4530f498e047440cddc23,Τα Φιλαράκια,37.9918,23.7629,Souvlaki Shop
899,37.99153907066761,23.763683025537468,31,5,5800052038fab67ef0a60fa9,Τρίκαλο,37.992207,23.762617,Greek Restaurant
900,37.99153907066761,23.763683025537468,31,6,4b4a2102f964a5209c7b26e3,Ιστορίες Γεύσεων,37.993316313460966,23.76519124291608,Souvlaki Shop
901,37.99153907066761,23.763683025537468,31,7,4d4b124b6897a35d4e3e5547,Πολυστάφυλλο,37.99331,23.765407,Greek Restaurant
902,37.99153907066761,23.763683025537468,31,8,4e78d0c462e1b76aa3db82f5,Φιλαδέλφι,37.99306792409585,23.76549465910485,Meze Restaurant
903,37.99153907066761,23.763683025537468,31,9,4e95dc10775b163c4db25168,ΛΥΧΝΙΟΝ,37.99193696586934,23.764006221792627,Greek Restaurant
904,37.99153907066761,23.763683025537468,31,10,5a077371e1f22816d14d0963,ροδινος,37.992865,23.765268,Cretan Restaurant
905,37.99153907066761,23.763683025537468,31,11,5dfbe52438cb4100085fe050,Sakura Sushi,37.99271,23.765171,Sushi Restaurant
906,37.99153907066761,23.763683025537468,31,12,53133b3f498e5540de1528ee,Η Παράνγκα του Σωτήρη,37.9925951102837,23.765156604043774,Greek Restaurant
907,37.99153907066761,23.763683025537468,31,13,4f37206fe4b0f4cfde527c09,waffles,37.99264610013613,23.76488360898346,Taco Place
908,37.99153907066761,23.763683025537468,31,14,597f6c3079f6c77e87ea507e,Mezedofolia,37.992714,23.76606,Greek Restaurant
909,37.99153907066761,23.763683025537468,31,15,4f1f2d81e4b089ad64be5c20,Δούκισσα,37.992559537040705,23.765146577814853,Greek Restaurant
910,37.99153907066761,23.763683025537468,31,16,57d07aaf498e130c0dcf163a,"Souvlaki Bar ""Ta Filarakia""",37.991623,23.762878,Greek Restaurant
911,37.99153907066761,23.763683025537468,31,17,52e4381b498ec75b6c167006,To Mπακαλομαγαζο,37.993252668944216,23.76551065087618,Greek Restaurant
912,37.99153907066761,23.763683025537468,31,18,4e639835d4c06542ab705306,καφενείο(Ραγκαβή 60),37.9936815,23.7642337,Kafenio
913,37.99153907066761,23.763683025537468,31,19,51f3abfc498e155c314867a1,Mezedopoleio to Philadelphi,37.99305307216466,23.76573775272199,Meze Restaurant
914,37.99153907066761,23.763683025537468,31,20,539b78cb498eae48dd87ebb9,Το Μπακαλομάγαζο,37.993200800229175,23.765427338564393,Meze Restaurant
915,37.99153907066761,23.763683025537468,31,21,5e40184046e83a00081a7bcb,Family Indian Restaurant,37.992854,23.765282,Indian Restaurant
916,37.99153907066761,23.763683025537468,31,22,4d96541e0caaa143edf674b3,Αδιαχώρητο,37.99322593406501,23.765520572298758,Greek Restaurant
917,37.99153907066761,23.763683025537468,31,23,4e3842567d8b5e9544b178fe,Γύρο Γύρω,37.993331057392915,23.76465947718938,Souvlaki Shop
918,37.99153907066761,23.763683025537468,31,24,52d97a00498e567f0d93babd,Σουβλατζίδικο ο Θανάσης,37.99167392172025,23.766371096501967,Souvlaki Shop
919,37.99153907066761,23.763683025537468,31,25,58cd5739260327583b653533,Η Στάση,37.993258,23.763474,Souvlaki Shop
920,37.99153907066761,23.763683025537468,31,26,4dac95185da32d679da566f8,Polystafyllo,37.99285631844608,23.76552276429275,Greek Restaurant
921,37.99153907066761,23.763683025537468,31,27,4f186da7e4b0094a040e4827,Pasta με νου,37.991972458570466,23.764023947535918,Italian Restaurant
922,37.99153907066761,23.763683025537468,31,28,5a63470d18d43b05432e6e24,Indian Village,37.992964,23.765449,Indian Restaurant
923,37.99153907066761,23.763683025537468,31,29,5415d59c498ed5a1b578364d,Vismina (ex Vismag),37.991416931152344,23.76455307006836,Filipino Restaurant
924,37.99153907066761,23.763683025537468,31,30,556234eb498e8b9be561eb8e,Istories Geuseon,37.99320096199148,23.765075355657903,Greek Restaurant
925,38.0138,23.694166666666668,20,0,5acd14a39d6a195ad5eb0230,Terrazzini Trattoria,38.01424,23.696125,Italian Restaurant
926,38.0138,23.694166666666668,20,1,4f647793e4b075c713269a54,Σουβλάκι από Κούνια,38.01288381459873,23.694953823404568,Souvlaki Shop
927,38.0138,23.694166666666668,20,2,4fcfa8cce4b04a202efdd53a,Kalamaki Grill Bar,38.0124845622053,23.694217634308366,Souvlaki Shop
928,38.0138,23.694166666666668,20,3,5e0e0d182810f50008145a47,μαύρο αλάτι,38.011874,23.693241,Grilled Meat Restaurant
929,38.0138,23.694166666666668,20,4,5bba76bf835c9a002c5d5e60,Τρελο-Πατάτα,38.011597,23.694168,American Restaurant
930,38.0138,23.694166666666668,20,5,504cf516e4b03dcfed7e9284,H Pita Twn Meraklidwn,38.015539,23.692769,Souvlaki Shop
931,38.0138,23.694166666666668,20,6,5dec0869b2803800077e27fd,Shisan Sushi Bar,38.01172,23.693186,Sushi Restaurant
932,38.0138,23.694166666666668,20,7,514b49c0e4b0ac78b8887964,Πιάτσα Βεάκη,38.01171944385238,23.693902215467368,Souvlaki Shop
933,38.0138,23.694166666666668,20,8,52db1b75498eb628f3231dec,makaronadiko,38.0137220939905,23.69498442880183,Italian Restaurant
934,38.0138,23.694166666666668,20,9,55cd0b1c498e4eca28f379da,Σουβλάκι Fan,38.011808,23.694475,Souvlaki Shop
935,38.0138,23.694166666666668,20,10,5a9ab20e1b0ea56bb2705570,μεζεδοκαφενές ιορδάνης,38.012102,23.692409,Meze Restaurant
936,38.0138,23.694166666666668,20,11,4c37744b93db0f47efd01f92,Terrasini,38.0142159869233,23.696071134626187,Italian Restaurant
937,38.0138,23.694166666666668,20,12,5c040af62632ec002caf5a2b,Σαφράν,38.012726,23.694597,Ouzeri
938,38.0138,23.694166666666668,20,13,55428a10498e2f92a8b8fff5,Ψηνεσαι?,38.0116960200478,23.69401088766647,Souvlaki Shop
939,38.0138,23.694166666666668,20,14,4cd04e6d7f56a1439d46cda6,Γευσήτυπο,38.01250938184697,23.694623459595764,Souvlaki Shop
940,38.0138,23.694166666666668,20,15,55e596c0498ef4c738a010aa,Μπαμπανατσα,38.01536224070413,23.692675809284033,Magirio
941,38.0138,23.694166666666668,20,16,55f86a5e498e33376c7a76c2,Για Φαγάκι στου Χειράκη,38.01456541402922,23.694258019952397,Greek Restaurant
942,38.0138,23.694166666666668,20,17,560589a1498e1ae1f5f6bd72,King's Point,38.01163549636845,23.694507904706228,Burger Joint
943,38.0138,23.694166666666668,20,18,4fef660ae4b018055bd85295,Ρακουμέλ,38.01351615637867,23.692235692599763,Greek Restaurant
944,38.0138,23.694166666666668,20,19,4f2df2dae4b0118a86649d33,Μακαρονάδικο,38.01390020753046,23.694664809027785,Italian Restaurant
945,38.0160609293324,23.69131619708182,8,0,50bdd0b4e4b04e1cf4662c66,To Σερραϊκόν,38.01643256565284,23.691720117515533,Bougatsa Shop
946,38.0160609293324,23.69131619708182,8,1,504cf516e4b03dcfed7e9284,H Pita Twn Meraklidwn,38.015539,23.692769,Souvlaki Shop
947,38.0160609293324,23.69131619708182,8,2,550e038d498e5be935ccfb77,Σταθμός Καλαμάκι,38.01632047616436,23.691910259909193,Souvlaki Shop
948,38.0160609293324,23.69131619708182,8,3,539ee596498eae48dd9f4813,"Εστιατοριο ""ΘΩΜΑΣ""",38.016869,23.688657,Greek Restaurant
949,38.0160609293324,23.69131619708182,8,4,4fa52df4e4b0b487cdd1a64b,αδανων,38.017381714112844,23.690527168801903,Greek Restaurant
950,38.0160609293324,23.69131619708182,8,5,53c6bab7498e636c2dfb8306,ψητογωνια,38.015925,23.692613,Greek Restaurant
951,38.0160609293324,23.69131619708182,8,6,55e596c0498ef4c738a010aa,Μπαμπανατσα,38.01536224070413,23.692675809284033,Magirio
952,38.0160609293324,23.69131619708182,8,7,5734acda498e6fbf67b98ebb,Green Μάνη,38.017466,23.690972,Magirio
953,38.01153907066761,23.69131619708182,25,0,50a40d5be4b06e4d8e249f19,Αγροτικόν,38.01121130370707,23.68869278358303,Greek Restaurant
954,38.01153907066761,23.69131619708182,25,1,54f5fa8c498e223e6bba02f5,Πρωτοράκι,38.01165288187506,23.688959541705945,Tsipouro Restaurant
955,38.01153907066761,23.69131619708182,25,2,5584741f498e779d62597c63,Μακαρούνες,38.011621341372674,23.691075625754255,Italian Restaurant
956,38.01153907066761,23.69131619708182,25,3,4d923805b3273704b37f7d25,Rusticana,38.01187249765045,23.690460490154678,Italian Restaurant
957,38.01153907066761,23.69131619708182,25,4,5ca114cecabcff002cd1fb84,ρακί αμάν μεζέ,38.0115,23.689459,Greek Restaurant
958,38.01153907066761,23.69131619708182,25,5,55aae17e498e4067cd7e3860,ΒΕΑΚΗ 56,38.01166672349617,23.69247924887732,Souvlaki Shop
959,38.01153907066761,23.69131619708182,25,6,55f5bd97498e264106d9f1dd,Ο Φρατζήκος,38.01106935703836,23.69085841363102,Souvlaki Shop
960,38.01153907066761,23.69131619708182,25,7,5e0e0d182810f50008145a47,μαύρο αλάτι,38.011874,23.693241,Grilled Meat Restaurant
961,38.01153907066761,23.69131619708182,25,8,54f63896498e1b0a7972297d,Γιαγιά ΚούΚου,38.01155278270472,23.689186116211868,Tsipouro Restaurant
962,38.01153907066761,23.69131619708182,25,9,5bba76bf835c9a002c5d5e60,Τρελο-Πατάτα,38.011597,23.694168,American Restaurant
963,38.01153907066761,23.69131619708182,25,10,5dec0869b2803800077e27fd,Shisan Sushi Bar,38.01172,23.693186,Sushi Restaurant
964,38.01153907066761,23.69131619708182,25,11,529ca23911d2eed54c0814b8,Μακελάρης,38.011686119969774,23.693050030822555,Grilled Meat Restaurant
965,38.01153907066761,23.69131619708182,25,12,514b49c0e4b0ac78b8887964,Πιάτσα Βεάκη,38.01171944385238,23.693902215467368,Souvlaki Shop
966,38.01153907066761,23.69131619708182,25,13,5445614d498ec84e43443a2f,Λεμόνι grill house,38.01137683632246,23.692694784814186,Souvlaki Shop
967,38.01153907066761,23.69131619708182,25,14,5ac6622825ecca7ef662ea1b,στου Ιορδάνη,38.011986,23.692334,Modern Greek Restaurant
968,38.01153907066761,23.69131619708182,25,15,5a9ab20e1b0ea56bb2705570,μεζεδοκαφενές ιορδάνης,38.012102,23.692409,Meze Restaurant
969,38.01153907066761,23.69131619708182,25,16,5a2af622a795bd51f43535b1,Famiglia,38.011703,23.69242,Italian Restaurant
970,38.01153907066761,23.69131619708182,25,17,55428a10498e2f92a8b8fff5,Ψηνεσαι?,38.0116960200478,23.69401088766647,Souvlaki Shop
971,38.01153907066761,23.69131619708182,25,18,52971b47498e63e12919eb09,Wok Master X,38.01176892594099,23.69198005857398,Asian Restaurant
972,38.01153907066761,23.69131619708182,25,19,4fef660ae4b018055bd85295,Ρακουμέλ,38.01351615637867,23.692235692599763,Greek Restaurant
973,38.01153907066761,23.69131619708182,25,20,5c4330ebf427de002c5ec4fe,Κότταβος,38.012203,23.6913,Modern Greek Restaurant
974,38.01153907066761,23.69131619708182,25,21,522f5c5111d25b42d4dca1a1,Καφενείο Του Νάκου,38.01026,23.690452,Kafenio
975,38.01153907066761,23.69131619708182,25,22,5ed7d72048c5950008e630df,Μαντάμ Πελαζί,38.011314,23.6898,Modern Greek Restaurant
976,38.01153907066761,23.69131619708182,25,23,4f65eff8e4b0eae10bab1b97,Μπριζολόπιτες,38.01013916764996,23.692956292864267,Grilled Meat Restaurant
977,38.01153907066761,23.69131619708182,25,24,4e04f383ae600b41505c373a,Φράτζηκος,38.0117712140488,23.69061675528656,Grilled Meat Restaurant
978,38.0160609293324,23.697017136251514,7,0,5acd14a39d6a195ad5eb0230,Terrazzini Trattoria,38.01424,23.696125,Italian Restaurant
979,38.0160609293324,23.697017136251514,7,1,4f6c750ce4b058b4bfb2b072,ΑΠΟΛΑ,38.0169744299231,23.69510065412757,Greek Restaurant
980,38.0160609293324,23.697017136251514,7,2,50e584d9e4b0e73cf73115d7,Souvlaki Apola,38.01707802780407,23.69517620057596,Souvlaki Shop
981,38.0160609293324,23.697017136251514,7,3,50abebfae4b0e93b4c614c16,Καρδιτσιώτης,38.017738342285156,23.698766708374023,Greek Restaurant
982,38.0160609293324,23.697017136251514,7,4,529e3ec0498eab0e9c7a8414,Το Ρακαριό,38.017634,23.698799,Greek Restaurant
983,38.0160609293324,23.697017136251514,7,5,4c37744b93db0f47efd01f92,Terrasini,38.0142159869233,23.696071134626187,Italian Restaurant
984,38.0160609293324,23.697017136251514,7,6,4ef0c09793ad3fada17a561e,Το Στέκι Του Κώστα,38.01768627593098,23.698912831012986,Greek Restaurant
985,38.01153907066761,23.697017136251514,20,0,5f78ca3a76252136a531a98e,Tarantella,38.011701,23.695855,Italian Restaurant
986,38.01153907066761,23.697017136251514,20,1,56881e99498e20c1a364b2ee,YUZU Sushi Bar & More,38.01157698609076,23.6954305666158,Sushi Restaurant
987,38.01153907066761,23.697017136251514,20,2,5974e8d74b78c50ff3a00e7a,Peyote,38.012124,23.696662,Mexican Restaurant
988,38.01153907066761,23.697017136251514,20,3,4f647793e4b075c713269a54,Σουβλάκι από Κούνια,38.01288381459873,23.694953823404568,Souvlaki Shop
989,38.01153907066761,23.697017136251514,20,4,545623c2498e05a0fd5dae1b,Τα Πέριξ,38.012258856663216,23.698730992465816,Greek Restaurant
990,38.01153907066761,23.697017136251514,20,5,5bba76bf835c9a002c5d5e60,Τρελο-Πατάτα,38.011597,23.694168,American Restaurant
991,38.01153907066761,23.697017136251514,20,6,541e1827498e2b7ff8a1eda0,γευσητεχνιες,38.01172912192997,23.695513253833003,Meze Restaurant
992,38.01153907066761,23.697017136251514,20,7,544fab1a498e954e94e4ee0a,ταβερνα ο Ηλιας,38.012582,23.698144,Grilled Meat Restaurant
993,38.01153907066761,23.697017136251514,20,8,5779735f498e6337feefe535,Θρούμπι και θυμάρι,38.01155,23.696246,Greek Restaurant
994,38.01153907066761,23.697017136251514,20,9,55cd0b1c498e4eca28f379da,Σουβλάκι Fan,38.011808,23.694475,Souvlaki Shop
995,38.01153907066761,23.697017136251514,20,10,5c040af62632ec002caf5a2b,Σαφράν,38.012726,23.694597,Ouzeri
996,38.01153907066761,23.697017136251514,20,11,51d87f89498e99f458048357,Τα Πέριξ,38.01224209953756,23.698947429656982,Meze Restaurant
997,38.01153907066761,23.697017136251514,20,12,4cd04e6d7f56a1439d46cda6,Γευσήτυπο,38.01250938184697,23.694623459595764,Souvlaki Shop
998,38.01153907066761,23.697017136251514,20,13,519cf685498ea2711a15cd45,Απόσταγμα,38.01154018247877,23.6962629060164,Kafenio
999,38.01153907066761,23.697017136251514,20,14,52acf04111d2b13f668ad9cf,Άσπρο Πάτο,38.01166302193972,23.6955364988775,Greek Restaurant
1000,38.01153907066761,23.697017136251514,20,15,4efc610ba69dcb20b83325a2,Το παραδοσιακό,38.01102561792377,23.697372854246527,Greek Restaurant
1001,38.01153907066761,23.697017136251514,20,16,560589a1498e1ae1f5f6bd72,King's Point,38.01163549636845,23.694507904706228,Burger Joint
1002,38.01153907066761,23.697017136251514,20,17,5b054f92d0a149002c27fb7b,Ελιά,38.011614,23.695025,Greek Restaurant
1003,38.01153907066761,23.697017136251514,20,18,50976631e4b02645e0aa448f,Σταμάτης Πεινιρλι,38.01125554753637,23.698936075911796,Greek Restaurant
1004,38.01153907066761,23.697017136251514,20,19,50ddef02e4b0e421dbb9b325,Φαγητοδρομίες,38.01046803213619,23.69751813526039,Greek Restaurant
