,lat_centre,long_centre,num_venues,venue_iter,venue_id,venue_name,lat_venue,long_venue,category
0,47.31,8.392857142857142,4,0,4eff557e9a520dfd65e3277a,Restaurant Kellerämterhof,47.31318756957417,8.388671906138915,Swiss Restaurant
1,47.31,8.392857142857142,4,1,4dcadfda1838cc2cc63fefb9,Restaurant Central,47.311658324894545,8.390377319340677,Swiss Restaurant
2,47.31,8.392857142857142,4,2,5960f18cc9a5176d67a6c9cc,Gasthaus Zum Bauernhof,47.313283,8.392303,Swiss Restaurant
3,47.31,8.392857142857142,4,3,4eb5760df790d87d02bc1fbc,Restaurant Litzi,47.3066454,8.3902707,Swiss Restaurant
4,47.31,8.45,1,0,4f3d7838e4b0d8b9dad11887,Restaurant Frohsinn,47.310104,8.451105,Swiss Restaurant
5,47.31,8.507142857142858,1,0,4b645652f964a52092ab2ae3,Panorama-Restaurant Felsenegg,47.30868361242368,8.509946898636699,Swiss Restaurant
6,47.31,8.521428571428572,5,0,530a61ed498ea2a3a8774a4a,restaurant Riviera Enoteca con cucina,47.31373137598772,8.521980962256961,Italian Restaurant
7,47.31,8.521428571428572,5,1,50ccbb18e4b0956d32dc2421,Restaurant Piccolino,47.31045921362893,8.52561460344991,Italian Restaurant
8,47.31,8.521428571428572,5,2,4e0d9c7b22711665f60c23eb,Restaurant zur Au,47.312442274153035,8.526197196259382,Swiss Restaurant
9,47.31,8.521428571428572,5,3,4c2de8a2e116e21e9f4e8f60,Restaurant Rössli,47.30634048566642,8.525021782702726,Swiss Restaurant
10,47.31,8.521428571428572,5,4,5b701385c824ae002c72e6c8,Pizzeria Flora,47.312191,8.524421,Pizza Place
11,47.31,8.55,4,0,4ae762d7f964a520d7aa21e3,moosegg,47.306785719354984,8.549567822944756,Swiss Restaurant
12,47.31,8.55,4,1,4cb6df1656fca1cd00275918,Pizzeria Da Toni,47.309024769725234,8.554514186189634,Italian Restaurant
13,47.31,8.55,4,2,4c713285b5a5236ad84d5252,Canton Restaurant,47.30945706367493,8.556278944015503,Chinese Restaurant
14,47.31,8.55,4,3,519d1fcd498eecce9090df13,Da Toni Rüschlikon,47.309215,8.554616,Italian Restaurant
15,47.31,8.57857142857143,2,0,4cf1baa8d29b2d43f028f1bb,Zinnenlaufs Gaststube,47.31346066900411,8.581781387329102,Swiss Restaurant
16,47.31,8.57857142857143,2,1,5048eab4e4b0f7c26ecb2f51,Restaurant Gueggelisternen,47.311024800967786,8.583820584934449,Swiss Restaurant
17,47.31,8.592857142857143,3,0,4f182d174fc697fd6e29e22d,Restaurant GüggeliSternen,47.31047460299602,8.588218688964844,Swiss Restaurant
18,47.31,8.592857142857143,3,1,580b660538faf62194214c64,Miso Ramen,47.306206,8.590955,Noodle House
19,47.31,8.592857142857143,3,2,506de55be4b0c3dbe09503c3,Ristorante Sinfonia,47.30571675833087,8.591134162207798,Italian Restaurant
20,47.32,8.378571428571428,1,0,5276556a11d2b8a3cb440c96,Schindeli,47.32433783331355,8.37930679321289,Swiss Restaurant
21,47.32,8.521428571428572,6,0,5204c230498e69adfc75438c,Restaurant Tomate,47.31976503021332,8.521573086854309,Italian Restaurant
22,47.32,8.521428571428572,6,1,4c83ead5dc018cfa10b3dc6c,Zen China Restaurant,47.321677,8.5218,Chinese Restaurant
23,47.32,8.521428571428572,6,2,545caa36498e6517905ca65f,Restaurant Sodmatte,47.318654,8.524106,Swiss Restaurant
24,47.32,8.521428571428572,6,3,565c3109498e51f6e637fd4d,Bahnhof Treff,47.32030358679693,8.521332041923444,Doner Restaurant
25,47.32,8.521428571428572,6,4,5310762a498e8a789ebaa534,Linde,47.317364,8.524735,Austrian Restaurant
26,47.32,8.521428571428572,6,5,4e7b0e772271acb1fa9d8f9a,Ex Saigon,47.320364230208895,8.521430332019293,Vietnamese Restaurant
27,47.32,8.535714285714286,1,0,4bd9bc04e914a593cba557fa,Schlossgarten,47.317155,8.539795,Italian Restaurant
28,47.32,8.55,7,0,4e9601ef4901d620b781eb76,Restaurant Ochsen,47.32260661481841,8.548906278172348,Swiss Restaurant
29,47.32,8.55,7,1,4e1739211f6eb653a5ee11ca,Sushi Al Lago,47.31863186284928,8.548604825564864,Sushi Restaurant
30,47.32,8.55,7,2,5c82c570acc5f5002cda21e7,Masala Art,47.322639,8.549218,Indian Restaurant
31,47.32,8.55,7,3,52585e8811d2f03f5f3ea548,Trotte Kilchberg,47.32256636675602,8.550025734783638,Swiss Restaurant
32,47.32,8.55,7,4,4bced676fb84c9b62159243e,Dal Buongustaio,47.321692782243694,8.54511319033017,Italian Restaurant
33,47.32,8.55,7,5,4d18e20725cda1435b5f82d6,Don Leone,47.321299469727606,8.550619685700612,Italian Restaurant
34,47.32,8.55,7,6,4c1a65beb4e62d7f00bed793,Chez Fritz,47.31943605450729,8.553088971529794,Mediterranean Restaurant
35,47.32,8.57857142857143,8,0,4d454fc0bbb1a143e1f45072,Sun Room Romantik Seehotel Seestrasse 120,47.31665836086859,8.579514580452782,Swiss Restaurant
36,47.32,8.57857142857143,8,1,4cf1be1ad29b2d43e12cf1bb,Seerestaurant Steinburg,47.320454168085185,8.578519821166992,Swiss Restaurant
37,47.32,8.57857142857143,8,2,4b37861df964a520ce4125e3,Restaurant Schweizerhof,47.317948,8.579609,Swiss Restaurant
38,47.32,8.57857142857143,8,3,4c59ac6d04f9be9aede4ef60,Bahnhöfli,47.31895,8.58052,Italian Restaurant
39,47.32,8.57857142857143,8,4,4f4cbe02e4b088c4ad63bc75,ThaiAway,47.319390665023384,8.580086545103075,Asian Restaurant
40,47.32,8.57857142857143,8,5,4cd4715667c7236acf4b0d77,Restaurant Neuer Falken,47.317457,8.581981,Italian Restaurant
41,47.32,8.57857142857143,8,6,4cfb829e084f54814a8a8109,Gastube Weinberg,47.320222,8.584032,Swiss Restaurant
42,47.32,8.57857142857143,8,7,4b804d60f964a520fc6530e3,Chez Crettol,47.31786660538452,8.582612090596268,Swiss Restaurant
43,47.33,8.35,1,0,4c7d54395af8b60cfa438f10,Golden Dragon,47.330017306165715,8.348706812878646,Chinese Restaurant
44,47.33,8.507142857142858,1,0,51542b90e4b040df875a492e,Zum Hüsli,47.328443,8.5124,Restaurant
45,47.33,8.521428571428572,2,0,52768b2c498e0d29796bce60,Marrakesh,47.330881,8.515792,Moroccan Restaurant
46,47.33,8.521428571428572,2,1,5d1cdf3312f1720023488860,Trattoria da Maurizio,47.33078,8.51553,Italian Restaurant
47,47.33,8.55,1,0,4c03f49039d476b0bac830a7,Da Franco,47.32977210794622,8.54540392262769,Italian Restaurant
48,47.33,8.57857142857143,1,0,4e3a85f4d22d4aca878f4d0e,Blüemlisalp,47.326767,8.574786,Swiss Restaurant
49,47.33,8.607142857142858,1,0,4e0a32f1d164028d170c959b,Sushifusion,47.326983,8.603522,Sushi Restaurant
50,47.33,8.621428571428572,2,0,5025493ee4b0c6da265fbc3f,Gasthof Rössli,47.33097454077705,8.624578122103829,Swiss Restaurant
51,47.33,8.621428571428572,2,1,50b0c312e4b014937ac10340,Italia 2000 da Remo,47.3324061444142,8.62377056161826,Italian Restaurant
52,47.34,8.35,1,0,4db192dd93a061576857b7e1,Restaurant Emaus,47.34301,8.349897,Swiss Restaurant
53,47.34,8.392857142857142,1,0,4f15c0dfe4b0d3f8a9bc4673,Restaurant Hirschen,47.340704113070124,8.397399152126642,Swiss Restaurant
54,47.34,8.435714285714285,1,0,4d06128ee350b60c6f878b42,Restaurant Landhus,47.336573,8.437964,Swiss Restaurant
55,47.34,8.478571428571428,3,0,4bab5367f964a520b5a03ae3,China Restaurant Drei Linden,47.33736500792789,8.474871902865608,Chinese Restaurant
56,47.34,8.478571428571428,3,1,5301116d498e27cc28f3bef7,3 linde,47.337335,8.474865,Asian Restaurant
57,47.34,8.478571428571428,3,2,4f8b44ffe4b0089dea9fc6e9,Restaurant Burestübli,47.343415645827456,8.482330441474915,Swiss Restaurant
58,47.34,8.507142857142858,1,0,4ed11528cc219860f838ebfe,Bristestäffeli,47.336164,8.50693,Swiss Restaurant
59,47.34,8.535714285714286,4,0,4b58b087f964a520cf6528e3,Ziegel oh Lac,47.34365222695838,8.536765766523516,Swiss Restaurant
60,47.34,8.535714285714286,4,1,5753ef39498e9fd59a3bd26c,Wöschi,47.340526,8.538174,Swiss Restaurant
61,47.34,8.535714285714286,4,2,56efd009498e283a8ec17a01,Sweet & Sour,47.34004131402767,8.529996370510599,Thai Restaurant
62,47.34,8.535714285714286,4,3,52762b2311d2989ae1204539,Green Papaya,47.34060790659205,8.530398310213235,Asian Restaurant
63,47.34,8.55,1,0,4c7aad38a8683704a563144d,restaurant post rifferswil,47.341107,8.556112,Swiss Restaurant
64,47.34,8.57857142857143,3,0,4e2723a92271e4f3075edcb8,Gasthaus zum Rössli,47.33649596796404,8.574969668847098,Swiss Restaurant
65,47.34,8.57857142857143,3,1,5c1962a804d1ae002c8db79a,Trube Zollikon,47.337707,8.57549,Swiss Restaurant
66,47.34,8.57857142857143,3,2,4c87b93d32f2a143b031f027,Zollikerstube,47.33801592135322,8.575868548429682,Swiss Restaurant
67,47.34,8.621428571428572,2,0,506d38b0e4b0dd56360891c9,Frohe Aussicht Zumikon,47.33580374306812,8.619994336621177,Hotel
68,47.34,8.621428571428572,2,1,57f0f98f498ef61535f00210,Heimat 3,47.3360579553992,8.619922734797,Hungarian Restaurant
69,47.35,8.378571428571428,2,0,4b9f6df6f964a5201b2237e3,Restaurant Grüene Bode,47.350281,8.37228,Swiss Restaurant
70,47.35,8.378571428571428,2,1,51810258498eb5b487730699,Stalden,47.348914,8.377495,Swiss Restaurant
71,47.35,8.435714285714285,1,0,4e8cad4155037f60ca91e13b,Restaurant Sonne,47.35235535051474,8.437689064811366,Swiss Restaurant
72,47.35,8.464285714285714,1,0,4d557af958856dcb32984a6d,Landikerstübli,47.352041,8.461917,Swiss Restaurant
73,47.35,8.492857142857142,3,0,4d56c3b848ea6ea858b5e4a3,Bergrestaurant Uto Staffel,47.34774397500702,8.494530753211887,Swiss Restaurant
74,47.35,8.492857142857142,3,1,4bc87c62dc55eee17e7ee8ac,Restaurant UTO KULM,47.34954597063689,8.491234378082314,Swiss Restaurant
75,47.35,8.492857142857142,3,2,4d07b44aa26854818f19c8bd,Restaurant Gmüetliberg,47.35168195805494,8.487501147515438,Swiss Restaurant
76,47.35,8.521428571428572,4,0,4f422f17e4b0e5bc14341f8f,Fork & Bottle,47.35217238512102,8.524432483867583,American Restaurant
77,47.35,8.521428571428572,4,1,4ec515de49017fff08cf6425,Fun Fun,47.347621412634155,8.52123647776075,Mexican Restaurant
78,47.35,8.521428571428572,4,2,56d34cd7cd10af732c717e21,lolasally,47.352478,8.523978,Japanese Restaurant
79,47.35,8.521428571428572,4,3,5392e13f498e10da32cb06a8,magyar bolt zürich,47.35235967530465,8.524478617587285,Hungarian Restaurant
80,47.35,8.535714285714286,3,0,5b41ef9a25fb7b002c2bbbe9,Peking Garden,47.347432,8.533538,Chinese Restaurant
81,47.35,8.535714285714286,3,1,5399e3ab498e4bc6855acac7,"""D"" Summer Hub",47.347089613013104,8.535828150696448,Modern European Restaurant
82,47.35,8.535714285714286,3,2,4c716164fa49a1cd53ada8e3,Levante,47.35058993284277,8.535506758772497,Asian Restaurant
83,47.35,8.564285714285715,9,0,4b058888f964a520eecb22e3,Restaurant Bar Blaue Ente,47.351934,8.561145,Swiss Restaurant
84,47.35,8.564285714285715,9,1,54ee3086498e2cd9fcebf590,La Trattoria Blumenau,47.349053,8.563229,Italian Restaurant
85,47.35,8.564285714285715,9,2,4b60c5c6f964a52080f829e3,Restaurant Obere Flühgasse,47.35022424841906,8.567305092285011,Swiss Restaurant
86,47.35,8.564285714285715,9,3,4ce81c628ef78cfa9123989b,Restaurant Bar l'Ulivo,47.34892775437024,8.563051415287456,Italian Restaurant
87,47.35,8.564285714285715,9,4,4c2a17ab783d9c7496a48f6b,Hornegg,47.352859,8.559391,Swiss Restaurant
88,47.35,8.564285714285715,9,5,4cf5887d0a71224b03ef1893,Madlen's Schweinshaxe,47.348666,8.565768,German Restaurant
89,47.35,8.564285714285715,9,6,4b05888af964a5209ecc22e3,Riesbächli,47.35048831252795,8.561616357104578,French Restaurant
90,47.35,8.564285714285715,9,7,589dc5c237da1d07f2beed91,Serge,47.352723,8.560404,Italian Restaurant
91,47.35,8.564285714285715,9,8,50fecabfe4b0117442aa858c,Ristorante La Zagra,47.34886727352572,8.563157722798685,Italian Restaurant
92,47.35,8.57857142857143,4,0,4b3e4239f964a520439a25e3,Chässtube Rehalp,47.35305107408064,8.577507205930367,Swiss Restaurant
93,47.35,8.57857142857143,4,1,4fe24ff2e4b083930bbdc1a8,angel foods,47.35074755109247,8.583577569331167,Swiss Restaurant
94,47.35,8.57857142857143,4,2,5667fca4498e97b5867bf7d2,Restaurant Schulthess Klinik,47.3522399909895,8.57333472744629,Modern European Restaurant
95,47.35,8.57857142857143,4,3,4d389d51b5abb1f7258bdf98,Angelfood,47.349785,8.584861,Swiss Restaurant
96,47.35,8.592857142857143,2,0,4daec36c1e7207bbeb166d06,Restaurant Laterne,47.34628953423608,8.595192142485192,Thai Restaurant
97,47.35,8.592857142857143,2,1,58c6e07ad43907129def90ad,Yoku Spicy,47.346259,8.595126,Asian Restaurant
98,47.35,8.607142857142858,1,0,4e4a9d281520aec01446dc61,Trichtenhausermühle,47.35070138742144,8.602112531661987,Swiss Restaurant
99,47.35,8.65,2,0,5f124ed3fcc0346a34298177,Restaurant Crown of India,47.350346,8.643678,Indian Restaurant
100,47.35,8.65,2,1,4be1aeb7edbb0f478d4fa615,Zum Griech,47.35024653780117,8.643570785428421,Greek Restaurant
101,47.36,8.35,1,0,4f903a66e4b063d0a0e30fff,Restaurant Schwanen,47.35608423138065,8.350252521073704,Swiss Restaurant
102,47.36,8.364285714285714,2,0,4c79360e3badb1f7682a4e54,Stars & Stripes,47.362417118029924,8.367124031828144,American Restaurant
103,47.36,8.364285714285714,2,1,511b7513e4b0b0417a8c99f2,Berikon Treff,47.362342,8.367231,Turkish Restaurant
104,47.36,8.435714285714285,1,0,4dba8d99cda173a95d1af7e3,Restaurant Station,47.35700820479447,8.4374008,Swiss Restaurant
105,47.36,8.492857142857142,1,0,577cac91498e8fde53f079a8,Hide & Seek,47.362697,8.496106,Swiss Restaurant
106,47.36,8.507142857142858,3,0,529a5d47498e9a715247ab29,Berkegrill,47.36284989965655,8.502236606444862,German Restaurant
107,47.36,8.507142857142858,3,1,56102392498ec959c8ab3e5f,Kafi Sorglos,47.36003475978553,8.507095888678332,Café
108,47.36,8.507142857142858,3,2,5aedb0625455b2002cd26a9c,Restaurant La Piazza,47.3609,8.506855,Italian Restaurant
109,47.36,8.521428571428572,40,0,5380dd9a498eb7855e844792,kai sushi Lessing,47.360041821792954,8.52364577800537,Sushi Restaurant
110,47.36,8.521428571428572,40,1,4b310094f964a52003fe24e3,Vapiano,47.358452024827876,8.523066944959684,Italian Restaurant
111,47.36,8.521428571428572,40,2,4bf26fda9f9395213bb13098,Rüsterei,47.35842601284158,8.522955814719129,Swiss Restaurant
112,47.36,8.521428571428572,40,3,4bf65bc494b2a593ae4aadee,Restaurant Vietnam,47.36232343699173,8.51855575819335,Asian Restaurant
113,47.36,8.521428571428572,40,4,5b8257706fd626002cf15a0b,L’amant,47.359277,8.523019,French Restaurant
114,47.36,8.521428571428572,40,5,4b1e972af964a520311c24e3,Hong Kong Food Paradise,47.358470006221275,8.52322746263464,Chinese Restaurant
115,47.36,8.521428571428572,40,6,4dcce3bacc3f07eb1efee990,Restaurant Orangerie,47.35948010766192,8.52487384775036,French Restaurant
116,47.36,8.521428571428572,40,7,4bd9cf843f01c9b6573553a5,Weisses Rössli,47.361770192099634,8.52623623893753,Swiss Restaurant
117,47.36,8.521428571428572,40,8,504725bbe4b0b85009df35d8,Safran,47.36213893575214,8.526390452224524,Turkish Restaurant
118,47.36,8.521428571428572,40,9,58b5709f25911e188328563d,Zapote,47.36332737098303,8.51752290420333,Burrito Place
119,47.36,8.521428571428572,40,10,575c59ed498e50e8cd970ef0,Wirtschaft zur Au,47.360031132443396,8.522797879807005,Swiss Restaurant
120,47.36,8.521428571428572,40,11,4b7d25c7f964a52049b02fe3,Shinsen,47.36147897886797,8.521527181284448,Japanese Restaurant
121,47.36,8.521428571428572,40,12,4fe83603e4b0faa0b9f5e0af,Utoburg,47.36167901652797,8.517729012944063,Swiss Restaurant
122,47.36,8.521428571428572,40,13,50410a6ae4b0350e01ba58b5,Ploy Thai,47.36397707754648,8.520310060228992,Thai Restaurant
123,47.36,8.521428571428572,40,14,4ea932242c5b8d39ca111787,Zur Goldenen Sonne,47.360165,8.522518,Italian Restaurant
124,47.36,8.521428571428572,40,15,5cc49f16db2aeb002c41f3c1,黄鼠狼的家,47.364485,8.521578,Chinese Restaurant
125,47.36,8.521428571428572,40,16,5d61396f21ee67000860b7a8,Mirch & Masala - Pizza Wagner,47.36109,8.517398,Indian Restaurant
126,47.36,8.521428571428572,40,17,4bf6c2ab5ec320a1fbb485d3,Pizza Kebap Take-away 99,47.360346,8.52291,Eastern European Restaurant
127,47.36,8.521428571428572,40,18,50410e36e4b08d5b61b3201c,Zur Goldenen Rose,47.36005654155721,8.52284791526678,Italian Restaurant
128,47.36,8.521428571428572,40,19,5da44bcd74073b0008717861,sudel nuppe,47.358317,8.523187,Ramen Restaurant
129,47.36,8.521428571428572,40,20,5d8decfc7291000008e9b2ad,Les Saveurs De L’amant,47.359294,8.523051,French Restaurant
130,47.36,8.521428571428572,40,21,521646c1498ebe5484b1caa6,Kurry World,47.358501,8.523469,Indian Restaurant
131,47.36,8.521428571428572,40,22,5be2c8e1033693002cc438f5,Chez Nhan,47.361697,8.523492,Vietnamese Restaurant
132,47.36,8.521428571428572,40,23,51561661e4b00e20009621ff,Kervan,47.360964540723806,8.525959594908187,Turkish Restaurant
133,47.36,8.521428571428572,40,24,54f7742f498eec8dd683ee51,Rüsterei,47.36154082004385,8.525010936437466,Swiss Restaurant
134,47.36,8.521428571428572,40,25,4da58ba81e726e49695dfbf6,Swaad,47.35925617019587,8.516233563423157,Indian Restaurant
135,47.36,8.521428571428572,40,26,4be14694c1732d7fb8905b9a,Ristorante Al Fattore,47.36418728236195,8.520587567163748,Italian Restaurant
136,47.36,8.521428571428572,40,27,4d8ce32f788c5481764f14fd,Ciccio's Ristorante Bar Pizzeria,47.35854393025227,8.517537117004395,Italian Restaurant
137,47.36,8.521428571428572,40,28,5df7756ea5bc0c000b11181f,zenbu sushi,47.358335,8.523151,Sushi Restaurant
138,47.36,8.521428571428572,40,29,4ffea34ee4b042ae8a92e6da,Thai Restaurant Take Away,47.36356349441646,8.520373783751984,Thai Restaurant
139,47.36,8.521428571428572,40,30,4bbf044a30c99c7425805411,La Penisola  Paninoteca Pizzeria,47.3603497290837,8.516657266879674,Italian Restaurant
140,47.36,8.521428571428572,40,31,4c0f755d1281c9b6b08a1e1d,Rietberg,47.35934075888722,8.526811173193034,Swiss Restaurant
141,47.36,8.521428571428572,40,32,4b9bcfcff964a520182836e3,Lotus Garden,47.361759,8.526383,Asian Restaurant
142,47.36,8.521428571428572,40,33,52b5b8e211d2a173ca505a62,Osteria & Bar Leonardo,47.35811171659904,8.522559544850932,Trattoria/Osteria
143,47.36,8.521428571428572,40,34,5b996ce84a7aae00396831de,The Blue Room,47.359267,8.523112,French Restaurant
144,47.36,8.521428571428572,40,35,5cf50c8fa795bd002ca5e1c7,Da Michele,47.361946,8.516448,Italian Restaurant
145,47.36,8.521428571428572,40,36,4b556518f964a52042e327e3,Restaurant Vereinigung,47.36300582977962,8.522282091210586,Tapas Restaurant
146,47.36,8.521428571428572,40,37,4ec4fdb5b6340064ff429ca1,Datto,47.358653,8.523195,Sushi Restaurant
147,47.36,8.521428571428572,40,38,4c594cd1d3aee21ebac76755,Don Leone,47.36125720709889,8.526476484427297,Italian Restaurant
148,47.36,8.521428571428572,40,39,4b439110f964a5205ce325e3,Restaurant Bederhof,47.36239667110947,8.526788623102881,Swiss Restaurant
149,47.36,8.535714285714286,15,0,520e014811d2873c6317e341,La Mimosa Pizzaria,47.36355547379716,8.53396210592551,Italian Restaurant
150,47.36,8.535714285714286,15,1,4bc715e492b376b020014f3a,Gaucho,47.36280688943281,8.531385335212681,Argentinian Restaurant
151,47.36,8.535714285714286,15,2,4dad6baef7b1e810c12e8e01,Da Guido Sternen,47.359768897698196,8.53195857102044,Italian Restaurant
152,47.36,8.535714285714286,15,3,4e1d76cdaeb78c0dfeccff4d,Restaurant Mimosa,47.363488395351716,8.533927232375367,Italian Restaurant
153,47.36,8.535714285714286,15,4,4cb43ed6ef1b3704a8255700,The Sushi-House Satori,47.363539,8.533274,Sushi Restaurant
154,47.36,8.535714285714286,15,5,4b718fbbf964a520924d2de3,Ristorante Il Tartufo,47.360154612995395,8.533371755382358,Italian Restaurant
155,47.36,8.535714285714286,15,6,4bbb1e1453649c745daa49fb,L'Altro,47.360220039691285,8.534218317246284,Italian Restaurant
156,47.36,8.535714285714286,15,7,52e25f9c498e43c9afe362c8,Sousou,47.36367556108474,8.532307926800963,Middle Eastern Restaurant
157,47.36,8.535714285714286,15,8,5470e92b498e0e7f595e14c6,Isa's kitchenisa's kitchen,47.359132,8.534429,Asian Restaurant
158,47.36,8.535714285714286,15,9,4ed6282102d570286da9c0ed,Olive Garden,47.363287825417245,8.5322815028548,Kosher Restaurant
159,47.36,8.535714285714286,15,10,4b05888bf964a520c0cc22e3,The Spice Gourmet,47.36275,8.53152,Indian Restaurant
160,47.36,8.535714285714286,15,11,4eb26c578b815ab741d1e5db,Thai Bamboo 2,47.36362002054102,8.533395032388592,Thai Restaurant
161,47.36,8.535714285714286,15,12,56c45e8ccd10fa823fc92bb4,Bistro Amore,47.363669,8.532504,Italian Restaurant
162,47.36,8.535714285714286,15,13,5172e0f3e4b0199b34686374,Ristorante Tartufo,47.361693,8.532129,Italian Restaurant
163,47.36,8.535714285714286,15,14,51546378e4b00958a0cf56a8,restaurant belcanto,47.362152099609375,8.540783882141113,Swiss Restaurant
164,47.36,8.55,31,0,4b388f4af964a520a34e25e3,Yooji’s,47.35812434834689,8.554149675786405,Sushi Restaurant
165,47.36,8.55,31,1,4b647f62f964a52025b82ae3,Totò - Ristorante e Bar,47.35818667254611,8.553995105532112,Bar
166,47.36,8.55,31,2,4b05888bf964a520cacc22e3,Tiffins,47.36184067699258,8.550944544858249,Asian Restaurant
167,47.36,8.55,31,3,5e6ceed59a280c000863563d,La Muña,47.362738,8.547352,Peruvian Restaurant
168,47.36,8.55,31,4,4bb7934598c7ef3b9efe2f02,Ristorante Frascati,47.36088620218997,8.547788211342624,Italian Restaurant
169,47.36,8.55,31,5,4e4107216284809c9f3a235d,Thai Food Corner Seefeld,47.357358,8.553825,Thai Restaurant
170,47.36,8.55,31,6,4b05888bf964a520c7cc22e3,Ristorante Amalfi,47.36057351808884,8.550124256712762,Italian Restaurant
171,47.36,8.55,31,7,4babd950f964a520e8ce3ae3,Japan-Restaurant Bimi,47.363664606626415,8.54932458391669,Japanese Restaurant
172,47.36,8.55,31,8,4fcf9af2e4b01a254a734642,Höschgasse 33 Market,47.35818660894059,8.553498756394562,Coffee Shop
173,47.36,8.55,31,9,4b05888bf964a520c9cc22e3,Ginger,47.36191785283933,8.550836326181916,Japanese Restaurant
174,47.36,8.55,31,10,54fd6d83498e1cb9a364b4cf,Tandoori BBQ,47.359941389202675,8.552377248328453,Indian Restaurant
175,47.36,8.55,31,11,5b675764d69ed0002cab71c5,Belvue,47.358154,8.547813,Italian Restaurant
176,47.36,8.55,31,12,52f7de06498efd7a34ade1c6,La Cucina,47.358031,8.549123,Italian Restaurant
177,47.36,8.55,31,13,4b9f67cbf964a520b42037e3,Vipasa,47.36356415143928,8.549406400171453,Italian Restaurant
178,47.36,8.55,31,14,5502cab3498e81ee734a0b0c,Sazio,47.36350891974359,8.54942368121312,Italian Restaurant
179,47.36,8.55,31,15,4bc2fbd9f8219c74806fb510,Quaglinos,47.36412544620948,8.547436195067153,French Restaurant
180,47.36,8.55,31,16,520963bb11d210661a897da8,Zaughauskeller,47.362237,8.547582,Swiss Restaurant
181,47.36,8.55,31,17,511d2f0be4b0276aef219a3b,Reinarts art gallery/sushi bar,47.36299649132752,8.550787991019451,Sushi Restaurant
182,47.36,8.55,31,18,4d218a6486e154816af4c23a,Bistro Valentino,47.36005967775035,8.550644826868766,Italian Restaurant
183,47.36,8.55,31,19,4b058888f964a5201ccc22e3,Restaurant Bar Latino,47.361550746616466,8.549429214785098,Italian Restaurant
184,47.36,8.55,31,20,5ae40718b9b37b002c1810e4,Casa Teresa,47.361616,8.549602,Spanish Restaurant
185,47.36,8.55,31,21,4cb838c5a33bb1f73d1f7ffd,Ristorante Pizzeria Capri,47.359758493482175,8.551816033901158,Italian Restaurant
186,47.36,8.55,31,22,4be924f7a117b713227c81c8,Paninoteca Arcobaleno,47.357396008391966,8.553265551454514,Italian Restaurant
187,47.36,8.55,31,23,4bb5cd046edc76b09b08301c,Schürhof,47.36312333849569,8.546395295142936,Dim Sum Restaurant
188,47.36,8.55,31,24,4bf6cf4b4a67c9282a7322cf,Asian Moon,47.36304278640203,8.549530841903215,Chinese Restaurant
189,47.36,8.55,31,25,5d8c94d450a1070008268bfb,Itasia,47.361568,8.549495,Italian Restaurant
190,47.36,8.55,31,26,4cbc4e37d78f4688b259c773,Café Mühlebach,47.36404931929671,8.55163827009254,Café
191,47.36,8.55,31,27,4b05888af964a520adcc22e3,Blu Restaurant,47.361614375803875,8.551309423332475,Indian Restaurant
192,47.36,8.55,31,28,520caa8e11d2150841c9b45f,Hua Hin,47.357172,8.552835,Thai Restaurant
193,47.36,8.55,31,29,511a279be4b02a26a5dd017c,Thai,47.357287,8.553034,Thai Restaurant
194,47.36,8.55,31,30,4de76b4cd4c0086a950903fa,Miolino Pizzeria Ristorante,47.36071162924187,8.547681314048791,Italian Restaurant
195,47.36,8.564285714285715,11,0,4d125d0d1f95236a486c3d06,Wilder Mann,47.36034068620956,8.5667958255121,Swiss Restaurant
196,47.36,8.564285714285715,11,1,5900da0bc5b11c2a559cfa4c,Misoga,47.36136,8.560908,Korean Restaurant
197,47.36,8.564285714285715,11,2,4c16ff9374fb20a1780a5112,Chuchichäschtli,47.363361,8.568273,Swiss Restaurant
198,47.36,8.564285714285715,11,3,4d539f8b2f638cfa95be646a,Bistro Le Puy,47.359381899657336,8.568897106498303,French Restaurant
199,47.36,8.564285714285715,11,4,4bd09dd277b29c74261e8b82,Restaurant Neumünster,47.35977340097714,8.55827361019047,Swiss Restaurant
200,47.36,8.564285714285715,11,5,5749790a498e644b63fecd2e,Migros Reataurant,47.362206,8.560502,Swiss Restaurant
201,47.36,8.564285714285715,11,6,4c19110098f4a5939481fff5,Zum Wilden Mann,47.360985,8.565446,Spanish Restaurant
202,47.36,8.564285714285715,11,7,57497a84498ed6a74c158215,Migros Restaurant,47.362087,8.560584,Swiss Restaurant
203,47.36,8.564285714285715,11,8,4c6b93162d9976b016990c3a,"Marcellino, Pane e Vino",47.360202,8.565569,Mediterranean Restaurant
204,47.36,8.564285714285715,11,9,4b2f5bccf964a520eaea24e3,Restaurant Hirslanderhof,47.362321683556225,8.558698684632693,Swiss Restaurant
205,47.36,8.564285714285715,11,10,4cef9ec84cd4236ad076b363,Ristorante Antiquario,47.36067576347028,8.566549624022294,Italian Restaurant
206,47.36,8.57857142857143,1,0,4fbe8b46e4b00c059c75a130,Restaurant Degenrried,47.36048198887878,8.580441777898878,Arepa Restaurant
207,47.36,8.592857142857143,2,0,4bf6e3905ec320a14af785d3,Kormasutra,47.359264443932545,8.587416292693867,Indian Restaurant
208,47.36,8.592857142857143,2,1,5152d4f1e4b0c5b84cd709bf,Crown of India,47.35920062438643,8.59205854090565,Indian Restaurant
209,47.370000000000005,8.378571428571428,3,0,55d9d292498ed916780f32df,Restaurant Pöstli,47.36778049999834,8.379950523376465,Swiss Restaurant
210,47.370000000000005,8.378571428571428,3,1,56ed4b95498e3584c540cc1f,Mini Star,47.367885,8.380111,Doner Restaurant
211,47.370000000000005,8.378571428571428,3,2,56576fb2498e7593b13ce83f,Sweet Moon,47.368514,8.380152,Thai Restaurant
212,47.370000000000005,8.42142857142857,1,0,5113f95be4b0d3c10298bdbd,Old Town,47.37181658476047,8.416117485138814,Malay Restaurant
213,47.370000000000005,8.45,3,0,4c402ef5ff711b8dd0f70f05,Restaurant Dörfli,47.37044,8.453405,Swiss Restaurant
214,47.370000000000005,8.45,3,1,544d55e5498e767f7785e8ef,Giardino Verde,47.3663330078125,8.451346397399902,Modern European Restaurant
215,47.370000000000005,8.45,3,2,50a50e5fe4b0828c857ea3ef,Restaurant Frohsinn,47.370574951171875,8.452201843261719,Swiss Restaurant
216,47.370000000000005,8.464285714285714,1,0,5267c7d611d2862050d35173,Feldschlosschen,47.36617754591644,8.46588399312599,Swiss Restaurant
217,47.370000000000005,8.492857142857142,4,0,509d43bae4b0383a0d519852,Restaurant Oberes Triemli,47.366876,8.493248,Swiss Restaurant
218,47.370000000000005,8.492857142857142,4,1,4c0134c0cf3aa593a19dccb0,Grottino 83,47.37018527849014,8.492344511317935,Pizza Place
219,47.370000000000005,8.492857142857142,4,2,4c3edbdcca012d7fda0530be,Chinese,47.368820832331465,8.489326586580589,Asian Restaurant
220,47.370000000000005,8.492857142857142,4,3,4d0bcfedd8d78cfac3511fbe,Thai Market,47.368412,8.496456,Thai Restaurant
221,47.370000000000005,8.507142857142858,8,0,5cc9c7038c35dc002cba7552,Tamarind Hill Indisches Restaurant,47.368688,8.501678,Indian Restaurant
222,47.370000000000005,8.507142857142858,8,1,4b5ed784f964a5209d9a29e3,Shangrila Tibetan Restaurant,47.369823,8.510164,Asian Restaurant
223,47.370000000000005,8.507142857142858,8,2,4c7d2902d461a143643f7cf5,Meskerem,47.36930723807766,8.505697920928515,Ethiopian Restaurant
224,47.370000000000005,8.507142857142858,8,3,5241dbb511d2f9f64b61ed38,Payam Kiosk Imbiss,47.370069,8.512021,Middle Eastern Restaurant
225,47.370000000000005,8.507142857142858,8,4,560505bf498e6dd35c17bda9,Oase Gloria,47.36855352209023,8.502069716800518,Doner Restaurant
226,47.370000000000005,8.507142857142858,8,5,4e5a264218a8c20475151fc1,Santa Lucia Wiedikon,47.36997429692331,8.508422881010333,Italian Restaurant
227,47.370000000000005,8.507142857142858,8,6,4d446dc7c3e5f04da85f9a20,Don Pepe,47.369446,8.509304,Mediterranean Restaurant
228,47.370000000000005,8.507142857142858,8,7,5b2e4afc6f0aa2002c67a5e6,Burgers & Shakes,47.369132,8.500937,Burger Joint
229,47.370000000000005,8.521428571428572,50,0,5cc9d83a6a5950002c26ecc7,La Taquería,47.374388,8.522816,Taco Place
230,47.370000000000005,8.521428571428572,50,1,4b0f0075f964a520e95d23e3,Petit Saigon,47.37020153528725,8.52100198012903,Vietnamese Restaurant
231,47.370000000000005,8.521428571428572,50,2,58029d2a38fa51246825c48b,Ooki,47.3722774666315,8.518805943275494,Japanese Restaurant
232,47.370000000000005,8.521428571428572,50,3,4b5c712df964a520083029e3,Five Spice,47.37175244136885,8.521541106773128,Thai Restaurant
233,47.370000000000005,8.521428571428572,50,4,4c30d70366e40f47a31fc48b,Restaurant Falcone,47.37012477458556,8.519541128261208,Italian Restaurant
234,47.370000000000005,8.521428571428572,50,5,4c51d8842543a593f07e8f84,Chez Nhan,47.3699572473641,8.518591035386411,Vietnamese Restaurant
235,47.370000000000005,8.521428571428572,50,6,577d47bb498e3504cdacf9b6,Neela,47.372412710213816,8.524280190467834,Sri Lankan Restaurant
236,47.370000000000005,8.521428571428572,50,7,4b9c308cf964a520185336e3,Seebähnli,47.37363,8.519827,Middle Eastern Restaurant
237,47.370000000000005,8.521428571428572,50,8,4b05888af964a5209fcc22e3,La Côte,47.37166957826879,8.515998310720205,French Restaurant
238,47.370000000000005,8.521428571428572,50,9,4d543075bdbea1cda337e492,Restaurant Gran Sasso,47.36812803432419,8.524152206563654,Steakhouse
239,47.370000000000005,8.521428571428572,50,10,4b0a72d2f964a520202423e3,Famiglia Tremonte,47.36996434893866,8.52041870962691,Italian Restaurant
240,47.370000000000005,8.521428571428572,50,11,5d49a80f3a0ee20008802b0e,Oh My Greek,47.374239,8.521438,Greek Restaurant
241,47.370000000000005,8.521428571428572,50,12,5a5b6205dd70c540f798ec8b,Lola’s Peruvian Restaurant,47.368694,8.524303,Peruvian Restaurant
242,47.370000000000005,8.521428571428572,50,13,546205bc498eb8c4507fb431,ASIA TISCH,47.371454,8.525585,Indonesian Restaurant
243,47.370000000000005,8.521428571428572,50,14,4b55abddf964a52041eb27e3,Köchlistube,47.373235870302494,8.52374209395458,Swiss Restaurant
244,47.370000000000005,8.521428571428572,50,15,4d9d943f48b6224b58e5269f,Al Capone,47.367946,8.521475,Italian Restaurant
245,47.370000000000005,8.521428571428572,50,16,4b0e53b4f964a520d85623e3,Muniandy Vilas,47.3725849,8.5245104,Indian Restaurant
246,47.370000000000005,8.521428571428572,50,17,4bbeddab98f49521c8dbd163,eat.ch Office,47.372463,8.523223,Tech Startup
247,47.370000000000005,8.521428571428572,50,18,4c1d3518b4e62d7fd960dc93,Elisaburg,47.372212742957196,8.523480377999071,Italian Restaurant
248,47.370000000000005,8.521428571428572,50,19,5af0266c3731ee002c8f927d,KIN,47.374076573465295,8.5188527405262,Asian Restaurant
249,47.370000000000005,8.521428571428572,50,20,57036ab3498e147d9bc9da75,V.P. Catering und Co.,47.3730111,8.5243276,Miscellaneous Shop
250,47.370000000000005,8.521428571428572,50,21,4b6ab10bf964a5204fdc2be3,Napoli da Gerardo,47.36627825980558,8.521112850726825,Italian Restaurant
251,47.370000000000005,8.521428571428572,50,22,4df0a5db1838e429ae50e218,ogilvy cafeteria,47.370726,8.527453,Swiss Restaurant
252,47.370000000000005,8.521428571428572,50,23,51a74ab0498e50150d639bd1,charlie's take away,47.37150573730469,8.522974967956543,Malay Restaurant
253,47.370000000000005,8.521428571428572,50,24,5e419fdcbf4bc50008fc3838,Al Ventuno,47.368171,8.522106,Italian Restaurant
254,47.370000000000005,8.521428571428572,50,25,593d2e529ad60e0c07c82818,Maadan Bakery,47.369484,8.525496,Bakery
255,47.370000000000005,8.521428571428572,50,26,4c0cd7867189c9283301d6b6,HIN @ WEG Catering,47.3707398,8.52043393,French Restaurant
256,47.370000000000005,8.521428571428572,50,27,5bc9a766f1fdaf00398c2bdd,Roots Of Himalaya,47.373995,8.521897,Tibetan Restaurant
257,47.370000000000005,8.521428571428572,50,28,4b066ec1f964a520c8eb22e3,Desperado,47.369992973989426,8.5204868262907,Mexican Restaurant
258,47.370000000000005,8.521428571428572,50,29,5ccc9c2889e490002c55300b,Three Courses,47.370529,8.514902,Chinese Restaurant
259,47.370000000000005,8.521428571428572,50,30,4d7b913573ca548110874d7c,Lola's Restaurant,47.36870546657075,8.52471006246698,Latin American Restaurant
260,47.370000000000005,8.521428571428572,50,31,529dbe5611d218ae6990eaef,Bam Boo,47.37406410967051,8.522042268795609,Thai Restaurant
261,47.370000000000005,8.521428571428572,50,32,4e20905fd22d0a3f59eedc34,Morgenstern,47.369699,8.521885,Italian Restaurant
262,47.370000000000005,8.521428571428572,50,33,4b0f0045f964a520e35d23e3,Jacky's Wok,47.370845,8.520493179999999,Asian Restaurant
263,47.370000000000005,8.521428571428572,50,34,586def7614250b16ac209740,zurlinden 21 restaurant,47.3681747,8.5220974,Gastropub
264,47.370000000000005,8.521428571428572,50,35,4d8e50f1ca75b60cc99afca8,Ya Ke,47.373852,8.51822,Chinese Restaurant
265,47.370000000000005,8.521428571428572,50,36,50eea192e4b0e87d593a278d,Moléson,47.37277527199482,8.525939303212356,Swiss Restaurant
266,47.370000000000005,8.521428571428572,50,37,4edd03e26c2547bc65c2f447,Haldeguet,47.36950053196461,8.526453319555717,Swiss Restaurant
267,47.370000000000005,8.521428571428572,50,38,4bf3b62c6a31d13a8be3942e,V. P. Catering,47.373095,8.524241,Greek Restaurant
268,47.370000000000005,8.521428571428572,50,39,4ba7bb86f964a52024ae39e3,Hermannseck,47.37140023076635,8.524966680207836,Swiss Restaurant
269,47.370000000000005,8.521428571428572,50,40,5047258ae4b04d16cd29964c,Dr Döner vor dr Migros,47.37406956584182,8.522592336490149,Turkish Restaurant
270,47.370000000000005,8.521428571428572,50,41,5757f69c498e28a5b8782da7,ROMI - Republic of Mediterranean Ingredients,47.374358,8.521445,Mediterranean Restaurant
271,47.370000000000005,8.521428571428572,50,42,5658d082498eccbbdf342136,Jane's Fine Food,47.36739,8.520006,Australian Restaurant
272,47.370000000000005,8.521428571428572,50,43,5224b323498ef1c972a48333,Pyramids,47.37164115521414,8.525964368463667,Middle Eastern Restaurant
273,47.370000000000005,8.521428571428572,50,44,4efa108893ad7cf2ecb7353a,Restaurant-Bar Perry,47.371853,8.519703,Swiss Restaurant
274,47.370000000000005,8.521428571428572,50,45,5c40695933e118002c3bf770,The High Heel Gourmet Café,47.372994,8.518203,Asian Restaurant
275,47.370000000000005,8.521428571428572,50,46,55412d70498e6156450982dd,Sali e Tabacchi,47.372916,8.518242,Middle Eastern Restaurant
276,47.370000000000005,8.521428571428572,50,47,511fd1b5e4b00ebaf6e434bf,Bonesklinic Spelunke,47.36584562990686,8.519899798732256,Bar
277,47.370000000000005,8.521428571428572,50,48,5c96b3cf3b8307003976bc7f,Pasteria di Lenardo,47.37432269725112,8.52175422012806,Italian Restaurant
278,47.370000000000005,8.521428571428572,50,49,4b18f0cff964a520a3d623e3,Di Leonardo,47.37445517378998,8.52198783950134,Italian Restaurant
279,47.370000000000005,8.535714285714286,50,0,4b05888af964a520a2cc22e3,Hiltl,47.37317277157419,8.536831464418032,Vegetarian / Vegan Restaurant
280,47.370000000000005,8.535714285714286,50,1,4b05888af964a52097cc22e3,Zeughauskeller,47.37024970105742,8.539827505341151,Swiss Restaurant
281,47.370000000000005,8.535714285714286,50,2,5cbb77ac811045002c7c0cb2,Luigia,47.370517,8.535642,Italian Restaurant
282,47.370000000000005,8.535714285714286,50,3,4b5d8d51f964a5203b6129e3,Almodobar – Bar Lounge,47.366955,8.53331,Bar
283,47.370000000000005,8.535714285714286,50,4,54ec9821498e62d92798e1e8,Manuel's,47.37368234509027,8.535108156656813,Cuban Restaurant
284,47.370000000000005,8.535714285714286,50,5,4b0d7577f964a520c74823e3,Saigon,47.37301,8.5326799,Vietnamese Restaurant
285,47.370000000000005,8.535714285714286,50,6,4d56d56c96ed548117a21970,La Rôtisserie,47.37114479664185,8.541913032531738,French Restaurant
286,47.370000000000005,8.535714285714286,50,7,5e011a9b3953e10008a60483,Baur’s,47.367515,8.539139,Brasserie
287,47.370000000000005,8.535714285714286,50,8,4b081d40f964a520110423e3,Bindella,47.37061841205643,8.54060976074452,Italian Restaurant
288,47.370000000000005,8.535714285714286,50,9,4bb0ef7df964a520cb6b3ce3,Restaurant Reithalle,47.374415676822835,8.534619137858417,Swiss Restaurant
289,47.370000000000005,8.535714285714286,50,10,5ccafc627b4669002b8c5ced,Restaurant Le Cèdre - Maurice,47.372251,8.5357825,Middle Eastern Restaurant
290,47.370000000000005,8.535714285714286,50,11,5813795d38fa8e786f054d9e,Santa Lucia,47.37011065965041,8.539727657927921,Italian Restaurant
291,47.370000000000005,8.535714285714286,50,12,4b698ca4f964a520e0a62be3,Cantinetta Antinori,47.37226209962204,8.538558021454797,Italian Restaurant
292,47.370000000000005,8.535714285714286,50,13,52583960498ef4c0e293826d,Palavrion Grill,47.36728245,8.53620909,Swiss Restaurant
293,47.370000000000005,8.535714285714286,50,14,4bbb0667b35776b0837bcb01,Restaurant zum Kropf,47.37081690089162,8.540019842271699,Swiss Restaurant
294,47.370000000000005,8.535714285714286,50,15,5a8d4dc9b9a5a8062d8fb7be,Kaisin,47.371647,8.535838,Poke Place
295,47.370000000000005,8.535714285714286,50,16,58c1432f6ad73d45a1dfa765,Sushishop,47.373051822097445,8.534938080968297,Sushi Restaurant
296,47.370000000000005,8.535714285714286,50,17,5ac5185d535d6f0d68e91a94,Lucky Dumpling,47.37265,8.53383,Chinese Restaurant
297,47.370000000000005,8.535714285714286,50,18,5b78058ca0215b002cea49c6,La Chamaca,47.372833,8.538691,Taco Place
298,47.370000000000005,8.535714285714286,50,19,4e7db9be9adffb299198c4b0,Nippon Sushi Bar,47.37415195350545,8.536871433630834,Japanese Restaurant
299,47.370000000000005,8.535714285714286,50,20,51039f25e4b026986c9e7dde,Restaurant Pavillon,47.366799989274405,8.539757584873271,French Restaurant
300,47.370000000000005,8.535714285714286,50,21,4b5ae213f964a520afd828e3,Tao's,47.37134154485155,8.540016357262711,Lounge
301,47.370000000000005,8.535714285714286,50,22,4b05888af964a52095cc22e3,Zunfthaus zur Waag,47.370072949423935,8.540763137878576,Swiss Restaurant
302,47.370000000000005,8.535714285714286,50,23,4b61e987f964a520d92a2ae3,Il Golosone,47.37417196918283,8.536232084256406,Italian Restaurant
303,47.370000000000005,8.535714285714286,50,24,5ad64b9dff03066946ea448e,Ristorante Ornellaia,47.372509,8.537512,Italian Restaurant
304,47.370000000000005,8.535714285714286,50,25,4b0f0094f964a520ee5d23e3,Nagasui,47.37027664811603,8.533182303930586,Asian Restaurant
305,47.370000000000005,8.535714285714286,50,26,4e8c3c74be7b1b0656f0456d,Restaurant Münsterhöfli,47.370128,8.540775,Swiss Restaurant
306,47.370000000000005,8.535714285714286,50,27,5225c61011d27aba6b115dd6,Gloggenhof Restaurant,47.372632,8.536593,Swiss Restaurant
307,47.370000000000005,8.535714285714286,50,28,5ada2a1fc3658840594252c0,Klinger’s Restaurant,47.371597,8.539118,Italian Restaurant
308,47.370000000000005,8.535714285714286,50,29,4eb53969b8f786e275181f3d,Bar Basso,47.372721543407245,8.533578140622884,Italian Restaurant
309,47.370000000000005,8.535714285714286,50,30,5d0d2d336a3c90002314c9b7,Sushi Shin,47.37055,8.541366,Japanese Restaurant
310,47.370000000000005,8.535714285714286,50,31,4b856505f964a520085b31e3,Restaurant Bärengasse,47.370301,8.538797,Argentinian Restaurant
311,47.370000000000005,8.535714285714286,50,32,591df3880802d464815431b3,Negishi Sushi Bar,47.371517,8.535471,Sushi Restaurant
312,47.370000000000005,8.535714285714286,50,33,4b1aa046f964a520bbed23e3,Kaiser's Reblaube,47.371888821088056,8.540550034214053,Swiss Restaurant
313,47.370000000000005,8.535714285714286,50,34,4b98d959f964a520535235e3,vis-à-vis,47.3700148509311,8.536434902491466,French Restaurant
314,47.370000000000005,8.535714285714286,50,35,51a5cf60498e79ac7292c4ad,Restaurant Helvetia,47.373252,8.531758,Swiss Restaurant
315,47.370000000000005,8.535714285714286,50,36,5b1ab385a2c00b002c5d6a94,Edomae,47.370555,8.535848,Japanese Restaurant
316,47.370000000000005,8.535714285714286,50,37,5cac7f3fc58ed7002ce3e90c,Ristorante 33,47.366403,8.533147,Mediterranean Restaurant
317,47.370000000000005,8.535714285714286,50,38,4d6ab12d2ea9b1f7b221c828,Kaufleuten Restaurant,47.37145242132889,8.536194058911168,Swiss Restaurant
318,47.370000000000005,8.535714285714286,50,39,5364cf4c498e2cafa294e398,La Peppina @Jelmoli,47.3732,8.53729,Italian Restaurant
319,47.370000000000005,8.535714285714286,50,40,4fbf5e13e4b07afe94be916e,Sukhothai,47.37414078464275,8.536393122148867,Thai Restaurant
320,47.370000000000005,8.535714285714286,50,41,5a0ec84cc365885a827d55af,Q-Up Thai Take Away,47.369463,8.536837,Thai Restaurant
321,47.370000000000005,8.535714285714286,50,42,5b78051fd552c7002c29d7e4,Wesleys Kitchen,47.372848,8.538765,Asian Restaurant
322,47.370000000000005,8.535714285714286,50,43,52a72d82498efa07113d8047,Dal Nastro - Bar del Gusto,47.372746944889236,8.53391283530226,Italian Restaurant
323,47.370000000000005,8.535714285714286,50,44,4ceed84e3b03f04dece43bdc,Wirtstuben Munsterhof,47.37016860976834,8.540588576661111,Swiss Restaurant
324,47.370000000000005,8.535714285714286,50,45,5bcf4d4a2aff31002c8f9eea,Lasangeria,47.373539,8.535962,Italian Restaurant
325,47.370000000000005,8.535714285714286,50,46,4cb0a670ef1b370450ab3c00,Restaurant Lumière,47.3721515835169,8.540068379518491,French Restaurant
326,47.370000000000005,8.535714285714286,50,47,518ccd1c498e18ade9b4db9b,Greek Restaurant,47.37283146465217,8.53510180205334,Greek Restaurant
327,47.370000000000005,8.535714285714286,50,48,4dbaf1221e72b351ca8c577c,La Piazzetta,47.37104849230522,8.535765182800535,Italian Restaurant
328,47.370000000000005,8.535714285714286,50,49,4f33aaafe4b05255be6b9f3c,Selnau Wok,47.369891080488536,8.534171891018978,Asian Restaurant
329,47.370000000000005,8.55,50,0,4b05888af964a520b1cc22e3,Sternen Grill,47.367180613484344,8.545558053733552,Bratwurst Joint
330,47.370000000000005,8.55,50,1,4b5b5066f964a520ddf328e3,Ban Song Thai,47.369395,8.544136,Thai Restaurant
331,47.370000000000005,8.55,50,2,4d0a01055edd5481f657039b,Vapiano,47.36787474566576,8.546250863562062,Italian Restaurant
332,47.370000000000005,8.55,50,3,4b76fd01f964a520d9712ee3,Blockhus,47.368139555110744,8.544945408608335,Swiss Restaurant
333,47.370000000000005,8.55,50,4,4bb76f886edc76b0dd2b321c,Sento,47.37368643804205,8.55316466152899,Swiss Restaurant
334,47.370000000000005,8.55,50,5,4b058888f964a520e6cb22e3,Le Dézaley,47.370631,8.543796,Swiss Restaurant
335,47.370000000000005,8.55,50,6,4c60415490b2c9b6bf4d3c22,Bauernschänke,47.37249999590299,8.545155566214001,Swiss Restaurant
336,47.370000000000005,8.55,50,7,4b058888f964a5201fcc22e3,Terrasse,47.3677220351569,8.54428500472559,Lounge
337,47.370000000000005,8.55,50,8,4b464744f964a5204c1c26e3,Santa Lucia Corso,47.366249030705774,8.54654542238249,Italian Restaurant
338,47.370000000000005,8.55,50,9,4b058888f964a5201dcc22e3,Kronenhalle,47.36753701123322,8.545425330046786,Swiss Restaurant
339,47.370000000000005,8.55,50,10,5b7a951078782c002c100f2d,Re Place Iko Miki,47.370627,8.549584,Ramen Restaurant
340,47.370000000000005,8.55,50,11,4b72bb28f964a520e5852de3,Outback Lodge,47.36708785451795,8.54765234379381,Australian Restaurant
341,47.370000000000005,8.55,50,12,4b2bb708f964a5209eb924e3,Rosaly's Restaurant & Bar,47.367418,8.545874,Swiss Restaurant
342,47.370000000000005,8.55,50,13,4c6962518d22c928590ab745,Tschingg,47.36815085020812,8.545914360153459,Fast Food Restaurant
343,47.370000000000005,8.55,50,14,4b05888af964a5208ecc22e3,Bodega Española,47.371287729592666,8.544151889268985,Spanish Restaurant
344,47.370000000000005,8.55,50,15,4b8ba5ccf964a5209aa532e3,Restaurant Commercio,47.365958,8.548955,Italian Restaurant
345,47.370000000000005,8.55,50,16,4b93cb9cf964a520115234e3,Restaurant Cèdre-Bellevue,47.36869398,8.54435492,Mediterranean Restaurant
346,47.370000000000005,8.55,50,17,4b6c6353f964a520f0352ce3,Oepfelchammer,47.37241331895266,8.544600039764488,Swiss Restaurant
347,47.370000000000005,8.55,50,18,50543d72e4b0669212fb0606,Santa Lucia Teatro,47.370280683202765,8.548880741852718,Italian Restaurant
348,47.370000000000005,8.55,50,19,55d38832498e7ad230d1988f,soi thai,47.368331,8.547504,Pop-Up Shop
349,47.370000000000005,8.55,50,20,4d41ccf889616dcbacd512b5,Turm,47.37174847247058,8.544533259116559,Mexican Restaurant
350,47.370000000000005,8.55,50,21,4b9b8ba2f964a520590e36e3,Restaurant Karl der Grosse,47.36975882276213,8.544363279250108,Swiss Restaurant
351,47.370000000000005,8.55,50,22,4b4c5dfaf964a520a9b126e3,Restaurant Weisser Wind,47.36882888151929,8.54542015603415,Swiss Restaurant
352,47.370000000000005,8.55,50,23,4b058888f964a52018cc22e3,Wirtschaft Neumarkt,47.372711439656534,8.545639795288643,Swiss Restaurant
353,47.370000000000005,8.55,50,24,525d8613498e4af6b2089894,Il Gattopardo,47.369116,8.544416,Italian Restaurant
354,47.370000000000005,8.55,50,25,5a1415d83d4791347db1ccc7,Tatar Globus am Bellevue,47.366503,8.546491,Modern European Restaurant
355,47.370000000000005,8.55,50,26,4b3f8880f964a5208aa825e3,Mère Catherine,47.370784,8.543813,French Restaurant
356,47.370000000000005,8.55,50,27,5d9b118669e2f900089c574e,Ikoo + Miki,47.370272,8.545059,Ramen Restaurant
357,47.370000000000005,8.55,50,28,4bcde17f937ca593537cad92,Vorderer Sternen,47.36715241792492,8.545473536757399,Swiss Restaurant
358,47.370000000000005,8.55,50,29,4b4c6fb6f964a520f1b226e3,Restaurant Rosengarten,47.36962431833131,8.556131774143584,Swiss Restaurant
359,47.370000000000005,8.55,50,30,4f5f3ffde4b033732bd8d85a,Imbiss Kaffee,47.36952456100059,8.555669322546658,Swiss Restaurant
360,47.370000000000005,8.55,50,31,56938bb9498e1afb3a188a03,Restaurant Wolfbach,47.37027831095096,8.552126884460447,Spanish Restaurant
361,47.370000000000005,8.55,50,32,4c05464039d476b0a3a232a7,Magic Masala,47.368091,8.544883,Indian Restaurant
362,47.370000000000005,8.55,50,33,4b0bbf83f964a5205e3323e3,Pasta Romagna,47.3675910049139,8.554509636194252,Italian Restaurant
363,47.370000000000005,8.55,50,34,4fe0c02fe4b0503cb923a2eb,Sommernachtstraumgarten,47.372684,8.545701,Swiss Restaurant
364,47.370000000000005,8.55,50,35,4be067e8cb81c9b641c0658b,Ly's Asia Take Away,47.367142,8.547471,Asian Restaurant
365,47.370000000000005,8.55,50,36,4b89233bf964a520c31e32e3,noon,47.368691,8.545336,Middle Eastern Restaurant
366,47.370000000000005,8.55,50,37,4b6c5e9af964a52052342ce3,Sterne foifi,47.36733,8.545072,Swiss Restaurant
367,47.370000000000005,8.55,50,38,5a266177dd844204541aad16,Sternen Grill + Sternen Grill Restaurant im oberen Stock,47.367075,8.545086,Eastern European Restaurant
368,47.370000000000005,8.55,50,39,537ca460498e4d1d84f43617,lillys,47.367242,8.547231,Thai Restaurant
369,47.370000000000005,8.55,50,40,53c65cc7498ec39954d6b04b,Mishio,47.366806,8.54808,Asian Restaurant
370,47.370000000000005,8.55,50,41,577b8519498e28301905bd0a,SAIGON am Hechtplatz,47.368555,8.544506,Vietnamese Restaurant
371,47.370000000000005,8.55,50,42,4db08a380437a93f7f756fe7,Zum weissen Kreuz,47.369164986401934,8.544315222978932,Swiss Restaurant
372,47.370000000000005,8.55,50,43,5048f7fce4b052b0afdc9b57,Misoga (미소가),47.36905987365825,8.550210659305664,Korean Restaurant
373,47.370000000000005,8.55,50,44,5785e3c8498ef4b8f39c5cf5,mishjo,47.367504,8.547655,Japanese Restaurant
374,47.370000000000005,8.55,50,45,4bf41ce86a31d13a635d952e,Weisse Rose,47.367961,8.545508,Swiss Restaurant
375,47.370000000000005,8.55,50,46,4cba0244c7228cfa8f2e14ce,Restaurant Schlauch,47.371476939808566,8.544514614879326,Swiss Restaurant
376,47.370000000000005,8.55,50,47,4c7790a307818cfab3ccd4e3,Restaurant Oberhof,47.37350884931649,8.553450071114096,Swiss Restaurant
377,47.370000000000005,8.55,50,48,5726254e498ecb4250abba1f,Restaurant Quaglinos,47.368705,8.547521,French Restaurant
378,47.370000000000005,8.55,50,49,4b3a47b8f964a520aa6325e3,Yooji's,47.367172670897766,8.5464636524715,Sushi Restaurant
379,47.370000000000005,8.564285714285715,11,0,57233f5d498e259d16f4cfde,Luca 2,47.36664,8.561998,Italian Restaurant
380,47.370000000000005,8.564285714285715,11,1,4b05888af964a520b0cc22e3,Restaurant Sonnenberg,47.36732688167586,8.567648696152437,Swiss Restaurant
381,47.370000000000005,8.564285714285715,11,2,5e6a1d38c85666000858ae2f,Vivace,47.367876,8.560456,Italian Restaurant
382,47.370000000000005,8.564285714285715,11,3,4e14a56718388432510986a6,Spaghetteria da Oli,47.370505,8.559752,Italian Restaurant
383,47.370000000000005,8.564285714285715,11,4,50ae12dce4b0f706ce6ec057,Justus,47.367271453841184,8.560959287756278,Swiss Restaurant
384,47.370000000000005,8.564285714285715,11,5,52fca0f1498e8ba51f6a135f,FIFA Members Club,47.36745064288834,8.567792128307126,Modern European Restaurant
385,47.370000000000005,8.564285714285715,11,6,4b0f0172f964a520055e23e3,MARKT.GALERIE,47.367048,8.560559,Swiss Restaurant
386,47.370000000000005,8.564285714285715,11,7,4c6e512fa437224b1f832fb1,Okay italia,47.37205,8.562552,Italian Restaurant
387,47.370000000000005,8.564285714285715,11,8,4d7775f9fbbc224b75b50432,Ristorante Aroma,47.36554180287167,8.56371913968953,Italian Restaurant
388,47.370000000000005,8.564285714285715,11,9,4ddcd8187d8b3654d50914e4,King's Kurry - Little India Take-aways,47.36735962474437,8.560113385783662,Indian Restaurant
389,47.370000000000005,8.564285714285715,11,10,4c0947a3ffb8c9b647a36961,Restaurant Römerblick,47.36816801749702,8.56007271421891,Italian Restaurant
390,47.370000000000005,8.57857142857143,2,0,4d4d3e919aaab60ce1ee3529,Wirtschaft Degenried,47.36739497739939,8.579027236425036,Swiss Restaurant
391,47.370000000000005,8.57857142857143,2,1,57a3a3f8cd10a65d461da8a5,Salz,47.370556,8.572143,Swiss Restaurant
392,47.370000000000005,8.592857142857143,1,0,507fd337e4b0225db1cf908c,Rössli,47.36666578238739,8.590348350005854,Swiss Restaurant
393,47.370000000000005,8.635714285714286,2,0,4bf80aae5317a593da06ff7e,Gasthof Sternen,47.370672,8.639026,Swiss Restaurant
394,47.370000000000005,8.635714285714286,2,1,4cef99597db3224b97782d2e,Monis Selection,47.371181,8.64026,Italian Restaurant
395,47.38,8.364285714285714,2,0,4d52d61d9ffc236a037c31a7,Hotel Ryokan Hasenberg,47.378916,8.364904,Japanese Restaurant
396,47.38,8.364285714285714,2,1,4e398e8ad164102b03736c33,Usagiyama,47.37869212409864,8.364986015403208,Japanese Restaurant
397,47.38,8.378571428571428,2,0,4c5443c31b46c9b6e76d4cce,Herrenberg,47.38008284160267,8.380091915516266,Swiss Restaurant
398,47.38,8.378571428571428,2,1,4f9d6d95e4b0d2bd63b8403f,Gasthof Herrenberg,47.38009537168787,8.379954426070457,Swiss Restaurant
399,47.38,8.42142857142857,3,0,4ea06be7d3e3291fde53cbf4,Steinerhof Urdorf,47.38194574032764,8.42268081550924,Swiss Restaurant
400,47.38,8.42142857142857,3,1,4bd88f4151170f478ca533e4,Wirtschaft zur Sonne,47.381702868769345,8.422389387565714,Italian Restaurant
401,47.38,8.42142857142857,3,2,59214e271de76541b8a613be,Topzeugnisse GmbH,47.3824484,8.42486120000001,Hungarian Restaurant
402,47.38,8.478571428571428,2,0,531b6aac498ed46dec0a1bda,Sonne Libanon,47.3822381,8.4838755,Middle Eastern Restaurant
403,47.38,8.478571428571428,2,1,4fa408a9e4b017e937ea211c,Restaurant Untermoos,47.37805938720703,8.48274040222168,Italian Restaurant
404,47.38,8.492857142857142,10,0,580b86f438fa122cf8a4c9ff,Brasserie Freilager,47.379828,8.489425,Swiss Restaurant
405,47.38,8.492857142857142,10,1,5a2fbc2b67af3a6e8610857f,Chaba Thai Take Away,47.384313,8.493481,Thai Restaurant
406,47.38,8.492857142857142,10,2,4f22ed80e4b0dc27b7de1664,il Salento,47.37940154737205,8.49508333746763,Italian Restaurant
407,47.38,8.492857142857142,10,3,4cb0a9a5eb65b1f7661f6ecd,Ristorante Pizzeria Il Salento,47.37912281052399,8.495036269006532,Italian Restaurant
408,47.38,8.492857142857142,10,4,4fef4821e4b00e3bf89bc73a,Mangostan,47.37792329452855,8.498367248392253,Thai Restaurant
409,47.38,8.492857142857142,10,5,507fa891e4b04cfa39b4a2ba,Albischrättli,47.38193270261455,8.495925806497336,Bakery
410,47.38,8.492857142857142,10,6,503deb75e4b0957094d68e02,Cafe Italiano,47.377922,8.492645,Italian Restaurant
411,47.38,8.492857142857142,10,7,593ad1060457b735c92d3bf9,Shizuku,47.38302,8.493631,Japanese Restaurant
412,47.38,8.492857142857142,10,8,4c21fa2c502b9521c7e06d21,Nikos - Griechische Taverne,47.37772022702546,8.498300706790225,Taverna
413,47.38,8.492857142857142,10,9,5b07e76c840fc2002cf6e03a,Opened Trunk - Nishat - Indian food,47.383473,8.494096,Indian Restaurant
414,47.38,8.507142857142858,22,0,4b5d8084f964a520285f29e3,New Point,47.378358163243156,8.51008312195479,Mediterranean Restaurant
415,47.38,8.507142857142858,22,1,4d94d8bcca3f6ea80f3cd334,Hardhof Café & Restaurant,47.378125511065406,8.510777831286832,Swiss Restaurant
416,47.38,8.507142857142858,22,2,59667ee4c9a5170239507012,Shilla,47.38149502069184,8.502591848373411,Korean Restaurant
417,47.38,8.507142857142858,22,3,5522baa4498e957d83c7eaa7,Dehli House,47.377543391693976,8.512045396061112,Indian Restaurant
418,47.38,8.507142857142858,22,4,582462fc26d44f08f06b3e2f,Kaimug,47.377946,8.510974,Thai Restaurant
419,47.38,8.507142857142858,22,5,4c644b2d3590d13aebbce2bc,Pizzeria Forno al Leana,47.380568,8.504984,Italian Restaurant
420,47.38,8.507142857142858,22,6,4cd024f37b685481ceafbff8,Zipfeli Zunft,47.381485,8.50481,Swiss Restaurant
421,47.38,8.507142857142858,22,7,528fd00711d211bde7ec91fa,"Galant Plaza ""u Turka""",47.379134,8.511042,Turkish Restaurant
422,47.38,8.507142857142858,22,8,5944306bc21cb1546187ee4e,Grill Illyria,47.383219,8.506295,Mediterranean Restaurant
423,47.38,8.507142857142858,22,9,538b67c0498ef00115ea9106,Nestor,47.38070552361209,8.503956967540983,French Restaurant
424,47.38,8.507142857142858,22,10,4da3243c9aa4721ee5611d1a,Cevapdzinica Badenstrasse,47.380668,8.504785,Eastern European Restaurant
425,47.38,8.507142857142858,22,11,4bc20a97461576b0feb57c32,Fässli Bar,47.378003,8.510134,Swiss Restaurant
426,47.38,8.507142857142858,22,12,55329cb0498e4134d6c4db87,Ricco's Kosher Deli,47.377531,8.5119,Kosher Restaurant
427,47.38,8.507142857142858,22,13,4fc3a0a1e4b0f6b4eebe00c7,Relais des Arts,47.380315,8.50668,German Restaurant
428,47.38,8.507142857142858,22,14,4d9bff5a4fdab60c8c1657f2,Letzi Liu Restaurant,47.38014388307787,8.506560431029788,Swiss Restaurant
429,47.38,8.507142857142858,22,15,5bc36b8456c89f002c42cce1,Theo Randall’s Italian Kitchen,47.380102,8.5066,Italian Restaurant
430,47.38,8.507142857142858,22,16,4b56f2aaf964a5203e2028e3,Restaurant Schlachthof,47.383233854787484,8.506110441996032,Swiss Restaurant
431,47.38,8.507142857142858,22,17,5d0f8b3ae937f30023de581a,Favorit Shisha Bar Restaurant Take Away Hauslieferdienst,47.379196,8.510758,Turkish Restaurant
432,47.38,8.507142857142858,22,18,57926a7a498e3d20d7a7fb08,CD España Iberia,47.378053,8.509058,Tapas Restaurant
433,47.38,8.507142857142858,22,19,543a95ab498eee6cfb59740e,Marroni Stand Albisriederplatz,47.38113422307567,8.510961897043838,Swiss Restaurant
434,47.38,8.507142857142858,22,20,4e4bf9bd14958c3abfaea1f2,Thai restaurant A la Carte,47.37767093121044,8.512000347505781,Thai Restaurant
435,47.38,8.507142857142858,22,21,4f9d5865e4b04dce45b5473e,Fenna Italienische Spezialitäten,47.378907,8.511322,Italian Restaurant
436,47.38,8.521428571428572,50,0,4b058887f964a520d9cb22e3,Greulich,47.378533118562856,8.52042703735696,Hotel
437,47.38,8.521428571428572,50,1,5f6ce4b46e051e4598bb26e3,Habesha,47.377071,8.523304,Ethiopian Restaurant
438,47.38,8.521428571428572,50,2,5bb653a5c47cf9002c998889,Barranco,47.379479,8.516007,Peruvian Restaurant
439,47.38,8.521428571428572,50,3,4b68882af964a5203a7e2be3,Aargauerhof,47.37726433418811,8.52639300998908,Swiss Restaurant
440,47.38,8.521428571428572,50,4,5c6bdd9cc36588002c084ad6,La Chamaca,47.38622930492837,8.51670357503919,Food Truck
441,47.38,8.521428571428572,50,5,5560bacf498ee79eb4395251,Kokoro,47.38068,8.526546,Japanese Restaurant
442,47.38,8.521428571428572,50,6,4f1713e1e4b067f6753c81a4,La Baracca,47.37619556089106,8.522434157024838,Italian Restaurant
443,47.38,8.521428571428572,50,7,5b22456028374e002c84fe97,Khujug,47.37985112780578,8.527141749946168,Chinese Restaurant
444,47.38,8.521428571428572,50,8,582f6ce1dfa6ff0f03f05d88,PUTPUTakeaway,47.3765,8.525122,Japanese Restaurant
445,47.38,8.521428571428572,50,9,4e41164662e17b948c233c11,Phuket Asia Center,47.38021017249065,8.526541652315395,Asian Restaurant
446,47.38,8.521428571428572,50,10,56fec063498e86f28f9934ef,Schönau Bar Restaurant,47.378233948842926,8.524223406196766,Mediterranean Restaurant
447,47.38,8.521428571428572,50,11,518548fe498e4754bfcc169e,Rest. Chianalea,47.37934036006314,8.524209898054215,Italian Restaurant
448,47.38,8.521428571428572,50,12,5532c310498e24c6e9d7459c,Equi-Table,47.37788,8.521129,Swiss Restaurant
449,47.38,8.521428571428572,50,13,5eca3fd418038900082a9168,Brera,47.377122,8.52002,Italian Restaurant
450,47.38,8.521428571428572,50,14,518545d4498e0b8abbd3ba53,Palestine Grill,47.37836362517384,8.526989446926743,Middle Eastern Restaurant
451,47.38,8.521428571428572,50,15,4b058888f964a520e7cb22e3,Caduff's Wine Loft,47.37711519219868,8.520155125586543,Swiss Restaurant
452,47.38,8.521428571428572,50,16,4c457833f0bdd13a74f1cacc,Schweizer Weinstube,47.37763601647199,8.525554782699217,Swiss Restaurant
453,47.38,8.521428571428572,50,17,4b601e73f964a52068d629e3,Eichhörnli,47.37961644377743,8.525597492277148,Swiss Restaurant
454,47.38,8.521428571428572,50,18,5b7550e556837a001c4d992c,Ay Mami,47.37677,8.525796,Mexican Restaurant
455,47.38,8.521428571428572,50,19,5e237c86a7015200077e90ab,Kinii,47.377397,8.522487,Asian Restaurant
456,47.38,8.521428571428572,50,20,5db0a264ab97200008ceaa91,Okinii,47.37716,8.523295,Japanese Restaurant
457,47.38,8.521428571428572,50,21,4f4f5dcae4b0f022a0694291,Evin Kebap Haus,47.3811,8.5185,Turkish Restaurant
458,47.38,8.521428571428572,50,22,4d0bee1cef2b8cfa98a7067d,Thai 4 You Bar,47.37655720268289,8.52527497910158,Thai Restaurant
459,47.38,8.521428571428572,50,23,509ab5b3e4b07f2723f3637e,Merve Kebaphaus,47.378467,8.523804,Turkish Restaurant
460,47.38,8.521428571428572,50,24,5d120c9c395231002d65be97,ORIENT Gold Restaurant & Bar,47.378735,8.527755,Restaurant
461,47.38,8.521428571428572,50,25,595a8086c365882ea49c863c,Asianart,47.37708,8.523304,Chinese Restaurant
462,47.38,8.521428571428572,50,26,5a8873affdb9a74c8882e3d8,El Cevichazo,47.37984,8.525473,Peruvian Restaurant
463,47.38,8.521428571428572,50,27,4f410cfae4b0e5bc12f8ec80,Restaurante Tropical,47.38028728349193,8.526029407803323,Brazilian Restaurant
464,47.38,8.521428571428572,50,28,4bd32f5eb221c9b6f110d9d0,Osteria Da Concetta,47.378118,8.524251,Trattoria/Osteria
465,47.38,8.521428571428572,50,29,52ec1fd2498ed0c17917528d,Panda Schloss,47.38096580552496,8.517986602794164,Sushi Restaurant
466,47.38,8.521428571428572,50,30,4b7418d2f964a520bcc72de3,Restaurant B,47.377799822894225,8.524277221082244,Swiss Restaurant
467,47.38,8.521428571428572,50,31,4d57df7cde8f6dcb12850491,Phuket Centre,47.380829,8.526976,Thai Restaurant
468,47.38,8.521428571428572,50,32,50da47f4e4b0aceb2edd41e2,Çorbacı,47.377681,8.526557,Turkish Restaurant
469,47.38,8.521428571428572,50,33,4c6bade1599fbe9a602c933f,Restaurant Werkhof,47.379529,8.52379,Thai Restaurant
470,47.38,8.521428571428572,50,34,4ce4348522bef04d39dad7f8,Rana,47.378039099999995,8.52669895,Asian Restaurant
471,47.38,8.521428571428572,50,35,576c4f21498e21f5ff463d96,Wood food,47.379338,8.527168,Swiss Restaurant
472,47.38,8.521428571428572,50,36,4eac5e9e6c250fcc75011a6f,Gambrinus,47.37879239777861,8.52714900316178,Swiss Restaurant
473,47.38,8.521428571428572,50,37,4be7e915d837c9b623a4a406,Restaurant La Pergola,47.37671,8.52077,Italian Restaurant
474,47.38,8.521428571428572,50,38,4bec4ad4fd60a593d0c93af1,Keo Inn,47.37889525503607,8.527629226200778,Thai Restaurant
475,47.38,8.521428571428572,50,39,519e48a7498efd48dcdb42de,Morgenstern Da Mario,47.37956756947523,8.526146735509194,Italian Restaurant
476,47.38,8.521428571428572,50,40,5c483beedb2aeb002c14f6ae,Il Punto Gastro GmbH,47.379075,8.515539,Italian Restaurant
477,47.38,8.521428571428572,50,41,50a7e253e4b05407c26956a9,Turkey Hall,47.381363443376436,8.517765469068895,American Restaurant
478,47.38,8.521428571428572,50,42,55d093cf498eba4db29836d0,Coming Soon,47.3789871433467,8.526728367943896,Vietnamese Restaurant
479,47.38,8.521428571428572,50,43,5dfa6baa4412bd000871ef66,Wo Wotsch Sush-Hi,47.379309,8.527417,Sushi Restaurant
480,47.38,8.521428571428572,50,44,58065aa438fa6ac63de7d23f,Parañaque,47.37709,8.523272,Thai Restaurant
481,47.38,8.521428571428572,50,45,52713dfe11d2f284c5c074af,manhattan,47.38119490207531,8.517906057571047,American Restaurant
482,47.38,8.521428571428572,50,46,5177ba9c498eac4e68f4b58e,Hua Hin,47.375719,8.519767,Asian Restaurant
483,47.38,8.521428571428572,50,47,5bba91c8febf31002cda8513,Ege Restaurant,47.380136,8.52446,Turkish Restaurant
484,47.38,8.521428571428572,50,48,4cdbd4fffc9737044362d105,Rest. Aggarwals,47.376806,8.525879,Indian Restaurant
485,47.38,8.521428571428572,50,49,518d4219498e90f57a8b3e10,Cento Passi,47.3770717531695,8.524184190258486,Italian Restaurant
486,47.38,8.535714285714286,50,0,4b42001cf964a5204ccb25e3,Brasserie Federal,47.378131,8.540756,Swiss Restaurant
487,47.38,8.535714285714286,50,1,52d67ff0498e9632dade20ab,Spiga,47.37683040795013,8.53822762085078,Italian Restaurant
488,47.38,8.535714285714286,50,2,5d0386e2491be7002c7e1757,Miss Miu,47.37907,8.531334,Korean Restaurant
489,47.38,8.535714285714286,50,3,4f92f0c8e4b04c0c9eba8b6c,El Luchador,47.38185154359563,8.533621360590336,Mexican Restaurant
490,47.38,8.535714285714286,50,4,4b8bb2bdf964a52075a732e3,Der Grüne Libanon,47.380738462950596,8.53483549087358,Falafel Restaurant
491,47.38,8.535714285714286,50,5,4b5c7b71f964a520f93129e3,Chiang Mai Thai Shop,47.38073922950026,8.5336333730925,Thai Restaurant
492,47.38,8.535714285714286,50,6,51f0ff27498ef7d208ad862d,Yooji's,47.37638700752831,8.539659476223829,Sushi Restaurant
493,47.38,8.535714285714286,50,7,59370f34ad1ea41e8daf257e,Urban Fork,47.38324,8.53314,American Restaurant
494,47.38,8.535714285714286,50,8,5a735bf81f8ed634fc495961,Ynos,47.379202,8.531694,Modern European Restaurant
495,47.38,8.535714285714286,50,9,4f47ed18e4b06a774168ec79,Restaurant Schützengasse,47.377154,8.53743,Swiss Restaurant
496,47.38,8.535714285714286,50,10,5b7064fc3e70ff00241228c2,Rice Up!,47.378211,8.538132,Asian Restaurant
497,47.38,8.535714285714286,50,11,53a01bdb498e71ce2acd162b,Yooji's sushi deli,47.378033343638286,8.538803888310717,Sushi Restaurant
498,47.38,8.535714285714286,50,12,518a7bb2498ebfe64bae3a8a,Cartel,47.37632704989963,8.53304208459058,Burrito Place
499,47.38,8.535714285714286,50,13,53a076d0498e4bc68608da6d,Sora Sushi,47.37762258067043,8.539132977076385,Sushi Restaurant
500,47.38,8.535714285714286,50,14,5a088a9860255e656b7ff7fe,Pasta Barn,47.378431,8.536469,Noodle House
501,47.38,8.535714285714286,50,15,5de943a28090880008c2c0dd,La Brea Socal Tacos,47.382408,8.531846,Taco Place
502,47.38,8.535714285714286,50,16,5d382c0ce5768900079157a0,Nooba,47.378512,8.534506,Asian Restaurant
503,47.38,8.535714285714286,50,17,4bd173d9046076b0e8d17171,Wirtschaft zum Vorbahnhof,47.379596243019265,8.537183019127884,Swiss Restaurant
504,47.38,8.535714285714286,50,18,5894786baf5c1416e0e39e79,Yume Ramen,47.37667,8.53326,Japanese Restaurant
505,47.38,8.535714285714286,50,19,5ab3e048be707860349f20f3,Uncle 7,47.381893,8.533863,Chinese Restaurant
506,47.38,8.535714285714286,50,20,566720c4498e213b3e2453b1,Più,47.376811444825044,8.534959121521899,Italian Restaurant
507,47.38,8.535714285714286,50,21,562237c7498eaf5119c8dd7f,Pho Na,47.381501882168784,8.533184289132633,Vietnamese Restaurant
508,47.38,8.535714285714286,50,22,58480cb9a6118c1921319028,Burrito Brothers,47.376145600786636,8.537551154842735,Burrito Place
509,47.38,8.535714285714286,50,23,5c8911e435f983002cdf7c57,Pasta Box,47.378305,8.540146,Italian Restaurant
510,47.38,8.535714285714286,50,24,4fe61c92e4b02e4293ed10c3,Sommergarten,47.377240838972156,8.530691095443641,Mediterranean Restaurant
511,47.38,8.535714285714286,50,25,5ce047e20719020025fc0284,Sapori D’italia,47.37818,8.538518,Grocery Store
512,47.38,8.535714285714286,50,26,54d4b36d498e8260d1758b97,Dont Worry Eat Curry,47.38284022939362,8.530939552266204,Sri Lankan Restaurant
513,47.38,8.535714285714286,50,27,51c42d93498edcb7dc3f304b,A Mano,47.381059,8.535234,Italian Restaurant
514,47.38,8.535714285714286,50,28,5e3546e8dd74ea000736f322,il baretto,47.380469,8.534264,Café
515,47.38,8.535714285714286,50,29,4d302c0ea62d721e5c8d977d,Walliser Kanne,47.37668,8.538808,Swiss Restaurant
516,47.38,8.535714285714286,50,30,5464f4a7498e27df602e9709,Nooch,47.38054112703988,8.532383867174962,Asian Restaurant
517,47.38,8.535714285714286,50,31,4b4fb817f964a520681227e3,Paninoteca Il Pentagramma,47.38112303767148,8.533554349862975,Sandwich Place
518,47.38,8.535714285714286,50,32,4c0fcf5ef1b6a593dbde7a27,Restaurant Camino,47.377047821228516,8.532783224100685,Mediterranean Restaurant
519,47.38,8.535714285714286,50,33,4be56ab6910020a1b6e7d214,Lubnän al-achdar,47.380708318221515,8.534166056246116,Middle Eastern Restaurant
520,47.38,8.535714285714286,50,34,568b9d46498e5f2ceddd6efb,Il Bistro,47.38098784583138,8.535290323533316,Italian Restaurant
521,47.38,8.535714285714286,50,35,5658b4bb498e3e94889df6f2,Yamas,47.378676552528326,8.531687571923822,Mediterranean Restaurant
522,47.38,8.535714285714286,50,36,4bc748ea2f94d13af99a117f,Restaurant Vulkan,47.38191800913314,8.533651817203056,Indian Restaurant
523,47.38,8.535714285714286,50,37,5501dd92498e1c8a3ebea1de,Wesley's Kitchen,47.38183164989717,8.532534073256674,Asian Restaurant
524,47.38,8.535714285714286,50,38,4ea6ba1f93ad76dfdb8025e5,Hummerbar,47.376309959947314,8.538870885864444,Seafood Restaurant
525,47.38,8.535714285714286,50,39,4b4c6261f964a520f8b126e3,Jack's Place,47.381621,8.533532,Chinese Restaurant
526,47.38,8.535714285714286,50,40,596603400d8a0f4a1e2f83de,Kaisin.,47.378365,8.534484,Sushi Restaurant
527,47.38,8.535714285714286,50,41,4bcfe970046076b070376f71,Restaurant White Elephant,47.37802392664129,8.539618715152269,Thai Restaurant
528,47.38,8.535714285714286,50,42,4c4eacaf1b8e1b8db77c8727,St. Gallerhof,47.379920081092386,8.537463303481681,Swiss Restaurant
529,47.38,8.535714285714286,50,43,4b670f2ef964a520a0372be3,La Luna,47.376378067982046,8.53307264593202,Italian Restaurant
530,47.38,8.535714285714286,50,44,5848558f0a3d5404ed640f02,Fondue Chalet,47.379156,8.53102,Swiss Restaurant
531,47.38,8.535714285714286,50,45,4def54cbd22ddfee16f42364,Luigi's Piadina,47.377935,8.540052,Italian Restaurant
532,47.38,8.535714285714286,50,46,5040f522e4b01c18090288c6,Vitruv Restaurant & Bar,47.3793996,8.5420914,Swiss Restaurant
533,47.38,8.535714285714286,50,47,5082a06be4b0b8e8440de239,5 Star,47.38287,8.531003,Turkish Restaurant
534,47.38,8.535714285714286,50,48,50b5010fe4b020fc3de77929,Piz Europa Fondue-Hütte,47.378548471435195,8.533432125973615,Swiss Restaurant
535,47.38,8.535714285714286,50,49,5682fdb0498e4732a3c35552,Villette Fondue House,47.382520764433956,8.540427153664552,Swiss Restaurant
536,47.38,8.55,24,0,4b0cf16ff964a520be4223e3,Hot Pasta,47.37867004787092,8.547983737925266,Italian Restaurant
537,47.38,8.55,24,1,4d5d1fc63f92236a702be61d,Clausiusbar,47.377249257235434,8.546948336209121,College Cafeteria
538,47.38,8.55,24,2,4b8000ebf964a520144a30e3,Linde Oberstrass,47.38338804624092,8.548242189629194,Swiss Restaurant
539,47.38,8.55,24,3,5b9abfd1ab42d9002c2f745b,Pizza Pasta Ciao!,47.37887,8.54452,Italian Restaurant
540,47.38,8.55,24,4,4b05888af964a520b5cc22e3,Stapferstube Da Rizzo,47.38212196824486,8.54743615346902,Italian Restaurant
541,47.38,8.55,24,5,4cc1cfcc806246881649252f,Pizzeria Al'Forno,47.38055230315254,8.548184088211148,Italian Restaurant
542,47.38,8.55,24,6,4b05888af964a5208bcc22e3,Casa Ferlin,47.379801,8.543377,Italian Restaurant
543,47.38,8.55,24,7,4c46d7e10f5aa593ffd37b76,Bamboo Inn,47.380474,8.54724,Asian Restaurant
544,47.38,8.55,24,8,5debf6b589d1b10008d2afd1,Gaststube Haldenegg,47.379158,8.545222,Swiss Restaurant
545,47.38,8.55,24,9,552e478b498ea178146bdd3b,The Lemon Grass,47.379535,8.54792,Thai Restaurant
546,47.38,8.55,24,10,58473e2c03cf253734eb2d15,Restaurant 8001,47.379186,8.545262,Swiss Restaurant
547,47.38,8.55,24,11,50054fd0e4b0b93071c29e50,Orient Catering,47.37895608397649,8.544710238158048,Middle Eastern Restaurant
548,47.38,8.55,24,12,4b1e35dff964a520e61724e3,Restaurant/Cafe Mallorca,47.38048520399373,8.548131089171767,Caribbean Restaurant
549,47.38,8.55,24,13,4bdabba863c5c9b697bc2468,Jimmy's Pizzeria,47.37940380298219,8.546945786937961,Italian Restaurant
550,47.38,8.55,24,14,4ed6c1ee4901772cdf1ec3dd,Lacucina Caffe Bar,47.38010975934546,8.54505437871464,Middle Eastern Restaurant
551,47.38,8.55,24,15,52288bef11d255d713b69d01,The Pasteria Italiana,47.38018661094287,8.548963790751177,Italian Restaurant
552,47.38,8.55,24,16,5c002e6481a0ea002c352c08,Culmann,47.379476,8.547015,Italian Restaurant
553,47.38,8.55,24,17,4b05888af964a52094cc22e3,Crazy Cow,47.379009335714215,8.545103855143505,Swiss Restaurant
554,47.38,8.55,24,18,581b219ab04e9809d4504778,Khgfrtgbbcdsrhhjj,47.376537,8.548093,Jewish Restaurant
555,47.38,8.55,24,19,4d6e25668df1548108347a23,yooijs,47.382028856030516,8.54652507363627,Asian Restaurant
556,47.38,8.55,24,20,4e1d73241f6e47e5e7973d85,Scent of Bamboo,47.379433,8.545315,Asian Restaurant
557,47.38,8.55,24,21,4e00c6f718a8abfb3f6b6797,Pizzeria OKAY Italia,47.37919,8.55556,Pizza Place
558,47.38,8.55,24,22,527b8ed511d25b18254cf901,Partho Store and Take Away,47.379783443525945,8.548007011413574,Indian Restaurant
559,47.38,8.55,24,23,56c0d42ccd101fc1b6bb9ff2,The kitchen,47.3823622137019,8.55032741952957,Belgian Restaurant
560,47.38,8.564285714285715,3,0,4b058888f964a520dccb22e3,Sorell Hotel Zürichberg,47.3823568879108,8.566921668131492,Hotel
561,47.38,8.564285714285715,3,1,5c3a4333054e29002b46c67e,Chalet Zuriberg,47.382292,8.567479,Swiss Restaurant
562,47.38,8.564285714285715,3,2,4c2395acc9bbef3b020dafac,B21,47.38236786033185,8.567010462284088,Hotel Bar
563,47.38,8.592857142857143,1,0,4b100ca3f964a520186823e3,Chäsalp,47.382206054341,8.587984903652034,Swiss Restaurant
564,47.38,8.607142857142858,1,0,4bf3e191e5eba59380f51e90,Restaurant Geeren,47.37564788255045,8.607711635231368,Swiss Restaurant
565,47.38,8.621428571428572,1,0,4c2cce12ae6820a13ee81943,Restaurant Waldmannsburg,47.379197055321434,8.616427328795046,Swiss Restaurant
566,47.38,8.65,2,0,577b9387498e673c16702db7,Schnitzrl bei Mama,47.382426,8.652953,Austrian Restaurant
567,47.38,8.65,2,1,4fcbb32ae4b03cf73d3752e8,Pizzeria Schwanen,47.37955915879231,8.652375086644803,Italian Restaurant
568,47.39,8.35,1,0,4e46d0d418a8f9804cce14f3,Sushi-Inn,47.391693475298574,8.345765813209702,Sushi Restaurant
569,47.39,8.392857142857142,3,0,52911c8511d2f23814c42169,Trattoria al Ponticello,47.389681,8.394247,Trattoria/Osteria
570,47.39,8.392857142857142,3,1,4c94588972dd224b57829991,Bergli,47.39073229996527,8.389168865518501,Swiss Restaurant
571,47.39,8.392857142857142,3,2,53136aa411d2aa0962c5076f,il Tartufo,47.391496254504474,8.38977169350032,Italian Restaurant
572,47.39,8.435714285714285,1,0,5b3fa4bbfe0e2a00242a9b5c,Restaurant Oriental,47.390403,8.433956,Middle Eastern Restaurant
573,47.39,8.45,1,0,50d1ebe3e4b01474e5d18dbd,Cozinha,47.394184,8.450318,Noodle House
574,47.39,8.464285714285714,1,0,4c2b6fdc8ef52d7f875a31ba,Triibhuus,47.38692301889348,8.46872315648311,Spanish Restaurant
575,47.39,8.478571428571428,11,0,5a0de0f78264443d4b2099c1,Tam Nan Siam,47.392909,8.474238,Thai Restaurant
576,47.39,8.478571428571428,11,1,4d96193ae07ea35d5e8db702,Restaurant Bachmatt,47.38878056,8.48306183,Indian Restaurant
577,47.39,8.478571428571428,11,2,4fb8e33ce4b06b008d465cef,Tasty,47.390242830434104,8.480239857827941,Turkish Restaurant
578,47.39,8.478571428571428,11,3,4cb6d92d589f236a6f403a3d,Azzuri,47.39029251988303,8.480671804793186,Italian Restaurant
579,47.39,8.478571428571428,11,4,4f1c0743e4b03543a1e4d84b,Pasar Minggu,47.389116416697966,8.484207544052104,Indonesian Restaurant
580,47.39,8.478571428571428,11,5,521782ef11d2f52ef9354d7c,Lindenhof,47.38783888055934,8.481569257455913,Swiss Restaurant
581,47.39,8.478571428571428,11,6,4fdb44d9e4b0ba0b1817e4f9,Restaurant Krone,47.38837461240586,8.483729777142134,Swiss Restaurant
582,47.39,8.478571428571428,11,7,50a7fd59e4b0ee89cfc0c01d,Zur Krone,47.38828788003395,8.484201496827298,Swiss Restaurant
583,47.39,8.478571428571428,11,8,4cbebf97b6c4224bccd3ee94,Roter Stein,47.388645849038426,8.484857082366943,Swiss Restaurant
584,47.39,8.478571428571428,11,9,4c9336adf600236a9080c332,Restaurant Farbhof,47.390738,8.478593,Swiss Restaurant
585,47.39,8.478571428571428,11,10,4f4e19d0e4b0acb468430c3e,China restaurant King To,47.386409378810235,8.476113934872881,Chinese Restaurant
586,47.39,8.492857142857142,23,0,4bc494a8abf495218c36c593,Santa Lucia,47.3885187709932,8.486807794516281,Italian Restaurant
587,47.39,8.492857142857142,23,1,5821c564bcf73e24b5963f68,Samurai VII,47.388589,8.489764,Japanese Restaurant
588,47.39,8.492857142857142,23,2,54195e20498e3e9f1ca4f9a8,triangolo,47.387389,8.488359,Italian Restaurant
589,47.39,8.492857142857142,23,3,532f522111d2d55ec7f56695,zeughousekeller,47.390217362889736,8.486241106443645,Swiss Restaurant
590,47.39,8.492857142857142,23,4,4d64fc585a27b1f7e8f9f95d,Sweet And Sour,47.388605218699176,8.486743892557293,Chinese Restaurant
591,47.39,8.492857142857142,23,5,4b9f9e96f964a520592f37e3,Arche Bistro,47.38897834376242,8.49458628940305,Swiss Restaurant
592,47.39,8.492857142857142,23,6,4bf66ca04d5f20a1e73699fe,Imbiss Kiosk,47.38724959044016,8.494157176355555,Middle Eastern Restaurant
593,47.39,8.492857142857142,23,7,5d4087351598af0008309319,Taj Mahal Restaurant,47.386974,8.489356,Indian Restaurant
594,47.39,8.492857142857142,23,8,5b4f14181fa763002c091ee0,Chez Oskar,47.388799,8.495435,Mediterranean Restaurant
595,47.39,8.492857142857142,23,9,4c72480b57b6a1430507c5cc,Scent of Bamboo,47.39123172184549,8.489411708059755,Chinese Restaurant
596,47.39,8.492857142857142,23,10,4b8bf453f964a5207bb432e3,Asian Dining,47.389569896188185,8.486497969079455,Asian Restaurant
597,47.39,8.492857142857142,23,11,4e5b6643b61c4aaa3e15b7a7,Restaurant Barino,47.3909486588109,8.488906357357518,Swiss Restaurant
598,47.39,8.492857142857142,23,12,4c2876ade19720a115e8f758,nextstop,47.39092265,8.488870133333334,Middle Eastern Restaurant
599,47.39,8.492857142857142,23,13,4f47711ee4b0f85d06de13ab,Thai Food,47.387469477627235,8.493263828475595,Thai Restaurant
600,47.39,8.492857142857142,23,14,4bfe41354cf820a19797edf4,Peking Garden,47.391178857360714,8.488626583406433,Chinese Restaurant
601,47.39,8.492857142857142,23,15,4eb8375002d5f33e93ba004b,New Shanghi Restaurant,47.38721046937532,8.489125651914058,Chinese Restaurant
602,47.39,8.492857142857142,23,16,4c7eb199fb13a1cd34749ea4,Clarke's,47.387409,8.488296,Caribbean Restaurant
603,47.39,8.492857142857142,23,17,4dd64b222271c5d36d1dddd3,Altstetten Cafė,47.389197884017804,8.486530780792236,Swiss Restaurant
604,47.39,8.492857142857142,23,18,5b742c0782a750002c8d5e6b,The Coconut,47.387514,8.493382,Indian Restaurant
605,47.39,8.492857142857142,23,19,5a4fc6f95d891b0cfdb6a7e8,Namamen,47.391541,8.491444,Ramen Restaurant
606,47.39,8.492857142857142,23,20,4f0ac794e4b02665708d6a3b,Kantine,47.391351,8.487509,Swiss Restaurant
607,47.39,8.492857142857142,23,21,569e155f498e3013cecc6469,Curry Queen Take Away,47.39104418905472,8.487492136335847,Indian Restaurant
608,47.39,8.492857142857142,23,22,5a57c4cb628c8346e7011ebc,Masa Restaurant,47.389121,8.488317,Mediterranean Restaurant
609,47.39,8.507142857142858,21,0,4b436211f964a5203cdf25e3,Brasserie Bernoulli,47.393745774778665,8.507833514460653,Swiss Restaurant
610,47.39,8.507142857142858,21,1,57e3a7e2cd1069727f82d070,Srilankan Street Food,47.390098,8.510722,Sri Lankan Restaurant
611,47.39,8.507142857142858,21,2,5ee9f5e5ddff03000843164c,Ribelli Zürich,47.391118,8.509922,Italian Restaurant
612,47.39,8.507142857142858,21,3,5267ad2911d21b460f824274,naanu,47.39049071722899,8.509122213389844,Indian Restaurant
613,47.39,8.507142857142858,21,4,5be56b19efa82a002c7e8959,Porchetta Imbiss,47.391133,8.511314,Food Truck
614,47.39,8.507142857142858,21,5,587f50511470b068419129d8,Take Away Italy,47.390751,8.509272,Italian Restaurant
615,47.39,8.507142857142858,21,6,5ba8b7b01953f300391f0764,Soul Köfte,47.391189,8.511483,Food Truck
616,47.39,8.507142857142858,21,7,5bb34aa312c8f0002c8eb4be,Kaliorexi,47.391491009264264,8.512665053042014,Food Truck
617,47.39,8.507142857142858,21,8,5ba36a6bf8cbd4002c49ae7a,Eda Essen,47.39025739504178,8.510607479892691,Food Truck
618,47.39,8.507142857142858,21,9,5d84a86df516bc0008997260,Nostimo,47.391119,8.511286,Food Truck
619,47.39,8.507142857142858,21,10,5be6d0cfdbde11002562e909,Topolino,47.39032,8.507842,Italian Restaurant
620,47.39,8.507142857142858,21,11,5a8ea122911fc47c1ac17e19,Ada Lokma,47.391143,8.511315,Food Truck
621,47.39,8.507142857142858,21,12,51fbeffb498ef6611e818c40,NENI,47.391229860179365,8.50990299317113,Israeli Restaurant
622,47.39,8.507142857142858,21,13,59bba20c4c9be611fb876064,The Western Burger House,47.39049,8.509924,Burger Joint
623,47.39,8.507142857142858,21,14,5308ecdb498e58746c2ad520,Route Twenty-Six,47.39057930680565,8.510020564008526,Swiss Restaurant
624,47.39,8.507142857142858,21,15,5c8f78683abcaf002c8b5dc6,Roots Of Himalaya,47.390257340515774,8.510672804194463,Food Truck
625,47.39,8.507142857142858,21,16,57dafa21498e23542f793a39,Restaurant Napoli,47.391003,8.506,Italian Restaurant
626,47.39,8.507142857142858,21,17,50892871e4b03043b57a805e,Pizza Ruccola,47.39418631781847,8.505786866731404,Italian Restaurant
627,47.39,8.507142857142858,21,18,52207119498e557e528777fe,Panino Più,47.39028336264847,8.509382867094562,Italian Restaurant
628,47.39,8.507142857142858,21,19,5e2875e6144dc80008d67e2b,Cucina,47.393706,8.507914,Italian Restaurant
629,47.39,8.507142857142858,21,20,5fb262eb718dd247c7866676,Chinchorro,47.391234,8.511415,Food Truck
630,47.39,8.521428571428572,44,0,551ec1d3498e0412ab1777fc,Brisket Southern BBQ & Bar,47.38777261978642,8.519049990030176,Southern / Soul Food Restaurant
631,47.39,8.521428571428572,44,1,59e0aefe35811b43482d652f,Piu,47.38863258045535,8.520055368901616,Italian Restaurant
632,47.39,8.521428571428572,44,2,4e2d1128b61cd01083866a41,Restaurant Markthalle,47.387683199415314,8.526226278702298,Swiss Restaurant
633,47.39,8.521428571428572,44,3,4bd1c2849854d13a341cfa4d,Restaurant Viadukt,47.385969462081086,8.52231987590721,Mediterranean Restaurant
634,47.39,8.521428571428572,44,4,4b4deb34f964a5200edb26e3,Nooch,47.38906,8.52191,Asian Restaurant
635,47.39,8.521428571428572,44,5,5bad3bd2ad178900395a75cb,San Gennaro,47.391598,8.525054,Italian Restaurant
636,47.39,8.521428571428572,44,6,53f4c7da498e3a73f7d9d66a,Tokyo Tapas,47.387764,8.526629,Japanese Restaurant
637,47.39,8.521428571428572,44,7,4b448474f964a520e9f525e3,Don Weber,47.38792135471254,8.524571197123286,Mexican Restaurant
638,47.39,8.521428571428572,44,8,4b4c70c6f964a5200ab326e3,Angkor,47.3902572,8.5172303,Cambodian Restaurant
639,47.39,8.521428571428572,44,9,5bb505f77c891c002d47027e,bibim shack,47.390262,8.522511,Korean Restaurant
640,47.39,8.521428571428572,44,10,4b2626b1f964a520c87824e3,Swiss Bistro,47.38880453333333,8.516800666666667,Swiss Restaurant
641,47.39,8.521428571428572,44,11,58e749608ae36317de2b5617,Tacos Plaza,47.3902911660648,8.523091552934577,Taco Place
642,47.39,8.521428571428572,44,12,4b058888f964a52005cc22e3,LaSalle,47.38877566264509,8.519200516602776,Modern European Restaurant
643,47.39,8.521428571428572,44,13,5c558b02e679bc00393ac3a1,Toscano in puls 5,47.39003548335232,8.517816313295825,Italian Restaurant
644,47.39,8.521428571428572,44,14,5717cebc498ed05e35a8b3cf,Lebanese Snack,47.387266318861506,8.519456754209777,Middle Eastern Restaurant
645,47.39,8.521428571428572,44,15,4b4cb78ef964a5209abb26e3,Nectar,47.3902746832584,8.523214216102645,Eastern European Restaurant
646,47.39,8.521428571428572,44,16,54d386b1498e37281b1bcfeb,Italian Monkey,47.38859950807845,8.52569265555235,Italian Restaurant
647,47.39,8.521428571428572,44,17,5d1deea85cbbb20023a2434c,Tschingg,47.389056,8.525028,Italian Restaurant
648,47.39,8.521428571428572,44,18,4b992e26f964a520726735e3,Hokkaido,47.390424187130776,8.517651289427384,Asian Restaurant
649,47.39,8.521428571428572,44,19,5ab8cbff464d6513eab99b37,Banhmi,47.388386,8.526219,Vietnamese Restaurant
650,47.39,8.521428571428572,44,20,4dcd0db61850aa6414ca8438,Am Damm Take Away und Kiosk,47.3883815,8.5264818,Indian Restaurant
651,47.39,8.521428571428572,44,21,53d81141498e147fab4fb51e,Gastro suisse,47.388801,8.516989,Italian Restaurant
652,47.39,8.521428571428572,44,22,4be7e42f88ed2d7f662ccb1d,Teppan Sushi,47.3882,8.520084,Japanese Restaurant
653,47.39,8.521428571428572,44,23,50b504cde4b046c09f2fc14d,Fonduehalle,47.388586,8.522134,Swiss Restaurant
654,47.39,8.521428571428572,44,24,573c9a87498e867445710ea3,al fiume,47.391361,8.525474,Italian Restaurant
655,47.39,8.521428571428572,44,25,4d374a4a036c5481ead34b89,La Rocca,47.388561,8.525448,Italian Restaurant
656,47.39,8.521428571428572,44,26,5bc9c0fedff81500396d5e78,Casa Cupiello,47.390018,8.522259,Italian Restaurant
657,47.39,8.521428571428572,44,27,4b56e46af964a520561e28e3,Noodle House,47.390368748424244,8.51770004865531,Noodle House
658,47.39,8.521428571428572,44,28,4b8970d9f964a520853632e3,Grüntal,47.39313457381005,8.521172971199407,Swiss Restaurant
659,47.39,8.521428571428572,44,29,5ee8fc1385563000088c54f1,Ristorante Pizzeria Unico,47.388558,8.525417,Pizza Place
660,47.39,8.521428571428572,44,30,59cfe8b40336930aa8459e22,Gourmet Bar,47.389043,8.516727,Swiss Restaurant
661,47.39,8.521428571428572,44,31,4edd1590d3e346be37864b56,Taj Palace,47.391113198265025,8.526366256245124,Indian Restaurant
662,47.39,8.521428571428572,44,32,589002a6c0df762b4051c9ef,Desperado,47.388745,8.521978,Mexican Restaurant
663,47.39,8.521428571428572,44,33,5df39760e204430008f74099,Gusto,47.387615,8.526199,Italian Restaurant
664,47.39,8.521428571428572,44,34,54626758498ed54f2f888a4c,miami,47.388988,8.517742,Asian Restaurant
665,47.39,8.521428571428572,44,35,4b504a1ff964a520dc1f27e3,Hua-Thai,47.39056097269506,8.522206764854028,Thai Restaurant
666,47.39,8.521428571428572,44,36,5b81950c1fa763003935c5c5,Beef n Roll,47.389681,8.521551,Burger Joint
667,47.39,8.521428571428572,44,37,5a75fe5a26659b17878e504c,Kai Sushi,47.38884,8.520143,Japanese Restaurant
668,47.39,8.521428571428572,44,38,4b4b3f56f964a520779526e3,Costa Brava,47.38856909855519,8.525725967919524,Spanish Restaurant
669,47.39,8.521428571428572,44,39,5e35b3962cd0b200077054ae,Don Paco,47.38841,8.5258,Spanish Restaurant
670,47.39,8.521428571428572,44,40,4b7a4bc9f964a520c4282fe3,Zürcher Kantonalbank,47.38669512274364,8.51896073959652,Bank
671,47.39,8.521428571428572,44,41,51250686e4b0a4573592d45f,Saltinbocca Toscanische Spezialitäten,47.38771818386533,8.526587129758212,Italian Restaurant
672,47.39,8.521428571428572,44,42,4b05888bf964a520cfcc22e3,Besame Mucho,47.38774216780982,8.51954661052308,Other Nightlife
673,47.39,8.521428571428572,44,43,4ce3b254bebd3704ea68a1a0,La Penisola,47.39124864556661,8.517915179867472,Italian Restaurant
674,47.39,8.535714285714286,20,0,4dd0f57545ddbe15f8c4908c,Libanese Take Away,47.39277121758354,8.538982020696022,Falafel Restaurant
675,47.39,8.535714285714286,20,1,4bb32d7135f0c9b62f09bc83,Restaurant Scala,47.39143522304828,8.538400450077862,Italian Restaurant
676,47.39,8.535714285714286,20,2,52680cf611d24e5bba02d895,Moudi's,47.387909,8.539098,Moroccan Restaurant
677,47.39,8.535714285714286,20,3,520bbb3c11d238ff739372d4,Lebanes Take Away,47.39273194393034,8.537579136460177,Middle Eastern Restaurant
678,47.39,8.535714285714286,20,4,4b9787d2f964a5208e0735e3,Ristorante La casa,47.390178,8.540003,Italian Restaurant
679,47.39,8.535714285714286,20,5,4e1d8470483bbda4181bc2d4,Thali,47.39029330554218,8.538957753044091,Indian Restaurant
680,47.39,8.535714285714286,20,6,4bd330cb462cb71350c4dd07,Tre Frattelli,47.39253710106656,8.5315959844311,Italian Restaurant
681,47.39,8.535714285714286,20,7,5c3f1a014c954c002c36f148,Con Gusto,47.391854,8.538773,Italian Restaurant
682,47.39,8.535714285714286,20,8,4bab4901f964a520cf9d3ae3,Restaurant Differente,47.38809611251621,8.539284502546368,Swiss Restaurant
683,47.39,8.535714285714286,20,9,516fcad2e4b0ad9826e0fb1e,thai mähnamnan,47.38726706289331,8.539653146427034,Thai Restaurant
684,47.39,8.535714285714286,20,10,4d769a2a1a21224b28363aaf,ototo,47.39268414683539,8.530844927858434,Japanese Restaurant
685,47.39,8.535714285714286,20,11,51543675e4b09eaac3b20790,Moudi's Lecker Cafe,47.38791062983105,8.539350940533918,Middle Eastern Restaurant
686,47.39,8.535714285714286,20,12,5c90d310fb8e59002c2a2f2b,Mango Food & Drink,47.390561,8.539827,Turkish Restaurant
687,47.39,8.535714285714286,20,13,4f01aa9be5e81719592fb97c,thali-King's Kurry little india,47.388573212426486,8.53935956954956,Indian Restaurant
688,47.39,8.535714285714286,20,14,5da1726e4c6a200008656db8,Restaurante & Pizzeria Degli Amici,47.39028,8.53876,Italian Restaurant
689,47.39,8.535714285714286,20,15,5a2af5781ffe9731e46d7718,Edi,47.388508,8.539075,Italian Restaurant
690,47.39,8.535714285714286,20,16,50b7b214e4b0035996871210,Älplerstube,47.39239375933283,8.536669630614465,Swiss Restaurant
691,47.39,8.535714285714286,20,17,4dd109a4ae603b786d6c77dd,Planet 5,47.38750109607959,8.530439977889369,Swiss Restaurant
692,47.39,8.535714285714286,20,18,51ff7312498e93018b84015a,Janni.ch,47.386634,8.53984,Italian Restaurant
693,47.39,8.535714285714286,20,19,519ca881498e038692186fd9,Il Restorantino,47.3892077669659,8.537822069919677,Italian Restaurant
694,47.39,8.55,4,0,552788d9498e28d0391eff9e,Moudi's lecker Garten,47.39104793969867,8.545521489280553,Middle Eastern Restaurant
695,47.39,8.55,4,1,4b7ed760f964a520810330e3,Restaurant Spice,47.388425376179406,8.547484605203376,Asian Restaurant
696,47.39,8.55,4,2,5040d7f7e4b029b248d18db0,Bistro Quadrino,47.391452846895106,8.553331393007158,Swiss Restaurant
697,47.39,8.55,4,3,4d5b785eb77a8cfa4b55d118,"Restaurant Al Vigneto, Kreis 6",47.392419310826824,8.545559032172905,Italian Restaurant
698,47.39,8.57857142857143,2,0,4bace88af964a52051183be3,Altes Klösterli,47.387108926679346,8.575615864994612,Swiss Restaurant
699,47.39,8.57857142857143,2,1,59ec6ecbdee7707917e0a088,Thai Pavillion,47.388264,8.577259,Thai Restaurant
700,47.39,8.621428571428572,4,0,5294af2c498e9e37cf85aa4c,kafi näbedra,47.389758,8.616856,American Restaurant
701,47.39,8.621428571428572,4,1,5d769b977c96a8000802ef2c,Ristorante Bacco,47.390446,8.617179,Italian Restaurant
702,47.39,8.621428571428572,4,2,51f963a0498e018790b0b959,Ristorante Pinocchio,47.390336,8.617379,Italian Restaurant
703,47.39,8.621428571428572,4,3,55fc5c08498e014e7d968095,La Bodega de Pepe,47.38979,8.617066,Tapas Restaurant
704,47.39,8.65,1,0,4bf7d62e4a67c928c03524cf,Restaurant Frohsinn,47.392678048291074,8.647093140832746,Swiss Restaurant
705,47.4,8.392857142857142,5,0,4fe4eb22e4b0d55efea120fa,Heimat,47.40225093668162,8.39577788414136,Swiss Restaurant
706,47.4,8.392857142857142,5,1,5236f365498e2be1423ca1b9,Huong's Good Food,47.401625894427255,8.391978825691996,Asian Restaurant
707,47.4,8.392857142857142,5,2,534576b4498eb4d463559952,Luo,47.401542,8.397634,Chinese Restaurant
708,47.4,8.392857142857142,5,3,4f36c33ce4b0653d49fe5666,Restaurant Ochsen,47.40148537129017,8.397512441349473,Swiss Restaurant
709,47.4,8.392857142857142,5,4,4cb0947eef1b370485f03b00,Restaurant Stutz,47.399772,8.394929,Swiss Restaurant
710,47.4,8.407142857142857,3,0,53bd3020498ebfa47ad3f558,Restaurant Luo,47.40151149944546,8.400935377698643,Chinese Restaurant
711,47.4,8.407142857142857,3,1,4d5978c9f8ff236ad0cecb4a,Costa Blanca,47.40408778285688,8.405505035200154,Spanish Restaurant
712,47.4,8.407142857142857,3,2,58b71476102f471b83e2a610,Golden Bambus,47.399659,8.41172,Chinese Restaurant
713,47.4,8.435714285714285,4,0,578cba76498efc9d6fa0e8ac,Restaurant Da Paulo,47.400433,8.441125,Italian Restaurant
714,47.4,8.435714285714285,4,1,4d9ef2b69bf0a35d0d27050b,Trattoria Italiana Da Michele,47.397277,8.439602,Italian Restaurant
715,47.4,8.435714285714285,4,2,51cbf44a498ee45dfb768bec,Andulino,47.400440570661644,8.440958498491053,Italian Restaurant
716,47.4,8.435714285714285,4,3,4e12f3e2d1647a0fff8dc380,La Penisola Italiana,47.40050937937954,8.441877886129983,Italian Restaurant
717,47.4,8.45,25,0,4d64f34a5a27b1f74a87f95d,Pizzeria Corona,47.39904476131477,8.447938849116749,Italian Restaurant
718,47.4,8.45,25,1,4fb3f0ace4b030072b999ea1,ORIGINAL THAI FOOD VON WANIDA,47.401117467094515,8.450810965971101,Thai Restaurant
719,47.4,8.45,25,2,4eb1a30a9911d335b02acb91,Rolli's Steakhouse,47.39712408617689,8.448062084964038,American Restaurant
720,47.4,8.45,25,3,4e175387e4cd49a7e3de8bce,Benfica,47.398447,8.447239,Portuguese Restaurant
721,47.4,8.45,25,4,4fa5908ae4b0ac15cfdbccc1,Ali Baba 2,47.39937495649093,8.447943628985941,Doner Restaurant
722,47.4,8.45,25,5,4ec5493fe5fa74ea5351fda3,Sushi Theke Schlieren,47.39907652083901,8.447509659946224,Sushi Restaurant
723,47.4,8.45,25,6,4ee8f6560e019eee5eaa27ca,WALO's,47.401025060496536,8.45132671790549,Swiss Restaurant
724,47.4,8.45,25,7,4e563077fa763b20fd08d4a0,Restaurant Sornam,47.399289779379174,8.449899547241392,Indian Restaurant
725,47.4,8.45,25,8,4caefd701168a09349571e23,Marzo Piadina Lounge & Dolce Vita,47.396676,8.449406,Italian Restaurant
726,47.4,8.45,25,9,5311dd7f498e06c8da02658e,Restaurante Fabiana,47.402636438344715,8.44903977490656,Portuguese Restaurant
727,47.4,8.45,25,10,558d37a0498e4097b4149df5,fabio & alberto,47.402942,8.448455,Italian Restaurant
728,47.4,8.45,25,11,53134798498ee358655214b1,Casa do Benfica de Zurique,47.3987922668457,8.455080032348633,Portuguese Restaurant
729,47.4,8.45,25,12,5c7ad7f78194fc002c024074,Ella Asian,47.398814,8.445581,Asian Restaurant
730,47.4,8.45,25,13,58406130fc5a5f5dd82faede,Only Temporary,47.399193,8.453244,Swiss Restaurant
731,47.4,8.45,25,14,4b812363f964a5200a9830e3,Salmen,47.39618837790735,8.448268009599635,Italian Restaurant
732,47.4,8.45,25,15,5257d1d8498ebe13f01b89eb,Thai Food,47.398019,8.451165,Thai Restaurant
733,47.4,8.45,25,16,4dc7c688e4cd169dc6838a5a,Sapori semplici da Stallone,47.398715,8.454583,Italian Restaurant
734,47.4,8.45,25,17,4e6a5076ae609509556dcf35,Amadeus,47.39915735292007,8.447099743712517,Austrian Restaurant
735,47.4,8.45,25,18,5880fd2555d6220f79782ea7,Suwannaphum,47.398254,8.4514265,Asian Restaurant
736,47.4,8.45,25,19,4c346d3ca0ced13ace13186e,Restaurant Sax,47.40188950302269,8.450595114988548,Spanish Restaurant
737,47.4,8.45,25,20,5aa452b2b1538e7c30e6e31b,O Douro,47.403482,8.448126,Portuguese Restaurant
738,47.4,8.45,25,21,4ca86d7cd971b1f7b94614e1,Kebab House,47.39742794301411,8.447518206269809,Turkish Restaurant
739,47.4,8.45,25,22,5065c52ce4b04f95ca44e5a3,You You Stix,47.398107379782445,8.446903716367233,Chinese Restaurant
740,47.4,8.45,25,23,4cc5b91701fb236a5051b3ba,Casa Amici,47.398139,8.450299,Italian Restaurant
741,47.4,8.45,25,24,5f5bbce16e9fd17584d913b7,Be Heroes,47.398815,8.445599,Asian Restaurant
742,47.4,8.464285714285714,5,0,50b5eb19e4b0dffb8d3aa841,LiLi,47.398281,8.459611,Asian Restaurant
743,47.4,8.464285714285714,5,1,55959545498e3b95e284d7ab,NASSO,47.399194269161065,8.463932080488647,Swiss Restaurant
744,47.4,8.464285714285714,5,2,4d44d2a07e2e54814cbe648f,Restaurant Red Floor,47.399215064154745,8.459622826686799,Italian Restaurant
745,47.4,8.464285714285714,5,3,51baf7fa498ed5bbc6eb4e31,Lotus Vietnam,47.398425068663336,8.45940966498835,Asian Restaurant
746,47.4,8.464285714285714,5,4,4e837951b634c48ffcf9e233,Restaurant Bambus,47.39692799273617,8.464231886618032,Chinese Restaurant
747,47.4,8.478571428571428,2,0,4c4963879f2ad13a54e23753,El Pote,47.39675,8.482258,Spanish Restaurant
748,47.4,8.478571428571428,2,1,4d1e4dfbe56f6ea8b6b6631d,Restaurant Pantheon,47.3977254,8.4762777,Italian Restaurant
749,47.4,8.492857142857142,6,0,4c7f4994f4cf9c74ce7aa2a0,Desperado,47.402082893689276,8.496903416900574,Mexican Restaurant
750,47.4,8.492857142857142,6,1,4c8b13db2e333704451fca41,Osteria da Biagio,47.402246,8.495034,Italian Restaurant
751,47.4,8.492857142857142,6,2,4eb43070dab4fe51111a6a9e,departamento dinner,47.403023126748494,8.49105093900945,Argentinian Restaurant
752,47.4,8.492857142857142,6,3,4b05888bf964a520bdcc22e3,Maharani,47.40277902862428,8.492496013641357,Indian Restaurant
753,47.4,8.492857142857142,6,4,5bfda65cb399f7002c0b002c,Restaurant Payam,47.399166,8.497837,Persian Restaurant
754,47.4,8.492857142857142,6,5,5828ca4f878188626a055f22,Restaurant Hönggerhof,47.399441,8.495816,Mediterranean Restaurant
755,47.4,8.507142857142858,1,0,4e73e56552b1c8e518c18feb,Guido's alte Trotte,47.397945,8.506993,Swiss Restaurant
756,47.4,8.521428571428572,1,0,4b05888af964a52093cc22e3,Restaurant Die Waid,47.399875738465965,8.515438352970447,Swiss Restaurant
757,47.4,8.535714285714286,8,0,4b05888bf964a520bbcc22e3,Restaurant Kerala,47.40204562908591,8.535178473680286,Indian Restaurant
758,47.4,8.535714285714286,8,1,524b40fc11d299c8c4c9caa2,Chäsalp,47.397390848995734,8.541105233427492,Swiss Restaurant
759,47.4,8.535714285714286,8,2,4d0cfd243bbaa14300dc39da,Asia Ming,47.397990312960225,8.533091057390683,Asian Restaurant
760,47.4,8.535714285714286,8,3,4b8811dbf964a5205cdd31e3,Madras Curry House,47.3979176170181,8.540355415215856,Indian Restaurant
761,47.4,8.535714285714286,8,4,50009afce4b062a7b1f78b1b,Restaurant Meister Gao,47.39715514594286,8.53221284259897,Chinese Restaurant
762,47.4,8.535714285714286,8,5,5ef8cf32579b510008d12ab6,Restaurant ANNA,47.39946032342715,8.540191054344177,Italian Restaurant
763,47.4,8.535714285714286,8,6,4c1545c377cea593c7f4d160,Restaurant fallender Brunnenhof,47.4026484521374,8.535619361346805,Swiss Restaurant
764,47.4,8.535714285714286,8,7,4d664024c8dbec4a21d9eccc,Pauschaltschingg,47.403766,8.534483,Italian Restaurant
765,47.4,8.55,9,0,4c55446572cf0f473906efd5,Wirtschaft Neubühl,47.39701489372935,8.545420185611045,Swiss Restaurant
766,47.4,8.55,9,1,4db69f6d81543d71da6f9591,Il Postino Pizzeria,47.40003067111581,8.543463714466437,Pizza Place
767,47.4,8.55,9,2,4b642636f964a52057a12ae3,Phüan Gan,47.40270808363941,8.547582521603545,Asian Restaurant
768,47.4,8.55,9,3,4f36946ae4b0fb0dfbf1cddb,Thai sun garden,47.4017682512826,8.553282972812966,Thai Restaurant
769,47.4,8.55,9,4,4cf937235698a09317d609fc,Restaurant Zürcherhof,47.40283158692572,8.550869334036001,Swiss Restaurant
770,47.4,8.55,9,5,5729bb2ecd10286d0b4b0170,UZH asia mensa,47.396648,8.550094,Asian Restaurant
771,47.4,8.55,9,6,4c234aa59a67a59326bfdd87,Apollo Taverna,47.40267179044987,8.550896145939891,Taverna
772,47.4,8.55,9,7,4bf56ed6706e20a1d275aa98,Smeiley's,47.40265117913374,8.550894274945087,Swiss Restaurant
773,47.4,8.55,9,8,4d3c7c5d84d46ea8be71fe5c,Kwang Chow,47.40111619472081,8.544880054480219,Asian Restaurant
774,47.4,8.57857142857143,1,0,4c2e1b7b4e132d7f108b9ddf,Ziegelhütte,47.399476582088845,8.572729011202272,Swiss Restaurant
775,47.4,8.592857142857143,1,0,4dd2591cd4c0febf0fe2c96b,Steakhaus Mattenhof,47.398982,8.590858,Steakhouse
776,47.4,8.607142857142858,4,0,4b4b9777f964a52045a126e3,Sorriso,47.39572093990475,8.607633639752443,Italian Restaurant
777,47.4,8.607142857142858,4,1,57ff7073d67ce8dcf6fd92e3,fullhouse döner&kebab,47.40108,8.604465,Doner Restaurant
778,47.4,8.607142857142858,4,2,5d3487c73fa42a0008e1025b,Hola Gasthaus,47.395973,8.609123,Spanish Restaurant
779,47.4,8.607142857142858,4,3,51699946e4b038b9323702e0,City und wellness Restaurant,47.397325,8.605796,Eastern European Restaurant
780,47.4,8.621428571428572,6,0,4b69c83df964a520e1b32be3,Rest. Saal Dübendorf,47.40001779659421,8.622839513735496,Swiss Restaurant
781,47.4,8.621428571428572,6,1,4d0bcdeddd5fa1cd8c255b89,Sternen Peppino,47.39829923004984,8.62094180236636,Spanish Restaurant
782,47.4,8.621428571428572,6,2,4b9f6963f964a5200c2137e3,Peking Garden,47.3991619959199,8.621239482120949,Chinese Restaurant
783,47.4,8.621428571428572,6,3,524c5f98498eabd592a5b1db,Restaurant Hürlimann,47.396918,8.617331,Swiss Restaurant
784,47.4,8.621428571428572,6,4,4d89e8da4757721eec0aab69,Restaurant Hecht,47.397657134123,8.619258675544067,Swiss Restaurant
785,47.4,8.621428571428572,6,5,52bc663111d20c1990608d1f,beim yaprak,47.40018747169016,8.622376063282065,Middle Eastern Restaurant
786,47.41,8.407142857142857,12,0,59b3b129eacf4567b75b037a,Marmara Turkisch Restaurant Take Away,47.40643,8.404093,Turkish Restaurant
787,47.41,8.407142857142857,12,1,5f3f98fbd8073f503a6a8a17,Burek Tetova 1,47.408378,8.40594,Eastern European Restaurant
788,47.41,8.407142857142857,12,2,53aebaff498e81285138fde9,Domino's Pizza,47.41016822411559,8.404771777306149,American Restaurant
789,47.41,8.407142857142857,12,3,53d63097498eecb01f6235dc,Serratore,47.410339,8.404756,Italian Restaurant
790,47.41,8.407142857142857,12,4,5495a9b9498eb35d950d9ce5,Fondue Chalet,47.41017627072096,8.40467024868032,Swiss Restaurant
791,47.41,8.407142857142857,12,5,51b1f6e5498e57989f83e115,TOMATE,47.4085807800293,8.405611991882324,Italian Restaurant
792,47.41,8.407142857142857,12,6,59be9f2458002c35fed9d4af,Pergola,47.406838,8.405411,Italian Restaurant
793,47.41,8.407142857142857,12,7,4f86f803e4b0da777580cc4d,Bahnhof Imbiss,47.406534183679746,8.40414315511451,Turkish Restaurant
794,47.41,8.407142857142857,12,8,513253e8e4b0d70761d10798,Mommy & Daddy,47.40956,8.406384,Turkish Restaurant
795,47.41,8.407142857142857,12,9,50d5a115e4b00d641ab841eb,Foodbar,47.40938882134094,8.404884207484717,Asian Restaurant
796,47.41,8.407142857142857,12,10,57c470d7cd1061b67bcff14c,Chaiyo Restaurant,47.407913,8.405805,Thai Restaurant
797,47.41,8.407142857142857,12,11,5f63468038fc1a4163347b30,nama take me out,47.410371,8.405076,Sushi Restaurant
798,47.41,8.435714285714285,2,0,52382ee9498e4688327435a1,Thai Food,47.41297509938596,8.43946310320719,Thai Restaurant
799,47.41,8.435714285714285,2,1,4d77f5cc2b4b6ea8aa8e49fe,Restaurant Insel,47.411548,8.430305,Swiss Restaurant
800,47.41,8.45,3,0,4d8c81de5091a1cd601d6101,Mandarin China Restaurant,47.412882508704115,8.449855951662519,Chinese Restaurant
801,47.41,8.45,3,1,4b05888bf964a520bfcc22e3,Restaurant Taj Palace,47.4109,8.45385,Indian Restaurant
802,47.41,8.45,3,2,5137c31de4b0ca7b39407dcb,Noura Take Away,47.406476,8.447695,Middle Eastern Restaurant
803,47.41,8.464285714285714,1,0,5d5a7b1d9ccd2d000895b3d5,thai curry original food,47.40826,8.465443,Thai Restaurant
804,47.41,8.478571428571428,2,0,4df7997f22717445a0b643c0,Ristorante da Noi,47.4138649,8.4788837,Italian Restaurant
805,47.41,8.478571428571428,2,1,56a349b4498ef4b16beca0af,İsviçre,47.410139891601354,8.475474644058405,German Restaurant
806,47.41,8.507142857142858,2,0,4ddcec121f6e54b34d946143,WoKa - Wok & Kaffeebar,47.410133,8.50859,Asian Restaurant
807,47.41,8.507142857142858,2,1,5ba21622ad910e002c145555,Rice Up,47.410267,8.508628,Asian Restaurant
808,47.41,8.521428571428572,2,0,599b2020747ecd268b056f6a,Sultan Sofrası Ali Ustanın Yeri,47.411398,8.526211,Theme Restaurant
809,47.41,8.521428571428572,2,1,53318997498e601c4fe44d94,Restaurant Hirschen,47.41213225058682,8.524278118401357,Greek Restaurant
810,47.41,8.535714285714286,14,0,53a056e0498e79c674f82a24,"Lemon Food & drinks, Karatas",47.40931243406731,8.5382831055743,Kebab Restaurant
811,47.41,8.535714285714286,14,1,4fe0a6abe4b096aa580a6d0b,Restaurant Hofwiesen,47.406335572609116,8.537707760388214,Austrian Restaurant
812,47.41,8.535714285714286,14,2,54c4017e498edeaa806600b5,Taj Mahal Restaurant,47.409343021404865,8.538208631385887,Indian Restaurant
813,47.41,8.535714285714286,14,3,520bb8fa11d26720d8ef1bbe,Datto Sushi Bar,47.41325278331313,8.538566105131315,Japanese Restaurant
814,47.41,8.535714285714286,14,4,4b858ce8f964a520fa6431e3,Restaurant WAAG,47.413662,8.534162,Thai Restaurant
815,47.41,8.535714285714286,14,5,4c98d31007916dcbf660ef1b,Harmonie,47.41122105873888,8.532810012259253,Italian Restaurant
816,47.41,8.535714285714286,14,6,4c482357c047be9a33bf3279,Restaurant Sunneschii,47.409138679504395,8.53787899017334,Italian Restaurant
817,47.41,8.535714285714286,14,7,5148541be4b07d65d6d6a5b8,Delicious Dumpling,47.409889,8.535112,Asian Restaurant
818,47.41,8.535714285714286,14,8,4c00ee9e19d8c928110c8829,Hong-Kong Food Paradise,47.4134038797461,8.539254504570797,Chinese Restaurant
819,47.41,8.535714285714286,14,9,4f5a6c0ee4b00984be3200cd,Witschi,47.40888904303665,8.52934490749135,French Restaurant
820,47.41,8.535714285714286,14,10,4b7d2222f964a520b7af2fe3,Restaurant Trinacria,47.4083473,8.537112751885347,Italian Restaurant
821,47.41,8.535714285714286,14,11,4cff91742ba98eecc11855fd,Octavo sein & dine,47.4131985493579,8.537009954452515,Swiss Restaurant
822,47.41,8.535714285714286,14,12,4b6e8820f964a520efc02ce3,Giesserei,47.40854193467379,8.537549615277477,Swiss Restaurant
823,47.41,8.535714285714286,14,13,5307d49b498eaf4d68c0b75d,Associação Portuguesa de Zurique,47.406772946662606,8.536663313849639,Portuguese Restaurant
824,47.41,8.55,43,0,5fb554d7f27e704e23bfc7f3,Popeyes Louisiana Kitchen,47.411261,8.544817,Fried Chicken Joint
825,47.41,8.55,43,1,4be44be52468c9288d8ffe42,Asiaway,47.408093125292154,8.547274951764816,Vietnamese Restaurant
826,47.41,8.55,43,2,5a0f38c0f5e9d710c602e799,Brasserie Oerlikon,47.41143427374024,8.544176816940308,Beer Bar
827,47.41,8.55,43,3,4e4bf4501f6e2a789a8e3f66,Le Muh,47.41110963952079,8.544174913299504,Swiss Restaurant
828,47.41,8.55,43,4,4bdac1022a3a0f47dbdbabb6,Mamma Mia,47.410706,8.544801,Italian Restaurant
829,47.41,8.55,43,5,573df6da498e18baa70b35cf,Tamarind Hill,47.406839,8.548231,Indian Restaurant
830,47.41,8.55,43,6,4b4b8bd0f964a520d09f26e3,Restaurant Cheyenne,47.41002460634192,8.545837665465802,American Restaurant
831,47.41,8.55,43,7,4ca0eb3b542b224be82e0aa0,Tres Amigos,47.409965763078475,8.544662115570532,Mexican Restaurant
832,47.41,8.55,43,8,57837c96498e5f3bf246a031,Jao Praya,47.409015,8.54784,Thai Restaurant
833,47.41,8.55,43,9,50f15cf472da95fc8f99bca4,Brasserie Ö,47.40858807491452,8.546268939971924,French Restaurant
834,47.41,8.55,43,10,4bf1911fd39ad13ac364aa0e,Restaurant Fine Choice,47.41150682779315,8.54490164136989,Chinese Restaurant
835,47.41,8.55,43,11,51f7fe58498ec5ce86fd139d,Doenerburger,47.41000655650764,8.546853724906768,Turkish Restaurant
836,47.41,8.55,43,12,5356a376498e5b00c4675c78,Lam Take Away Restaurant,47.41279983520508,8.545207023620605,Chinese Restaurant
837,47.41,8.55,43,13,4dc90de3d164033c5736db99,Café Dorflinde,47.40725121154859,8.549874728740093,Swiss Restaurant
838,47.41,8.55,43,14,527962d2498ecc6c44951ad3,Salt & Pepper,47.41129096574608,8.54557948374855,Italian Restaurant
839,47.41,8.55,43,15,57c07e99498e8d0a6ec07918,seven's doner kebap,47.410759,8.545113,Turkish Restaurant
840,47.41,8.55,43,16,50af9cf6e4b0a7121168b6fe,Simit Sarayi,47.406638,8.549223,Turkish Restaurant
841,47.41,8.55,43,17,553a222b498edbb29407086f,Café China-Restaurant,47.40927505493164,8.543760299682617,Chinese Restaurant
842,47.41,8.55,43,18,4c09392a009a0f470160e7bf,Metzgerhalle,47.410210790387296,8.546467978461084,Swiss Restaurant
843,47.41,8.55,43,19,4f54f934e4b0c416073869d2,Thaifood Express,47.406978393155576,8.550793948313183,Thai Restaurant
844,47.41,8.55,43,20,51ff8e64498e6222ea68ba11,Dönburger Take Away,47.41103675673033,8.545315098017458,Fast Food Restaurant
845,47.41,8.55,43,21,59985f5facb00b41b904d113,Restaurant Henne,47.407463,8.548103,Swiss Restaurant
846,47.41,8.55,43,22,4e6f8bad45dd49e0f1d43aee,King's Kurry - Little India,47.411346,8.544611,Indian Restaurant
847,47.41,8.55,43,23,51dc8e4b498ea9db8a5eec59,Toros Imbiss,47.409105,8.545559,Middle Eastern Restaurant
848,47.41,8.55,43,24,4cea56320f196dcba81151ae,Tschingg,47.40974578841004,8.546142311264937,Italian Restaurant
849,47.41,8.55,43,25,4fbe0350e4b02f0da7569fa9,Lin's,47.407862,8.547326,Asian Restaurant
850,47.41,8.55,43,26,52013213498e9178ab9e16af,Little Nooch Asian Streetfood,47.41123460919642,8.543782532215117,Asian Restaurant
851,47.41,8.55,43,27,4e0c4d5b62e12464ea880e35,Papagallo,47.41041995967134,8.548468992489326,Italian Restaurant
852,47.41,8.55,43,28,5d72b76285b85b0008affb7a,Simsim,47.407545,8.547894,Lebanese Restaurant
853,47.41,8.55,43,29,4ece88efbe7b9eecddd33ba5,Paul's Chässtübli,47.40906924184149,8.547017067754869,Swiss Restaurant
854,47.41,8.55,43,30,4b42fb0ff964a5206adb25e3,Pizzeria Furetto,47.410241475,8.547067499999999,Italian Restaurant
855,47.41,8.55,43,31,587a4f5175e13712979559b0,concerto,47.410266,8.546129,Italian Restaurant
856,47.41,8.55,43,32,52decf57498e8ab85f08150b,Paul's Chäs Stübli,47.409165,8.547427,Swiss Restaurant
857,47.41,8.55,43,33,546b33e9498eb4633ab66e0a,Argentina Steakhouse,47.41365254602483,8.552103791284027,Argentinian Restaurant
858,47.41,8.55,43,34,51b9a254498e165e6cdfe0f7,Papagallo,47.41377866464916,8.55213795870615,Italian Restaurant
859,47.41,8.55,43,35,4fb22668e4b0b9253b45fefe,Schnitzelhuus,47.40682565521076,8.550753344250529,Austrian Restaurant
860,47.41,8.55,43,36,5343c800498e84d51a66646d,Yellow,47.411388,8.553259,Swiss Restaurant
861,47.41,8.55,43,37,4dd3a10ffa76c0bf024969b2,Cafe Dallas,47.41252212765246,8.545239239372231,Swiss Restaurant
862,47.41,8.55,43,38,4dc922aefa761aaccae6893f,Restaurant Tokyo Avenue,47.412246925551344,8.552284394566602,Asian Restaurant
863,47.41,8.55,43,39,4d43f0b9bf61a1cdc65c03ac,Asian Take-Away & Restaurant,47.411310560358935,8.54501065608432,Asian Restaurant
864,47.41,8.55,43,40,4d77d0059ee9a35d029bb8f8,Dapur Indonesia,47.41175795862873,8.54657920653173,Indonesian Restaurant
865,47.41,8.55,43,41,4b197fd0f964a52079de23e3,Szenario restaurant,47.411302811121494,8.544210735850415,French Restaurant
866,47.41,8.55,43,42,5255b4ad11d27db63ff4df55,Malabar,47.410337086340014,8.548541435228897,Indian Restaurant
867,47.41,8.564285714285715,2,0,4eadb1ac7beb1696035fffbc,Restaurant Dreispitz,47.40811611381397,8.565666675567627,Italian Restaurant
868,47.41,8.564285714285715,2,1,4f79def1e4b067aa31c60e83,Hotel Mamma,47.410768287431274,8.56318555978348,Swiss Restaurant
869,47.41,8.592857142857143,13,0,54b9487f498e9dd85f1db8a8,Nooch,47.4100203666593,8.595296284403538,Asian Restaurant
870,47.41,8.592857142857143,13,1,4c90bc837088a1431da3aa43,Yooji's,47.408588891817686,8.595244010214977,Sushi Restaurant
871,47.41,8.592857142857143,13,2,4dbee5e06a23a3c473af73d7,SPIGA Ristorante & Bar,47.408514722374186,8.595250812850061,Italian Restaurant
872,47.41,8.592857142857143,13,3,5278d6c411d213a0f87d5e96,Zapote,47.40999846453287,8.5952138341553,Mexican Restaurant
873,47.41,8.592857142857143,13,4,4f268943e4b012e0312860bf,Il Faro,47.413047,8.5924334,Italian Restaurant
874,47.41,8.592857142857143,13,5,544abb89498e2c55cc0d13d9,Sahar,47.40983309458003,8.595554398771707,Indian Restaurant
875,47.41,8.592857142857143,13,6,584fecc57d66be2e000dc38d,Sushi-Karte,47.408382,8.59605,Japanese Restaurant
876,47.41,8.592857142857143,13,7,53be7891498eae8fde8de4c9,4Foods,47.410098,8.591946,Asian Restaurant
877,47.41,8.592857142857143,13,8,5508847c498e8cd3b7064719,Andulino,47.409940617884565,8.594847899340241,Italian Restaurant
878,47.41,8.592857142857143,13,9,52ef83e2498e90fc04d41567,Schokolato,47.410156407579315,8.595085144042969,Breakfast Spot
879,47.41,8.592857142857143,13,10,4bc8381714d7952143a968e9,Molino,47.40838292151937,8.595693868326133,Italian Restaurant
880,47.41,8.592857142857143,13,11,4e7a41768998c6d2897ea196,Restaurant Pizzeria Krone,47.408935,8.597381,Italian Restaurant
881,47.41,8.592857142857143,13,12,5b1953f235f983002c9a1e5e,Kaimug,47.408761,8.595653,Asian Restaurant
882,47.41,8.621428571428572,3,0,5116b726e4b01c59425ed410,Picasso Pizzeria,47.412787467992935,8.61970054689324,Italian Restaurant
883,47.41,8.621428571428572,3,1,4b472546f964a520ec2b26e3,Desperado,47.41396777331592,8.622002560435204,Mexican Restaurant
884,47.41,8.621428571428572,3,2,4bd6ca286f649521744d71ec,Dieci Ristoranti,47.41405646061925,8.621281659441241,Italian Restaurant
885,47.41,8.635714285714286,1,0,4d6e2eccffedf04d9ee45ec5,Restaurant Foerliwis,47.41408,8.635391,Swiss Restaurant
886,47.41,8.65,2,0,57f0d5e6498ec9f0b2fffd92,Wirthschaft Zum Rebstock,47.41114,8.645191,Swiss Restaurant
887,47.41,8.65,2,1,57f0d58a498e96e116d4eebf,Fondue Stübli,47.41126,8.645179,Swiss Restaurant
888,47.42,8.364285714285714,6,0,5213493411d2db5191e974d0,Restaurant Swiss,47.422324,8.362124,Swiss Restaurant
889,47.42,8.364285714285714,6,1,5234b25e11d2bfb61778ed21,Osmanliı mutfağı,47.42105587474248,8.370019143610667,Mediterranean Restaurant
890,47.42,8.364285714285714,6,2,4fbfb86ae4b02131f9e9842b,Restaurant Central,47.419366492427955,8.36598676357391,Swiss Restaurant
891,47.42,8.364285714285714,6,3,509d1f403d7c56bd1382ba4b,a mo',47.42157343674613,8.368162130319714,Italian Restaurant
892,47.42,8.364285714285714,6,4,514c68aae4b00a5d00524d11,Restaurant Umweltarena,47.42252250730753,8.36677825985627,Arepa Restaurant
893,47.42,8.364285714285714,6,5,564f8f83498e080c4ee9b55d,Restaurant suisse,47.420446,8.364913,Swiss Restaurant
894,47.42,8.378571428571428,4,0,5f7c4a98ed73ba25da9eca33,Limmig Restaurant,47.4175,8.377633,Swiss Restaurant
895,47.42,8.378571428571428,4,1,4ec55b0c991123243706faaa,Ikea Restaurant,47.42147242421843,8.375113876758878,Scandinavian Restaurant
896,47.42,8.378571428571428,4,2,55105fcd498e5529e6cc4570,piccolino pizza express,47.420038,8.37526,Turkish Restaurant
897,47.42,8.378571428571428,4,3,5ece93f85ccc14000895ea5f,Mus-Et,47.420361,8.37538,Turkish Restaurant
898,47.42,8.392857142857142,2,0,522efa3411d24f9acd05e491,Fanclub 46,47.418457781951076,8.398708179191251,Italian Restaurant
899,47.42,8.392857142857142,2,1,4bdab9b42a3a0f47cbc6abb6,Pasta e Pizza,47.41914042786512,8.397873759567332,Italian Restaurant
900,47.42,8.407142857142857,4,0,5b3f55eed1a402002cd1e138,Siam Blossom,47.419446,8.413182,Thai Restaurant
901,47.42,8.407142857142857,4,1,5b3f55b0acb00b0039f36608,Siam Blossom,47.41955,8.413064,Thai Restaurant
902,47.42,8.407142857142857,4,2,4cdd8e1d825e721eb5c46445,Pizzeria Del Paese,47.42244596990059,8.41024803374479,Italian Restaurant
903,47.42,8.407142857142857,4,3,506d7232e4b0dbcc80fb61a1,Pizzeria Geroldswil,47.42212134418333,8.409997331161769,Italian Restaurant
904,47.42,8.435714285714285,1,0,4f2adaf6e4b09f1286eabc5d,Linde,47.41978531972141,8.434614659332702,Swiss Restaurant
905,47.42,8.478571428571428,1,0,4bc1b94ef8219c7493b5b310,Restaurant Grünwald,47.417947246163855,8.482354668777768,Swiss Restaurant
906,47.42,8.507142857142858,5,0,5b8a8b4a3c858d002c98fd25,Doner Kebab,47.421034,8.502159,Turkish Restaurant
907,47.42,8.507142857142858,5,1,4e5fd77bc65bfe3fcc535023,Krone Affoltern,47.41932281646528,8.505149136280808,Swiss Restaurant
908,47.42,8.507142857142858,5,2,58404e2e6ad73d440c651959,Brasil - Grill im Kronenhof,47.4192122,8.5055409,Brazilian Restaurant
909,47.42,8.507142857142858,5,3,4e04c6bb2271233b767e61b9,Pizzeria Pippone,47.41862794958685,8.50609785255146,Italian Restaurant
910,47.42,8.507142857142858,5,4,4d1c7ea03412594179cccb17,Pizzeria Piazza,47.419276043660105,8.505977813532924,Italian Restaurant
911,47.42,8.521428571428572,1,0,5144bceae4b076f4a5153afc,Villa Bacco,47.421268,8.522999,Italian Restaurant
912,47.42,8.535714285714286,2,0,4e46a770d4c065cb6ba1e69d,Pizzeria Fantasia,47.419918788097135,8.535643815671758,Italian Restaurant
913,47.42,8.535714285714286,2,1,4cb2efa7db32f04d215fd34d,Tandoor House,47.422446,8.54063,Indian Restaurant
914,47.42,8.55,13,0,51a83aaa498ea3f1201701bf,Chez Prof Dr,47.41987817739807,8.544173955960266,Swiss Restaurant
915,47.42,8.55,13,1,4e08cfeed1640223a4a52c09,La Rustica,47.417923522222225,8.546414955555555,Italian Restaurant
916,47.42,8.55,13,2,5211fab511d286b523f02b82,Bistro Antep,47.417813,8.546217,Turkish Restaurant
917,47.42,8.55,13,3,502cb5e5e4b089f5e555e34c,Da Pepino,47.419797,8.548051,Italian Restaurant
918,47.42,8.55,13,4,57f13fb8498eb3d808ea9f4d,Restaurant Zizo,47.420232,8.548654,Middle Eastern Restaurant
919,47.42,8.55,13,5,55ba073e498ec06d52be299c,Parmigiano Ristorante Pizzeria,47.41979831880875,8.548201444355835,Italian Restaurant
920,47.42,8.55,13,6,529dbefb11d2ae93bbeaf75d,Đồng Quê,47.420124,8.548454,Vietnamese Restaurant
921,47.42,8.55,13,7,566b2401498e340424eca86f,Mi Mi Sa,47.419151,8.547102,Korean Restaurant
922,47.42,8.55,13,8,548d791c498e0c4238fd479a,Restaurant Landhuus,47.421545,8.549546,Eastern European Restaurant
923,47.42,8.55,13,9,511690ece4b059beb57b10b6,Restaurant Ganges,47.419277,8.547636,Indian Restaurant
924,47.42,8.55,13,10,4bdb0c2a2a3a0f477321adb6,Galinha's,47.42018208146474,8.54849,African Restaurant
925,47.42,8.55,13,11,4fad2b34e4b021d749c5bbe3,felsenberg,47.418398,8.544699,Swiss Restaurant
926,47.42,8.55,13,12,5a81ecbe9e0d5405468e74d5,Moreeda,47.420338,8.548629,Thai Restaurant
927,47.42,8.564285714285715,10,0,5540af7a498eba8ec9850294,Stars and Stripes American Bar,47.4205084492822,8.558772090259312,American Restaurant
928,47.42,8.564285714285715,10,1,58e615eeef469452ec65f9f6,Siam Square,47.424053,8.562464,Thai Restaurant
929,47.42,8.564285714285715,10,2,4c190e06fe5a76b095fc0215,Ristorante Pizzeria Lilienthal,47.423840050005985,8.562320673681954,Pizza Place
930,47.42,8.564285714285715,10,3,4e96676e8231e0b8ae7faf91,Gourmet-Tempel Orion,47.417752,8.565912,Swiss Restaurant
931,47.42,8.564285714285715,10,4,5f1c69dd99ff5217a6bf0b02,Casacosi,47.418405,8.561691,Italian Restaurant
932,47.42,8.564285714285715,10,5,54fae223498e7a31390bb900,Japanese Fine Dining Restaurant Yu Nijyo,47.42284733292778,8.559541460874389,Japanese Restaurant
933,47.42,8.564285714285715,10,6,5a62197029551346c9b8abab,Chipotle Express,47.41961,8.558688,Burrito Place
934,47.42,8.564285714285715,10,7,57d986f8498e83886d94f307,Burgers & Shakes,47.42238013177857,8.560946864089336,American Restaurant
935,47.42,8.564285714285715,10,8,4cac9efd44a8224b77083540,Restaurant Liliental,47.42365830368171,8.562351715211571,Italian Restaurant
936,47.42,8.564285714285715,10,9,52321d9e11d2e196383f7427,Asia Place,47.42261950119231,8.564120953750301,Asian Restaurant
937,47.42,8.592857142857143,1,0,4c287660ed0ac9b6173560aa,Restaurant Schmiedstube Da Pepino,47.41990853549558,8.59888347926124,Italian Restaurant
938,47.42,8.621428571428572,6,0,4d01541794c5b1f7133051de,Restaurant Bühl,47.4224652219943,8.617232515495267,Swiss Restaurant
939,47.42,8.621428571428572,6,1,4e626953aeb7360314e8765b,Restaurant Bahnhof / San Marco,47.42112654165416,8.619533796425086,Italian Restaurant
940,47.42,8.621428571428572,6,2,57f5eae1498e653facd35a04,Trattoria San Marco,47.420856,8.620047,Italian Restaurant
941,47.42,8.621428571428572,6,3,4c9a2be4db10b60cf94e906d,Flamingo,47.41996232635059,8.626519930575967,Australian Restaurant
942,47.42,8.621428571428572,6,4,4f47bfafe4b08df2fac2edbc,Restaurant Rosengarten,47.42312836137687,8.61830501148854,Swiss Restaurant
943,47.42,8.621428571428572,6,5,4bb76bef46d4a593a46fc7c0,Felini,47.420736,8.619764,Italian Restaurant
944,47.42,8.635714285714286,2,0,56bb24ee498ed1d45bae1f1e,Lucky Panda,47.41725273417478,8.631271710901933,Chinese Restaurant
945,47.42,8.635714285714286,2,1,4d6b849ad2596ea88b3a7220,Restaurant LaTavola,47.41996060019384,8.629879901670693,Italian Restaurant
946,47.43,8.35,1,0,4c2e2138e307d13accfb0eda,Pizzeria Victoria,47.431286,8.35436,Italian Restaurant
947,47.43,8.364285714285714,2,0,5bcc7da9c03635002c04c019,Lenzo Palace,47.42845,8.359781,Turkish Restaurant
948,47.43,8.364285714285714,2,1,54cca88b498ebdd6b18424d0,Happy Restaurant Pizzeria,47.43122616658824,8.366943896485148,Mediterranean Restaurant
949,47.43,8.464285714285714,10,0,4bd70cc9304fce72fb1633ab,Mövenpick Hotel Zürich-Regensdorf,47.43133359933917,8.467797393073809,Hotel
950,47.43,8.464285714285714,10,1,4e69072514954826adeec7fa,Trattoria Ciao,47.43101734,8.46821873,Restaurant
951,47.43,8.464285714285714,10,2,53751a01498eaf6424c7b3af,asiatown restaurant,47.431095123291016,8.467923164367676,Cantonese Restaurant
952,47.43,8.464285714285714,10,3,4e21d73fa80968cf3e43e7aa,Bar Nabas,47.42911499204576,8.467863805764496,Snack Place
953,47.43,8.464285714285714,10,4,508bf921e4b0c9eb71c9aa12,Kebap Treff,47.429215,8.46787,Turkish Restaurant
954,47.43,8.464285714285714,10,5,4b058887f964a520c9cb22e3,Hirschen,47.43010061018497,8.465386620874979,Swiss Restaurant
955,47.43,8.464285714285714,10,6,4ec819c10e017e2f9aac06f2,Buddha Bar,47.429606037728334,8.464828165543615,Thai Restaurant
956,47.43,8.464285714285714,10,7,50f5a575e4b046fbc9c3c224,Gasthof Hirschen,47.4294565755574,8.469098865485043,Swiss Restaurant
957,47.43,8.464285714285714,10,8,56d04409498ef5241efc999c,take away china restaurant,47.43129547025649,8.468497862062696,Cantonese Restaurant
958,47.43,8.464285714285714,10,9,507ec224e4b0894ae74c26e1,Rägi Snack,47.432975,8.46782,Turkish Restaurant
959,47.43,8.507142857142858,2,0,594c4ae2135b395f12b04359,Bünter Roland,47.42614193213415,8.505414635581928,Restaurant
960,47.43,8.507142857142858,2,1,4ddd294f45ddaa53edb9325b,Wirtschaft Unterdorf,47.42620461147493,8.505333350064848,Swiss Restaurant
961,47.43,8.55,1,0,4ed7d1860e0189600ba3e67f,il tricolore,47.4298290838238,8.544734448336479,Italian Restaurant
962,47.43,8.564285714285715,18,0,4b4b1fdef964a520af9226e3,Peking Garden,47.430366136378325,8.561209684200172,Chinese Restaurant
963,47.43,8.564285714285715,18,1,550ffc2f498e188b7aa1b3a0,Moma,47.43396594939031,8.56144187490376,Italian Restaurant
964,47.43,8.564285714285715,18,2,4e11a274ae602afe96be6b4a,China Fast & Good,47.433932626133455,8.566220596825284,Chinese Restaurant
965,47.43,8.564285714285715,18,3,4b6edbccf964a520b5cd2ce3,Mamma Mia,47.429885070641255,8.561119331062415,Italian Restaurant
966,47.43,8.564285714285715,18,4,4ea561898231f6dc6b3d9812,Suan Long,47.43097647816267,8.562302643800171,Thai Restaurant
967,47.43,8.564285714285715,18,5,4bc847848b7c9c74afcb37cf,Cameleon,47.43043562706035,8.560824596071031,Italian Restaurant
968,47.43,8.564285714285715,18,6,5304e953498e8936ea31f350,Bruno's Restaurant,47.43136059859365,8.560744549620976,Thai Restaurant
969,47.43,8.564285714285715,18,7,4d4afd8fb480a143bc6e35ec,Levante,47.43266181276572,8.56469960975663,Argentinian Restaurant
970,47.43,8.564285714285715,18,8,4da6e34b561447b1ad8a29f1,Löwen,47.433932,8.566166,Mexican Restaurant
971,47.43,8.564285714285715,18,9,4c442dc0429a0f47f152481e,deliplan,47.43157275584972,8.559558957106027,Swiss Restaurant
972,47.43,8.564285714285715,18,10,4bac97b3f964a52003fd3ae3,Paninoteca da Fabio,47.43028122656704,8.560827272164508,Italian Restaurant
973,47.43,8.564285714285715,18,11,53e41053498e80f80ba6e4e2,Hotel Muri,47.428350799628774,8.562442452278775,African Restaurant
974,47.43,8.564285714285715,18,12,4bdf19a90ee3a59323f332b0,Fujiya of Japan,47.431451662671506,8.566767813434991,Japanese Restaurant
975,47.43,8.564285714285715,18,13,5c17830541b6c90025716457,Urban Spice,47.431482,8.559743,Indian Restaurant
976,47.43,8.564285714285715,18,14,4c763c5f3adda143307209af,Pasta Imbiss,47.43282,8.560431,Asian Restaurant
977,47.43,8.564285714285715,18,15,5d528e28a7902b0007e185c5,Bai Tong Thai Food Takeaway,47.431015,8.560729,Thai Restaurant
978,47.43,8.564285714285715,18,16,53a806a7498e5c9d634e8b12,Gogi's Take Away,47.43223392260975,8.559841502995695,Thai Restaurant
979,47.43,8.564285714285715,18,17,4ba8a995f964a5206be539e3,Casa Alegria,47.43371615931146,8.566037249671998,Mexican Restaurant
980,47.43,8.57857142857143,4,0,54245b0b498e6b801586dbbe,Wunderbrunnen,47.43166981046316,8.576467664233514,Swiss Restaurant
981,47.43,8.57857142857143,4,1,591871ffbed48311a1783e0d,Wirtschaft zum Stübli,47.432392,8.578606,Swiss Restaurant
982,47.43,8.57857142857143,4,2,54bba3e0498e3c65bab04c22,Stuebli,47.431571091522116,8.579163551330566,Swiss Restaurant
983,47.43,8.57857142857143,4,3,4e98133b30f87b6eacab380d,Restaurant Frohsinn,47.4317964670386,8.573050605343616,Swiss Restaurant
984,47.43,8.635714285714286,2,0,4e60f6f2b993678bb5a9df4d,Grotto,47.42869893053907,8.64188569253666,Italian Restaurant
985,47.43,8.635714285714286,2,1,4e20772da80968cf3e352af2,Restaurant Kreuzstrasse,47.42848319424646,8.641745719175317,Swiss Restaurant
986,47.44,8.364285714285714,2,0,4ca708cd44a8224bd7110940,Restaurant Blume,47.44377902163876,8.364400554385144,Italian Restaurant
987,47.44,8.364285714285714,2,1,4d7c97cce04d6ea80f24fed5,Gasthof Rössli Würenlos,47.442423,8.362669,Swiss Restaurant
988,47.44,8.407142857142857,1,0,4c3f482caf052d7f00187a79,Waldschenke Altberg,47.436155,8.407185673713684,Swiss Restaurant
989,47.44,8.435714285714285,1,0,5631ff7d498e0c215780b66c,Bai Ka Prao,47.439547,8.440162,Thai Restaurant
990,47.44,8.478571428571428,3,0,4f300fe3e4b0dbffdef4ff8a,Restaurant zum Türmli,47.44256287498247,8.482144742693656,Swiss Restaurant
991,47.44,8.478571428571428,3,1,4f9c68b1e4b0b34c43dd2ddd,Restaurant Linde,47.4426538627934,8.481140344887978,Italian Restaurant
992,47.44,8.478571428571428,3,2,529e22d711d27fc471da8eff,Thessoni,47.438721,8.476479,Italian Restaurant
993,47.44,8.564285714285715,8,0,4ef0dcdf7ee510062f1f2e81,Runway 34,47.44004285451846,8.55800356913895,Swiss Restaurant
994,47.44,8.564285714285715,8,1,4ce66258b99754812dcaef44,La Piazza,47.43895288081382,8.563048481650034,Pizza Place
995,47.44,8.564285714285715,8,2,57d853f9498e69b75fd768c1,Basilico,47.438506,8.565428,Modern European Restaurant
996,47.44,8.564285714285715,8,3,5a511d886a59501d9ec27da1,Alpenchalet,47.441284,8.57053,Swiss Restaurant
997,47.44,8.564285714285715,8,4,4de28777b0fb26714887b13c,Appenbeller Stube,47.440153,8.568425,Swiss Restaurant
998,47.44,8.564285714285715,8,5,4bfd0163bf6576b0ec92acb8,F50,47.43774738761637,8.562445446401156,Swiss Restaurant
999,47.44,8.564285714285715,8,6,5f2965de81231e5ecd545045,India,47.440982,8.567857,Indian Restaurant
1000,47.44,8.564285714285715,8,7,51c7395c498e8400095317f4,Szechuan China Restaurant,47.43813659245321,8.56021244595983,Chinese Restaurant
1001,47.44,8.57857142857143,1,0,4bfd0b588992a5935878abb0,Restaurant Bramen,47.444368,8.579033,Swiss Restaurant
1002,47.44,8.635714285714286,1,0,4d10fbe238bb6ea8dbc1c7aa,Tres Amigos,47.443506344053226,8.634572762467023,Tapas Restaurant
1003,47.44,8.65,1,0,581f3aa7195c4b4b8957ebf7,Walter,47.437517,8.649525,Italian Restaurant
1004,47.45,8.435714285714285,3,0,53a6cc71498ef405d8b09f0f,brasil bar,47.451987,8.435392,Brazilian Restaurant
1005,47.45,8.435714285714285,3,1,5b1184ff088158002cd048cc,Mr. Chow,47.449232,8.438093,Chinese Restaurant
1006,47.45,8.435714285714285,3,2,5ba0e15dc824ae002ce12e5a,Varasithy Mahall,47.44783,8.436614,Indian Restaurant
1007,47.45,8.464285714285714,1,0,5b08654eda2e0000390fc840,HotWok Sonnhalde,47.452645,8.461926,Asian Restaurant
1008,47.45,8.535714285714286,5,0,5ccc8c71dd12f80039d894cd,Ristorante L'Arco,47.45187432618388,8.530079126358032,Mediterranean Restaurant
1009,47.45,8.535714285714286,5,1,4c10c4913ce120a13e85081c,Restaurant Henry,47.45086074368806,8.530930130728288,Swiss Restaurant
1010,47.45,8.535714285714286,5,2,529b829011d289d00e4ec136,Imigine Zurich,47.450669,8.530096,Swiss Restaurant
1011,47.45,8.535714285714286,5,3,57c66014498e9fb92f2147f7,Park Inn By Radisson Zurich,47.45077,8.539946,Italian Restaurant
1012,47.45,8.535714285714286,5,4,5b2c0f0ab6eedb002ca05b42,Bocca Buona,47.450974,8.540386,Italian Restaurant
1013,47.45,8.564285714285715,15,0,4e09b2b845ddb2875c58db04,Umaizushi,47.450244686720836,8.562657789981893,Sushi Restaurant
1014,47.45,8.564285714285715,15,1,4da7fdedf7b12d2d9a012303,Marché,47.45145353808799,8.561053276062012,Swiss Restaurant
1015,47.45,8.564285714285715,15,2,5faaf3b78567ce5f921b40ec,Sablier Rooftop,47.450422,8.564805,French Restaurant
1016,47.45,8.564285714285715,15,3,51c278c6498e94e9cb7705ef,Chalet Suisse,47.452321955663855,8.561247869779312,Swiss Restaurant
1017,47.45,8.564285714285715,15,4,4fc7a9c7e4b0fd7896db78dd,Intermezzo,47.450993482057484,8.560495169601221,Italian Restaurant
1018,47.45,8.564285714285715,15,5,558e8345498e00f473ffc7bd,Walter,47.45303510347674,8.56111764907837,Swiss Restaurant
1019,47.45,8.564285714285715,15,6,4c829014d34ca143bb4f2d80,BÀCARO,47.45026754088377,8.562501561581032,Italian Restaurant
1020,47.45,8.564285714285715,15,7,5266adbc11d2aaa0781c1fc7,Scala Bistro In San Francisco,47.453327,8.561183,Italian Restaurant
1021,47.45,8.564285714285715,15,8,509d1f403d7c56bd1382ba60,Pizza&Pasta,47.45031858783206,8.562400370208273,Italian Restaurant
1022,47.45,8.564285714285715,15,9,4f4aa0aae4b08334fc6e1390,Filini Restaurant,47.4529400407716,8.563860097908659,Italian Restaurant
1023,47.45,8.564285714285715,15,10,5709875d498e4d9b9080b29d,Sushi Bar,47.45138,8.56298,Sushi Restaurant
1024,47.45,8.564285714285715,15,11,4e8f1d08f79054119ebe21ce,ASIA,47.45026370525286,8.562963008880615,Asian Restaurant
1025,47.45,8.564285714285715,15,12,5f20432f30d9040041f4fa74,Tuk Thai Urban Kitchen,47.449888,8.562589,Thai Restaurant
1026,47.45,8.564285714285715,15,13,4d8851905ecdf04d867e938a,Marché Bistro,47.45043515146424,8.562888595273517,Swiss Restaurant
1027,47.45,8.564285714285715,15,14,5d80f52e87d7e100088ba15d,Villa Antinori,47.452384,8.560848,Italian Restaurant
1028,47.45,8.57857142857143,17,0,4caca1bff47ea14330039321,China Restaurant (Red Lion),47.452982955079015,8.580236831344491,Chinese Restaurant
1029,47.45,8.57857142857143,17,1,538df949498e280206ef4177,Zermatt Baracca,47.45124796079845,8.583691515287317,Swiss Restaurant
1030,47.45,8.57857142857143,17,2,4e53faf6d4c05e0079f96e7e,Restaurant Sonne,47.449273,8.583862,Swiss Restaurant
1031,47.45,8.57857142857143,17,3,4d4c51bbe1ec6dcb1cded775,O-i-shi,47.450265,8.582808,Sushi Restaurant
1032,47.45,8.57857142857143,17,4,4dc8173d2271f270516bd560,Peking Garden Kloten,47.4495673853472,8.58253331839587,Asian Restaurant
1033,47.45,8.57857142857143,17,5,4c7c102197028cfaaabde2fe,Ripasso Bar Caffetteria Gelateria,47.450496152446156,8.582795065859273,Italian Restaurant
1034,47.45,8.57857142857143,17,6,4fa3ac41e4b0d905244f1c43,La Bottega di Pina,47.45036937958454,8.583057174487056,Italian Restaurant
1035,47.45,8.57857142857143,17,7,53062635498ed40666813b37,Pasta e Pizza Valentino,47.45375275030447,8.579303461512819,Italian Restaurant
1036,47.45,8.57857142857143,17,8,4c474acf89a6c9b688ba9988,Ristorante Mercato,47.449854688205264,8.58452908650955,Italian Restaurant
1037,47.45,8.57857142857143,17,9,4c0fc3ee336220a1774dce77,Rias,47.45186912936639,8.581390771600189,Swiss Restaurant
1038,47.45,8.57857142857143,17,10,5c044b5a065ef5002b220635,Ripasso,47.45058,8.583076,Italian Restaurant
1039,47.45,8.57857142857143,17,11,4c4091f9e26920a1c2165de7,Flavour of India,47.45271555326428,8.582858517054653,Indian Restaurant
1040,47.45,8.57857142857143,17,12,5b98fbe62f97ec002ceac3f1,Pizza & Friends,47.451919,8.57883,Italian Restaurant
1041,47.45,8.57857142857143,17,13,4d83bcb102eb54812f2520f5,Suanlong,47.452581697155296,8.582816864869773,Asian Restaurant
1042,47.45,8.57857142857143,17,14,5e61066828630a00088e2fb1,"LyLai, Chinese Table",47.45373,8.57967,Restaurant
1043,47.45,8.57857142857143,17,15,4eca96b3b634b2fd780a1b4b,Sternen Pizzeria,47.452727922154466,8.58351789661226,Italian Restaurant
1044,47.45,8.57857142857143,17,16,5d8b1084da635b0008fb7a3e,Asia Lotus Thai Restaurant,47.452347,8.583036,Thai Restaurant
1045,47.45,8.592857142857143,7,0,519db0cf498e828ab63c77a6,Il Cappuccino,47.451273044251494,8.589299560301045,Italian Restaurant
1046,47.45,8.592857142857143,7,1,4d38aa7db5abb1f7f3f8df98,Hans im Glück,47.45378970109296,8.593825780287693,Swiss Restaurant
1047,47.45,8.592857142857143,7,2,525d7b8b11d22e7fd56589e1,Restaurant Flavour Kloten,47.451668030272145,8.590391612436191,Indian Restaurant
1048,47.45,8.592857142857143,7,3,52431b1511d201ffdd693b9a,You You,47.45032501220703,8.593400001525879,Chinese Restaurant
1049,47.45,8.592857142857143,7,4,4e3adefdb0fbca6e84ba0767,Restaurant Lucky Bamboo,47.44994066289527,8.592504172497941,Asian Restaurant
1050,47.45,8.592857142857143,7,5,51482f82e4b09ae407878b38,Yooji's Produktion,47.451790796861886,8.589468464167375,Sushi Restaurant
1051,47.45,8.592857142857143,7,6,528b4d5f11d2b13f1cafc4b4,Marcos,47.449282693665594,8.592999145946377,Italian Restaurant
1052,47.45,8.607142857142858,1,0,5a76e8698fb09e45aaee36f4,Mountain Food,47.447308,8.608119,Swiss Restaurant
1053,47.45,8.621428571428572,1,0,4da0b2b5b521224baf5be3ed,Restaurant,47.453203596949244,8.623196237587527,Italian Restaurant
1054,47.45,8.65,1,0,4fa0157fe4b0525528bc8339,Gasthof zum Bären,47.44710036022085,8.64874005317688,Swiss Restaurant
1055,47.46,8.378571428571428,1,0,5232ec4711d27c4f92924a5f,Haldengut,47.45848846435547,8.3798828125,Swiss Restaurant
1056,47.46,8.392857142857142,1,0,4da88b2a1e72d9bb474880d9,Restaurant Höfli,47.459923231229794,8.388348615716266,Swiss Restaurant
1057,47.46,8.42142857142857,1,0,51a772c1e4b036fe442a9082,Grill Ueli,47.45809356041075,8.425292710748662,Swiss Restaurant
1058,47.46,8.435714285714285,2,0,4de4f145c65b7a3e215539c9,Buchs,47.45616586875278,8.437329876390706,Swiss Restaurant
1059,47.46,8.435714285714285,2,1,5367bc9d498e587a6f8a3f4f,Restaurant Weinberg,47.460071634635874,8.437684366602229,Swiss Restaurant
1060,47.46,8.521428571428572,1,0,5021fac4e4b006118398bcdf,Pizzeria La Casetta,47.46075148655287,8.51922389025628,Italian Restaurant
1061,47.46,8.55,1,0,5f9f149c7ddbfb105176f0a0,Little Orient,47.461235,8.553497,Middle Eastern Restaurant
1062,47.46,8.57857142857143,2,0,4d4c4f88fe85a1cd13fa9bbf,Siam Square,47.455994969606024,8.579877018928528,Thai Restaurant
1063,47.46,8.57857142857143,2,1,4d5e6c3d29ef236abe198c59,Wirtschaft Helvetica,47.45810479624268,8.579705852371454,Swiss Restaurant
1064,47.47,8.407142857142857,1,0,53de768c498ea71d72dbe516,Restaurant Hintergeissboden Zugerberg,47.470194048198444,8.403281573702353,Swiss Restaurant
1065,47.47,8.507142857142858,1,0,4d597dd8c88da1cd2dd83a68,Restaurant Mediterraneo,47.47080654992053,8.510677363716486,Mediterranean Restaurant
