,Unnamed: 0,lat_centre,long_centre,num_venues,venue_iter,venue_id,venue_name,lat_venue,long_venue,category
11,11,47.31,8.55,4,0,4ae762d7f964a520d7aa21e3,moosegg,47.30678571935497,8.549567822944756,Swiss Restaurant
954,954,47.43,8.464285714285714,10,5,4b058887f964a520c9cb22e3,Hirschen,47.430100610184965,8.465386620874979,Swiss Restaurant
1307,241,47.3722609293324,8.54668403030061,30,29,4b058888f964a52003cc22e3,Restaurant Madrid,47.373241428172534,8.544727954812299,Spanish Restaurant
642,642,47.39,8.521428571428572,44,12,4b058888f964a52005cc22e3,LaSalle,47.388775662645095,8.519200516602776,Modern European Restaurant
1123,57,47.3722609293324,8.524744541127964,33,20,4b058888f964a5200acc22e3,Restaurant Emilio,47.372937249203474,8.527219810648143,Spanish Restaurant
183,183,47.36,8.55,31,19,4b058888f964a5201ccc22e3,Restaurant Bar Latino,47.361550746616466,8.549429214785098,Italian Restaurant
1303,237,47.3722609293324,8.54668403030061,30,25,4b058888f964a520e4cb22e3,Barfüsser,47.37360137115874,8.544590969733399,Sushi Restaurant
334,334,47.37000000000001,8.55,50,5,4b058888f964a520e6cb22e3,Le Dézaley,47.370631,8.543796,Swiss Restaurant
83,83,47.35,8.564285714285715,9,0,4b058888f964a520eecb22e3,Restaurant Bar Blaue Ente,47.351934,8.561145,Swiss Restaurant
1266,200,47.36773907066761,8.539030255413675,19,12,4b058888f964a520efcb22e3,Rive Gauche,47.36768257838225,8.539244742490318,Mediterranean Restaurant
542,542,47.38,8.55,24,6,4b05888af964a5208bcc22e3,Casa Ferlin,47.379801,8.543377,Italian Restaurant
756,756,47.4,8.521428571428572,1,0,4b05888af964a52093cc22e3,Restaurant Die Waid,47.399875738465965,8.515438352970447,Swiss Restaurant
553,553,47.38,8.55,24,17,4b05888af964a52094cc22e3,Crazy Cow,47.379009335714215,8.545103855143505,Swiss Restaurant
301,301,47.37000000000001,8.535714285714286,50,22,4b05888af964a52095cc22e3,Zunfthaus zur Waag,47.370072949423935,8.540763137878576,Swiss Restaurant
89,89,47.35,8.564285714285715,9,6,4b05888af964a5209ecc22e3,Riesbächli,47.35048831252795,8.561616357104576,French Restaurant
1280,214,47.3722609293324,8.54668403030061,30,2,4b05888af964a520a3cc22e3,Spaghetti Factory Rosenhof,47.37295200649503,8.54371052071147,Italian Restaurant
1534,468,47.382260929332396,8.539030884303825,11,3,4b05888af964a520a7cc22e3,White Elephant,47.38277,8.540341,Thai Restaurant
191,191,47.36,8.55,31,27,4b05888af964a520adcc22e3,Blu Restaurant,47.36161437580388,8.551309423332475,Indian Restaurant
380,380,47.37000000000001,8.564285714285715,11,1,4b05888af964a520b0cc22e3,Restaurant Sonnenberg,47.367326881675865,8.567648696152437,Swiss Restaurant
540,540,47.38,8.55,24,4,4b05888af964a520b5cc22e3,Stapferstube Da Rizzo,47.38212196824486,8.547436153469018,Italian Restaurant
1475,409,47.382260929332396,8.532397687124748,49,29,4b05888af964a520b6cc22e3,Samses,47.384042042614844,8.53095817625238,Vegetarian / Vegan Restaurant
757,757,47.4,8.535714285714286,8,0,4b05888bf964a520bbcc22e3,Restaurant Kerala,47.402045629085904,8.535178473680286,Indian Restaurant
752,752,47.4,8.492857142857142,6,3,4b05888bf964a520bdcc22e3,Maharani,47.40277902862428,8.492496013641357,Indian Restaurant
801,801,47.41,8.45,3,1,4b05888bf964a520bfcc22e3,Restaurant Taj Palace,47.4109,8.45385,Indian Restaurant
159,159,47.36,8.535714285714286,15,10,4b05888bf964a520c0cc22e3,The Spice Gourmet,47.36275,8.53152,Indian Restaurant
1537,471,47.382260929332396,8.539030884303825,11,6,4b05888bf964a520c5cc22e3,eCHo,47.38263,8.540194999999999,Swiss Restaurant
170,170,47.36,8.55,31,6,4b05888bf964a520c7cc22e3,Ristorante Amalfi,47.36057351808885,8.550124256712762,Italian Restaurant
173,173,47.36,8.55,31,9,4b05888bf964a520c9cc22e3,Ginger,47.361917852839326,8.550836326181916,Japanese Restaurant
166,166,47.36,8.55,31,2,4b05888bf964a520cacc22e3,Tiffins,47.36184067699258,8.550944544858249,Asian Restaurant
1560,494,47.37773907066761,8.539030884303825,49,18,4b05888bf964a520cbcc22e3,Isakaya,47.37664,8.540564,Sushi Restaurant
1127,61,47.3722609293324,8.524744541127964,33,24,4b0a5e0ef964a520922323e3,Restaurant Werd,47.37225448761609,8.527612434962082,Swiss Restaurant
1135,69,47.3722609293324,8.524744541127964,33,32,4b0bc125f964a5206d3323e3,Thai Take Away,47.372605909479844,8.527719030338629,Thai Restaurant
536,536,47.38,8.55,24,0,4b0cf16ff964a520be4223e3,Hot Pasta,47.37867004787092,8.547983737925266,Italian Restaurant
1189,123,47.3722609293324,8.532398316014898,25,18,4b0d053ef964a520444323e3,Solazzo,47.371877000000005,8.529224000000001,Italian Restaurant
1131,65,47.3722609293324,8.524744541127964,33,28,4b0f0061f964a520e75d23e3,Charlie's,47.372531,8.527992,Thai Restaurant
385,385,47.37000000000001,8.564285714285715,11,6,4b0f0172f964a520055e23e3,MARKT.GALERIE,47.367048,8.560559,Swiss Restaurant
563,563,47.38,8.592857142857143,1,0,4b100ca3f964a520186823e3,Chäsalp,47.382206054341005,8.587984903652034,Swiss Restaurant
278,278,47.37000000000001,8.521428571428572,50,49,4b18f0cff964a520a3d623e3,Di Leonardo,47.374455173789976,8.52198783950134,Italian Restaurant
865,865,47.41,8.55,43,41,4b197fd0f964a52079de23e3,Szenario restaurant,47.411302811121494,8.544210735850415,French Restaurant
1233,167,47.3722609293324,8.539030255413675,50,29,4b1aa768f964a52073ee23e3,Restaurant Kindli,47.37226792922711,8.540651831270454,Swiss Restaurant
1376,310,47.37773907066761,8.524745170018111,42,1,4b1ac568f964a5206bf123e3,Hooters,47.37646642314172,8.52583957346981,American Restaurant
548,548,47.38,8.55,24,12,4b1e35dff964a520e61724e3,Restaurant/Cafe Mallorca,47.38048520399373,8.548131089171767,Caribbean Restaurant
114,114,47.36,8.521428571428572,40,5,4b1e972af964a520311c24e3,Hong Kong Food Paradise,47.35847000622128,8.52322746263464,Chinese Restaurant
1446,380,47.382260929332396,8.532397687124748,49,0,4b22408bf964a520c04424e3,Lily's Stomach Supply,47.382535,8.529539999999999,Asian Restaurant
1382,316,47.37773907066761,8.524745170018111,42,7,4b261e9df964a520947824e3,Kobal,47.375599461303615,8.524345722208967,Indian Restaurant
640,640,47.39,8.521428571428572,44,10,4b2626b1f964a520c87824e3,Swiss Bistro,47.38880453333333,8.516800666666667,Swiss Restaurant
1134,68,47.3722609293324,8.524744541127964,33,31,4b276e0df964a520618624e3,Restaurant Werdguet,47.37144052979685,8.527643594837347,Swiss Restaurant
204,204,47.36,8.564285714285715,11,9,4b2f5bccf964a520eaea24e3,Restaurant Hirslanderhof,47.362321683556225,8.558698684632692,Swiss Restaurant
1323,257,47.36773907066761,8.54668403030061,35,15,4b30b59cf964a52014fb24e3,Kahn's Restaurant,47.36671732115914,8.543808760612661,Indian Restaurant
110,110,47.36,8.521428571428572,40,1,4b310094f964a52003fe24e3,Vapiano,47.35845202482788,8.523066944959684,Italian Restaurant
37,37,47.32,8.57857142857143,8,2,4b37861df964a520ce4125e3,Restaurant Schweizerhof,47.317948,8.579609,Swiss Restaurant
164,164,47.36,8.55,31,0,4b388f4af964a520a34e25e3,Yooji’s,47.35812434834689,8.554149675786405,Sushi Restaurant
92,92,47.35,8.57857142857143,4,0,4b3e4239f964a520439a25e3,Chässtube Rehalp,47.35305107408064,8.577507205930369,Swiss Restaurant
355,355,47.37000000000001,8.55,50,26,4b3f8880f964a5208aa825e3,Mère Catherine,47.370784,8.543813,French Restaurant
854,854,47.41,8.55,43,30,4b42fb0ff964a5206adb25e3,Pizzeria Furetto,47.410241475,8.547067499999999,Italian Restaurant
609,609,47.39,8.507142857142858,21,0,4b436211f964a5203cdf25e3,Brasserie Bernoulli,47.39374577477865,8.507833514460652,Swiss Restaurant
148,148,47.36,8.521428571428572,40,39,4b439110f964a5205ce325e3,Restaurant Bederhof,47.362396671109465,8.526788623102881,Swiss Restaurant
637,637,47.39,8.521428571428572,44,7,4b448474f964a520e9f525e3,Don Weber,47.387921354712546,8.524571197123286,Mexican Restaurant
883,883,47.41,8.621428571428572,3,1,4b472546f964a520ec2b26e3,Desperado,47.413967773315925,8.622002560435204,Mexican Restaurant
1377,311,47.37773907066761,8.524745170018111,42,2,4b4b0b8df964a5206c9126e3,Celia,47.37579140507171,8.525246519478012,Italian Restaurant
962,962,47.43,8.564285714285715,18,0,4b4b1fdef964a520af9226e3,Peking Garden,47.430366136378325,8.561209684200172,Chinese Restaurant
668,668,47.39,8.521428571428572,44,38,4b4b3f56f964a520779526e3,Costa Brava,47.38856909855518,8.525725967919524,Spanish Restaurant
830,830,47.41,8.55,43,6,4b4b8bd0f964a520d09f26e3,Restaurant Cheyenne,47.41002460634193,8.545837665465804,American Restaurant
776,776,47.4,8.607142857142858,4,0,4b4b9777f964a52045a126e3,Sorriso,47.39572093990475,8.607633639752443,Italian Restaurant
358,358,47.37000000000001,8.55,50,29,4b4c6fb6f964a520f1b226e3,Restaurant Rosengarten,47.36962431833131,8.556131774143584,Swiss Restaurant
638,638,47.39,8.521428571428572,44,8,4b4c70c6f964a5200ab326e3,Angkor,47.39025720000001,8.517230300000001,Cambodian Restaurant
645,645,47.39,8.521428571428572,44,15,4b4cb78ef964a5209abb26e3,Nectar,47.3902746832584,8.523214216102645,Eastern European Restaurant
634,634,47.39,8.521428571428572,44,4,4b4deb34f964a5200edb26e3,Nooch,47.38906,8.52191,Asian Restaurant
665,665,47.39,8.521428571428572,44,35,4b504a1ff964a520dc1f27e3,Hua-Thai,47.39056097269506,8.522206764854028,Thai Restaurant
145,145,47.36,8.521428571428572,40,36,4b556518f964a52042e327e3,Restaurant Vereinigung,47.36300582977962,8.522282091210586,Tapas Restaurant
430,430,47.38,8.507142857142858,22,16,4b56f2aaf964a5203e2028e3,Restaurant Schlachthof,47.38323385478749,8.506110441996032,Swiss Restaurant
1103,37,47.3722609293324,8.524744541127964,33,0,4b58a5d5f964a520936328e3,Le Cedre,47.37389,8.52657,Lebanese Restaurant
59,59,47.34,8.535714285714286,4,0,4b58b087f964a520cf6528e3,Ziegel oh Lac,47.34365222695838,8.536765766523516,Swiss Restaurant
1466,400,47.382260929332396,8.532397687124748,49,20,4b59ca7af964a520369828e3,India Street-Food,47.383168,8.530197,Indian Restaurant
1293,227,47.3722609293324,8.54668403030061,30,15,4b5ae34cf964a520e6d828e3,Pulcino,47.3731164811691,8.543760188411484,Italian Restaurant
330,330,47.37000000000001,8.55,50,1,4b5b5066f964a520ddf328e3,Ban Song Thai,47.369395000000004,8.544136,Thai Restaurant
1437,371,47.38,8.535714285714286,29,20,4b5c7a3ef964a520bf3129e3,Beyond (别样馆),47.3801147876035,8.536044510586894,Chinese Restaurant
414,414,47.38,8.507142857142858,22,0,4b5d8084f964a520285f29e3,New Point,47.37835816324316,8.510083121954791,Mediterranean Restaurant
222,222,47.37000000000001,8.507142857142858,8,1,4b5ed784f964a5209d9a29e3,Shangrila Tibetan Restaurant,47.369823,8.510164,Asian Restaurant
85,85,47.35,8.564285714285715,9,2,4b60c5c6f964a52080f829e3,Restaurant Obere Flühgasse,47.35022424841907,8.567305092285013,Swiss Restaurant
302,302,47.37000000000001,8.535714285714286,50,23,4b61e987f964a520d92a2ae3,Il Golosone,47.374171969182825,8.536232084256406,Italian Restaurant
1491,425,47.382260929332396,8.532397687124748,49,45,4b6321bcf964a5205c652ae3,Casa Aurelio,47.383161,8.529686,Spanish Restaurant
767,767,47.4,8.55,9,2,4b642636f964a52057a12ae3,Phüan Gan,47.4027080836394,8.547582521603545,Asian Restaurant
5,5,47.31,8.507142857142858,1,0,4b645652f964a52092ab2ae3,Panorama-Restaurant Felsenegg,47.30868361242368,8.509946898636699,Swiss Restaurant
1503,437,47.37773907066761,8.532397687124748,36,8,4b65c4abf964a52073fe2ae3,Cima,47.37767932314747,8.529700853096287,Indian Restaurant
780,780,47.4,8.621428571428572,6,0,4b69c83df964a520e1b32be3,Rest. Saal Dübendorf,47.40001779659421,8.622839513735496,Swiss Restaurant
250,250,47.37000000000001,8.521428571428572,50,21,4b6ab10bf964a5204fdc2be3,Napoli da Gerardo,47.366278259805576,8.521112850726825,Italian Restaurant
1485,419,47.382260929332396,8.532397687124748,49,39,4b6bea1af964a520621c2ce3,Pizzeria Riviera,47.38301275271625,8.530180257095934,Italian Restaurant
822,822,47.41,8.535714285714286,14,12,4b6e8820f964a520efc02ce3,Giesserei,47.408541934673785,8.537549615277477,Swiss Restaurant
965,965,47.43,8.564285714285715,18,3,4b6edbccf964a520b5cd2ce3,Mamma Mia,47.42988507064126,8.561119331062415,Italian Restaurant
154,154,47.36,8.535714285714286,15,5,4b718fbbf964a520924d2de3,Ristorante Il Tartufo,47.360154612995395,8.533371755382358,Italian Restaurant
1294,228,47.3722609293324,8.54668403030061,30,16,4b7360c0f964a52086ab2de3,Wystube Isebähnli,47.37319471200984,8.544796473124574,Mediterranean Restaurant
1484,418,47.382260929332396,8.532397687124748,49,38,4b792607f964a520f0ec2ee3,Cinque,47.383317551509904,8.530446097974206,Italian Restaurant
820,820,47.41,8.535714285714286,14,10,4b7d2222f964a520b7af2fe3,Restaurant Trinacria,47.4083473,8.537112751885347,Italian Restaurant
120,120,47.36,8.521428571428572,40,11,4b7d25c7f964a52049b02fe3,Shinsen,47.36147897886797,8.521527181284446,Japanese Restaurant
695,695,47.39,8.55,4,1,4b7ed760f964a520810330e3,Restaurant Spice,47.388425376179406,8.547484605203376,Asian Restaurant
538,538,47.38,8.55,24,2,4b8000ebf964a520144a30e3,Linde Oberstrass,47.383388046240924,8.548242189629194,Swiss Restaurant
42,42,47.32,8.57857142857143,8,7,4b804d60f964a520fc6530e3,Chez Crettol,47.31786660538452,8.582612090596268,Swiss Restaurant
731,731,47.4,8.45,25,14,4b812363f964a5200a9830e3,Salmen,47.39618837790735,8.448268009599634,Italian Restaurant
1299,233,47.3722609293324,8.54668403030061,30,21,4b82d36cf964a5207fe730e3,"Rheinfelder Bierhaus ""Bluetige Dumme""",47.37206880107386,8.5437662498457,Swiss Restaurant
814,814,47.41,8.535714285714286,14,4,4b858ce8f964a520fa6431e3,Restaurant WAAG,47.413662,8.534162,Thai Restaurant
1290,224,47.3722609293324,8.54668403030061,30,12,4b880e1bf964a5202edc31e3,Tank Niederdorf,47.372906313158325,8.543603430390903,Argentinian Restaurant
760,760,47.4,8.535714285714286,8,3,4b8811dbf964a5205cdd31e3,Madras Curry House,47.3979176170181,8.540355415215856,Indian Restaurant
658,658,47.39,8.521428571428572,44,28,4b8970d9f964a520853632e3,Grüntal,47.393134573810045,8.521172971199407,Swiss Restaurant
344,344,47.37000000000001,8.55,50,15,4b8ba5ccf964a5209aa532e3,Restaurant Commercio,47.365958,8.548955,Italian Restaurant
596,596,47.39,8.492857142857142,23,10,4b8bf453f964a5207bb432e3,Asian Dining,47.389569896188185,8.486497969079455,Asian Restaurant
678,678,47.39,8.535714285714286,20,4,4b9787d2f964a5208e0735e3,Ristorante La casa,47.390178000000006,8.540003,Italian Restaurant
648,648,47.39,8.521428571428572,44,18,4b992e26f964a520726735e3,Hokkaido,47.39042418713078,8.517651289427384,Asian Restaurant
350,350,47.37000000000001,8.55,50,21,4b9b8ba2f964a520590e36e3,Restaurant Karl der Grosse,47.36975882276214,8.544363279250108,Swiss Restaurant
141,141,47.36,8.521428571428572,40,32,4b9bcfcff964a520182836e3,Lotus Garden,47.361759,8.526383000000001,Asian Restaurant
1124,58,47.3722609293324,8.524744541127964,33,21,4b9e6ed2f964a52047e336e3,La Penisola,47.37404791733182,8.524899294058129,Italian Restaurant
177,177,47.36,8.55,31,13,4b9f67cbf964a520b42037e3,Vipasa,47.363564151439284,8.549406400171451,Italian Restaurant
782,782,47.4,8.621428571428572,6,2,4b9f6963f964a5200c2137e3,Peking Garden,47.3991619959199,8.621239482120949,Chinese Restaurant
69,69,47.35,8.378571428571428,2,0,4b9f6df6f964a5201b2237e3,Restaurant Grüene Bode,47.350281,8.37228,Swiss Restaurant
591,591,47.39,8.492857142857142,23,5,4b9f9e96f964a520592f37e3,Arche Bistro,47.388978343762425,8.49458628940305,Swiss Restaurant
1590,524,47.37773907066761,8.539030884303825,49,48,4ba35ef0f964a520f73738e3,Globus Restaurant,47.37579939274857,8.537429894629891,Swiss Restaurant
979,979,47.43,8.564285714285715,18,17,4ba8a995f964a5206be539e3,Casa Alegria,47.43371615931146,8.566037249671997,Mexican Restaurant
682,682,47.39,8.535714285714286,20,8,4bab4901f964a520cf9d3ae3,Restaurant Differente,47.388096112516216,8.539284502546368,Swiss Restaurant
55,55,47.34,8.478571428571428,3,0,4bab5367f964a520b5a03ae3,China Restaurant Drei Linden,47.33736500792789,8.474871902865608,Chinese Restaurant
171,171,47.36,8.55,31,7,4babd950f964a520e8ce3ae3,Japan-Restaurant Bimi,47.36366460662642,8.54932458391669,Japanese Restaurant
972,972,47.43,8.564285714285715,18,10,4bac97b3f964a52003fd3ae3,Paninoteca da Fabio,47.43028122656704,8.560827272164508,Italian Restaurant
698,698,47.39,8.57857142857143,2,0,4bace88af964a52051183be3,Altes Klösterli,47.38710892667935,8.575615864994612,Swiss Restaurant
1130,64,47.3722609293324,8.524744541127964,33,27,4bb085c3f964a5209f493ce3,Hermanseck,47.37149529399785,8.52477052493785,Swiss Restaurant
288,288,47.37000000000001,8.535714285714286,50,9,4bb0ef7df964a520cb6b3ce3,Restaurant Reithalle,47.37441567682284,8.534619137858419,Swiss Restaurant
675,675,47.39,8.535714285714286,20,1,4bb32d7135f0c9b62f09bc83,Restaurant Scala,47.391435223048276,8.538400450077862,Italian Restaurant
1311,245,47.36773907066761,8.54668403030061,35,3,4bb3a8fc42959c747543222c,Brasserie Schiller,47.36569661475139,8.54714435413674,French Restaurant
187,187,47.36,8.55,31,23,4bb5cd046edc76b09b08301c,Schürhof,47.36312333849568,8.546395295142936,Dim Sum Restaurant
943,943,47.42,8.621428571428572,6,5,4bb76bef46d4a593a46fc7c0,Felini,47.420736,8.619764,Italian Restaurant
168,168,47.36,8.55,31,4,4bb7934598c7ef3b9efe2f02,Ristorante Frascati,47.36088620218997,8.547788211342624,Italian Restaurant
155,155,47.36,8.535714285714286,15,6,4bbb1e1453649c745daa49fb,L'Altro,47.360220039691285,8.534218317246285,Italian Restaurant
139,139,47.36,8.521428571428572,40,30,4bbf044a30c99c7425805411,La Penisola  Paninoteca Pizzeria,47.3603497290837,8.516657266879674,Italian Restaurant
905,905,47.42,8.478571428571428,1,0,4bc1b94ef8219c7493b5b310,Restaurant Grünwald,47.41794724616386,8.482354668777768,Swiss Restaurant
425,425,47.38,8.507142857142858,22,11,4bc20a97461576b0feb57c32,Fässli Bar,47.378003,8.510133999999999,Swiss Restaurant
179,179,47.36,8.55,31,15,4bc2fbd9f8219c74806fb510,Quaglinos,47.36412544620948,8.547436195067151,French Restaurant
586,586,47.39,8.492857142857142,23,0,4bc494a8abf495218c36c593,Santa Lucia,47.3885187709932,8.486807794516281,Italian Restaurant
150,150,47.36,8.535714285714286,15,1,4bc715e492b376b020014f3a,Gaucho,47.36280688943281,8.531385335212681,Argentinian Restaurant
879,879,47.41,8.592857142857143,13,10,4bc8381714d7952143a968e9,Molino,47.40838292151937,8.595693868326132,Italian Restaurant
967,967,47.43,8.564285714285715,18,5,4bc847848b7c9c74afcb37cf,Cameleon,47.430435627060355,8.560824596071031,Italian Restaurant
74,74,47.35,8.492857142857142,3,1,4bc87c62dc55eee17e7ee8ac,Restaurant UTO KULM,47.34954597063689,8.491234378082314,Swiss Restaurant
1165,99,47.37000000000001,8.535714285714286,26,20,4bcdea97fb84c9b65ed5223e,Di Gioia,47.36988652533583,8.533983867686874,Italian Restaurant
32,32,47.32,8.55,7,4,4bced676fb84c9b62159243e,Dal Buongustaio,47.3216927822437,8.54511319033017,Italian Restaurant
199,199,47.36,8.564285714285715,11,4,4bd09dd277b29c74261e8b82,Restaurant Neumünster,47.35977340097715,8.55827361019047,Swiss Restaurant
633,633,47.39,8.521428571428572,44,3,4bd1c2849854d13a341cfa4d,Restaurant Viadukt,47.385969462081086,8.52231987590721,Mediterranean Restaurant
680,680,47.39,8.535714285714286,20,6,4bd330cb462cb71350c4dd07,Tre Frattelli,47.39253710106656,8.5315959844311,Italian Restaurant
884,884,47.41,8.621428571428572,3,2,4bd6ca286f649521744d71ec,Dieci Ristoranti,47.41405646061925,8.621281659441241,Italian Restaurant
400,400,47.38,8.42142857142857,3,1,4bd88f4151170f478ca533e4,Wirtschaft zur Sonne,47.38170286876935,8.422389387565714,Italian Restaurant
1099,33,47.3722609293324,8.518112601729182,16,15,4bd9b1b32e6f0f47f7840b08,Restaurant Gertrudhof,47.37379063895187,8.515933955106151,Swiss Restaurant
27,27,47.32,8.535714285714286,1,0,4bd9bc04e914a593cba557fa,Schlossgarten,47.317155,8.539795,Italian Restaurant
116,116,47.36,8.521428571428572,40,7,4bd9cf843f01c9b6573553a5,Weisses Rössli,47.36177019209963,8.52623623893753,Swiss Restaurant
899,899,47.42,8.392857142857142,2,1,4bdab9b42a3a0f47cbc6abb6,Pasta e Pizza,47.419140427865116,8.397873759567332,Italian Restaurant
549,549,47.38,8.55,24,13,4bdabba863c5c9b697bc2468,Jimmy's Pizzeria,47.37940380298219,8.546945786937961,Italian Restaurant
828,828,47.41,8.55,43,4,4bdac1022a3a0f47dbdbabb6,Mamma Mia,47.410706,8.544801,Italian Restaurant
924,924,47.42,8.55,13,10,4bdb0c2a2a3a0f477321adb6,Galinha's,47.42018208146474,8.54849,African Restaurant
1570,504,47.37773907066761,8.539030884303825,49,28,4bdb0f382a3a0f470b33adb6,La Piazzetta,47.376338,8.539278,Italian Restaurant
1509,443,47.37773907066761,8.532397687124748,36,14,4bdc5e63c79cc928fe3686e9,Zum Goldenen Fass,47.378009000000006,8.529461,Swiss Restaurant
974,974,47.43,8.564285714285715,18,12,4bdf19a90ee3a59323f332b0,Fujiya of Japan,47.431451662671506,8.566767813434991,Japanese Restaurant
135,135,47.36,8.521428571428572,40,26,4be14694c1732d7fb8905b9a,Ristorante Al Fattore,47.364187282361954,8.520587567163748,Italian Restaurant
100,100,47.35,8.65,2,1,4be1aeb7edbb0f478d4fa615,Zum Griech,47.35024653780117,8.64357078542842,Greek Restaurant
825,825,47.41,8.55,43,1,4be44be52468c9288d8ffe42,Asiaway,47.40809312529216,8.547274951764816,Vietnamese Restaurant
652,652,47.39,8.521428571428572,44,22,4be7e42f88ed2d7f662ccb1d,Teppan Sushi,47.3882,8.520083999999999,Japanese Restaurant
186,186,47.36,8.55,31,22,4be924f7a117b713227c81c8,Paninoteca Arcobaleno,47.35739600839197,8.553265551454514,Italian Restaurant
1267,201,47.36773907066761,8.539030255413675,19,13,4be98f9061aca593b3af8200,Tram Restaurant,47.368437,8.539212,Swiss Restaurant
474,474,47.38,8.521428571428572,50,38,4bec4ad4fd60a593d0c93af1,Keo Inn,47.37889525503607,8.527629226200776,Thai Restaurant
834,834,47.41,8.55,43,10,4bf1911fd39ad13ac364aa0e,Restaurant Fine Choice,47.41150682779315,8.54490164136989,Chinese Restaurant
111,111,47.36,8.521428571428572,40,2,4bf26fda9f9395213bb13098,Rüsterei,47.358426012841576,8.522955814719129,Swiss Restaurant
564,564,47.38,8.607142857142858,1,0,4bf3e191e5eba59380f51e90,Restaurant Geeren,47.375647882550446,8.607711635231368,Swiss Restaurant
772,772,47.4,8.55,9,7,4bf56ed6706e20a1d275aa98,Smeiley's,47.40265117913374,8.550894274945087,Swiss Restaurant
112,112,47.36,8.521428571428572,40,3,4bf65bc494b2a593ae4aadee,Restaurant Vietnam,47.36232343699173,8.518555758193349,Asian Restaurant
592,592,47.39,8.492857142857142,23,6,4bf66ca04d5f20a1e73699fe,Imbiss Kiosk,47.387249590440156,8.494157176355555,Middle Eastern Restaurant
126,126,47.36,8.521428571428572,40,17,4bf6c2ab5ec320a1fbb485d3,Pizza Kebap Take-away 99,47.360346,8.522910000000001,Eastern European Restaurant
188,188,47.36,8.55,31,24,4bf6cf4b4a67c9282a7322cf,Asian Moon,47.36304278640203,8.549530841903215,Chinese Restaurant
207,207,47.36,8.592857142857143,2,0,4bf6e3905ec320a14af785d3,Kormasutra,47.359264443932545,8.587416292693868,Indian Restaurant
704,704,47.39,8.65,1,0,4bf7d62e4a67c928c03524cf,Restaurant Frohsinn,47.392678048291074,8.647093140832746,Swiss Restaurant
393,393,47.37000000000001,8.635714285714286,2,0,4bf80aae5317a593da06ff7e,Gasthof Sternen,47.370672,8.639026,Swiss Restaurant
998,998,47.44,8.564285714285715,8,5,4bfd0163bf6576b0ec92acb8,F50,47.43774738761637,8.562445446401156,Swiss Restaurant
1001,1001,47.44,8.57857142857143,1,0,4bfd0b588992a5935878abb0,Restaurant Bramen,47.444368,8.579033,Swiss Restaurant
600,600,47.39,8.492857142857142,23,14,4bfe41354cf820a19797edf4,Peking Garden,47.391178857360714,8.488626583406433,Chinese Restaurant
1578,512,47.37773907066761,8.539030884303825,49,36,4bff8ffedaf9c9b6df5efaef,Dim Sum Take-Away,47.37870369551278,8.541661229507376,Dim Sum Restaurant
1393,327,47.37773907066761,8.524745170018111,42,18,4bfffa76f61ea5931617eb13,Chopstick,47.37571318619893,8.52428661112544,Chinese Restaurant
818,818,47.41,8.535714285714286,14,8,4c00ee9e19d8c928110c8829,Hong-Kong Food Paradise,47.413403879746106,8.539254504570797,Chinese Restaurant
47,47,47.33,8.55,1,0,4c03f49039d476b0bac830a7,Da Franco,47.32977210794621,8.54540392262769,Italian Restaurant
1174,108,47.3722609293324,8.532398316014898,25,3,4c0698032e80a5934a5974f9,Certo,47.37227873017211,8.529273653843326,Italian Restaurant
842,842,47.41,8.55,43,18,4c09392a009a0f470160e7bf,Metzgerhalle,47.410210790387296,8.546467978461084,Swiss Restaurant
389,389,47.37000000000001,8.564285714285715,11,10,4c0947a3ffb8c9b647a36961,Restaurant Römerblick,47.36816801749703,8.56007271421891,Italian Restaurant
140,140,47.36,8.521428571428572,40,31,4c0f755d1281c9b6b08a1e1d,Rietberg,47.359340758887214,8.526811173193034,Swiss Restaurant
1037,1037,47.45,8.57857142857143,17,9,4c0fc3ee336220a1774dce77,Rias,47.451869129366386,8.581390771600187,Swiss Restaurant
1009,1009,47.45,8.535714285714286,5,1,4c10c4913ce120a13e85081c,Restaurant Henry,47.45086074368806,8.530930130728288,Swiss Restaurant
1211,145,47.3722609293324,8.539030255413675,50,7,4c1152b79336b713fa6e42ea,Ojo de Agua,47.373937070611966,8.539298470766099,Argentinian Restaurant
763,763,47.4,8.535714285714286,8,6,4c1545c377cea593c7f4d160,Restaurant fallender Brunnenhof,47.40264845213739,8.535619361346805,Swiss Restaurant
197,197,47.36,8.564285714285715,11,2,4c16ff9374fb20a1780a5112,Chuchichäschtli,47.363361,8.568273,Swiss Restaurant
1128,62,47.3722609293324,8.524744541127964,33,25,4c17249396040f4798f073a5,Ishi,47.373986,8.525898,Japanese Restaurant
201,201,47.36,8.564285714285715,11,6,4c19110098f4a5939481fff5,Zum Wilden Mann,47.360985,8.565446000000001,Spanish Restaurant
34,34,47.32,8.55,7,6,4c1a65beb4e62d7f00bed793,Chez Fritz,47.31943605450729,8.553088971529794,Mediterranean Restaurant
1374,308,47.382260929332396,8.524745170018111,5,4,4c224862fbe5c9b687a29921,Roi-Et (ร้อยเอ็ด) (Roi-Et),47.38049724693799,8.526089487168504,Thai Restaurant
1576,510,47.37773907066761,8.539030884303825,49,34,4c23afb6a852c92835e8e16c,Snack Bar,47.378657325824136,8.539024450174129,Falafel Restaurant
937,937,47.42,8.592857142857143,1,0,4c287660ed0ac9b6173560aa,Restaurant Schmiedstube Da Pepino,47.41990853549558,8.59888347926124,Italian Restaurant
598,598,47.39,8.492857142857142,23,12,4c2876ade19720a115e8f758,nextstop,47.39092265,8.488870133333334,Middle Eastern Restaurant
87,87,47.35,8.564285714285715,9,4,4c2a17ab783d9c7496a48f6b,Hornegg,47.352859,8.559391,Swiss Restaurant
574,574,47.39,8.464285714285714,1,0,4c2b6fdc8ef52d7f875a31ba,Triibhuus,47.386923018893484,8.46872315648311,Spanish Restaurant
565,565,47.38,8.621428571428572,1,0,4c2cce12ae6820a13ee81943,Restaurant Waldmannsburg,47.379197055321434,8.616427328795046,Swiss Restaurant
9,9,47.31,8.521428571428572,5,3,4c2de8a2e116e21e9f4e8f60,Restaurant Rössli,47.30634048566642,8.525021782702726,Swiss Restaurant
774,774,47.4,8.57857142857143,1,0,4c2e1b7b4e132d7f108b9ddf,Ziegelhütte,47.39947658208885,8.572729011202272,Swiss Restaurant
946,946,47.43,8.35,1,0,4c2e2138e307d13accfb0eda,Pizzeria Victoria,47.431286,8.35436,Italian Restaurant
736,736,47.4,8.45,25,19,4c346d3ca0ced13ace13186e,Restaurant Sax,47.40188950302269,8.450595114988548,Spanish Restaurant
219,219,47.37000000000001,8.492857142857142,4,2,4c3edbdcca012d7fda0530be,Chinese,47.36882083233146,8.489326586580589,Asian Restaurant
1190,124,47.3722609293324,8.532398316014898,25,19,4c3ee03351dee21e772beb6e,Suan Long,47.37103325647816,8.531552772099909,Asian Restaurant
988,988,47.44,8.407142857142857,1,0,4c3f482caf052d7f00187a79,Waldschenke Altberg,47.436155,8.407185673713684,Swiss Restaurant
213,213,47.37000000000001,8.45,3,0,4c402ef5ff711b8dd0f70f05,Restaurant Dörfli,47.37044,8.453405,Swiss Restaurant
1039,1039,47.45,8.57857142857143,17,11,4c4091f9e26920a1c2165de7,Flavour of India,47.452715553264284,8.582858517054651,Indian Restaurant
1193,127,47.3722609293324,8.532398316014898,25,22,4c41f4f5ce54e21e45e00b1a,Athena,47.370941725025595,8.53172224674538,Greek Restaurant
971,971,47.43,8.564285714285715,18,9,4c442dc0429a0f47f152481e,deliplan,47.431572755849714,8.559558957106027,Swiss Restaurant
543,543,47.38,8.55,24,7,4c46d7e10f5aa593ffd37b76,Bamboo Inn,47.380474,8.547239999999999,Asian Restaurant
1036,1036,47.45,8.57857142857143,17,8,4c474acf89a6c9b688ba9988,Ristorante Mercato,47.449854688205264,8.58452908650955,Italian Restaurant
816,816,47.41,8.535714285714286,14,6,4c482357c047be9a33bf3279,Restaurant Sunneschii,47.409138679504395,8.53787899017334,Italian Restaurant
747,747,47.4,8.478571428571428,2,0,4c4963879f2ad13a54e23753,El Pote,47.39675,8.482258,Spanish Restaurant
397,397,47.38,8.378571428571428,2,0,4c5443c31b46c9b6e76d4cce,Herrenberg,47.38008284160267,8.380091915516267,Swiss Restaurant
765,765,47.4,8.55,9,0,4c55446572cf0f473906efd5,Wirtschaft Neubühl,47.397014893729356,8.545420185611045,Swiss Restaurant
147,147,47.36,8.521428571428572,40,38,4c594cd1d3aee21ebac76755,Don Leone,47.361257207098895,8.526476484427299,Italian Restaurant
38,38,47.32,8.57857142857143,8,3,4c59ac6d04f9be9aede4ef60,Bahnhöfli,47.31895,8.58052,Italian Restaurant
1572,506,47.37773907066761,8.539030884303825,49,30,4c59c55c5c57c9b667a01b4a,Ristorante Del Sole,47.376915203762685,8.538380631012679,Italian Restaurant
1305,239,47.3722609293324,8.54668403030061,30,27,4c614ba354ac0f479b85b721,pure asia,47.371939000000005,8.543787,Asian Restaurant
419,419,47.38,8.507142857142858,22,5,4c644b2d3590d13aebbce2bc,Pizzeria Forno al Leana,47.380568,8.504984,Italian Restaurant
203,203,47.36,8.564285714285715,11,8,4c6b93162d9976b016990c3a,"Marcellino, Pane e Vino",47.360202,8.565569,Mediterranean Restaurant
386,386,47.37000000000001,8.564285714285715,11,7,4c6e512fa437224b1f832fb1,Okay italia,47.37205,8.562552,Italian Restaurant
1516,450,47.37773907066761,8.532397687124748,36,21,4c70121efa49a1cd0ad9a4e3,Viet-Thai,47.378071999999996,8.530103,Vietnamese Restaurant
13,13,47.31,8.55,4,2,4c713285b5a5236ad84d5252,Canton Restaurant,47.30945706367493,8.556278944015503,Chinese Restaurant
82,82,47.35,8.535714285714286,3,2,4c716164fa49a1cd53ada8e3,Levante,47.35058993284277,8.535506758772497,Asian Restaurant
595,595,47.39,8.492857142857142,23,9,4c72480b57b6a1430507c5cc,Scent of Bamboo,47.39123172184549,8.489411708059754,Chinese Restaurant
976,976,47.43,8.564285714285715,18,14,4c763c5f3adda143307209af,Pasta Imbiss,47.43282,8.560431,Asian Restaurant
1281,215,47.3722609293324,8.54668403030061,30,3,4c76ad8fff1fb60c97a5f9a7,Rechberg 1837,47.37405,8.546306,Spanish Restaurant
102,102,47.36,8.364285714285714,2,0,4c79360e3badb1f7682a4e54,Stars & Stripes,47.36241711802992,8.367124031828144,American Restaurant
63,63,47.34,8.55,1,0,4c7aad38a8683704a563144d,restaurant post rifferswil,47.341107,8.556111999999999,Swiss Restaurant
1033,1033,47.45,8.57857142857143,17,5,4c7c102197028cfaaabde2fe,Ripasso Bar Caffetteria Gelateria,47.450496152446156,8.582795065859273,Italian Restaurant
1125,59,47.3722609293324,8.524744541127964,33,22,4c7cb5a27a856dcb34f5e2a7,China Restaurant Peking,47.3707036211175,8.52678247921847,Chinese Restaurant
223,223,47.37000000000001,8.507142857142858,8,2,4c7d2902d461a143643f7cf5,Meskerem,47.36930723807766,8.505697920928515,Ethiopian Restaurant
43,43,47.33,8.35,1,0,4c7d54395af8b60cfa438f10,Golden Dragon,47.330017306165715,8.348706812878646,Chinese Restaurant
602,602,47.39,8.492857142857142,23,16,4c7eb199fb13a1cd34749ea4,Clarke's,47.387409000000005,8.488296,Caribbean Restaurant
749,749,47.4,8.492857142857142,6,0,4c7f4994f4cf9c74ce7aa2a0,Desperado,47.40208289368928,8.496903416900574,Mexican Restaurant
1019,1019,47.45,8.564285714285715,15,6,4c829014d34ca143bb4f2d80,BÀCARO,47.45026754088377,8.562501561581032,Italian Restaurant
22,22,47.32,8.521428571428572,6,1,4c83ead5dc018cfa10b3dc6c,Zen China Restaurant,47.321677,8.5218,Chinese Restaurant
66,66,47.34,8.57857142857143,3,2,4c87b93d32f2a143b031f027,Zollikerstube,47.33801592135322,8.575868548429682,Swiss Restaurant
1519,453,47.37773907066761,8.532397687124748,36,24,4c87d50bcedc224b58e97fb6,Mai'S,47.376824957598025,8.532325158277306,Asian Restaurant
750,750,47.4,8.492857142857142,6,1,4c8b13db2e333704451fca41,Osteria da Biagio,47.402246000000005,8.495034,Italian Restaurant
870,870,47.41,8.592857142857143,13,1,4c90bc837088a1431da3aa43,Yooji's,47.408588891817686,8.595244010214977,Sushi Restaurant
584,584,47.39,8.478571428571428,11,9,4c9336adf600236a9080c332,Restaurant Farbhof,47.390738,8.478593,Swiss Restaurant
570,570,47.39,8.392857142857142,3,1,4c94588972dd224b57829991,Bergli,47.39073229996528,8.389168865518501,Swiss Restaurant
815,815,47.41,8.535714285714286,14,5,4c98d31007916dcbf660ef1b,Harmonie,47.41122105873888,8.532810012259253,Italian Restaurant
941,941,47.42,8.621428571428572,6,3,4c9a2be4db10b60cf94e906d,Flamingo,47.41996232635059,8.626519930575968,Australian Restaurant
831,831,47.41,8.55,43,7,4ca0eb3b542b224be82e0aa0,Tres Amigos,47.40996576307848,8.544662115570532,Mexican Restaurant
1091,25,47.3722609293324,8.518112601729182,16,7,4ca6384fb7106dcb2de05ba5,Restaurant Ecke,47.37441,8.517692,Swiss Restaurant
986,986,47.44,8.364285714285714,2,0,4ca708cd44a8224bd7110940,Restaurant Blume,47.443779021638754,8.364400554385144,Italian Restaurant
738,738,47.4,8.45,25,21,4ca86d7cd971b1f7b94614e1,Kebab House,47.39742794301411,8.447518206269809,Turkish Restaurant
1582,516,47.37773907066761,8.539030884303825,49,40,4cac74b7a6e08cfa623dab94,Suan Long,47.37699615364997,8.539801492480729,Asian Restaurant
935,935,47.42,8.564285714285715,10,8,4cac9efd44a8224b77083540,Restaurant Liliental,47.423658303681705,8.562351715211571,Italian Restaurant
1028,1028,47.45,8.57857142857143,17,0,4caca1bff47ea14330039321,China Restaurant (Red Lion),47.45298295507902,8.580236831344491,Chinese Restaurant
725,725,47.4,8.45,25,8,4caefd701168a09349571e23,Marzo Piadina Lounge & Dolce Vita,47.396676,8.449406,Italian Restaurant
709,709,47.4,8.392857142857142,5,4,4cb0947eef1b370485f03b00,Restaurant Stutz,47.399772,8.394929,Swiss Restaurant
407,407,47.38,8.492857142857142,10,3,4cb0a9a5eb65b1f7661f6ecd,Ristorante Pizzeria Il Salento,47.379122810523995,8.495036269006533,Italian Restaurant
1406,340,47.37773907066761,8.524745170018111,42,31,4cb23227562d224b3af32488,Sonne,47.37719189348718,8.526815904112727,Asian Restaurant
913,913,47.42,8.535714285714286,2,1,4cb2efa7db32f04d215fd34d,Tandoor House,47.422446,8.54063,Indian Restaurant
153,153,47.36,8.535714285714286,15,4,4cb43ed6ef1b3704a8255700,The Sushi-House Satori,47.363539,8.533274,Sushi Restaurant
578,578,47.39,8.478571428571428,11,3,4cb6d92d589f236a6f403a3d,Azzuri,47.39029251988303,8.480671804793186,Italian Restaurant
12,12,47.31,8.55,4,1,4cb6df1656fca1cd00275918,Pizzeria Da Toni,47.30902476972523,8.554514186189634,Italian Restaurant
185,185,47.36,8.55,31,21,4cb838c5a33bb1f73d1f7ffd,Ristorante Pizzeria Capri,47.35975849348218,8.551816033901158,Italian Restaurant
583,583,47.39,8.478571428571428,11,8,4cbebf97b6c4224bccd3ee94,Roter Stein,47.38864584903842,8.484857082366942,Swiss Restaurant
541,541,47.38,8.55,24,5,4cc1cfcc806246881649252f,Pizzeria Al'Forno,47.38055230315254,8.548184088211148,Italian Restaurant
740,740,47.4,8.45,25,23,4cc5b91701fb236a5051b3ba,Casa Amici,47.398139,8.450299000000001,Italian Restaurant
420,420,47.38,8.507142857142858,22,6,4cd024f37b685481ceafbff8,Zipfeli Zunft,47.381485,8.50481,Swiss Restaurant
40,40,47.32,8.57857142857143,8,5,4cd4715667c7236acf4b0d77,Restaurant Neuer Falken,47.317457,8.581980999999999,Italian Restaurant
1324,258,47.36773907066761,8.54668403030061,35,16,4cd582b094848cfa48cde6b1,FondueTram,47.36653368884899,8.545293616746628,Swiss Restaurant
1252,186,47.3722609293324,8.539030255413675,50,48,4cdbe87c5aeda1cdfb7fbf11,Restaurant Heugümper,47.370111416343356,8.53989695676922,French Restaurant
902,902,47.42,8.407142857142857,4,2,4cdd8e1d825e721eb5c46445,Pizzeria Del Paese,47.422445969900586,8.410248033744791,Italian Restaurant
673,673,47.39,8.521428571428572,44,43,4ce3b254bebd3704ea68a1a0,La Penisola,47.391248645566606,8.517915179867472,Italian Restaurant
86,86,47.35,8.564285714285715,9,3,4ce81c628ef78cfa9123989b,Restaurant Bar l'Ulivo,47.348927754370244,8.563051415287456,Italian Restaurant
848,848,47.41,8.55,43,24,4cea56320f196dcba81151ae,Tschingg,47.40974578841004,8.546142311264937,Italian Restaurant
323,323,47.37000000000001,8.535714285714286,50,44,4ceed84e3b03f04dece43bdc,Wirtstuben Munsterhof,47.37016860976834,8.540588576661111,Swiss Restaurant
394,394,47.37000000000001,8.635714285714286,2,1,4cef99597db3224b97782d2e,Monis Selection,47.371181,8.640260000000001,Italian Restaurant
205,205,47.36,8.564285714285715,11,10,4cef9ec84cd4236ad076b363,Ristorante Antiquario,47.360675763470276,8.566549624022294,Italian Restaurant
15,15,47.31,8.57857142857143,2,0,4cf1baa8d29b2d43f028f1bb,Zinnenlaufs Gaststube,47.31346066900411,8.581781387329103,Swiss Restaurant
36,36,47.32,8.57857142857143,8,1,4cf1be1ad29b2d43e12cf1bb,Seerestaurant Steinburg,47.320454168085185,8.578519821166992,Swiss Restaurant
88,88,47.35,8.564285714285715,9,5,4cf5887d0a71224b03ef1893,Madlen's Schweinshaxe,47.348665999999994,8.565767999999998,German Restaurant
769,769,47.4,8.55,9,4,4cf937235698a09317d609fc,Restaurant Zürcherhof,47.402831586925714,8.550869334036001,Swiss Restaurant
41,41,47.32,8.57857142857143,8,6,4cfb829e084f54814a8a8109,Gastube Weinberg,47.320221999999994,8.584032,Swiss Restaurant
821,821,47.41,8.535714285714286,14,11,4cff91742ba98eecc11855fd,Octavo sein & dine,47.4131985493579,8.537009954452515,Swiss Restaurant
1483,417,47.382260929332396,8.532397687124748,49,37,4d01255c2685a35de8a7cc90,Thai Chin,47.382844938960716,8.531022898288219,Asian Restaurant
938,938,47.42,8.621428571428572,6,0,4d01541794c5b1f7133051de,Restaurant Bühl,47.422465221994294,8.617232515495267,Swiss Restaurant
54,54,47.34,8.435714285714285,1,0,4d06128ee350b60c6f878b42,Restaurant Landhus,47.336573,8.437964,Swiss Restaurant
1298,232,47.3722609293324,8.54668403030061,30,20,4d0692f830a58cfa1da4abe7,Ruth's Intim Puschi Zone,47.373352000000004,8.543915,Swiss Restaurant
75,75,47.35,8.492857142857142,3,2,4d07b44aa26854818f19c8bd,Restaurant Gmüetliberg,47.35168195805493,8.487501147515438,Swiss Restaurant
781,781,47.4,8.621428571428572,6,1,4d0bcdeddd5fa1cd8c255b89,Sternen Peppino,47.39829923004984,8.62094180236636,Spanish Restaurant
220,220,47.37000000000001,8.492857142857142,4,3,4d0bcfedd8d78cfac3511fbe,Thai Market,47.368412,8.496456,Thai Restaurant
759,759,47.4,8.535714285714286,8,2,4d0cfd243bbaa14300dc39da,Asia Ming,47.397990312960225,8.533091057390683,Asian Restaurant
1002,1002,47.44,8.635714285714286,1,0,4d10fbe238bb6ea8dbc1c7aa,Tres Amigos,47.44350634405322,8.634572762467021,Tapas Restaurant
195,195,47.36,8.564285714285715,11,0,4d125d0d1f95236a486c3d06,Wilder Mann,47.36034068620956,8.566795825512099,Swiss Restaurant
1115,49,47.3722609293324,8.524744541127964,33,12,4d134778d1848cfa277ec271,Les Délices d'Orient,47.37402351269863,8.525979122778217,Middle Eastern Restaurant
33,33,47.32,8.55,7,5,4d18e20725cda1435b5f82d6,Don Leone,47.32129946972761,8.550619685700612,Italian Restaurant
910,910,47.42,8.507142857142858,5,4,4d1c7ea03412594179cccb17,Pizzeria Piazza,47.4192760436601,8.505977813532924,Italian Restaurant
748,748,47.4,8.478571428571428,2,1,4d1e4dfbe56f6ea8b6b6631d,Restaurant Pantheon,47.3977254,8.476277699999999,Italian Restaurant
182,182,47.36,8.55,31,18,4d218a6486e154816af4c23a,Bistro Valentino,47.36005967775035,8.550644826868767,Italian Restaurant
1197,131,47.36773907066761,8.532398316014898,8,1,4d302b697791224b584bce42,Le Rendez Vous,47.36561508775914,8.532213338850609,French Restaurant
655,655,47.39,8.521428571428572,44,25,4d374a4a036c5481ead34b89,La Rocca,47.388560999999996,8.525447999999999,Italian Restaurant
95,95,47.35,8.57857142857143,4,3,4d389d51b5abb1f7258bdf98,Angelfood,47.349785,8.584861,Swiss Restaurant
1046,1046,47.45,8.592857142857143,7,1,4d38aa7db5abb1f7f3f8df98,Hans im Glück,47.45378970109296,8.593825780287693,Swiss Restaurant
773,773,47.4,8.55,9,8,4d3c7c5d84d46ea8be71fe5c,Kwang Chow,47.401116194720814,8.544880054480219,Asian Restaurant
1414,348,47.37773907066761,8.524745170018111,42,39,4d42ef777fb05481d21f7079,Aggarwal Indian Food,47.37631290567558,8.525804434563428,Asian Restaurant
863,863,47.41,8.55,43,39,4d43f0b9bf61a1cdc65c03ac,Asian Take-Away & Restaurant,47.411310560358935,8.54501065608432,Asian Restaurant
227,227,47.37000000000001,8.507142857142858,8,6,4d446dc7c3e5f04da85f9a20,Don Pepe,47.369446,8.509304,Mediterranean Restaurant
744,744,47.4,8.464285714285714,5,2,4d44d2a07e2e54814cbe648f,Restaurant Red Floor,47.39921506415474,8.459622826686799,Italian Restaurant
35,35,47.32,8.57857142857143,8,0,4d454fc0bbb1a143e1f45072,Sun Room Romantik Seehotel Seestrasse 120,47.316658360868594,8.579514580452782,Swiss Restaurant
969,969,47.43,8.564285714285715,18,7,4d4afd8fb480a143bc6e35ec,Levante,47.43266181276572,8.56469960975663,Argentinian Restaurant
1062,1062,47.46,8.57857142857143,2,0,4d4c4f88fe85a1cd13fa9bbf,Siam Square,47.455994969606024,8.579877018928528,Thai Restaurant
1031,1031,47.45,8.57857142857143,17,3,4d4c51bbe1ec6dcb1cded775,O-i-shi,47.450265,8.582808,Sushi Restaurant
390,390,47.37000000000001,8.57857142857143,2,0,4d4d3e919aaab60ce1ee3529,Wirtschaft Degenried,47.367394977399385,8.579027236425036,Swiss Restaurant
1388,322,47.37773907066761,8.524745170018111,42,13,4d4eaafd9a2a6ea84dbd246f,Rest.sonne,47.377265,8.526803,Asian Restaurant
395,395,47.38,8.364285714285714,2,0,4d52d61d9ffc236a037c31a7,Hotel Ryokan Hasenberg,47.378916,8.364904,Japanese Restaurant
198,198,47.36,8.564285714285715,11,3,4d539f8b2f638cfa95be646a,Bistro Le Puy,47.35938189965734,8.568897106498301,French Restaurant
72,72,47.35,8.464285714285714,1,0,4d557af958856dcb32984a6d,Landikerstübli,47.352041,8.461917,Swiss Restaurant
73,73,47.35,8.492857142857142,3,0,4d56c3b848ea6ea858b5e4a3,Bergrestaurant Uto Staffel,47.34774397500702,8.494530753211889,Swiss Restaurant
711,711,47.4,8.407142857142857,3,1,4d5978c9f8ff236ad0cecb4a,Costa Blanca,47.404087782856884,8.405505035200154,Spanish Restaurant
1065,1065,47.47,8.507142857142858,1,0,4d597dd8c88da1cd2dd83a68,Restaurant Mediterraneo,47.47080654992053,8.510677363716487,Mediterranean Restaurant
697,697,47.39,8.55,4,3,4d5b785eb77a8cfa4b55d118,"Restaurant Al Vigneto, Kreis 6",47.39241931082682,8.545559032172905,Italian Restaurant
1063,1063,47.46,8.57857142857143,2,1,4d5e6c3d29ef236abe198c59,Wirtschaft Helvetica,47.45810479624267,8.579705852371454,Swiss Restaurant
1129,63,47.3722609293324,8.524744541127964,33,26,4d63a290a45b5481638c032d,Kantine Dreieck,47.372840000000004,8.524683999999999,Swiss Restaurant
717,717,47.4,8.45,25,0,4d64f34a5a27b1f74a87f95d,Pizzeria Corona,47.39904476131478,8.447938849116749,Italian Restaurant
590,590,47.39,8.492857142857142,23,4,4d64fc585a27b1f7e8f9f95d,Sweet And Sour,47.388605218699176,8.486743892557293,Chinese Restaurant
764,764,47.4,8.535714285714286,8,7,4d664024c8dbec4a21d9eccc,Pauschaltschingg,47.403766,8.534483,Italian Restaurant
1482,416,47.382260929332396,8.532397687124748,49,36,4d679244fd1b8cfa0f1f1ff0,Dai-Thanh,47.381513,8.533116,Asian Restaurant
945,945,47.42,8.635714285714286,2,1,4d6b849ad2596ea88b3a7220,Restaurant LaTavola,47.419960600193846,8.629879901670693,Italian Restaurant
555,555,47.38,8.55,24,19,4d6e25668df1548108347a23,yooijs,47.38202885603052,8.54652507363627,Asian Restaurant
885,885,47.41,8.635714285714286,1,0,4d6e2eccffedf04d9ee45ec5,Restaurant Foerliwis,47.41408,8.635391,Swiss Restaurant
684,684,47.39,8.535714285714286,20,10,4d769a2a1a21224b28363aaf,ototo,47.39268414683539,8.530844927858434,Japanese Restaurant
387,387,47.37000000000001,8.564285714285715,11,8,4d7775f9fbbc224b75b50432,Ristorante Aroma,47.365541802871675,8.56371913968953,Italian Restaurant
864,864,47.41,8.55,43,40,4d77d0059ee9a35d029bb8f8,Dapur Indonesia,47.41175795862873,8.546579206531732,Indonesian Restaurant
799,799,47.41,8.435714285714285,2,1,4d77f5cc2b4b6ea8aa8e49fe,Restaurant Insel,47.411547999999996,8.430305,Swiss Restaurant
987,987,47.44,8.364285714285714,2,1,4d7c97cce04d6ea80f24fed5,Gasthof Rössli Würenlos,47.442423,8.362669,Swiss Restaurant
1260,194,47.36773907066761,8.539030255413675,19,6,4d804d1ae6d7721e760816c7,Le Poisson,47.367675,8.536937,Swiss Restaurant
1199,133,47.36773907066761,8.532398316014898,8,3,4d80a0638edaa143100df239,Juan Costa,47.36581091258131,8.5323182960541,Spanish Restaurant
1041,1041,47.45,8.57857142857143,17,13,4d83bcb102eb54812f2520f5,Suanlong,47.452581697155296,8.582816864869772,Asian Restaurant
1026,1026,47.45,8.564285714285715,15,13,4d8851905ecdf04d867e938a,Marché Bistro,47.45043515146424,8.562888595273517,Swiss Restaurant
784,784,47.4,8.621428571428572,6,4,4d89e8da4757721eec0aab69,Restaurant Hecht,47.397657134123,8.619258675544067,Swiss Restaurant
800,800,47.41,8.45,3,0,4d8c81de5091a1cd601d6101,Mandarin China Restaurant,47.41288250870412,8.449855951662519,Chinese Restaurant
136,136,47.36,8.521428571428572,40,27,4d8ce32f788c5481764f14fd,Ciccio's Ristorante Bar Pizzeria,47.358543930252274,8.517537117004395,Italian Restaurant
1531,465,47.382260929332396,8.539030884303825,11,0,4d937a85fa1ef04d5fd46dc7,Drei Stuben,47.38310625978178,8.541610496955578,Swiss Restaurant
415,415,47.38,8.507142857142858,22,1,4d94d8bcca3f6ea80f3cd334,Hardhof Café & Restaurant,47.378125511065406,8.510777831286832,Swiss Restaurant
576,576,47.39,8.478571428571428,11,1,4d96193ae07ea35d5e8db702,Restaurant Bachmatt,47.38878056,8.48306183,Indian Restaurant
428,428,47.38,8.507142857142858,22,14,4d9bff5a4fdab60c8c1657f2,Letzi Liu Restaurant,47.38014388307787,8.506560431029786,Swiss Restaurant
714,714,47.4,8.435714285714285,4,1,4d9ef2b69bf0a35d0d27050b,Trattoria Italiana Da Michele,47.397277,8.439602,Italian Restaurant
1053,1053,47.45,8.621428571428572,1,0,4da0b2b5b521224baf5be3ed,Restaurant,47.45320359694925,8.623196237587527,Italian Restaurant
424,424,47.38,8.507142857142858,22,10,4da3243c9aa4721ee5611d1a,Cevapdzinica Badenstrasse,47.380668,8.504785,Eastern European Restaurant
134,134,47.36,8.521428571428572,40,25,4da58ba81e726e49695dfbf6,Swaad,47.35925617019586,8.516233563423157,Indian Restaurant
970,970,47.43,8.564285714285715,18,8,4da6e34b561447b1ad8a29f1,Löwen,47.433932,8.566166,Mexican Restaurant
1014,1014,47.45,8.564285714285715,15,1,4da7fdedf7b12d2d9a012303,Marché,47.45145353808799,8.561053276062013,Swiss Restaurant
1056,1056,47.46,8.392857142857142,1,0,4da88b2a1e72d9bb474880d9,Restaurant Höfli,47.459923231229794,8.388348615716266,Swiss Restaurant
151,151,47.36,8.535714285714286,15,2,4dad6baef7b1e810c12e8e01,Da Guido Sternen,47.3597688976982,8.53195857102044,Italian Restaurant
96,96,47.35,8.592857142857143,2,0,4daec36c1e7207bbeb166d06,Restaurant Laterne,47.34628953423608,8.595192142485192,Thai Restaurant
52,52,47.34,8.35,1,0,4db192dd93a061576857b7e1,Restaurant Emaus,47.34301,8.349897,Swiss Restaurant
104,104,47.36,8.435714285714285,1,0,4dba8d99cda173a95d1af7e3,Restaurant Station,47.35700820479446,8.4374008,Swiss Restaurant
871,871,47.41,8.592857142857143,13,2,4dbee5e06a23a3c473af73d7,SPIGA Ristorante & Bar,47.40851472237418,8.595250812850061,Italian Restaurant
733,733,47.4,8.45,25,16,4dc7c688e4cd169dc6838a5a,Sapori semplici da Stallone,47.398715,8.454583,Italian Restaurant
1032,1032,47.45,8.57857142857143,17,4,4dc8173d2271f270516bd560,Peking Garden Kloten,47.4495673853472,8.58253331839587,Asian Restaurant
837,837,47.41,8.55,43,13,4dc90de3d164033c5736db99,Café Dorflinde,47.4072512115486,8.549874728740093,Swiss Restaurant
862,862,47.41,8.55,43,38,4dc922aefa761aaccae6893f,Restaurant Tokyo Avenue,47.41224692555135,8.552284394566602,Asian Restaurant
1,1,47.31,8.392857142857142,4,1,4dcadfda1838cc2cc63fefb9,Restaurant Central,47.311658324894545,8.390377319340677,Swiss Restaurant
115,115,47.36,8.521428571428572,40,6,4dcce3bacc3f07eb1efee990,Restaurant Orangerie,47.35948010766192,8.52487384775036,French Restaurant
650,650,47.39,8.521428571428572,44,20,4dcd0db61850aa6414ca8438,Am Damm Take Away und Kiosk,47.3883815,8.5264818,Indian Restaurant
674,674,47.39,8.535714285714286,20,0,4dd0f57545ddbe15f8c4908c,Libanese Take Away,47.392771217583544,8.538982020696022,Falafel Restaurant
691,691,47.39,8.535714285714286,20,17,4dd109a4ae603b786d6c77dd,Planet 5,47.387501096079596,8.530439977889369,Swiss Restaurant
861,861,47.41,8.55,43,37,4dd3a10ffa76c0bf024969b2,Cafe Dallas,47.412522127652466,8.545239239372233,Swiss Restaurant
603,603,47.39,8.492857142857142,23,17,4dd64b222271c5d36d1dddd3,Altstetten Cafė,47.38919788401781,8.486530780792236,Swiss Restaurant
388,388,47.37000000000001,8.564285714285715,11,9,4ddcd8187d8b3654d50914e4,King's Kurry - Little India Take-aways,47.36735962474437,8.560113385783662,Indian Restaurant
806,806,47.41,8.507142857142858,2,0,4ddcec121f6e54b34d946143,WoKa - Wok & Kaffeebar,47.410133,8.50859,Asian Restaurant
960,960,47.43,8.507142857142858,2,1,4ddd294f45ddaa53edb9325b,Wirtschaft Unterdorf,47.42620461147494,8.505333350064847,Swiss Restaurant
997,997,47.44,8.564285714285715,8,4,4de28777b0fb26714887b13c,Appenbeller Stube,47.440153,8.568425,Swiss Restaurant
1058,1058,47.46,8.435714285714285,2,0,4de4f145c65b7a3e215539c9,Buchs,47.456165868752784,8.437329876390706,Swiss Restaurant
1182,116,47.3722609293324,8.532398316014898,25,11,4de6757ab0fb5cbf0eb19ce4,Na Ga Sui,47.37039564957491,8.531631463923645,Asian Restaurant
194,194,47.36,8.55,31,30,4de76b4cd4c0086a950903fa,Miolino Pizzeria Ristorante,47.36071162924187,8.547681314048791,Italian Restaurant
1184,118,47.3722609293324,8.532398316014898,25,13,4dea67cdd22da22d4ed2a4ee,Yooji's,47.373688,8.53454,Japanese Restaurant
251,251,47.37000000000001,8.521428571428572,50,22,4df0a5db1838e429ae50e218,ogilvy cafeteria,47.370726,8.527453,Swiss Restaurant
1270,204,47.36773907066761,8.539030255413675,19,16,4df1273645dddcd92cb8bc1e,Ristorante Orsini,47.36969417008752,8.540191011300763,Italian Restaurant
804,804,47.41,8.478571428571428,2,0,4df7997f22717445a0b643c0,Ristorante da Noi,47.4138649,8.4788837,Italian Restaurant
909,909,47.42,8.507142857142858,5,3,4e04c6bb2271233b767e61b9,Pizzeria Pippone,47.41862794958685,8.506097852551461,Italian Restaurant
915,915,47.42,8.55,13,1,4e08cfeed1640223a4a52c09,La Rustica,47.417923522222225,8.546414955555555,Italian Restaurant
1013,1013,47.45,8.564285714285715,15,0,4e09b2b845ddb2875c58db04,Umaizushi,47.45024468672085,8.562657789981893,Sushi Restaurant
1365,299,47.37773907066761,8.518111972839034,11,6,4e0a1802d22d658532b80078,Bistro Cherry,47.3759476,8.518159800000001,Middle Eastern Restaurant
49,49,47.33,8.607142857142858,1,0,4e0a32f1d164028d170c959b,Sushifusion,47.326983,8.603522,Sushi Restaurant
851,851,47.41,8.55,43,27,4e0c4d5b62e12464ea880e35,Papagallo,47.410419959671344,8.548468992489326,Italian Restaurant
1177,111,47.3722609293324,8.532398316014898,25,6,4e0ceddf1f6e9300e4eb3b75,Pasta Station,47.373669215239275,8.530008950395294,Italian Restaurant
8,8,47.31,8.521428571428572,5,2,4e0d9c7b22711665f60c23eb,Restaurant zur Au,47.31244227415304,8.526197196259384,Swiss Restaurant
964,964,47.43,8.564285714285715,18,2,4e11a274ae602afe96be6b4a,China Fast & Good,47.43393262613346,8.566220596825284,Chinese Restaurant
716,716,47.4,8.435714285714285,4,3,4e12f3e2d1647a0fff8dc380,La Penisola Italiana,47.40050937937954,8.441877886129982,Italian Restaurant
382,382,47.37000000000001,8.564285714285715,11,3,4e14a56718388432510986a6,Spaghetteria da Oli,47.370505,8.559752,Italian Restaurant
29,29,47.32,8.55,7,1,4e1739211f6eb653a5ee11ca,Sushi Al Lago,47.31863186284928,8.548604825564864,Sushi Restaurant
720,720,47.4,8.45,25,3,4e175387e4cd49a7e3de8bce,Benfica,47.398447,8.447239,Portuguese Restaurant
556,556,47.38,8.55,24,20,4e1d73241f6e47e5e7973d85,Scent of Bamboo,47.379433,8.545314999999999,Asian Restaurant
152,152,47.36,8.535714285714286,15,3,4e1d76cdaeb78c0dfeccff4d,Restaurant Mimosa,47.363488395351716,8.533927232375367,Italian Restaurant
679,679,47.39,8.535714285714286,20,5,4e1d8470483bbda4181bc2d4,Thali,47.39029330554218,8.538957753044091,Indian Restaurant
985,985,47.43,8.635714285714286,2,1,4e20772da80968cf3e352af2,Restaurant Kreuzstrasse,47.42848319424646,8.641745719175317,Swiss Restaurant
64,64,47.34,8.57857142857143,3,0,4e2723a92271e4f3075edcb8,Gasthaus zum Rössli,47.33649596796404,8.574969668847098,Swiss Restaurant
632,632,47.39,8.521428571428572,44,2,4e2d1128b61cd01083866a41,Restaurant Markthalle,47.387683199415314,8.526226278702298,Swiss Restaurant
396,396,47.38,8.364285714285714,2,1,4e398e8ad164102b03736c33,Usagiyama,47.37869212409864,8.364986015403208,Japanese Restaurant
1577,511,47.37773907066761,8.539030884303825,49,35,4e3a656ca809ec55443b033a,Scent of Bamboo,47.3780750090629,8.53978413688246,Asian Restaurant
48,48,47.33,8.57857142857143,1,0,4e3a85f4d22d4aca878f4d0e,Blüemlisalp,47.326767,8.574786,Swiss Restaurant
1049,1049,47.45,8.592857142857143,7,4,4e3adefdb0fbca6e84ba0767,Restaurant Lucky Bamboo,47.44994066289527,8.592504172497941,Asian Restaurant
169,169,47.36,8.55,31,5,4e4107216284809c9f3a235d,Thai Food Corner Seefeld,47.357358000000005,8.553825,Thai Restaurant
445,445,47.38,8.521428571428572,50,9,4e41164662e17b948c233c11,Phuket Asia Center,47.38021017249064,8.526541652315395,Asian Restaurant
1289,223,47.3722609293324,8.54668403030061,30,11,4e45661bd164155c0dd6db65,Tagliatelle,47.3744649709291,8.546466639886924,Italian Restaurant
912,912,47.42,8.535714285714286,2,0,4e46a770d4c065cb6ba1e69d,Pizzeria Fantasia,47.41991878809714,8.535643815671758,Italian Restaurant
568,568,47.39,8.35,1,0,4e46d0d418a8f9804cce14f3,Sushi-Inn,47.391693475298574,8.345765813209702,Sushi Restaurant
98,98,47.35,8.607142857142858,1,0,4e4a9d281520aec01446dc61,Trichtenhausermühle,47.35070138742144,8.602112531661987,Swiss Restaurant
827,827,47.41,8.55,43,3,4e4bf4501f6e2a789a8e3f66,Le Muh,47.41110963952079,8.544174913299504,Swiss Restaurant
434,434,47.38,8.507142857142858,22,20,4e4bf9bd14958c3abfaea1f2,Thai restaurant A la Carte,47.37767093121044,8.512000347505781,Thai Restaurant
1030,1030,47.45,8.57857142857143,17,2,4e53faf6d4c05e0079f96e7e,Restaurant Sonne,47.449273,8.583862,Swiss Restaurant
724,724,47.4,8.45,25,7,4e563077fa763b20fd08d4a0,Restaurant Sornam,47.39928977937917,8.449899547241392,Indian Restaurant
226,226,47.37000000000001,8.507142857142858,8,5,4e5a264218a8c20475151fc1,Santa Lucia Wiedikon,47.36997429692331,8.508422881010333,Italian Restaurant
597,597,47.39,8.492857142857142,23,11,4e5b6643b61c4aaa3e15b7a7,Restaurant Barino,47.3909486588109,8.488906357357518,Swiss Restaurant
907,907,47.42,8.507142857142858,5,1,4e5fd77bc65bfe3fcc535023,Krone Affoltern,47.41932281646528,8.505149136280806,Swiss Restaurant
984,984,47.43,8.635714285714286,2,0,4e60f6f2b993678bb5a9df4d,Grotto,47.42869893053907,8.641885692536661,Italian Restaurant
939,939,47.42,8.621428571428572,6,1,4e626953aeb7360314e8765b,Restaurant Bahnhof / San Marco,47.42112654165416,8.619533796425086,Italian Restaurant
950,950,47.43,8.464285714285714,10,1,4e69072514954826adeec7fa,Trattoria Ciao,47.43101734,8.46821873,Restaurant
734,734,47.4,8.45,25,17,4e6a5076ae609509556dcf35,Amadeus,47.39915735292008,8.447099743712517,Austrian Restaurant
1247,181,47.3722609293324,8.539030255413675,50,43,4e6ca100483b1f5ebe26524a,Mangiare e Peccare,47.3721,8.5407,Italian Restaurant
846,846,47.41,8.55,43,22,4e6f8bad45dd49e0f1d43aee,King's Kurry - Little India,47.411346,8.544611,Indian Restaurant
755,755,47.4,8.507142857142858,1,0,4e73e56552b1c8e518c18feb,Guido's alte Trotte,47.397945,8.506993,Swiss Restaurant
880,880,47.41,8.592857142857143,13,11,4e7a41768998c6d2897ea196,Restaurant Pizzeria Krone,47.408935,8.597381,Italian Restaurant
26,26,47.32,8.521428571428572,6,5,4e7b0e772271acb1fa9d8f9a,Ex Saigon,47.3203642302089,8.521430332019293,Vietnamese Restaurant
746,746,47.4,8.464285714285714,5,4,4e837951b634c48ffcf9e233,Restaurant Bambus,47.39692799273617,8.464231886618032,Chinese Restaurant
1609,18,47.3733913939986,8.537372199485024,12,6,4e87185182316be403a7f640,Hong-Kong Food Paradise,47.3740416900357,8.536561591935998,Chinese Restaurant
305,305,47.37000000000001,8.535714285714286,50,26,4e8c3c74be7b1b0656f0456d,Restaurant Münsterhöfli,47.370128,8.540775,Swiss Restaurant
71,71,47.35,8.435714285714285,1,0,4e8cad4155037f60ca91e13b,Restaurant Sonne,47.35235535051475,8.437689064811368,Swiss Restaurant
1024,1024,47.45,8.564285714285715,15,11,4e8f1d08f79054119ebe21ce,ASIA,47.45026370525286,8.562963008880615,Asian Restaurant
28,28,47.32,8.55,7,0,4e9601ef4901d620b781eb76,Restaurant Ochsen,47.32260661481841,8.548906278172348,Swiss Restaurant
930,930,47.42,8.564285714285715,10,3,4e96676e8231e0b8ae7faf91,Gourmet-Tempel Orion,47.417752,8.565911999999999,Swiss Restaurant
1567,501,47.37773907066761,8.539030884303825,49,25,4e9719498b811f0c667cf6d0,sein Gourmet-Restaurant,47.376157,8.540233,Swiss Restaurant
983,983,47.43,8.57857142857143,4,3,4e98133b30f87b6eacab380d,Restaurant Frohsinn,47.4317964670386,8.573050605343616,Swiss Restaurant
399,399,47.38,8.42142857142857,3,0,4ea06be7d3e3291fde53cbf4,Steinerhof Urdorf,47.381945740327645,8.42268081550924,Swiss Restaurant
966,966,47.43,8.564285714285715,18,4,4ea561898231f6dc6b3d9812,Suan Long,47.43097647816267,8.562302643800171,Thai Restaurant
123,123,47.36,8.521428571428572,40,14,4ea932242c5b8d39ca111787,Zur Goldenen Sonne,47.360165,8.522518,Italian Restaurant
867,867,47.41,8.564285714285715,2,0,4eadb1ac7beb1696035fffbc,Restaurant Dreispitz,47.408116113813975,8.565666675567629,Italian Restaurant
719,719,47.4,8.45,25,2,4eb1a30a9911d335b02acb91,Rolli's Steakhouse,47.397124086176895,8.448062084964038,American Restaurant
160,160,47.36,8.535714285714286,15,11,4eb26c578b815ab741d1e5db,Thai Bamboo 2,47.36362002054102,8.533395032388594,Thai Restaurant
1286,220,47.3722609293324,8.54668403030061,30,8,4eb27d286c25aecd470827ec,Brasserie Louis,47.373129484915246,8.543798499978214,French Restaurant
751,751,47.4,8.492857142857142,6,2,4eb43070dab4fe51111a6a9e,departamento dinner,47.40302312674851,8.491050939009451,Argentinian Restaurant
1472,406,47.382260929332396,8.532397687124748,49,26,4eb5369b469073bbc608fd48,Casa do Pastel,47.38256684306367,8.530742671480402,Brazilian Restaurant
3,3,47.31,8.392857142857142,4,3,4eb5760df790d87d02bc1fbc,Restaurant Litzi,47.306645399999994,8.3902707,Swiss Restaurant
601,601,47.39,8.492857142857142,23,15,4eb8375002d5f33e93ba004b,New Shanghi Restaurant,47.387210469375326,8.489125651914058,Chinese Restaurant
1580,514,47.37773907066761,8.539030884303825,49,38,4ec284f46da15b4de0382045,Restaurant La Soupière,47.37706409764475,8.540152894794685,French Restaurant
1445,379,47.38,8.535714285714286,29,28,4ec3bddee5fa690c1ee0cbc7,Mexikaner,47.379760989419225,8.537408994545736,Mexican Restaurant
146,146,47.36,8.521428571428572,40,37,4ec4fdb5b6340064ff429ca1,Datto,47.358653000000004,8.523195,Sushi Restaurant
77,77,47.35,8.521428571428572,4,1,4ec515de49017fff08cf6425,Fun Fun,47.347621412634155,8.52123647776075,Mexican Restaurant
722,722,47.4,8.45,25,5,4ec5493fe5fa74ea5351fda3,Sushi Theke Schlieren,47.399076520839,8.447509659946224,Sushi Restaurant
895,895,47.42,8.378571428571428,4,1,4ec55b0c991123243706faaa,Ikea Restaurant,47.42147242421843,8.375113876758878,Scandinavian Restaurant
955,955,47.43,8.464285714285714,10,6,4ec819c10e017e2f9aac06f2,Buddha Bar,47.42960603772835,8.464828165543615,Thai Restaurant
1043,1043,47.45,8.57857142857143,17,15,4eca96b3b634b2fd780a1b4b,Sternen Pizzeria,47.452727922154466,8.58351789661226,Italian Restaurant
1117,51,47.3722609293324,8.524744541127964,33,14,4ece3533be7b9eecdd72179e,Negishi Sushi Bar,47.37407240862139,8.525573951683146,Japanese Restaurant
853,853,47.41,8.55,43,29,4ece88efbe7b9eecddd33ba5,Paul's Chässtübli,47.409069241841486,8.547017067754869,Swiss Restaurant
58,58,47.34,8.507142857142858,1,0,4ed11528cc219860f838ebfe,Bristestäffeli,47.336164000000004,8.50693,Swiss Restaurant
158,158,47.36,8.535714285714286,15,9,4ed6282102d570286da9c0ed,Olive Garden,47.36328782541725,8.5322815028548,Kosher Restaurant
550,550,47.38,8.55,24,14,4ed6c1ee4901772cdf1ec3dd,Lacucina Caffe Bar,47.380109759345466,8.54505437871464,Middle Eastern Restaurant
961,961,47.43,8.55,1,0,4ed7d1860e0189600ba3e67f,il tricolore,47.4298290838238,8.544734448336479,Italian Restaurant
661,661,47.39,8.521428571428572,44,31,4edd1590d3e346be37864b56,Taj Palace,47.391113198265025,8.526366256245124,Indian Restaurant
1358,292,47.382260929332396,8.518111972839034,5,4,4ee09ab22c5bb0e03ed845fa,Ristorante Da Toni,47.38122343148365,8.517254184609492,Italian Restaurant
1583,517,47.37773907066761,8.539030884303825,49,41,4ee0f1bef9ab28df82788c0e,Zum Höck,47.3769,8.539,Swiss Restaurant
723,723,47.4,8.45,25,6,4ee8f6560e019eee5eaa27ca,WALO's,47.40102506049654,8.45132671790549,Swiss Restaurant
993,993,47.44,8.564285714285715,8,0,4ef0dcdf7ee510062f1f2e81,Runway 34,47.44004285451846,8.55800356913895,Swiss Restaurant
1568,502,47.37773907066761,8.539030884303825,49,26,4ef453f9f9ab42ef2f29faf1,Swiss Raclette Stand,47.375534,8.538517,Swiss Restaurant
1416,350,47.37773907066761,8.524745170018111,42,41,4efdd1887ee5f14f38bf5eb4,Da Leo,47.37728435754282,8.526072066057298,Cuban Restaurant
0,0,47.31,8.392857142857142,4,0,4eff557e9a520dfd65e3277a,Restaurant Kellerämterhof,47.313187569574175,8.388671906138915,Swiss Restaurant
687,687,47.39,8.535714285714286,20,13,4f01aa9be5e81719592fb97c,thali-King's Kurry little india,47.38857321242649,8.539359569549559,Indian Restaurant
606,606,47.39,8.492857142857142,23,20,4f0ac794e4b02665708d6a3b,Kantine,47.391351,8.487509,Swiss Restaurant
53,53,47.34,8.392857142857142,1,0,4f15c0dfe4b0d3f8a9bc4673,Restaurant Hirschen,47.34070411307013,8.397399152126642,Swiss Restaurant
1467,401,47.382260929332396,8.532397687124748,49,21,4f1806afe4b0bb143ea05a13,India Lunch,47.38281767376729,8.531627874370308,Indian Restaurant
17,17,47.31,8.592857142857143,3,0,4f182d174fc697fd6e29e22d,Restaurant GüggeliSternen,47.310474602996024,8.588218688964844,Swiss Restaurant
579,579,47.39,8.478571428571428,11,4,4f1c0743e4b03543a1e4d84b,Pasar Minggu,47.389116416697966,8.484207544052104,Indonesian Restaurant
406,406,47.38,8.492857142857142,10,2,4f22ed80e4b0dc27b7de1664,il Salento,47.37940154737205,8.49508333746763,Italian Restaurant
873,873,47.41,8.592857142857143,13,4,4f268943e4b012e0312860bf,Il Faro,47.413047,8.5924334,Italian Restaurant
904,904,47.42,8.435714285714285,1,0,4f2adaf6e4b09f1286eabc5d,Linde,47.419785319721406,8.434614659332702,Swiss Restaurant
990,990,47.44,8.478571428571428,3,0,4f300fe3e4b0dbffdef4ff8a,Restaurant zum Türmli,47.44256287498247,8.482144742693656,Swiss Restaurant
768,768,47.4,8.55,9,3,4f36946ae4b0fb0dfbf1cddb,Thai sun garden,47.401768251282604,8.553282972812966,Thai Restaurant
708,708,47.4,8.392857142857142,5,3,4f36c33ce4b0653d49fe5666,Restaurant Ochsen,47.40148537129017,8.397512441349473,Swiss Restaurant
4,4,47.31,8.45,1,0,4f3d7838e4b0d8b9dad11887,Restaurant Frohsinn,47.310103999999995,8.451105,Swiss Restaurant
76,76,47.35,8.521428571428572,4,0,4f422f17e4b0e5bc14341f8f,Fork & Bottle,47.35217238512102,8.524432483867582,American Restaurant
599,599,47.39,8.492857142857142,23,13,4f47711ee4b0f85d06de13ab,Thai Food,47.38746947762724,8.493263828475595,Thai Restaurant
942,942,47.42,8.621428571428572,6,4,4f47bfafe4b08df2fac2edbc,Restaurant Rosengarten,47.42312836137687,8.61830501148854,Swiss Restaurant
1022,1022,47.45,8.564285714285715,15,9,4f4aa0aae4b08334fc6e1390,Filini Restaurant,47.4529400407716,8.563860097908659,Italian Restaurant
39,39,47.32,8.57857142857143,8,4,4f4cbe02e4b088c4ad63bc75,ThaiAway,47.319390665023384,8.580086545103075,Asian Restaurant
585,585,47.39,8.478571428571428,11,10,4f4e19d0e4b0acb468430c3e,China restaurant King To,47.38640937881024,8.476113934872881,Chinese Restaurant
843,843,47.41,8.55,43,19,4f54f934e4b0c416073869d2,Thaifood Express,47.406978393155576,8.550793948313183,Thai Restaurant
819,819,47.41,8.535714285714286,14,9,4f5a6c0ee4b00984be3200cd,Witschi,47.40888904303665,8.52934490749135,French Restaurant
359,359,47.37000000000001,8.55,50,30,4f5f3ffde4b033732bd8d85a,Imbiss Kaffee,47.369524561000595,8.555669322546658,Swiss Restaurant
1405,339,47.37773907066761,8.524745170018111,42,30,4f61d39ee4b0b665cfd5bb60,Barteca,47.3775879403564,8.527108914341776,Brazilian Restaurant
1478,412,47.382260929332396,8.532397687124748,49,32,4f624bc0e4b0a9d091e135e9,Restaurant Picasso,47.38233577595694,8.530472818122508,Spanish Restaurant
1571,505,47.37773907066761,8.539030884303825,49,29,4f64c789e4b0272f2c5b2a90,Hobler - Die besten Würste seit 1895,47.37713579608446,8.54096099206119,Swiss Restaurant
1438,372,47.38,8.535714285714286,29,21,4f704ba7e4b0f577d46dd431,Barone Panini,47.38164545064939,8.535713020624575,Italian Restaurant
868,868,47.41,8.564285714285715,2,1,4f79def1e4b067aa31c60e83,Hotel Mamma,47.41076828743128,8.56318555978348,Swiss Restaurant
793,793,47.41,8.407142857142857,12,7,4f86f803e4b0da777580cc4d,Bahnhof Imbiss,47.40653418367975,8.404143155114511,Turkish Restaurant
57,57,47.34,8.478571428571428,3,2,4f8b44ffe4b0089dea9fc6e9,Restaurant Burestübli,47.34341564582746,8.482330441474915,Swiss Restaurant
1539,473,47.382260929332396,8.539030884303825,11,8,4f8d4272e4b0e5ed77e95de6,Curry Corner,47.383030802542436,8.541591065935346,Indian Restaurant
101,101,47.36,8.35,1,0,4f903a66e4b063d0a0e30fff,Restaurant Schwanen,47.35608423138064,8.350252521073704,Swiss Restaurant
1564,498,47.37773907066761,8.539030884303825,49,22,4f95a5ade4b0aa8248f9ce32,Zürich sein,47.379750682864035,8.540004875558157,Swiss Restaurant
991,991,47.44,8.478571428571428,3,1,4f9c68b1e4b0b34c43dd2ddd,Restaurant Linde,47.4426538627934,8.481140344887978,Italian Restaurant
435,435,47.38,8.507142857142858,22,21,4f9d5865e4b04dce45b5473e,Fenna Italienische Spezialitäten,47.378907,8.511322,Italian Restaurant
398,398,47.38,8.378571428571428,2,1,4f9d6d95e4b0d2bd63b8403f,Gasthof Herrenberg,47.38009537168787,8.379954426070457,Swiss Restaurant
1054,1054,47.45,8.65,1,0,4fa0157fe4b0525528bc8339,Gasthof zum Bären,47.44710036022085,8.64874005317688,Swiss Restaurant
1034,1034,47.45,8.57857142857143,17,6,4fa3ac41e4b0d905244f1c43,La Bottega di Pina,47.450369379584544,8.583057174487056,Italian Restaurant
403,403,47.38,8.478571428571428,2,1,4fa408a9e4b017e937ea211c,Restaurant Untermoos,47.37805938720703,8.48274040222168,Italian Restaurant
721,721,47.4,8.45,25,4,4fa5908ae4b0ac15cfdbccc1,Ali Baba 2,47.399374956490924,8.447943628985941,Doner Restaurant
1392,326,47.37773907066761,8.524745170018111,42,17,4faa6ee3e4b0afe1f1f66ac0,Don Quijote,47.3777298437696,8.5271850099264,Spanish Restaurant
925,925,47.42,8.55,13,11,4fad2b34e4b021d749c5bbe3,felsenberg,47.418397999999996,8.544699000000001,Swiss Restaurant
859,859,47.41,8.55,43,35,4fb22668e4b0b9253b45fefe,Schnitzelhuus,47.40682565521076,8.550753344250529,Austrian Restaurant
718,718,47.4,8.45,25,1,4fb3f0ace4b030072b999ea1,ORIGINAL THAI FOOD VON WANIDA,47.40111746709453,8.450810965971101,Thai Restaurant
577,577,47.39,8.478571428571428,11,2,4fb8e33ce4b06b008d465cef,Tasty,47.390242830434104,8.480239857827941,Turkish Restaurant
849,849,47.41,8.55,43,25,4fbe0350e4b02f0da7569fa9,Lin's,47.407862,8.547326,Asian Restaurant
206,206,47.36,8.57857142857143,1,0,4fbe8b46e4b00c059c75a130,Restaurant Degenrried,47.36048198887878,8.580441777898878,Arepa Restaurant
319,319,47.37000000000001,8.535714285714286,50,40,4fbf5e13e4b07afe94be916e,Sukhothai,47.374140784642755,8.536393122148867,Thai Restaurant
890,890,47.42,8.364285714285714,6,2,4fbfb86ae4b02131f9e9842b,Restaurant Central,47.41936649242796,8.36598676357391,Swiss Restaurant
427,427,47.38,8.507142857142858,22,13,4fc3a0a1e4b0f6b4eebe00c7,Relais des Arts,47.380315,8.506680000000001,German Restaurant
1017,1017,47.45,8.564285714285715,15,4,4fc7a9c7e4b0fd7896db78dd,Intermezzo,47.4509934820575,8.560495169601221,Italian Restaurant
567,567,47.38,8.65,2,1,4fcbb32ae4b03cf73d3752e8,Pizzeria Schwanen,47.37955915879231,8.652375086644803,Italian Restaurant
1301,235,47.3722609293324,8.54668403030061,30,23,4fd269e4e4b0abd66471a76a,Les Douceurs,47.373470000000005,8.544325,French Restaurant
581,581,47.39,8.478571428571428,11,6,4fdb44d9e4b0ba0b1817e4f9,Restaurant Krone,47.38837461240586,8.483729777142134,Swiss Restaurant
811,811,47.41,8.535714285714286,14,1,4fe0a6abe4b096aa580a6d0b,Restaurant Hofwiesen,47.406335572609116,8.537707760388214,Austrian Restaurant
93,93,47.35,8.57857142857143,4,1,4fe24ff2e4b083930bbdc1a8,angel foods,47.350747551092475,8.583577569331167,Swiss Restaurant
705,705,47.4,8.392857142857142,5,0,4fe4eb22e4b0d55efea120fa,Heimat,47.40225093668161,8.39577788414136,Swiss Restaurant
121,121,47.36,8.521428571428572,40,12,4fe83603e4b0faa0b9f5e0af,Utoburg,47.361679016527965,8.517729012944063,Swiss Restaurant
408,408,47.38,8.492857142857142,10,4,4fef4821e4b00e3bf89bc73a,Mangostan,47.37792329452855,8.498367248392253,Thai Restaurant
138,138,47.36,8.521428571428572,40,29,4ffea34ee4b042ae8a92e6da,Thai Restaurant Take Away,47.363563494416454,8.520373783751984,Thai Restaurant
761,761,47.4,8.535714285714286,8,4,50009afce4b062a7b1f78b1b,Restaurant Meister Gao,47.39715514594286,8.53221284259897,Chinese Restaurant
547,547,47.38,8.55,24,11,50054fd0e4b0b93071c29e50,Orient Catering,47.37895608397649,8.544710238158048,Middle Eastern Restaurant
1060,1060,47.46,8.521428571428572,1,0,5021fac4e4b006118398bcdf,Pizzeria La Casetta,47.460751486552866,8.51922389025628,Italian Restaurant
1296,230,47.3722609293324,8.54668403030061,30,18,50224234e4b01df8a07932fd,Careda Napoli,47.371773,8.543797,Italian Restaurant
50,50,47.33,8.621428571428572,2,0,5025493ee4b0c6da265fbc3f,Gasthof Rössli,47.33097454077704,8.624578122103829,Swiss Restaurant
917,917,47.42,8.55,13,3,502cb5e5e4b089f5e555e34c,Da Pepino,47.419796999999996,8.548051,Italian Restaurant
410,410,47.38,8.492857142857142,10,6,503deb75e4b0957094d68e02,Cafe Italiano,47.377922,8.492645,Italian Restaurant
696,696,47.39,8.55,4,2,5040d7f7e4b029b248d18db0,Bistro Quadrino,47.39145284689511,8.553331393007158,Swiss Restaurant
532,532,47.38,8.535714285714286,50,46,5040f522e4b01c18090288c6,Vitruv Restaurant & Bar,47.379399600000006,8.5420914,Swiss Restaurant
122,122,47.36,8.521428571428572,40,13,50410a6ae4b0350e01ba58b5,Ploy Thai,47.36397707754647,8.520310060228992,Thai Restaurant
127,127,47.36,8.521428571428572,40,18,50410e36e4b08d5b61b3201c,Zur Goldenen Rose,47.360056541557206,8.52284791526678,Italian Restaurant
269,269,47.37000000000001,8.521428571428572,50,40,5047258ae4b04d16cd29964c,Dr Döner vor dr Migros,47.374069565841815,8.522592336490149,Turkish Restaurant
117,117,47.36,8.521428571428572,40,8,504725bbe4b0b85009df35d8,Safran,47.36213893575214,8.526390452224524,Turkish Restaurant
16,16,47.31,8.57857142857143,2,1,5048eab4e4b0f7c26ecb2f51,Restaurant Gueggelisternen,47.31102480096778,8.583820584934449,Swiss Restaurant
1536,470,47.382260929332396,8.539030884303825,11,5,50536827e4b0e59cc7538573,African Queen,47.38186533190176,8.541956671043529,African Restaurant
739,739,47.4,8.45,25,22,5065c52ce4b04f95ca44e5a3,You You Stix,47.39810737978246,8.446903716367233,Chinese Restaurant
903,903,47.42,8.407142857142857,4,3,506d7232e4b0dbcc80fb61a1,Pizzeria Geroldswil,47.42212134418333,8.409997331161769,Italian Restaurant
19,19,47.31,8.592857142857143,3,2,506de55be4b0c3dbe09503c3,Ristorante Sinfonia,47.30571675833087,8.591134162207798,Italian Restaurant
958,958,47.43,8.464285714285714,10,9,507ec224e4b0894ae74c26e1,Rägi Snack,47.432975,8.46782,Turkish Restaurant
392,392,47.37000000000001,8.592857142857143,1,0,507fd337e4b0225db1cf908c,Rössli,47.36666578238739,8.590348350005852,Swiss Restaurant
626,626,47.39,8.507142857142858,21,17,50892871e4b03043b57a805e,Pizza Ruccola,47.39418631781847,8.505786866731404,Italian Restaurant
953,953,47.43,8.464285714285714,10,4,508bf921e4b0c9eb71c9aa12,Kebap Treff,47.429215,8.46787,Turkish Restaurant
1186,120,47.3722609293324,8.532398316014898,25,15,50926d25e4b04afbb0af7d40,Purple roshan,47.37083676868164,8.53178496813967,Asian Restaurant
1523,457,47.37773907066761,8.532397687124748,36,28,509a9381e4b0314c3572fb2b,Ristorante Pizzeria Santa Maria,47.37702555262696,8.530042280978423,Italian Restaurant
891,891,47.42,8.364285714285714,6,3,509d1f403d7c56bd1382ba4b,a mo',47.42157343674613,8.368162130319714,Italian Restaurant
1021,1021,47.45,8.564285714285715,15,8,509d1f403d7c56bd1382ba60,Pizza&Pasta,47.45031858783206,8.562400370208273,Italian Restaurant
217,217,47.37000000000001,8.492857142857142,4,0,509d43bae4b0383a0d519852,Restaurant Oberes Triemli,47.366876,8.493248,Swiss Restaurant
215,215,47.37000000000001,8.45,3,2,50a50e5fe4b0828c857ea3ef,Restaurant Frohsinn,47.37057495117188,8.452201843261719,Swiss Restaurant
582,582,47.39,8.478571428571428,11,7,50a7fd59e4b0ee89cfc0c01d,Zur Krone,47.38828788003395,8.484201496827298,Swiss Restaurant
383,383,47.37000000000001,8.564285714285715,11,4,50ae12dce4b0f706ce6ec057,Justus,47.367271453841184,8.560959287756278,Swiss Restaurant
1587,521,47.37773907066761,8.539030884303825,49,45,50ae8222e4b0774bf5d29145,Crêpes Royal,47.375581,8.538317999999999,French Restaurant
840,840,47.41,8.55,43,16,50af9cf6e4b0a7121168b6fe,Simit Sarayi,47.406638,8.549223,Turkish Restaurant
51,51,47.33,8.621428571428572,2,1,50b0c312e4b014937ac10340,Italia 2000 da Remo,47.33240614441421,8.62377056161826,Italian Restaurant
653,653,47.39,8.521428571428572,44,23,50b504cde4b046c09f2fc14d,Fonduehalle,47.388586,8.522134,Swiss Restaurant
742,742,47.4,8.464285714285714,5,0,50b5eb19e4b0dffb8d3aa841,LiLi,47.398281,8.459611,Asian Restaurant
690,690,47.39,8.535714285714286,20,16,50b7b214e4b0035996871210,Älplerstube,47.392393759332826,8.536669630614464,Swiss Restaurant
1520,454,47.37773907066761,8.532397687124748,36,25,50bc8a69e4b05ed27f0828b9,Piz Europa,47.37688876761072,8.534672428768918,Swiss Restaurant
1268,202,47.36773907066761,8.539030255413675,19,14,50c238c4e4b0abeb9ee17b02,Ristorantino,47.369170000000004,8.539431,Italian Restaurant
1565,499,47.37773907066761,8.539030884303825,49,23,50c5d34fe4b0fe852f2adf60,Flammkuchen,47.375636,8.538399,Swiss Restaurant
7,7,47.31,8.521428571428572,5,1,50ccbb18e4b0956d32dc2421,Restaurant Piccolino,47.31045921362893,8.52561460344991,Italian Restaurant
1444,378,47.38,8.535714285714286,29,27,50d19e31e4b08647ff73af9a,Konrad 39,47.3808470348368,8.535442821672161,Swiss Restaurant
795,795,47.41,8.407142857142857,12,9,50d5a115e4b00d641ab841eb,Foodbar,47.40938882134093,8.404884207484717,Asian Restaurant
1588,522,47.37773907066761,8.539030884303825,49,46,50dc872be4b0ab7cced8c974,Walisserkanne,47.376610306347764,8.538717315730542,Swiss Restaurant
1409,343,47.37773907066761,8.524745170018111,42,34,50ec083be4b06f44b71e2d07,santa maria,47.37621897811058,8.526368740545246,Italian Restaurant
833,833,47.41,8.55,43,9,50f15cf472da95fc8f99bca4,Brasserie Ö,47.40858807491452,8.546268939971924,French Restaurant
956,956,47.43,8.464285714285714,10,7,50f5a575e4b046fbc9c3c224,Gasthof Hirschen,47.429456575557396,8.469098865485044,Swiss Restaurant
91,91,47.35,8.564285714285715,9,8,50fecabfe4b0117442aa858c,Ristorante La Zagra,47.34886727352571,8.563157722798685,Italian Restaurant
1203,137,47.36773907066761,8.532398316014898,8,7,510291e7e4b02b0ca8c5f654,Antica Roma,47.369901057055245,8.531662332427857,Italian Restaurant
1489,423,47.382260929332396,8.532397687124748,49,43,51065a69e4b0fc9c3800f206,Tant Pis,47.38197760358885,8.53312896344786,Mediterranean Restaurant
212,212,47.37000000000001,8.42142857142857,1,0,5113f95be4b0d3c10298bdbd,Old Town,47.37181658476047,8.416117485138813,Malay Restaurant
923,923,47.42,8.55,13,9,511690ece4b059beb57b10b6,Restaurant Ganges,47.419277,8.547636,Indian Restaurant
882,882,47.41,8.621428571428572,3,0,5116b726e4b01c59425ed410,Picasso Pizzeria,47.412787467992935,8.61970054689324,Italian Restaurant
193,193,47.36,8.55,31,29,511a279be4b02a26a5dd017c,Thai,47.357287,8.553034,Thai Restaurant
1259,193,47.36773907066761,8.539030255413675,19,5,511b523ae4b091eb630b2b18,Savoy Restaurant,47.369614275887706,8.539686259013289,Swiss Restaurant
103,103,47.36,8.364285714285714,2,1,511b7513e4b0b0417a8c99f2,Berikon Treff,47.362342,8.367231,Turkish Restaurant
1287,221,47.3722609293324,8.54668403030061,30,9,511cde09e4b09e1aaeb6ebe3,Kalkanoglu Pilav,47.37291,8.54391,Swiss Restaurant
181,181,47.36,8.55,31,17,511d2f0be4b0276aef219a3b,Reinarts art gallery/sushi bar,47.36299649132752,8.550787991019451,Sushi Restaurant
671,671,47.39,8.521428571428572,44,41,51250686e4b0a4573592d45f,Saltinbocca Toscanische Spezialitäten,47.387718183865324,8.526587129758212,Italian Restaurant
1342,276,47.36773907066761,8.54668403030061,35,34,512665fce4b0d5571ed4084a,Sushi Bar in Globus,47.366395192275675,8.545887159359275,Sushi Restaurant
794,794,47.41,8.407142857142857,12,8,513253e8e4b0d70761d10798,Mommy & Daddy,47.40956,8.406384,Turkish Restaurant
802,802,47.41,8.45,3,2,5137c31de4b0ca7b39407dcb,Noura Take Away,47.406476,8.447695,Middle Eastern Restaurant
1490,424,47.382260929332396,8.532397687124748,49,44,51387e61e4b032c75e900de7,Himalaya,47.3819497,8.5339203,Tibetan Restaurant
911,911,47.42,8.521428571428572,1,0,5144bceae4b076f4a5153afc,Villa Bacco,47.421268,8.522999,Italian Restaurant
1050,1050,47.45,8.592857142857143,7,5,51482f82e4b09ae407878b38,Yooji's Produktion,47.451790796861886,8.589468464167375,Sushi Restaurant
817,817,47.41,8.535714285714286,14,7,5148541be4b07d65d6d6a5b8,Delicious Dumpling,47.409889,8.535112,Asian Restaurant
1476,410,47.382260929332396,8.532397687124748,49,30,51499aeee4b04f83023f714e,grün blatt kwok,47.3828125,8.530682563781737,Chinese Restaurant
892,892,47.42,8.364285714285714,6,4,514c68aae4b00a5d00524d11,Restaurant Umweltarena,47.42252250730753,8.36677825985627,Arepa Restaurant
208,208,47.36,8.592857142857143,2,1,5152d4f1e4b0c5b84cd709bf,Crown of India,47.359200624386425,8.59205854090565,Indian Restaurant
44,44,47.33,8.507142857142858,1,0,51542b90e4b040df875a492e,Zum Hüsli,47.328443,8.5124,Restaurant
685,685,47.39,8.535714285714286,20,11,51543675e4b09eaac3b20790,Moudi's Lecker Cafe,47.38791062983105,8.539350940533918,Middle Eastern Restaurant
163,163,47.36,8.535714285714286,15,14,51546378e4b00958a0cf56a8,restaurant belcanto,47.36215209960938,8.540783882141112,Swiss Restaurant
132,132,47.36,8.521428571428572,40,23,51561661e4b00e20009621ff,Kervan,47.36096454072381,8.525959594908187,Turkish Restaurant
1292,226,47.3722609293324,8.54668403030061,30,14,51645d64e4b00a0b973cf619,Restaurant Hirschplatz,47.374210580593996,8.546775880155884,Italian Restaurant
779,779,47.4,8.607142857142858,4,3,51699946e4b038b9323702e0,City und wellness Restaurant,47.397325,8.605796,Eastern European Restaurant
683,683,47.39,8.535714285714286,20,9,516fcad2e4b0ad9826e0fb1e,thai mähnamnan,47.387267062893315,8.539653146427034,Thai Restaurant
162,162,47.36,8.535714285714286,15,13,5172e0f3e4b0199b34686374,Ristorante Tartufo,47.361693,8.532129,Italian Restaurant
482,482,47.38,8.521428571428572,50,46,5177ba9c498eac4e68f4b58e,Hua Hin,47.375719000000004,8.519767,Asian Restaurant
70,70,47.35,8.378571428571428,2,1,51810258498eb5b487730699,Stalden,47.348914,8.377495,Swiss Restaurant
1533,467,47.382260929332396,8.539030884303825,11,2,518d29a8498e07aa4b5ad915,Cafe Restaurant Prisma,47.38379492859094,8.540389269615115,Portuguese Restaurant
1530,464,47.37773907066761,8.532397687124748,36,35,518d41b2498ecf553fcba640,Dr Schwiizer,47.377844576698465,8.529685142877996,Swiss Restaurant
693,693,47.39,8.535714285714286,20,19,519ca881498e038692186fd9,Il Restorantino,47.389207766965896,8.537822069919677,Italian Restaurant
14,14,47.31,8.55,4,3,519d1fcd498eecce9090df13,Da Toni Rüschlikon,47.309215,8.554616000000001,Italian Restaurant
1045,1045,47.45,8.592857142857143,7,0,519db0cf498e828ab63c77a6,Il Cappuccino,47.45127304425149,8.589299560301045,Italian Restaurant
1057,1057,47.46,8.42142857142857,1,0,51a772c1e4b036fe442a9082,Grill Ueli,47.458093560410745,8.425292710748662,Swiss Restaurant
914,914,47.42,8.55,13,0,51a83aaa498ea3f1201701bf,Chez Prof Dr,47.41987817739807,8.544173955960266,Swiss Restaurant
1559,493,47.37773907066761,8.539030884303825,49,17,51adcc1e498e2abd4679e670,Sein,47.376246,8.540149000000001,Tapas Restaurant
791,791,47.41,8.407142857142857,12,5,51b1f6e5498e57989f83e115,TOMATE,47.4085807800293,8.405611991882324,Italian Restaurant
1439,373,47.38,8.535714285714286,29,22,51b8b07a498ef5a0a5c214bd,Atrisse Moukthar Khodor Lebanese Restaurant,47.379646,8.536533,Middle Eastern Restaurant
858,858,47.41,8.55,43,34,51b9a254498e165e6cdfe0f7,Papagallo,47.41377866464915,8.55213795870615,Italian Restaurant
745,745,47.4,8.464285714285714,5,3,51baf7fa498ed5bbc6eb4e31,Lotus Vietnam,47.39842506866334,8.45940966498835,Asian Restaurant
1016,1016,47.45,8.564285714285715,15,3,51c278c6498e94e9cb7705ef,Chalet Suisse,47.45232195566386,8.561247869779313,Swiss Restaurant
1000,1000,47.44,8.564285714285715,8,7,51c7395c498e8400095317f4,Szechuan China Restaurant,47.43813659245321,8.56021244595983,Chinese Restaurant
715,715,47.4,8.435714285714285,4,2,51cbf44a498ee45dfb768bec,Andulino,47.40044057066165,8.440958498491053,Italian Restaurant
1513,447,47.37773907066761,8.532397687124748,36,18,51cc6a90498e46bd9fa64d7f,Little Italy,47.37846704971846,8.53043904318513,Italian Restaurant
1191,125,47.3722609293324,8.532398316014898,25,20,51d46bd2498e7454197ab545,Stauffacher Tor,47.371950058580296,8.53079162265003,Swiss Restaurant
847,847,47.41,8.55,43,23,51dc8e4b498ea9db8a5eec59,Toros Imbiss,47.409105,8.545558999999999,Middle Eastern Restaurant
1566,500,47.37773907066761,8.539030884303825,49,24,51dd3f6c498ee78bca0ffe03,La Soupiere,47.37712618279358,8.539223281416433,Swiss Restaurant
1183,117,47.3722609293324,8.532398316014898,25,12,51efaf7a498e999f96809ea0,Thai Take Away,47.37213813544712,8.530272142598525,Thai Restaurant
1474,408,47.382260929332396,8.532397687124748,49,28,51f7e09a498e9fdd062d7ba3,Casa da Picanha,47.38205290486296,8.530122765608724,Brazilian Restaurant
835,835,47.41,8.55,43,11,51f7fe58498ec5ce86fd139d,Doenerburger,47.410006556507646,8.546853724906768,Turkish Restaurant
702,702,47.39,8.621428571428572,4,2,51f963a0498e018790b0b959,Ristorante Pinocchio,47.390336,8.617379,Italian Restaurant
621,621,47.39,8.507142857142858,21,12,51fbeffb498ef6611e818c40,NENI,47.391229860179365,8.50990299317113,Israeli Restaurant
692,692,47.39,8.535714285714286,20,18,51ff7312498e93018b84015a,Janni.ch,47.386634,8.53984,Italian Restaurant
844,844,47.41,8.55,43,20,51ff8e64498e6222ea68ba11,Dönburger Take Away,47.411036756730326,8.545315098017456,Fast Food Restaurant
850,850,47.41,8.55,43,26,52013213498e9178ab9e16af,Little Nooch Asian Streetfood,47.41123460919643,8.543782532215117,Asian Restaurant
1608,17,47.3733913939986,8.537372199485024,12,5,520219b3498ee7be353a0c49,Sopra Due,47.37407385258145,8.536527278257829,Italian Restaurant
21,21,47.32,8.521428571428572,6,0,5204c230498e69adfc75438c,Restaurant Tomate,47.31976503021332,8.521573086854309,Italian Restaurant
180,180,47.36,8.55,31,16,520963bb11d210661a897da8,Zaughauskeller,47.362237,8.547582,Swiss Restaurant
813,813,47.41,8.535714285714286,14,3,520bb8fa11d26720d8ef1bbe,Datto Sushi Bar,47.41325278331313,8.538566105131315,Japanese Restaurant
677,677,47.39,8.535714285714286,20,3,520bbb3c11d238ff739372d4,Lebanes Take Away,47.39273194393034,8.537579136460177,Middle Eastern Restaurant
192,192,47.36,8.55,31,28,520caa8e11d2150841c9b45f,Hua Hin,47.357172,8.552835,Thai Restaurant
149,149,47.36,8.535714285714286,15,0,520e014811d2873c6317e341,La Mimosa Pizzaria,47.363555473797156,8.533962105925509,Italian Restaurant
916,916,47.42,8.55,13,2,5211fab511d286b523f02b82,Bistro Antep,47.417813,8.546217,Turkish Restaurant
888,888,47.42,8.364285714285714,6,0,5213493411d2db5191e974d0,Restaurant Swiss,47.422323999999996,8.362124,Swiss Restaurant
130,130,47.36,8.521428571428572,40,21,521646c1498ebe5484b1caa6,Kurry World,47.358501000000004,8.523469,Indian Restaurant
580,580,47.39,8.478571428571428,11,5,521782ef11d2f52ef9354d7c,Lindenhof,47.387838880559336,8.481569257455911,Swiss Restaurant
627,627,47.39,8.507142857142858,21,18,52207119498e557e528777fe,Panino Più,47.39028336264847,8.509382867094562,Italian Restaurant
551,551,47.38,8.55,24,15,52288bef11d255d713b69d01,The Pasteria Italiana,47.38018661094287,8.548963790751179,Italian Restaurant
1479,413,47.382260929332396,8.532397687124748,49,33,5228dbbe11d27fcd380433bc,Star Take-Away,47.38315009623464,8.530908108463066,Turkish Restaurant
898,898,47.42,8.392857142857142,2,0,522efa3411d24f9acd05e491,Fanclub 46,47.418457781951076,8.398708179191251,Italian Restaurant
936,936,47.42,8.564285714285715,10,9,52321d9e11d2e196383f7427,Asia Place,47.422619501192315,8.564120953750301,Asian Restaurant
1055,1055,47.46,8.378571428571428,1,0,5232ec4711d27c4f92924a5f,Haldengut,47.45848846435547,8.3798828125,Swiss Restaurant
889,889,47.42,8.364285714285714,6,1,5234b25e11d2bfb61778ed21,Osmanliı mutfağı,47.42105587474248,8.370019143610667,Mediterranean Restaurant
706,706,47.4,8.392857142857142,5,1,5236f365498e2be1423ca1b9,Huong's Good Food,47.40162589442726,8.391978825691996,Asian Restaurant
798,798,47.41,8.435714285714285,2,0,52382ee9498e4688327435a1,Thai Food,47.41297509938596,8.43946310320719,Thai Restaurant
224,224,47.37000000000001,8.507142857142858,8,3,5241dbb511d2f9f64b61ed38,Payam Kiosk Imbiss,47.370069,8.512021,Middle Eastern Restaurant
1048,1048,47.45,8.592857142857143,7,3,52431b1511d201ffdd693b9a,You You,47.45032501220703,8.593400001525879,Chinese Restaurant
1481,415,47.382260929332396,8.532397687124748,49,35,5249acc011d2b72efe30af84,tantpis,47.382179260253906,8.533476829528809,Mediterranean Restaurant
758,758,47.4,8.535714285714286,8,1,524b40fc11d299c8c4c9caa2,Chäsalp,47.39739084899573,8.541105233427492,Swiss Restaurant
783,783,47.4,8.621428571428572,6,3,524c5f98498eabd592a5b1db,Restaurant Hürlimann,47.396918,8.617331,Swiss Restaurant
866,866,47.41,8.55,43,42,5255b4ad11d27db63ff4df55,Malabar,47.41033708634003,8.548541435228897,Indian Restaurant
732,732,47.4,8.45,25,15,5257d1d8498ebe13f01b89eb,Thai Food,47.398019,8.451165,Thai Restaurant
1257,191,47.36773907066761,8.539030255413675,19,3,5257ec6711d291178a9a536c,Heuguemper,47.368854999999996,8.541307000000002,Swiss Restaurant
31,31,47.32,8.55,7,3,52585e8811d2f03f5f3ea548,Trotte Kilchberg,47.32256636675602,8.550025734783638,Swiss Restaurant
1047,1047,47.45,8.592857142857143,7,2,525d7b8b11d22e7fd56589e1,Restaurant Flavour Kloten,47.45166803027215,8.590391612436191,Indian Restaurant
1020,1020,47.45,8.564285714285715,15,7,5266adbc11d2aaa0781c1fc7,Scala Bistro In San Francisco,47.453327,8.561183,Italian Restaurant
612,612,47.39,8.507142857142858,21,3,5267ad2911d21b460f824274,naanu,47.39049071722899,8.509122213389844,Indian Restaurant
216,216,47.37000000000001,8.464285714285714,1,0,5267c7d611d2862050d35173,Feldschlosschen,47.366177545916436,8.46588399312599,Swiss Restaurant
676,676,47.39,8.535714285714286,20,2,52680cf611d24e5bba02d895,Moudi's,47.387909,8.539098,Moroccan Restaurant
62,62,47.34,8.535714285714286,4,3,52762b2311d2989ae1204539,Green Papaya,47.34060790659205,8.530398310213236,Asian Restaurant
20,20,47.32,8.378571428571428,1,0,5276556a11d2b8a3cb440c96,Schindeli,47.32433783331355,8.379306793212889,Swiss Restaurant
45,45,47.33,8.521428571428572,2,0,52768b2c498e0d29796bce60,Marrakesh,47.330881,8.515792,Moroccan Restaurant
872,872,47.41,8.592857142857143,13,3,5278d6c411d213a0f87d5e96,Zapote,47.40999846453287,8.595213834155299,Mexican Restaurant
838,838,47.41,8.55,43,14,527962d2498ecc6c44951ad3,Salt & Pepper,47.411290965746076,8.545579483748549,Italian Restaurant
558,558,47.38,8.55,24,22,527b8ed511d25b18254cf901,Partho Store and Take Away,47.37978344352594,8.548007011413574,Indian Restaurant
1574,508,47.37773907066761,8.539030884303825,49,32,5283348011d290ac38bc8787,Yoshi's,47.376455055552576,8.538861647494839,Asian Restaurant
1051,1051,47.45,8.592857142857143,7,6,528b4d5f11d2b13f1cafc4b4,Marcos,47.4492826936656,8.592999145946377,Italian Restaurant
421,421,47.38,8.507142857142858,22,7,528fd00711d211bde7ec91fa,"Galant Plaza ""u Turka""",47.379134,8.511042,Turkish Restaurant
700,700,47.39,8.621428571428572,4,0,5294af2c498e9e37cf85aa4c,kafi näbedra,47.389758,8.616856,American Restaurant
106,106,47.36,8.507142857142858,3,0,529a5d47498e9a715247ab29,Berkegrill,47.362849899656545,8.502236606444862,German Restaurant
1010,1010,47.45,8.535714285714286,5,2,529b829011d289d00e4ec136,Imigine Zurich,47.450669,8.530096,Swiss Restaurant
260,260,47.37000000000001,8.521428571428572,50,31,529dbe5611d218ae6990eaef,Bam Boo,47.374064109670506,8.522042268795609,Thai Restaurant
920,920,47.42,8.55,13,6,529dbefb11d2ae93bbeaf75d,Đồng Quê,47.420124,8.548454,Vietnamese Restaurant
992,992,47.44,8.478571428571428,3,2,529e22d711d27fc471da8eff,Thessoni,47.438721,8.476479,Italian Restaurant
1192,126,47.3722609293324,8.532398316014898,25,21,52a72ae911d28c7f2d479309,Di Nastro,47.372748,8.534104,Italian Restaurant
785,785,47.4,8.621428571428572,6,5,52bc663111d20c1990608d1f,beim yaprak,47.40018747169016,8.622376063282065,Middle Eastern Restaurant
856,856,47.41,8.55,43,32,52decf57498e8ab85f08150b,Paul's Chäs Stübli,47.409165,8.547427,Swiss Restaurant
156,156,47.36,8.535714285714286,15,7,52e25f9c498e43c9afe362c8,Sousou,47.36367556108474,8.532307926800963,Middle Eastern Restaurant
1522,456,47.37773907066761,8.532397687124748,36,27,52e386da498ee2a47524be38,Taste of Greece,47.378420820246504,8.531490558421178,Greek Restaurant
176,176,47.36,8.55,31,12,52f7de06498efd7a34ade1c6,La Cucina,47.358031,8.549123,Italian Restaurant
384,384,47.37000000000001,8.564285714285715,11,5,52fca0f1498e8ba51f6a135f,FIFA Members Club,47.36745064288834,8.567792128307126,Modern European Restaurant
56,56,47.34,8.478571428571428,3,1,5301116d498e27cc28f3bef7,3 linde,47.337334999999996,8.474865,Asian Restaurant
968,968,47.43,8.564285714285715,18,6,5304e953498e8936ea31f350,Bruno's Restaurant,47.43136059859364,8.560744549620976,Thai Restaurant
1035,1035,47.45,8.57857142857143,17,7,53062635498ed40666813b37,Pasta e Pizza Valentino,47.45375275030447,8.579303461512819,Italian Restaurant
823,823,47.41,8.535714285714286,14,13,5307d49b498eaf4d68c0b75d,Associação Portuguesa de Zurique,47.406772946662606,8.536663313849639,Portuguese Restaurant
623,623,47.39,8.507142857142858,21,14,5308ecdb498e58746c2ad520,Route Twenty-Six,47.39057930680565,8.510020564008526,Swiss Restaurant
6,6,47.31,8.521428571428572,5,0,530a61ed498ea2a3a8774a4a,restaurant Riviera Enoteca con cucina,47.31373137598772,8.521980962256961,Italian Restaurant
25,25,47.32,8.521428571428572,6,4,5310762a498e8a789ebaa534,Linde,47.317364000000005,8.524735,Austrian Restaurant
726,726,47.4,8.45,25,9,5311dd7f498e06c8da02658e,Restaurante Fabiana,47.402636438344715,8.44903977490656,Portuguese Restaurant
728,728,47.4,8.45,25,11,53134798498ee358655214b1,Casa do Benfica de Zurique,47.3987922668457,8.455080032348633,Portuguese Restaurant
571,571,47.39,8.392857142857142,3,2,53136aa411d2aa0962c5076f,il Tartufo,47.39149625450448,8.38977169350032,Italian Restaurant
1477,411,47.382260929332396,8.532397687124748,49,31,53147be9498eb8435b2469dc,aMano Pasta Caffé,47.382634292169314,8.534145238724896,Italian Restaurant
402,402,47.38,8.478571428571428,2,0,531b6aac498ed46dec0a1bda,Sonne Libanon,47.3822381,8.4838755,Middle Eastern Restaurant
589,589,47.39,8.492857142857142,23,3,532f522111d2d55ec7f56695,zeughousekeller,47.390217362889736,8.486241106443645,Swiss Restaurant
809,809,47.41,8.521428571428572,2,1,53318997498e601c4fe44d94,Restaurant Hirschen,47.41213225058682,8.524278118401357,Greek Restaurant
1187,121,47.3722609293324,8.532398316014898,25,16,5331c36b498ed77d72ae3612,Antica Roma,47.37030487916721,8.531739533370407,Italian Restaurant
860,860,47.41,8.55,43,36,5343c800498e84d51a66646d,Yellow,47.411388,8.553258999999999,Swiss Restaurant
707,707,47.4,8.392857142857142,5,2,534576b4498eb4d463559952,Luo,47.401542,8.397634,Chinese Restaurant
836,836,47.41,8.55,43,12,5356a376498e5b00c4675c78,Lam Take Away Restaurant,47.41279983520508,8.545207023620605,Chinese Restaurant
1368,302,47.37773907066761,8.518111972839034,11,9,536263c1498ed583ede96dff,El silio,47.3764,8.51624,Brazilian Restaurant
1169,103,47.37000000000001,8.535714285714286,26,24,53636b8b498e9833536789f2,cha chã,47.370515421274966,8.535591217548651,Thai Restaurant
1116,50,47.3722609293324,8.524744541127964,33,13,536519f311d219d9b8b5e8a7,coleseum,47.37431504098814,8.524269613800694,Italian Restaurant
1480,414,47.382260929332396,8.532397687124748,49,34,5365ed4b498e587a6f4b8d7a,Pastel Brasil,47.382519,8.530576,Brazilian Restaurant
1059,1059,47.46,8.435714285714285,2,1,5367bc9d498e587a6f8a3f4f,Restaurant Weinberg,47.46007163463587,8.437684366602229,Swiss Restaurant
951,951,47.43,8.464285714285714,10,2,53751a01498eaf6424c7b3af,asiatown restaurant,47.43109512329102,8.467923164367676,Cantonese Restaurant
109,109,47.36,8.521428571428572,40,0,5380dd9a498eb7855e844792,kai sushi Lessing,47.36004182179296,8.52364577800537,Sushi Restaurant
1133,67,47.3722609293324,8.524744541127964,33,30,53845ec9498ea82192e0ab97,Panelio,47.373531,8.526206,Italian Restaurant
423,423,47.38,8.507142857142858,22,9,538b67c0498ef00115ea9106,Nestor,47.380705523612086,8.503956967540983,French Restaurant
1029,1029,47.45,8.57857142857143,17,1,538df949498e280206ef4177,Zermatt Baracca,47.451247960798455,8.583691515287317,Swiss Restaurant
79,79,47.35,8.521428571428572,4,3,5392e13f498e10da32cb06a8,magyar bolt zürich,47.352359675304655,8.524478617587285,Hungarian Restaurant
1158,92,47.37000000000001,8.535714285714286,26,13,5396d76a498e8a555af90812,Thai Erawan Take Away,47.3696500282051,8.536280573548504,Thai Restaurant
81,81,47.35,8.535714285714286,3,1,5399e3ab498e4bc6855acac7,"""D"" Summer Hub",47.347089613013104,8.535828150696448,Modern European Restaurant
810,810,47.41,8.535714285714286,14,0,53a056e0498e79c674f82a24,"Lemon Food & drinks, Karatas",47.40931243406732,8.538283105574301,Kebab Restaurant
1004,1004,47.45,8.435714285714285,3,0,53a6cc71498ef405d8b09f0f,brasil bar,47.451987,8.435392,Brazilian Restaurant
978,978,47.43,8.564285714285715,18,16,53a806a7498e5c9d634e8b12,Gogi's Take Away,47.43223392260975,8.559841502995695,Thai Restaurant
788,788,47.41,8.407142857142857,12,2,53aebaff498e81285138fde9,Domino's Pizza,47.410168224115594,8.404771777306149,American Restaurant
710,710,47.4,8.407142857142857,3,0,53bd3020498ebfa47ad3f558,Restaurant Luo,47.401511499445455,8.400935377698643,Chinese Restaurant
876,876,47.41,8.592857142857143,13,7,53be7891498eae8fde8de4c9,4Foods,47.410098,8.591946,Asian Restaurant
1465,399,47.382260929332396,8.532397687124748,49,19,53c4465e498edc618e1344c8,Restaurant Perle de Beirut,47.38186645507813,8.529524803161621,Middle Eastern Restaurant
1488,422,47.382260929332396,8.532397687124748,49,42,53c90bc2498ec6ddfaf39f22,Goi's Thai Kitchen,47.38180541992188,8.529170989990233,Thai Restaurant
789,789,47.41,8.407142857142857,12,3,53d63097498eecb01f6235dc,Serratore,47.410339,8.404755999999999,Italian Restaurant
651,651,47.39,8.521428571428572,44,21,53d81141498e147fab4fb51e,Gastro suisse,47.388801,8.516989,Italian Restaurant
1064,1064,47.47,8.407142857142857,1,0,53de768c498ea71d72dbe516,Restaurant Hintergeissboden Zugerberg,47.47019404819845,8.403281573702351,Swiss Restaurant
1097,31,47.3722609293324,8.518112601729182,16,13,53e142bd498e1ea2b71dbe98,Jdaburg,47.373220792709674,8.515128384776979,Swiss Restaurant
973,973,47.43,8.564285714285715,18,11,53e41053498e80f80ba6e4e2,Hotel Muri,47.428350799628774,8.562442452278775,African Restaurant
636,636,47.39,8.521428571428572,44,6,53f4c7da498e3a73f7d9d66a,Tokyo Tapas,47.387764000000004,8.526629,Japanese Restaurant
588,588,47.39,8.492857142857142,23,2,54195e20498e3e9f1ca4f9a8,triangolo,47.387389,8.488358999999999,Italian Restaurant
980,980,47.43,8.57857142857143,4,0,54245b0b498e6b801586dbbe,Wunderbrunnen,47.43166981046315,8.576467664233514,Swiss Restaurant
433,433,47.38,8.507142857142858,22,19,543a95ab498eee6cfb59740e,Marroni Stand Albisriederplatz,47.38113422307568,8.510961897043837,Swiss Restaurant
1264,198,47.36773907066761,8.539030255413675,19,10,543d09b3498eaf92feb13093,Restaurant Glärnischhof,47.367592,8.536734,Swiss Restaurant
874,874,47.41,8.592857142857143,13,5,544abb89498e2c55cc0d13d9,Sahar,47.40983309458003,8.595554398771707,Indian Restaurant
214,214,47.37000000000001,8.45,3,1,544d55e5498e767f7785e8ef,Giardino Verde,47.3663330078125,8.451346397399902,Modern European Restaurant
23,23,47.32,8.521428571428572,6,2,545caa36498e6517905ca65f,Restaurant Sodmatte,47.318653999999995,8.524106,Swiss Restaurant
664,664,47.39,8.521428571428572,44,34,54626758498ed54f2f888a4c,miami,47.388988,8.517742,Asian Restaurant
857,857,47.41,8.55,43,33,546b33e9498eb4633ab66e0a,Argentina Steakhouse,47.41365254602483,8.552103791284027,Argentinian Restaurant
157,157,47.36,8.535714285714286,15,8,5470e92b498e0e7f595e14c6,Isa's kitchenisa's kitchen,47.359132,8.534429,Asian Restaurant
922,922,47.42,8.55,13,8,548d791c498e0c4238fd479a,Restaurant Landhuus,47.421545,8.549546000000001,Eastern European Restaurant
790,790,47.41,8.407142857142857,12,4,5495a9b9498eb35d950d9ce5,Fondue Chalet,47.41017627072096,8.40467024868032,Swiss Restaurant
1575,509,47.37773907066761,8.539030884303825,49,33,54b2c4f7498e34d1a6947f7c,Bao Burger,47.377691117306746,8.540711402893066,Asian Restaurant
869,869,47.41,8.592857142857143,13,0,54b9487f498e9dd85f1db8a8,Nooch,47.410020366659296,8.595296284403538,Asian Restaurant
982,982,47.43,8.57857142857143,4,2,54bba3e0498e3c65bab04c22,Stuebli,47.43157109152212,8.579163551330566,Swiss Restaurant
1470,404,47.382260929332396,8.532397687124748,49,24,54c2a651498e9ffb3cfe4718,Thali House,47.38302137043428,8.530126686098518,Indian Restaurant
812,812,47.41,8.535714285714286,14,2,54c4017e498edeaa806600b5,Taj Mahal Restaurant,47.409343021404865,8.538208631385888,Indian Restaurant
948,948,47.43,8.364285714285714,2,1,54cca88b498ebdd6b18424d0,Happy Restaurant Pizzeria,47.43122616658824,8.366943896485148,Mediterranean Restaurant
646,646,47.39,8.521428571428572,44,16,54d386b1498e37281b1bcfeb,Italian Monkey,47.38859950807845,8.52569265555235,Italian Restaurant
1581,515,47.37773907066761,8.539030884303825,49,39,54e8d0a0498e10052116bb89,Lobster&Oyster Restaurant,47.376346000000005,8.538898,French Restaurant
283,283,47.37000000000001,8.535714285714286,50,4,54ec9821498e62d92798e1e8,Manuel's,47.37368234509027,8.535108156656813,Cuban Restaurant
84,84,47.35,8.564285714285715,9,1,54ee3086498e2cd9fcebf590,La Trattoria Blumenau,47.349053000000005,8.563229,Italian Restaurant
133,133,47.36,8.521428571428572,40,24,54f7742f498eec8dd683ee51,Rüsterei,47.36154082004385,8.525010936437466,Swiss Restaurant
932,932,47.42,8.564285714285715,10,5,54fae223498e7a31390bb900,Japanese Fine Dining Restaurant Yu Nijyo,47.42284733292778,8.559541460874389,Japanese Restaurant
174,174,47.36,8.55,31,10,54fd6d83498e1cb9a364b4cf,Tandoori BBQ,47.35994138920268,8.552377248328453,Indian Restaurant
178,178,47.36,8.55,31,14,5502cab3498e81ee734a0b0c,Sazio,47.363508919743595,8.54942368121312,Italian Restaurant
877,877,47.41,8.592857142857143,13,8,5508847c498e8cd3b7064719,Andulino,47.40994061788457,8.594847899340241,Italian Restaurant
963,963,47.43,8.564285714285715,18,1,550ffc2f498e188b7aa1b3a0,Moma,47.43396594939031,8.56144187490376,Italian Restaurant
896,896,47.42,8.378571428571428,4,2,55105fcd498e5529e6cc4570,piccolino pizza express,47.420038,8.37526,Turkish Restaurant
630,630,47.39,8.521428571428572,44,0,551ec1d3498e0412ab1777fc,Brisket Southern BBQ & Bar,47.387772619786425,8.519049990030176,Southern / Soul Food Restaurant
417,417,47.38,8.507142857142858,22,3,5522baa4498e957d83c7eaa7,Dehli House,47.377543391693976,8.512045396061113,Indian Restaurant
694,694,47.39,8.55,4,0,552788d9498e28d0391eff9e,Moudi's lecker Garten,47.391047939698666,8.545521489280553,Middle Eastern Restaurant
545,545,47.38,8.55,24,9,552e478b498ea178146bdd3b,The Lemon Grass,47.379535,8.54792,Thai Restaurant
426,426,47.38,8.507142857142858,22,12,55329cb0498e4134d6c4db87,Ricco's Kosher Deli,47.377531,8.5119,Kosher Restaurant
841,841,47.41,8.55,43,17,553a222b498edbb29407086f,Café China-Restaurant,47.40927505493164,8.543760299682617,Chinese Restaurant
927,927,47.42,8.564285714285715,10,0,5540af7a498eba8ec9850294,Stars and Stripes American Bar,47.42050844928221,8.558772090259312,American Restaurant
727,727,47.4,8.45,25,10,558d37a0498e4097b4149df5,fabio & alberto,47.402941999999996,8.448455000000001,Italian Restaurant
1018,1018,47.45,8.564285714285715,15,5,558e8345498e00f473ffc7bd,Walter,47.45303510347674,8.561117649078371,Swiss Restaurant
743,743,47.4,8.464285714285714,5,1,55959545498e3b95e284d7ab,NASSO,47.399194269161065,8.463932080488647,Swiss Restaurant
919,919,47.42,8.55,13,5,55ba073e498ec06d52be299c,Parmigiano Ristorante Pizzeria,47.419798318808745,8.548201444355835,Italian Restaurant
209,209,47.37000000000001,8.378571428571428,3,0,55d9d292498ed916780f32df,Restaurant Pöstli,47.36778049999834,8.379950523376465,Swiss Restaurant
703,703,47.39,8.621428571428572,4,3,55fc5c08498e014e7d968095,La Bodega de Pepe,47.389790000000005,8.617066000000001,Tapas Restaurant
225,225,47.37000000000001,8.507142857142858,8,4,560505bf498e6dd35c17bda9,Oase Gloria,47.368553522090224,8.502069716800518,Doner Restaurant
1561,495,47.37773907066761,8.539030884303825,49,19,561bc252498e665332143bc3,monzoni,47.376532,8.539254,Swiss Restaurant
989,989,47.44,8.435714285714285,1,0,5631ff7d498e0c215780b66c,Bai Ka Prao,47.439547,8.440161999999999,Thai Restaurant
1122,56,47.3722609293324,8.524744541127964,33,19,563a9301cd10e8c24d4378e1,Ceviche,47.374169394434574,8.524944750917268,Peruvian Restaurant
1080,14,47.37000000000001,8.521428571428572,18,14,5649cb47498e460c79f3951f,Uto,47.371593,8.521342,Italian Restaurant
893,893,47.42,8.364285714285714,6,5,564f8f83498e080c4ee9b55d,Restaurant suisse,47.420446000000005,8.364913,Swiss Restaurant
1201,135,47.36773907066761,8.532398316014898,8,5,56575bc7498e1e236e0729be,hato,47.369209999999995,8.532494999999999,Asian Restaurant
211,211,47.37000000000001,8.378571428571428,3,2,56576fb2498e7593b13ce83f,Sweet Moon,47.368514000000005,8.380152,Thai Restaurant
24,24,47.32,8.521428571428572,6,3,565c3109498e51f6e637fd4d,Bahnhof Treff,47.32030358679693,8.521332041923444,Doner Restaurant
1202,136,47.36773907066761,8.532398316014898,8,6,566331e2498e53d32253a14a,HATO Restaurants,47.36923513089795,8.532458811387077,Asian Restaurant
94,94,47.35,8.57857142857143,4,2,5667fca4498e97b5867bf7d2,Restaurant Schulthess Klinik,47.3522399909895,8.57333472744629,Modern European Restaurant
921,921,47.42,8.55,13,7,566b2401498e340424eca86f,Mi Mi Sa,47.419151,8.547102,Korean Restaurant
607,607,47.39,8.492857142857142,23,21,569e155f498e3013cecc6469,Curry Queen Take Away,47.39104418905472,8.487492136335847,Indian Restaurant
805,805,47.41,8.478571428571428,2,1,56a349b4498ef4b16beca0af,İsviçre,47.41013989160136,8.475474644058405,German Restaurant
1501,435,47.37773907066761,8.532397687124748,36,6,56b252af498e36c6d8cfca29,Le Chef - Metas Restaurant,47.37791815324749,8.529829680919647,Swiss Restaurant
944,944,47.42,8.635714285714286,2,0,56bb24ee498ed1d45bae1f1e,Lucky Panda,47.41725273417479,8.631271710901933,Chinese Restaurant
559,559,47.38,8.55,24,23,56c0d42ccd101fc1b6bb9ff2,The kitchen,47.382362213701896,8.55032741952957,Belgian Restaurant
161,161,47.36,8.535714285714286,15,12,56c45e8ccd10fa823fc92bb4,Bistro Amore,47.363669,8.532504,Italian Restaurant
957,957,47.43,8.464285714285714,10,8,56d04409498ef5241efc999c,take away china restaurant,47.431295470256494,8.468497862062696,Cantonese Restaurant
1528,462,47.37773907066761,8.532397687124748,36,33,56d1a5d3cd10b9cf5f153d99,Thach Restaurant,47.3786,8.529784,Asian Restaurant
1529,463,47.37773907066761,8.532397687124748,36,34,56d1e463cd1004ac33c3e6d6,Cucina Kaserne,47.37608261010915,8.533903483805691,Italian Restaurant
78,78,47.35,8.521428571428572,4,2,56d34cd7cd10af732c717e21,lolasally,47.352478000000005,8.523978,Japanese Restaurant
1586,520,47.37773907066761,8.539030884303825,49,44,56d5dec3498eb7c9ac9e1dbe,Rizzoli's,47.377049,8.539517,Swiss Restaurant
1400,334,47.37773907066761,8.524745170018111,42,25,56e2edcc498e82b2274ae5ba,Olif Grill,47.37626495940612,8.526204393655034,Middle Eastern Restaurant
1244,178,47.3722609293324,8.539030255413675,50,40,56e32216498e069c575919b7,La pasta,47.370611,8.538943,Italian Restaurant
210,210,47.37000000000001,8.378571428571428,3,1,56ed4b95498e3584c540cc1f,Mini Star,47.367885,8.380111,Doner Restaurant
61,61,47.34,8.535714285714286,4,2,56efd009498e283a8ec17a01,Sweet & Sour,47.34004131402767,8.529996370510599,Thai Restaurant
1023,1023,47.45,8.564285714285715,15,10,5709875d498e4d9b9080b29d,Sushi Bar,47.45138,8.56298,Sushi Restaurant
644,644,47.39,8.521428571428572,44,14,5717cebc498ed05e35a8b3cf,Lebanese Snack,47.387266318861506,8.519456754209777,Middle Eastern Restaurant
379,379,47.37000000000001,8.564285714285715,11,0,57233f5d498e259d16f4cfde,Luca 2,47.366640000000004,8.561997999999999,Italian Restaurant
770,770,47.4,8.55,9,5,5729bb2ecd10286d0b4b0170,UZH asia mensa,47.396648,8.550094,Asian Restaurant
654,654,47.39,8.521428571428572,44,24,573c9a87498e867445710ea3,al fiume,47.391360999999996,8.525474,Italian Restaurant
829,829,47.41,8.55,43,5,573df6da498e18baa70b35cf,Tamarind Hill,47.406839,8.548231,Indian Restaurant
200,200,47.36,8.564285714285715,11,5,5749790a498e644b63fecd2e,Migros Reataurant,47.362206,8.560502,Swiss Restaurant
202,202,47.36,8.564285714285715,11,7,57497a84498ed6a74c158215,Migros Restaurant,47.362087,8.560584,Swiss Restaurant
1527,461,47.37773907066761,8.532397687124748,36,32,574d5d19498efef681fd4d36,Yen Restaurant,47.376661,8.532327,Asian Restaurant
1225,159,47.3722609293324,8.539030255413675,50,21,57507945498eba016b5f40e9,Casa Havana,47.371947,8.542277,Cuban Restaurant
60,60,47.34,8.535714285714286,4,1,5753ef39498e9fd59a3bd26c,Wöschi,47.340526000000004,8.538174,Swiss Restaurant
270,270,47.37000000000001,8.521428571428572,50,41,5757f69c498e28a5b8782da7,ROMI - Republic of Mediterranean Ingredients,47.374358,8.521445,Mediterranean Restaurant
119,119,47.36,8.521428571428572,40,10,575c59ed498e50e8cd970ef0,Wirtschaft zur Au,47.360031132443396,8.522797879807005,Swiss Restaurant
471,471,47.38,8.521428571428572,50,35,576c4f21498e21f5ff463d96,Wood food,47.379338,8.527168,Swiss Restaurant
566,566,47.38,8.65,2,0,577b9387498e673c16702db7,Schnitzrl bei Mama,47.382426,8.652953,Austrian Restaurant
105,105,47.36,8.492857142857142,1,0,577cac91498e8fde53f079a8,Hide & Seek,47.362697,8.496106,Swiss Restaurant
832,832,47.41,8.55,43,8,57837c96498e5f3bf246a031,Jao Praya,47.409015000000004,8.547839999999999,Thai Restaurant
713,713,47.4,8.435714285714285,4,0,578cba76498efc9d6fa0e8ac,Restaurant Da Paulo,47.400433,8.441125,Italian Restaurant
1521,455,47.37773907066761,8.532397687124748,36,26,578e058f498e322e1ce0ac33,ISS Hope - International Space Station Hope,47.37901,8.530926,Asian Restaurant
1195,129,47.3722609293324,8.532398316014898,25,24,5791093c498ef6dd91ffee88,Long Huang,47.372357,8.53385,Asian Restaurant
432,432,47.38,8.507142857142858,22,18,57926a7a498e3d20d7a7fb08,CD España Iberia,47.378053,8.509058,Tapas Restaurant
391,391,47.37000000000001,8.57857142857143,2,1,57a3a3f8cd10a65d461da8a5,Salz,47.370556,8.572142999999999,Swiss Restaurant
839,839,47.41,8.55,43,15,57c07e99498e8d0a6ec07918,seven's doner kebap,47.410759000000006,8.545113,Turkish Restaurant
796,796,47.41,8.407142857142857,12,10,57c470d7cd1061b67bcff14c,Chaiyo Restaurant,47.407913,8.405805,Thai Restaurant
1011,1011,47.45,8.535714285714286,5,3,57c66014498e9fb92f2147f7,Park Inn By Radisson Zurich,47.45077,8.539946,Italian Restaurant
995,995,47.44,8.564285714285715,8,2,57d853f9498e69b75fd768c1,Basilico,47.438506,8.565428,Modern European Restaurant
934,934,47.42,8.564285714285715,10,7,57d986f8498e83886d94f307,Burgers & Shakes,47.422380131778574,8.560946864089336,American Restaurant
625,625,47.39,8.507142857142858,21,16,57dafa21498e23542f793a39,Restaurant Napoli,47.391003000000005,8.506,Italian Restaurant
610,610,47.39,8.507142857142858,21,1,57e3a7e2cd1069727f82d070,Srilankan Street Food,47.390097999999995,8.510722,Sri Lankan Restaurant
887,887,47.41,8.65,2,1,57f0d58a498e96e116d4eebf,Fondue Stübli,47.41126,8.645178999999999,Swiss Restaurant
886,886,47.41,8.65,2,0,57f0d5e6498ec9f0b2fffd92,Wirthschaft Zum Rebstock,47.41114,8.645191,Swiss Restaurant
68,68,47.34,8.621428571428572,2,1,57f0f98f498ef61535f00210,Heimat 3,47.3360579553992,8.619922734796999,Hungarian Restaurant
918,918,47.42,8.55,13,4,57f13fb8498eb3d808ea9f4d,Restaurant Zizo,47.420232,8.548653999999999,Middle Eastern Restaurant
940,940,47.42,8.621428571428572,6,2,57f5eae1498e653facd35a04,Trattoria San Marco,47.420856,8.620047,Italian Restaurant
777,777,47.4,8.607142857142858,4,1,57ff7073d67ce8dcf6fd92e3,fullhouse döner&kebab,47.40108,8.604465,Doner Restaurant
1463,397,47.382260929332396,8.532397687124748,49,17,58050f3638fab5228a031936,Bobo's Restaurant,47.38189566433105,8.529529273509981,Swiss Restaurant
404,404,47.38,8.492857142857142,10,0,580b86f438fa122cf8a4c9ff,Brasserie Freilager,47.379828,8.489425,Swiss Restaurant
1629,38,47.3711304646662,8.540688311342329,11,8,580cd98d38faf69ccc2716a5,Hellberg Restaurant,47.370527177271136,8.54137122631073,Mediterranean Restaurant
554,554,47.38,8.55,24,18,581b219ab04e9809d4504778,Khgfrtgbbcdsrhhjj,47.376537,8.548093,Jewish Restaurant
1003,1003,47.44,8.65,1,0,581f3aa7195c4b4b8957ebf7,Walter,47.437517,8.649525,Italian Restaurant
587,587,47.39,8.492857142857142,23,1,5821c564bcf73e24b5963f68,Samurai VII,47.388589,8.489764,Japanese Restaurant
418,418,47.38,8.507142857142858,22,4,582462fc26d44f08f06b3e2f,Kaimug,47.377946,8.510974000000001,Thai Restaurant
754,754,47.4,8.492857142857142,6,5,5828ca4f878188626a055f22,Restaurant Hönggerhof,47.399440999999996,8.495816,Mediterranean Restaurant
908,908,47.42,8.507142857142858,5,2,58404e2e6ad73d440c651959,Brasil - Grill im Kronenhof,47.419212200000004,8.5055409,Brazilian Restaurant
730,730,47.4,8.45,25,13,58406130fc5a5f5dd82faede,Only Temporary,47.399193,8.453244,Swiss Restaurant
1263,197,47.36773907066761,8.539030255413675,19,9,584551476c682b44fad7b788,Yooji's Dreikönig,47.367087425584295,8.536145654979789,Sushi Restaurant
546,546,47.38,8.55,24,10,58473e2c03cf253734eb2d15,Restaurant 8001,47.379186,8.545262,Swiss Restaurant
1330,264,47.36773907066761,8.54668403030061,35,22,584ef3c613c2232ee6305766,Ooki - Weihnachtsmarkt,47.366115,8.546008,Ramen Restaurant
875,875,47.41,8.592857142857143,13,6,584fecc57d66be2e000dc38d,Sushi-Karte,47.408382,8.59605,Japanese Restaurant
1302,236,47.3722609293324,8.54668403030061,30,24,5852e744da54ae2d887941ba,Cicchetteria Da Rosa,47.373596,8.544211,Italian Restaurant
1412,346,47.37773907066761,8.524745170018111,42,37,58530533d8f3e92d7645d8ec,4 Leoni Siracusa,47.376837,8.526902999999999,Italian Restaurant
1279,213,47.3722609293324,8.54668403030061,30,1,5865150b158b9642d6da251c,Raclette Factory,47.37237594255197,8.543813086982865,Swiss Restaurant
855,855,47.41,8.55,43,31,587a4f5175e13712979559b0,concerto,47.410266,8.546128999999999,Italian Restaurant
614,614,47.39,8.507142857142858,21,5,587f50511470b068419129d8,Take Away Italy,47.390751,8.509272,Italian Restaurant
735,735,47.4,8.45,25,18,5880fd2555d6220f79782ea7,Suwannaphum,47.398254,8.4514265,Asian Restaurant
662,662,47.39,8.521428571428572,44,32,589002a6c0df762b4051c9ef,Desperado,47.388745,8.521978,Mexican Restaurant
1518,452,47.37773907066761,8.532397687124748,36,23,589b0fa155d6220190223ab9,Thai Buffet,47.37686,8.53256,Thai Restaurant
90,90,47.35,8.564285714285715,9,7,589dc5c237da1d07f2beed91,Serge,47.352723,8.560404,Italian Restaurant
712,712,47.4,8.407142857142857,3,2,58b71476102f471b83e2a610,Golden Bambus,47.399659,8.411719999999999,Chinese Restaurant
97,97,47.35,8.592857142857143,2,1,58c6e07ad43907129def90ad,Yoku Spicy,47.346259,8.595125999999999,Asian Restaurant
1469,403,47.382260929332396,8.532397687124748,49,23,58d4457702b60e791e6c636f,Alibaba,47.382847,8.531161,Middle Eastern Restaurant
928,928,47.42,8.564285714285715,10,1,58e615eeef469452ec65f9f6,Siam Square,47.424053,8.562464,Thai Restaurant
1261,195,47.36773907066761,8.539030255413675,19,7,59009cf2f870fd50c1ac90f9,La Petite Poubelle,47.366707,8.540474,French Restaurant
196,196,47.36,8.564285714285715,11,1,5900da0bc5b11c2a559cfa4c,Misoga,47.36136,8.560908,Korean Restaurant
1291,225,47.3722609293324,8.54668403030061,30,13,5905c02dc9a5171dad6bf785,1001 Take Away,47.372869,8.543605,Doner Restaurant
1265,199,47.36773907066761,8.539030255413675,19,11,590c4b3bad178970bde2497d,Eni't,47.367773,8.537055,Italian Restaurant
981,981,47.43,8.57857142857143,4,1,591871ffbed48311a1783e0d,Wirtschaft zum Stübli,47.432392,8.578606,Swiss Restaurant
401,401,47.38,8.42142857142857,3,2,59214e271de76541b8a613be,Topzeugnisse GmbH,47.3824484,8.42486120000001,Hungarian Restaurant
411,411,47.38,8.492857142857142,10,7,593ad1060457b735c92d3bf9,Shizuku,47.38302,8.493631,Japanese Restaurant
422,422,47.38,8.507142857142858,22,8,5944306bc21cb1546187ee4e,Grill Illyria,47.383219,8.506295,Mediterranean Restaurant
959,959,47.43,8.507142857142858,2,0,594c4ae2135b395f12b04359,Bünter Roland,47.42614193213415,8.505414635581927,Restaurant
2,2,47.31,8.392857142857142,4,2,5960f18cc9a5176d67a6c9cc,Gasthaus Zum Bauernhof,47.313283,8.392303,Swiss Restaurant
416,416,47.38,8.507142857142858,22,2,59667ee4c9a5170239507012,Shilla,47.381495020691844,8.502591848373411,Korean Restaurant
845,845,47.41,8.55,43,21,59985f5facb00b41b904d113,Restaurant Henne,47.407463,8.548103,Swiss Restaurant
808,808,47.41,8.521428571428572,2,0,599b2020747ecd268b056f6a,Sultan Sofrası Ali Ustanın Yeri,47.411398,8.526211,Theme Restaurant
786,786,47.41,8.407142857142857,12,0,59b3b129eacf4567b75b037a,Marmara Turkisch Restaurant Take Away,47.40643,8.404093,Turkish Restaurant
792,792,47.41,8.407142857142857,12,6,59be9f2458002c35fed9d4af,Pergola,47.406838,8.405411,Italian Restaurant
660,660,47.39,8.521428571428572,44,30,59cfe8b40336930aa8459e22,Gourmet Bar,47.389043,8.516727000000001,Swiss Restaurant
631,631,47.39,8.521428571428572,44,1,59e0aefe35811b43482d652f,Piu,47.38863258045535,8.520055368901616,Italian Restaurant
699,699,47.39,8.57857142857143,2,1,59ec6ecbdee7707917e0a088,Thai Pavillion,47.388264,8.577259,Thai Restaurant
1107,41,47.3722609293324,8.524744541127964,33,4,5a09b0b6446ea61a3f08894a,Yu-An,47.372578000000004,8.527385,Japanese Restaurant
575,575,47.39,8.478571428571428,11,0,5a0de0f78264443d4b2099c1,Tam Nan Siam,47.392909,8.474238,Thai Restaurant
1341,275,47.36773907066761,8.54668403030061,35,33,5a229f0de1f0aa087c87ca86,Fondue Chalet Klosters,47.366261,8.546066999999999,Swiss Restaurant
689,689,47.39,8.535714285714286,20,15,5a2af5781ffe9731e46d7718,Edi,47.388508,8.539075,Italian Restaurant
405,405,47.38,8.492857142857142,10,1,5a2fbc2b67af3a6e8610857f,Chaba Thai Take Away,47.384313,8.493481,Thai Restaurant
605,605,47.39,8.492857142857142,23,19,5a4fc6f95d891b0cfdb6a7e8,Namamen,47.391541,8.491444,Ramen Restaurant
996,996,47.44,8.564285714285715,8,3,5a511d886a59501d9ec27da1,Alpenchalet,47.441284,8.57053,Swiss Restaurant
608,608,47.39,8.492857142857142,23,22,5a57c4cb628c8346e7011ebc,Masa Restaurant,47.389121,8.488317,Mediterranean Restaurant
1369,303,47.37773907066761,8.518111972839034,11,10,5a5f4bffbd897e1dfb5f6438,Paulo's Cafe Restaurant,47.379362,8.515915,Swiss Restaurant
1360,294,47.37773907066761,8.518111972839034,11,1,5a6598d36c08d126b5731683,Rosi,47.37636067720438,8.516396980663396,Swiss Restaurant
667,667,47.39,8.521428571428572,44,37,5a75fe5a26659b17878e504c,Kai Sushi,47.38884,8.520143,Japanese Restaurant
1052,1052,47.45,8.607142857142858,1,0,5a76e8698fb09e45aaee36f4,Mountain Food,47.447308,8.608119,Swiss Restaurant
1540,474,47.382260929332396,8.539030884303825,11,9,5a7ca234febf317515e8af34,Vapiano Lieferservice,47.382977000000004,8.541239,Italian Restaurant
926,926,47.42,8.55,13,12,5a81ecbe9e0d5405468e74d5,Moreeda,47.420338,8.548629,Thai Restaurant
1306,240,47.3722609293324,8.54668403030061,30,28,5a9995c8a795bd292ac67bd7,New Bombay,47.373668,8.545666,Indian Restaurant
1288,222,47.3722609293324,8.54668403030061,30,10,5a99a4856eda021aeaed230f,Baltho Restaurant,47.372013,8.543638,Modern European Restaurant
1506,440,47.37773907066761,8.532397687124748,36,11,5aa2e1ef95da0c6a54c405e1,Hongxi,47.377798999999996,8.529619,Chinese Restaurant
737,737,47.4,8.45,25,20,5aa452b2b1538e7c30e6e31b,O Douro,47.403482000000004,8.448126,Portuguese Restaurant
649,649,47.39,8.521428571428572,44,19,5ab8cbff464d6513eab99b37,Banhmi,47.388386,8.526219000000001,Vietnamese Restaurant
184,184,47.36,8.55,31,20,5ae40718b9b37b002c1810e4,Casa Teresa,47.361616,8.549602,Spanish Restaurant
108,108,47.36,8.507142857142858,3,2,5aedb0625455b2002cd26a9c,Restaurant La Piazza,47.3609,8.506855,Italian Restaurant
1379,313,47.37773907066761,8.524745170018111,42,4,5af1df162387060031dc7942,Tenz,47.37812,8.527554499999999,Tibetan Restaurant
413,413,47.38,8.492857142857142,10,9,5b07e76c840fc2002cf6e03a,Opened Trunk - Nishat - Indian food,47.383472999999995,8.494096,Indian Restaurant
1007,1007,47.45,8.464285714285714,1,0,5b08654eda2e0000390fc840,HotWok Sonnhalde,47.452645000000004,8.461926,Asian Restaurant
1005,1005,47.45,8.435714285714285,3,1,5b1184ff088158002cd048cc,Mr. Chow,47.449232,8.438092999999999,Chinese Restaurant
881,881,47.41,8.592857142857143,13,12,5b1953f235f983002c9a1e5e,Kaimug,47.408761,8.595653,Asian Restaurant
443,443,47.38,8.521428571428572,50,7,5b22456028374e002c84fe97,Khujug,47.37985112780578,8.527141749946168,Chinese Restaurant
1012,1012,47.45,8.535714285714286,5,4,5b2c0f0ab6eedb002ca05b42,Bocca Buona,47.450974,8.540386,Italian Restaurant
901,901,47.42,8.407142857142857,4,1,5b3f55b0acb00b0039f36608,Siam Blossom,47.41955,8.413064,Thai Restaurant
900,900,47.42,8.407142857142857,4,0,5b3f55eed1a402002cd1e138,Siam Blossom,47.419446,8.413182,Thai Restaurant
572,572,47.39,8.435714285714285,1,0,5b3fa4bbfe0e2a00242a9b5c,Restaurant Oriental,47.390403000000006,8.433956,Middle Eastern Restaurant
80,80,47.35,8.535714285714286,3,0,5b41ef9a25fb7b002c2bbbe9,Peking Garden,47.347432,8.533538,Chinese Restaurant
594,594,47.39,8.492857142857142,23,8,5b4f14181fa763002c091ee0,Chez Oskar,47.388799,8.495435,Mediterranean Restaurant
175,175,47.36,8.55,31,11,5b675764d69ed0002cab71c5,Belvue,47.358154,8.547813,Italian Restaurant
604,604,47.39,8.492857142857142,23,18,5b742c0782a750002c8d5e6b,The Coconut,47.387514,8.493382,Indian Restaurant
1562,496,47.37773907066761,8.539030884303825,49,20,5b7da035250cab002cf7cb6a,Kaimugbox,47.378387,8.540045,Thai Restaurant
1492,426,47.382260929332396,8.532397687124748,49,46,5b7db5dd270ee7002c15d193,NA081,47.381858,8.533548,Italian Restaurant
113,113,47.36,8.521428571428572,40,4,5b8257706fd626002cf15a0b,L’amant,47.359277,8.523019,French Restaurant
906,906,47.42,8.507142857142858,5,0,5b8a8b4a3c858d002c98fd25,Doner Kebab,47.421034000000006,8.502158999999999,Turkish Restaurant
1040,1040,47.45,8.57857142857143,17,12,5b98fbe62f97ec002ceac3f1,Pizza & Friends,47.451919000000004,8.57883,Italian Restaurant
143,143,47.36,8.521428571428572,40,34,5b996ce84a7aae00396831de,The Blue Room,47.359266999999996,8.523112,French Restaurant
539,539,47.38,8.55,24,3,5b9abfd1ab42d9002c2f745b,Pizza Pasta Ciao!,47.37887,8.54452,Italian Restaurant
1006,1006,47.45,8.435714285714285,3,2,5ba0e15dc824ae002ce12e5a,Varasithy Mahall,47.447829999999996,8.436614,Indian Restaurant
807,807,47.41,8.507142857142858,2,1,5ba21622ad910e002c145555,Rice Up,47.410267,8.508628,Asian Restaurant
1493,427,47.382260929332396,8.532397687124748,49,47,5ba4ba88ba57b4002c44e574,Kaimug,47.383429,8.53041,Thai Restaurant
1512,446,47.37773907066761,8.532397687124748,36,17,5bab4129018cbb002c4f8677,GUSTAV Restaurant & Bar,47.379614000000004,8.530872,Italian Restaurant
635,635,47.39,8.521428571428572,44,5,5bad3bd2ad178900395a75cb,San Gennaro,47.391597999999995,8.525053999999999,Italian Restaurant
639,639,47.39,8.521428571428572,44,9,5bb505f77c891c002d47027e,bibim shack,47.390262,8.522511,Korean Restaurant
429,429,47.38,8.507142857142858,22,15,5bc36b8456c89f002c42cce1,Theo Randall’s Italian Kitchen,47.380102,8.5066,Italian Restaurant
256,256,47.37000000000001,8.521428571428572,50,27,5bc9a766f1fdaf00398c2bdd,Roots Of Himalaya,47.373995,8.521897000000001,Tibetan Restaurant
656,656,47.39,8.521428571428572,44,26,5bc9c0fedff81500396d5e78,Casa Cupiello,47.390018,8.522259,Italian Restaurant
947,947,47.43,8.364285714285714,2,0,5bcc7da9c03635002c04c019,Lenzo Palace,47.42845,8.359781,Turkish Restaurant
324,324,47.37000000000001,8.535714285714286,50,45,5bcf4d4a2aff31002c8f9eea,Lasangeria,47.373539,8.535962,Italian Restaurant
131,131,47.36,8.521428571428572,40,22,5be2c8e1033693002cc438f5,Chez Nhan,47.361697,8.523492,Vietnamese Restaurant
619,619,47.39,8.507142857142858,21,10,5be6d0cfdbde11002562e909,Topolino,47.39032,8.507842,Italian Restaurant
1552,486,47.37773907066761,8.539030884303825,49,10,5bf5b411bd4009002cba748d,Sala Of Tokyo,47.376185,8.540322,Japanese Restaurant
753,753,47.4,8.492857142857142,6,4,5bfda65cb399f7002c0b002c,Restaurant Payam,47.399165999999994,8.497836999999999,Persian Restaurant
552,552,47.38,8.55,24,16,5c002e6481a0ea002c352c08,Culmann,47.379476000000004,8.547015,Italian Restaurant
1038,1038,47.45,8.57857142857143,17,10,5c044b5a065ef5002b220635,Ripasso,47.45058,8.583076,Italian Restaurant
975,975,47.43,8.564285714285715,18,13,5c17830541b6c90025716457,Urban Spice,47.431482,8.559743,Indian Restaurant
65,65,47.34,8.57857142857143,3,1,5c1962a804d1ae002c8db79a,Trube Zollikon,47.337707,8.57549,Swiss Restaurant
1487,421,47.382260929332396,8.532397687124748,49,41,5c266ded1acf11002c0a7fe0,Pinatubo,47.381992,8.533930999999999,Filipino Restaurant
561,561,47.38,8.564285714285715,3,1,5c3a4333054e29002b46c67e,Chalet Zuriberg,47.382292,8.567478999999999,Swiss Restaurant
681,681,47.39,8.535714285714286,20,7,5c3f1a014c954c002c36f148,Con Gusto,47.391853999999995,8.538772999999999,Italian Restaurant
643,643,47.39,8.521428571428572,44,13,5c558b02e679bc00393ac3a1,Toscano in puls 5,47.39003548335232,8.517816313295826,Italian Restaurant
729,729,47.4,8.45,25,12,5c7ad7f78194fc002c024074,Ella Asian,47.398814,8.445580999999999,Asian Restaurant
30,30,47.32,8.55,7,2,5c82c570acc5f5002cda21e7,Masala Art,47.322639,8.549218,Indian Restaurant
1411,345,47.37773907066761,8.524745170018111,42,36,5c8c0ed7e1f2280039304882,Restaurant Sonne,47.377278000000004,8.52696,Thai Restaurant
686,686,47.39,8.535714285714286,20,12,5c90d310fb8e59002c2a2f2b,Mango Food & Drink,47.390561,8.539827,Turkish Restaurant
277,277,47.37000000000001,8.521428571428572,50,48,5c96b3cf3b8307003976bc7f,Pasteria di Lenardo,47.37432269725112,8.52175422012806,Italian Restaurant
124,124,47.36,8.521428571428572,40,15,5cc49f16db2aeb002c41f3c1,黄鼠狼的家,47.364484999999995,8.521578,Chinese Restaurant
221,221,47.37000000000001,8.507142857142858,8,0,5cc9c7038c35dc002cba7552,Tamarind Hill Indisches Restaurant,47.368688,8.501678,Indian Restaurant
1008,1008,47.45,8.535714285714286,5,0,5ccc8c71dd12f80039d894cd,Ristorante L'Arco,47.451874326183884,8.530079126358032,Mediterranean Restaurant
258,258,47.37000000000001,8.521428571428572,50,29,5ccc9c2889e490002c55300b,Three Courses,47.370529,8.514902000000001,Chinese Restaurant
1525,459,47.37773907066761,8.532397687124748,36,30,5ceec301c03635002ceb5fdb,Kinkhao,47.378188,8.529205000000001,Thai Restaurant
144,144,47.36,8.521428571428572,40,35,5cf50c8fa795bd002ca5e1c7,Da Michele,47.361946,8.516448,Italian Restaurant
1447,381,47.382260929332396,8.532397687124748,49,1,5d03ddb8603d2a0039f3657e,Afghan Anar,47.384025,8.531751,Afghan Restaurant
431,431,47.38,8.507142857142858,22,17,5d0f8b3ae937f30023de581a,Favorit Shisha Bar Restaurant Take Away Hauslieferdienst,47.379196,8.510758000000001,Turkish Restaurant
460,460,47.38,8.521428571428572,50,24,5d120c9c395231002d65be97,ORIENT Gold Restaurant & Bar,47.378735,8.527755,Restaurant
46,46,47.33,8.521428571428572,2,1,5d1cdf3312f1720023488860,Trattoria da Maurizio,47.33078,8.51553,Italian Restaurant
647,647,47.39,8.521428571428572,44,17,5d1deea85cbbb20023a2434c,Tschingg,47.389056,8.525028,Italian Restaurant
778,778,47.4,8.607142857142858,4,2,5d3487c73fa42a0008e1025b,Hola Gasthaus,47.395973,8.609123,Spanish Restaurant
593,593,47.39,8.492857142857142,23,7,5d4087351598af0008309319,Taj Mahal Restaurant,47.386974,8.489355999999999,Indian Restaurant
240,240,47.37000000000001,8.521428571428572,50,11,5d49a80f3a0ee20008802b0e,Oh My Greek,47.374239,8.521438,Greek Restaurant
1271,205,47.36773907066761,8.539030255413675,19,17,5d4c7aa6a4ace90007dc85a4,Beyond,47.367466,8.535946000000001,Asian Restaurant
977,977,47.43,8.564285714285715,18,15,5d528e28a7902b0007e185c5,Bai Tong Thai Food Takeaway,47.431015,8.560728999999998,Thai Restaurant
803,803,47.41,8.464285714285714,1,0,5d5a7b1d9ccd2d000895b3d5,thai curry original food,47.40826,8.465442999999999,Thai Restaurant
125,125,47.36,8.521428571428572,40,16,5d61396f21ee67000860b7a8,Mirch & Masala - Pizza Wagner,47.361090000000004,8.517398,Indian Restaurant
852,852,47.41,8.55,43,28,5d72b76285b85b0008affb7a,Simsim,47.407545,8.547894,Lebanese Restaurant
701,701,47.39,8.621428571428572,4,1,5d769b977c96a8000802ef2c,Ristorante Bacco,47.390446000000004,8.617179,Italian Restaurant
1027,1027,47.45,8.564285714285715,15,14,5d80f52e87d7e100088ba15d,Villa Antinori,47.452384,8.560848,Italian Restaurant
1044,1044,47.45,8.57857142857143,17,16,5d8b1084da635b0008fb7a3e,Asia Lotus Thai Restaurant,47.452346999999996,8.583036,Thai Restaurant
189,189,47.36,8.55,31,25,5d8c94d450a1070008268bfb,Itasia,47.361568,8.549495,Italian Restaurant
129,129,47.36,8.521428571428572,40,20,5d8decfc7291000008e9b2ad,Les Saveurs De L’amant,47.359294,8.523050999999999,French Restaurant
356,356,47.37000000000001,8.55,50,27,5d9b118669e2f900089c574e,Ikoo + Miki,47.370272,8.545059,Ramen Restaurant
688,688,47.39,8.535714285714286,20,14,5da1726e4c6a200008656db8,Restaurante & Pizzeria Degli Amici,47.39028,8.53876,Italian Restaurant
128,128,47.36,8.521428571428572,40,19,5da44bcd74073b0008717861,sudel nuppe,47.358317,8.523187,Ramen Restaurant
544,544,47.38,8.55,24,8,5debf6b589d1b10008d2afd1,Gaststube Haldenegg,47.379158000000004,8.545222,Swiss Restaurant
663,663,47.39,8.521428571428572,44,33,5df39760e204430008f74099,Gusto,47.387615000000004,8.526199,Italian Restaurant
137,137,47.36,8.521428571428572,40,28,5df7756ea5bc0c000b11181f,zenbu sushi,47.358335,8.523150999999999,Sushi Restaurant
479,479,47.38,8.521428571428572,50,43,5dfa6baa4412bd000871ef66,Wo Wotsch Sush-Hi,47.379309,8.527417,Sushi Restaurant
1515,449,47.37773907066761,8.532397687124748,36,20,5e0ccfcc7f2b6c0008461c7e,MezeZuerich,47.376974,8.532434,Mediterranean Restaurant
628,628,47.39,8.507142857142858,21,19,5e2875e6144dc80008d67e2b,Cucina,47.393706,8.507914,Italian Restaurant
669,669,47.39,8.521428571428572,44,39,5e35b3962cd0b200077054ae,Don Paco,47.38841,8.5258,Spanish Restaurant
1106,40,47.3722609293324,8.524744541127964,33,3,5e4823abfdc6610008f34259,Gaijin Izakaya,47.373069,8.527586999999999,Japanese Restaurant
1042,1042,47.45,8.57857142857143,17,14,5e61066828630a00088e2fb1,"LyLai, Chinese Table",47.45373,8.57967,Restaurant
1188,122,47.3722609293324,8.532398316014898,25,17,5e667cee29ef82000864dc3d,Steakhouse Meat Me,47.374190999999996,8.530761,Argentinian Restaurant
381,381,47.37000000000001,8.564285714285715,11,2,5e6a1d38c85666000858ae2f,Vivace,47.367876,8.560456,Italian Restaurant
167,167,47.36,8.55,31,3,5e6ceed59a280c000863563d,La Muña,47.362738,8.547352,Peruvian Restaurant
897,897,47.42,8.378571428571428,4,3,5ece93f85ccc14000895ea5f,Mus-Et,47.420361,8.37538,Turkish Restaurant
611,611,47.39,8.507142857142858,21,2,5ee9f5e5ddff03000843164c,Ribelli Zürich,47.391118,8.509922,Italian Restaurant
1514,448,47.37773907066761,8.532397687124748,36,19,5ef0e21e431a6d0008e791b0,Tokyo Tapas,47.37784,8.529588,Japanese Restaurant
762,762,47.4,8.535714285714286,8,5,5ef8cf32579b510008d12ab6,Restaurant ANNA,47.39946032342715,8.540191054344177,Italian Restaurant
99,99,47.35,8.65,2,0,5f124ed3fcc0346a34298177,Restaurant Crown of India,47.350346,8.643678,Indian Restaurant
1524,458,47.37773907066761,8.532397687124748,36,29,5f1b22be073848551b0dc7e6,Meze Mediterrane Küche,47.377015,8.532397,Turkish Restaurant
931,931,47.42,8.564285714285715,10,4,5f1c69dd99ff5217a6bf0b02,Casacosi,47.418405,8.561691,Italian Restaurant
1025,1025,47.45,8.564285714285715,15,12,5f20432f30d9040041f4fa74,Tuk Thai Urban Kitchen,47.449888,8.562589,Thai Restaurant
999,999,47.44,8.564285714285715,8,6,5f2965de81231e5ecd545045,India,47.440982,8.567857,Indian Restaurant
787,787,47.41,8.407142857142857,12,1,5f3f98fbd8073f503a6a8a17,Burek Tetova 1,47.408378000000006,8.40594,Eastern European Restaurant
741,741,47.4,8.45,25,24,5f5bbce16e9fd17584d913b7,Be Heroes,47.398815,8.445599000000001,Asian Restaurant
797,797,47.41,8.407142857142857,12,11,5f63468038fc1a4163347b30,nama take me out,47.410371000000005,8.405076,Sushi Restaurant
894,894,47.42,8.378571428571428,4,0,5f7c4a98ed73ba25da9eca33,Limmig Restaurant,47.4175,8.377633,Swiss Restaurant
1061,1061,47.46,8.55,1,0,5f9f149c7ddbfb105176f0a0,Little Orient,47.461234999999995,8.553497,Middle Eastern Restaurant
1015,1015,47.45,8.564285714285715,15,2,5faaf3b78567ce5f921b40ec,Sablier Rooftop,47.450421999999996,8.564805,French Restaurant
1347,281,47.36773907066761,8.55331596969939,2,1,5fb01e2714cc1c2966baa90a,Salir,47.369519,8.553604,Mediterranean Restaurant
1494,428,47.382260929332396,8.532397687124748,49,48,5fc76c91473213712dd8305f,Angry Sumo,47.38398,8.530744,Sushi Restaurant
