,lat_centre,long_centre,num_venues,venue_iter,venue_id,venue_name,lat_venue,long_venue,category
0,47.370000000000005,8.521428571428572,18,0,4b0f0075f964a520e95d23e3,Petit Saigon,47.37020153528725,8.52100198012903,Vietnamese Restaurant
1,47.370000000000005,8.521428571428572,18,1,4b5c712df964a520083029e3,Five Spice,47.37175244136885,8.521541106773128,Thai Restaurant
2,47.370000000000005,8.521428571428572,18,2,4c30d70366e40f47a31fc48b,Restaurant Falcone,47.37012477458556,8.519541128261208,Italian Restaurant
3,47.370000000000005,8.521428571428572,18,3,4c51d8842543a593f07e8f84,Chez Nhan,47.3699572473641,8.518591035386411,Vietnamese Restaurant
4,47.370000000000005,8.521428571428572,18,4,4b0a72d2f964a520202423e3,Famiglia Tremonte,47.36996434893866,8.52041870962691,Italian Restaurant
5,47.370000000000005,8.521428571428572,18,5,4d9d943f48b6224b58e5269f,Al Capone,47.367946,8.521475,Italian Restaurant
6,47.370000000000005,8.521428571428572,18,6,51a74ab0498e50150d639bd1,charlie's take away,47.37150573730469,8.522974967956543,Malay Restaurant
7,47.370000000000005,8.521428571428572,18,7,5e419fdcbf4bc50008fc3838,Al Ventuno,47.368171,8.522106,Italian Restaurant
8,47.370000000000005,8.521428571428572,18,8,4c0cd7867189c9283301d6b6,HIN @ WEG Catering,47.3707398,8.52043393,French Restaurant
9,47.370000000000005,8.521428571428572,18,9,4b066ec1f964a520c8eb22e3,Desperado,47.369992973989426,8.5204868262907,Mexican Restaurant
10,47.370000000000005,8.521428571428572,18,10,4e20905fd22d0a3f59eedc34,Morgenstern,47.369699,8.521885,Italian Restaurant
11,47.370000000000005,8.521428571428572,18,11,4b0f0045f964a520e35d23e3,Jacky's Wok,47.370845,8.520493179999999,Asian Restaurant
12,47.370000000000005,8.521428571428572,18,12,586def7614250b16ac209740,zurlinden 21 restaurant,47.3681747,8.5220974,Gastropub
13,47.370000000000005,8.521428571428572,18,13,4efa108893ad7cf2ecb7353a,Restaurant-Bar Perry,47.371853,8.519703,Swiss Restaurant
14,47.370000000000005,8.521428571428572,18,14,5649cb47498e460c79f3951f,Uto,47.371593,8.521342,Italian Restaurant
15,47.370000000000005,8.521428571428572,18,15,4eb291a9dab472d4de7a8adf,Mai Wok,47.37098322070396,8.523004108101325,Chinese Restaurant
16,47.370000000000005,8.521428571428572,18,16,5256f4b011d2cb6b9ecbb83e,Salon,47.369342446565646,8.52374451459366,French Restaurant
17,47.370000000000005,8.521428571428572,18,17,4cdc227499026dcb76371181,Kings Curry Little India,47.37088712788202,8.524073985578669,Indian Restaurant
18,47.3722609293324,8.518112601729182,16,0,58029d2a38fa51246825c48b,Ooki,47.3722774666315,8.518805943275494,Japanese Restaurant
19,47.3722609293324,8.518112601729182,16,1,4b9c308cf964a520185336e3,Seebähnli,47.37363,8.519827,Middle Eastern Restaurant
20,47.3722609293324,8.518112601729182,16,2,4b05888af964a5209fcc22e3,La Côte,47.37166957826879,8.515998310720205,French Restaurant
21,47.3722609293324,8.518112601729182,16,3,5d8117b7c0c5b00008ec3aba,Miki Burgers,47.374441,8.518293,Burger Joint
22,47.3722609293324,8.518112601729182,16,4,5af0266c3731ee002c8f927d,KIN,47.374076573465295,8.5188527405262,Asian Restaurant
23,47.3722609293324,8.518112601729182,16,5,4c0cd7867189c9283301d6b6,HIN @ WEG Catering,47.3707398,8.52043393,French Restaurant
24,47.3722609293324,8.518112601729182,16,6,4b0f0045f964a520e35d23e3,Jacky's Wok,47.370845,8.520493179999999,Asian Restaurant
25,47.3722609293324,8.518112601729182,16,7,4ca6384fb7106dcb2de05ba5,Restaurant Ecke,47.37441,8.517692,Swiss Restaurant
26,47.3722609293324,8.518112601729182,16,8,4d8e50f1ca75b60cc99afca8,Ya Ke,47.373852,8.51822,Chinese Restaurant
27,47.3722609293324,8.518112601729182,16,9,4efa108893ad7cf2ecb7353a,Restaurant-Bar Perry,47.371853,8.519703,Swiss Restaurant
28,47.3722609293324,8.518112601729182,16,10,5c40695933e118002c3bf770,The High Heel Gourmet Café,47.372994,8.518203,Asian Restaurant
29,47.3722609293324,8.518112601729182,16,11,55412d70498e6156450982dd,Sali e Tabacchi,47.372916,8.518242,Middle Eastern Restaurant
30,47.3722609293324,8.518112601729182,16,12,4beaefe2415e20a1aea9e5bb,Grottino 77,47.370933138895246,8.516551227914679,Pizza Place
31,47.3722609293324,8.518112601729182,16,13,53e142bd498e1ea2b71dbe98,Jdaburg,47.37322079270967,8.515128384776979,Swiss Restaurant
32,47.3722609293324,8.518112601729182,16,14,5530defc498e151e379253c6,Tillsamman,47.37276293981078,8.517794250523263,Café
33,47.3722609293324,8.518112601729182,16,15,4bd9b1b32e6f0f47f7840b08,Restaurant Gertrudhof,47.37379063895187,8.515933955106151,Swiss Restaurant
34,47.36773907066761,8.518112601729182,3,0,4c51d8842543a593f07e8f84,Chez Nhan,47.3699572473641,8.518591035386411,Vietnamese Restaurant
35,47.36773907066761,8.518112601729182,3,1,5658d082498eccbbdf342136,Jane's Fine Food,47.36739,8.520006,Australian Restaurant
36,47.36773907066761,8.518112601729182,3,2,511fd1b5e4b00ebaf6e434bf,Bonesklinic Spelunke,47.36584562990686,8.519899798732256,Bar
37,47.3722609293324,8.524744541127962,33,0,4b58a5d5f964a520936328e3,Le Cedre,47.37389,8.52657,Lebanese Restaurant
38,47.3722609293324,8.524744541127962,33,1,4b5c712df964a520083029e3,Five Spice,47.37175244136885,8.521541106773128,Thai Restaurant
39,47.3722609293324,8.524744541127962,33,2,577d47bb498e3504cdacf9b6,Neela,47.372412710213816,8.524280190467834,Sri Lankan Restaurant
40,47.3722609293324,8.524744541127962,33,3,5e4823abfdc6610008f34259,Gaijin Izakaya,47.373069,8.527587,Japanese Restaurant
41,47.3722609293324,8.524744541127962,33,4,5a09b0b6446ea61a3f08894a,Yu-An,47.372578,8.527385,Japanese Restaurant
42,47.3722609293324,8.524744541127962,33,5,546205bc498eb8c4507fb431,ASIA TISCH,47.371454,8.525585,Indonesian Restaurant
43,47.3722609293324,8.524744541127962,33,6,4b55abddf964a52041eb27e3,Köchlistube,47.373235870302494,8.52374209395458,Swiss Restaurant
44,47.3722609293324,8.524744541127962,33,7,4b0e53b4f964a520d85623e3,Muniandy Vilas,47.3725849,8.5245104,Indian Restaurant
45,47.3722609293324,8.524744541127962,33,8,4bbeddab98f49521c8dbd163,eat.ch Office,47.372463,8.523223,Tech Startup
46,47.3722609293324,8.524744541127962,33,9,4c1d3518b4e62d7fd960dc93,Elisaburg,47.372212742957196,8.523480377999071,Italian Restaurant
47,47.3722609293324,8.524744541127962,33,10,57036ab3498e147d9bc9da75,V.P. Catering und Co.,47.3730111,8.5243276,Miscellaneous Shop
48,47.3722609293324,8.524744541127962,33,11,51a74ab0498e50150d639bd1,charlie's take away,47.37150573730469,8.522974967956543,Malay Restaurant
49,47.3722609293324,8.524744541127962,33,12,4d134778d1848cfa277ec271,Les Délices d'Orient,47.37402351269863,8.525979122778217,Middle Eastern Restaurant
50,47.3722609293324,8.524744541127962,33,13,536519f311d219d9b8b5e8a7,coleseum,47.37431504098814,8.524269613800694,Italian Restaurant
51,47.3722609293324,8.524744541127962,33,14,4ece3533be7b9eecdd72179e,Negishi Sushi Bar,47.37407240862138,8.525573951683148,Japanese Restaurant
52,47.3722609293324,8.524744541127962,33,15,50eea192e4b0e87d593a278d,Moléson,47.37277527199482,8.525939303212356,Swiss Restaurant
53,47.3722609293324,8.524744541127962,33,16,4bf3b62c6a31d13a8be3942e,V. P. Catering,47.373095,8.524241,Greek Restaurant
54,47.3722609293324,8.524744541127962,33,17,4ba7bb86f964a52024ae39e3,Hermannseck,47.37140023076635,8.524966680207836,Swiss Restaurant
55,47.3722609293324,8.524744541127962,33,18,5224b323498ef1c972a48333,Pyramids,47.37164115521414,8.525964368463667,Middle Eastern Restaurant
56,47.3722609293324,8.524744541127962,33,19,563a9301cd10e8c24d4378e1,Ceviche,47.37416939443458,8.524944750917268,Peruvian Restaurant
57,47.3722609293324,8.524744541127962,33,20,4b058888f964a5200acc22e3,Restaurant Emilio,47.37293724920348,8.527219810648143,Spanish Restaurant
58,47.3722609293324,8.524744541127962,33,21,4b9e6ed2f964a52047e336e3,La Penisola,47.37404791733182,8.524899294058129,Italian Restaurant
59,47.3722609293324,8.524744541127962,33,22,4c7cb5a27a856dcb34f5e2a7,China Restaurant Peking,47.3707036211175,8.52678247921847,Chinese Restaurant
60,47.3722609293324,8.524744541127962,33,23,4eb291a9dab472d4de7a8adf,Mai Wok,47.37098322070396,8.523004108101325,Chinese Restaurant
61,47.3722609293324,8.524744541127962,33,24,4b0a5e0ef964a520922323e3,Restaurant Werd,47.37225448761609,8.527612434962082,Swiss Restaurant
62,47.3722609293324,8.524744541127962,33,25,4c17249396040f4798f073a5,Ishi,47.373986,8.525898,Japanese Restaurant
63,47.3722609293324,8.524744541127962,33,26,4d63a290a45b5481638c032d,Kantine Dreieck,47.37284,8.524684,Swiss Restaurant
64,47.3722609293324,8.524744541127962,33,27,4bb085c3f964a5209f493ce3,Hermanseck,47.37149529399785,8.52477052493785,Swiss Restaurant
65,47.3722609293324,8.524744541127962,33,28,4b0f0061f964a520e75d23e3,Charlie's,47.372531,8.527992,Thai Restaurant
66,47.3722609293324,8.524744541127962,33,29,4cdc227499026dcb76371181,Kings Curry Little India,47.37088712788202,8.524073985578669,Indian Restaurant
67,47.3722609293324,8.524744541127962,33,30,53845ec9498ea82192e0ab97,Panelio,47.373531,8.526206,Italian Restaurant
68,47.3722609293324,8.524744541127962,33,31,4b276e0df964a520618624e3,Restaurant Werdguet,47.371440529796836,8.527643594837347,Swiss Restaurant
69,47.3722609293324,8.524744541127962,33,32,4b0bc125f964a5206d3323e3,Thai Take Away,47.37260590947984,8.52771903033863,Thai Restaurant
70,47.36773907066761,8.524744541127962,9,0,4d543075bdbea1cda337e492,Restaurant Gran Sasso,47.36812803432419,8.524152206563654,Steakhouse
71,47.36773907066761,8.524744541127962,9,1,5a5b6205dd70c540f798ec8b,Lola’s Peruvian Restaurant,47.368694,8.524303,Peruvian Restaurant
72,47.36773907066761,8.524744541127962,9,2,4d9d943f48b6224b58e5269f,Al Capone,47.367946,8.521475,Italian Restaurant
73,47.36773907066761,8.524744541127962,9,3,5e419fdcbf4bc50008fc3838,Al Ventuno,47.368171,8.522106,Italian Restaurant
74,47.36773907066761,8.524744541127962,9,4,593d2e529ad60e0c07c82818,Maadan Bakery,47.369484,8.525496,Bakery
75,47.36773907066761,8.524744541127962,9,5,4d7b913573ca548110874d7c,Lola's Restaurant,47.36870546657075,8.52471006246698,Latin American Restaurant
76,47.36773907066761,8.524744541127962,9,6,586def7614250b16ac209740,zurlinden 21 restaurant,47.3681747,8.5220974,Gastropub
77,47.36773907066761,8.524744541127962,9,7,4edd03e26c2547bc65c2f447,Haldeguet,47.36950053196461,8.526453319555717,Swiss Restaurant
78,47.36773907066761,8.524744541127962,9,8,5256f4b011d2cb6b9ecbb83e,Salon,47.369342446565646,8.52374451459366,French Restaurant
79,47.370000000000005,8.535714285714286,26,0,5cbb77ac811045002c7c0cb2,Luigia,47.370517,8.535642,Italian Restaurant
80,47.370000000000005,8.535714285714286,26,1,5a8d4dc9b9a5a8062d8fb7be,Kaisin,47.371647,8.535838,Poke Place
81,47.370000000000005,8.535714285714286,26,2,4b0f0094f964a520ee5d23e3,Nagasui,47.37027664811603,8.533182303930586,Asian Restaurant
82,47.370000000000005,8.535714285714286,26,3,4b856505f964a520085b31e3,Restaurant Bärengasse,47.370301,8.538797,Argentinian Restaurant
83,47.370000000000005,8.535714285714286,26,4,591df3880802d464815431b3,Negishi Sushi Bar,47.371517,8.535471,Sushi Restaurant
84,47.370000000000005,8.535714285714286,26,5,4b98d959f964a520535235e3,vis-à-vis,47.3700148509311,8.536434902491466,French Restaurant
85,47.370000000000005,8.535714285714286,26,6,4d6ab12d2ea9b1f7b221c828,Kaufleuten Restaurant,47.37145242132889,8.536194058911168,Swiss Restaurant
86,47.370000000000005,8.535714285714286,26,7,5b1ab385a2c00b002c5d6a94,Edomae,47.370555,8.535848,Japanese Restaurant
87,47.370000000000005,8.535714285714286,26,8,5a0ec84cc365885a827d55af,Q-Up Thai Take Away,47.369463,8.536837,Thai Restaurant
88,47.370000000000005,8.535714285714286,26,9,4dbaf1221e72b351ca8c577c,La Piazzetta,47.37104849230522,8.535765182800535,Italian Restaurant
89,47.370000000000005,8.535714285714286,26,10,4f33aaafe4b05255be6b9f3c,Selnau Wok,47.369891080488536,8.534171891018978,Asian Restaurant
90,47.370000000000005,8.535714285714286,26,11,4b6341d2f964a520f46d2ae3,O'Tabe,47.3688806632123,8.538315153228456,Japanese Restaurant
91,47.370000000000005,8.535714285714286,26,12,4c4dd12151c2c92823446c9d,Kaufleuten Asada-Lounge,47.371806,8.535911,Argentinian Restaurant
92,47.370000000000005,8.535714285714286,26,13,5396d76a498e8a555af90812,Thai Erawan Take Away,47.3696500282051,8.536280573548504,Thai Restaurant
93,47.370000000000005,8.535714285714286,26,14,58c3d98a5cab2f05579a3389,TRADERS by Guerilla Kitchen,47.371632,8.535487,Asian Restaurant
94,47.370000000000005,8.535714285714286,26,15,5225b36c498eca87711a324e,UBStairs,47.37088230523293,8.537151916583387,Swiss Restaurant
95,47.370000000000005,8.535714285714286,26,16,5a19c9a5838e590518d4cc67,La Bottega di Mario,47.371303,8.537364,Mediterranean Restaurant
96,47.370000000000005,8.535714285714286,26,17,4cdd245822bd721eac3aff47,Plattformbar,47.3689793,8.538074,Thai Restaurant
97,47.370000000000005,8.535714285714286,26,18,4c49408a1b430f47754d48c3,UBS Culinarium Am Schanzengraben,47.369611299506126,8.53374000961522,Swiss Restaurant
98,47.370000000000005,8.535714285714286,26,19,4ca62ddad971b1f78c99fde0,Kaufleuten Hof,47.37193147614106,8.536007411943842,Swiss Restaurant
99,47.370000000000005,8.535714285714286,26,20,4bcdea97fb84c9b65ed5223e,Di Gioia,47.36988652533583,8.533983867686874,Italian Restaurant
100,47.370000000000005,8.535714285714286,26,21,4ec4eefbf790c16e5225be61,Fo Ke Kio Asian Take Away,47.37214184335466,8.534840510608197,Asian Restaurant
101,47.370000000000005,8.535714285714286,26,22,50c3a63de4b09f38acd114f1,20/20 by Mövenpick Wein Restaurant,47.37119335094355,8.537370357508951,Swiss Restaurant
102,47.370000000000005,8.535714285714286,26,23,530f88d1498ec11b77deabc2,Locanda,47.371340980104804,8.53739619255066,Swiss Restaurant
103,47.370000000000005,8.535714285714286,26,24,53636b8b498e9833536789f2,cha chã,47.370515421274966,8.535591217548651,Thai Restaurant
104,47.370000000000005,8.535714285714286,26,25,4ba87663f964a520f7db39e3,Coco Grill & Bar,47.368958637059286,8.538430806857162,Swiss Restaurant
105,47.3722609293324,8.532398316014897,25,0,4b0d7577f964a520c74823e3,Saigon,47.37301,8.5326799,Vietnamese Restaurant
106,47.3722609293324,8.532398316014897,25,1,58c1432f6ad73d45a1dfa765,Sushishop,47.373051822097445,8.534938080968297,Sushi Restaurant
107,47.3722609293324,8.532398316014897,25,2,5ac5185d535d6f0d68e91a94,Lucky Dumpling,47.37265,8.53383,Chinese Restaurant
108,47.3722609293324,8.532398316014897,25,3,4c0698032e80a5934a5974f9,Certo,47.37227873017211,8.529273653843328,Italian Restaurant
109,47.3722609293324,8.532398316014897,25,4,4b0f0094f964a520ee5d23e3,Nagasui,47.37027664811603,8.533182303930586,Asian Restaurant
110,47.3722609293324,8.532398316014897,25,5,4eb53969b8f786e275181f3d,Bar Basso,47.372721543407245,8.533578140622884,Italian Restaurant
111,47.3722609293324,8.532398316014897,25,6,4e0ceddf1f6e9300e4eb3b75,Pasta Station,47.373669215239275,8.530008950395294,Italian Restaurant
112,47.3722609293324,8.532398316014897,25,7,591df3880802d464815431b3,Negishi Sushi Bar,47.371517,8.535471,Sushi Restaurant
113,47.3722609293324,8.532398316014897,25,8,51a5cf60498e79ac7292c4ad,Restaurant Helvetia,47.373252,8.531758,Swiss Restaurant
114,47.3722609293324,8.532398316014897,25,9,52a72d82498efa07113d8047,Dal Nastro - Bar del Gusto,47.372746944889236,8.53391283530226,Italian Restaurant
115,47.3722609293324,8.532398316014897,25,10,518ccd1c498e18ade9b4db9b,Greek Restaurant,47.37283146465217,8.53510180205334,Greek Restaurant
116,47.3722609293324,8.532398316014897,25,11,4de6757ab0fb5cbf0eb19ce4,Na Ga Sui,47.37039564957491,8.531631463923645,Asian Restaurant
117,47.3722609293324,8.532398316014897,25,12,51efaf7a498e999f96809ea0,Thai Take Away,47.37213813544712,8.530272142598525,Thai Restaurant
118,47.3722609293324,8.532398316014897,25,13,4dea67cdd22da22d4ed2a4ee,Yooji's,47.373688,8.53454,Japanese Restaurant
119,47.3722609293324,8.532398316014897,25,14,58c3d98a5cab2f05579a3389,TRADERS by Guerilla Kitchen,47.371632,8.535487,Asian Restaurant
120,47.3722609293324,8.532398316014897,25,15,50926d25e4b04afbb0af7d40,Purple roshan,47.370836768681635,8.53178496813967,Asian Restaurant
121,47.3722609293324,8.532398316014897,25,16,5331c36b498ed77d72ae3612,Antica Roma,47.3703048791672,8.531739533370407,Italian Restaurant
122,47.3722609293324,8.532398316014897,25,17,5e667cee29ef82000864dc3d,Steakhouse Meat Me,47.374191,8.530761,Argentinian Restaurant
123,47.3722609293324,8.532398316014897,25,18,4b0d053ef964a520444323e3,Solazzo,47.371877,8.529224,Italian Restaurant
124,47.3722609293324,8.532398316014897,25,19,4c3ee03351dee21e772beb6e,Suan Long,47.371033256478164,8.53155277209991,Asian Restaurant
125,47.3722609293324,8.532398316014897,25,20,51d46bd2498e7454197ab545,Stauffacher Tor,47.37195005858029,8.53079162265003,Swiss Restaurant
126,47.3722609293324,8.532398316014897,25,21,52a72ae911d28c7f2d479309,Di Nastro,47.372748,8.534104,Italian Restaurant
127,47.3722609293324,8.532398316014897,25,22,4c41f4f5ce54e21e45e00b1a,Athena,47.37094172502559,8.53172224674538,Greek Restaurant
128,47.3722609293324,8.532398316014897,25,23,4ec4eefbf790c16e5225be61,Fo Ke Kio Asian Take Away,47.37214184335466,8.534840510608197,Asian Restaurant
129,47.3722609293324,8.532398316014897,25,24,5791093c498ef6dd91ffee88,Long Huang,47.372357,8.53385,Asian Restaurant
130,47.36773907066761,8.532398316014897,8,0,4b5d8d51f964a5203b6129e3,Almodobar – Bar Lounge,47.366955,8.53331,Bar
131,47.36773907066761,8.532398316014897,8,1,4d302b697791224b584bce42,Le Rendez Vous,47.365615087759146,8.532213338850609,French Restaurant
132,47.36773907066761,8.532398316014897,8,2,5cac7f3fc58ed7002ce3e90c,Ristorante 33,47.366403,8.533147,Mediterranean Restaurant
133,47.36773907066761,8.532398316014897,8,3,4d80a0638edaa143100df239,Juan Costa,47.36581091258131,8.5323182960541,Spanish Restaurant
134,47.36773907066761,8.532398316014897,8,4,4c49408a1b430f47754d48c3,UBS Culinarium Am Schanzengraben,47.369611299506126,8.53374000961522,Swiss Restaurant
135,47.36773907066761,8.532398316014897,8,5,56575bc7498e1e236e0729be,hato,47.36921,8.532495,Asian Restaurant
136,47.36773907066761,8.532398316014897,8,6,566331e2498e53d32253a14a,HATO Restaurants,47.36923513089795,8.532458811387077,Asian Restaurant
137,47.36773907066761,8.532398316014897,8,7,510291e7e4b02b0ca8c5f654,Antica Roma,47.36990105705524,8.531662332427857,Italian Restaurant
138,47.3722609293324,8.539030255413676,50,0,4b05888af964a520a2cc22e3,Hiltl,47.37317277157419,8.536831464418032,Vegetarian / Vegan Restaurant
139,47.3722609293324,8.539030255413676,50,1,4b05888af964a52097cc22e3,Zeughauskeller,47.37024970105742,8.539827505341151,Swiss Restaurant
140,47.3722609293324,8.539030255413676,50,2,4d56d56c96ed548117a21970,La Rôtisserie,47.37114479664185,8.541913032531738,French Restaurant
141,47.3722609293324,8.539030255413676,50,3,4b081d40f964a520110423e3,Bindella,47.37061841205643,8.54060976074452,Italian Restaurant
142,47.3722609293324,8.539030255413676,50,4,5ccafc627b4669002b8c5ced,Restaurant Le Cèdre - Maurice,47.372251,8.5357825,Middle Eastern Restaurant
143,47.3722609293324,8.539030255413676,50,5,5813795d38fa8e786f054d9e,Santa Lucia,47.37011065965041,8.539727657927921,Italian Restaurant
144,47.3722609293324,8.539030255413676,50,6,4b698ca4f964a520e0a62be3,Cantinetta Antinori,47.37226209962204,8.538558021454797,Italian Restaurant
145,47.3722609293324,8.539030255413676,50,7,4c1152b79336b713fa6e42ea,Ojo de Agua,47.37393707061196,8.539298470766099,Argentinian Restaurant
146,47.3722609293324,8.539030255413676,50,8,4bbb0667b35776b0837bcb01,Restaurant zum Kropf,47.37081690089162,8.540019842271699,Swiss Restaurant
147,47.3722609293324,8.539030255413676,50,9,5a8d4dc9b9a5a8062d8fb7be,Kaisin,47.371647,8.535838,Poke Place
148,47.3722609293324,8.539030255413676,50,10,5b78058ca0215b002cea49c6,La Chamaca,47.372833,8.538691,Taco Place
149,47.3722609293324,8.539030255413676,50,11,4b5ae213f964a520afd828e3,Tao's,47.37134154485155,8.540016357262711,Lounge
150,47.3722609293324,8.539030255413676,50,12,5ad64b9dff03066946ea448e,Ristorante Ornellaia,47.372509,8.537512,Italian Restaurant
151,47.3722609293324,8.539030255413676,50,13,5225c61011d27aba6b115dd6,Gloggenhof Restaurant,47.372632,8.536593,Swiss Restaurant
152,47.3722609293324,8.539030255413676,50,14,5ada2a1fc3658840594252c0,Klinger’s Restaurant,47.371597,8.539118,Italian Restaurant
153,47.3722609293324,8.539030255413676,50,15,4b856505f964a520085b31e3,Restaurant Bärengasse,47.370301,8.538797,Argentinian Restaurant
154,47.3722609293324,8.539030255413676,50,16,4b1aa046f964a520bbed23e3,Kaiser's Reblaube,47.371888821088056,8.540550034214053,Swiss Restaurant
155,47.3722609293324,8.539030255413676,50,17,4d6ab12d2ea9b1f7b221c828,Kaufleuten Restaurant,47.37145242132889,8.536194058911168,Swiss Restaurant
156,47.3722609293324,8.539030255413676,50,18,5364cf4c498e2cafa294e398,La Peppina @Jelmoli,47.3732,8.53729,Italian Restaurant
157,47.3722609293324,8.539030255413676,50,19,5b78051fd552c7002c29d7e4,Wesleys Kitchen,47.372848,8.538765,Asian Restaurant
158,47.3722609293324,8.539030255413676,50,20,4cb0a670ef1b370450ab3c00,Restaurant Lumière,47.3721515835169,8.540068379518491,French Restaurant
159,47.3722609293324,8.539030255413676,50,21,57507945498eba016b5f40e9,Casa Havana,47.371947,8.542277,Cuban Restaurant
160,47.3722609293324,8.539030255413676,50,22,4c4dd12151c2c92823446c9d,Kaufleuten Asada-Lounge,47.371806,8.535911,Argentinian Restaurant
161,47.3722609293324,8.539030255413676,50,23,5c7d17333ba767002cfc311c,Little Hellas,47.373938,8.536833,Greek Restaurant
162,47.3722609293324,8.539030255413676,50,24,5225b36c498eca87711a324e,UBStairs,47.37088230523293,8.537151916583387,Swiss Restaurant
163,47.3722609293324,8.539030255413676,50,25,5250f9df498e8dd5776a8f0c,Letzileu Walk,47.371745,8.539171,French Restaurant
164,47.3722609293324,8.539030255413676,50,26,5aeda893b9b37b002c07a8bc,Kingler‘s Restaurant,47.371621,8.539149,Italian Restaurant
165,47.3722609293324,8.539030255413676,50,27,5a19c9a5838e590518d4cc67,La Bottega di Mario,47.371303,8.537364,Mediterranean Restaurant
166,47.3722609293324,8.539030255413676,50,28,5252f99611d2baee139ab409,Terra Vite Vita,47.37059880121982,8.540683871095382,Italian Restaurant
167,47.3722609293324,8.539030255413676,50,29,4b1aa768f964a52073ee23e3,Restaurant Kindli,47.3722679292271,8.540651831270454,Swiss Restaurant
168,47.3722609293324,8.539030255413676,50,30,4b05888af964a520a8cc22e3,Taverna Catalana,47.372143352616774,8.540148697935969,Spanish Restaurant
169,47.3722609293324,8.539030255413676,50,31,4caefcdfb4b0a35d6f063dce,Personalrestaurant St. Peter,47.37086739460335,8.53987221141591,Swiss Restaurant
170,47.3722609293324,8.539030255413676,50,32,51361e31e4b0a9c8f8e6c0fd,Kranzlin,47.373518,8.539403,Swiss Restaurant
171,47.3722609293324,8.539030255413676,50,33,4fe1c0ece4b0217920b6893e,Haus Zur Glocke,47.372111,8.540078,Argentinian Restaurant
172,47.3722609293324,8.539030255413676,50,34,4ca62ddad971b1f78c99fde0,Kaufleuten Hof,47.37193147614106,8.536007411943842,Swiss Restaurant
173,47.3722609293324,8.539030255413676,50,35,4b0f0102f964a520f65d23e3,Mishio,47.3737456864791,8.537247029804622,Asian Restaurant
174,47.3722609293324,8.539030255413676,50,36,51659779e4b0f82203e5815d,Velti Koeller,47.370874049512636,8.541123235024097,Swiss Restaurant
175,47.3722609293324,8.539030255413676,50,37,5340384e498e46339fd17107,LUV Drink & Dine,47.37177235451452,8.53883376737644,Italian Restaurant
176,47.3722609293324,8.539030255413676,50,38,52a22c59498e990af99b333d,LUV,47.371801,8.539085,Italian Restaurant
177,47.3722609293324,8.539030255413676,50,39,5bab5ed07564f7002c6571e3,Viet Bistro,47.373722,8.5367365,Vietnamese Restaurant
178,47.3722609293324,8.539030255413676,50,40,56e32216498e069c575919b7,La pasta,47.370611,8.538943,Italian Restaurant
179,47.3722609293324,8.539030255413676,50,41,50c3a63de4b09f38acd114f1,20/20 by Mövenpick Wein Restaurant,47.37119335094355,8.537370357508951,Swiss Restaurant
180,47.3722609293324,8.539030255413676,50,42,530f88d1498ec11b77deabc2,Locanda,47.371340980104804,8.53739619255066,Swiss Restaurant
181,47.3722609293324,8.539030255413676,50,43,4e6ca100483b1f5ebe26524a,Mangiare e Peccare,47.3721,8.5407,Italian Restaurant
182,47.3722609293324,8.539030255413676,50,44,4d123904ffa1224b7fa997ad,Mishio,47.37359541525311,8.538598980604574,Clothing Store
183,47.3722609293324,8.539030255413676,50,45,4e6ca16e1f6e84ca4c740608,Orsini,47.372255730882216,8.539354472871583,Italian Restaurant
184,47.3722609293324,8.539030255413676,50,46,4f3b6e7fe4b022039bef6654,Restaurant Conrad,47.372904,8.536534,Diner
185,47.3722609293324,8.539030255413676,50,47,563364ea498ea534b8ae4239,La Bottega im Jelmoli,47.37384227576671,8.537229868206206,Italian Restaurant
186,47.3722609293324,8.539030255413676,50,48,4cdbe87c5aeda1cdfb7fbf11,Restaurant Heugümper,47.37011141634336,8.53989695676922,French Restaurant
187,47.3722609293324,8.539030255413676,50,49,5cb8c9766336be002c6d6714,Le Relais de l‘Entrecôte,47.370634,8.540627,French Restaurant
188,47.36773907066761,8.539030255413676,19,0,5e011a9b3953e10008a60483,Baur’s,47.367515,8.539139,Brasserie
189,47.36773907066761,8.539030255413676,19,1,52583960498ef4c0e293826d,Palavrion Grill,47.36728245,8.53620909,Swiss Restaurant
190,47.36773907066761,8.539030255413676,19,2,51039f25e4b026986c9e7dde,Restaurant Pavillon,47.366799989274405,8.539757584873271,French Restaurant
191,47.36773907066761,8.539030255413676,19,3,5257ec6711d291178a9a536c,Heuguemper,47.368855,8.541307,Swiss Restaurant
192,47.36773907066761,8.539030255413676,19,4,4b6341d2f964a520f46d2ae3,O'Tabe,47.3688806632123,8.538315153228456,Japanese Restaurant
193,47.36773907066761,8.539030255413676,19,5,511b523ae4b091eb630b2b18,Savoy Restaurant,47.36961427588771,8.539686259013289,Swiss Restaurant
194,47.36773907066761,8.539030255413676,19,6,4d804d1ae6d7721e760816c7,Le Poisson,47.367675,8.536937,Swiss Restaurant
195,47.36773907066761,8.539030255413676,19,7,59009cf2f870fd50c1ac90f9,La Petite Poubelle,47.366707,8.540474,French Restaurant
196,47.36773907066761,8.539030255413676,19,8,4cdd245822bd721eac3aff47,Plattformbar,47.3689793,8.538074,Thai Restaurant
197,47.36773907066761,8.539030255413676,19,9,584551476c682b44fad7b788,Yooji's Dreikönig,47.367087425584295,8.536145654979789,Sushi Restaurant
198,47.36773907066761,8.539030255413676,19,10,543d09b3498eaf92feb13093,Restaurant Glärnischhof,47.367592,8.536734,Swiss Restaurant
199,47.36773907066761,8.539030255413676,19,11,590c4b3bad178970bde2497d,Eni't,47.367773,8.537055,Italian Restaurant
200,47.36773907066761,8.539030255413676,19,12,4b058888f964a520efcb22e3,Rive Gauche,47.36768257838225,8.539244742490318,Mediterranean Restaurant
201,47.36773907066761,8.539030255413676,19,13,4be98f9061aca593b3af8200,Tram Restaurant,47.368437,8.539212,Swiss Restaurant
202,47.36773907066761,8.539030255413676,19,14,50c238c4e4b0abeb9ee17b02,Ristorantino,47.36917,8.539431,Italian Restaurant
203,47.36773907066761,8.539030255413676,19,15,5914d3277918717350adad96,Oak Bar,47.367467,8.53742,Hotel Bar
204,47.36773907066761,8.539030255413676,19,16,4df1273645dddcd92cb8bc1e,Ristorante Orsini,47.36969417008752,8.540191011300763,Italian Restaurant
205,47.36773907066761,8.539030255413676,19,17,5d4c7aa6a4ace90007dc85a4,Beyond,47.367466,8.535946,Asian Restaurant
206,47.36773907066761,8.539030255413676,19,18,4ba87663f964a520f7db39e3,Coco Grill & Bar,47.368958637059286,8.538430806857162,Swiss Restaurant
207,47.370000000000005,8.55,5,0,5b7a951078782c002c100f2d,Re Place Iko Miki,47.370627,8.549584,Ramen Restaurant
208,47.370000000000005,8.55,5,1,50543d72e4b0669212fb0606,Santa Lucia Teatro,47.370280683202765,8.548880741852718,Italian Restaurant
209,47.370000000000005,8.55,5,2,56938bb9498e1afb3a188a03,Restaurant Wolfbach,47.37027831095096,8.552126884460447,Spanish Restaurant
210,47.370000000000005,8.55,5,3,5048f7fce4b052b0afdc9b57,Misoga (미소가),47.36905987365825,8.550210659305664,Korean Restaurant
211,47.370000000000005,8.55,5,4,5726254e498ecb4250abba1f,Restaurant Quaglinos,47.368705,8.547521,French Restaurant
212,47.3722609293324,8.54668403030061,30,0,4c60415490b2c9b6bf4d3c22,Bauernschänke,47.37249999590299,8.545155566214001,Swiss Restaurant
213,47.3722609293324,8.54668403030061,30,1,5865150b158b9642d6da251c,Raclette Factory,47.37237594255197,8.543813086982865,Swiss Restaurant
214,47.3722609293324,8.54668403030061,30,2,4b05888af964a520a3cc22e3,Spaghetti Factory Rosenhof,47.37295200649502,8.54371052071147,Italian Restaurant
215,47.3722609293324,8.54668403030061,30,3,4c76ad8fff1fb60c97a5f9a7,Rechberg 1837,47.37405,8.546306,Spanish Restaurant
216,47.3722609293324,8.54668403030061,30,4,4b05888af964a5208ecc22e3,Bodega Española,47.371287729592666,8.544151889268985,Spanish Restaurant
217,47.3722609293324,8.54668403030061,30,5,4b6c6353f964a520f0352ce3,Oepfelchammer,47.37241331895266,8.544600039764488,Swiss Restaurant
218,47.3722609293324,8.54668403030061,30,6,4d41ccf889616dcbacd512b5,Turm,47.37174847247058,8.544533259116559,Mexican Restaurant
219,47.3722609293324,8.54668403030061,30,7,4b058888f964a52018cc22e3,Wirtschaft Neumarkt,47.372711439656534,8.545639795288643,Swiss Restaurant
220,47.3722609293324,8.54668403030061,30,8,4eb27d286c25aecd470827ec,Brasserie Louis,47.373129484915246,8.543798499978214,French Restaurant
221,47.3722609293324,8.54668403030061,30,9,511cde09e4b09e1aaeb6ebe3,Kalkanoglu Pilav,47.37291,8.54391,Swiss Restaurant
222,47.3722609293324,8.54668403030061,30,10,5a99a4856eda021aeaed230f,Baltho Restaurant,47.372013,8.543638,Modern European Restaurant
223,47.3722609293324,8.54668403030061,30,11,4e45661bd164155c0dd6db65,Tagliatelle,47.3744649709291,8.546466639886926,Italian Restaurant
224,47.3722609293324,8.54668403030061,30,12,4b880e1bf964a5202edc31e3,Tank Niederdorf,47.37290631315832,8.543603430390903,Argentinian Restaurant
225,47.3722609293324,8.54668403030061,30,13,5905c02dc9a5171dad6bf785,1001 Take Away,47.372869,8.543605,Doner Restaurant
226,47.3722609293324,8.54668403030061,30,14,51645d64e4b00a0b973cf619,Restaurant Hirschplatz,47.374210580594,8.546775880155884,Italian Restaurant
227,47.3722609293324,8.54668403030061,30,15,4b5ae34cf964a520e6d828e3,Pulcino,47.3731164811691,8.543760188411484,Italian Restaurant
228,47.3722609293324,8.54668403030061,30,16,4b7360c0f964a52086ab2de3,Wystube Isebähnli,47.37319471200984,8.544796473124574,Mediterranean Restaurant
229,47.3722609293324,8.54668403030061,30,17,4fe0c02fe4b0503cb923a2eb,Sommernachtstraumgarten,47.372684,8.545701,Swiss Restaurant
230,47.3722609293324,8.54668403030061,30,18,50224234e4b01df8a07932fd,Careda Napoli,47.371773,8.543797,Italian Restaurant
231,47.3722609293324,8.54668403030061,30,19,4cc94d79d063a1436ec20cb4,Punto Italiano,47.373945,8.544896,Snack Place
232,47.3722609293324,8.54668403030061,30,20,4d0692f830a58cfa1da4abe7,Ruth's Intim Puschi Zone,47.373352,8.543915,Swiss Restaurant
233,47.3722609293324,8.54668403030061,30,21,4b82d36cf964a5207fe730e3,"Rheinfelder Bierhaus ""Bluetige Dumme""",47.37206880107386,8.5437662498457,Swiss Restaurant
234,47.3722609293324,8.54668403030061,30,22,4b058888f964a520f5cb22e3,Tina Bar,47.3731165911001,8.543813516806187,Wine Bar
235,47.3722609293324,8.54668403030061,30,23,4fd269e4e4b0abd66471a76a,Les Douceurs,47.37347,8.544325,French Restaurant
236,47.3722609293324,8.54668403030061,30,24,5852e744da54ae2d887941ba,Cicchetteria Da Rosa,47.373596,8.544211,Italian Restaurant
237,47.3722609293324,8.54668403030061,30,25,4b058888f964a520e4cb22e3,Barfüsser,47.373601371158735,8.544590969733397,Sushi Restaurant
238,47.3722609293324,8.54668403030061,30,26,4cba0244c7228cfa8f2e14ce,Restaurant Schlauch,47.371476939808566,8.544514614879326,Swiss Restaurant
239,47.3722609293324,8.54668403030061,30,27,4c614ba354ac0f479b85b721,pure asia,47.371939,8.543787,Asian Restaurant
240,47.3722609293324,8.54668403030061,30,28,5a9995c8a795bd292ac67bd7,New Bombay,47.373668,8.545666,Indian Restaurant
241,47.3722609293324,8.54668403030061,30,29,4b058888f964a52003cc22e3,Restaurant Madrid,47.37324142817253,8.544727954812297,Spanish Restaurant
242,47.36773907066761,8.54668403030061,35,0,4b05888af964a520b1cc22e3,Sternen Grill,47.367180613484344,8.545558053733552,Bratwurst Joint
243,47.36773907066761,8.54668403030061,35,1,4d0a01055edd5481f657039b,Vapiano,47.36787474566576,8.546250863562062,Italian Restaurant
244,47.36773907066761,8.54668403030061,35,2,4b76fd01f964a520d9712ee3,Blockhus,47.368139555110744,8.544945408608335,Swiss Restaurant
245,47.36773907066761,8.54668403030061,35,3,4bb3a8fc42959c747543222c,Brasserie Schiller,47.3656966147514,8.54714435413674,French Restaurant
246,47.36773907066761,8.54668403030061,35,4,4b058888f964a5201fcc22e3,Terrasse,47.3677220351569,8.54428500472559,Lounge
247,47.36773907066761,8.54668403030061,35,5,4b464744f964a5204c1c26e3,Santa Lucia Corso,47.366249030705774,8.54654542238249,Italian Restaurant
248,47.36773907066761,8.54668403030061,35,6,4b058888f964a5201dcc22e3,Kronenhalle,47.36753701123322,8.545425330046786,Swiss Restaurant
249,47.36773907066761,8.54668403030061,35,7,4b72bb28f964a520e5852de3,Outback Lodge,47.36708785451795,8.54765234379381,Australian Restaurant
250,47.36773907066761,8.54668403030061,35,8,4b2bb708f964a5209eb924e3,Rosaly's Restaurant & Bar,47.367418,8.545874,Swiss Restaurant
251,47.36773907066761,8.54668403030061,35,9,4c6962518d22c928590ab745,Tschingg,47.36815085020812,8.545914360153459,Fast Food Restaurant
252,47.36773907066761,8.54668403030061,35,10,4b93cb9cf964a520115234e3,Restaurant Cèdre-Bellevue,47.36869398,8.54435492,Mediterranean Restaurant
253,47.36773907066761,8.54668403030061,35,11,55d38832498e7ad230d1988f,soi thai,47.368331,8.547504,Pop-Up Shop
254,47.36773907066761,8.54668403030061,35,12,4b4c5dfaf964a520a9b126e3,Restaurant Weisser Wind,47.36882888151929,8.54542015603415,Swiss Restaurant
255,47.36773907066761,8.54668403030061,35,13,525d8613498e4af6b2089894,Il Gattopardo,47.369116,8.544416,Italian Restaurant
256,47.36773907066761,8.54668403030061,35,14,5a1415d83d4791347db1ccc7,Tatar Globus am Bellevue,47.366503,8.546491,Modern European Restaurant
257,47.36773907066761,8.54668403030061,35,15,4b30b59cf964a52014fb24e3,Kahn's Restaurant,47.366717321159136,8.543808760612661,Indian Restaurant
258,47.36773907066761,8.54668403030061,35,16,4cd582b094848cfa48cde6b1,FondueTram,47.36653368884899,8.545293616746628,Swiss Restaurant
259,47.36773907066761,8.54668403030061,35,17,4bcde17f937ca593537cad92,Vorderer Sternen,47.36715241792492,8.545473536757399,Swiss Restaurant
260,47.36773907066761,8.54668403030061,35,18,4c05464039d476b0a3a232a7,Magic Masala,47.368091,8.544883,Indian Restaurant
261,47.36773907066761,8.54668403030061,35,19,4be067e8cb81c9b641c0658b,Ly's Asia Take Away,47.367142,8.547471,Asian Restaurant
262,47.36773907066761,8.54668403030061,35,20,4b89233bf964a520c31e32e3,noon,47.368691,8.545336,Middle Eastern Restaurant
263,47.36773907066761,8.54668403030061,35,21,4b6c5e9af964a52052342ce3,Sterne foifi,47.36733,8.545072,Swiss Restaurant
264,47.36773907066761,8.54668403030061,35,22,584ef3c613c2232ee6305766,Ooki - Weihnachtsmarkt,47.366115,8.546008,Ramen Restaurant
265,47.36773907066761,8.54668403030061,35,23,5a266177dd844204541aad16,Sternen Grill + Sternen Grill Restaurant im oberen Stock,47.367075,8.545086,Eastern European Restaurant
266,47.36773907066761,8.54668403030061,35,24,537ca460498e4d1d84f43617,lillys,47.367242,8.547231,Thai Restaurant
267,47.36773907066761,8.54668403030061,35,25,53c65cc7498ec39954d6b04b,Mishio,47.366806,8.54808,Asian Restaurant
268,47.36773907066761,8.54668403030061,35,26,577b8519498e28301905bd0a,SAIGON am Hechtplatz,47.368555,8.544506,Vietnamese Restaurant
269,47.36773907066761,8.54668403030061,35,27,4db08a380437a93f7f756fe7,Zum weissen Kreuz,47.369164986401934,8.544315222978932,Swiss Restaurant
270,47.36773907066761,8.54668403030061,35,28,5785e3c8498ef4b8f39c5cf5,mishjo,47.367504,8.547655,Japanese Restaurant
271,47.36773907066761,8.54668403030061,35,29,4bf41ce86a31d13a635d952e,Weisse Rose,47.367961,8.545508,Swiss Restaurant
272,47.36773907066761,8.54668403030061,35,30,5726254e498ecb4250abba1f,Restaurant Quaglinos,47.368705,8.547521,French Restaurant
273,47.36773907066761,8.54668403030061,35,31,4b3a47b8f964a520aa6325e3,Yooji's,47.367172670897766,8.5464636524715,Sushi Restaurant
274,47.36773907066761,8.54668403030061,35,32,5dea3b5da7067b00084c87ad,Panda Buns,47.366271,8.546116,Food Stand
275,47.36773907066761,8.54668403030061,35,33,5a229f0de1f0aa087c87ca86,Fondue Chalet Klosters,47.366261,8.546067,Swiss Restaurant
276,47.36773907066761,8.54668403030061,35,34,512665fce4b0d5571ed4084a,Sushi Bar in Globus,47.36639519227568,8.545887159359275,Sushi Restaurant
277,47.3722609293324,8.55331596969939,3,0,4bb76f886edc76b0dd2b321c,Sento,47.37368643804205,8.55316466152899,Swiss Restaurant
278,47.3722609293324,8.55331596969939,3,1,56938bb9498e1afb3a188a03,Restaurant Wolfbach,47.37027831095096,8.552126884460447,Spanish Restaurant
279,47.3722609293324,8.55331596969939,3,2,4c7790a307818cfab3ccd4e3,Restaurant Oberhof,47.37350884931649,8.553450071114096,Swiss Restaurant
280,47.36773907066761,8.55331596969939,2,0,4b0bbf83f964a5205e3323e3,Pasta Romagna,47.3675910049139,8.554509636194252,Italian Restaurant
281,47.36773907066761,8.55331596969939,2,1,5fb01e2714cc1c2966baa90a,Salir,47.369519,8.553604,Mediterranean Restaurant
282,47.38,8.521428571428572,6,0,4b058887f964a520d9cb22e3,Greulich,47.378533118562856,8.52042703735696,Hotel
283,47.38,8.521428571428572,6,1,518548fe498e4754bfcc169e,Rest. Chianalea,47.37934036006314,8.524209898054215,Italian Restaurant
284,47.38,8.521428571428572,6,2,5532c310498e24c6e9d7459c,Equi-Table,47.37788,8.521129,Swiss Restaurant
285,47.38,8.521428571428572,6,3,509ab5b3e4b07f2723f3637e,Merve Kebaphaus,47.378467,8.523804,Turkish Restaurant
286,47.38,8.521428571428572,6,4,4c6bade1599fbe9a602c933f,Restaurant Werkhof,47.379529,8.52379,Thai Restaurant
287,47.38,8.521428571428572,6,5,5bba91c8febf31002cda8513,Ege Restaurant,47.380136,8.52446,Turkish Restaurant
288,47.382260929332396,8.518111972839034,5,0,4f4f5dcae4b0f022a0694291,Evin Kebap Haus,47.3811,8.5185,Turkish Restaurant
289,47.382260929332396,8.518111972839034,5,1,52ec1fd2498ed0c17917528d,Panda Schloss,47.38096580552496,8.517986602794164,Sushi Restaurant
290,47.382260929332396,8.518111972839034,5,2,50a7e253e4b05407c26956a9,Turkey Hall,47.381363443376436,8.517765469068895,American Restaurant
291,47.382260929332396,8.518111972839034,5,3,52713dfe11d2f284c5c074af,manhattan,47.38119490207531,8.517906057571047,American Restaurant
292,47.382260929332396,8.518111972839034,5,4,4ee09ab22c5bb0e03ed845fa,Ristorante Da Toni,47.381223431483654,8.517254184609492,Italian Restaurant
293,47.37773907066761,8.518111972839034,11,0,4b058887f964a520d9cb22e3,Greulich,47.378533118562856,8.52042703735696,Hotel
294,47.37773907066761,8.518111972839034,11,1,5a6598d36c08d126b5731683,Rosi,47.37636067720438,8.516396980663396,Swiss Restaurant
295,47.37773907066761,8.518111972839034,11,2,5bb653a5c47cf9002c998889,Barranco,47.379479,8.516007,Peruvian Restaurant
296,47.37773907066761,8.518111972839034,11,3,5532c310498e24c6e9d7459c,Equi-Table,47.37788,8.521129,Swiss Restaurant
297,47.37773907066761,8.518111972839034,11,4,4b058888f964a520e7cb22e3,Caduff's Wine Loft,47.37711519219868,8.520155125586543,Swiss Restaurant
298,47.37773907066761,8.518111972839034,11,5,5eca3fd418038900082a9168,Brera,47.377122,8.52002,Italian Restaurant
299,47.37773907066761,8.518111972839034,11,6,4e0a1802d22d658532b80078,Bistro Cherry,47.3759476,8.5181598,Middle Eastern Restaurant
300,47.37773907066761,8.518111972839034,11,7,4be7e915d837c9b623a4a406,Restaurant La Pergola,47.37671,8.52077,Italian Restaurant
301,47.37773907066761,8.518111972839034,11,8,5c483beedb2aeb002c14f6ae,Il Punto Gastro GmbH,47.379075,8.515539,Italian Restaurant
302,47.37773907066761,8.518111972839034,11,9,536263c1498ed583ede96dff,El silio,47.3764,8.51624,Brazilian Restaurant
303,47.37773907066761,8.518111972839034,11,10,5a5f4bffbd897e1dfb5f6438,Paulo's Cafe Restaurant,47.379362,8.515915,Swiss Restaurant
304,47.382260929332396,8.524745170018111,5,0,5560bacf498ee79eb4395251,Kokoro,47.38068,8.526546,Japanese Restaurant
305,47.382260929332396,8.524745170018111,5,1,4f410cfae4b0e5bc12f8ec80,Restaurante Tropical,47.38028728349193,8.526029407803323,Brazilian Restaurant
306,47.382260929332396,8.524745170018111,5,2,4d57df7cde8f6dcb12850491,Phuket Centre,47.380829,8.526976,Thai Restaurant
307,47.382260929332396,8.524745170018111,5,3,5bba91c8febf31002cda8513,Ege Restaurant,47.380136,8.52446,Turkish Restaurant
308,47.382260929332396,8.524745170018111,5,4,4c224862fbe5c9b687a29921,Roi-Et (ร้อยเอ็ด) (Roi-Et),47.380497246937985,8.526089487168502,Thai Restaurant
309,47.37773907066761,8.524745170018111,42,0,5f6ce4b46e051e4598bb26e3,Habesha,47.377071,8.523304,Ethiopian Restaurant
310,47.37773907066761,8.524745170018111,42,1,4b1ac568f964a5206bf123e3,Hooters,47.37646642314172,8.52583957346981,American Restaurant
311,47.37773907066761,8.524745170018111,42,2,4b4b0b8df964a5206c9126e3,Celia,47.37579140507171,8.525246519478012,Italian Restaurant
312,47.37773907066761,8.524745170018111,42,3,4b68882af964a5203a7e2be3,Aargauerhof,47.37726433418811,8.52639300998908,Swiss Restaurant
313,47.37773907066761,8.524745170018111,42,4,5af1df162387060031dc7942,Tenz,47.37812,8.5275545,Tibetan Restaurant
314,47.37773907066761,8.524745170018111,42,5,4f1713e1e4b067f6753c81a4,La Baracca,47.37619556089106,8.522434157024838,Italian Restaurant
315,47.37773907066761,8.524745170018111,42,6,582f6ce1dfa6ff0f03f05d88,PUTPUTakeaway,47.3765,8.525122,Japanese Restaurant
316,47.37773907066761,8.524745170018111,42,7,4b261e9df964a520947824e3,Kobal,47.37559946130362,8.524345722208967,Indian Restaurant
317,47.37773907066761,8.524745170018111,42,8,56fec063498e86f28f9934ef,Schönau Bar Restaurant,47.378233948842926,8.524223406196766,Mediterranean Restaurant
318,47.37773907066761,8.524745170018111,42,9,518548fe498e4754bfcc169e,Rest. Chianalea,47.37934036006314,8.524209898054215,Italian Restaurant
319,47.37773907066761,8.524745170018111,42,10,518545d4498e0b8abbd3ba53,Palestine Grill,47.37836362517384,8.526989446926743,Middle Eastern Restaurant
320,47.37773907066761,8.524745170018111,42,11,4c457833f0bdd13a74f1cacc,Schweizer Weinstube,47.37763601647199,8.525554782699217,Swiss Restaurant
321,47.37773907066761,8.524745170018111,42,12,4b601e73f964a52068d629e3,Eichhörnli,47.37961644377743,8.525597492277148,Swiss Restaurant
322,47.37773907066761,8.524745170018111,42,13,4d4eaafd9a2a6ea84dbd246f,Rest.sonne,47.377265,8.526803,Asian Restaurant
323,47.37773907066761,8.524745170018111,42,14,5b7550e556837a001c4d992c,Ay Mami,47.37677,8.525796,Mexican Restaurant
324,47.37773907066761,8.524745170018111,42,15,5e237c86a7015200077e90ab,Kinii,47.377397,8.522487,Asian Restaurant
325,47.37773907066761,8.524745170018111,42,16,5db0a264ab97200008ceaa91,Okinii,47.37716,8.523295,Japanese Restaurant
326,47.37773907066761,8.524745170018111,42,17,4faa6ee3e4b0afe1f1f66ac0,Don Quijote,47.377729843769586,8.5271850099264,Spanish Restaurant
327,47.37773907066761,8.524745170018111,42,18,4bfffa76f61ea5931617eb13,Chopstick,47.37571318619893,8.52428661112544,Chinese Restaurant
328,47.37773907066761,8.524745170018111,42,19,4d0bee1cef2b8cfa98a7067d,Thai 4 You Bar,47.37655720268289,8.52527497910158,Thai Restaurant
329,47.37773907066761,8.524745170018111,42,20,509ab5b3e4b07f2723f3637e,Merve Kebaphaus,47.378467,8.523804,Turkish Restaurant
330,47.37773907066761,8.524745170018111,42,21,595a8086c365882ea49c863c,Asianart,47.37708,8.523304,Chinese Restaurant
331,47.37773907066761,8.524745170018111,42,22,5a8873affdb9a74c8882e3d8,El Cevichazo,47.37984,8.525473,Peruvian Restaurant
332,47.37773907066761,8.524745170018111,42,23,4bd32f5eb221c9b6f110d9d0,Osteria Da Concetta,47.378118,8.524251,Trattoria/Osteria
333,47.37773907066761,8.524745170018111,42,24,4b7418d2f964a520bcc72de3,Restaurant B,47.377799822894225,8.524277221082244,Swiss Restaurant
334,47.37773907066761,8.524745170018111,42,25,56e2edcc498e82b2274ae5ba,Olif Grill,47.37626495940612,8.526204393655034,Middle Eastern Restaurant
335,47.37773907066761,8.524745170018111,42,26,50da47f4e4b0aceb2edd41e2,Çorbacı,47.377681,8.526557,Turkish Restaurant
336,47.37773907066761,8.524745170018111,42,27,4c6bade1599fbe9a602c933f,Restaurant Werkhof,47.379529,8.52379,Thai Restaurant
337,47.37773907066761,8.524745170018111,42,28,4ce4348522bef04d39dad7f8,Rana,47.378039099999995,8.52669895,Asian Restaurant
338,47.37773907066761,8.524745170018111,42,29,4eac5e9e6c250fcc75011a6f,Gambrinus,47.37879239777861,8.52714900316178,Swiss Restaurant
339,47.37773907066761,8.524745170018111,42,30,4f61d39ee4b0b665cfd5bb60,Barteca,47.3775879403564,8.527108914341776,Brazilian Restaurant
340,47.37773907066761,8.524745170018111,42,31,4cb23227562d224b3af32488,Sonne,47.37719189348718,8.526815904112727,Asian Restaurant
341,47.37773907066761,8.524745170018111,42,32,519e48a7498efd48dcdb42de,Morgenstern Da Mario,47.37956756947523,8.526146735509194,Italian Restaurant
342,47.37773907066761,8.524745170018111,42,33,55d093cf498eba4db29836d0,Coming Soon,47.3789871433467,8.526728367943896,Vietnamese Restaurant
343,47.37773907066761,8.524745170018111,42,34,50ec083be4b06f44b71e2d07,santa maria,47.376218978110586,8.526368740545248,Italian Restaurant
344,47.37773907066761,8.524745170018111,42,35,58065aa438fa6ac63de7d23f,Parañaque,47.37709,8.523272,Thai Restaurant
345,47.37773907066761,8.524745170018111,42,36,5c8c0ed7e1f2280039304882,Restaurant Sonne,47.377278,8.52696,Thai Restaurant
346,47.37773907066761,8.524745170018111,42,37,58530533d8f3e92d7645d8ec,4 Leoni Siracusa,47.376837,8.526903,Italian Restaurant
347,47.37773907066761,8.524745170018111,42,38,4cdbd4fffc9737044362d105,Rest. Aggarwals,47.376806,8.525879,Indian Restaurant
348,47.37773907066761,8.524745170018111,42,39,4d42ef777fb05481d21f7079,Aggarwal Indian Food,47.376312905675576,8.525804434563428,Asian Restaurant
349,47.37773907066761,8.524745170018111,42,40,518d4219498e90f57a8b3e10,Cento Passi,47.3770717531695,8.524184190258486,Italian Restaurant
350,47.37773907066761,8.524745170018111,42,41,4efdd1887ee5f14f38bf5eb4,Da Leo,47.37728435754282,8.526072066057298,Cuban Restaurant
351,47.38,8.535714285714286,29,0,4b8bb2bdf964a52075a732e3,Der Grüne Libanon,47.380738462950596,8.53483549087358,Falafel Restaurant
352,47.38,8.535714285714286,29,1,4b5c7b71f964a520f93129e3,Chiang Mai Thai Shop,47.38073922950026,8.5336333730925,Thai Restaurant
353,47.38,8.535714285714286,29,2,5a088a9860255e656b7ff7fe,Pasta Barn,47.378431,8.536469,Noodle House
354,47.38,8.535714285714286,29,3,5d382c0ce5768900079157a0,Nooba,47.378512,8.534506,Asian Restaurant
355,47.38,8.535714285714286,29,4,4bd173d9046076b0e8d17171,Wirtschaft zum Vorbahnhof,47.379596243019265,8.537183019127884,Swiss Restaurant
356,47.38,8.535714285714286,29,5,51c42d93498edcb7dc3f304b,A Mano,47.381059,8.535234,Italian Restaurant
357,47.38,8.535714285714286,29,6,5e3546e8dd74ea000736f322,il baretto,47.380469,8.534264,Café
358,47.38,8.535714285714286,29,7,4b4fb817f964a520681227e3,Paninoteca Il Pentagramma,47.38112303767148,8.533554349862975,Sandwich Place
359,47.38,8.535714285714286,29,8,4be56ab6910020a1b6e7d214,Lubnän al-achdar,47.380708318221515,8.534166056246116,Middle Eastern Restaurant
360,47.38,8.535714285714286,29,9,568b9d46498e5f2ceddd6efb,Il Bistro,47.38098784583138,8.535290323533316,Italian Restaurant
361,47.38,8.535714285714286,29,10,4b4c6261f964a520f8b126e3,Jack's Place,47.381621,8.533532,Chinese Restaurant
362,47.38,8.535714285714286,29,11,596603400d8a0f4a1e2f83de,Kaisin.,47.378365,8.534484,Sushi Restaurant
363,47.38,8.535714285714286,29,12,4c4eacaf1b8e1b8db77c8727,St. Gallerhof,47.379920081092386,8.537463303481681,Swiss Restaurant
364,47.38,8.535714285714286,29,13,50b5010fe4b020fc3de77929,Piz Europa Fondue-Hütte,47.378548471435195,8.533432125973615,Swiss Restaurant
365,47.38,8.535714285714286,29,14,5614f7a5498e647caf09cdd3,Kreta Greek Cuisine,47.38118,8.535294,Greek Restaurant
366,47.38,8.535714285714286,29,15,4b850b66f964a520c04931e3,Il Ristorantino,47.382133,8.535712,Italian Restaurant
367,47.38,8.535714285714286,29,16,4ba89c35f964a52051e239e3,Flavours,47.38151738407816,8.536910273076757,Indian Restaurant
368,47.38,8.535714285714286,29,17,5cd97bd16adbf5002cfc4b8f,Al Piattino,47.380737,8.534636,Italian Restaurant
369,47.38,8.535714285714286,29,18,4b058888f964a520e8cb22e3,Sala of Tokyo,47.38098960929025,8.53647986916147,Asian Restaurant
370,47.38,8.535714285714286,29,19,4dccc533d4c065592f5607d9,Spuntino,47.378257797189676,8.535990715026855,Turkish Restaurant
371,47.38,8.535714285714286,29,20,4b5c7a3ef964a520bf3129e3,Beyond (别样馆),47.380114787603496,8.536044510586894,Chinese Restaurant
372,47.38,8.535714285714286,29,21,4f704ba7e4b0f577d46dd431,Barone Panini,47.38164545064938,8.535713020624575,Italian Restaurant
373,47.38,8.535714285714286,29,22,51b8b07a498ef5a0a5c214bd,Atrisse Moukthar Khodor Lebanese Restaurant,47.379646,8.536533,Middle Eastern Restaurant
374,47.38,8.535714285714286,29,23,526eba4d11d29eae79bf22e3,Tant pis,47.379599,8.533964,Mediterranean Restaurant
375,47.38,8.535714285714286,29,24,4b4b0c0ef964a520779126e3,Yoshino,47.380757,8.534579,Sushi Restaurant
376,47.38,8.535714285714286,29,25,5d7626394dcf7900083267fc,Yooijs HB Passage Sihlpost,47.378387,8.536227,Sushi Restaurant
377,47.38,8.535714285714286,29,26,4ffabee9e4b033b23cfd7d82,upc cablecom restaurant,47.3807836001854,8.536677333925791,Swiss Restaurant
378,47.38,8.535714285714286,29,27,50d19e31e4b08647ff73af9a,Konrad 39,47.3808470348368,8.53544282167216,Swiss Restaurant
379,47.38,8.535714285714286,29,28,4ec3bddee5fa690c1ee0cbc7,Mexikaner,47.37976098941922,8.537408994545736,Mexican Restaurant
380,47.382260929332396,8.532397687124748,49,0,4b22408bf964a520c04424e3,Lily's Stomach Supply,47.382535,8.52954,Asian Restaurant
381,47.382260929332396,8.532397687124748,49,1,5d03ddb8603d2a0039f3657e,Afghan Anar,47.384025,8.531751,Afghan Restaurant
382,47.382260929332396,8.532397687124748,49,2,4f92f0c8e4b04c0c9eba8b6c,El Luchador,47.38185154359563,8.533621360590336,Mexican Restaurant
383,47.382260929332396,8.532397687124748,49,3,4b8bb2bdf964a52075a732e3,Der Grüne Libanon,47.380738462950596,8.53483549087358,Falafel Restaurant
384,47.382260929332396,8.532397687124748,49,4,4b5c7b71f964a520f93129e3,Chiang Mai Thai Shop,47.38073922950026,8.5336333730925,Thai Restaurant
385,47.382260929332396,8.532397687124748,49,5,59370f34ad1ea41e8daf257e,Urban Fork,47.38324,8.53314,American Restaurant
386,47.382260929332396,8.532397687124748,49,6,5de943a28090880008c2c0dd,La Brea Socal Tacos,47.382408,8.531846,Taco Place
387,47.382260929332396,8.532397687124748,49,7,5ab3e048be707860349f20f3,Uncle 7,47.381893,8.533863,Chinese Restaurant
388,47.382260929332396,8.532397687124748,49,8,562237c7498eaf5119c8dd7f,Pho Na,47.381501882168784,8.533184289132633,Vietnamese Restaurant
389,47.382260929332396,8.532397687124748,49,9,54d4b36d498e8260d1758b97,Dont Worry Eat Curry,47.38284022939362,8.530939552266204,Sri Lankan Restaurant
390,47.382260929332396,8.532397687124748,49,10,5e3546e8dd74ea000736f322,il baretto,47.380469,8.534264,Café
391,47.382260929332396,8.532397687124748,49,11,5464f4a7498e27df602e9709,Nooch,47.38054112703988,8.532383867174962,Asian Restaurant
392,47.382260929332396,8.532397687124748,49,12,4b4fb817f964a520681227e3,Paninoteca Il Pentagramma,47.38112303767148,8.533554349862975,Sandwich Place
393,47.382260929332396,8.532397687124748,49,13,4be56ab6910020a1b6e7d214,Lubnän al-achdar,47.380708318221515,8.534166056246116,Middle Eastern Restaurant
394,47.382260929332396,8.532397687124748,49,14,4bc748ea2f94d13af99a117f,Restaurant Vulkan,47.38191800913314,8.533651817203056,Indian Restaurant
395,47.382260929332396,8.532397687124748,49,15,5501dd92498e1c8a3ebea1de,Wesley's Kitchen,47.38183164989717,8.532534073256674,Asian Restaurant
396,47.382260929332396,8.532397687124748,49,16,4b4c6261f964a520f8b126e3,Jack's Place,47.381621,8.533532,Chinese Restaurant
397,47.382260929332396,8.532397687124748,49,17,58050f3638fab5228a031936,Bobo's Restaurant,47.38189566433105,8.52952927350998,Swiss Restaurant
398,47.382260929332396,8.532397687124748,49,18,5082a06be4b0b8e8440de239,5 Star,47.38287,8.531003,Turkish Restaurant
399,47.382260929332396,8.532397687124748,49,19,53c4465e498edc618e1344c8,Restaurant Perle de Beirut,47.381866455078125,8.529524803161621,Middle Eastern Restaurant
400,47.382260929332396,8.532397687124748,49,20,4b59ca7af964a520369828e3,India Street-Food,47.383168,8.530197,Indian Restaurant
401,47.382260929332396,8.532397687124748,49,21,4f1806afe4b0bb143ea05a13,India Lunch,47.38281767376729,8.531627874370308,Indian Restaurant
402,47.382260929332396,8.532397687124748,49,22,5614f7a5498e647caf09cdd3,Kreta Greek Cuisine,47.38118,8.535294,Greek Restaurant
403,47.382260929332396,8.532397687124748,49,23,58d4457702b60e791e6c636f,Alibaba,47.382847,8.531161,Middle Eastern Restaurant
404,47.382260929332396,8.532397687124748,49,24,54c2a651498e9ffb3cfe4718,Thali House,47.38302137043427,8.530126686098518,Indian Restaurant
405,47.382260929332396,8.532397687124748,49,25,4b850b66f964a520c04931e3,Il Ristorantino,47.382133,8.535712,Italian Restaurant
406,47.382260929332396,8.532397687124748,49,26,4eb5369b469073bbc608fd48,Casa do Pastel,47.38256684306367,8.530742671480402,Brazilian Restaurant
407,47.382260929332396,8.532397687124748,49,27,5cd97bd16adbf5002cfc4b8f,Al Piattino,47.380737,8.534636,Italian Restaurant
408,47.382260929332396,8.532397687124748,49,28,51f7e09a498e9fdd062d7ba3,Casa da Picanha,47.382052904862945,8.530122765608722,Brazilian Restaurant
409,47.382260929332396,8.532397687124748,49,29,4b05888af964a520b6cc22e3,Samses,47.38404204261484,8.53095817625238,Vegetarian / Vegan Restaurant
410,47.382260929332396,8.532397687124748,49,30,51499aeee4b04f83023f714e,grün blatt kwok,47.3828125,8.530682563781738,Chinese Restaurant
411,47.382260929332396,8.532397687124748,49,31,53147be9498eb8435b2469dc,aMano Pasta Caffé,47.382634292169314,8.534145238724896,Italian Restaurant
412,47.382260929332396,8.532397687124748,49,32,4f624bc0e4b0a9d091e135e9,Restaurant Picasso,47.38233577595694,8.530472818122508,Spanish Restaurant
413,47.382260929332396,8.532397687124748,49,33,5228dbbe11d27fcd380433bc,Star Take-Away,47.38315009623464,8.530908108463066,Turkish Restaurant
414,47.382260929332396,8.532397687124748,49,34,5365ed4b498e587a6f4b8d7a,Pastel Brasil,47.382519,8.530576,Brazilian Restaurant
415,47.382260929332396,8.532397687124748,49,35,5249acc011d2b72efe30af84,tantpis,47.382179260253906,8.533476829528809,Mediterranean Restaurant
416,47.382260929332396,8.532397687124748,49,36,4d679244fd1b8cfa0f1f1ff0,Dai-Thanh,47.381513,8.533116,Asian Restaurant
417,47.382260929332396,8.532397687124748,49,37,4d01255c2685a35de8a7cc90,Thai Chin,47.38284493896071,8.531022898288219,Asian Restaurant
418,47.382260929332396,8.532397687124748,49,38,4b792607f964a520f0ec2ee3,Cinque,47.38331755150991,8.530446097974206,Italian Restaurant
419,47.382260929332396,8.532397687124748,49,39,4b6bea1af964a520621c2ce3,Pizzeria Riviera,47.38301275271625,8.530180257095932,Italian Restaurant
420,47.382260929332396,8.532397687124748,49,40,4b4b0c0ef964a520779126e3,Yoshino,47.380757,8.534579,Sushi Restaurant
421,47.382260929332396,8.532397687124748,49,41,5c266ded1acf11002c0a7fe0,Pinatubo,47.381992,8.533931,Filipino Restaurant
422,47.382260929332396,8.532397687124748,49,42,53c90bc2498ec6ddfaf39f22,Goi's Thai Kitchen,47.381805419921875,8.529170989990234,Thai Restaurant
423,47.382260929332396,8.532397687124748,49,43,51065a69e4b0fc9c3800f206,Tant Pis,47.381977603588844,8.53312896344786,Mediterranean Restaurant
424,47.382260929332396,8.532397687124748,49,44,51387e61e4b032c75e900de7,Himalaya,47.3819497,8.5339203,Tibetan Restaurant
425,47.382260929332396,8.532397687124748,49,45,4b6321bcf964a5205c652ae3,Casa Aurelio,47.383161,8.529686,Spanish Restaurant
426,47.382260929332396,8.532397687124748,49,46,5b7db5dd270ee7002c15d193,NA081,47.381858,8.533548,Italian Restaurant
427,47.382260929332396,8.532397687124748,49,47,5ba4ba88ba57b4002c44e574,Kaimug,47.383429,8.53041,Thai Restaurant
428,47.382260929332396,8.532397687124748,49,48,5fc76c91473213712dd8305f,Angry Sumo,47.38398,8.530744,Sushi Restaurant
429,47.37773907066761,8.532397687124748,36,0,5d0386e2491be7002c7e1757,Miss Miu,47.37907,8.531334,Korean Restaurant
430,47.37773907066761,8.532397687124748,36,1,5a735bf81f8ed634fc495961,Ynos,47.379202,8.531694,Modern European Restaurant
431,47.37773907066761,8.532397687124748,36,2,518a7bb2498ebfe64bae3a8a,Cartel,47.37632704989963,8.53304208459058,Burrito Place
432,47.37773907066761,8.532397687124748,36,3,5d382c0ce5768900079157a0,Nooba,47.378512,8.534506,Asian Restaurant
433,47.37773907066761,8.532397687124748,36,4,5894786baf5c1416e0e39e79,Yume Ramen,47.37667,8.53326,Japanese Restaurant
434,47.37773907066761,8.532397687124748,36,5,566720c4498e213b3e2453b1,Più,47.376811444825044,8.534959121521899,Italian Restaurant
435,47.37773907066761,8.532397687124748,36,6,56b252af498e36c6d8cfca29,Le Chef - Metas Restaurant,47.377918153247485,8.529829680919647,Swiss Restaurant
436,47.37773907066761,8.532397687124748,36,7,4fe61c92e4b02e4293ed10c3,Sommergarten,47.377240838972156,8.530691095443641,Mediterranean Restaurant
437,47.37773907066761,8.532397687124748,36,8,4b65c4abf964a52073fe2ae3,Cima,47.37767932314747,8.529700853096287,Indian Restaurant
438,47.37773907066761,8.532397687124748,36,9,4c0fcf5ef1b6a593dbde7a27,Restaurant Camino,47.377047821228516,8.532783224100685,Mediterranean Restaurant
439,47.37773907066761,8.532397687124748,36,10,5658b4bb498e3e94889df6f2,Yamas,47.378676552528326,8.531687571923822,Mediterranean Restaurant
440,47.37773907066761,8.532397687124748,36,11,5aa2e1ef95da0c6a54c405e1,Hongxi,47.377799,8.529619,Chinese Restaurant
441,47.37773907066761,8.532397687124748,36,12,596603400d8a0f4a1e2f83de,Kaisin.,47.378365,8.534484,Sushi Restaurant
442,47.37773907066761,8.532397687124748,36,13,4b670f2ef964a520a0372be3,La Luna,47.376378067982046,8.53307264593202,Italian Restaurant
443,47.37773907066761,8.532397687124748,36,14,4bdc5e63c79cc928fe3686e9,Zum Goldenen Fass,47.378009,8.529461,Swiss Restaurant
444,47.37773907066761,8.532397687124748,36,15,5848558f0a3d5404ed640f02,Fondue Chalet,47.379156,8.53102,Swiss Restaurant
445,47.37773907066761,8.532397687124748,36,16,50b5010fe4b020fc3de77929,Piz Europa Fondue-Hütte,47.378548471435195,8.533432125973615,Swiss Restaurant
446,47.37773907066761,8.532397687124748,36,17,5bab4129018cbb002c4f8677,GUSTAV Restaurant & Bar,47.379614,8.530872,Italian Restaurant
447,47.37773907066761,8.532397687124748,36,18,51cc6a90498e46bd9fa64d7f,Little Italy,47.37846704971846,8.530439043185131,Italian Restaurant
448,47.37773907066761,8.532397687124748,36,19,5ef0e21e431a6d0008e791b0,Tokyo Tapas,47.37784,8.529588,Japanese Restaurant
449,47.37773907066761,8.532397687124748,36,20,5e0ccfcc7f2b6c0008461c7e,MezeZuerich,47.376974,8.532434,Mediterranean Restaurant
450,47.37773907066761,8.532397687124748,36,21,4c70121efa49a1cd0ad9a4e3,Viet-Thai,47.378072,8.530103,Vietnamese Restaurant
451,47.37773907066761,8.532397687124748,36,22,4bc24089abf49521b442c293,Churrascaria Rincão,47.378063689326474,8.533486947485947,Churrascaria
452,47.37773907066761,8.532397687124748,36,23,589b0fa155d6220190223ab9,Thai Buffet,47.37686,8.53256,Thai Restaurant
453,47.37773907066761,8.532397687124748,36,24,4c87d50bcedc224b58e97fb6,Mai'S,47.37682495759803,8.532325158277306,Asian Restaurant
454,47.37773907066761,8.532397687124748,36,25,50bc8a69e4b05ed27f0828b9,Piz Europa,47.376888767610716,8.534672428768918,Swiss Restaurant
455,47.37773907066761,8.532397687124748,36,26,578e058f498e322e1ce0ac33,ISS Hope - International Space Station Hope,47.37901,8.530926,Asian Restaurant
456,47.37773907066761,8.532397687124748,36,27,52e386da498ee2a47524be38,Taste of Greece,47.37842082024651,8.531490558421178,Greek Restaurant
457,47.37773907066761,8.532397687124748,36,28,509a9381e4b0314c3572fb2b,Ristorante Pizzeria Santa Maria,47.37702555262696,8.530042280978424,Italian Restaurant
458,47.37773907066761,8.532397687124748,36,29,5f1b22be073848551b0dc7e6,Meze Mediterrane Küche,47.377015,8.532397,Turkish Restaurant
459,47.37773907066761,8.532397687124748,36,30,5ceec301c03635002ceb5fdb,Kinkhao,47.378188,8.529205,Thai Restaurant
460,47.37773907066761,8.532397687124748,36,31,526eba4d11d29eae79bf22e3,Tant pis,47.379599,8.533964,Mediterranean Restaurant
461,47.37773907066761,8.532397687124748,36,32,574d5d19498efef681fd4d36,Yen Restaurant,47.376661,8.532327,Asian Restaurant
462,47.37773907066761,8.532397687124748,36,33,56d1a5d3cd10b9cf5f153d99,Thach Restaurant,47.3786,8.529784,Asian Restaurant
463,47.37773907066761,8.532397687124748,36,34,56d1e463cd1004ac33c3e6d6,Cucina Kaserne,47.37608261010915,8.53390348380569,Italian Restaurant
464,47.37773907066761,8.532397687124748,36,35,518d41b2498ecf553fcba640,Dr Schwiizer,47.37784457669846,8.529685142877998,Swiss Restaurant
465,47.382260929332396,8.539030884303825,11,0,4d937a85fa1ef04d5fd46dc7,Drei Stuben,47.38310625978178,8.541610496955578,Swiss Restaurant
466,47.382260929332396,8.539030884303825,11,1,5682fdb0498e4732a3c35552,Villette Fondue House,47.382520764433956,8.540427153664552,Swiss Restaurant
467,47.382260929332396,8.539030884303825,11,2,518d29a8498e07aa4b5ad915,Cafe Restaurant Prisma,47.38379492859094,8.540389269615115,Portuguese Restaurant
468,47.382260929332396,8.539030884303825,11,3,4b05888af964a520a7cc22e3,White Elephant,47.38277,8.540341,Thai Restaurant
469,47.382260929332396,8.539030884303825,11,4,4ba89c35f964a52051e239e3,Flavours,47.38151738407816,8.536910273076757,Indian Restaurant
470,47.382260929332396,8.539030884303825,11,5,50536827e4b0e59cc7538573,African Queen,47.38186533190176,8.541956671043529,African Restaurant
471,47.382260929332396,8.539030884303825,11,6,4b05888bf964a520c5cc22e3,eCHo,47.38263,8.540195,Swiss Restaurant
472,47.382260929332396,8.539030884303825,11,7,4b058888f964a520e8cb22e3,Sala of Tokyo,47.38098960929025,8.53647986916147,Asian Restaurant
473,47.382260929332396,8.539030884303825,11,8,4f8d4272e4b0e5ed77e95de6,Curry Corner,47.38303080254244,8.541591065935346,Indian Restaurant
474,47.382260929332396,8.539030884303825,11,9,5a7ca234febf317515e8af34,Vapiano Lieferservice,47.382977,8.541239,Italian Restaurant
475,47.382260929332396,8.539030884303825,11,10,4ffabee9e4b033b23cfd7d82,upc cablecom restaurant,47.3807836001854,8.536677333925791,Swiss Restaurant
476,47.37773907066761,8.539030884303825,49,0,4b42001cf964a5204ccb25e3,Brasserie Federal,47.378131,8.540756,Swiss Restaurant
477,47.37773907066761,8.539030884303825,49,1,52d67ff0498e9632dade20ab,Spiga,47.37683040795013,8.53822762085078,Italian Restaurant
478,47.37773907066761,8.539030884303825,49,2,51f0ff27498ef7d208ad862d,Yooji's,47.37638700752831,8.539659476223829,Sushi Restaurant
479,47.37773907066761,8.539030884303825,49,3,4f47ed18e4b06a774168ec79,Restaurant Schützengasse,47.377154,8.53743,Swiss Restaurant
480,47.37773907066761,8.539030884303825,49,4,5b7064fc3e70ff00241228c2,Rice Up!,47.378211,8.538132,Asian Restaurant
481,47.37773907066761,8.539030884303825,49,5,53a01bdb498e71ce2acd162b,Yooji's sushi deli,47.378033343638286,8.538803888310717,Sushi Restaurant
482,47.37773907066761,8.539030884303825,49,6,53a076d0498e4bc68608da6d,Sora Sushi,47.37762258067043,8.539132977076385,Sushi Restaurant
483,47.37773907066761,8.539030884303825,49,7,5a088a9860255e656b7ff7fe,Pasta Barn,47.378431,8.536469,Noodle House
484,47.37773907066761,8.539030884303825,49,8,4bd173d9046076b0e8d17171,Wirtschaft zum Vorbahnhof,47.379596243019265,8.537183019127884,Swiss Restaurant
485,47.37773907066761,8.539030884303825,49,9,58480cb9a6118c1921319028,Burrito Brothers,47.376145600786636,8.537551154842735,Burrito Place
486,47.37773907066761,8.539030884303825,49,10,5bf5b411bd4009002cba748d,Sala Of Tokyo,47.376185,8.540322,Japanese Restaurant
487,47.37773907066761,8.539030884303825,49,11,5c8911e435f983002cdf7c57,Pasta Box,47.378305,8.540146,Italian Restaurant
488,47.37773907066761,8.539030884303825,49,12,5ce047e20719020025fc0284,Sapori D’italia,47.37818,8.538518,Grocery Store
489,47.37773907066761,8.539030884303825,49,13,4d302c0ea62d721e5c8d977d,Walliser Kanne,47.37668,8.538808,Swiss Restaurant
490,47.37773907066761,8.539030884303825,49,14,4ea6ba1f93ad76dfdb8025e5,Hummerbar,47.376309959947314,8.538870885864444,Seafood Restaurant
491,47.37773907066761,8.539030884303825,49,15,4bcfe970046076b070376f71,Restaurant White Elephant,47.37802392664129,8.539618715152269,Thai Restaurant
492,47.37773907066761,8.539030884303825,49,16,4def54cbd22ddfee16f42364,Luigi's Piadina,47.377935,8.540052,Italian Restaurant
493,47.37773907066761,8.539030884303825,49,17,51adcc1e498e2abd4679e670,Sein,47.376246,8.540149,Tapas Restaurant
494,47.37773907066761,8.539030884303825,49,18,4b05888bf964a520cbcc22e3,Isakaya,47.37664,8.540564,Sushi Restaurant
495,47.37773907066761,8.539030884303825,49,19,561bc252498e665332143bc3,monzoni,47.376532,8.539254,Swiss Restaurant
496,47.37773907066761,8.539030884303825,49,20,5b7da035250cab002cf7cb6a,Kaimugbox,47.378387,8.540045,Thai Restaurant
497,47.37773907066761,8.539030884303825,49,21,4cffb2716edfa093a0370815,Hallo,47.37695789114682,8.539900941192954,Snack Place
498,47.37773907066761,8.539030884303825,49,22,4f95a5ade4b0aa8248f9ce32,Zürich sein,47.37975068286404,8.540004875558157,Swiss Restaurant
499,47.37773907066761,8.539030884303825,49,23,50c5d34fe4b0fe852f2adf60,Flammkuchen,47.375636,8.538399,Swiss Restaurant
500,47.37773907066761,8.539030884303825,49,24,51dd3f6c498ee78bca0ffe03,La Soupiere,47.377126182793575,8.539223281416433,Swiss Restaurant
501,47.37773907066761,8.539030884303825,49,25,4e9719498b811f0c667cf6d0,sein Gourmet-Restaurant,47.376157,8.540233,Swiss Restaurant
502,47.37773907066761,8.539030884303825,49,26,4ef453f9f9ab42ef2f29faf1,Swiss Raclette Stand,47.375534,8.538517,Swiss Restaurant
503,47.37773907066761,8.539030884303825,49,27,5de93da25e0bf1000804e0d4,Tenz Momo,47.377745,8.539217,Food Stand
504,47.37773907066761,8.539030884303825,49,28,4bdb0f382a3a0f470b33adb6,La Piazzetta,47.376338,8.539278,Italian Restaurant
505,47.37773907066761,8.539030884303825,49,29,4f64c789e4b0272f2c5b2a90,Hobler - Die besten Würste seit 1895,47.37713579608446,8.54096099206119,Swiss Restaurant
506,47.37773907066761,8.539030884303825,49,30,4c59c55c5c57c9b667a01b4a,Ristorante Del Sole,47.376915203762685,8.53838063101268,Italian Restaurant
507,47.37773907066761,8.539030884303825,49,31,4dccc533d4c065592f5607d9,Spuntino,47.378257797189676,8.535990715026855,Turkish Restaurant
508,47.37773907066761,8.539030884303825,49,32,5283348011d290ac38bc8787,Yoshi's,47.37645505555258,8.538861647494839,Asian Restaurant
509,47.37773907066761,8.539030884303825,49,33,54b2c4f7498e34d1a6947f7c,Bao Burger,47.37769111730675,8.540711402893066,Asian Restaurant
510,47.37773907066761,8.539030884303825,49,34,4c23afb6a852c92835e8e16c,Snack Bar,47.37865732582414,8.539024450174127,Falafel Restaurant
511,47.37773907066761,8.539030884303825,49,35,4e3a656ca809ec55443b033a,Scent of Bamboo,47.378075009062904,8.53978413688246,Asian Restaurant
512,47.37773907066761,8.539030884303825,49,36,4bff8ffedaf9c9b6df5efaef,Dim Sum Take-Away,47.37870369551278,8.541661229507376,Dim Sum Restaurant
513,47.37773907066761,8.539030884303825,49,37,4b34f8c7f964a5206a2925e3,Imagine,47.37772450924804,8.54066773302004,Lounge
514,47.37773907066761,8.539030884303825,49,38,4ec284f46da15b4de0382045,Restaurant La Soupière,47.37706409764475,8.540152894794685,French Restaurant
515,47.37773907066761,8.539030884303825,49,39,54e8d0a0498e10052116bb89,Lobster&Oyster Restaurant,47.376346,8.538898,French Restaurant
516,47.37773907066761,8.539030884303825,49,40,4cac74b7a6e08cfa623dab94,Suan Long,47.37699615364997,8.539801492480729,Asian Restaurant
517,47.37773907066761,8.539030884303825,49,41,4ee0f1bef9ab28df82788c0e,Zum Höck,47.3769,8.539,Swiss Restaurant
518,47.37773907066761,8.539030884303825,49,42,4ccaa31e82bfa35de8cb53c9,Manzoni Bar,47.376502617868326,8.539194657534066,Café
519,47.37773907066761,8.539030884303825,49,43,5d7626394dcf7900083267fc,Yooijs HB Passage Sihlpost,47.378387,8.536227,Sushi Restaurant
520,47.37773907066761,8.539030884303825,49,44,56d5dec3498eb7c9ac9e1dbe,Rizzoli's,47.377049,8.539517,Swiss Restaurant
521,47.37773907066761,8.539030884303825,49,45,50ae8222e4b0774bf5d29145,Crêpes Royal,47.375581,8.538318,French Restaurant
522,47.37773907066761,8.539030884303825,49,46,50dc872be4b0ab7cced8c974,Walisserkanne,47.37661030634776,8.538717315730542,Swiss Restaurant
523,47.37773907066761,8.539030884303825,49,47,5602c472498eb46545401950,Züri-Wiesn,47.37785219071825,8.540328854338993,Beer Garden
524,47.37773907066761,8.539030884303825,49,48,4ba35ef0f964a520f73738e3,Globus Restaurant,47.375799392748554,8.537429894629891,Swiss Restaurant
