,lat_centre,long_centre,num_venues,venue_iter,venue_id,venue_name,lat_venue,long_venue,category
0,45.451939070667606,9.171383307244197,15,0,5cdeba711de765002c42d64e,Takochu,45.452057,9.17035,Japanese Restaurant
1,45.451939070667606,9.171383307244197,15,1,4b05887ff964a520e8c922e3,Osteria Di Via Prè,45.451997356122966,9.170353542211512,Italian Restaurant
2,45.451939070667606,9.171383307244197,15,2,5b48e4cd1953f3002cc00d6b,FUD Bottega Sicula,45.45133489763011,9.170924960759502,Burger Joint
3,45.451939070667606,9.171383307244197,15,3,5c22838fa87921002c151147,Naviglio 48,45.451202,9.17144,Italian Restaurant
4,45.451939070667606,9.171383307244197,15,4,571a80b9498e4066dd979ed0,Luca e Andrea Mare,45.451826,9.170476,Seafood Restaurant
5,45.451939070667606,9.171383307244197,15,5,4e9a310e7beb567e77b67068,Tizzy's NY Bar & Grill,45.45113744932392,9.171715595190744,Burger Joint
6,45.451939070667606,9.171383307244197,15,6,542e8902498ef8a7171191aa,antica osteria del gambero,45.451231,9.170919,Italian Restaurant
7,45.451939070667606,9.171383307244197,15,7,4bb09c23f964a520464f3ce3,Anema e Cozze,45.451082348933525,9.171433142218044,Pizza Place
8,45.451939070667606,9.171383307244197,15,8,4c07fbd5ffb8c9b655886761,Kaiwa japanese restaurant,45.451553,9.171736,Japanese Restaurant
9,45.451939070667606,9.171383307244197,15,9,500db66be4b0e57c7722b722,Ristorante Giapponese Yu,45.45179833692417,9.170469434009206,Japanese Restaurant
10,45.451939070667606,9.171383307244197,15,10,4e9571f549015a078d5d1a80,Yù Restaurant,45.45183725049368,9.170441225396523,Japanese Restaurant
11,45.451939070667606,9.171383307244197,15,11,59ef91099ef8ef0acfbac60d,Redondo Iglesias,45.451719,9.170637,Spanish Restaurant
12,45.451939070667606,9.171383307244197,15,12,4b05887ef964a52080c922e3,Indiana Post,45.45121958107021,9.17110140337188,American Restaurant
13,45.451939070667606,9.171383307244197,15,13,51c74ffa498e6e1b281104e8,All You Can Eat,45.45132,9.171765,Asian Restaurant
14,45.451939070667606,9.171383307244197,15,14,52286ea411d2ca96ba586dd9,Buona Forchetta,45.45176536716494,9.170581128194314,Italian Restaurant
15,45.4530695353338,9.169782626885127,6,0,4bc630c7f360ef3bb94cdb2d,Osteria del Binari,45.45375976604901,9.168965220451355,Italian Restaurant
16,45.4530695353338,9.169782626885127,6,1,4bfeca98daf9c9b6fc44f9ef,Foodart Sushi restaurant,45.453121111554324,9.171051347911128,Japanese Restaurant
17,45.4530695353338,9.169782626885127,6,2,4c2b2e8157a9c9b68d6ef567,La Scaletta,45.453552005507674,9.170242888268781,Italian Restaurant
18,45.4530695353338,9.169782626885127,6,3,4d28d039849f3704cff67741,Trattoria Le Due Specialità,45.45325577259064,9.170960783958435,Mediterranean Restaurant
19,45.4530695353338,9.169782626885127,6,4,595a24c3fc9e947814a9c5af,Fratelli Ravioli,45.452409,9.170089,Chinese Restaurant
20,45.4530695353338,9.169782626885127,6,5,557ac505498ec5a5a9027e3f,Burn I Macellai,45.45322621793409,9.170555533101652,Italian Restaurant
21,45.45080860600141,9.169782626885127,15,0,4b6ab959f964a520a1dd2be3,I Capatosta,45.45105,9.17086,Pizza Place
22,45.45080860600141,9.169782626885127,15,1,4bb3ae2114cfd13a376516ab,Bussarakham,45.45098,9.16868,Thai Restaurant
23,45.45080860600141,9.169782626885127,15,2,4b9fdfe3f964a520874637e3,Fabbrica,45.450793040781896,9.169209426501316,Pizza Place
24,45.45080860600141,9.169782626885127,15,3,53450f55498e77858cbabdbf,La Trattoria Km 1,45.450753100755584,9.17009632326604,Italian Restaurant
25,45.45080860600141,9.169782626885127,15,4,5c71ac0cd69ed0002cedfbe4,A.N.G.56,45.451022,9.170711,Chinese Restaurant
26,45.45080860600141,9.169782626885127,15,5,4cbed1dcacd48cfadd523f3f,Trattoria Alla Vecchia Maniera,45.45070853680332,9.16991981527495,Italian Restaurant
27,45.45080860600141,9.169782626885127,15,6,52224dea11d25b22fa98ac60,Nsc,45.450795,9.170107,Italian Restaurant
28,45.45080860600141,9.169782626885127,15,7,4d37626f9784a09344afd6e8,Asso Di Fiori Osteria Dei Formaggi,45.45094226825665,9.170825068423614,Italian Restaurant
29,45.45080860600141,9.169782626885127,15,8,5b32ab2847f876002cc6b99d,Huan,45.450456,9.169131,Asian Restaurant
30,45.45080860600141,9.169782626885127,15,9,52ac44e5498e65c522a42454,Boccino Bistrot,45.450727336786116,9.170087571195063,Italian Restaurant
31,45.45080860600141,9.169782626885127,15,10,4c8bd5e2509e370413ac2d55,La locanda greca,45.45007524435522,9.169593347007181,Greek Restaurant
32,45.45080860600141,9.169782626885127,15,11,5aad6ebf98fbfc3acac3c6b0,Il Cortiletto dell'Alzaia56,45.450907,9.170826,Italian Restaurant
33,45.45080860600141,9.169782626885127,15,12,56bfab75cd10c4e390d7e891,Streetfood - specialità liguri,45.45093,9.170265,Ligurian Restaurant
34,45.45080860600141,9.169782626885127,15,13,4bd827700b779c74fb7006a0,Trattoria Pugliese Acquasala,45.450229327408024,9.169197221507378,Trattoria/Osteria
35,45.45080860600141,9.169782626885127,15,14,4d9775d097d06ea822b51c0b,NSC Brasserie Romana,45.450758209496215,9.170344391428287,Italian Restaurant
36,45.4530695353338,9.172983987603267,16,0,4f6f5b9b754a51dc64a0a27b,,45.45305644634026,9.17184591293335,Noodle House
37,45.4530695353338,9.172983987603267,16,1,4cb04b29562d224b74031588,Perla D'oro,45.452956195433245,9.174035097545442,Asian Restaurant
38,45.4530695353338,9.172983987603267,16,2,4cf424878333224b8d54198e,Bistrot Café,45.453144727716044,9.172995911878958,Italian Restaurant
39,45.4530695353338,9.172983987603267,16,3,58af408f2980db0b0fd23b01,Bottega del Ramen,45.45314877748389,9.172392316086487,Ramen Restaurant
40,45.4530695353338,9.172983987603267,16,4,503e5950e4b0d0b185e943b2,brasiliano,45.452579498291016,9.172687530517578,Brazilian Restaurant
41,45.4530695353338,9.172983987603267,16,5,50b8a7dae4b071a4b9624b8c,Noodles,45.453201105138724,9.171979822608527,Noodle House
42,45.4530695353338,9.172983987603267,16,6,4c0eaca1336220a14598cc77,Joe Cipolla,45.453138818013365,9.172331468868812,Steakhouse
43,45.4530695353338,9.172983987603267,16,7,53f79358498e78515eb1cded,BQ - Trà Insemma,45.45224,9.173476,Indian Restaurant
44,45.4530695353338,9.172983987603267,16,8,508bd332e4b0ca23f5d5afac,Da Clara e Giuliano,45.453014348786645,9.173264410713204,Mediterranean Restaurant
45,45.4530695353338,9.172983987603267,16,9,52617efa498e1eaed7b65f80,The Meatball Family,45.45314008345432,9.17229192259574,American Restaurant
46,45.4530695353338,9.172983987603267,16,10,5a623da34420d81eb5ea86b1,Casa Del Ramen,45.453083,9.171726,Ramen Restaurant
47,45.4530695353338,9.172983987603267,16,11,4ba4d26df964a52025b838e3,Rost Eat,45.45299811557184,9.173392764139244,Abruzzo Restaurant
48,45.4530695353338,9.172983987603267,16,12,4f20611ce4b046c200214657,Nonna sushi,45.452991820431315,9.173887939250678,Japanese Restaurant
49,45.4530695353338,9.172983987603267,16,13,51606f11e4b0e09432350368,28 Posti,45.45256761970016,9.173334766771518,Mediterranean Restaurant
50,45.4530695353338,9.172983987603267,16,14,5ac8a4e24a1cc011c9a76812,Tenoha Milano,45.45319660720787,9.17285376599917,Event Space
51,45.4530695353338,9.172983987603267,16,15,5ac8ab3f356b4939a0595cd7,& | Taste,45.4532,9.1728945,Japanese Restaurant
52,45.45080860600141,9.172983987603267,6,0,4f10c11fe4b019e9906e3661,Temakinho Navigli,45.45153137913963,9.173735442330656,Japanese Restaurant
53,45.45080860600141,9.172983987603267,6,1,4b05887ff964a520fbc922e3,Al Pont de Ferr,45.45101,9.172034,Italian Restaurant
54,45.45080860600141,9.172983987603267,6,2,5071ca76e4b0d7b67fba7859,Jump,45.45079305723246,9.173763427515286,Pizza Place
55,45.45080860600141,9.172983987603267,6,3,4bd96ea72e6f0f473f820a08,Bella Riva,45.45141413356536,9.172847416750468,Italian Restaurant
56,45.45080860600141,9.172983987603267,6,4,4b9fefa0f964a520dd4b37e3,Alzaia 26,45.451546424351115,9.17352856128446,Italian Restaurant
57,45.45080860600141,9.172983987603267,6,5,5647c915498e97b3feeb8d0d,Ali Baba Food & Bar,45.45012413541904,9.173240499088086,Turkish Restaurant
58,45.451939070667606,9.179525783664893,4,0,4cbd8687a33bb1f7bd7c9ffd,JapOne,45.452719,9.17923,Sushi Restaurant
59,45.451939070667606,9.179525783664893,4,1,5b12eee86f0aa2002c12c02c,Pan Puglia,45.45262870961906,9.179703938392926,Food Truck
60,45.451939070667606,9.179525783664893,4,2,5dd98c0929a4fe0008ecab43,Attila,45.45191,9.179334,Hungarian Restaurant
61,45.451939070667606,9.179525783664893,4,3,59bff18fd8096e36d5f029e9,Long Bistrot - Mille Sapore D’oriente,45.451828,9.179357,Sushi Restaurant
62,45.4530695353338,9.177925103305823,7,0,56e32e35498e13373c0f24a9,A’Vucciria,45.45221279294146,9.177655469109572,Sicilian Restaurant
63,45.4530695353338,9.177925103305823,7,1,5bad296d4f0e58002c635afa,Arak,45.453079,9.178863,Lebanese Restaurant
64,45.4530695353338,9.177925103305823,7,2,5a906759c824ae5f72289d1f,Dirty Gym,45.452965,9.178954,Pizza Place
65,45.4530695353338,9.177925103305823,7,3,50d611ffe4b0dbf304b72904,"Con wally, stefano la vale da trita",45.453111,9.177865,American Restaurant
66,45.4530695353338,9.177925103305823,7,4,4e75c19a62e12635168d4aa2,Barker & Restaurant,45.45308,9.1782,American Restaurant
67,45.4530695353338,9.177925103305823,7,5,4eab0de65c5cf8848a860675,Jin Zuan,45.453180230255505,9.179100285570906,Japanese Restaurant
68,45.4530695353338,9.177925103305823,7,6,4c755cccc219224b284da228,Jap One,45.453081,9.179054,Japanese Restaurant
69,45.45080860600141,9.177925103305823,5,0,59de5c4db2958f1adb913d06,Ai Balestrari,45.45025505364478,9.177567237623522,Roman Restaurant
70,45.45080860600141,9.177925103305823,5,1,56a2a556498e01d062780fd3,Oss bus,45.45105467636788,9.177639201609544,Lombard Restaurant
71,45.45080860600141,9.177925103305823,5,2,5b1d76cda92d98002cc6a8ff,Drinkasi,45.450775,9.177874,Italian Restaurant
72,45.45080860600141,9.177925103305823,5,3,4d55a9e2c6edf04dc044c7a2,"Sapori di romagna, piadineria e nn solo",45.45050382614136,9.177649,Piadineria
73,45.45080860600141,9.177925103305823,5,4,4b6b2c6af964a52083f72be3,Pancho Villa,45.450911436104086,9.177841536257612,Mexican Restaurant
74,45.4530695353338,9.181126464023963,10,0,5cdef1c38194fc002cbb5bdb,Quore Italiano,45.453174,9.180112,Italian Restaurant
75,45.4530695353338,9.181126464023963,10,1,4c2cdd9fae6820a179051a43,Cacio e Pepe,45.45278,9.1815,Italian Restaurant
76,45.4530695353338,9.181126464023963,10,2,5d905aa03cbfe90008d3379f,Chihuahua Tacos,45.45228,9.181448,Taco Place
77,45.4530695353338,9.181126464023963,10,3,4ba936bcf964a520d8143ae3,Koboo Sushi,45.452307822491015,9.181739202695956,Japanese Restaurant
78,45.4530695353338,9.181126464023963,10,4,4ecb88cb93adb4bd1afde5ec,Pizzeria Michele E Pateizia,45.453007985518475,9.180173241228738,Italian Restaurant
79,45.4530695353338,9.181126464023963,10,5,4c529471bfc6ef3bb3ee4c9c,Ristorante Pizzeria Sant'Eustorgio,45.45336,9.18092,Italian Restaurant
80,45.4530695353338,9.181126464023963,10,6,507f1df5498ef79656b507d0,Kito 2,45.452971387356726,9.181712222268676,Japanese Restaurant
81,45.4530695353338,9.181126464023963,10,7,5c8d545a6e4650002cee25cd,Salsamenteria Di Parma,45.452637,9.181756,Italian Restaurant
82,45.4530695353338,9.181126464023963,10,8,4eda2a84b8f7fcd03ff4bfcc,Ristorante Giapponese,45.45323524592273,9.180286491789493,Japanese Restaurant
83,45.4530695353338,9.181126464023963,10,9,4d516fc1c305b60cf219901e,Vietnamonamour,45.452395,9.181511,Vietnamese Restaurant
84,45.45080860600141,9.181126464023963,2,0,4bf6f7c0d4cdb713327a84fe,Ristorante Mido,45.45127403138969,9.182164228695214,Middle Eastern Restaurant
85,45.45080860600141,9.181126464023963,2,1,5d98921ff665490008c6c761,Ichi Station,45.451382,9.181222,Sushi Restaurant
86,45.46646092933239,9.194070670365678,10,0,54d37d5b498e716ddc424726,Piade in Piazza,45.466992344286616,9.195052674998367,Piadineria
87,45.46646092933239,9.194070670365678,10,1,51d467f6498ee56d0f255ced,Piade in Piazza,45.467003621024034,9.193585354352885,Piadineria
88,45.46646092933239,9.194070670365678,10,2,4b9d2e0bf964a520ed9636e3,Antica Focacceria San Francesco,45.466262475366015,9.193147978415757,Mediterranean Restaurant
89,45.46646092933239,9.194070670365678,10,3,4bd7d9af09ecb7137bbc477c,Bar Meda,45.46700055277522,9.19356655388999,Café
90,45.46646092933239,9.194070670365678,10,4,5c6087a15455b2002cc404e2,La Terrazza Latitude 45,45.466841,9.194234,Italian Restaurant
91,45.46646092933239,9.194070670365678,10,5,5882035b6ad5a14339207915,Wine e Fine FOOD,45.465562,9.194078,Italian Restaurant
92,45.46646092933239,9.194070670365678,10,6,4c7e03168da18cfa491aa1ce,Sala Dei Longobardi,45.46614945384592,9.193202098867907,Italian Restaurant
93,45.46646092933239,9.194070670365678,10,7,5222035a11d2ac72ef844824,Focacciria,45.466838391493,9.193262024792455,Italian Restaurant
94,45.46646092933239,9.194070670365678,10,8,51e9b18b498e4ffe5772de2c,Терраса Отеля Босколо,45.466481,9.194398,Italian Restaurant
95,45.46646092933239,9.194070670365678,10,9,53c04cbe498e992507cc995f,Ristorante Oltremare,45.466797,9.194211,Mediterranean Restaurant
96,45.46759139399859,9.192469577698597,1,0,4b05887ef964a5207dc922e3,Antico Ristorante Boeucc,45.467657872131596,9.19233355984598,Italian Restaurant
97,45.465330464666195,9.192469577698597,17,0,4bf807ae92d19521ae265a1f,Maio Restaurant,45.464874896086734,9.191740729113803,Italian Restaurant
98,45.465330464666195,9.192469577698597,17,1,4c0fee1d6b7e2d7f29d12635,Obicà,45.464897469973565,9.191890932818637,Italian Restaurant
99,45.465330464666195,9.192469577698597,17,2,4b05887ef964a52068c922e3,Di Gennaro,45.465629852719374,9.19151638599933,Pizza Place
100,45.465330464666195,9.192469577698597,17,3,55c0816d498ef818df601b85,Valentino Legend,45.46548634567636,9.192619071296491,Italian Restaurant
101,45.465330464666195,9.192469577698597,17,4,5584220a498e8fbbf3f12b81,Pina,45.464560260147856,9.19254366980857,Lounge
102,45.465330464666195,9.192469577698597,17,5,4dac6f704df01c19b1b43f3c,Royal Italian Restaurant,45.465058172532366,9.193167798678415,Italian Restaurant
103,45.465330464666195,9.192469577698597,17,6,573203a2498ebaf669f2fc48,Pinda,45.464658,9.192215,Italian Restaurant
104,45.465330464666195,9.192469577698597,17,7,4bb0d9f7f964a52033633ce3,Al Cantinone,45.46602185061239,9.191742468216411,Italian Restaurant
105,45.465330464666195,9.192469577698597,17,8,4b9b9343f964a520a81036e3,MySushi Conveyor,45.46485720004078,9.191785645372121,Sushi Restaurant
106,45.465330464666195,9.192469577698597,17,9,4fbfd4f2e4b0c9fe052bd3c3,L'opera,45.46614856438155,9.192223334207872,Italian Restaurant
107,45.465330464666195,9.192469577698597,17,10,5a19587a356b4976e6d9b19b,Jinghua,45.466156,9.192129,Chinese Restaurant
108,45.465330464666195,9.192469577698597,17,11,4c3f6748ce54e21e1801081a,Ristorante Ciardi,45.4656504698047,9.191326733127049,Italian Restaurant
109,45.465330464666195,9.192469577698597,17,12,5250080a11d257e5cb4554b3,Cosmai Caffe,45.4646000745101,9.19247952641762,Italian Restaurant
110,45.465330464666195,9.192469577698597,17,13,500c63cee4b03c6eb3f8dcf5,rimini,45.46484375,9.191752433776855,Italian Restaurant
111,45.465330464666195,9.192469577698597,17,14,53205e3c498ea567d800708c,Pasta B,45.46614950919024,9.192231986167622,Asian Restaurant
112,45.465330464666195,9.192469577698597,17,15,4b8bbabaf964a520ada832e3,L'Antico Ambrosiano,45.46492481490891,9.192886182262706,Ice Cream Shop
113,45.465330464666195,9.192469577698597,17,16,4e1eaaefd22d7c148ce3c367,BaraDonnina,45.46487613456334,9.193436104819623,Italian Restaurant
114,45.46759139399859,9.195671763032758,6,0,5b2e209466f3cd002c07b643,wagamama,45.46675105565475,9.19539483331511,Asian Restaurant
115,45.46759139399859,9.195671763032758,6,1,4b05887ef964a5208bc922e3,Paper Moon,45.467403080127916,9.196873143040188,Pizza Place
116,45.46759139399859,9.195671763032758,6,2,4b058878f964a520a8c722e3,Sant'Ambroeus,45.466947768331686,9.196064817335985,Cocktail Bar
117,45.46759139399859,9.195671763032758,6,3,54d37d5b498e716ddc424726,Piade in Piazza,45.466992344286616,9.195052674998367,Piadineria
118,45.46759139399859,9.195671763032758,6,4,4bf2fb76706e20a154b5a798,Ristorante Bagutta,45.46799372899656,9.196719465620108,Italian Restaurant
119,45.46759139399859,9.195671763032758,6,5,5b159556e7a237002c78e3d8,Quadrilatero Della Moda,45.468226,9.195051,Italian Restaurant
120,45.465330464666195,9.195671763032758,7,0,4b62c7f1f964a52069522ae3,Tre Gazzelle,45.4653927330969,9.195260593782272,Ice Cream Shop
121,45.465330464666195,9.195671763032758,7,1,4d825d7259d16dcb739a0c1c,Kikko,45.46528736,9.19536766,Asian Restaurant
122,45.465330464666195,9.195671763032758,7,2,53a71136498ea11534445eb3,Izakaya Sampei,45.464789764180594,9.196055364676239,Japanese Restaurant
123,45.465330464666195,9.195671763032758,7,3,4be33722660ec9282775cb3b,a Santa Lucia,45.465802387301885,9.195759069250041,Italian Restaurant
124,45.465330464666195,9.195671763032758,7,4,4b5de651f964a5206e7229e3,Fratelli La Bufala,45.465034309769386,9.196144380414955,Pizza Place
125,45.465330464666195,9.195671763032758,7,5,520a351911d2d299100e498f,San Carola,45.46596162855494,9.196224710305138,Italian Restaurant
126,45.465330464666195,9.195671763032758,7,6,5bfdbf58c97f28002c847ee9,Trattoria da Nennella,45.464741,9.195868,Trattoria/Osteria
127,45.48193907066761,9.171385011675543,13,0,5cd80229c876c8002c0feddb,Ramen A Mano,45.48235,9.172002,Noodle House
128,45.48193907066761,9.171385011675543,13,1,5a32cf8d0123582f5a66e669,Ramenamano,45.482427,9.171951,Ramen Restaurant
129,45.48193907066761,9.171385011675543,13,2,510d64a9e4b0f627733748b6,Wang Jiao,45.48189881640928,9.172412805273526,Chinese Restaurant
130,45.48193907066761,9.171385011675543,13,3,4e14c1371f6e33e7180db24a,Fvsion,45.481896,9.172337,Chinese Restaurant
131,45.48193907066761,9.171385011675543,13,4,523c964a11d26f01b67037e7,Ristorante Chong Quin Ren Jia,45.481804,9.172493,Chinese Restaurant
132,45.48193907066761,9.171385011675543,13,5,5a86cd2d2632ec37032912f1,Fusho,45.481891,9.171617,Japanese Restaurant
133,45.48193907066761,9.171385011675543,13,6,52fbcf1f498eb88b0d2d711a,wangjiao,45.48188781738281,9.172403335571289,Chinese Restaurant
134,45.48193907066761,9.171385011675543,13,7,5335eeb2498e5e54d7a2b8a0,lan kwai fong,45.48185872016292,9.172542014215958,Chinese Restaurant
135,45.48193907066761,9.171385011675543,13,8,50918d8be4b070cd5c5a9d54,Spicy Food China,45.482004,9.172272,Chinese Restaurant
136,45.48193907066761,9.171385011675543,13,9,522c681e498e7f934e451c11,凯悦,45.481948,9.172265,Chinese Restaurant
137,45.48193907066761,9.171385011675543,13,10,4d937899922c6ea863cb6679,999,45.481914755081405,9.172416925494572,Chinese Restaurant
138,45.48193907066761,9.171385011675543,13,11,5c10117d2aff31002c58726d,老成都串串香 Old Chengdu,45.481822,9.172295,Chinese Restaurant
139,45.48193907066761,9.171385011675543,13,12,5721edb238fa52a01a02061f,Uva Garden,45.48128870301174,9.172243158598857,Chinese Restaurant
140,45.483069535333804,9.169783479202243,5,0,4d889f8176e1236ab8f2f342,Trattoria La Fortezza,45.48274835658258,9.168625920548836,Mediterranean Restaurant
141,45.483069535333804,9.169783479202243,5,1,4c289b06ce3fc928125c6d88,NaturGreen,45.48304782681173,9.169677288251576,Italian Restaurant
142,45.483069535333804,9.169783479202243,5,2,4c1f4be48b3aa59320359d5f,La Ricetta,45.48256522443701,9.169008365383148,Italian Restaurant
143,45.483069535333804,9.169783479202243,5,3,576924e8cd10ba621d0c3872,Osteria l'Onda Del Mare 1981,45.483345,9.170117,Italian Restaurant
144,45.483069535333804,9.169783479202243,5,4,5009aebce4b051062070b749,fazenda lucchetti,45.48245657739367,9.169611646176932,African Restaurant
145,45.48080860600141,9.169783479202243,7,0,4c266d47905a0f4777486360,Ristorante Pizzeria Summer,45.48073104512793,9.169614315032959,Pizza Place
146,45.48080860600141,9.169783479202243,7,1,519fae7c498e02c8ecf8cdf8,hua sheng,45.48034334760349,9.169014643301427,Asian Restaurant
147,45.48080860600141,9.169783479202243,7,2,53d7a699498ee1cf58ae18db,piadineria via canonica,45.480866,9.170254,Piadineria
148,45.48080860600141,9.169783479202243,7,3,4fd09339e4b0271745f3cb03,Hållbar,45.481061383010655,9.170781641920506,Italian Restaurant
149,45.48080860600141,9.169783479202243,7,4,57cb183e498e735d55e14a74,Cirispaccio,45.48075,9.170646,Italian Restaurant
150,45.48080860600141,9.169783479202243,7,5,52223e7211d2c7303982f90e,Очень Крутой Китайсякий Ресторан,45.480785,9.169412,Chinese Restaurant
151,45.48080860600141,9.169783479202243,7,6,53de8a92498e411c755d2b20,la piadineria,45.48093664498839,9.17014700595827,Piadineria
152,45.483069535333804,9.172986544148843,4,0,531b8a2c498eb4fe8aeeaa40,Putpury,45.483048764861095,9.172561377693116,Italian Restaurant
153,45.483069535333804,9.172986544148843,4,1,4d30a0132748b60c9aa1dda0,Ristorante Pupurry,45.48302841496608,9.172896027725706,Italian Restaurant
154,45.483069535333804,9.172986544148843,4,2,4bcedfcdfb84c9b67f64243e,Il Santo Bevitore,45.48304109824233,9.173075631681758,Italian Restaurant
155,45.483069535333804,9.172986544148843,4,3,4c026e73096ed13aa0b77926,Ristorante Quadrifoglio,45.48364502135868,9.172590228028202,Italian Restaurant
156,45.48080860600141,9.172986544148843,11,0,5da1b305d515ae0008b58c4e,Wokin,45.481052,9.171882,Asian Restaurant
157,45.48080860600141,9.172986544148843,11,1,5925c9df6a59502cc626bd43,Sarpi 50,45.481053,9.17265,Italian Restaurant
158,45.48080860600141,9.172986544148843,11,2,4d4021fcbd53f04d05554115,Ristorante Cinese Speciale Royal,45.48010058432472,9.172194976769191,Chinese Restaurant
159,45.48080860600141,9.172986544148843,11,3,50201b46e4b09c1a706d516b,Ristorante Chang Ren,45.481305910097475,9.172701626514772,Chinese Restaurant
160,45.48080860600141,9.172986544148843,11,4,59209d2f4a7aae3618202521,Mr Time Milano,45.481364,9.17288,Dessert Shop
161,45.48080860600141,9.172986544148843,11,5,5112ad88e4b0a57c9f69016d,Beifang,45.481543,9.173531,Chinese Restaurant
162,45.48080860600141,9.172986544148843,11,6,524c7d5a11d2ed1e605bb674,Ristorante Cinese Li Cheng,45.481600929720486,9.1726306774994,Asian Restaurant
163,45.48080860600141,9.172986544148843,11,7,4d2b5c388292236a677733bb,Mare d'Oro,45.48060266731646,9.173886076321443,Chinese Restaurant
164,45.48080860600141,9.172986544148843,11,8,509c1ec53950e494937409bb,La Nuova Asia,45.48164878432483,9.172747135162354,Chinese Restaurant
165,45.48080860600141,9.172986544148843,11,9,5721edb238fa52a01a02061f,Uva Garden,45.48128870301174,9.172243158598857,Chinese Restaurant
166,45.48080860600141,9.172986544148843,11,10,5af8792e23870600247cd1f2,Sotto Sotto,45.481064,9.172099,Winery
167,45.48193907066761,9.185930466220997,6,0,4c7ba58b566db60cbd394b0e,Farinami,45.481224486225884,9.18538291784381,Italian Restaurant
168,45.48193907066761,9.185930466220997,6,1,52de67b7498e7675e6968b16,This Is Not A Sushibar,45.48137855725745,9.184985300139738,Sushi Restaurant
169,45.48193907066761,9.185930466220997,6,2,597a28144ce0663bda9d0652,Il gusto della nebbia,45.48252701664856,9.184973984956741,Chinese Restaurant
170,45.48193907066761,9.185930466220997,6,3,4b58b8e7f964a520736728e3,Pizzeria La Fabbrica,45.48116,9.18621,Pizza Place
171,45.48193907066761,9.185930466220997,6,4,5cd6ab442b274a002c19a2a4,Bottega Mascadelli,45.481354,9.185513,Pizza Place
172,45.48193907066761,9.185930466220997,6,5,4b6b3b2ef964a520fafa2be3,Osteria del Gambero Rosso,45.4812401302269,9.185749918051583,Italian Restaurant
173,45.483069535333804,9.184328933747697,5,0,597a28144ce0663bda9d0652,Il gusto della nebbia,45.48252701664856,9.184973984956741,Chinese Restaurant
174,45.483069535333804,9.184328933747697,5,1,4cc6c25fd43ba1430cb175f8,Su e Giù,45.48282050616313,9.184664867319619,Italian Restaurant
175,45.483069535333804,9.184328933747697,5,2,5cfff85b9cadd9002c67b1a9,Shiki,45.482787,9.184921,Japanese Restaurant
176,45.483069535333804,9.184328933747697,5,3,50ad36d0e4b07823f284f9bf,Kombu 9,45.482871542006464,9.183412912740533,Sushi Restaurant
177,45.483069535333804,9.184328933747697,5,4,5ddc7756e5aa57000817301e,SHIKI - Japanese Taste,45.48276302749809,9.184888154268265,Japanese Restaurant
178,45.48080860600141,9.184328933747697,8,0,57289780498eaade04ba8352,Gam,45.48148058062717,9.18466690352025,Korean Restaurant
179,45.48080860600141,9.184328933747697,8,1,5d7166defb02b20008665ac0,"Restaurant SmokeONE Lounge Bar + Hookah, Кальян, Shisha, Narghile",45.48097928753316,9.185444712638855,Italian Restaurant
180,45.48080860600141,9.184328933747697,8,2,4c7ba58b566db60cbd394b0e,Farinami,45.481224486225884,9.18538291784381,Italian Restaurant
181,45.48080860600141,9.184328933747697,8,3,52de67b7498e7675e6968b16,This Is Not A Sushibar,45.48137855725745,9.184985300139738,Sushi Restaurant
182,45.48080860600141,9.184328933747697,8,4,51a7938d498ec4909f81f20f,QUALITY BEEF,45.48086698436336,9.184788034299947,Italian Restaurant
183,45.48080860600141,9.184328933747697,8,5,4bae40e4f964a520f1983be3,ECOTIME L'eccellenza Del Gusto,45.481029,9.184444,Italian Restaurant
184,45.48080860600141,9.184328933747697,8,6,57baad5b498ed0e1a5bff45f,Macha Café,45.48106010896207,9.183219021320758,Japanese Restaurant
185,45.48080860600141,9.184328933747697,8,7,52f0038e498eab7fdbad9d87,Bistrot Quebrada,45.48077566503634,9.18485298479395,Brazilian Restaurant
186,45.483069535333804,9.187531998694297,3,0,4e97ff7502d5a39436f36b44,Restaurant & Bar,45.48317549027422,9.187757059565733,Italian Restaurant
187,45.483069535333804,9.187531998694297,3,1,5c16781260d11b002cd21692,Bistrot Glorious,45.482635,9.187793,Italian Restaurant
188,45.483069535333804,9.187531998694297,3,2,4ca60fc49f4776b015269813,Classico Bio,45.482648963545685,9.186761094733,Italian Restaurant
189,45.48080860600141,9.187531998694297,16,0,53203c1611d2fa014b90028a,Eataly Smeraldo,45.480598323311426,9.187826717221975,Gourmet Shop
190,45.48080860600141,9.187531998694297,16,1,5492d4f7498e5586edc5e360,Vasinikò,45.48039827404075,9.186726316288597,Pizza Place
191,45.48080860600141,9.187531998694297,16,2,5e4f021ce848eb0008e1fe55,kalamaro piadinaro xxv aprile,45.480975,9.187468,Piadineria
192,45.48080860600141,9.187531998694297,16,3,54b3c270498e92acf085a138,La Piadina dei Fratelli Maioli,45.480587,9.187591,Piadineria
193,45.48080860600141,9.187531998694297,16,4,4eb3da1f9adf115272f55f99,Sakura,45.48097176505209,9.187746047973633,Chinese Restaurant
194,45.48080860600141,9.187531998694297,16,5,5b571bdf90d1ed002ce341a9,Alla Pala,45.480356,9.187974,Lombard Restaurant
195,45.48080860600141,9.187531998694297,16,6,4cc890ddd147a093a10ae2ae,Ristorante al Garibaldi,45.48067134802029,9.18864894909172,Italian Restaurant
196,45.48080860600141,9.187531998694297,16,7,5aeef0007564f7002cc60380,Pokéria by Nima,45.480987,9.186395,Seafood Restaurant
197,45.48080860600141,9.187531998694297,16,8,50e06a2ee4b0bb7ae2383ea1,California Bakery,45.48143889626076,9.187166267138553,American Restaurant
198,45.48080860600141,9.187531998694297,16,9,5a229384fe374071a2d215a4,Fattoria Delletorri,45.480617,9.187714,Italian Restaurant
199,45.48080860600141,9.187531998694297,16,10,4eb91e2002d5f33e9415b3ff,Imeraldino,45.48015685668565,9.186655317041346,Italian Restaurant
200,45.48080860600141,9.187531998694297,16,11,4baead88f964a520e6cd3be3,Ganas,45.481235184199285,9.18718027999497,Mexican Restaurant
201,45.48080860600141,9.187531998694297,16,12,4eb2a9458231c65b1a62f753,Sakura Sushi House,45.48083991647219,9.187840974836703,Sushi Restaurant
202,45.48080860600141,9.187531998694297,16,13,5dff75b8d4d37c00087769ff,Viva,45.480568,9.187846,Italian Restaurant
203,45.48080860600141,9.187531998694297,16,14,5e078b68e2d4e60008d38bb9,Burgerz,45.481249,9.187286,Burger Joint
204,45.48080860600141,9.187531998694297,16,15,4be2a89e1dd22d7fa27594bd,Alla Cucina delle Langhe,45.4816265,9.187405199999999,Italian Restaurant
205,45.48193907066761,9.200475920766452,11,0,4c85c19be602b1f7c9b1ba7a,Cafè Antares,45.48258745280145,9.20096964778202,Italian Restaurant
206,45.48193907066761,9.200475920766452,11,1,4be544982457a5938348ab15,Tomoyoshi Endo,45.48218287397631,9.199713665562152,Japanese Restaurant
207,45.48193907066761,9.200475920766452,11,2,4fe4dc28e4b079b380a34e7a,友よし,45.482557461099155,9.199637297925182,Japanese Restaurant
208,45.48193907066761,9.200475920766452,11,3,5b4ce1f8b1ec13002cfc65ac,Nami Sushi,45.481994,9.199835,Sushi Restaurant
209,45.48193907066761,9.200475920766452,11,4,5368bd0a498ec41fab7f365d,Marranzano,45.48219403490166,9.20082956409644,Italian Restaurant
210,45.48193907066761,9.200475920766452,11,5,5c4d9c6c4940bc002c8c785c,Fancy Toast,45.482168,9.200203,Sandwich Place
211,45.48193907066761,9.200475920766452,11,6,5b50dd7e6adbf5002c416bc2,Nima Uramakeria,45.482035,9.200696,Seafood Restaurant
212,45.48193907066761,9.200475920766452,11,7,5005917129a6ea1ce4de221f,tomoyoshi,45.482656775724045,9.200706481933594,Japanese Restaurant
213,45.48193907066761,9.200475920766452,11,8,4c580a128fe2ef3bb7a0303a,Kanji Fusion Restaurant,45.48278,9.20008,Japanese Restaurant
214,45.48193907066761,9.200475920766452,11,9,4bfd0ed1f7c82d7f4a908d04,Trattoria Toscana,45.482661883625006,9.2011028645467,Italian Restaurant
215,45.48193907066761,9.200475920766452,11,10,4b05887df964a52059c922e3,Giannino,45.48111746497634,9.200001165676115,Italian Restaurant
216,45.483069535333804,9.198874388293152,25,0,5a7b573d8c812a047a1ff5a7,MU Dimsum,45.482991,9.19953,Dim Sum Restaurant
217,45.483069535333804,9.198874388293152,25,1,4bc61aeedb8fa593c3c59b37,Ta Hua,45.48323570748286,9.198131829545856,Chinese Restaurant
218,45.483069535333804,9.198874388293152,25,2,4c6a71888d22c92807b8b945,Ristorante Limone,45.482486506722026,9.199100009054511,Italian Restaurant
219,45.483069535333804,9.198874388293152,25,3,5eef9f2d3590af0008e4c6ed,Ta'bonu,45.4832,9.199446,Sardinian Restaurant
220,45.483069535333804,9.198874388293152,25,4,4fe4dc28e4b079b380a34e7a,友よし,45.482557461099155,9.199637297925182,Japanese Restaurant
221,45.483069535333804,9.198874388293152,25,5,54086490498ec32621011674,Piada Gallery Cafè,45.483121834043914,9.19803081680149,Piadineria
222,45.483069535333804,9.198874388293152,25,6,4bd6c7284e32d13a560dc380,Osteria Qui da Noi,45.48266604058213,9.197946589830671,Italian Restaurant
223,45.483069535333804,9.198874388293152,25,7,4bcd8d7068f976b0ee5e6483,Il Tavolino,45.483889138353994,9.19848661716109,Italian Restaurant
224,45.483069535333804,9.198874388293152,25,8,4bfd0245b68d0f471116e857,Wan-Hao,45.482826,9.198094,Japanese Restaurant
225,45.483069535333804,9.198874388293152,25,9,54202fe6498ed1e00790aef3,Osteria da Angelino,45.482549925215196,9.19912091745631,Italian Restaurant
226,45.483069535333804,9.198874388293152,25,10,5148d69fe4b0ddee54d6b46f,Ristorante Pizzeria,45.483717046187074,9.198437385311745,Italian Restaurant
227,45.483069535333804,9.198874388293152,25,11,4bf1239af45ec928bb78943c,Ristorante Taiwan,45.483248685524494,9.197727385241704,Chinese Restaurant
228,45.483069535333804,9.198874388293152,25,12,4cb6e10855af224ba1cc9c7e,"bar trattoria ""ex latteria""",45.482599,9.199026,Italian Restaurant
229,45.483069535333804,9.198874388293152,25,13,5d8b5290f2919f00089775c4,Brasileirinho,45.48299,9.198862,Brazilian Restaurant
230,45.483069535333804,9.198874388293152,25,14,4cc482c7306e224b24b39d6c,L'isolotto,45.48252564839903,9.197923564276067,Italian Restaurant
231,45.483069535333804,9.198874388293152,25,15,4ce668cde888f04df4cb356b,Trattoria al generale,45.48359087636051,9.19830606401853,Italian Restaurant
232,45.483069535333804,9.198874388293152,25,16,4d23115bb69c6dcbf9c38795,Insalate Italiane,45.48277070991901,9.199783757032453,Italian Restaurant
233,45.483069535333804,9.198874388293152,25,17,4c3f6312af052d7f82417a79,Dalla Zia,45.48278886417393,9.198096849529087,Italian Restaurant
234,45.483069535333804,9.198874388293152,25,18,4c580a128fe2ef3bb7a0303a,Kanji Fusion Restaurant,45.48278,9.20008,Japanese Restaurant
235,45.483069535333804,9.198874388293152,25,19,5cc6f451270ee7002c0a97b0,Kuan Zhai Xiang Zi,45.482904,9.199725,Chinese Restaurant
236,45.483069535333804,9.198874388293152,25,20,4d83b9c6d5fab60cf39bd29b,Osteria della Carne,45.482871,9.19893,Italian Restaurant
237,45.483069535333804,9.198874388293152,25,21,4bd1f04c046076b093d97271,Leon D'Oro - asian crossover,45.48312554198461,9.198494229445851,Asian Restaurant
238,45.483069535333804,9.198874388293152,25,22,50af60d1e4b04c937ad869ef,Sushi Bar Shafush,45.483814,9.198756,Japanese Restaurant
239,45.483069535333804,9.198874388293152,25,23,4d2efa76a6df6dcb5d6dde7a,Trattoria Toscana da Giovanni,45.48261,9.19789,Tuscan Restaurant
240,45.483069535333804,9.198874388293152,25,24,5a037954a9fe12211934b20c,Ki Ki Ristorante Sushi,45.482773,9.198019,Japanese Restaurant
241,45.48080860600141,9.198874388293152,4,0,4cba214590c9a143a8828cd6,La Porta Rossa,45.480956185318476,9.199470878525169,Puglia Restaurant
242,45.48080860600141,9.198874388293152,4,1,507c9441e4b06a750c7662b4,XIER Ristorante,45.48079,9.19845,Chinese Restaurant
243,45.48080860600141,9.198874388293152,4,2,4cd5c40976ab721eaa406f6a,Ristorante Parioli Milano,45.4804,9.19981,Italian Restaurant
244,45.48080860600141,9.198874388293152,4,3,4b05887df964a52059c922e3,Giannino,45.48111746497634,9.200001165676115,Italian Restaurant
245,45.483069535333804,9.202077453239752,6,0,507c93f0e4b0e11881669854,Xier Ristorante,45.48226,9.2017,Chinese Restaurant
246,45.483069535333804,9.202077453239752,6,1,4ec5097102d54e70471da25d,Andiamo a mangiare?,45.48286307974687,9.202924624824504,Italian Restaurant
247,45.483069535333804,9.202077453239752,6,2,50fdbbfae4b0aae3b98e831a,Самый прекрасный ресторан),45.48246765136719,9.202646255493164,Italian Restaurant
248,45.483069535333804,9.202077453239752,6,3,4ec3a97eb8f7c5f293f8cf66,Farinami (piadineria),45.482632,9.201683,Piadineria
249,45.483069535333804,9.202077453239752,6,4,4d3828e015993704a142b691,"Ristorante ""La Buca""",45.483255,9.203279,Italian Restaurant
250,45.483069535333804,9.202077453239752,6,5,4bfd0ed1f7c82d7f4a908d04,Trattoria Toscana,45.482661883625006,9.2011028645467,Italian Restaurant
251,45.48080860600141,9.202077453239752,5,0,57441a39498e90a6c6cb6dcd,Napule è Milano,45.481621,9.202415,Pizza Place
252,45.48080860600141,9.202077453239752,5,1,5e3804efe128be000856300c,Il Mannarino,45.4804,9.201732,Puglia Restaurant
253,45.48080860600141,9.202077453239752,5,2,4c3371333896e21e7209ea90,Osteria del Treno,45.48135210644718,9.201508007936724,Italian Restaurant
254,45.48080860600141,9.202077453239752,5,3,5821c255299de73c2a472290,YE'S Food,45.480622,9.201913,Japanese Restaurant
255,45.48080860600141,9.202077453239752,5,4,4e01c8e388776240d3f5deaa,Buongiorno!,45.480196,9.202653,Tapas Restaurant
256,45.4842,9.197272727272727,5,0,51dda01b498ef2136f4cfaf9,Osteria Fara,45.48430333581498,9.198370475531714,Italian Restaurant
257,45.4842,9.197272727272727,5,1,4bfbbdd8565f76b0f9df05db,Nectare Restaurant,45.484688965833286,9.198143698933578,Italian Restaurant
258,45.4842,9.197272727272727,5,2,577a7dc6498e0c7292c5ee9d,Sushi a Domicilio Milano - Sushimi,45.48391297856797,9.198077917098999,Sushi Restaurant
259,45.4842,9.197272727272727,5,3,4e0a409dae6051768696ab5f,Imone ristorante coreano,45.48359,9.197704,Korean Restaurant
260,45.4842,9.197272727272727,5,4,4bca03ee0687ef3b2f08dbcc,Higuma,45.483521,9.196437,Japanese Restaurant
261,45.4853304646662,9.195671130525865,3,0,50d0aea9e4b0ab45440cad51,Ristorante Cinese XIN FU-JI,45.48514006212275,9.195289658791689,Chinese Restaurant
262,45.4853304646662,9.195671130525865,3,1,51019e6ae4b033a3f72eea81,Il Santa,45.48587273815245,9.196624476209617,Italian Restaurant
263,45.4853304646662,9.195671130525865,3,2,5532bd78498ee038eeb32faf,il Santa,45.485694,9.196281,Italian Restaurant
264,45.483069535333804,9.195671130525865,3,0,54ef1cb1498edbb843871abc,Arca dei Sapori,45.48253597852482,9.196693952774133,Mediterranean Restaurant
265,45.483069535333804,9.195671130525865,3,1,4c4d749051c2c9280ee5cc9c,caffe del principe,45.48308216469668,9.194589524466824,Italian Restaurant
266,45.483069535333804,9.195671130525865,3,2,4bca03ee0687ef3b2f08dbcc,Higuma,45.483521,9.196437,Japanese Restaurant
267,45.4853304646662,9.19887432401959,9,0,5728a0be498ea3967b9a5e61,"Yang,  sushi and fusion restaurant",45.48539789341516,9.197606985131747,Sushi Restaurant
268,45.4853304646662,9.19887432401959,9,1,58ef60216e46503fd7031e9f,Qui Si Mangia,45.485184,9.198163,Sicilian Restaurant
269,45.4853304646662,9.19887432401959,9,2,4bfbbdd8565f76b0f9df05db,Nectare Restaurant,45.484688965833286,9.198143698933578,Italian Restaurant
270,45.4853304646662,9.19887432401959,9,3,5236edf893cd2b4f6ec90a14,Trattoria Bontà siciliane,45.48517291436165,9.198203980922699,Italian Restaurant
271,45.4853304646662,9.19887432401959,9,4,535c9faa498edc50e22ad369,ostewa fora,45.48511105585564,9.198233640589814,Italian Restaurant
272,45.4853304646662,9.19887432401959,9,5,53bd31ae498eb723cec06322,Haru,45.48555300771256,9.19777667853877,Asian Restaurant
273,45.4853304646662,9.19887432401959,9,6,4cda8a27958f236a285aa703,Full,45.48545193537044,9.19938634037955,Italian Restaurant
274,45.4853304646662,9.19887432401959,9,7,4c4975fa6f1420a12303a255,Bar Ristorante Triangolo,45.48518358650975,9.198375672268222,Italian Restaurant
275,45.4853304646662,9.19887432401959,9,8,51ed1cd1498e8270c43f562f,Bar Trattoria Di Pappalettera,45.485074,9.198851,Italian Restaurant
276,45.483069535333804,9.19887432401959,25,0,5a7b573d8c812a047a1ff5a7,MU Dimsum,45.482991,9.19953,Dim Sum Restaurant
277,45.483069535333804,9.19887432401959,25,1,4bc61aeedb8fa593c3c59b37,Ta Hua,45.48323570748286,9.198131829545856,Chinese Restaurant
278,45.483069535333804,9.19887432401959,25,2,4c6a71888d22c92807b8b945,Ristorante Limone,45.482486506722026,9.199100009054511,Italian Restaurant
279,45.483069535333804,9.19887432401959,25,3,5eef9f2d3590af0008e4c6ed,Ta'bonu,45.4832,9.199446,Sardinian Restaurant
280,45.483069535333804,9.19887432401959,25,4,4fe4dc28e4b079b380a34e7a,友よし,45.482557461099155,9.199637297925182,Japanese Restaurant
281,45.483069535333804,9.19887432401959,25,5,54086490498ec32621011674,Piada Gallery Cafè,45.483121834043914,9.19803081680149,Piadineria
282,45.483069535333804,9.19887432401959,25,6,4bd6c7284e32d13a560dc380,Osteria Qui da Noi,45.48266604058213,9.197946589830671,Italian Restaurant
283,45.483069535333804,9.19887432401959,25,7,4bcd8d7068f976b0ee5e6483,Il Tavolino,45.483889138353994,9.19848661716109,Italian Restaurant
284,45.483069535333804,9.19887432401959,25,8,4bfd0245b68d0f471116e857,Wan-Hao,45.482826,9.198094,Japanese Restaurant
285,45.483069535333804,9.19887432401959,25,9,54202fe6498ed1e00790aef3,Osteria da Angelino,45.482549925215196,9.19912091745631,Italian Restaurant
286,45.483069535333804,9.19887432401959,25,10,5148d69fe4b0ddee54d6b46f,Ristorante Pizzeria,45.483717046187074,9.198437385311745,Italian Restaurant
287,45.483069535333804,9.19887432401959,25,11,4bf1239af45ec928bb78943c,Ristorante Taiwan,45.483248685524494,9.197727385241704,Chinese Restaurant
288,45.483069535333804,9.19887432401959,25,12,4cb6e10855af224ba1cc9c7e,"bar trattoria ""ex latteria""",45.482599,9.199026,Italian Restaurant
289,45.483069535333804,9.19887432401959,25,13,5d8b5290f2919f00089775c4,Brasileirinho,45.48299,9.198862,Brazilian Restaurant
290,45.483069535333804,9.19887432401959,25,14,4cc482c7306e224b24b39d6c,L'isolotto,45.48252564839903,9.197923564276067,Italian Restaurant
291,45.483069535333804,9.19887432401959,25,15,4ce668cde888f04df4cb356b,Trattoria al generale,45.48359087636051,9.19830606401853,Italian Restaurant
292,45.483069535333804,9.19887432401959,25,16,4d23115bb69c6dcbf9c38795,Insalate Italiane,45.48277070991901,9.199783757032453,Italian Restaurant
293,45.483069535333804,9.19887432401959,25,17,4c3f6312af052d7f82417a79,Dalla Zia,45.48278886417393,9.198096849529087,Italian Restaurant
294,45.483069535333804,9.19887432401959,25,18,4c580a128fe2ef3bb7a0303a,Kanji Fusion Restaurant,45.48278,9.20008,Japanese Restaurant
295,45.483069535333804,9.19887432401959,25,19,5cc6f451270ee7002c0a97b0,Kuan Zhai Xiang Zi,45.482904,9.199725,Chinese Restaurant
296,45.483069535333804,9.19887432401959,25,20,4d83b9c6d5fab60cf39bd29b,Osteria della Carne,45.482871,9.19893,Italian Restaurant
297,45.483069535333804,9.19887432401959,25,21,4bd1f04c046076b093d97271,Leon D'Oro - asian crossover,45.48312554198461,9.198494229445851,Asian Restaurant
298,45.483069535333804,9.19887432401959,25,22,50af60d1e4b04c937ad869ef,Sushi Bar Shafush,45.483814,9.198756,Japanese Restaurant
299,45.483069535333804,9.19887432401959,25,23,4d2efa76a6df6dcb5d6dde7a,Trattoria Toscana da Giovanni,45.48261,9.19789,Tuscan Restaurant
300,45.483069535333804,9.19887432401959,25,24,5a037954a9fe12211934b20c,Ki Ki Ristorante Sushi,45.482773,9.198019,Japanese Restaurant
