,lat_centre,long_centre,num_venues,venue_iter,venue_id,venue_name,lat_venue,long_venue,category
0,41.0579,-8.661957142857142,1,0,4c1d1ef3b9f876b0d5117d46,Neptuno,41.05793555671508,-8.656009001023762,Portuguese Restaurant
1,41.0579,-8.648385714285714,3,0,4f70592ae4b07fa2c835c518,Sabor a Mar,41.05475769716752,-8.650028962172243,Portuguese Restaurant
2,41.0579,-8.648385714285714,3,1,501d1346e4b00e1d08af314f,Vasco,41.05860279770387,-8.649656205914905,Portuguese Restaurant
3,41.0579,-8.648385714285714,3,2,4f64b2bee4b0fb96f5fcfa38,Café São Domingos,41.05868117189227,-8.647637840301659,Portuguese Restaurant
4,41.0579,-8.621242857142857,1,0,4edab54730f83fb79d1154a7,Quinta Espirito Santo,41.05553532065876,-8.625739317532059,Portuguese Restaurant
5,41.0579,-8.607671428571427,1,0,5689354d498ea319a2607acf,Adega Do Zenha,41.054153,-8.609886,Portuguese Restaurant
6,41.0579,-8.580528571428571,2,0,4fa44b30e4b094b9457bb2cd,quinta da pena,41.06088244040338,-8.578644984697256,Mediterranean Restaurant
7,41.0579,-8.580528571428571,2,1,517d8dd7498e5b407270fe04,Pedacinho Do Ceu,41.05758281295944,-8.58081280922135,Caribbean Restaurant
8,41.0579,-8.566957142857142,1,0,4fa65866e4b0e4baa352c644,Restaurante Requinte,41.05567932128906,-8.565597534179688,Portuguese Restaurant
9,41.06742380952381,-8.648385714285714,1,0,52077f7b11d2f029656cdc13,A Nossa Adega,41.069305419921875,-8.643195152282715,Portuguese Restaurant
10,41.06742380952381,-8.621242857142857,2,0,54cd4173498ec48ec8a005ea,Candinova,41.066951751708984,-8.624438285827637,Portuguese Restaurant
11,41.06742380952381,-8.621242857142857,2,1,4ef1a5fa2c5b44d2613d4765,Restaurante Castro,41.06789373689044,-8.615593408730613,Portuguese Restaurant
12,41.06742380952381,-8.607671428571427,1,0,4f3ec3b2e4b0250ce8fc0892,Fatita Peixoto,41.065381739542,-8.605960004331319,African Restaurant
13,41.06742380952381,-8.580528571428571,3,0,4eebac8df7903296f89a2683,Restaurante Maria Rosa,41.06998496403968,-8.577968893667547,Portuguese Restaurant
14,41.06742380952381,-8.580528571428571,3,1,4f7f4a98e4b0999c11cc84ca,Riacho,41.06650594783462,-8.578366548899794,Portuguese Restaurant
15,41.06742380952381,-8.580528571428571,3,2,4d3b05f1beb7b1f73f50ef71,L'Orient Express,41.068568602820356,-8.57660329474843,Middle Eastern Restaurant
16,41.06742380952381,-8.553385714285714,3,0,548b4219498e8beca9a6985f,Quinta da Paradela Pedroso,41.069028,-8.548782,Portuguese Restaurant
17,41.06742380952381,-8.553385714285714,3,1,548b41c3498ef27481d86ffd,Quinta da Paradela Pedroso,41.068968,-8.549377,Portuguese Restaurant
18,41.06742380952381,-8.553385714285714,3,2,593a8a7da35dce738e2d1871,Tomatino,41.068945,-8.556623,Italian Restaurant
19,41.06742380952381,-8.499099999999999,2,0,50295557e4b042eaf914cb9b,Molhe,41.06889724731445,-8.500089645385742,Sushi Restaurant
20,41.06742380952381,-8.499099999999999,2,1,52598bd711d2c92f2973637d,Tasquinha Comissão Festas Crestuma,41.069152,-8.500258,Tapas Restaurant
21,41.076947619047615,-8.621242857142857,3,0,5d189e2b6d22da002f9b79a9,Toca Dos Amigos,41.076366,-8.616355,Portuguese Restaurant
22,41.076947619047615,-8.621242857142857,3,1,58cbd93b2a1982731d18203f,Taberna Rituana,41.077834,-8.620325,Portuguese Restaurant
23,41.076947619047615,-8.621242857142857,3,2,56980371498e25dd7d4f1981,Adega Zé,41.0762685257672,-8.618056455194976,Portuguese Restaurant
24,41.076947619047615,-8.5941,1,0,4c950c1f38dd8cfa45efce62,Locanda,41.07594252227618,-8.599371010312135,Portuguese Restaurant
25,41.076947619047615,-8.566957142857142,1,0,5186615c498eeceb02dc8c25,O CASAL,41.07775457069832,-8.569689949727914,Portuguese Restaurant
26,41.076947619047615,-8.512671428571426,1,0,500c4d8ce4b03215e6ce2c42,O Taberneiro,41.076921,-8.512102,Portuguese Restaurant
27,41.08647142857143,-8.607671428571427,1,0,51bccda8498e2d774644b111,Locanda HardDrivers,41.08914566040039,-8.603303909301758,Portuguese Restaurant
28,41.08647142857143,-8.5941,1,0,4fcbfe29e4b0d3660913cdb8,Taberna da Villa,41.085929958783474,-8.59784520459612,Portuguese Restaurant
29,41.08647142857143,-8.539814285714284,1,0,51c0512a498e4ba46e7066bc,Cantina Da Hydro,41.08834244044002,-8.536512131463853,Mongolian Restaurant
30,41.08647142857143,-8.512671428571426,1,0,4f6e06a5e4b0e6e00232c699,O Taberneiro,41.08386668781408,-8.516759357057103,Portuguese Restaurant
31,41.095995238095234,-8.661957142857142,1,0,4d86637d50913704ce16ab5b,Da Salvatore,41.0949217752005,-8.657677746179166,Italian Restaurant
32,41.095995238095234,-8.648385714285714,1,0,501996bde4b089ae38df2d8c,cantinho do português,41.09322738647461,-8.645844459533691,Portuguese Restaurant
33,41.095995238095234,-8.634814285714285,1,0,4edfd7958b81340ef17d4baf,A Grade Velha,41.09958798430943,-8.631414717041503,Portuguese Restaurant
34,41.095995238095234,-8.621242857142857,1,0,5da8bc5d13c9bb000887e97e,El Guacamole Cantina Mexicana,41.095429,-8.61927,Mexican Restaurant
35,41.095995238095234,-8.607671428571427,1,0,4c38f745dfb0e21e6ea4afa8,Rest Bar Parque S. Caetano,41.095546903436734,-8.612164458933766,Bar
36,41.095995238095234,-8.5941,1,0,5bf02e090a08ab002cfa1e3f,Taberna Velha,41.093915,-8.598439,Portuguese Restaurant
37,41.095995238095234,-8.580528571428571,2,0,529a80b2498e59fe2c2f3aad,Restaurante Casa Primavera,41.0964469909668,-8.577874183654785,American Restaurant
38,41.095995238095234,-8.580528571428571,2,1,57f92c56498eb89d307b6ed2,Cafe Chaplin,41.09413,-8.575966,Portuguese Restaurant
39,41.095995238095234,-8.566957142857142,1,0,511a3d77e4b03bddc26601c1,Adega do Lila,41.09242,-8.565324,Portuguese Restaurant
40,41.095995238095234,-8.553385714285714,1,0,4e2d5dafae605c533a4aed55,Duchef,41.099363856312344,-8.551198384810805,Portuguese Restaurant
41,41.095995238095234,-8.539814285714284,1,0,4e4816ce7d8b91a065a508c5,Parquibrasa,41.0952892115611,-8.544322197187485,Portuguese Restaurant
42,41.10551904761905,-8.661957142857142,5,0,573ccba4498e7152114a9faa,Restaurante Marbelo,41.105258,-8.662072,Brazilian Restaurant
43,41.10551904761905,-8.661957142857142,5,1,4ce6fd93f3bda143b83dafe4,A Cozinha do Português,41.10752402985662,-8.661072118798105,Portuguese Restaurant
44,41.10551904761905,-8.661957142857142,5,2,4ce5860119efa093c7e0c5f1,Marbelo,41.105541421042204,-8.661355806098097,Portuguese Restaurant
45,41.10551904761905,-8.661957142857142,5,3,535e7460498ed17a1ea002d1,Restaurante Iguarias,41.105045318603516,-8.660890579223633,Portuguese Restaurant
46,41.10551904761905,-8.661957142857142,5,4,4ec82ee35c5ce271be7330aa,Tappas Caffe,41.10793501392406,-8.661181136434443,Tapas Restaurant
47,41.10551904761905,-8.648385714285714,1,0,4c54766d06901b8d0f81d94b,Casa D. Amélia,41.10606074398987,-8.64970184372252,Portuguese Restaurant
48,41.10551904761905,-8.621242857142857,4,0,57accae5498ea4aaf32ce5fd,Casa dos Sabores,41.108774606617274,-8.618157505989075,Portuguese Restaurant
49,41.10551904761905,-8.621242857142857,4,1,531b8878498eadd29672ab49,Rosa II,41.1087154738652,-8.618179933233613,Chinese Restaurant
50,41.10551904761905,-8.621242857142857,4,2,4d1ddf83f7a9a143203f149f,Rosa II,41.10846002006195,-8.618719182710443,Chinese Restaurant
51,41.10551904761905,-8.621242857142857,4,3,531b8879498eadd29672af0d,Restaurante Chinês Rosa II,41.1086419318875,-8.618899331001575,Asian Restaurant
52,41.10551904761905,-8.607671428571427,1,0,59aaa40c295513268354808f,Torcatu's,41.106511,-8.60445,Tapas Restaurant
53,41.10551904761905,-8.566957142857142,1,0,4f735c34e4b042cc9661d8e6,graça da villa,41.10613250732422,-8.571990966796875,Portuguese Restaurant
54,41.10551904761905,-8.553385714285714,2,0,4fd269abe4b012fef53c5abe,restaurante pe dagua,41.10400033386856,-8.550999921348696,Portuguese Restaurant
55,41.10551904761905,-8.553385714285714,2,1,506ecb7ae4b066d6fdab9785,O Broas,41.10661697387695,-8.553369522094727,Portuguese Restaurant
56,41.10551904761905,-8.526242857142856,1,0,533ffb6a498ea11b50b16220,Arca Velha,41.10774230957031,-8.530025482177734,Portuguese Restaurant
57,41.11504285714285,-8.634814285714285,1,0,4e07279345ddb2875c48b878,Restaurante Dona Maria,41.11212991856005,-8.633615751935276,Portuguese Restaurant
58,41.11504285714285,-8.621242857142857,13,0,4f4a934fe4b002a2adc89a3f,Bacalhau com Alho,41.11738391539365,-8.622668227271811,Portuguese Restaurant
59,41.11504285714285,-8.621242857142857,13,1,4d42b70858e9b1f778cadbce,Sr. Frango da Guia (GaiaShopping),41.11771422593249,-8.622754130213101,Portuguese Restaurant
60,41.11504285714285,-8.621242857142857,13,2,579cb8cb498eb7f72eed4300,Bodegão,41.117489,-8.622447,Portuguese Restaurant
61,41.11504285714285,-8.621242857142857,13,3,5353b663498eae3b9ac79d11,restaurante transmontano,41.11443084773088,-8.618641635498253,Portuguese Restaurant
62,41.11504285714285,-8.621242857142857,13,4,509965eae4b07f2d2b649f4b,Sabores de A a Z,41.117328,-8.623064,Portuguese Restaurant
63,41.11504285714285,-8.621242857142857,13,5,5409ac1f498ed2a03e9b75a6,Sabor Gaucho,41.11751194104296,-8.622523266277836,Brazilian Restaurant
64,41.11504285714285,-8.621242857142857,13,6,579de96d498ecfc18428b465,Ásia Japonês,41.11748,-8.62246,Asian Restaurant
65,41.11504285714285,-8.621242857142857,13,7,4c65a4f68e9120a1a4c5d564,Taverna do Alho,41.11768767154554,-8.622782764584594,Portuguese Restaurant
66,41.11504285714285,-8.621242857142857,13,8,4ed7f765e5fabbd8a0e33a6c,Wok to Walk,41.117357519503045,-8.622753384095006,Noodle House
67,41.11504285714285,-8.621242857142857,13,9,4e85bc3dbe7b2381496553e8,Pasta Caffé,41.11746874051524,-8.622415887941457,Italian Restaurant
68,41.11504285714285,-8.621242857142857,13,10,50912c6ee4b0554ee857230a,AZ Gourmet,41.116271710551594,-8.621685719264372,Portuguese Restaurant
69,41.11504285714285,-8.621242857142857,13,11,4f1eb78fe4b0f21393290a4a,Brasa Rio,41.117445184647664,-8.62269507193057,Brazilian Restaurant
70,41.11504285714285,-8.621242857142857,13,12,4e4fa3b9aeb70f1284a2a5ba,O Kilo,41.11741752,-8.62217558,Brazilian Restaurant
71,41.11504285714285,-8.607671428571427,4,0,5cbdb5cdad910e002cd0fa36,Soto Antigo,41.1151,-8.606244,Portuguese Restaurant
72,41.11504285714285,-8.607671428571427,4,1,4d28e43cc406721e12fb75b6,O Nordeste Transmontano,41.115156896547774,-8.612076062751454,Portuguese Restaurant
73,41.11504285714285,-8.607671428571427,4,2,4dac297efa8cc764975c3187,Restaurante Picota,41.11324478360737,-8.604354858398438,Portuguese Restaurant
74,41.11504285714285,-8.607671428571427,4,3,4ca8988697c8a1cd862686a5,O Transmontano,41.115178125156895,-8.61214481688157,Portuguese Restaurant
75,41.11504285714285,-8.5941,3,0,4b97a5aaf964a5207e0d35e3,Dicasa,41.116162535719006,-8.599744936423445,Italian Restaurant
76,41.11504285714285,-8.5941,3,1,4d0bd3e546bab60c4de52990,Quinta da Boucinha,41.112945182048804,-8.591070149294595,Portuguese Restaurant
77,41.11504285714285,-8.5941,3,2,52ab7504498eb00c5f164e18,Taberninha do Lameiro,41.115986,-8.588871,Portuguese Restaurant
78,41.11504285714285,-8.580528571428571,1,0,5904ef7faa6c95608bd56317,Cheiro D' Lenha,41.111134,-8.578673,Portuguese Restaurant
79,41.11504285714285,-8.539814285714284,1,0,4e8dae3e4690501c9d86db67,"Adega Vigário - ""Esgravata""",41.11789244415969,-8.542402400374518,Portuguese Restaurant
80,41.12456666666667,-8.661957142857142,9,0,4c5076f9c71876b065dfd755,O Casarão,41.12244518401945,-8.665541482854877,Portuguese Restaurant
81,41.12456666666667,-8.661957142857142,9,1,556a1d64498eff666a278daa,Ristorante Pizzeria S. Martino,41.12100317421286,-8.665019359480707,Italian Restaurant
82,41.12456666666667,-8.661957142857142,9,2,4d9cbff3a1ec8cfa96ecf249,Telepizza Salgueiros,41.12211935648955,-8.666174328378208,Italian Restaurant
83,41.12456666666667,-8.661957142857142,9,3,5d4ebc582a499e0007248cd7,Sushi by Stefano,41.122905,-8.666053,Sushi Restaurant
84,41.12456666666667,-8.661957142857142,9,4,530e930c11d2eb00f1ff2e71,Rufino's,41.12256622314453,-8.666302680969238,Brazilian Restaurant
85,41.12456666666667,-8.661957142857142,9,5,5651bf14498e402a2b59cced,Tiscos,41.122803,-8.666187,Tapas Restaurant
86,41.12456666666667,-8.661957142857142,9,6,55bbde17498edba34d759e72,Restaurante Pingo de Fogo,41.12162666992194,-8.665347046560065,Brazilian Restaurant
87,41.12456666666667,-8.661957142857142,9,7,5442bf87498e949702dc2597,O Veleiro,41.12281754535858,-8.666314000216605,Portuguese Restaurant
88,41.12456666666667,-8.661957142857142,9,8,5b5e14aa56c89f002c050c95,Mercado Das Tapas,41.12293,-8.666061,Tapas Restaurant
89,41.12456666666667,-8.648385714285714,3,0,51f43125498ee80f9380f3ea,Confeitaria Montecarlo,41.12351608276367,-8.645873069763184,Portuguese Restaurant
90,41.12456666666667,-8.648385714285714,3,1,4d4dd59b4aa3a093988947ae,Retiro do Paniceiro,41.12462954198763,-8.650650855219045,Portuguese Restaurant
91,41.12456666666667,-8.648385714285714,3,2,4f51371ae4b0ee60b7a801ec,Chale,41.1241343909559,-8.649893562220946,Portuguese Restaurant
92,41.12456666666667,-8.634814285714285,5,0,4eeb45d199119cf9cdea46d8,Novo Rumo,41.12645363946048,-8.637117710638757,Portuguese Restaurant
93,41.12456666666667,-8.634814285714285,5,1,5762f567498e5783e6c4cc5c,Grill Coimbrões,41.12701,-8.632126,Portuguese Restaurant
94,41.12456666666667,-8.634814285714285,5,2,5131269be4b021edc91871fb,Taberna Da Aldeia,41.12595716600764,-8.634029730961164,Portuguese Restaurant
95,41.12456666666667,-8.634814285714285,5,3,50250d1de4b0bb3db3da9e73,A Central de Coimbroes,41.12428864701645,-8.633976033675786,Portuguese Restaurant
96,41.12456666666667,-8.634814285714285,5,4,51fe0a16498e27c57d6cd823,Cafe snack bar onda verde,41.12737274169922,-8.632034301757812,Portuguese Restaurant
97,41.12456666666667,-8.621242857142857,7,0,4c5472d31b46c9b6ecd79cce,O Forno,41.123579949249184,-8.626310596950692,Portuguese Restaurant
98,41.12456666666667,-8.621242857142857,7,1,548b4d76498e001dde40cd28,Casa dos Leitões,41.128323,-8.619411,Portuguese Restaurant
99,41.12456666666667,-8.621242857142857,7,2,4e8d97dd6da1d5bdcf354e1e,Ucha,41.12703013223089,-8.622045433841723,Portuguese Restaurant
100,41.12456666666667,-8.621242857142857,7,3,52acbf8b498e15ecba40be60,111,41.126220703125,-8.62187671661377,Russian Restaurant
101,41.12456666666667,-8.621242857142857,7,4,505b7adde4b08d1ea238b0e7,restaurante chocolate com pimenta,41.124793815541466,-8.615694305149743,Portuguese Restaurant
102,41.12456666666667,-8.621242857142857,7,5,508e8355e4b040090bc55671,Tomatino,41.120376,-8.620881,Italian Restaurant
103,41.12456666666667,-8.621242857142857,7,6,51744a61e4b010e42d8dc5ef,Taberna do Senhor,41.124512,-8.625878,Tapas Restaurant
104,41.12456666666667,-8.607671428571427,28,0,5f3439eb6f614c08b33cc2f2,100 Montaditos,41.125681,-8.605341,Tapas Restaurant
105,41.12456666666667,-8.607671428571427,28,1,4e3855c962e1a8e9cc4ec6e8,Restaurante Chinês Rosa,41.12603270909313,-8.606491182687526,Chinese Restaurant
106,41.12456666666667,-8.607671428571427,28,2,5e39d354c7452200079fe4df,La Tradizionale,41.12523,-8.6118965,Pizza Place
107,41.12456666666667,-8.607671428571427,28,3,4ccb098897d0224b9dba56b8,O Charco,41.12883520372233,-8.605889128058338,Portuguese Restaurant
108,41.12456666666667,-8.607671428571427,28,4,4d3c2b21af8ca143ec27fff6,Cantinho de Luanda,41.124369460350124,-8.612050790087993,African Restaurant
109,41.12456666666667,-8.607671428571427,28,5,4f47ef6de4b01e144e10e10b,Prato Janota,41.1255295,-8.6035359,Brazilian Restaurant
110,41.12456666666667,-8.607671428571427,28,6,596b5c3c31fd14352fefab1f,O Regional,41.122164,-8.60914,Café
111,41.12456666666667,-8.607671428571427,28,7,578fd3b2498e1f07b9de9c7a,Petiscos às Paletes,41.12634450600639,-8.6095315857086,Portuguese Restaurant
112,41.12456666666667,-8.607671428571427,28,8,4cf8f48b5698a093142908fc,Confeitaria Lagoa Azul,41.12548020084462,-8.61180185297489,Café
113,41.12456666666667,-8.607671428571427,28,9,4dedf3db8130702032750064,Pizzaria Toscana,41.125513976216226,-8.61302375793457,Pizza Place
114,41.12456666666667,-8.607671428571427,28,10,58628402abc6d60cc3ec8360,Wok to Walk,41.12562,-8.605208,Noodle House
115,41.12456666666667,-8.607671428571427,28,11,51c7510e498e94fd068d701b,Vintage Gaia – Restaurante Bar,41.12451907203708,-8.613525486405681,Portuguese Restaurant
116,41.12456666666667,-8.607671428571427,28,12,58ea47c7f595727630b4d88c,Basilico,41.125466,-8.605291,Pizza Place
117,41.12456666666667,-8.607671428571427,28,13,4d80c258208a548171597a67,yayuan,41.124817,-8.611605,Asian Restaurant
118,41.12456666666667,-8.607671428571427,28,14,57250f9e498ef3de5ccfbb4f,Restaurante Carpa,41.123264,-8.605747,Portuguese Restaurant
119,41.12456666666667,-8.607671428571427,28,15,5bd30e72f427de0039d9f9a8,Tutti Buoni,41.125162,-8.611814,Italian Restaurant
120,41.12456666666667,-8.607671428571427,28,16,4ec5760502d54e704754b7df,Serra da Estrela - Cantinho Regional,41.125577192334,-8.605350024344471,Portuguese Restaurant
121,41.12456666666667,-8.607671428571427,28,17,4d05dd1ba2685481c001bfbd,Corte Latino Café,41.125895297068276,-8.603582938076846,Bakery
122,41.12456666666667,-8.607671428571427,28,18,5330363311d22e5b3c17b6f1,Divinus,41.12278883670372,-8.607497138851834,Portuguese Restaurant
123,41.12456666666667,-8.607671428571427,28,19,4e21ac81a80968cf3e41b07d,Go Natural,41.12558273649071,-8.605386390619957,Vegetarian / Vegan Restaurant
124,41.12456666666667,-8.607671428571427,28,20,51af01eb498e3d2f8ebb5615,Clichê,41.122124,-8.603738,Tapas Restaurant
125,41.12456666666667,-8.607671428571427,28,21,505cd17ae4b0d7a5e26dbe95,Sakurai Sushi Bar,41.12258838980606,-8.611578292444376,Japanese Restaurant
126,41.12456666666667,-8.607671428571427,28,22,4cfab5f3d8468cfad9c0ef6b,Taberna,41.12607857213825,-8.605082657321585,Spanish Restaurant
127,41.12456666666667,-8.607671428571427,28,23,500db497e4b0546b29fd9f5c,Brasa Rio - El Corte Inglés,41.12553040365407,-8.60517289010142,Brazilian Restaurant
128,41.12456666666667,-8.607671428571427,28,24,5cdabbaea5a315003957e034,One Piece,41.121345,-8.606078,Sushi Restaurant
129,41.12456666666667,-8.607671428571427,28,25,4dc97fc8d4c0abe9b6317020,Mesón de Tapas,41.125498,-8.605256,Tapas Restaurant
130,41.12456666666667,-8.607671428571427,28,26,5b1d45030d173f002ce32499,O Forno Do Leitão Do Zé,41.125567,-8.60529,Portuguese Restaurant
131,41.12456666666667,-8.607671428571427,28,27,5eea58ebe0631d0007f9c2e7,Il Piacere Pizzeria,41.126328,-8.609524,Italian Restaurant
132,41.12456666666667,-8.5941,1,0,4d5a81081d4a8cfa96ef98ed,Beijo de Sereia,41.1234033047865,-8.593842522925167,Café
133,41.12456666666667,-8.580528571428571,2,0,4f52773ce4b03be362f3c02f,Café Madeira,41.12044354617813,-8.582626531729359,Brazilian Restaurant
134,41.12456666666667,-8.580528571428571,2,1,4d8b496e6daeb60c43c875e0,Restaurante Ciprianos,41.121307172655975,-8.577341100243897,Mediterranean Restaurant
135,41.12456666666667,-8.566957142857142,2,0,50d4faa3e4b025aee3bc8804,O Cais,41.12241602966276,-8.56912124142574,Portuguese Restaurant
136,41.12456666666667,-8.566957142857142,2,1,4e886ac42c5bf84137ac7beb,Cozinha Transmontana,41.128746,-8.5673796,Portuguese Restaurant
137,41.12456666666667,-8.539814285714284,1,0,4e0dccb0b61c3fe477fc8675,Cafe Familiar,41.12873324971996,-8.53856749057592,Café
138,41.12456666666667,-8.512671428571426,3,0,4e77ac7e091a4b66f2327810,Restaurante Flor Da Touta,41.12756670013296,-8.514763712882996,Portuguese Restaurant
139,41.12456666666667,-8.512671428571426,3,1,535279f5498edda6b97c1a05,Restaurante Marisol,41.122520446777344,-8.517860412597656,Portuguese Restaurant
140,41.12456666666667,-8.512671428571426,3,2,4fc11290e4b008d93aa27b13,o taberneiro,41.12507907973708,-8.512196907279012,Tapas Restaurant
141,41.13409047619047,-8.661957142857142,2,0,5936a3e60531e821b7c8517d,O Gato Que Pesca,41.130974,-8.665437,Portuguese Restaurant
142,41.13409047619047,-8.661957142857142,2,1,52e12ef4498ee2e98b31e910,Café Vapor,41.1359569,-8.6654318,Portuguese Restaurant
143,41.13409047619047,-8.648385714285714,2,0,4cf3916e1c158cfa7541deb5,Cantinho do Oceano,41.132034092811246,-8.65327816510229,Bakery
144,41.13409047619047,-8.648385714285714,2,1,4ea7fbc0b6345041a0beb109,Tappas Caffe,41.13605385731605,-8.652439385483243,Portuguese Restaurant
145,41.13409047619047,-8.621242857142857,26,0,512c9027e4b04461e62dede5,Vinum Restaurant and Winebar,41.13772782401989,-8.62362134052607,Portuguese Restaurant
146,41.13409047619047,-8.621242857142857,26,1,4ca4836d1ee76dcb272202de,Ponte de Pedra,41.13166935161901,-8.624851720124948,Portuguese Restaurant
147,41.13409047619047,-8.621242857142857,26,2,5f09f348c4596d6ceb417468,Tasca Do Carago,41.137386,-8.617877,Portuguese Restaurant
148,41.13409047619047,-8.621242857142857,26,3,4fde67b1e4b0d60dd93ecd9a,Restaurante Casa Dias,41.13702214543745,-8.617275050292426,Portuguese Restaurant
149,41.13409047619047,-8.621242857142857,26,4,4c6ae2eb3fa82c7a661919a6,Tappas Caffé,41.134832428089254,-8.624939772111578,Tapas Restaurant
150,41.13409047619047,-8.621242857142857,26,5,5140dc66e4b0bce67477a47a,Provas,41.13714407291389,-8.61705675789241,Portuguese Restaurant
151,41.13409047619047,-8.621242857142857,26,6,5b364f440fe7a0002ccdb3c3,Mateus Restaurant,41.137253,-8.617644,Portuguese Restaurant
152,41.13409047619047,-8.621242857142857,26,7,4c38c9f8dfb0e21e1244afa8,Pasta Caffé,41.13747849070494,-8.617651781281737,Italian Restaurant
153,41.13409047619047,-8.621242857142857,26,8,5533c886498e4134d703c239,Mister Picanha,41.137354110538354,-8.618002769153616,Brazilian Restaurant
154,41.13409047619047,-8.621242857142857,26,9,4cc494c13d7fa1cd5bcfac5f,Provas Do Cais,41.13712,-8.616985,Latin American Restaurant
155,41.13409047619047,-8.621242857142857,26,10,522880dc11d2ad138e99a70a,Tradicional,41.13748196605885,-8.617820236895847,Portuguese Restaurant
156,41.13409047619047,-8.621242857142857,26,11,4f576439e4b008b5f0bc0ebe,La Tasca Al Forno,41.13300318538912,-8.621514324067908,Italian Restaurant
157,41.13409047619047,-8.621242857142857,26,12,500845b6e4b0f0cea8223785,Tradicional,41.13731544063805,-8.618088666837943,Portuguese Restaurant
158,41.13409047619047,-8.621242857142857,26,13,4cab712736fa6dcb7b18d978,Restaurante Chines,41.129744,-8.620268,Chinese Restaurant
159,41.13409047619047,-8.621242857142857,26,14,50830152e4b0974e516d83c5,Herança Magna,41.13466150976583,-8.618190425883927,Portuguese Restaurant
160,41.13409047619047,-8.621242857142857,26,15,55e0d5fa498eb6646f334c8e,Perto do Cais,41.13617087451601,-8.625734746456146,Portuguese Restaurant
161,41.13409047619047,-8.621242857142857,26,16,58f77f3f3731ee4e4f8979da,Tasca Do Cais,41.13705,-8.617232,Tapas Restaurant
162,41.13409047619047,-8.621242857142857,26,17,50c130ede4b01a1f413670b4,Taberna dos irmaos,41.13328552246094,-8.626016616821289,Portuguese Restaurant
163,41.13409047619047,-8.621242857142857,26,18,4c25f0d4905a0f479f4f6260,Sumo Cais,41.13750201627865,-8.618068018440875,Japanese Restaurant
164,41.13409047619047,-8.621242857142857,26,19,4d978528c19fb60c80219965,Mineirão (Cais de Gaia),41.13803329449729,-8.619033547754595,Brazilian Restaurant
165,41.13409047619047,-8.621242857142857,26,20,4e4ec61462e14b77e392ada3,Recanto 2,41.132413,-8.626679,Portuguese Restaurant
166,41.13409047619047,-8.621242857142857,26,21,5325b80e498e7c0a98ce3f5c,Sumo,41.13749527965179,-8.6182926742262,Sushi Restaurant
167,41.13409047619047,-8.621242857142857,26,22,5053abefe4b0c7508a73af06,Infante - Portuguese food and tapas,41.13718039955813,-8.61764712367002,Portuguese Restaurant
168,41.13409047619047,-8.621242857142857,26,23,4e3aa3bcc65b8a6b56af8351,Mineirão,41.137760292197235,-8.618528189968334,Brazilian Restaurant
169,41.13409047619047,-8.621242857142857,26,24,59d23b572bf9a92cf28f8cb3,Kroquet,41.136687,-8.616375,Dutch Restaurant
170,41.13409047619047,-8.621242857142857,26,25,5f9c0486e08f7572eafdf7e8,Restaurante Dona Maria,41.136352,-8.618439,Portuguese Restaurant
171,41.13409047619047,-8.607671428571427,15,0,5acb4af467af3a34ce8a3a58,Mamma Bella,41.136875,-8.612257,Italian Restaurant
172,41.13409047619047,-8.607671428571427,15,1,5e63983795d0410008951aef,A Grelha,41.131592,-8.606247,Portuguese Restaurant
173,41.13409047619047,-8.607671428571427,15,2,4d68455b67a8f04d3d8cfebd,O Assador,41.13068986426918,-8.607062343274963,Brazilian Restaurant
174,41.13409047619047,-8.607671428571427,15,3,5e08ec024f1e9c00089a98a5,Best Friends Tapas Bar,41.13522,-8.611344,Tapas Restaurant
175,41.13409047619047,-8.607671428571427,15,4,544a3e10498e954e94552c71,Restaurante Yadoya,41.13044177621083,-8.605065536215308,Sushi Restaurant
176,41.13409047619047,-8.607671428571427,15,5,51f03864498ecacf1b616e59,Baviera Grill,41.13583095136033,-8.608334529921008,Portuguese Restaurant
177,41.13409047619047,-8.607671428571427,15,6,4f2c4ca4e4b0a98a496574af,Restaurante Damas,41.13570166755903,-8.607540081759572,Portuguese Restaurant
178,41.13409047619047,-8.607671428571427,15,7,4d30bc92a241f04de251b727,Zé Ladrão,41.13416534589505,-8.604781049149265,Portuguese Restaurant
179,41.13409047619047,-8.607671428571427,15,8,522dc88011d277bf56c200b6,Petiscos e Companhia,41.1337,-8.61018,Portuguese Restaurant
180,41.13409047619047,-8.607671428571427,15,9,51d5d06c498e02f560e6a4e3,Yadoya,41.13403401128094,-8.607617314974913,Sushi Restaurant
181,41.13409047619047,-8.607671428571427,15,10,53a49ecb498e7d482879ab61,Praceta 111,41.129896758250325,-8.605886797294714,Portuguese Restaurant
182,41.13409047619047,-8.607671428571427,15,11,583c8f30d6fe900bdc964440,Bou A Kasa,41.13059,-8.606834,Portuguese Restaurant
183,41.13409047619047,-8.607671428571427,15,12,4fc80197e4b03339a6268f51,Restaurante Escondidinho,41.13430045037909,-8.60627327616225,Portuguese Restaurant
184,41.13409047619047,-8.607671428571427,15,13,59ce7a7a50a6f006dd38e31b,Casa Pinto Almoços E Jantares,41.134304,-8.605425,Portuguese Restaurant
185,41.13409047619047,-8.607671428571427,15,14,4e54ffeda8093d27ccac6496,Churrasqueira Nova Cidade,41.134926118541806,-8.607663542754223,Portuguese Restaurant
186,41.13409047619047,-8.5941,2,0,4ea7ffa4f7903beac0b65c65,Churrasqueira A Ramadinha,41.12978098385501,-8.593990802764893,Portuguese Restaurant
187,41.13409047619047,-8.5941,2,1,5da975456a55c10007eda800,Villadog - Hotel Canino,41.131818,-8.596805,Peruvian Restaurant
188,41.13409047619047,-8.580528571428571,1,0,4e0f835dd164fff335b5d949,Grelha do Areinho,41.13376417809171,-8.578628887221837,Portuguese Restaurant
189,41.13409047619047,-8.539814285714284,3,0,56ad2a48498ebfb7f49b888c,O Laranjeira,41.13527595580526,-8.536180997849875,Portuguese Restaurant
190,41.13409047619047,-8.539814285714284,3,1,5dbc7130dc61fa0008102f6b,G Lounge,41.135246,-8.541829,Tapas Restaurant
191,41.13409047619047,-8.539814285714284,3,2,52b5fe2f498e8379d10dd5e5,o especial,41.135802525767865,-8.537001513823546,Portuguese Restaurant
192,41.13409047619047,-8.526242857142856,2,0,50a6a8c1e4b059505804728b,Madureiras Souto,41.13591647568985,-8.530946105075644,Seafood Restaurant
193,41.13409047619047,-8.526242857142856,2,1,4e7f55960cd66e03df516f03,Apetecemeirao Tasco | Romaria do Rosário,41.13562544497824,-8.530605509877205,Food Truck
194,41.143614285714285,-8.675528571428572,1,0,57ca02ff498e289da8357c11,waffles belgas,41.147824,-8.673735,Belgian Restaurant
195,41.143614285714285,-8.661957142857142,3,0,50af7cdee4b047828abe5272,Restaurante Onda Mar,41.14440155029297,-8.659099578857422,Portuguese Restaurant
196,41.143614285714285,-8.661957142857142,3,1,54da73ad498e74b5d928846d,Restaurante Pizzaria S. Martino,41.14127710257226,-8.665900357435353,Italian Restaurant
197,41.143614285714285,-8.661957142857142,3,2,515b42b3e4b03409b02fa1c1,Bartolomeo's,41.14749742334176,-8.660974419766136,Portuguese Restaurant
198,41.143614285714285,-8.648385714285714,12,0,4d8e627ac479a35de5284597,Forneria S. Pedro,41.1418213180074,-8.648879246466187,Pizza Place
199,41.143614285714285,-8.648385714285714,12,1,58e93754668af70c792e56bf,Restaurante Carvão,41.141257,-8.650674,Portuguese Restaurant
200,41.143614285714285,-8.648385714285714,12,2,55e473b8498eb2e799970360,Casa Machado,41.144812,-8.644941,Portuguese Restaurant
201,41.143614285714285,-8.648385714285714,12,3,50c73c54e4b0d67752314abc,Casa do Pescador,41.14458720817842,-8.644919472146979,Fish & Chips Shop
202,41.143614285714285,-8.648385714285714,12,4,526041e711d22f12b2b39222,Kanpai Douro Marina,41.141204647978384,-8.650777731986416,Japanese Restaurant
203,41.143614285714285,-8.648385714285714,12,5,5b66eafc89e490002c587a0b,Café 1962,41.143227,-8.646657,Portuguese Restaurant
204,41.143614285714285,-8.648385714285714,12,6,4f807038e4b023c6389f6dd8,Café Imperador,41.14254318777242,-8.647820443885331,Café
205,41.143614285714285,-8.648385714285714,12,7,4fb8df82e4b0351657177182,farturas,41.14149072885409,-8.649163130692397,Arepa Restaurant
206,41.143614285714285,-8.648385714285714,12,8,4bbf24d4f353d13acf167e10,Restaurante A Margem,41.1447653344347,-8.646152322686453,Portuguese Restaurant
207,41.143614285714285,-8.648385714285714,12,9,5373d0c2498e07800aef9902,Casa F. C. Porto,41.14353003892198,-8.64609109803453,Portuguese Restaurant
208,41.143614285714285,-8.648385714285714,12,10,5412e1e7498e3cb401d6986b,Victa,41.14119479403538,-8.650672338817781,Portuguese Restaurant
209,41.143614285714285,-8.648385714285714,12,11,53caad9d498eb39a55d30412,abrigo do pescador,41.143785,-8.646164,Tapas Restaurant
210,41.143614285714285,-8.634814285714285,39,0,4ed01fbc9adf2544569a80fc,Taberna Cais das Pedras,41.145265670391694,-8.629457186166325,Tapas Restaurant
211,41.143614285714285,-8.634814285714285,39,1,5132a611e4b0f53f9160e3fa,Gull,41.14562387865315,-8.629703648001922,Sushi Restaurant
212,41.143614285714285,-8.634814285714285,39,2,4d32ffb56c7c721e445ab556,100 Montaditos,41.1420632444568,-8.636605739593506,Tapas Restaurant
213,41.143614285714285,-8.634814285714285,39,3,57f000e1498eb99ecde2877e,Li Yuan,41.141802,-8.63664,Asian Restaurant
214,41.143614285714285,-8.634814285714285,39,4,4fcfdaf3e4b071e6fa99fd27,Monchique,41.14531478757092,-8.630152884059502,Tapas Restaurant
215,41.143614285714285,-8.634814285714285,39,5,5b3ca1a331ac6c00396857c6,Capa no Rio,41.147395,-8.632747,Portuguese Restaurant
216,41.143614285714285,-8.634814285714285,39,6,4cbc9f14d78f4688b138c973,Ali Baba Kebab Haus,41.1416914186504,-8.63656102177267,Falafel Restaurant
217,41.143614285714285,-8.634814285714285,39,7,4c5ab3ef04f9be9a7a55f260,Go Natural,41.14185627559665,-8.636683446767263,Vegetarian / Vegan Restaurant
218,41.143614285714285,-8.634814285714285,39,8,55d8da2a498e3658c0f8c943,Indi Go,41.141644339382836,-8.636430038198903,Indian Restaurant
219,41.143614285714285,-8.634814285714285,39,9,56c1e25acd103f2da95f46ce,Illiabum Café Restaurante,41.146033,-8.631131,Portuguese Restaurant
220,41.143614285714285,-8.634814285714285,39,10,4c0e2f03d64c0f478eb4275d,Chamiço's,41.142465490564305,-8.64020218735735,Mediterranean Restaurant
221,41.143614285714285,-8.634814285714285,39,11,4cb054daeb65b1f777fa6acd,Serra da Estrela,41.14165925930709,-8.636562824249268,Portuguese Restaurant
222,41.143614285714285,-8.634814285714285,39,12,4f2406a3e4b0717a67f65a56,chow's,41.1420783996582,-8.636408805847168,Sushi Restaurant
223,41.143614285714285,-8.634814285714285,39,13,4c8ccb57f87e224bacd33705,Só Peso,41.141748,-8.636568,Eastern European Restaurant
224,41.143614285714285,-8.634814285714285,39,14,53b9c05f498e83df90941335,Tomatino,41.141709941373264,-8.636547359143702,Italian Restaurant
225,41.143614285714285,-8.634814285714285,39,15,5162b2efe4b013d3493ff762,Office.come,41.1423993281609,-8.639866851076023,Portuguese Restaurant
226,41.143614285714285,-8.634814285714285,39,16,5693bd0d498eb2b8f0c8a3c6,Café Típico,41.139431,-8.63402,Portuguese Restaurant
227,41.143614285714285,-8.634814285714285,39,17,5273abed11d264f3f3ec5703,BB Gourmet,41.14192327629764,-8.63655354598197,Portuguese Restaurant
228,41.143614285714285,-8.634814285714285,39,18,4ccf2e046200b1f7d3e4cc28,Wok to Walk,41.14170410659712,-8.636557841942563,Asian Restaurant
229,41.143614285714285,-8.634814285714285,39,19,5149bd50e4b0c63559eddeae,Bulle,41.145666,-8.629603,Japanese Restaurant
230,41.143614285714285,-8.634814285714285,39,20,4d3a004649cb236a5491b547,Bodegão Restaurante,41.14191149925311,-8.636607634231533,Portuguese Restaurant
231,41.143614285714285,-8.634814285714285,39,21,4d0d266f5c46a093f1d10cb4,Perfume,41.146224,-8.63077,Mediterranean Restaurant
232,41.143614285714285,-8.634814285714285,39,22,5e231ae69ce17d0008df5b9a,Quattro Porte,41.145696,-8.630309,Italian Restaurant
233,41.143614285714285,-8.634814285714285,39,23,536506ad11d2560b1fcec145,Illiabum,41.145787841220844,-8.630367662667988,Portuguese Restaurant
234,41.143614285714285,-8.634814285714285,39,24,4cfd3f430df3236ade1f03aa,Il Mercato Di Pasta,41.14184146830997,-8.636660944216608,Italian Restaurant
235,41.143614285714285,-8.634814285714285,39,25,4d9630e761a3a1cdb9f69542,O Caseirinho,41.145913662756456,-8.631146240230557,Portuguese Restaurant
236,41.143614285714285,-8.634814285714285,39,26,5dfa7cacf3df6f000841eb45,Italian Republic,41.141814,-8.636657,Italian Restaurant
237,41.143614285714285,-8.634814285714285,39,27,57af72b4498ef62ed7632ffa,lampreia encomenende,41.145645,-8.630468,Portuguese Restaurant
238,41.143614285714285,-8.634814285714285,39,28,4ce43f04e1dba35d180c7b88,Pasta Caffé,41.1418326639355,-8.636641755747288,Italian Restaurant
239,41.143614285714285,-8.634814285714285,39,29,4c51706ad797e21e7e9d077c,Brasa Rio,41.141901314341105,-8.636587176198253,Brazilian Restaurant
240,41.143614285714285,-8.634814285714285,39,30,4cc88ca1d063a143bd1b08b4,Joshua's Shoarma Grill,41.14186821167265,-8.636634210156421,Falafel Restaurant
241,41.143614285714285,-8.634814285714285,39,31,531b85c3498e567c68e15d7b,Taberna do Zé do Telhado,41.1436,-8.630353,Portuguese Restaurant
242,41.143614285714285,-8.634814285714285,39,32,554fbb75498e28648cf6393e,Alameda 33,41.14734,-8.632613,Portuguese Restaurant
243,41.143614285714285,-8.634814285714285,39,33,4f842227e4b0f13eb5297d7b,Carequinha,41.14595211984545,-8.630974415503186,Portuguese Restaurant
244,41.143614285714285,-8.634814285714285,39,34,4e98294902d5a3943702fa05,Tasca do Rio,41.14580725913563,-8.631063845768374,Portuguese Restaurant
245,41.143614285714285,-8.634814285714285,39,35,4eb44d6b9adf1152732da018,Quasi Pronto,41.14176,-8.636541,Italian Restaurant
246,41.143614285714285,-8.634814285714285,39,36,56605a12498ec9004b6d04ac,Casa Nelinha,41.1456413269043,-8.630186080932617,Portuguese Restaurant
247,41.143614285714285,-8.634814285714285,39,37,50fb0285e4b064cc81b944c6,budegao,41.142026127137996,-8.636548176074205,Portuguese Restaurant
248,41.143614285714285,-8.634814285714285,39,38,53a87d76498e1892c2ebdabd,Casulinho,41.14636993408203,-8.630105018615723,Portuguese Restaurant
249,41.143614285714285,-8.621242857142857,50,0,5a3c242b6adbf53a1c3b013e,Mistu,41.142171,-8.616185,Mediterranean Restaurant
250,41.143614285714285,-8.621242857142857,50,1,4f96ca46e4b0d668006aef40,Taberna Sto. António,41.1433281940464,-8.618149156049935,Portuguese Restaurant
251,41.143614285714285,-8.621242857142857,50,2,4c6c3e7e99b9236aa508e2c9,O Caraças,41.143060468671024,-8.61753855889617,Mediterranean Restaurant
252,41.143614285714285,-8.621242857142857,50,3,57810787cd10e88169ac3ca4,Bota & Bira,41.14238,-8.616225,Portuguese Restaurant
253,41.143614285714285,-8.621242857142857,50,4,5d4aebdcaa887a0008a0e195,Farinha Pizza&Pasta,41.14425,-8.617441,Italian Restaurant
254,41.143614285714285,-8.621242857142857,50,5,559ebd35498e8ede601b3b50,Vime,41.14074007158109,-8.616784199603389,Portuguese Restaurant
255,41.143614285714285,-8.621242857142857,50,6,54b1a5e6498e81504d05fb27,SAOM - Restaurante Torreão,41.14290856182269,-8.618272246881654,Portuguese Restaurant
256,41.143614285714285,-8.621242857142857,50,7,5556690d498e9927a5d737f2,Restaurante Árvore,41.1446778586715,-8.618675148351223,Portuguese Restaurant
257,41.143614285714285,-8.621242857142857,50,8,526c38a411d2ca9928c8b223,Taberna d'Avó,41.14434067535363,-8.615727691725295,Portuguese Restaurant
258,41.143614285714285,-8.621242857142857,50,9,584b250c0319b8761ca5a247,Dona Porto,41.146336,-8.616927,Mediterranean Restaurant
259,41.143614285714285,-8.621242857142857,50,10,4c5ab014f346c928cb884fca,Assador Típico,41.14748920060093,-8.621012009695725,BBQ Joint
260,41.143614285714285,-8.621242857142857,50,11,57ed8587498ea73594d18206,Adega Mercearia,41.142615,-8.616541,Portuguese Restaurant
261,41.143614285714285,-8.621242857142857,50,12,59cec674b3c9615ae3ba2da0,Tasca da Langarica,41.143011,-8.616826,Portuguese Restaurant
262,41.143614285714285,-8.621242857142857,50,13,501d5c6be4b067f6accbe697,Alfândega Douro,41.14404478373229,-8.622246698032352,Portuguese Restaurant
263,41.143614285714285,-8.621242857142857,50,14,5150c17de4b02da12bba7c4d,O Fado,41.14228795607168,-8.617670371531998,Portuguese Restaurant
264,41.143614285714285,-8.621242857142857,50,15,59235a847564f757e0154a50,El Argento,41.142536,-8.616929,Argentinian Restaurant
265,41.143614285714285,-8.621242857142857,50,16,57235164498eed7a4fe6c474,Casa Virtude,41.144276,-8.618224,Mediterranean Restaurant
266,41.143614285714285,-8.621242857142857,50,17,58e451919f8b867cd039fd9e,Taberna Real do Fado,41.144108,-8.617561,Music Venue
267,41.143614285714285,-8.621242857142857,50,18,5abfe0ba97cf5a6f51269ee4,Gion,41.142405,-8.615743,Japanese Restaurant
268,41.143614285714285,-8.621242857142857,50,19,5633e1ac498ef882ef352d8c,Belos Aires,41.142553089659614,-8.616697792333818,Argentinian Restaurant
269,41.143614285714285,-8.621242857142857,50,20,4e628d1fd22d509a39ae8bce,Papavinhos,41.144558306308035,-8.624530030057231,Portuguese Restaurant
270,41.143614285714285,-8.621242857142857,50,21,522b8e4011d23abbabcdbf6b,Cordoaria,41.14660266104501,-8.617390750954893,Portuguese Restaurant
271,41.143614285714285,-8.621242857142857,50,22,501598d6e4b01bcdb2d0ad53,A Vindimeira,41.142581767909526,-8.617025689808003,Portuguese Restaurant
272,41.143614285714285,-8.621242857142857,50,23,593992feee712035b1f75b7a,Backson's,41.142415,-8.619902,Tapas Restaurant
273,41.143614285714285,-8.621242857142857,50,24,53e21c7c498e76aefc08b305,A'gosto no Porto,41.14116287231445,-8.618228912353516,Portuguese Restaurant
274,41.143614285714285,-8.621242857142857,50,25,56f8196c498e9408374626b1,Restaurante Chez Dany,41.142049,-8.619368,Portuguese Restaurant
275,41.143614285714285,-8.621242857142857,50,26,58b046c7febfbd2e0eda564d,Capela 51 (sem Nome Na Frente),41.14335,-8.61764,Portuguese Restaurant
276,41.143614285714285,-8.621242857142857,50,27,55af946f498e84de29d9a733,Herdade Do Peso,41.14109802246094,-8.617232322692871,Portuguese Restaurant
277,41.143614285714285,-8.621242857142857,50,28,4f6e30d1e4b0d638a1c3be5a,republica da Cerveja,41.14109893438277,-8.618056455194976,Portuguese Restaurant
278,41.143614285714285,-8.621242857142857,50,29,4e346b16d4c0634348231d6a,Retiro do Jardim,41.14653103425056,-8.617369905456515,Portuguese Restaurant
279,41.143614285714285,-8.621242857142857,50,30,4ccede87c9b84688cb18cbc3,Cafetaria Taparia Lapausa,41.141061,-8.617774,Tapas Restaurant
280,41.143614285714285,-8.621242857142857,50,31,50c1e429e4b08b77f9016d65,Churrasqueira Brasil,41.14460102632114,-8.61637610003263,Portuguese Restaurant
281,41.143614285714285,-8.621242857142857,50,32,581c609003fcb4100cb9b90c,Conversas Vadias,41.142174,-8.61584,Portuguese Restaurant
282,41.143614285714285,-8.621242857142857,50,33,5c8d6ebb5d891b002cf0a4af,Sobre o Rio,41.142075,-8.61929,Portuguese Restaurant
283,41.143614285714285,-8.621242857142857,50,34,57f965c9498e8ced1c61cb38,Conversa Fiada,41.142395,-8.615786,Japanese Restaurant
284,41.143614285714285,-8.621242857142857,50,35,5918b2803b830737b34c98eb,Cafe Gold Fluss Retiro,41.141297,-8.617114,Fast Food Restaurant
285,41.143614285714285,-8.621242857142857,50,36,5e455ddcfd7bac000738d6b1,BoomBare Bistrô,41.143063,-8.61751,Portuguese Restaurant
286,41.143614285714285,-8.621242857142857,50,37,52c742f911d217ba2a566d92,As 7 Maravilhas,41.14293036798402,-8.617401464584264,Tapas Restaurant
287,41.143614285714285,-8.621242857142857,50,38,4c4f3638a7351b8da337bd92,Porto & Vírgula,41.14652025838458,-8.617174935202819,Portuguese Restaurant
288,41.143614285714285,-8.621242857142857,50,39,4d45b92c1ed56dcb6e1ebe54,Taberna Barqueiro,41.14338180966444,-8.621535391287098,Tapas Restaurant
289,41.143614285714285,-8.621242857142857,50,40,503cb5dae4b0824848289898,Sabores de Moçambique,41.1439456812025,-8.617031058341613,African Restaurant
290,41.143614285714285,-8.621242857142857,50,41,53402857498e10d748fb767a,Elisinha,41.144382,-8.623407,Portuguese Restaurant
291,41.143614285714285,-8.621242857142857,50,42,50966612e4b0f7170392ee09,Tia Orlanda - Sabores Moçambicanos,41.143935178800525,-8.617035493949603,African Restaurant
292,41.143614285714285,-8.621242857142857,50,43,4cd9b1d9a99d3704f6a60cce,O Bom Talher,41.1416022606075,-8.616778737670789,Portuguese Restaurant
293,41.143614285714285,-8.621242857142857,50,44,570952ef498e66a61ecbdd25,WeePorto,41.141853,-8.618816,Portuguese Restaurant
294,41.143614285714285,-8.621242857142857,50,45,4c8a9c2d6418a1435d71e1ce,Katsu Sushi Bar,41.14243370794555,-8.615734568510577,Sushi Restaurant
295,41.143614285714285,-8.621242857142857,50,46,54e22275498ebc55e48159bc,Tasca caseira,41.142560101242935,-8.617010568151978,Taverna
296,41.143614285714285,-8.621242857142857,50,47,4cbc3ba29552b60c0038e48b,La Pausa,41.14097796684709,-8.617607225466406,Tapas Restaurant
297,41.143614285714285,-8.621242857142857,50,48,583a19c592789f3da667437d,marcel&georges,41.14463,-8.617286,French Restaurant
298,41.143614285714285,-8.621242857142857,50,49,55f5c4ca498e079402d714d5,Árvore Restaurante,41.14472948403221,-8.61839085817337,Portuguese Restaurant
299,41.143614285714285,-8.607671428571427,50,0,4b963f73f964a5204dc234e3,Majestic Café,41.147125,-8.606598,Coffee Shop
300,41.143614285714285,-8.607671428571427,50,1,4bcf66c6caff95210b19cdf0,Café Santiago,41.14659311746831,-8.604849461192186,Portuguese Restaurant
301,41.143614285714285,-8.607671428571427,50,2,53a4ba6b498ea256c92c6632,Tapabento,41.145944249256154,-8.610081373615579,Tapas Restaurant
302,41.143614285714285,-8.607671428571427,50,3,5b69cbed2f97ec002ca5e931,Gazela Entreparedes,41.144935,-8.60635,Snack Place
303,41.143614285714285,-8.607671428571427,50,4,53fe59ad498ef901892e41aa,Cantinho do Avillez,41.14323011596845,-8.613508362207074,Portuguese Restaurant
304,41.143614285714285,-8.607671428571427,50,5,590331e10802d42c652e95d5,Brasão Cervejaria Coliseu,41.14664549431399,-8.604848758990334,Portuguese Restaurant
305,41.143614285714285,-8.607671428571427,50,6,50b0d36be4b006275426a5c1,Lado B,41.14678042538816,-8.60552161437185,Portuguese Restaurant
306,41.143614285714285,-8.607671428571427,50,7,5d962353e78e600007c56ec8,Sagardi Porto,41.141121,-8.610097,Spanish Restaurant
307,41.143614285714285,-8.607671428571427,50,8,59fc9cbfc47cf96da8aee72f,terra nova,41.140276,-8.611472,Portuguese Restaurant
308,41.143614285714285,-8.607671428571427,50,9,5d17555b1feae30023bedc40,Tex Mex Factory,41.143388,-8.608052,Mexican Restaurant
309,41.143614285714285,-8.607671428571427,50,10,551f030b498e53cb58617a41,Ribeira's,41.140583558799705,-8.61200977593321,Wine Bar
310,41.143614285714285,-8.607671428571427,50,11,5d34dc42a43dbc00088758c8,Tasquinha Do Canto,41.145014,-8.612294,Tapas Restaurant
311,41.143614285714285,-8.607671428571427,50,12,54e5d164498e739f7a7c9bae,Shiko,41.14337192420137,-8.607976663002932,Japanese Restaurant
312,41.143614285714285,-8.607671428571427,50,13,58148f3d38faad3787da8c4d,CAL foods and drinks,41.142647112886024,-8.610185301329205,Portuguese Restaurant
313,41.143614285714285,-8.607671428571427,50,14,53bb024c498e617a4c423e75,éLeBê,41.146329011659745,-8.604635688982196,Portuguese Restaurant
314,41.143614285714285,-8.607671428571427,50,15,5b44d6e3d552c7002c67a2cc,Semea by Euskalduna,41.144617,-8.612728,Portuguese Restaurant
315,41.143614285714285,-8.607671428571427,50,16,565d9a7b498e0693f2de9b86,Tokyo Sushi,41.14436167039815,-8.605880443020606,Sushi Restaurant
316,41.143614285714285,-8.607671428571427,50,17,57bdd3f6498e911fceac443e,Cantinho dos Bragança,41.14627373108781,-8.603524623960825,Tapas Restaurant
317,41.143614285714285,-8.607671428571427,50,18,4cbee24b9ca854814e19b316,Costume Bistrô,41.14682384541946,-8.610319827738223,Mediterranean Restaurant
318,41.143614285714285,-8.607671428571427,50,19,4e445005d22de4060ef45e58,Restaurante Chinês,41.14238597126421,-8.610122014925116,Chinese Restaurant
319,41.143614285714285,-8.607671428571427,50,20,5c6d0b918c812a002c4e39ec,Elemento,41.146167,-8.612196,BBQ Joint
320,41.143614285714285,-8.607671428571427,50,21,54e2657b498e81ce00f665cf,Raiz,41.145745,-8.612328,Portuguese Restaurant
321,41.143614285714285,-8.607671428571427,50,22,58e79825876ade0d73c6c4ba,Bodeguita,41.144677,-8.612131,Tapas Restaurant
322,41.143614285714285,-8.607671428571427,50,23,53d63574498e87e251d6a04e,Estambul Döner Kebap & Pizza,41.146834986739236,-8.61074542242453,Turkish Restaurant
323,41.143614285714285,-8.607671428571427,50,24,52b1a504498eff895090af4b,Maria Rita,41.14683222124956,-8.603918014741287,Portuguese Restaurant
324,41.143614285714285,-8.607671428571427,50,25,4ee3eb9bf790897ecff119e1,Trásca,41.14593675743193,-8.612695226577792,Tapas Restaurant
325,41.143614285714285,-8.607671428571427,50,26,5d7a3149b0aa4b00080bdf2a,taberna-rio,41.140619,-8.611226,Portuguese Restaurant
326,41.143614285714285,-8.607671428571427,50,27,4f7f5adfe4b0f67485c3e623,Avenida Café e Restaurante,41.14642273936514,-8.611521149267276,Portuguese Restaurant
327,41.143614285714285,-8.607671428571427,50,28,4f44c220e4b0b7292ecda600,O Rápido,41.145969,-8.609802,Portuguese Restaurant
328,41.143614285714285,-8.607671428571427,50,29,4c13854da1010f4791b34a18,Abadia do Porto,41.147989413423694,-8.60779803149253,Portuguese Restaurant
329,41.143614285714285,-8.607671428571427,50,30,52837c9f498eb4e400770bfc,Dama Pé De Cabra,41.14580548549227,-8.603215076761709,Wine Bar
330,41.143614285714285,-8.607671428571427,50,31,542ea24b498e1eab1cbc7c5d,ÉLoi'os Café & Snack,41.14471438223431,-8.612389549610835,Portuguese Restaurant
331,41.143614285714285,-8.607671428571427,50,32,4d69690b342b8cfab79ec82c,Avó Maria,41.14062542016928,-8.61151377606343,Portuguese Restaurant
332,41.143614285714285,-8.607671428571427,50,33,5b250c60db1d810039160578,Tasquinha Dos Lóios,41.1448,-8.612388,Portuguese Restaurant
333,41.143614285714285,-8.607671428571427,50,34,592b12da9cadd905283915c6,Restaurante KAPADOKYA,41.144872,-8.607187,Turkish Restaurant
334,41.143614285714285,-8.607671428571427,50,35,5d876f28229a240008ac7c13,Tradiswiss,41.145966,-8.607032,Swiss Restaurant
335,41.143614285714285,-8.607671428571427,50,36,5d46f211e0ab5b0007063bbf,Em Canto,41.144617,-8.612009,Mediterranean Restaurant
336,41.143614285714285,-8.607671428571427,50,37,50df1bdbe4b0bc86a4835b85,Linha 22,41.145921911839174,-8.612756217997005,Tapas Restaurant
337,41.143614285714285,-8.607671428571427,50,38,570aadd4498e9396ad176732,Kanpai Downtown,41.144654508757846,-8.611645401988033,Asian Restaurant
338,41.143614285714285,-8.607671428571427,50,39,5457e9d1498e2030915c19d1,Sol e Sombra,41.146443131453864,-8.604437519014834,Portuguese Restaurant
339,41.143614285714285,-8.607671428571427,50,40,594fa676747ecd052c87c1c9,Concept 31,41.14465,-8.612433,Portuguese Restaurant
340,41.143614285714285,-8.607671428571427,50,41,4d0b68409a4437041b66b967,La Ricotta,41.147364347591235,-8.608413033208615,Italian Restaurant
341,41.143614285714285,-8.607671428571427,50,42,4cf11a4d1d18a143bbe950ec,Adega Vila Meã,41.1453146849984,-8.6127715235259,Portuguese Restaurant
342,41.143614285714285,-8.607671428571427,50,43,5afaca59c824ae002cca91f4,Cais 35,41.140591,-8.611708,Sushi Restaurant
343,41.143614285714285,-8.607671428571427,50,44,522f251411d2da60eb3af76d,Casa Cana Verde,41.1452900076568,-8.613181916823688,Portuguese Restaurant
344,41.143614285714285,-8.607671428571427,50,45,4e2b4802227197a112d86d31,Flor dos Congregados,41.146939,-8.610213,Portuguese Restaurant
345,41.143614285714285,-8.607671428571427,50,46,599ae3f4780eee45bc70bc41,Japo - Tokyo Flavours,41.143262,-8.608091,Ramen Restaurant
346,41.143614285714285,-8.607671428571427,50,47,5443e918498ec84e4310e3be,Bai no batalha,41.146270751953125,-8.605436325073242,Polish Restaurant
347,41.143614285714285,-8.607671428571427,50,48,5a3bbfda0531e85f7d82ac00,Porto À Prova,41.14657,-8.603789,Tapas Restaurant
348,41.143614285714285,-8.607671428571427,50,49,597df97cbd40092a304e50fc,Trigo De Cantos,41.145983,-8.603654,Portuguese Restaurant
349,41.143614285714285,-8.5941,14,0,5f494e86ede93f1b1620a5f4,Ondo Korean Kitchen,41.143141,-8.598287,Korean Restaurant
350,41.143614285714285,-8.5941,14,1,4defa6b5887754a6af9812d5,O Xico dos Presuntos,41.14656310362041,-8.592229595305984,Portuguese Restaurant
351,41.143614285714285,-8.5941,14,2,53623224498e118252a3c9a0,O Cheirinho,41.146337,-8.594093,Portuguese Restaurant
352,41.143614285714285,-8.5941,14,3,5cdac12efe3740002cf510f1,Villaggio,41.145737,-8.598663,Italian Restaurant
353,41.143614285714285,-8.5941,14,4,4cc9710bb3f5224b7aa5f420,Restaurante Rogério do Redondo,41.14453874449765,-8.598957349502239,Portuguese Restaurant
354,41.143614285714285,-8.5941,14,5,587385492ec3647fad2c2a78,Madureira,41.14595388190552,-8.596364182349818,Portuguese Restaurant
355,41.143614285714285,-8.5941,14,6,4b3b6ff9f964a520c97325e3,A Cozinha do Manel,41.1461957837337,-8.592845854169498,Portuguese Restaurant
356,41.143614285714285,-8.5941,14,7,4cac3b7aa643b7138fceeaa6,Restaurante Marinho,41.146288161623765,-8.593905870004363,Portuguese Restaurant
357,41.143614285714285,-8.5941,14,8,576c417e498e6c4526bfcb1d,Café S. Victor,41.142143,-8.596698,Portuguese Restaurant
358,41.143614285714285,-8.5941,14,9,4ebd946fd3e38e6b0c3b7aba,Filó,41.14327114521015,-8.600006997585297,African Restaurant
359,41.143614285714285,-8.5941,14,10,5777d6b4498e3d884f6c3379,João Da Ponte,41.1401252746582,-8.594096183776855,Portuguese Restaurant
360,41.143614285714285,-8.5941,14,11,57ed1939498e1a4fcf3eda18,O Fintas,41.140236,-8.591856,Portuguese Restaurant
361,41.143614285714285,-8.5941,14,12,53b1b484498ee97614311938,Pipa's wine & tapas,41.14008957154843,-8.597320352893645,Tapas Restaurant
362,41.143614285714285,-8.5941,14,13,58a2ffe99435a966cdfaeb63,Novo Barão,41.146656,-8.592098,Portuguese Restaurant
363,41.143614285714285,-8.580528571428571,2,0,5114f636e4b0592c832297cf,Buraquinho do Freixo,41.13952382417355,-8.579691327918257,Portuguese Restaurant
364,41.143614285714285,-8.580528571428571,2,1,5edbbb0501648d0008159e78,Adega São Pedro,41.144641,-8.576863,Portuguese Restaurant
365,41.143614285714285,-8.566957142857142,1,0,53ecd8db498eb8e575a6792a,Quinta dos Sabores,41.14145474840289,-8.563251991572901,Portuguese Restaurant
366,41.143614285714285,-8.553385714285714,3,0,5c38ae615bc27d0025fe0a6c,Assador Grelhador,41.142688,-8.547778,Portuguese Restaurant
367,41.143614285714285,-8.553385714285714,3,1,58d449e58ae363576d756285,Arte da Francesinha,41.143263,-8.555441,Portuguese Restaurant
368,41.143614285714285,-8.553385714285714,3,2,55b8b80f498e936a18c19cfc,Tasquinha S.José,41.14448509901026,-8.555516434785943,Portuguese Restaurant
369,41.143614285714285,-8.539814285714284,3,0,52192b8911d22d0e8fa34cf6,O Monte,41.1421307198776,-8.536162645467234,Café
370,41.143614285714285,-8.539814285714284,3,1,4e7cfbb1754ac7ef24188304,Restaurante Cozinha da Avó,41.14429319770136,-8.535907566547394,Portuguese Restaurant
371,41.143614285714285,-8.539814285714284,3,2,54620f0b498e9df08d62221c,Basho Sushi House,41.14386209541846,-8.53531222593079,Sushi Restaurant
372,41.143614285714285,-8.512671428571426,1,0,58029b1238fa810128770612,casa da eira de tardariz,41.144374,-8.510371,Portuguese Restaurant
373,41.15313809523809,-8.675528571428572,28,0,4f0701ede4b071c573f40812,A Capoeira,41.149610096516135,-8.674402644720884,Portuguese Restaurant
374,41.15313809523809,-8.675528571428572,28,1,5129159ae4b01bb7571ace45,Bar Tolo,41.150676301666344,-8.676353466793044,Tapas Restaurant
375,41.15313809523809,-8.675528571428572,28,2,51c848f3498e89b9acc8a5da,Portarossa,41.156613783619704,-8.67660846837424,Italian Restaurant
376,41.15313809523809,-8.675528571428572,28,3,4b972c5af964a52004fb34e3,Varanda do Sol,41.15186740179614,-8.67735255191466,Portuguese Restaurant
377,41.15313809523809,-8.675528571428572,28,4,4e96001db803f7b4a4af80cb,Tentações no Prato,41.15023839879729,-8.675640357824598,Portuguese Restaurant
378,41.15313809523809,-8.675528571428572,28,5,5c9bc4521c0b34002c3c6c2f,Francesinha,41.150886,-8.676521,Portuguese Restaurant
379,41.15313809523809,-8.675528571428572,28,6,4f319ff6e4b09c2f0fb09618,Restaurante Gerações,41.15118465033426,-8.677128597121833,Portuguese Restaurant
380,41.15313809523809,-8.675528571428572,28,7,4d0d21dabdbfa35d83dd6772,Restaurante Clik,41.154065,-8.676308,Mediterranean Restaurant
381,41.15313809523809,-8.675528571428572,28,8,4c6aefcc9669e21ef4daa951,A Popular da Foz,41.15043066666696,-8.676150761547198,Portuguese Restaurant
382,41.15313809523809,-8.675528571428572,28,9,52a24b6d498e860505ba7618,Petiscos da Bairro,41.151175708310475,-8.67688682342849,Portuguese Restaurant
383,41.15313809523809,-8.675528571428572,28,10,4c71accb8efc37049926117d,Museu dos Presuntos,41.149943524046506,-8.673309467865476,Tapas Restaurant
384,41.15313809523809,-8.675528571428572,28,11,538a4c0a498e34b97ad16d78,Café Mercado da Foz,41.154771,-8.674414,Portuguese Restaurant
385,41.15313809523809,-8.675528571428572,28,12,54c24af5498e7f0ab6a9c2b1,Sushi & Douro,41.15203199533106,-8.676551552404375,Japanese Restaurant
386,41.15313809523809,-8.675528571428572,28,13,5391aed5498e6350ffc10b16,Restaurante Cêpa,41.151250892716206,-8.671379962559284,Portuguese Restaurant
387,41.15313809523809,-8.675528571428572,28,14,5476575f498e9aff3d7b92da,Kayo,41.15295506777463,-8.670204370855126,Sushi Restaurant
388,41.15313809523809,-8.675528571428572,28,15,5033fa71e4b0438ad975c3f6,Taberninha da D. Maria,41.155279,-8.67875,Portuguese Restaurant
389,41.15313809523809,-8.675528571428572,28,16,554a0d36498e96a2b24dc690,Pratos Pedidos,41.154691,-8.674401,Portuguese Restaurant
390,41.15313809523809,-8.675528571428572,28,17,569f9a81498e90a5b7ccc05b,Tentacles a Mesa,41.15033,-8.67609,Portuguese Restaurant
391,41.15313809523809,-8.675528571428572,28,18,4d1357f7d1848cfa570ec371,Restaurante Refúgio,41.14986608604285,-8.675463060485002,Portuguese Restaurant
392,41.15313809523809,-8.675528571428572,28,19,4d70f24d766da1434e2756ad,Neka Nau,41.150710312843664,-8.6762582153957,Portuguese Restaurant
393,41.15313809523809,-8.675528571428572,28,20,4d3c26c1a2e4b1f71dade625,Av Brasil 66 Café,41.153199,-8.678427,Italian Restaurant
394,41.15313809523809,-8.675528571428572,28,21,4d0fcb5059606dcb3bec703e,Cêpa Torta,41.15130748474101,-8.676727131641949,Portuguese Restaurant
395,41.15313809523809,-8.675528571428572,28,22,544a5345498e56fb6ba59a85,Informal,41.15105255516971,-8.676929805362668,Portuguese Restaurant
396,41.15313809523809,-8.675528571428572,28,23,57fe1db1cd106608b325ac4f,Porto.Come,41.14991622134804,-8.673432469367981,Portuguese Restaurant
397,41.15313809523809,-8.675528571428572,28,24,5ccdf9e2947c05002ccd483b,Dona Picanha Rodizio,41.149926,-8.673585,Brazilian Restaurant
398,41.15313809523809,-8.675528571428572,28,25,4c7c1855566db60c70ae4c0e,Casa da Foz,41.14997029168812,-8.67421279721598,Pizza Place
399,41.15313809523809,-8.675528571428572,28,26,5c705af2625a66002fbfe261,Shiso,41.152807,-8.670154,Sushi Restaurant
400,41.15313809523809,-8.675528571428572,28,27,4e36acebd4c06343483a391c,Casa Rocha,41.15251347534397,-8.677860796451569,Portuguese Restaurant
401,41.15313809523809,-8.661957142857142,3,0,562cc6bb498e4481d78c7225,Temako,41.155965,-8.663952,Sushi Restaurant
402,41.15313809523809,-8.661957142857142,3,1,4ec141609adfe2b7b6ca16b7,Apetites,41.15591379364101,-8.663705847616894,Portuguese Restaurant
403,41.15313809523809,-8.661957142857142,3,2,4bdae00b63c5c9b61a472568,Melhor Sabor,41.155564499990795,-8.66357737601991,Portuguese Restaurant
404,41.15313809523809,-8.648385714285714,5,0,58e4f198a4367c10626be0f9,Paladares Porto,41.15570032293869,-8.650939464569092,Portuguese Restaurant
405,41.15313809523809,-8.648385714285714,5,1,59a2c7f09be5223fd280b70d,Sardines,41.154457,-8.642765,Portuguese Restaurant
406,41.15313809523809,-8.648385714285714,5,2,4d98a5b30caaa143eba2b1b3,Góshò no Botânico,41.15351398619952,-8.642648634752662,Tea Room
407,41.15313809523809,-8.648385714285714,5,3,4e875c3d823125560f36e947,Jardim d'Inverno Restaurant,41.154236551862006,-8.648863251599002,Portuguese Restaurant
408,41.15313809523809,-8.648385714285714,5,4,4bb254f72397b71311df36b3,Gokobe,41.15519989718273,-8.64811629558269,Japanese Restaurant
409,41.15313809523809,-8.634814285714285,14,0,4b7807eff964a520c8b22ee3,Capa Negra II,41.152454846355546,-8.630532230373968,Portuguese Restaurant
410,41.15313809523809,-8.634814285714285,14,1,59830e2ca9e40278fd290c32,IKEDA Japanese Cuisine,41.152521,-8.631528,Japanese Restaurant
411,41.15313809523809,-8.634814285714285,14,2,5f352385bf1a075d8ddae83a,Olá Vietnam,41.153034,-8.6306305,Vietnamese Restaurant
412,41.15313809523809,-8.634814285714285,14,3,571b95d3498e21de8a8e296c,Alibi Botica,41.15231151527008,-8.635087609291077,Tapas Restaurant
413,41.15313809523809,-8.634814285714285,14,4,4d514acf4015b1f7a3ae6ecf,Mille Paste,41.15513946773698,-8.629943475498305,Italian Restaurant
414,41.15313809523809,-8.634814285714285,14,5,524beae393cd970d07a0d5a2,FRANGANITO STEAK WINE HOUSE,41.15296990281902,-8.630785346031189,Portuguese Restaurant
415,41.15313809523809,-8.634814285714285,14,6,4c274738136d20a1b8ade661,Alicantina,41.15303211988496,-8.638191239064081,Portuguese Restaurant
416,41.15313809523809,-8.634814285714285,14,7,4e0e3034b61c3fe47801181b,Restaurante Franganito,41.15328488103406,-8.630577072393326,Portuguese Restaurant
417,41.15313809523809,-8.634814285714285,14,8,59ff93ad8496ca4e80cb817c,Senhor Frango Da Guia,41.154972,-8.629583,Caucasian Restaurant
418,41.15313809523809,-8.634814285714285,14,9,5746f3bf498e86403552f693,Alibi,41.152408,-8.635155,Portuguese Restaurant
419,41.15313809523809,-8.634814285714285,14,10,4e539c66ae606f5737a05669,Allegro Gourmet: Alimentação Inteligente,41.155765772339585,-8.638363964577168,Mediterranean Restaurant
420,41.15313809523809,-8.634814285714285,14,11,4c56cd52af95b713d328d057,Campo Alegre,41.152676777089894,-8.633449802278177,Portuguese Restaurant
421,41.15313809523809,-8.634814285714285,14,12,550de665498efb35339bde2d,Cozinha d'Amélia,41.152753,-8.637397,Portuguese Restaurant
422,41.15313809523809,-8.634814285714285,14,13,51bcedd2498ec72ac403cc0d,Bom Sucesso Gourmet,41.15174579580827,-8.640140728756252,Portuguese Restaurant
423,41.15313809523809,-8.621242857142857,44,0,5911b517286fda16f5bd967c,Bao's Taiwanese Burger,41.15161106775398,-8.617673287412675,Burger Joint
424,41.15313809523809,-8.621242857142857,44,1,4bf1ae18324cc9b66e52cc92,Cervejaria Diu,41.15640433764642,-8.621104596903333,Portuguese Restaurant
425,41.15313809523809,-8.621242857142857,44,2,58bf14dae0adac7fd284f849,Dona Arepa,41.151114,-8.617586,Arepa Restaurant
426,41.15313809523809,-8.621242857142857,44,3,5638b201cd102f70582c81e2,Presunção e Água Benta,41.15594361621172,-8.620968255244637,Portuguese Restaurant
427,41.15313809523809,-8.621242857142857,44,4,4e444cf4b0fb71d219808b38,O Afonso,41.15272193168678,-8.62178188338423,Portuguese Restaurant
428,41.15313809523809,-8.621242857142857,44,5,4c5133979426c92842ee5573,Café Célia,41.149735,-8.620755,Café
429,41.15313809523809,-8.621242857142857,44,6,5345ae6b498e999a961ffc36,Frida,41.14996594241627,-8.62300139559637,Mexican Restaurant
430,41.15313809523809,-8.621242857142857,44,7,5ba404abe0c0c9002c08d673,Lapamaki,41.155543,-8.618584,Japanese Restaurant
431,41.15313809523809,-8.621242857142857,44,8,56e5ae4c498e9430419a7e26,Apartamento,41.156032589346836,-8.619487755653854,Creperie
432,41.15313809523809,-8.621242857142857,44,9,5054e7b9e4b02f6114784db9,Sabores do Sebouh,41.15010773485065,-8.617379901199715,Syrian Restaurant
433,41.15313809523809,-8.621242857142857,44,10,516fe4e6e4b0198bb1b68746,Sambru,41.149554694535716,-8.624397042588694,Portuguese Restaurant
434,41.15313809523809,-8.621242857142857,44,11,56262fd5498e50b91cfb7482,1858,41.15300750732422,-8.61829948425293,Modern European Restaurant
435,41.15313809523809,-8.621242857142857,44,12,583e0c5e92789f3f87e365ce,Oficina,41.149873,-8.620376,Portuguese Restaurant
436,41.15313809523809,-8.621242857142857,44,13,5cb09b64acb00b002c002658,VietView,41.154,-8.6186075,Vietnamese Restaurant
437,41.15313809523809,-8.621242857142857,44,14,4eb199ed0aafa4370d228d7c,Indian Tandoori,41.15077362597409,-8.617187962291714,Indian Restaurant
438,41.15313809523809,-8.621242857142857,44,15,556a13d8498e4f2378e04855,Kayo #2,41.15535346310305,-8.619779797211184,Japanese Restaurant
439,41.15313809523809,-8.621242857142857,44,16,506dee22e4b066d6fd43ed75,Tasquinha das Artes,41.150688,-8.621262,Portuguese Restaurant
440,41.15313809523809,-8.621242857142857,44,17,5675c7f3498ed7a0206a90f4,Ranchão,41.152618,-8.616907,Portuguese Restaurant
441,41.15313809523809,-8.621242857142857,44,18,580a4dd438fa4d664d6f3bd0,7 Francesinhas,41.150227,-8.622928,Portuguese Restaurant
442,41.15313809523809,-8.621242857142857,44,19,5eff2242f381b900070746cb,Siktak,41.152555,-8.617614,Korean Restaurant
443,41.15313809523809,-8.621242857142857,44,20,5c686b3035d3fc00391d5011,Capim Dourado,41.15171,-8.617602,Brazilian Restaurant
444,41.15313809523809,-8.621242857142857,44,21,5b7dd6b489b06a002cf0ca60,Moules Porto,41.14985967034977,-8.619466423988342,Belgian Restaurant
445,41.15313809523809,-8.621242857142857,44,22,51a639a4498e3a0a6868695a,Primeiro Frente,41.1525,-8.62,Greek Restaurant
446,41.15313809523809,-8.621242857142857,44,23,509194efe4b0e6b4438f097a,Broadway Boogie Woogie,41.149285609984744,-8.623693699951174,Brazilian Restaurant
447,41.15313809523809,-8.621242857142857,44,24,52e8f8ef11d201ebc2c925ee,Si Rosé,41.150392,-8.616999,Tapas Restaurant
448,41.15313809523809,-8.621242857142857,44,25,50c1eb02e4b065b6f149e8e0,O Barão,41.156501,-8.619501,Portuguese Restaurant
449,41.15313809523809,-8.621242857142857,44,26,5379f617498e5bd0eec6741d,Sabores & Açores,41.149045448442635,-8.620332778139556,Portuguese Restaurant
450,41.15313809523809,-8.621242857142857,44,27,5589489b498e8c56754231a0,Pregos no Porto,41.15277236466026,-8.62166583184214,Portuguese Restaurant
451,41.15313809523809,-8.621242857142857,44,28,55a976e7498e00ffd75607d6,Kalutita,41.15637263834728,-8.619280507197628,African Restaurant
452,41.15313809523809,-8.621242857142857,44,29,4fb418fb6d8660d8e082bdbc,Adega do Bernardo,41.152565984861276,-8.620083332061768,Portuguese Restaurant
453,41.15313809523809,-8.621242857142857,44,30,4d0d25de3bbaa14374f93ada,Corça,41.153394,-8.623801,Mediterranean Restaurant
454,41.15313809523809,-8.621242857142857,44,31,5845619c668af751c236b9c3,Don Jamón,41.152711395612755,-8.61828088760376,Spanish Restaurant
455,41.15313809523809,-8.621242857142857,44,32,5b224f796f0aa2002dd75add,La Fontana,41.152253,-8.61786,Italian Restaurant
456,41.15313809523809,-8.621242857142857,44,33,57fa3a8e498e83e37813ec76,Tasca das Tapas,41.149996,-8.617846,Mediterranean Restaurant
457,41.15313809523809,-8.621242857142857,44,34,52d7d84b498ebae08a2ef90e,Comipronto,41.15629959106445,-8.619609832763672,Portuguese Restaurant
458,41.15313809523809,-8.621242857142857,44,35,5cd96518e96d0c002cadd8c3,Surya,41.154068,-8.618499,Asian Restaurant
459,41.15313809523809,-8.621242857142857,44,36,588d146f0393cc517ecb48dc,Casa Ferreira,41.150867,-8.620584,Portuguese Restaurant
460,41.15313809523809,-8.621242857142857,44,37,5299061f498e1161362bcb28,Cantina Da Broadway,41.149258,-8.623681,Brazilian Restaurant
461,41.15313809523809,-8.621242857142857,44,38,4f0d9344e4b03684a478a90c,Breyner Confeitaria,41.151501735424056,-8.61804571798368,Portuguese Restaurant
462,41.15313809523809,-8.621242857142857,44,39,5c4cfa76a4ba7c002c11c2cd,Sabores Da Amazônia,41.150064,-8.617666,Brazilian Restaurant
463,41.15313809523809,-8.621242857142857,44,40,51ac7b20498e38cf60340a06,A Pasta,41.156580413382414,-8.621029048050136,Italian Restaurant
464,41.15313809523809,-8.621242857142857,44,41,550dd547498e35229cce0170,Adega Figueiroa,41.155339853849156,-8.619459502132665,Portuguese Restaurant
465,41.15313809523809,-8.621242857142857,44,42,5c55a20361e53b002c322a8f,Curral Dos Petiscos,41.149331,-8.620553,Tapas Restaurant
466,41.15313809523809,-8.621242857142857,44,43,536b3fb5498ed7f5cb778aca,Gallery Hostel Kahvaltı keyfi,41.150108,-8.619701,Portuguese Restaurant
467,41.15313809523809,-8.607671428571427,50,0,4d42c7b91629b60cc3659a89,O Buraco,41.1510943731055,-8.607215473484207,Portuguese Restaurant
468,41.15313809523809,-8.607671428571427,50,1,4c0f90d9d64c0f47ccea295d,Conga - Casa das Bifanas,41.149012019308245,-8.60948419922139,Portuguese Restaurant
469,41.15313809523809,-8.607671428571427,50,2,4babca27f964a520b0c93ae3,Fuji,41.15246295774906,-8.604769195590691,Sushi Restaurant
470,41.15313809523809,-8.607671428571427,50,3,4c2c8b7657a9c9b6388af767,Pedro dos Frangos,41.14885345833712,-8.609370589256287,BBQ Joint
471,41.15313809523809,-8.607671428571427,50,4,56c4f5c9cd105686c4b0bd89,Tás na Praça,41.15359286747787,-8.61336054059455,Portuguese Restaurant
472,41.15313809523809,-8.607671428571427,50,5,52fe2f9c498e787bb6e7ce1a,bbGourmet,41.150298587503976,-8.607450071658004,Portuguese Restaurant
473,41.15313809523809,-8.607671428571427,50,6,5931aece66fc654618893d95,Beher,41.151435,-8.60667,Tapas Restaurant
474,41.15313809523809,-8.607671428571427,50,7,4f96fdf6e4b0c9bdccf9bc22,Sai Cão,41.15383553299581,-8.607831455070079,Portuguese Restaurant
475,41.15313809523809,-8.607671428571427,50,8,510aee03e4b0a910b830adba,Hong Kong Grande Palácio,41.153540886386395,-8.609715485373826,Cantonese Restaurant
476,41.15313809523809,-8.607671428571427,50,9,4d83dfe09324236a60f7ad0e,17º Restaurante & Bar,41.152219800312444,-8.607143809578481,Portuguese Restaurant
477,41.15313809523809,-8.607671428571427,50,10,5da857565a935e0007382f80,Esporão no Porto,41.151545,-8.612268,Wine Bar
478,41.15313809523809,-8.607671428571427,50,11,4bae75adf964a52011b53be3,Bufete Fase,41.15642732345092,-8.604642977534743,Portuguese Restaurant
479,41.15313809523809,-8.607671428571427,50,12,4e315849d4c0b2aebf6f4b1d,Antunes,41.15186808960226,-8.608257224076876,Portuguese Restaurant
480,41.15313809523809,-8.607671428571427,50,13,4dbea4d36a23a3c473a9020e,Meidin,41.15457577038215,-8.604881988328977,Pizza Place
481,41.15313809523809,-8.607671428571427,50,14,568667eb498ef47b316ee1fc,Domo Sushi Porto,41.15066098102636,-8.609423905940956,Japanese Restaurant
482,41.15313809523809,-8.607671428571427,50,15,5482e978498ed4e5d28b52e2,Dom Alkroque,41.1519685813791,-8.605301714964584,Café
483,41.15313809523809,-8.607671428571427,50,16,54709520498e0831c480a733,Taberna do Doutor,41.150825676035424,-8.606037094398967,Portuguese Restaurant
484,41.15313809523809,-8.607671428571427,50,17,5ba4068f1f8ed6002c8fc555,Sushi Rão,41.155178,-8.610105,Sushi Restaurant
485,41.15313809523809,-8.607671428571427,50,18,5afee2d067e5f2002c143fc4,Aquele Tasco,41.149517,-8.604137,Tapas Restaurant
486,41.15313809523809,-8.607671428571427,50,19,4c1b6c718b3aa593341d975f,Império,41.1503218846906,-8.607569855149832,Portuguese Restaurant
487,41.15313809523809,-8.607671428571427,50,20,4f22bc65e4b0502589677520,Wok to Walk,41.14904569272454,-8.605372953149109,Noodle House
488,41.15313809523809,-8.607671428571427,50,21,4fbe2996e4b09f409bf51f36,Metro da Trindade Restaurante,41.15055109045433,-8.610982057823827,Portuguese Restaurant
489,41.15313809523809,-8.607671428571427,50,22,591612074a7aae486ec34a14,Indi Go by Real Indiana,41.14898,-8.605708,Indian Restaurant
490,41.15313809523809,-8.607671428571427,50,23,5b1c2de9e1f0aa002c4ab1b3,Tori - Sushi House,41.155155,-8.610131,Sushi Restaurant
491,41.15313809523809,-8.607671428571427,50,24,5dd01bf536af9400088a007b,Malvón,41.149995,-8.607236,Empanada Restaurant
492,41.15313809523809,-8.607671428571427,50,25,5510627e498ec5fc2921197d,Cala o Bico 2,41.15114912847022,-8.608661973805011,Portuguese Restaurant
493,41.15313809523809,-8.607671428571427,50,26,5a26a6562b98443c22f10c89,Tasqueira Do Bolhão,41.149582,-8.606979,Portuguese Restaurant
494,41.15313809523809,-8.607671428571427,50,27,4d69508f0a25b60c3a372390,Pasta Caffé,41.149121978101114,-8.605462746350092,Italian Restaurant
495,41.15313809523809,-8.607671428571427,50,28,55a4fd5f498e1f362818a444,"Gin & tostas, Tappas & Sushi Bar",41.148954062927636,-8.609145090303313,Portuguese Restaurant
496,41.15313809523809,-8.607671428571427,50,29,4d34b8abeefa8cfaaa7f4db3,Restaurante O Forno,41.15541073457036,-8.604646857505994,Portuguese Restaurant
497,41.15313809523809,-8.607671428571427,50,30,54788f3d498ee58962cf1759,Restaurante Capuchinhos,41.150749,-8.608776,Portuguese Restaurant
498,41.15313809523809,-8.607671428571427,50,31,572b3eb7498ebfc0276d16af,Bem-vindo,41.149441,-8.606946,Portuguese Restaurant
499,41.15313809523809,-8.607671428571427,50,32,4ea9b3edb8f7a50de881ce4e,Kini,41.14992833941272,-8.604896664619446,Asian Restaurant
500,41.15313809523809,-8.607671428571427,50,33,5605b622498ef664cc25e231,Igalhas,41.150502,-8.611214,Portuguese Restaurant
501,41.15313809523809,-8.607671428571427,50,34,4f7d9729e4b0bf87a9b6ff55,Restaurante Lobo,41.1530514947904,-8.608103709668523,Portuguese Restaurant
502,41.15313809523809,-8.607671428571427,50,35,4f5a152ce4b003e0f4169cc4,Restaurante Ginjal Porto,41.153517830547976,-8.608221803751157,Portuguese Restaurant
503,41.15313809523809,-8.607671428571427,50,36,5045f47fe4b08a16a45e8799,Kebab & Co. Express,41.15123452512496,-8.610594458186515,Turkish Restaurant
504,41.15313809523809,-8.607671428571427,50,37,5634afb7498e02e4eb802ff3,La Andaluza,41.15043486997738,-8.605536755825055,Tapas Restaurant
505,41.15313809523809,-8.607671428571427,50,38,57e73a43498e2033eab6a5c2,verloren in de straten van porto,41.154192,-8.603128,Afghan Restaurant
506,41.15313809523809,-8.607671428571427,50,39,4f7990dae4b0e8caa7b4cb82,Taberna Dom Castro,41.157448208779456,-8.607266321137663,Portuguese Restaurant
507,41.15313809523809,-8.607671428571427,50,40,5693a0a0498e732a56b09153,Sıla Turco Cafe,41.15126659722845,-8.612188794713317,Turkish Restaurant
508,41.15313809523809,-8.607671428571427,50,41,53d10281498ee5b4bdb6ced7,Restaurante Chinês King Long,41.1526828482329,-8.608200332014658,Asian Restaurant
509,41.15313809523809,-8.607671428571427,50,42,5012923b8302f1f5faa773e2,Lusiada,41.15544945669003,-8.609999779111087,Portuguese Restaurant
510,41.15313809523809,-8.607671428571427,50,43,4e7b2d25e4cd3bbbdbd4b5eb,Restaurante Almada,41.15029295299882,-8.611968699133351,Portuguese Restaurant
511,41.15313809523809,-8.607671428571427,50,44,5dd0628ee8feee0008540035,Capiche?,41.15507,-8.610199,Italian Restaurant
512,41.15313809523809,-8.607671428571427,50,45,59709ce17269fe3e6beb152d,O Ferreira,41.153713,-8.610897,Portuguese Restaurant
513,41.15313809523809,-8.607671428571427,50,46,5b742adbdb2aeb002c21671f,Apego,41.156646,-8.604509,Modern European Restaurant
514,41.15313809523809,-8.607671428571427,50,47,54a98754498ebc906cb834b5,Restaurante Celta Endovélico,41.152867,-8.608003,Portuguese Restaurant
515,41.15313809523809,-8.607671428571427,50,48,5239ecbb049342d92fb2140d,Restaurante A Rampinha,41.1501020314274,-8.605663776397705,Portuguese Restaurant
516,41.15313809523809,-8.607671428571427,50,49,51d76850e4b00508e92615dd,Copos & Cusquices,41.15071533011709,-8.612024043023464,Tapas Restaurant
517,41.15313809523809,-8.5941,7,0,4c2bb6ec8abca593ae9d0020,Capa Negra,41.15097191632925,-8.594040756671138,Portuguese Restaurant
518,41.15313809523809,-8.5941,7,1,4e4fa5ffc65bb313ba884a19,Pasta-Caffé,41.15282314786038,-8.597674585238973,Italian Restaurant
519,41.15313809523809,-8.5941,7,2,4ea53d564690104bb4b731fe,Cozinha Transmontana,41.15659036243702,-8.591008853129052,Portuguese Restaurant
520,41.15313809523809,-8.5941,7,3,4c2ca56b2219c9281166a648,Café Académico,41.150984,-8.59392,Mediterranean Restaurant
521,41.15313809523809,-8.5941,7,4,52e117bb11d20577a00ba8e1,Roda da Mula,41.150635427366495,-8.59288722092981,Portuguese Restaurant
522,41.15313809523809,-8.5941,7,5,5d3eec9f761b9d000815f5c7,O Nazareno,41.150542,-8.594607,Portuguese Restaurant
523,41.15313809523809,-8.5941,7,6,4ee3b58b722ea7b94477e962,Restaurante Bonanza,41.155997023543684,-8.594783958282669,Portuguese Restaurant
524,41.15313809523809,-8.580528571428571,1,0,4ea0769629c201f5d0983013,Restaurante O Lanterna,41.14993315773914,-8.57870937463305,Portuguese Restaurant
525,41.15313809523809,-8.553385714285714,1,0,54273da2498e8524eb725ed4,Restaurante italiano,41.150317571524496,-8.557903536962977,Italian Restaurant
526,41.162661904761904,-8.661957142857142,11,0,4d5feeba9f67f04dbd8672fb,ElDorado,41.16425292937482,-8.662521554691647,Portuguese Restaurant
527,41.162661904761904,-8.661957142857142,11,1,51b71ae5498e38af42dca817,Genki Sushi,41.16395196129595,-8.662651372191267,Sushi Restaurant
528,41.162661904761904,-8.661957142857142,11,2,524f2a7111d25d7adfd0aa5f,Ritual restaurante & café,41.163277,-8.666929,Sushi Restaurant
529,41.162661904761904,-8.661957142857142,11,3,5b2815fb78782c0034a38411,Cêpa Aviz,41.162432,-8.667202,Italian Restaurant
530,41.162661904761904,-8.661957142857142,11,4,4fd1f079e4b080eb26074c52,Ritual do Paladar,41.16328595794522,-8.667175026866108,Sushi Restaurant
531,41.162661904761904,-8.661957142857142,11,5,53c59746498e6a84ca56031b,taberna do ferrador,41.162567138671875,-8.657569885253906,Portuguese Restaurant
532,41.162661904761904,-8.661957142857142,11,6,543a8625498eeba079d553c5,Pateo de Tanger,41.16307350034288,-8.662477577182699,Portuguese Restaurant
533,41.162661904761904,-8.661957142857142,11,7,5e5292e3c0f2c400071be9ec,Chef Tapioca,41.16118,-8.65794,Brazilian Restaurant
534,41.162661904761904,-8.661957142857142,11,8,4fa57e20e4b08e1f88e945a0,Churrascaria Marechal,41.161089557105704,-8.658240312036266,BBQ Joint
535,41.162661904761904,-8.661957142857142,11,9,52c17446498ea9eea0008715,Tasse Bem,41.16267395019531,-8.662039756774902,Portuguese Restaurant
536,41.162661904761904,-8.661957142857142,11,10,4fce5ce6e4b0b62704194ccb,Kanpai Fusion Sushi,41.16349103440838,-8.667273233114505,Sushi Restaurant
537,41.162661904761904,-8.648385714285714,15,0,4b5b9c27f964a520c90a29e3,Cufra,41.161963348280345,-8.652858884139262,Portuguese Restaurant
538,41.162661904761904,-8.648385714285714,15,1,5c01b7cefd16bb00397b099c,Little Brazil,41.166904,-8.649654,Brazilian Restaurant
539,41.162661904761904,-8.648385714285714,15,2,4c78223cbd346dcbc819f1ef,BB Villa,41.16515391762527,-8.651611964892362,Portuguese Restaurant
540,41.162661904761904,-8.648385714285714,15,3,5231b32211d2ff5c548ab895,Vá Passando,41.16657638549805,-8.650312423706055,Portuguese Restaurant
541,41.162661904761904,-8.648385714285714,15,4,512fc40be4b0ccd878e054cd,restaurante chines li jin,41.16242740196937,-8.648497155087899,Chinese Restaurant
542,41.162661904761904,-8.648385714285714,15,5,4d939487484d6ea878627e30,Li Jin,41.161708436065524,-8.651293850966281,Chinese Restaurant
543,41.162661904761904,-8.648385714285714,15,6,53f4a2fe498e77c52efcd672,D. Albertina,41.16681780874995,-8.650140621523477,Portuguese Restaurant
544,41.162661904761904,-8.648385714285714,15,7,5312583911d29b075a142316,algo +,41.16542053222656,-8.649020195007324,Portuguese Restaurant
545,41.162661904761904,-8.648385714285714,15,8,56fe6531498e141b1b07dbcc,Oishii,41.16170559003581,-8.651134237650934,Sushi Restaurant
546,41.162661904761904,-8.648385714285714,15,9,52af5b1a11d227beb819faa5,Go Natural,41.16138776556962,-8.643201781419553,Vegetarian / Vegan Restaurant
547,41.162661904761904,-8.648385714285714,15,10,533dcd9b498e9437c1d48c13,LSD,41.16161168638444,-8.650097654630896,Portuguese Restaurant
548,41.162661904761904,-8.648385714285714,15,11,4c3f009fdb3b1b8dfe216695,Delight,41.162974259615154,-8.643207663335904,Mediterranean Restaurant
549,41.162661904761904,-8.648385714285714,15,12,5359767a498e76f57f5f7c3a,Bodeguita,41.15867683818466,-8.650205071907628,Tapas Restaurant
550,41.162661904761904,-8.648385714285714,15,13,544d956b498eefae2e7eb019,Aloe Restaurante,41.166786193847656,-8.64968204498291,Portuguese Restaurant
551,41.162661904761904,-8.648385714285714,15,14,52f68c23498eec39cf3d5013,Yes Sushi,41.16032631066361,-8.643764809996343,Japanese Restaurant
552,41.162661904761904,-8.634814285714285,20,0,556230e4498e57b142512b83,O Pote Velho,41.16687390226557,-8.633143730583035,Portuguese Restaurant
553,41.162661904761904,-8.634814285714285,20,1,5b61c28f1ffe97002cc61dd2,Restaurante Rosa Do Porto,41.159005,-8.633297,Portuguese Restaurant
554,41.162661904761904,-8.634814285714285,20,2,5b2c00392d2fd90039cf21b0,Portekiz #Porto,41.16022,-8.630462,Portuguese Restaurant
555,41.162661904761904,-8.634814285714285,20,3,55243c0f498e23c7ea578260,Cousins,41.15829891395133,-8.634529117524396,Tapas Restaurant
556,41.162661904761904,-8.634814285714285,20,4,4c2891ebfe6e2d7fc660533c,Casa Isa,41.15866751913005,-8.633884748377339,Mediterranean Restaurant
557,41.162661904761904,-8.634814285714285,20,5,593d5174a4b51b4815519db8,Sushi&Go,41.15877,-8.634955,Japanese Restaurant
558,41.162661904761904,-8.634814285714285,20,6,56a0decf498e79e5c74527ed,Avenida 830,41.158707601304904,-8.63271952798233,Portuguese Restaurant
559,41.162661904761904,-8.634814285714285,20,7,54119060498e268f42a129fe,Sílabas com Sabor,41.16344493093269,-8.638921712114895,Portuguese Restaurant
560,41.162661904761904,-8.634814285714285,20,8,4cc99001e7926dcbfc515d77,Eataly,41.159310929294655,-8.634582815198852,Italian Restaurant
561,41.162661904761904,-8.634814285714285,20,9,4e6f43e51fc7c0836948c27b,Porto Grill,41.16106389402544,-8.632045984268188,Portuguese Restaurant
562,41.162661904761904,-8.634814285714285,20,10,4d2383fbc5f2a1cd96b94bcf,Amadeus,41.15826498820347,-8.634545017066257,Italian Restaurant
563,41.162661904761904,-8.634814285714285,20,11,4fb7b83de4b0363b1216fcd0,BB Gourmet,41.163293933261954,-8.636569655707534,Portuguese Restaurant
564,41.162661904761904,-8.634814285714285,20,12,4f29c13ae4b0a2a2c449a01e,Teppan,41.158757874061884,-8.633416178501765,Sushi Restaurant
565,41.162661904761904,-8.634814285714285,20,13,5b7965748c812a002cca9cc8,Spetto House,41.159386,-8.633043,Brazilian Restaurant
566,41.162661904761904,-8.634814285714285,20,14,5287fa3b11d26592b62a5a56,Terrella Restaurante,41.15924765756875,-8.63160415757987,Portuguese Restaurant
567,41.162661904761904,-8.634814285714285,20,15,4f16c84ae4b0725661f53714,Cantina PT,41.16346527074506,-8.638975412878805,Portuguese Restaurant
568,41.162661904761904,-8.634814285714285,20,16,4cf025448333224bb95a028e,Tokyo,41.15954461020352,-8.634996013212845,Japanese Restaurant
569,41.162661904761904,-8.634814285714285,20,17,4ebe7c3c6da15b4dde65ab22,Dom Pastel,41.16233396476732,-8.636433778456666,Portuguese Restaurant
570,41.162661904761904,-8.634814285714285,20,18,53776713498e192381f6d121,Indi_Go | Indian Flavours,41.15953082401827,-8.632907465552512,Indian Restaurant
571,41.162661904761904,-8.634814285714285,20,19,5f5d3f44de7b3d799b28e833,188 Latin Cuisine,41.16025,-8.630938,Peruvian Restaurant
572,41.162661904761904,-8.621242857142857,8,0,4f08a787e4b0cc066c75af83,Tasquinha do Tuela,41.166206321467584,-8.620354253207976,Portuguese Restaurant
573,41.162661904761904,-8.621242857142857,8,1,5e0fee2585903b0008a75b01,Casa Aliança,41.16528,-8.617198,Portuguese Restaurant
574,41.162661904761904,-8.621242857142857,8,2,59bfb72386bc49168b80e084,Casa Da Picanha,41.162114,-8.626844,Brazilian Restaurant
575,41.162661904761904,-8.621242857142857,8,3,56afb63f498ea562c05a9ada,Restaurante Carne Arouquesa,41.1640677841729,-8.623768866030332,Portuguese Restaurant
576,41.162661904761904,-8.621242857142857,8,4,5d8b91de7498b4000737cd4e,Casa Cartola,41.162725,-8.616504,Portuguese Restaurant
577,41.162661904761904,-8.621242857142857,8,5,59bfb796e1f2287933f9c100,Casa Da Picanha,41.161783,-8.626544,Brazilian Restaurant
578,41.162661904761904,-8.621242857142857,8,6,5e0ff09dea44ce0007e9d9af,Holi Caffé,41.159086,-8.623942,Kebab Restaurant
579,41.162661904761904,-8.621242857142857,8,7,54c8e519498e51c77377d65f,Alicantina,41.160903720956895,-8.621127359700035,Portuguese Restaurant
580,41.162661904761904,-8.607671428571427,22,0,5971f14bdb1d817cc89bc6bf,Casanova,41.16195,-8.606287,Portuguese Restaurant
581,41.162661904761904,-8.607671428571427,22,1,52d92dcb498ebf697d73ff02,Portugandhi,41.16046471562281,-8.605259650378226,Indian Restaurant
582,41.162661904761904,-8.607671428571427,22,2,5894ea37266c1121f0f37a4f,Pregos & Martelo,41.161667,-8.603645,Portuguese Restaurant
583,41.162661904761904,-8.607671428571427,22,3,4d7af5ff7ed8548123bf71d0,Pajú,41.16012276689922,-8.60801890926472,Portuguese Restaurant
584,41.162661904761904,-8.607671428571427,22,4,50b54510e4b03812ff7b5703,Mamma Mia!,41.16063041343671,-8.604827185815783,Italian Restaurant
585,41.162661904761904,-8.607671428571427,22,5,4d6973862acd6ea898583ac0,Chamiço,41.162701580625445,-8.610770289752457,Portuguese Restaurant
586,41.162661904761904,-8.607671428571427,22,6,5bcb7ec1838e59002c1d9ab7,Hortas & Pratos,41.160052,-8.60812,Portuguese Restaurant
587,41.162661904761904,-8.607671428571427,22,7,5583b4c2498e27169770c774,Portu's,41.16120237119767,-8.61295108188099,Portuguese Restaurant
588,41.162661904761904,-8.607671428571427,22,8,54988bad498eb35d95429364,Gente Gira,41.16016310678577,-8.604190607688274,Portuguese Restaurant
589,41.162661904761904,-8.607671428571427,22,9,54988b40498ea3488dea55e9,Gente Gira,41.160282135009766,-8.604454040527344,Portuguese Restaurant
590,41.162661904761904,-8.607671428571427,22,10,4ef0e8dc93ad3fada1ae9b04,Amizade,41.16163850521032,-8.60227482204799,Chinese Restaurant
591,41.162661904761904,-8.607671428571427,22,11,4e5fe0641838d10f595c1c1c,Restaurante Pax,41.16016730350833,-8.604499697685242,Portuguese Restaurant
592,41.162661904761904,-8.607671428571427,22,12,581c8dd2855189757a81dd29,Marquês do Sushi,41.16169796189666,-8.603410720825195,Sushi Restaurant
593,41.162661904761904,-8.607671428571427,22,13,510d224ee4b0428ed4873db3,Nana - Asian Gourmet,41.16170837895923,-8.604732740130437,Sushi Restaurant
594,41.162661904761904,-8.607671428571427,22,14,504900f1e4b0fbb3122e7cbb,Café Korá,41.159616,-8.604307,African Restaurant
595,41.162661904761904,-8.607671428571427,22,15,4e5e819aae60a1cb36df32de,O Poleiro,41.16209908038231,-8.60385113841802,Portuguese Restaurant
596,41.162661904761904,-8.607671428571427,22,16,58263f12d506b731bd9234f7,Sabores de Basto,41.16229017335996,-8.606094367419512,Portuguese Restaurant
597,41.162661904761904,-8.607671428571427,22,17,53b2b4e0498e6b0d6ea9cd26,Trave Negra,41.1636509352479,-8.611088323172764,Portuguese Restaurant
598,41.162661904761904,-8.607671428571427,22,18,54fecc53498ee3b82cb2aa0d,O Presuntinho do Marquês,41.16100262861096,-8.606783216558878,Portuguese Restaurant
599,41.162661904761904,-8.607671428571427,22,19,4d2cc8c0f728b60c7b3795fd,Restaurante Rito,41.16503909526428,-8.611023905819048,Mediterranean Restaurant
600,41.162661904761904,-8.607671428571427,22,20,5c1020f9829b0c002c82015b,Raízes,41.159763,-8.608157,Portuguese Restaurant
601,41.162661904761904,-8.607671428571427,22,21,4b955dc7f964a520b99e34e3,Restaurant grappa,41.16030798580751,-8.61151240544458,Italian Restaurant
602,41.162661904761904,-8.5941,15,0,53d40946498e2a83f39c4924,Pizza Piazza,41.162791778077676,-8.594048977555119,Pizza Place
603,41.162661904761904,-8.5941,15,1,4e84ce3bf9f426844cb920db,O Barril,41.16256840581182,-8.593752398871423,Pub
604,41.162661904761904,-8.5941,15,2,4c22822bfbe5c9b64e019a21,Your Palace,41.16304875623358,-8.592044479022446,Portuguese Restaurant
605,41.162661904761904,-8.5941,15,3,50fe8b4fe4b0b850362082b3,Braseiro das Antas,41.16276056312702,-8.590611718451008,Portuguese Restaurant
606,41.162661904761904,-8.5941,15,4,53ee457d498e0c3c2fb0a34f,O Mirandês,41.1606679544881,-8.592651080713429,Portuguese Restaurant
607,41.162661904761904,-8.5941,15,5,593c38646fd6265aedb5dbbf,Madeira,41.165847,-8.598027,Portuguese Restaurant
608,41.162661904761904,-8.5941,15,6,4e6fab1a1f6e63a4eadc81ef,Restaurante Lareira,41.165960933516295,-8.597950685495642,Portuguese Restaurant
609,41.162661904761904,-8.5941,15,7,51ffa97d498e65ca19d1f163,BB Gourmet Antas,41.16630666227028,-8.593361480406697,Portuguese Restaurant
610,41.162661904761904,-8.5941,15,8,5ba9508e58002c002b62952a,Malfeito,41.160159,-8.592232,Portuguese Restaurant
611,41.162661904761904,-8.5941,15,9,5928c0faa0215b39179d1716,Por Acaso,41.163584,-8.596856,Tapas Restaurant
612,41.162661904761904,-8.5941,15,10,5e0fdf60892d580007273026,DASH Japanese Restaurant,41.163206,-8.590125,Japanese Restaurant
613,41.162661904761904,-8.5941,15,11,4e6c968ca80957ae44cbebb9,Azul e Branco,41.16036041875156,-8.592248570671256,Portuguese Restaurant
614,41.162661904761904,-8.5941,15,12,4dea9054d164ef597cef1394,Casa da Picanha,41.159153841366965,-8.592911142083704,Brazilian Restaurant
615,41.162661904761904,-8.5941,15,13,5d20ebbd9d81e30023dc5b33,São Lazaro 2,41.166308,-8.597287,Portuguese Restaurant
616,41.162661904761904,-8.5941,15,14,4e80df975c5cf9c204b2b216,Restaurante Caetano,41.161128126911265,-8.590257519001849,Portuguese Restaurant
617,41.162661904761904,-8.580528571428571,9,0,5e31e332f40b730008314acc,Tomatino,41.163678,-8.583963,Italian Restaurant
618,41.162661904761904,-8.580528571428571,9,1,57b9b22d498e86a9b6546ee2,Temperos,41.163163,-8.582281,Portuguese Restaurant
619,41.162661904761904,-8.580528571428571,9,2,51b60d93498e34b6b27cca1e,Costa,41.165966037969646,-8.58132257892386,Tapas Restaurant
620,41.162661904761904,-8.580528571428571,9,3,4c51dc0ed797e21edaa4c37c,Wok to Walk,41.163606905954964,-8.583842149756459,Noodle House
621,41.162661904761904,-8.580528571428571,9,4,5259bb12498e3a024dacff99,Nobel,41.160345,-8.578445,Portuguese Restaurant
622,41.162661904761904,-8.580528571428571,9,5,4cc5c22c914137042b76cb55,Restaurante Serra Da Estrela,41.16391697500342,-8.582653362269001,Portuguese Restaurant
623,41.162661904761904,-8.580528571428571,9,6,50918499e4b0b0bed4edc71f,O Rei das Bifanas,41.16183936305796,-8.577367928916525,Portuguese Restaurant
624,41.162661904761904,-8.580528571428571,9,7,4d2e12ec49bb721ecda87b95,Pasta-Caffé,41.163524166813914,-8.58395046547256,Italian Restaurant
625,41.162661904761904,-8.580528571428571,9,8,4d304cb92748b60c9856daa0,Chimarrão,41.16421397966766,-8.582983016967773,Brazilian Restaurant
626,41.162661904761904,-8.526242857142856,1,0,50c3aad9e4b02d3a85c284d1,Restaurante Igreja,41.1666145324707,-8.527460098266602,Portuguese Restaurant
627,41.17218571428571,-8.6891,11,0,52093d44498e9ae7329b1eba,Mr. Binho Sushi,41.17365793582283,-8.687281181549384,Sushi Restaurant
628,41.17218571428571,-8.6891,11,1,5c6883fd123a19002c4111bf,Cisma,41.176009,-8.690071,Modern European Restaurant
629,41.17218571428571,-8.6891,11,2,4c751c61604a3704d8a98149,Zen House,41.17401346586578,-8.688347168097716,Sushi Restaurant
630,41.17218571428571,-8.6891,11,3,4bf040d6c601a593137ac3d1,Presto Pizza,41.17553844519344,-8.688994354252058,Italian Restaurant
631,41.17218571428571,-8.6891,11,4,4e2347e522717a5245ddd960,Churrasqueira Campanhâ,41.17487899417526,-8.690507929980775,Portuguese Restaurant
632,41.17218571428571,-8.6891,11,5,4bd6f18f6f649521959771ec,Chill Out,41.17123487,-8.687791,Mediterranean Restaurant
633,41.17218571428571,-8.6891,11,6,4bc8d23f511f95210c6dacc7,Cufra Grill,41.17132972076246,-8.687735936840134,Portuguese Restaurant
634,41.17218571428571,-8.6891,11,7,59a31cb9e185f358f69c762e,O Cantinho da Ramboia,41.175034,-8.689952,Portuguese Restaurant
635,41.17218571428571,-8.6891,11,8,4f245131e4b05160ae9de47f,Chincas,41.171288189346456,-8.687856658998955,Tapas Restaurant
636,41.17218571428571,-8.6891,11,9,5a77241023a2e6307e62de5b,Casa Xico,41.174684,-8.689393,Portuguese Restaurant
637,41.17218571428571,-8.6891,11,10,4dfde6a41f6e05048d8ad772,Teppan - Sushi & Teppanyaki,41.171747766491336,-8.688052190786294,Sushi Restaurant
638,41.17218571428571,-8.675528571428572,3,0,53d903de498e66e64f078816,Meet Parque,41.170065330612815,-8.672510077920718,Café
639,41.17218571428571,-8.675528571428572,3,1,5943dc2f7dc9e17127528c12,Lucha Libre,41.170256,-8.671733,Taco Place
640,41.17218571428571,-8.675528571428572,3,2,512fd2c8e4b021edbf968b13,Etapa,41.17409868324316,-8.680701563953312,Tapas Restaurant
641,41.17218571428571,-8.661957142857142,1,0,4d835d3502eb5481bdb717f5,Si Come Sabores & Petiscos,41.171072,-8.657459,Mediterranean Restaurant
642,41.17218571428571,-8.648385714285714,6,0,4eaf281002d521a7a7b4ef38,Officina,41.17064697330436,-8.644297345863004,Portuguese Restaurant
643,41.17218571428571,-8.648385714285714,6,1,53234395498e9b32c44eef01,Matcha,41.17626992191355,-8.647449866480073,Japanese Restaurant
644,41.17218571428571,-8.648385714285714,6,2,51ed2de1498ef32ec7b854bf,Restaurante O Industrial,41.17132335946303,-8.649297400670369,Portuguese Restaurant
645,41.17218571428571,-8.648385714285714,6,3,4cd2b7a43e0c8cfa31521912,Boi na Brasa,41.170496715853034,-8.643466,Brazilian Restaurant
646,41.17218571428571,-8.648385714285714,6,4,561ba877498ec9037f2d23db,Avis Terrace,41.17636975734291,-8.647217968847897,Portuguese Restaurant
647,41.17218571428571,-8.648385714285714,6,5,53519f72498ef6fc42c53a48,O Pataco,41.17546745640006,-8.651886171953256,Portuguese Restaurant
648,41.17218571428571,-8.634814285714285,1,0,4c4069fba48d9c74c6440c40,Dom Pito,41.17306055984899,-8.636785526407799,Portuguese Restaurant
649,41.17218571428571,-8.621242857142857,2,0,52322e6f11d2542f39083114,O Labrego,41.1697372392312,-8.619119446600553,Portuguese Restaurant
650,41.17218571428571,-8.621242857142857,2,1,54831286498ee0762e5c2615,O Ribeiro,41.169714,-8.624534,Portuguese Restaurant
651,41.17218571428571,-8.607671428571427,7,0,57d2acd6498e96cce884982b,Presto Pizza,41.169033,-8.611472,Italian Restaurant
652,41.17218571428571,-8.607671428571427,7,1,4bd857745cf276b0b5f89c00,Adega Escondida,41.17073389,-8.611068,Portuguese Restaurant
653,41.17218571428571,-8.607671428571427,7,2,4f5a0f80e4b07f0bf63e74e5,A Tasca,41.173586,-8.60564,Portuguese Restaurant
654,41.17218571428571,-8.607671428571427,7,3,50b62a43e4b09ac20ef402ff,Nectar,41.170833587646484,-8.608585357666016,Portuguese Restaurant
655,41.17218571428571,-8.607671428571427,7,4,4fb39b76e4b030072b77de2f,Ábaco II,41.1748161315918,-8.610100746154785,Portuguese Restaurant
656,41.17218571428571,-8.607671428571427,7,5,4ede84c430f87f12861cb154,Sabores do Norte,41.17105719406403,-8.606015623365908,Portuguese Restaurant
657,41.17218571428571,-8.607671428571427,7,6,52b83514498e570512f8a59a,Flor de Paranhos,41.17077142757122,-8.606257172836933,Portuguese Restaurant
658,41.17218571428571,-8.580528571428571,2,0,4f7768ade4b0557b221f8842,TidBit,41.17477749359615,-8.585109213416684,Italian Restaurant
659,41.17218571428571,-8.580528571428571,2,1,4cb89a7743ec6dcb9d179731,Restaurante Chinês Hua Feng,41.17499704792037,-8.583903675925201,Chinese Restaurant
660,41.17218571428571,-8.566957142857142,16,0,4bfed55f4e5d0f47713b7d1f,Chimarrão,41.174755897377324,-8.565735661869788,Brazilian Restaurant
661,41.17218571428571,-8.566957142857142,16,1,580cc65f38fa87af5463f262,Bodegão,41.174668,-8.565813,Portuguese Restaurant
662,41.17218571428571,-8.566957142857142,16,2,5c31e351f2554e002c8cd571,Casa Rainho,41.173977,-8.569412,Portuguese Restaurant
663,41.17218571428571,-8.566957142857142,16,3,5ccb438e78782c002cf6d691,Tomatino,41.174274,-8.56602,Italian Restaurant
664,41.17218571428571,-8.566957142857142,16,4,56465472498e2673f2bde852,Wok to Walk,41.17429323618347,-8.56607437133789,Noodle House
665,41.17218571428571,-8.566957142857142,16,5,4c3e1d3a1ef0d13a39d99180,Comida & Companhia,41.17453987213239,-8.56578955484163,Portuguese Restaurant
666,41.17218571428571,-8.566957142857142,16,6,4d694fd682cba0930725d9d8,Restaurante Asiático KYODAI,41.17506560053644,-8.565344268041837,Japanese Restaurant
667,41.17218571428571,-8.566957142857142,16,7,4d51a23b3062a1cd4af368a3,Pasta Caffé,41.174925677491714,-8.565741270604452,Italian Restaurant
668,41.17218571428571,-8.566957142857142,16,8,5a972616be70781dc050591c,Il Papero,41.174235,-8.566218,Italian Restaurant
669,41.17218571428571,-8.566957142857142,16,9,4cb3624eaef16dcb8c26c854,A Cascata,41.17366332807799,-8.565967082977295,Portuguese Restaurant
670,41.17218571428571,-8.566957142857142,16,10,4e660baa483bd9a975d69283,Ali Baba,41.17461425982797,-8.565861186495779,Middle Eastern Restaurant
671,41.17218571428571,-8.566957142857142,16,11,4c48a21e76d72d7f6920414d,Serra da Estrela,41.17498000993849,-8.565517999276127,Mediterranean Restaurant
672,41.17218571428571,-8.566957142857142,16,12,4ecd581b2c5bc3505373f752,Stuppendo,41.17451242909093,-8.565961232378278,Italian Restaurant
673,41.17218571428571,-8.566957142857142,16,13,5e386f3e6ecdc30008329d2b,Da Ilha,41.174605,-8.565716,Portuguese Restaurant
674,41.17218571428571,-8.566957142857142,16,14,4b8ef4c4f964a520064133e3,Restaurante Casa da Pedra,41.17275072499219,-8.567678306675209,Italian Restaurant
675,41.17218571428571,-8.566957142857142,16,15,501fc4a8e4b0b1c50ada49d0,Donna Massa,41.174382656410515,-8.566197289625588,Italian Restaurant
676,41.17218571428571,-8.553385714285714,4,0,4eb5bdad9adfc687128c91d6,Quinta Da Morgadinha,41.171799618231006,-8.556463266326228,Portuguese Restaurant
677,41.17218571428571,-8.553385714285714,4,1,5194d40c498e3ab151f6eb3b,A Tentação da Bifana,41.17204827159992,-8.55846679675367,Portuguese Restaurant
678,41.17218571428571,-8.553385714285714,4,2,4efef80c9adffb90cc2c5c30,Os Garcias,41.17367986215963,-8.555414515243006,Pastelaria
679,41.17218571428571,-8.553385714285714,4,3,4d1b91c8f8ca236a4912ef30,Pizzaria La Piacenza,41.173632126981126,-8.551284207009507,Pizza Place
680,41.17218571428571,-8.526242857142856,1,0,5255b8ba498ec3ab298ada64,Montezelo,41.17196,-8.520703,Portuguese Restaurant
681,41.18170952380952,-8.6891,50,0,4d53e5145c9d236afa51f7ce,O Gaveto,41.18018693338346,-8.69057241439318,Portuguese Restaurant
682,41.18170952380952,-8.6891,50,1,5af97a04d807ee002c34c050,100 Montaditos,41.180042,-8.688058,Tapas Restaurant
683,41.18170952380952,-8.6891,50,2,4beffb603a002d7f028885a4,Ondas do Mar,41.17993928540293,-8.693419804817886,Portuguese Restaurant
684,41.18170952380952,-8.6891,50,3,4eee5e67f9ab8c5a02bc2316,São Valentim,41.183029153944496,-8.694808666487244,Portuguese Restaurant
685,41.18170952380952,-8.6891,50,4,522ed93a93cde3637be37f62,RISTORANTE ITALIANO SERGIO CRIVELLI PASTA FRESCA & PIZZA,41.18177008108615,-8.689673321399985,Italian Restaurant
686,41.18170952380952,-8.6891,50,5,4faedf1de4b0771d82b869d3,Restaurante Aliança,41.18243370391159,-8.689919785275773,Portuguese Restaurant
687,41.18170952380952,-8.6891,50,6,4e95e95c49015a078d89ddd4,Ramada do Mar,41.17814181005363,-8.690438763232573,Portuguese Restaurant
688,41.18170952380952,-8.6891,50,7,5d9657c0718dfa000845e066,Sicario Taqueria Mexicana,41.18399,-8.693044,Mexican Restaurant
689,41.18170952380952,-8.6891,50,8,5c6ffeebbd4009002ce9d197,Sabores Opulentos,41.180467,-8.693787,Italian Restaurant
690,41.18170952380952,-8.6891,50,9,4cb0caf9aef16dcb562eb454,Requinte Francesinhas,41.18440595191805,-8.685285307478981,Portuguese Restaurant
691,41.18170952380952,-8.6891,50,10,4dcdb40b1f6eb122706852b1,Palato,41.18187880012173,-8.693797749127937,Portuguese Restaurant
692,41.18170952380952,-8.6891,50,11,5eed18947108f4000773d348,Restaurante Lareira - Matosinhos,41.180776,-8.683958,Portuguese Restaurant
693,41.18170952380952,-8.6891,50,12,4e0a360462e1198aafe178ea,Antonio,41.182042091449546,-8.69391669144893,Portuguese Restaurant
694,41.18170952380952,-8.6891,50,13,5f3bd4508f76853bab7706d8,Bangkok Thai Cuisine,41.17851,-8.687678,Thai Restaurant
695,41.18170952380952,-8.6891,50,14,4cfa3dc5dccef04d6709b49c,Queda d'Água,41.18080181608859,-8.688843638049493,Mediterranean Restaurant
696,41.18170952380952,-8.6891,50,15,5e38261dc745220007566ef3,Bangkok,41.178598,-8.687587,Thai Restaurant
697,41.18170952380952,-8.6891,50,16,4cfbf3f1d7206ea897984169,Dom Zeferino,41.18147693676294,-8.692484789164508,Portuguese Restaurant
698,41.18170952380952,-8.6891,50,17,4c8aa7861797236a4ea06388,Esplanada Marisqueira A Antiga,41.18196728477589,-8.690784578673728,Seafood Restaurant
699,41.18170952380952,-8.6891,50,18,4bd89eb811dcc928d612f733,Salta o Muro,41.182671125843456,-8.694520682562553,Portuguese Restaurant
700,41.18170952380952,-8.6891,50,19,52b1ffe111d2ffdfcc165971,Bulls,41.17815828025516,-8.688296245300787,Brazilian Restaurant
701,41.18170952380952,-8.6891,50,20,4c9f3ca9542b224b8c76fb9f,Mauritânia Real,41.18328275843859,-8.684304530967726,Portuguese Restaurant
702,41.18170952380952,-8.6891,50,21,4b3b6c6af964a520947325e3,D’Oliva Al Forno,41.17939835245967,-8.688695740218373,Italian Restaurant
703,41.18170952380952,-8.6891,50,22,4eba76fb46906fa35792d49e,Restaurante O Porquinho,41.18360900878906,-8.691017150878906,Portuguese Restaurant
704,41.18170952380952,-8.6891,50,23,595bd3af1de76542ca1adf98,Restaurante Rodízio Gaúchos,41.17843190482131,-8.690410852432251,Brazilian Restaurant
705,41.18170952380952,-8.6891,50,24,5187cc35498e0c692eb860bc,O Porquinho,41.18326923365874,-8.690674514698589,Portuguese Restaurant
706,41.18170952380952,-8.6891,50,25,4d72a610f7c38cfa41b4aa3d,Balacobaco,41.17807406676248,-8.688105926032469,Brazilian Restaurant
707,41.18170952380952,-8.6891,50,26,5b5b77ca0d8a0f002c8a6f6e,Exotic,41.180523,-8.690292,Sushi Restaurant
708,41.18170952380952,-8.6891,50,27,5ed162be4244b80008fcea48,Temperos Da Zézinha,41.180966,-8.693082,Portuguese Restaurant
709,41.18170952380952,-8.6891,50,28,544abcb5498ec90c7a6e68ab,Adega Campos,41.18546905995224,-8.68967056274414,Portuguese Restaurant
710,41.18170952380952,-8.6891,50,29,4f788db2e4b06ff8373ffe6f,Casa Festas,41.17939957268457,-8.686448339303752,Tapas Restaurant
711,41.18170952380952,-8.6891,50,30,533d50c0498ec7046eb616c4,K.tascú,41.180954,-8.690563,Tapas Restaurant
712,41.18170952380952,-8.6891,50,31,4e90ce049a52db7dba6ce7f7,Lama's Temple,41.1779402334852,-8.689028595058188,Japanese Restaurant
713,41.18170952380952,-8.6891,50,32,50ed7988e4b0cf0dae103d22,grill take away,41.178550720214844,-8.688346862792969,Portuguese Restaurant
714,41.18170952380952,-8.6891,50,33,4d9dc0eb5c33a35d135308a1,Teppan,41.182729,-8.693114,Sushi Restaurant
715,41.18170952380952,-8.6891,50,34,51ebd861498eb161eeb5a866,O 27,41.180257,-8.686732,Portuguese Restaurant
716,41.18170952380952,-8.6891,50,35,52480d5d11d23acfde7a8db5,Low-Cost.come,41.180705888816526,-8.685854451472213,Portuguese Restaurant
717,41.18170952380952,-8.6891,50,36,50830ae1e4b0ad74a88b9487,Taxca Ibérica,41.181909,-8.692317,Portuguese Restaurant
718,41.18170952380952,-8.6891,50,37,54dfca9c498edf035044c267,Tapas Na Língua,41.181029418540575,-8.690658393581058,Portuguese Restaurant
719,41.18170952380952,-8.6891,50,38,58dc2ec7cf445127bbdf090a,Restaurante O Xarroco,41.182133,-8.6938,Portuguese Restaurant
720,41.18170952380952,-8.6891,50,39,4bb712592f70c9b6c3448630,Koi - restaurante japones,41.1844382,-8.6847725,Japanese Restaurant
721,41.18170952380952,-8.6891,50,40,4cec22b103bab60c79de87a3,Adega O 27,41.18262683473849,-8.688812255859375,Eastern European Restaurant
722,41.18170952380952,-8.6891,50,41,4e58f087d22dfba6f46c3481,Restaurante Moçambique,41.17842102050781,-8.689824104309082,Portuguese Restaurant
723,41.18170952380952,-8.6891,50,42,4ea6a2206c255b8d9da41514,Milho Rei,41.18016839373905,-8.692157672000988,Mediterranean Restaurant
724,41.18170952380952,-8.6891,50,43,5eed3864f91a770007cc75f2,Masala Magic,41.179283,-8.68956,Indian Restaurant
725,41.18170952380952,-8.6891,50,44,505861a9e4b01cdb1e64dbcb,Restaurante Fidelys,41.17955059337286,-8.694092268083521,Portuguese Restaurant
726,41.18170952380952,-8.6891,50,45,5e0f277f58995100071eb314,Restaurante Brito Capelo,41.179531,-8.689496,Portuguese Restaurant
727,41.18170952380952,-8.6891,50,46,531b7def498e567c68c5705e,Resultados com Charme,41.1789938886115,-8.685454435810048,Portuguese Restaurant
728,41.18170952380952,-8.6891,50,47,4e8796b88231062aaed98691,S. Martino,41.180454784576476,-8.693862428950206,Italian Restaurant
729,41.18170952380952,-8.6891,50,48,4c48b1d7b5eec9b6e31bc3a3,La Mafia,41.17821862023125,-8.685671757151557,Italian Restaurant
730,41.18170952380952,-8.6891,50,49,53f8a931498ea900659a9836,O Robalo,41.18144631951272,-8.692576830347107,Portuguese Restaurant
731,41.18170952380952,-8.675528571428572,3,0,56b9faa6498e07015682e218,Bô 457,41.17959,-8.673779,Portuguese Restaurant
732,41.18170952380952,-8.675528571428572,3,1,4d07d41bf683721e86721c65,Hao,41.17912285264763,-8.68010516242081,Asian Restaurant
733,41.18170952380952,-8.675528571428572,3,2,5046593de4b004ecf0a9cfad,Senta-te e Come,41.18073232120687,-8.68099170691713,Portuguese Restaurant
734,41.18170952380952,-8.661957142857142,1,0,4eb3e88d722e578a4ec0ad01,La croissanterie de Paris,41.18231196081522,-8.661345062714945,French Restaurant
735,41.18170952380952,-8.648385714285714,5,0,5ce532e5b9b37b002c3a67c3,City Wok,41.181079,-8.648789,Asian Restaurant
736,41.18170952380952,-8.648385714285714,5,1,4cc816213c40a35d8081722e,Cantina Consolidar E Validar,41.178556,-8.648652,Arepa Restaurant
737,41.18170952380952,-8.648385714285714,5,2,5395a7e6498e6a4f589f693c,cafe restaurante circunvalação,41.182508465211946,-8.646015909972231,Portuguese Restaurant
738,41.18170952380952,-8.648385714285714,5,3,4e217cf81838712abe71fe03,Itália & Itália,41.17868511643489,-8.644383273150428,Italian Restaurant
739,41.18170952380952,-8.648385714285714,5,4,5581c7fe498e449ab4bf75df,Sushi da Celinha,41.18060302734375,-8.649197578430176,Asian Restaurant
740,41.18170952380952,-8.634814285714285,4,0,4e91f905722ed3aceafe7eb6,Príncipe do Monte,41.18023498989534,-8.629842784697983,Portuguese Restaurant
741,41.18170952380952,-8.634814285714285,4,1,4c518a0d991c20a16d0cf587,Restaurante Lazuli,41.183955105909845,-8.639824390411377,Mediterranean Restaurant
742,41.18170952380952,-8.634814285714285,4,2,4e9eb0bd6da161b08da7f1f3,Churrasqueira Monte Dos Burgos,41.17966002626634,-8.629589093088619,Portuguese Restaurant
743,41.18170952380952,-8.634814285714285,4,3,531b8cac11d212fff589fb1e,City Top,41.18408,-8.639774,Portuguese Restaurant
744,41.18170952380952,-8.621242857142857,1,0,500dba5ee4b03c6eb486fb16,Furusatu,41.181750832597444,-8.621390432446868,Asian Restaurant
745,41.18170952380952,-8.607671428571427,13,0,525dd47d11d24c9cd325d5c4,Ori|gin,41.18418752696307,-8.602747679961567,Sushi Restaurant
746,41.18170952380952,-8.607671428571427,13,1,5d973a2511282800079b2595,Taberna Londrina,41.184162,-8.603881,Portuguese Restaurant
747,41.18170952380952,-8.607671428571427,13,2,59393e5dbd4009173614a716,Sabor Gaúcho,41.180271,-8.604394,Brazilian Restaurant
748,41.18170952380952,-8.607671428571427,13,3,51a515bf498e46904b620c78,Poleiro Do Marquês,41.18020947845655,-8.604485827846315,Portuguese Restaurant
749,41.18170952380952,-8.607671428571427,13,4,5050eab5e4b0145d40b87fe5,Mille Paste,41.18022458875028,-8.604099358052881,Italian Restaurant
750,41.18170952380952,-8.607671428571427,13,5,51b1d42c498ed54da4d1a503,Mira São João,41.184100408563076,-8.602816507110896,Portuguese Restaurant
751,41.18170952380952,-8.607671428571427,13,6,5c9cbe9a061b5100394e0a64,Piccollino Campus São João,41.180303,-8.604301,Italian Restaurant
752,41.18170952380952,-8.607671428571427,13,7,5bde44ba6dcf04002c60ff33,O Vinhateiro,41.182883,-8.613437,Portuguese Restaurant
753,41.18170952380952,-8.607671428571427,13,8,50c75442d63ea573c4f98dca,Kebab & Co.,41.180268986121185,-8.604505062103271,Turkish Restaurant
754,41.18170952380952,-8.607671428571427,13,9,4de2a9d7d164df857500eaa8,Maria Caipira,41.18003530664093,-8.60456097497844,Brazilian Restaurant
755,41.18170952380952,-8.607671428571427,13,10,4f71b86de4b09e5993d9bccc,ISEP - Restaurante-Bar - Edifício F,41.17867141632924,-8.607373261821447,Portuguese Restaurant
756,41.18170952380952,-8.607671428571427,13,11,5aad2b1378782c0c8ab364e5,Piccollino,41.180323073894876,-8.604358190690403,Italian Restaurant
757,41.18170952380952,-8.607671428571427,13,12,4ede11a3d3e346be389b5c24,Apetites Campus,41.180149582659254,-8.604147666669757,Portuguese Restaurant
758,41.18170952380952,-8.5941,5,0,4f16ca5fe4b019e9967392e3,Restaurante INEGI,41.17924783141837,-8.594132127739352,Portuguese Restaurant
759,41.18170952380952,-8.5941,5,1,4ee8fd780aaff80c6970054b,Tertulia,41.18227402894348,-8.598109327189812,Italian Restaurant
760,41.18170952380952,-8.5941,5,2,4b6e9b08f964a520bbc32ce3,Tóquio Sushi Bar,41.18339311090327,-8.597851702030168,Sushi Restaurant
761,41.18170952380952,-8.5941,5,3,4fe37960e4b0f8abc8aad616,soccer&tapas,41.179347252950066,-8.590643918482758,Tapas Restaurant
762,41.18170952380952,-8.5941,5,4,5bd4566d0d8a0f00395115ea,Tabafeira,41.18327,-8.59939,Portuguese Restaurant
763,41.18170952380952,-8.580528571428571,9,0,4d6423a24e1ea1cd213641b9,Musaxi II,41.18090104832275,-8.582682036981387,Japanese Restaurant
764,41.18170952380952,-8.580528571428571,9,1,502ced42e4b0298224fcc8d9,Casa do Lopes,41.18090656049361,-8.582744586174659,Portuguese Restaurant
765,41.18170952380952,-8.580528571428571,9,2,501c32d6e4b0ccb680adf698,Brasa D'Arcos,41.18399429321289,-8.582018852233887,Brazilian Restaurant
766,41.18170952380952,-8.580528571428571,9,3,4e8b5876550385f095564414,Samuel - Restaurante - Take Away,41.185244,-8.582352,Portuguese Restaurant
767,41.18170952380952,-8.580528571428571,9,4,4f6e4116e4b0e3b3bdc42ad2,Restaurante Art Da Picanha,41.180703,-8.580744,Portuguese Restaurant
768,41.18170952380952,-8.580528571428571,9,5,4f8dbd5de4b0003b52ea42f5,A Regional,41.18341967364588,-8.582154315782653,Portuguese Restaurant
769,41.18170952380952,-8.580528571428571,9,6,56328056498e0c1d8a57eea6,O Pinheiro - casa de pasto,41.18066227124749,-8.583426995403673,Portuguese Restaurant
770,41.18170952380952,-8.580528571428571,9,7,5f23274df8edde500712e3aa,Ma Fama,41.185714,-8.580433,Brazilian Restaurant
771,41.18170952380952,-8.580528571428571,9,8,4d04e732c2e53704fb3fbb67,A Cozinha do Martinho,41.178796597254525,-8.584040156381858,Portuguese Restaurant
772,41.18170952380952,-8.526242857142856,2,0,4f65dc1ee4b03be1045b78fa,Restaurante Requinte,41.183765354534835,-8.526431322097778,Portuguese Restaurant
773,41.18170952380952,-8.526242857142856,2,1,510fa92de4b0d7e12612a0ec,Lanchonete Brasil 2,41.18543243408203,-8.525731086730957,Brazilian Restaurant
774,41.19123333333333,-8.6891,6,0,508aea3ee4b0c2bf3ef43c0c,O Ribeiro,41.191469995611236,-8.693038234848494,Portuguese Restaurant
775,41.19123333333333,-8.6891,6,1,548f483f498e7c9be5476b5d,O Chanquinhas,41.193421,-8.693615,Portuguese Restaurant
776,41.19123333333333,-8.6891,6,2,4e85a902cc2143d954aa2fa7,Os Gémeos,41.1917465,-8.6921109,Portuguese Restaurant
777,41.19123333333333,-8.6891,6,3,5ca7a720f427de002cd8137a,Don Coelhone,41.190943,-8.693757,Tapas Restaurant
778,41.19123333333333,-8.6891,6,4,4d3762083ffba14351965156,Restaurante Chanquinhas,41.1934922501028,-8.693458145106137,Portuguese Restaurant
779,41.19123333333333,-8.6891,6,5,4ee7e8120e617cf2efec2c86,Stone Kitchen,41.19084167480469,-8.693623542785645,Portuguese Restaurant
780,41.19123333333333,-8.661957142857142,3,0,51dff033498e0c87b68b8387,Tokyo Sushi,41.18856620025984,-8.660677043744196,Japanese Restaurant
781,41.19123333333333,-8.661957142857142,3,1,588668d2debdf607c0603fae,Ninki Sushi Bar,41.187064,-8.66007,Sushi Restaurant
782,41.19123333333333,-8.661957142857142,3,2,4e176e6b45dd120c1204cf6d,Paquete,41.1886208882982,-8.666226917440861,Portuguese Restaurant
783,41.19123333333333,-8.634814285714285,8,0,590f67591bc704026f72de38,Fujiyama,41.190511,-8.63973,Sushi Restaurant
784,41.19123333333333,-8.634814285714285,8,1,58a5bcacf8572431ae4995f2,Brasinhas 4you,41.1952299928178,-8.633990228292868,Fried Chicken Joint
785,41.19123333333333,-8.634814285714285,8,2,4e74848e7d8b917602a0ba3c,O Vício do Fado,41.191566,-8.63347,Portuguese Restaurant
786,41.19123333333333,-8.634814285714285,8,3,53888777498e33f16c361345,lLalinha,41.19498888413938,-8.632424198449918,Portuguese Restaurant
787,41.19123333333333,-8.634814285714285,8,4,5dc180cd80f1e00008c758ef,Patife,41.190431,-8.633328,Café
788,41.19123333333333,-8.634814285714285,8,5,4e73712245dd41e9ccee721c,Restaurante Regional,41.189878268231055,-8.636086365419262,Portuguese Restaurant
789,41.19123333333333,-8.634814285714285,8,6,56dd7b3a498e54caff573dcc,broucottee il expresso,41.194317,-8.636625,Portuguese Restaurant
790,41.19123333333333,-8.634814285714285,8,7,4d456af91911a0933f0be2d8,Mantel,41.19048644852692,-8.639560753654516,Mediterranean Restaurant
791,41.19123333333333,-8.607671428571427,6,0,5087ff25e4b0d647db0ca6eb,Adega Braseira,41.19065660485072,-8.613069183392199,Portuguese Restaurant
792,41.19123333333333,-8.607671428571427,6,1,55eb5705498e817a5fa09218,Café|Snack-bar Libolo,41.19332432384527,-8.609950291277725,Portuguese Restaurant
793,41.19123333333333,-8.607671428571427,6,2,505b7931e4b065a90bfbb0b3,Restaurante Marques da Avenida,41.19380469142666,-8.610368999148719,Portuguese Restaurant
794,41.19123333333333,-8.607671428571427,6,3,50e88e91498e768c870defa8,Libolo,41.193456853619224,-8.610132804682081,Portuguese Restaurant
795,41.19123333333333,-8.607671428571427,6,4,51c7488c498ed6348cc885a3,Fogueira Do Tempo,41.192834806549335,-8.613149707254811,Portuguese Restaurant
796,41.19123333333333,-8.607671428571427,6,5,4e541af8483b764fba1d61a1,Restaurante Lareira,41.19277572631836,-8.611563682556152,Portuguese Restaurant
797,41.19123333333333,-8.5941,2,0,525d3492498e2c38d55cf95d,Tascadémico,41.192236,-8.59386,Portuguese Restaurant
798,41.19123333333333,-8.5941,2,1,50d626c5e4b0f5358b79f7b8,Taskadémico,41.188877358554265,-8.597293517177121,Portuguese Restaurant
799,41.19123333333333,-8.580528571428571,1,0,5a42bacb628c830fbac40d2d,Temple Rio,41.187536376122516,-8.580469163810593,Sushi Restaurant
800,41.19123333333333,-8.566957142857142,1,0,52666b3511d223047227badc,Cantinho das Cavadas,41.18893051147461,-8.564323425292969,Portuguese Restaurant
801,41.19123333333333,-8.553385714285714,1,0,4c65a31419f3c9b6a6ad9dff,Restaurante Cantinho Das Cavadas,41.19170871405266,-8.552405268409897,Eastern European Restaurant
802,41.19123333333333,-8.539814285714284,3,0,4f6cfd69e4b0a235d63fa788,Restaurante KimKim,41.19117426819182,-8.540187130762934,Portuguese Restaurant
803,41.19123333333333,-8.539814285714284,3,1,4f6cfd04e4b03cbd0fdcae9a,kim,41.19141387939453,-8.541297912597656,Portuguese Restaurant
804,41.19123333333333,-8.539814285714284,3,2,4f3bb000e4b09bd62730982a,Restaurante Cardeal,41.1882785729498,-8.538728380434424,Portuguese Restaurant
805,41.19123333333333,-8.512671428571426,3,0,4f08ab70e4b08f5248fd28ad,Etecetra,41.189708053964786,-8.512191546160617,Portuguese Restaurant
806,41.19123333333333,-8.512671428571426,3,1,4eefa10d30f824cfc76ec0aa,Crista,41.191611696995665,-8.513617402212141,Portuguese Restaurant
807,41.19123333333333,-8.512671428571426,3,2,5f216979ed76930a9eb3e20d,Mister  Churrasco,41.191596,-8.513622,Portuguese Restaurant
808,41.19123333333333,-8.499099999999999,6,0,4fd20ec8e4b096c7d312cb93,Taberna do Centenário,41.1896453429581,-8.498885700285742,Tapas Restaurant
809,41.19123333333333,-8.499099999999999,6,1,4e0e26ab1838f62321c25da5,Barril,41.18891415269952,-8.499932501946986,Portuguese Restaurant
810,41.19123333333333,-8.499099999999999,6,2,4d8ddea26174a09300e9b9e3,Casa das Bifanas,41.191203580992784,-8.500603324936927,Tapas Restaurant
811,41.19123333333333,-8.499099999999999,6,3,5d683b1ae4330c0008f0190f,Piccollino,41.189766,-8.499297,Sushi Restaurant
812,41.19123333333333,-8.499099999999999,6,4,4eebab89490111d46ac23402,Restaurante Marisqueira Jardim,41.18868660069485,-8.499544858932495,Portuguese Restaurant
813,41.19123333333333,-8.499099999999999,6,5,5a10380dbd400971451a7780,Kanpai Garden Terrace Valongo,41.189758,-8.499297,Sushi Restaurant
814,41.20075714285714,-8.6891,2,0,4c5c664a85a1e21ec68a5611,Brasileirão,41.202687412751516,-8.693176422954508,Brazilian Restaurant
815,41.20075714285714,-8.6891,2,1,50e2e939e4b01e17fe8bced8,Restaurante Mercato,41.20269149805096,-8.692797158088052,Portuguese Restaurant
816,41.20075714285714,-8.675528571428572,1,0,4f5bbf94e4b0090c09da6a09,Clube Caçadores Matosinhos,41.199946,-8.676767,Portuguese Restaurant
817,41.20075714285714,-8.661957142857142,2,0,4fdcdc58e4b08aca494b7ea6,Restaurante Bem regado,41.1998433431412,-8.657386259119338,Portuguese Restaurant
818,41.20075714285714,-8.661957142857142,2,1,4e490b4314959d51c183e3e4,Restaurante C.D.S.,41.202097,-8.665827,Portuguese Restaurant
819,41.20075714285714,-8.634814285714285,2,0,508fb5ede4b0870a7b0ff50a,Tasquinha da Maria,41.19691,-8.633762,Portuguese Restaurant
820,41.20075714285714,-8.634814285714285,2,1,5208f0e9498eacde701b3586,Petisqueira Azul,41.202064,-8.633539,Portuguese Restaurant
821,41.20075714285714,-8.580528571428571,3,0,4ff19108e4b09c09cb5ab8cd,Restaurante Dona Tila,41.19786834716797,-8.576128005981445,Portuguese Restaurant
822,41.20075714285714,-8.580528571428571,3,1,5bf175f3121384002ce9c802,Carioca Lounge,41.19999,-8.585232,Brazilian Restaurant
823,41.20075714285714,-8.580528571428571,3,2,5132588ee4b04a7c6dbbb986,Pipos,41.20004363841135,-8.574829978453954,Tapas Restaurant
824,41.20075714285714,-8.566957142857142,1,0,4f57ccf0e4b0a386ddb1807d,Porto Rio,41.200476524797686,-8.5690353990334,Portuguese Restaurant
825,41.20075714285714,-8.553385714285714,4,0,508c74ace4b0a533e16f838c,Escritório,41.202030181884766,-8.553162574768066,Portuguese Restaurant
826,41.20075714285714,-8.553385714285714,4,1,5bf9536bdd8442002cda0144,Monteiro's Grill,41.20464,-8.553495,Portuguese Restaurant
827,41.20075714285714,-8.553385714285714,4,2,5218a50e11d29f14b2a7d3b8,O Canecão 2,41.20452880859375,-8.553771018981934,Portuguese Restaurant
828,41.20075714285714,-8.553385714285714,4,3,4ebe498129c25ce5a145fc18,In Ermesinde,41.204931744705455,-8.551342080659241,Portuguese Restaurant
829,41.20075714285714,-8.512671428571426,1,0,53dc00c6498e413b46b61efe,Adega Regional O Mineiro,41.19843292236328,-8.508355140686035,Portuguese Restaurant
830,41.20075714285714,-8.499099999999999,1,0,50fb2171e4b0fb41a20c96bd,Restaurante do Souto,41.201228,-8.502802,Portuguese Restaurant
831,41.21028095238095,-8.6891,12,0,4d283a8255a8b60c1562cbc0,Restaurante IKEA,41.20973629149548,-8.687940536480518,Scandinavian Restaurant
832,41.21028095238095,-8.6891,12,1,4e95eb0f61af864d7d170eed,Fogo de Chão,41.209419396931786,-8.687176267969704,Brazilian Restaurant
833,41.21028095238095,-8.6891,12,2,52fb6e4611d29c24c5b4cbe2,Italian Republic,41.20934400937415,-8.688146912229325,Italian Restaurant
834,41.21028095238095,-8.6891,12,3,4dee80247d8bb216743d898b,Serra da Estrela,41.20943676773564,-8.687950093922261,Portuguese Restaurant
835,41.21028095238095,-8.6891,12,4,50b7c3ece4b0eaaa1a261e52,Ris8tto,41.20941514992841,-8.688180261674026,Italian Restaurant
836,41.21028095238095,-8.6891,12,5,4d221454756e8cfa4c887b54,Wok to Walk,41.209692837646195,-8.687912986283173,Noodle House
837,41.21028095238095,-8.6891,12,6,52ea5527498e01c0762ed23f,ris8otto,41.20881224549002,-8.688229517241519,Italian Restaurant
838,41.21028095238095,-8.6891,12,7,51b48b2c498e77489769c298,Umi Sushi,41.20951689560016,-8.688109439516738,Sushi Restaurant
839,41.21028095238095,-8.6891,12,8,4fb5604ce4b05dddb10c8a51,Teppan-Yaki,41.21318435668945,-8.688887596130371,Japanese Restaurant
840,41.21028095238095,-8.6891,12,9,5a479a6b7dc9e11be2d52fef,Taqueria,41.209805,-8.686991,Taco Place
841,41.21028095238095,-8.6891,12,10,4d12648912916dcb2f98d58a,Go Natural,41.20931942890853,-8.68800382909692,Vegetarian / Vegan Restaurant
842,41.21028095238095,-8.6891,12,11,4d402efc00e8a35d8398f8fa,Li yuan,41.20947513414498,-8.688070218160803,Chinese Restaurant
843,41.21028095238095,-8.661957142857142,1,0,4ff97ea2e4b0c98dddc539ed,Restaurante 'O Guedes',41.21288629697403,-8.66166199071819,Portuguese Restaurant
844,41.21028095238095,-8.648385714285714,1,0,53011aa911d271adb2f5653c,tasc'art,41.21118882672937,-8.64860994087084,Portuguese Restaurant
845,41.21028095238095,-8.621242857142857,4,0,5dab125d6c80e80008db782c,Ordo Restaurante - Bh Concept,41.208912,-8.621565,Sushi Restaurant
846,41.21028095238095,-8.621242857142857,4,1,4f77076ae4b063364722cf98,Casa das Iscas,41.210945210890266,-8.623070898145494,Portuguese Restaurant
847,41.21028095238095,-8.621242857142857,4,2,52e2695c11d2cb7f69e57567,Balio do Lessa,41.208881656620186,-8.621605186382542,Portuguese Restaurant
848,41.21028095238095,-8.621242857142857,4,3,4eee5a4cbe7b6d620198ac4b,VougaPlazza,41.20886749079484,-8.622292403041559,Italian Restaurant
849,41.21028095238095,-8.607671428571427,2,0,4e1073f8b0fbfef99b88d573,Casa do Tonel,41.210849,-8.60264,Portuguese Restaurant
850,41.21028095238095,-8.607671428571427,2,1,52e2684111d281c502c62357,Restaurante Azenha Nova,41.20775478138294,-8.607137492950278,Portuguese Restaurant
851,41.21028095238095,-8.553385714285714,6,0,4f11f2c2e4b0865b082c4f54,Vilaroma,41.21276971414453,-8.54845252313732,Italian Restaurant
852,41.21028095238095,-8.553385714285714,6,1,5cc4adc6971317002e66dedb,Restaurante Japonês Sakurai Sushi Bar Teppan Yaki,41.213403,-8.54949,Sushi Restaurant
853,41.21028095238095,-8.553385714285714,6,2,5a352de82632ec593e0d4f2f,Stramuntana,41.213265,-8.549702,Portuguese Restaurant
854,41.21028095238095,-8.553385714285714,6,3,52bdfcce498ee6047826f5a4,O Serrano,41.2133087940106,-8.552834387211751,Tapas Restaurant
855,41.21028095238095,-8.553385714285714,6,4,5505f0b0498eb657978ec98d,City Top,41.21329879760742,-8.549856185913086,Portuguese Restaurant
856,41.21028095238095,-8.553385714285714,6,5,5ae362cdfe3740002d836ed4,Maximu's Restaurante Cervejaria,41.21029,-8.554566,Portuguese Restaurant
857,41.21028095238095,-8.539814285714284,1,0,52e2d014498e9aa386445fdb,Toca da Formiga,41.20802203323243,-8.535907494502949,Portuguese Restaurant
858,41.21980476190476,-8.634814285714285,2,0,4b7c43e9f964a52058882fe3,O Brasinhas,41.21594476094939,-8.635717837319616,BBQ Joint
859,41.21980476190476,-8.634814285714285,2,1,54e88c42498e2565b4a1e514,Cantinho do Careca,41.215519185552,-8.635522554160413,Portuguese Restaurant
860,41.21980476190476,-8.607671428571427,1,0,53501db6498e135408c0e247,Petisqueira de Gueifães,41.217387,-8.603003,Tapas Restaurant
861,41.21980476190476,-8.5941,1,0,59da61afda5ede73ea34eb32,Casa Das Bifanas Porco Preto,41.21594,-8.592955,Portuguese Restaurant
862,41.21980476190476,-8.580528571428571,1,0,51325e74e4b08f70f25df87e,Australia's,41.222678331551414,-8.584832033709487,Portuguese Restaurant
863,41.21980476190476,-8.566957142857142,5,0,4dd1158e183899ddfb1320b9,Pastamix,41.219764,-8.561066,Italian Restaurant
864,41.21980476190476,-8.566957142857142,5,1,55e202bd498e302ff55fc0c0,Tomatino,41.22016700287699,-8.561224147927053,Italian Restaurant
865,41.21980476190476,-8.566957142857142,5,2,4f42af6de4b028f64299ffdc,Casa das Tapas,41.220082973398185,-8.561240241710752,Tapas Restaurant
866,41.21980476190476,-8.566957142857142,5,3,4dd11730fa7664b7c6e69793,"Alentejo - Pão, Azeite & Alho",41.21964368167846,-8.561325364571264,Portuguese Restaurant
867,41.21980476190476,-8.566957142857142,5,4,5ac4bd84c036355c321f606f,Picanha Grill,41.219712,-8.561443,BBQ Joint
868,41.21980476190476,-8.553385714285714,13,0,4f1c15d2e4b0b4fde9f28edb,Restaurante Estação Rodízio,41.21748733520508,-8.553627967834473,Brazilian Restaurant
869,41.21980476190476,-8.553385714285714,13,1,4e8c4bc9722e0db230128bd6,Dojoão,41.21695009949052,-8.556310339075754,Portuguese Restaurant
870,41.21980476190476,-8.553385714285714,13,2,4f2c5803e4b009e9716f2de4,Restaurante A Regional de Ermesinde,41.21823342129492,-8.55400374828199,Portuguese Restaurant
871,41.21980476190476,-8.553385714285714,13,3,4fddd797e4b018d079249183,Abê,41.217720312010684,-8.553606807179822,Portuguese Restaurant
872,41.21980476190476,-8.553385714285714,13,4,54941d72498e025da41b6f13,Casa Gigo,41.2173925345386,-8.55105892394528,Portuguese Restaurant
873,41.21980476190476,-8.553385714285714,13,5,57c06e06498e1bdf39c3033f,Imigrante,41.2228,-8.553745,Café
874,41.21980476190476,-8.553385714285714,13,6,5b265b77be7078002c7aa642,Restaurante Estoril,41.217342,-8.552118,Portuguese Restaurant
875,41.21980476190476,-8.553385714285714,13,7,5878cf10a19e90680c91ba58,Snack Bar Bom Garfo,41.21664727238776,-8.55608821043697,Portuguese Restaurant
876,41.21980476190476,-8.553385714285714,13,8,4e1b83ad81306017a4cd2b40,el rodri,41.21724190336942,-8.552260994911194,Mediterranean Restaurant
877,41.21980476190476,-8.553385714285714,13,9,4da47b069935a0930b47de6f,Taverna's,41.216393566521845,-8.550705207073634,Tapas Restaurant
878,41.21980476190476,-8.553385714285714,13,10,505cc561e4b0f1d6129ac065,Restaurante O Museu,41.21746826171875,-8.553462982177734,Portuguese Restaurant
879,41.21980476190476,-8.553385714285714,13,11,5264371011d249f933464449,Bracar,41.2166470088964,-8.556076726547808,Portuguese Restaurant
880,41.21980476190476,-8.553385714285714,13,12,4ff73dcae4b0a7f740995272,Cervejaria Marisqueira Capela,41.21720698072347,-8.552142434344024,Seafood Restaurant
881,41.21980476190476,-8.539814285714284,1,0,572f470b498ed2571730f08c,Quinta de Sonhos,41.219193,-8.544997,Portuguese Restaurant
882,41.22932857142857,-8.6891,1,0,50accd3be4b02049324072d7,Tip Top,41.227156768422724,-8.684054394058766,Portuguese Restaurant
883,41.22932857142857,-8.661957142857142,1,0,575c0992498e5c6af435a3f6,Casa André,41.230807,-8.660549,Portuguese Restaurant
884,41.22932857142857,-8.634814285714285,2,0,519fca69498eae4eab31d659,Brazinhas,41.23012924194336,-8.637232780456543,Portuguese Restaurant
885,41.22932857142857,-8.634814285714285,2,1,5dcc649b97d51a000884e885,Quinta D’as Raparigas,41.225966,-8.633339,Portuguese Restaurant
886,41.22932857142857,-8.621242857142857,12,0,4c5019b51886c9b6e9de1c28,Miramaia,41.2328644320567,-8.622181687663232,Eastern European Restaurant
887,41.22932857142857,-8.621242857142857,12,1,56eeadda498e283a8d2cc714,Temple Sushi,41.2333369778353,-8.621132304734084,Sushi Restaurant
888,41.22932857142857,-8.621242857142857,12,2,56fecf8e498ebb024432e5a2,O Claudino,41.227407,-8.621391,Mediterranean Restaurant
889,41.22932857142857,-8.621242857142857,12,3,57b305a7498ea562f5ac0495,House Teixeirinha Restaurant,41.229183,-8.619612,Portuguese Restaurant
890,41.22932857142857,-8.621242857142857,12,4,595ea1e87269fe39b8e6f0d2,Três Reis - Café Petisqueira,41.231464,-8.62317,Portuguese Restaurant
891,41.22932857142857,-8.621242857142857,12,5,510e6017e4b00af1bec944be,Miramaia Steak House,41.2326560786699,-8.622152811656404,Portuguese Restaurant
892,41.22932857142857,-8.621242857142857,12,6,4ccb0964ee23a143fb8514a8,Restaurante Asiático,41.227951,-8.619655,Asian Restaurant
893,41.22932857142857,-8.621242857142857,12,7,53ff8880498efbf7fff78c9a,Bússola de Aromas,41.23120580026335,-8.624445364076736,Portuguese Restaurant
894,41.22932857142857,-8.621242857142857,12,8,4c9f45852fb1a1433c1ff240,Restaurante Dona Lourdes,41.22817591748315,-8.619442095596696,Mediterranean Restaurant
895,41.22932857142857,-8.621242857142857,12,9,5053b8c4e4b088edb09981ea,Cagadeira do Castelo da Princesa,41.229061126708984,-8.62451171875,Afghan Restaurant
896,41.22932857142857,-8.621242857142857,12,10,4e68b72862e1a02a612216b5,CristoRei,41.233457,-8.620658,Portuguese Restaurant
897,41.22932857142857,-8.621242857142857,12,11,5414a200498e05d0b8b6b4cc,Taberna do Viscontti,41.2318000793457,-8.623359680175781,Tapas Restaurant
898,41.22932857142857,-8.580528571428571,3,0,52b8b4c9498e51190f06b726,Taberna D. Pernil,41.228198782486444,-8.580701322919008,Portuguese Restaurant
899,41.22932857142857,-8.580528571428571,3,1,53ef4a41498e72623ecf4535,Sabor X,41.22881428355626,-8.578054746163078,Portuguese Restaurant
900,41.22932857142857,-8.580528571428571,3,2,53aeb597498e13cc8b0c6a72,cafe despertar,41.22783279418945,-8.581094741821289,Portuguese Restaurant
901,41.22932857142857,-8.566957142857142,1,0,505cc498e4b0b05c7cad2266,museu,41.22506056234972,-8.565113578318066,Portuguese Restaurant
902,41.23885238095238,-8.675528571428572,7,0,569e4f55498e38b734dafc1c,A Francesinha - Cervejaria à portuguesa,41.2364421574023,-8.671760294633295,Portuguese Restaurant
903,41.23885238095238,-8.675528571428572,7,1,56322256498e780fcb085d76,deli&Cia,41.23634640227054,-8.6717621966479,Cafeteria
904,41.23885238095238,-8.675528571428572,7,2,56829f32498e184dd72c4bc0,sushi passion,41.23717794292324,-8.671976296184678,Japanese Restaurant
905,41.23885238095238,-8.675528571428572,7,3,5ba4f55225ecca002c0fc729,Douro Portuguese Cuisine,41.23707,-8.671823,Portuguese Restaurant
906,41.23885238095238,-8.675528571428572,7,4,4e0da1aa091acd6746d900bc,Douro,41.23706026151732,-8.671976296184678,Portuguese Restaurant
907,41.23885238095238,-8.675528571428572,7,5,58ef988935f983157375801b,Italian Republic,41.237016,-8.671862,Italian Restaurant
908,41.23885238095238,-8.675528571428572,7,6,57222b2c498ea56bbb10da79,Francesinha,41.236935,-8.671408,Portuguese Restaurant
909,41.23885238095238,-8.661957142857142,6,0,4e8b56b7dab4414a6b5a8060,Restaurante O Banquinho,41.23839238945888,-8.664026804174316,Portuguese Restaurant
910,41.23885238095238,-8.661957142857142,6,1,514e32fde4b0f713b07639b5,Rio Steak House,41.24271131545679,-8.66139877923328,Brazilian Restaurant
911,41.23885238095238,-8.661957142857142,6,2,4e47d64e45dd2955e5a9fa53,O Fernando,41.23984331621921,-8.666256742621968,Portuguese Restaurant
912,41.23885238095238,-8.661957142857142,6,3,50c3b444e4b09610f2e3d25b,O Fernando,41.239627838134766,-8.666258811950684,Portuguese Restaurant
913,41.23885238095238,-8.661957142857142,6,4,5dbc8d41ef9ef000082a8872,Malheiro Eventos,41.242518,-8.664778,Portuguese Restaurant
914,41.23885238095238,-8.661957142857142,6,5,51b3a13f498ecbc1cc3208d6,Restaurante O Malheiro,41.24127092146064,-8.665995595105189,Portuguese Restaurant
915,41.23885238095238,-8.621242857142857,7,0,4d600bd7d7206ea80e1ef0f1,Dong Sheng,41.23904461587478,-8.620182214263284,Chinese Restaurant
916,41.23885238095238,-8.621242857142857,7,1,5055be5ae4b0feb29a7ffcf7,guerra take away,41.236417271737494,-8.61880806374451,Portuguese Restaurant
917,41.23885238095238,-8.621242857142857,7,2,4ebef7e44901f56b0da762d9,wc,41.237257187191034,-8.616461995883602,African Restaurant
918,41.23885238095238,-8.621242857142857,7,3,50f9e1bbe4b07787c8c40769,Pielas,41.23878370536478,-8.622185025030296,Portuguese Restaurant
919,41.23885238095238,-8.621242857142857,7,4,4f40f3cee4b0daed43454f7e,Restaurante Santa Cruz( Qim Joao De Barca),41.23867778534921,-8.61944693683878,Portuguese Restaurant
920,41.23885238095238,-8.621242857142857,7,5,5eebf1f0cb76660008aa85f9,Restaurante Passata,41.235733,-8.625296,Italian Restaurant
921,41.23885238095238,-8.621242857142857,7,6,5090335ee4b01ba25e282b81,Restaurante chinês Dong Sheng,41.23894770125749,-8.619740009307861,Chinese Restaurant
922,41.23885238095238,-8.607671428571427,2,0,5a63a9b6911fc45bf36925a3,Essência das Tapas,41.23645,-8.612263,Tapas Restaurant
923,41.23885238095238,-8.607671428571427,2,1,523af0de498e3f32efa95ce2,O Cavaquinho,41.23538274651011,-8.609445697671253,Portuguese Restaurant
924,41.23885238095238,-8.5941,1,0,4b638970f964a520b8812ae3,Restaurante Machado,41.24064903690955,-8.591351055517649,Portuguese Restaurant
925,41.23885238095238,-8.566957142857142,1,0,51a13014498ef1b32b37017c,Restaurante Rodrigo,41.237286735249526,-8.568906635626979,Portuguese Restaurant
926,41.23885238095238,-8.539814285714284,1,0,4f7a1212e4b041c95d3a5954,Don Garfo,41.235209014439555,-8.538957190177804,Portuguese Restaurant
927,41.23885238095238,-8.526242857142856,4,0,589f05b42c55ec7cf2568b3b,Galeria Das Tapas,41.241955,-8.524156,Tapas Restaurant
928,41.23885238095238,-8.526242857142856,4,1,5309f69d498e42aa6cc65fc5,Adega Gostinho,41.241083,-8.528374,Portuguese Restaurant
929,41.23885238095238,-8.526242857142856,4,2,5d27209e79ad5e0023e762df,Cantinho Da Estrela,41.24209,-8.525428,Portuguese Restaurant
930,41.23885238095238,-8.526242857142856,4,3,5019216de4b0df49e45a31f9,Quinta do Cabo,41.2390140044254,-8.528560813927774,Portuguese Restaurant
931,41.248376190476186,-8.675528571428572,1,0,4fef5befe4b0099eb10e0bbd,Adega Regional Pedras Rubras,41.24962934064889,-8.67100389869621,Portuguese Restaurant
932,41.248376190476186,-8.661957142857142,2,0,4df750a9e4cd500714433cf4,Mira Metro,41.245764962273135,-8.661321134499651,Portuguese Restaurant
933,41.248376190476186,-8.661957142857142,2,1,53ad63d0498eaefb4f15e518,Café Bem Vindo - O Rei Das Francesinhas,41.25276565551758,-8.66236686706543,Portuguese Restaurant
934,41.248376190476186,-8.634814285714285,2,0,51044bcae4b00c77956a8beb,Café Snack-Bar Pinto,41.249486,-8.636169,Portuguese Restaurant
935,41.248376190476186,-8.634814285714285,2,1,4d88a663bc848cfa210bb12b,O Industrial,41.24873254193192,-8.635903482090297,Portuguese Restaurant
936,41.248376190476186,-8.621242857142857,6,0,4c4c98e39c8d2d7ffee0a96c,Multi Churrasco,41.246996697035904,-8.620122054372324,BBQ Joint
937,41.248376190476186,-8.621242857142857,6,1,5acdf5bdf0ca953d10af3f7b,Restaurante O Gonçalves,41.24759,-8.621215,Portuguese Restaurant
938,41.248376190476186,-8.621242857142857,6,2,57f95b37498e0ac33a4b1950,Sushi Mai,41.24667,-8.620645,Asian Restaurant
939,41.248376190476186,-8.621242857142857,6,3,5235b832498ecba78d3433f8,Quinta Do Galo,41.250856,-8.616886,Portuguese Restaurant
940,41.248376190476186,-8.621242857142857,6,4,56fa8797cd10b445f52184e5,Casa Costa,41.250522235816476,-8.624869520674551,Portuguese Restaurant
941,41.248376190476186,-8.621242857142857,6,5,563c0926cd1059cb26dd898b,Reis'in Yanında,41.25117111206055,-8.62031078338623,Meyhane
942,41.248376190476186,-8.5941,1,0,4f7b265ce4b0e20410a1ae61,Café Bom Dia,41.24520130112598,-8.596799741682663,Portuguese Restaurant
943,41.2579,-8.661957142857142,3,0,5dada832a8761c0007626a74,Brasão Das Guardeiras,41.258343,-8.657747,Portuguese Restaurant
944,41.2579,-8.661957142857142,3,1,4ee271d993ad88a6bedb8340,"Restaurante Quinta Das Silveiras, Moreira Da Maia",41.257537806380206,-8.657231657222445,Buffet
945,41.2579,-8.661957142857142,3,2,50b0f0dbe412066e60351863,Pinheiral dos Leitões,41.25818640597209,-8.66420030593872,Portuguese Restaurant
946,41.2579,-8.648385714285714,4,0,4e52a8ae62e1f6d84aab650a,Star,41.2558359128984,-8.65280998707716,Asian Restaurant
947,41.2579,-8.648385714285714,4,1,501049ede4b05b0d86540401,Restaurante Garffu's - Vivaci Maia,41.257930755615234,-8.65213680267334,Portuguese Restaurant
948,41.2579,-8.648385714285714,4,2,528b6862498e39eb3cf1f7a9,Tutto per Tutti,41.25583,-8.653412,Italian Restaurant
949,41.2579,-8.648385714285714,4,3,4e4c0e791f6e2a789a8fce30,Ali Baba,41.255804757356245,-8.653164477303415,Turkish Restaurant
950,41.2579,-8.634814285714285,2,0,4fec3a34e4b0bda56be5ff84,Cantina Efacec,41.258762655199796,-8.636725383229907,Portuguese Restaurant
951,41.2579,-8.634814285714285,2,1,5060474ce4b081c3554d6a16,rumo certo,41.25781088268027,-8.631017371638988,Portuguese Restaurant
952,41.2579,-8.553385714285714,1,0,53e29a0e498e22f2af1c4bbc,Restaurante 28,41.25983978286514,-8.558478355407715,Portuguese Restaurant
