,lat_centre,long_centre,num_venues,venue_iter,venue_id,venue_name,lat_venue,long_venue,category
0,41.14587521504668,-8.610653620790215,10,0,53a4ba6b498ea256c92c6632,Tapabento,41.145944249256154,-8.610081373615579,Tapas Restaurant
1,41.14587521504668,-8.610653620790215,10,1,4f7f5adfe4b0f67485c3e623,Avenida Café e Restaurante,41.14642273936514,-8.611521149267276,Portuguese Restaurant
2,41.14587521504668,-8.610653620790215,10,2,4f44c220e4b0b7292ecda600,O Rápido,41.145969,-8.609802,Portuguese Restaurant
3,41.14587521504668,-8.610653620790215,10,3,4bf289e277b4c928ff596a1c,saborXpresso,41.14640701748599,-8.610964856626,Mediterranean Restaurant
4,41.14587521504668,-8.610653620790215,10,4,5635280d498e5885a49e6c05,Trasca,41.14598757670911,-8.611356729399636,Portuguese Restaurant
5,41.14587521504668,-8.610653620790215,10,5,4f9f6610e4b098b12f600790,Adega - Viseu no Porto,41.145903698310484,-8.610033638027144,Portuguese Restaurant
6,41.14587521504668,-8.610653620790215,10,6,53c673c2498e8f97382de210,Adega S. Romão,41.14637318302505,-8.611093691288032,Portuguese Restaurant
7,41.14587521504668,-8.610653620790215,10,7,503f63b0e4b001e626925747,Restaurante Xandoca,41.146273738376905,-8.611313784339778,Afghan Restaurant
8,41.14587521504668,-8.610653620790215,10,8,4db699cc0cb6729b6abb1116,Adega do Quim,41.14586195001516,-8.610238651705624,Snack Place
9,41.14587521504668,-8.610653620790215,10,9,5264300811d2f9836e085eeb,Cervejaria Sá Reis,41.14619358125356,-8.611598295812467,Portuguese Restaurant
10,41.147005679712876,-8.612144768310557,10,0,54a065fa498ed409474ed060,Francesinhas da Baixa,41.14770655746059,-8.611923971647267,Portuguese Restaurant
11,41.147005679712876,-8.612144768310557,10,1,5c6d0b918c812a002c4e39ec,Elemento,41.146167,-8.612196,BBQ Joint
12,41.147005679712876,-8.612144768310557,10,2,4f7f5adfe4b0f67485c3e623,Avenida Café e Restaurante,41.14642273936514,-8.611521149267276,Portuguese Restaurant
13,41.147005679712876,-8.612144768310557,10,3,51979f08498e6cc071a1082f,O Tascö,41.14762567001059,-8.612225285638191,Portuguese Restaurant
14,41.147005679712876,-8.612144768310557,10,4,4f32766ee4b0ef2eb77d536d,Sushi Lab,41.14686695741957,-8.61117421306246,Sushi Restaurant
15,41.147005679712876,-8.612144768310557,10,5,5d278698b946e50030cca70c,Dan’s Finger Food & Drinks,41.14704,-8.612199,American Restaurant
16,41.147005679712876,-8.612144768310557,10,6,5070c687e4b0c9f5cff1a2d0,Donner-kebab,41.147252,-8.61273,Indian Restaurant
17,41.147005679712876,-8.612144768310557,10,7,4ec243d529c25ce5a310add1,O Almadinha,41.14735933398516,-8.612188794713317,Portuguese Restaurant
18,41.147005679712876,-8.612144768310557,10,8,59b58211112c6c0852d2c902,Laurear,41.147232,-8.612483,Portuguese Restaurant
19,41.147005679712876,-8.612144768310557,10,9,4c129ba61b5cef3b03c9edc4,Thali,41.14737937834181,-8.612809399849354,Indian Restaurant
20,41.14474475038048,-8.612144768310557,25,0,5d34dc42a43dbc00088758c8,Tasquinha Do Canto,41.145014,-8.612294,Tapas Restaurant
21,41.14474475038048,-8.612144768310557,25,1,5b44d6e3d552c7002c67a2cc,Semea by Euskalduna,41.144617,-8.612728,Portuguese Restaurant
22,41.14474475038048,-8.612144768310557,25,2,58e79825876ade0d73c6c4ba,Bodeguita,41.144677,-8.612131,Tapas Restaurant
23,41.14474475038048,-8.612144768310557,25,3,542ea24b498e1eab1cbc7c5d,ÉLoi'os Café & Snack,41.14471438223431,-8.612389549610835,Portuguese Restaurant
24,41.14474475038048,-8.612144768310557,25,4,5b250c60db1d810039160578,Tasquinha Dos Lóios,41.1448,-8.612388,Portuguese Restaurant
25,41.14474475038048,-8.612144768310557,25,5,5d46f211e0ab5b0007063bbf,Em Canto,41.144617,-8.612009,Mediterranean Restaurant
26,41.14474475038048,-8.612144768310557,25,6,570aadd4498e9396ad176732,Kanpai Downtown,41.144654508757846,-8.611645401988033,Asian Restaurant
27,41.14474475038048,-8.612144768310557,25,7,594fa676747ecd052c87c1c9,Concept 31,41.14465,-8.612433,Portuguese Restaurant
28,41.14474475038048,-8.612144768310557,25,8,4cf11a4d1d18a143bbe950ec,Adega Vila Meã,41.1453146849984,-8.6127715235259,Portuguese Restaurant
29,41.14474475038048,-8.612144768310557,25,9,536e5470498e00237eccbcd0,Adega do é aqui,41.144403500290885,-8.612183426520877,Portuguese Restaurant
30,41.14474475038048,-8.612144768310557,25,10,5404e186498e349093e8f206,caldereiros,41.144738,-8.612881,Portuguese Restaurant
31,41.14474475038048,-8.612144768310557,25,11,5321b3ea11d2f6df03433c10,Yours Bistrô,41.14497739685976,-8.613078801954991,Portuguese Restaurant
32,41.14474475038048,-8.612144768310557,25,12,5c5ae5f5dff815002cc3e9e6,Lóios Food&Cocktails,41.14548186914934,-8.61242227256298,Portuguese Restaurant
33,41.14474475038048,-8.612144768310557,25,13,5d61775157ba490008d9c3f7,Nix Deutsches,41.144254,-8.612307,German Restaurant
34,41.14474475038048,-8.612144768310557,25,14,4f059c9a29c22bbefef04e06,Adega do Olho,41.144582748170876,-8.612199531099339,Portuguese Restaurant
35,41.14474475038048,-8.612144768310557,25,15,57faa0f3498eacf29f38f4bd,casual chic food,41.144836,-8.611581,Portuguese Restaurant
36,41.14474475038048,-8.612144768310557,25,16,5aaba2c2838e593be0d6dd0b,Adega Floresta,41.144385,-8.612459,Portuguese Restaurant
37,41.14474475038048,-8.612144768310557,25,17,4b885d7df964a52066f231e3,Arroz de Forno,41.14392141941668,-8.61256703324331,Portuguese Restaurant
38,41.14474475038048,-8.612144768310557,25,18,58fbb14335811b3685abf696,Dão Invicto,41.144753,-8.611959,Tapas Restaurant
39,41.14474475038048,-8.612144768310557,25,19,52320efe498e61d5d3799422,Restaurante Bibóporto,41.14472072849998,-8.612897399436417,Portuguese Restaurant
40,41.14474475038048,-8.612144768310557,25,20,521e44af498e516c697faf3d,Baga,41.14506386937939,-8.612360577071238,Tapas Restaurant
41,41.14474475038048,-8.612144768310557,25,21,53c5837a498e684dd0002597,Tambla Restaurante,41.145031,-8.612519,African Restaurant
42,41.14474475038048,-8.612144768310557,25,22,5d346ce2e2efbf000873f1db,have a bite drinks & snacks,41.145144,-8.612573,Tapas Restaurant
43,41.14474475038048,-8.612144768310557,25,23,596a43a56dcf044afa61d992,6 Meia Duzia,41.144558,-8.612463,Portuguese Restaurant
44,41.14474475038048,-8.612144768310557,25,24,50574f12e4b0978a10e86457,Arcos dos Loios,41.145117128316016,-8.612387418099654,Comfort Food Restaurant
45,41.147005679712876,-8.609162473269873,12,0,4cbee24b9ca854814e19b316,Costume Bistrô,41.14682384541946,-8.610319827738223,Mediterranean Restaurant
46,41.147005679712876,-8.609162473269873,12,1,4d0b68409a4437041b66b967,La Ricotta,41.147364347591235,-8.608413033208615,Italian Restaurant
47,41.147005679712876,-8.609162473269873,12,2,4e2b4802227197a112d86d31,Flor dos Congregados,41.146939,-8.610213,Portuguese Restaurant
48,41.147005679712876,-8.609162473269873,12,3,4fc92317e4b0b7b256de0c6a,Restaurante Rivoli,41.14768325127856,-8.609225610017663,Portuguese Restaurant
49,41.147005679712876,-8.609162473269873,12,4,52a6edad498e4403013cecf4,SELF - Lugar de Sabores,41.147100397381934,-8.608162756643258,Portuguese Restaurant
50,41.147005679712876,-8.609162473269873,12,5,4caef06ef2dbef3b964078e5,A Regaleira,41.147119208163645,-8.609545175635715,Portuguese Restaurant
51,41.147005679712876,-8.609162473269873,12,6,4daadce3f7b145b370193793,Icaraí,41.147133984297064,-8.608899916350977,Portuguese Restaurant
52,41.147005679712876,-8.609162473269873,12,7,50ed6cd4e4b0372656b9e13f,Restaurante Girassol,41.147208,-8.608877,Portuguese Restaurant
53,41.147005679712876,-8.609162473269873,12,8,4e25d87cfa76a490d3bedca7,Restaurante Palco,41.14687478040585,-8.609192317548931,Mediterranean Restaurant
54,41.147005679712876,-8.609162473269873,12,9,4e4acac262847afcaf1af6ed,Novo Paris,41.14697403261497,-8.61031823264103,Portuguese Restaurant
55,41.147005679712876,-8.609162473269873,12,10,565f2f24498e5954cca51918,31 Porto - Café & Restaurante,41.146788,-8.610046,Portuguese Restaurant
56,41.147005679712876,-8.609162473269873,12,11,509ed029e4b047ee2908e97f,Francesinha na Baixa,41.147739758448374,-8.609174844313669,Portuguese Restaurant
57,41.14474475038048,-8.609162473269873,1,0,580e4b1538fa27d5ba606fc7,Adega Alfredo Portista,41.14425,-8.609076,Bar
58,41.14587521504668,-8.60468923635264,19,0,4bcf66c6caff95210b19cdf0,Café Santiago,41.14659311746831,-8.604849461192186,Portuguese Restaurant
59,41.14587521504668,-8.60468923635264,19,1,590331e10802d42c652e95d5,Brasão Cervejaria Coliseu,41.14664549431399,-8.604848758990334,Portuguese Restaurant
60,41.14587521504668,-8.60468923635264,19,2,53bb024c498e617a4c423e75,éLeBê,41.146329011659745,-8.604635688982196,Portuguese Restaurant
61,41.14587521504668,-8.60468923635264,19,3,5457e9d1498e2030915c19d1,Sol e Sombra,41.146443131453864,-8.604437519014834,Portuguese Restaurant
62,41.14587521504668,-8.60468923635264,19,4,5443e918498ec84e4310e3be,Bai no batalha,41.146270751953125,-8.605436325073242,Polish Restaurant
63,41.14587521504668,-8.60468923635264,19,5,597df97cbd40092a304e50fc,Trigo De Cantos,41.145983,-8.603654,Portuguese Restaurant
64,41.14587521504668,-8.60468923635264,19,6,5ac625e93b8307381f67d7de,Senhor Zé,41.145836,-8.605055,Portuguese Restaurant
65,41.14587521504668,-8.60468923635264,19,7,582c4fe50b08c70e094c46ca,Barriga Negra,41.14539,-8.603947,Portuguese Restaurant
66,41.14587521504668,-8.60468923635264,19,8,5c21ff7db6b04b002c254aa7,4 ROYAL Restaurante e Bar,41.145514,-8.60381,Portuguese Restaurant
67,41.14587521504668,-8.60468923635264,19,9,551b0b12498e36068b2cf24d,Douro Sentido,41.14599609375,-8.604653358459473,Portuguese Restaurant
68,41.14587521504668,-8.60468923635264,19,10,58fa469f646e380af644fbdb,Restaurante Nova Luanda,41.145628,-8.604945,Portuguese Restaurant
69,41.14587521504668,-8.60468923635264,19,11,4d03e0790e49721e09ad6d7f,A Corça,41.14612,-8.60386,Portuguese Restaurant
70,41.14587521504668,-8.60468923635264,19,12,4ff39ecd29a6fd0b6735b18a,O Restaurante Tripeiro,41.14667912137006,-8.60508995058826,Portuguese Restaurant
71,41.14587521504668,-8.60468923635264,19,13,4c33b3db09a99c7453ec0b2a,Splashback,41.14606862255812,-8.60415369272232,Sushi Restaurant
72,41.14587521504668,-8.60468923635264,19,14,5b4ba2a65a2c91002c59fabf,Élebê Entreparedes,41.145492,-8.605456,Portuguese Restaurant
73,41.14587521504668,-8.60468923635264,19,15,4e6915c514954826adf512f0,Restaurante Nova China,41.14662965363281,-8.604872299601805,Chinese Restaurant
74,41.14587521504668,-8.60468923635264,19,16,5596898d498eaf75892977e0,Portobello,41.14529503606686,-8.604582846164703,Portuguese Restaurant
75,41.14587521504668,-8.60468923635264,19,17,4d19e761e190721e36b02c21,O Buraquinho,41.14646187860465,-8.603872129075505,Portuguese Restaurant
76,41.14587521504668,-8.60468923635264,19,18,4e281f43483baa86515206a9,O Caseiro,41.14584027037617,-8.605017227015948,Portuguese Restaurant
77,41.147005679712876,-8.606180383872982,8,0,4b963f73f964a5204dc234e3,Majestic Café,41.147125,-8.606598,Coffee Shop
78,41.147005679712876,-8.606180383872982,8,1,50b0d36be4b006275426a5c1,Lado B,41.14678042538816,-8.60552161437185,Portuguese Restaurant
79,41.147005679712876,-8.606180383872982,8,2,5a803ecb0d173f267ecb5ba3,A Cascata,41.146739,-8.605427,Portuguese Restaurant
80,41.147005679712876,-8.606180383872982,8,3,4ff39ecd29a6fd0b6735b18a,O Restaurante Tripeiro,41.14667912137006,-8.60508995058826,Portuguese Restaurant
81,41.147005679712876,-8.606180383872982,8,4,54958788498ee220d902999c,Porto Douro,41.14753865842295,-8.606610897025934,Portuguese Restaurant
82,41.147005679712876,-8.606180383872982,8,5,4d95c516647d8cfa1f63a73d,Casa das Tortas,41.14672934715317,-8.605303794046614,Pastelaria
83,41.147005679712876,-8.606180383872982,8,6,54c24a94498e259a3c0626d7,Casa da Beira Alta,41.147601,-8.606715,Portuguese Restaurant
84,41.147005679712876,-8.606180383872982,8,7,53e0002e498e8db16677a270,A Melhor Francesinha Do Mundo,41.146791765726334,-8.605500320389055,Portuguese Restaurant
85,41.14474475038048,-8.606180383872982,7,0,5b69cbed2f97ec002ca5e931,Gazela Entreparedes,41.144935,-8.60635,Snack Place
86,41.14474475038048,-8.606180383872982,7,1,565d9a7b498e0693f2de9b86,Tokyo Sushi,41.14436167039815,-8.605880443020606,Sushi Restaurant
87,41.14474475038048,-8.606180383872982,7,2,592b12da9cadd905283915c6,Restaurante KAPADOKYA,41.144872,-8.607187,Turkish Restaurant
88,41.14474475038048,-8.606180383872982,7,3,55f861fb498e6e582a5bc047,Kapadokya,41.14493876753213,-8.607313030864045,Turkish Restaurant
89,41.14474475038048,-8.606180383872982,7,4,555785f5498ee9e1e48276ec,Kapatoya,41.145057678222656,-8.607172012329102,Turkish Restaurant
90,41.14474475038048,-8.606180383872982,7,5,4f4a629ae4b092e0caf7d898,Uludağ Restaurant,41.14492155265824,-8.607158964299705,Turkish Restaurant
91,41.14474475038048,-8.606180383872982,7,6,565efb1f498e9293108ff34d,Tokyo Sushi,41.144357,-8.605721,Sushi Restaurant
92,41.147005679712876,-8.603198088832297,15,0,57bdd3f6498e911fceac443e,Cantinho dos Bragança,41.14627373108781,-8.603524623960825,Tapas Restaurant
93,41.147005679712876,-8.603198088832297,15,1,59412c7958002c30bf54ddd7,Picanha Na Baixa,41.146795,-8.602638,Brazilian Restaurant
94,41.147005679712876,-8.603198088832297,15,2,52b1a504498eff895090af4b,Maria Rita,41.14683222124956,-8.603918014741287,Portuguese Restaurant
95,41.147005679712876,-8.603198088832297,15,3,4d603cc1196ba09345aa1756,Restaurante Roma,41.146796956815244,-8.602797862062767,Portuguese Restaurant
96,41.147005679712876,-8.603198088832297,15,4,58c40caa6ad73d0d995bbb28,Jeremias,41.146234,-8.602803,Portuguese Restaurant
97,41.147005679712876,-8.603198088832297,15,5,59426b04febf312430e057d2,Tasquinha D'ouro II,41.146787,-8.602961,Portuguese Restaurant
98,41.147005679712876,-8.603198088832297,15,6,5a3bbfda0531e85f7d82ac00,Porto À Prova,41.14657,-8.603789,Tapas Restaurant
99,41.147005679712876,-8.603198088832297,15,7,523cbbb7498ed9c5d6cc4559,Comibébe Carioca,41.147083342506605,-8.604357004363827,Portuguese Restaurant
100,41.147005679712876,-8.603198088832297,15,8,59ac4e1e6e46504a066c71df,Rochas Bar,41.147081,-8.603766,Portuguese Restaurant
101,41.147005679712876,-8.603198088832297,15,9,5eee7239e2135a0008de8b5b,Guaka,41.147003,-8.602251,Mexican Restaurant
102,41.147005679712876,-8.603198088832297,15,10,50413a46e4b003e2b2ffa4d0,Restaurante Salmão,41.1463623046875,-8.603239059448242,Portuguese Restaurant
103,41.147005679712876,-8.603198088832297,15,11,4f948ac4e4b0c03d2b4b4eb7,i-Tapas by ibis Kitchen,41.14692306518555,-8.603974342346191,Tapas Restaurant
104,41.147005679712876,-8.603198088832297,15,12,5d9a3b69a74b8d0008cd04d0,Battousai,41.146996,-8.602282,Sushi Restaurant
105,41.147005679712876,-8.603198088832297,15,13,594eba41005ac17945218430,US Diner,41.146381,-8.603531,American Restaurant
106,41.147005679712876,-8.603198088832297,15,14,4d19e761e190721e36b02c21,O Buraquinho,41.14646187860465,-8.603872129075505,Portuguese Restaurant
107,41.14474475038048,-8.603198088832297,3,0,582c4fe50b08c70e094c46ca,Barriga Negra,41.14539,-8.603947,Portuguese Restaurant
108,41.14474475038048,-8.603198088832297,3,1,5953c7864a7aae6895775ece,Lol,41.144942,-8.60421,Dutch Restaurant
109,41.14474475038048,-8.603198088832297,3,2,5c21ff7db6b04b002c254aa7,4 ROYAL Restaurante e Bar,41.145514,-8.60381,Portuguese Restaurant
