,Unnamed: 0,lat_centre,long_centre,num_venues,venue_iter,venue_id,venue_name,lat_venue,long_venue,category
823,355,41.143614285714285,-8.5941,14,6,4b3b6ff9f964a520c97325e3,A Cozinha do Manel,41.1461957837337,-8.592845854169498,Portuguese Restaurant
1005,537,41.162661904761904,-8.648385714285713,15,0,4b5b9c27f964a520c90a29e3,Cufra,41.161963348280345,-8.652858884139263,Portuguese Restaurant
1392,924,41.23885238095238,-8.5941,1,0,4b638970f964a520b8812ae3,Restaurante Machado,41.240649036909545,-8.591351055517649,Portuguese Restaurant
1228,760,41.18170952380952,-8.5941,5,2,4b6e9b08f964a520bbc32ce3,Tóquio Sushi Bar,41.183393110903275,-8.597851702030168,Sushi Restaurant
30,30,41.14587521504668,-8.618260664924069,28,19,4b7753f6f964a5206b922ee3,Zé Bota,41.146986637310796,-8.61710659772417,Mediterranean Restaurant
877,409,41.15313809523809,-8.634814285714285,14,0,4b7807eff964a520c8b22ee3,Capa Negra II,41.152454846355546,-8.630532230373968,Portuguese Restaurant
1458,37,41.144744750380475,-8.612144768310557,25,17,4b885d7df964a52066f231e3,Arroz de Forno,41.14392141941668,-8.612567033243309,Portuguese Restaurant
1142,674,41.17218571428571,-8.566957142857143,16,14,4b8ef4c4f964a520064133e3,Restaurante Casa da Pedra,41.17275072499219,-8.567678306675209,Italian Restaurant
1069,601,41.162661904761904,-8.607671428571429,22,21,4b955dc7f964a520b99e34e3,Restaurant grappa,41.160307985807506,-8.61151240544458,Italian Restaurant
844,376,41.15313809523809,-8.675528571428572,28,3,4b972c5af964a52004fb34e3,Varanda do Sol,41.15186740179614,-8.67735255191466,Portuguese Restaurant
543,75,41.11504285714285,-8.5941,3,0,4b97a5aaf964a5207e0d35e3,Dicasa,41.116162535719006,-8.599744936423445,Italian Restaurant
876,408,41.15313809523809,-8.648385714285713,5,4,4bb254f72397b71311df36b3,Gokobe,41.155199897182726,-8.64811629558269,Japanese Restaurant
674,206,41.143614285714285,-8.648385714285713,12,8,4bbf24d4f353d13acf167e10,Restaurante A Margem,41.1447653344347,-8.646152322686453,Portuguese Restaurant
1101,633,41.17218571428571,-8.6891,11,6,4bc8d23f511f95210c6dacc7,Cufra Grill,41.171329720762465,-8.687735936840134,Portuguese Restaurant
1100,632,41.17218571428571,-8.6891,11,5,4bd6f18f6f649521959771ec,Chill Out,41.17123487,-8.687791,Mediterranean Restaurant
434,434,41.183970453141924,-8.686116073728982,8,3,4bd7557609ecb713a99f467c,Tapas & Papas,41.182357553423564,-8.686017969394404,Tapas Restaurant
1120,652,41.17218571428571,-8.607671428571429,7,1,4bd857745cf276b0b5f89c00,Adega Escondida,41.17073389,-8.611068,Portuguese Restaurant
871,403,41.15313809523809,-8.661957142857142,3,2,4bdae00b63c5c9b61a472568,Melhor Sabor,41.155564499990795,-8.66357737601991,Portuguese Restaurant
164,164,41.14135335638189,-8.610653620790215,39,12,4bdc4ef02a3a0f47df3ab2b6,Chez Lapin,41.14052781350421,-8.612502732735956,Portuguese Restaurant
1098,630,41.17218571428571,-8.6891,11,3,4bf040d6c601a593137ac3d1,Presto Pizza,41.17553844519344,-8.688994354252056,Italian Restaurant
892,424,41.15313809523809,-8.621242857142857,44,1,4bf1ae18324cc9b66e52cc92,Cervejaria Diu,41.15640433764642,-8.621104596903333,Portuguese Restaurant
1128,660,41.17218571428571,-8.566957142857143,16,0,4bfed55f4e5d0f47713b7d1f,Chimarrão,41.17475589737733,-8.565735661869788,Brazilian Restaurant
688,220,41.143614285714285,-8.634814285714285,39,10,4c0e2f03d64c0f478eb4275d,Chamiço's,41.14246549056431,-8.64020218735735,Mediterranean Restaurant
1440,19,41.14700567971288,-8.612144768310557,10,9,4c129ba61b5cef3b03c9edc4,Thali,41.14737937834181,-8.612809399849354,Indian Restaurant
796,328,41.143614285714285,-8.607671428571429,50,29,4c13854da1010f4791b34a18,Abadia do Porto,41.147989413423694,-8.60779803149253,Portuguese Restaurant
468,0,41.0579,-8.661957142857142,1,0,4c1d1ef3b9f876b0d5117d46,Neptuno,41.05793555671508,-8.656009001023762,Portuguese Restaurant
1072,604,41.162661904761904,-8.5941,15,2,4c22822bfbe5c9b64e019a21,Your Palace,41.16304875623358,-8.592044479022446,Portuguese Restaurant
631,163,41.134090476190465,-8.621242857142857,26,18,4c25f0d4905a0f479f4f6260,Sumo Cais,41.137502016278646,-8.618068018440875,Japanese Restaurant
883,415,41.15313809523809,-8.634814285714285,14,6,4c274738136d20a1b8ade661,Alicantina,41.15303211988496,-8.638191239064081,Portuguese Restaurant
1024,556,41.162661904761904,-8.634814285714285,20,4,4c2891ebfe6e2d7fc660533c,Casa Isa,41.15866751913005,-8.633884748377339,Mediterranean Restaurant
985,517,41.15313809523809,-8.5941,7,0,4c2bb6ec8abca593ae9d0020,Capa Negra,41.15097191632925,-8.594040756671138,Portuguese Restaurant
988,520,41.15313809523809,-8.5941,7,3,4c2ca56b2219c9281166a648,Café Académico,41.150984,-8.593919999999999,Mediterranean Restaurant
620,152,41.134090476190465,-8.621242857142857,26,7,4c38c9f8dfb0e21e1244afa8,Pasta Caffé,41.137478490704936,-8.617651781281737,Italian Restaurant
1133,665,41.17218571428571,-8.566957142857143,16,5,4c3e1d3a1ef0d13a39d99180,Comida & Companhia,41.17453987213239,-8.565789554841631,Portuguese Restaurant
1016,548,41.162661904761904,-8.648385714285713,15,11,4c3f009fdb3b1b8dfe216695,Delight,41.16297425961515,-8.643207663335904,Mediterranean Restaurant
1116,648,41.17218571428571,-8.634814285714285,1,0,4c4069fba48d9c74c6440c40,Dom Pito,41.17306055984899,-8.636785526407799,Portuguese Restaurant
1139,671,41.17218571428571,-8.566957142857143,16,11,4c48a21e76d72d7f6920414d,Serra da Estrela,41.174980009938494,-8.565517999276128,Mediterranean Restaurant
429,429,41.17944859447714,-8.692083926271017,22,20,4c48b3feb5eec9b603a9c5a3,Restaurante 44,41.180588,-8.692589,Mediterranean Restaurant
1354,886,41.22932857142857,-8.621242857142857,12,0,4c5019b51886c9b6e9de1c28,Miramaia,41.2328644320567,-8.622181687663232,Eastern European Restaurant
548,80,41.12456666666667,-8.661957142857142,9,0,4c5076f9c71876b065dfd755,O Casarão,41.12244518401945,-8.665541482854877,Portuguese Restaurant
707,239,41.143614285714285,-8.634814285714285,39,29,4c51706ad797e21e7e9d077c,Brasa Rio,41.14190131434111,-8.636587176198253,Brazilian Restaurant
1209,741,41.18170952380952,-8.634814285714285,4,1,4c518a0d991c20a16d0cf587,Restaurante Lazuli,41.18395510590985,-8.639824390411379,Mediterranean Restaurant
565,97,41.12456666666667,-8.621242857142857,7,0,4c5472d31b46c9b6ecd79cce,O Forno,41.123579949249184,-8.626310596950692,Portuguese Restaurant
515,47,41.10551904761905,-8.648385714285713,1,0,4c54766d06901b8d0f81d94b,Casa D. Amélia,41.106060743989865,-8.64970184372252,Portuguese Restaurant
888,420,41.15313809523809,-8.634814285714285,14,11,4c56cd52af95b713d328d057,Campo Alegre,41.152676777089894,-8.633449802278177,Portuguese Restaurant
685,217,41.143614285714285,-8.634814285714285,39,7,4c5ab3ef04f9be9a7a55f260,Go Natural,41.141856275596645,-8.636683446767263,Vegetarian / Vegan Restaurant
1282,814,41.20075714285714,-8.6891,2,0,4c5c664a85a1e21ec68a5611,Brasileirão,41.20268741275152,-8.693176422954508,Brazilian Restaurant
1269,801,41.19123333333333,-8.553385714285714,1,0,4c65a31419f3c9b6a6ad9dff,Restaurante Cantinho Das Cavadas,41.19170871405266,-8.552405268409897,Eastern European Restaurant
533,65,41.11504285714285,-8.621242857142857,13,7,4c65a4f68e9120a1a4c5d564,Taverna do Alho,41.11768767154554,-8.622782764584594,Portuguese Restaurant
617,149,41.134090476190465,-8.621242857142857,26,4,4c6ae2eb3fa82c7a661919a6,Tappas Caffé,41.134832428089254,-8.624939772111576,Tapas Restaurant
849,381,41.15313809523809,-8.675528571428572,28,8,4c6aefcc9669e21ef4daa951,A Popular da Foz,41.15043066666696,-8.676150761547197,Portuguese Restaurant
851,383,41.15313809523809,-8.675528571428572,28,10,4c71accb8efc37049926117d,Museu dos Presuntos,41.149943524046506,-8.673309467865476,Tapas Restaurant
1097,629,41.17218571428571,-8.6891,11,2,4c751c61604a3704d8a98149,Zen House,41.17401346586578,-8.688347168097716,Sushi Restaurant
1007,539,41.162661904761904,-8.648385714285713,15,2,4c78223cbd346dcbc819f1ef,BB Villa,41.165153917625275,-8.651611964892362,Portuguese Restaurant
260,260,41.15313809523809,-8.607671428571429,21,19,4c7973672d3ba1435b538ed0,King Long,41.153299543015635,-8.608200332014658,Chinese Restaurant
313,313,41.150877165905705,-8.610654053990698,43,33,4c7c0a18bd346dcb9efffcef,Le Chien Qui Fume,41.15059029896986,-8.61210884999819,Mediterranean Restaurant
307,307,41.150877165905705,-8.610654053990698,43,27,4c7cf60c247cb60c33695f5e,Via Garrett,41.14978974150967,-8.611058773480659,Portuguese Restaurant
691,223,41.143614285714285,-8.634814285714285,39,13,4c8ccb57f87e224bacd33705,Só Peso,41.141748,-8.636567999999999,Eastern European Restaurant
17,17,41.14587521504668,-8.618260664924069,28,6,4c926b8eae96a0935eccab46,Restaurante Papagaio,41.147087147483724,-8.617030055469534,Portuguese Restaurant
492,24,41.076947619047615,-8.5941,1,0,4c950c1f38dd8cfa45efce62,Locanda,41.07594252227618,-8.599371010312135,Portuguese Restaurant
328,328,41.15539902457049,-8.604688803152156,8,5,4c9d0c26d3c2b60c567abdbc,Restaurante Portucale,41.15560215236863,-8.602364830692261,Portuguese Restaurant
1362,894,41.22932857142857,-8.621242857142857,12,8,4c9f45852fb1a1433c1ff240,Restaurante Dona Lourdes,41.22817591748315,-8.619442095596696,Mediterranean Restaurant
614,146,41.134090476190465,-8.621242857142857,26,1,4ca4836d1ee76dcb272202de,Ponte de Pedra,41.13166935161901,-8.624851720124948,Portuguese Restaurant
542,74,41.11504285714285,-8.607671428571429,4,3,4ca8988697c8a1cd862686a5,O Transmontano,41.1151781251569,-8.612144816881571,Portuguese Restaurant
626,158,41.134090476190465,-8.621242857142857,26,13,4cab712736fa6dcb7b18d978,Restaurante Chines,41.129744,-8.620268,Chinese Restaurant
824,356,41.143614285714285,-8.5941,14,7,4cac3b7aa643b7138fceeaa6,Restaurante Marinho,41.14628816162377,-8.593905870004361,Portuguese Restaurant
689,221,41.143614285714285,-8.634814285714285,39,11,4cb054daeb65b1f777fa6acd,Serra da Estrela,41.14165925930709,-8.636562824249268,Portuguese Restaurant
1137,669,41.17218571428571,-8.566957142857143,16,9,4cb3624eaef16dcb8c26c854,A Cascata,41.17366332807799,-8.565967082977295,Portuguese Restaurant
1127,659,41.17218571428571,-8.580528571428571,2,1,4cb89a7743ec6dcb9d179731,Restaurante Chinês Hua Feng,41.174997047920364,-8.583903675925201,Chinese Restaurant
684,216,41.143614285714285,-8.634814285714285,39,6,4cbc9f14d78f4688b138c973,Ali Baba Kebab Haus,41.141691418650396,-8.63656102177267,Falafel Restaurant
353,353,41.150877165905705,-8.604688803152156,35,22,4cc03cee8db3b60c5c017d78,Restaurante milénio,41.150355,-8.607502,Portuguese Restaurant
622,154,41.134090476190465,-8.621242857142857,26,9,4cc494c13d7fa1cd5bcfac5f,Provas Do Cais,41.13712,-8.616985000000001,Latin American Restaurant
1090,622,41.162661904761904,-8.580528571428571,9,5,4cc5c22c914137042b76cb55,Restaurante Serra Da Estrela,41.163916975003424,-8.582653362269001,Portuguese Restaurant
1204,736,41.18170952380952,-8.648385714285713,5,1,4cc816213c40a35d8081722e,Cantina Consolidar E Validar,41.178556,-8.648652,Arepa Restaurant
708,240,41.143614285714285,-8.634814285714285,39,30,4cc88ca1d063a143bd1b08b4,Joshua's Shoarma Grill,41.14186821167265,-8.636634210156421,Falafel Restaurant
821,353,41.143614285714285,-8.5941,14,4,4cc9710bb3f5224b7aa5f420,Restaurante Rogério do Redondo,41.144538744497645,-8.598957349502237,Portuguese Restaurant
1028,560,41.162661904761904,-8.634814285714285,20,8,4cc99001e7926dcbfc515d77,Eataly,41.159310929294655,-8.634582815198852,Italian Restaurant
1360,892,41.22932857142857,-8.621242857142857,12,6,4ccb0964ee23a143fb8514a8,Restaurante Asiático,41.227951000000004,-8.619655,Asian Restaurant
575,107,41.12456666666667,-8.607671428571429,28,3,4ccb098897d0224b9dba56b8,O Charco,41.12883520372233,-8.605889128058338,Portuguese Restaurant
696,228,41.143614285714285,-8.634814285714285,39,18,4ccf2e046200b1f7d3e4cc28,Wok to Walk,41.14170410659712,-8.636557841942563,Asian Restaurant
1113,645,41.17218571428571,-8.648385714285713,6,3,4cd2b7a43e0c8cfa31521912,Boi na Brasa,41.17049671585304,-8.643466,Brazilian Restaurant
706,238,41.143614285714285,-8.634814285714285,39,28,4ce43f04e1dba35d180c7b88,Pasta Caffé,41.141832663935496,-8.636641755747288,Italian Restaurant
512,44,41.10551904761905,-8.661957142857142,5,2,4ce5860119efa093c7e0c5f1,Marbelo,41.10554142104221,-8.661355806098097,Portuguese Restaurant
511,43,41.10551904761905,-8.661957142857142,5,1,4ce6fd93f3bda143b83dafe4,A Cozinha do Português,41.10752402985661,-8.661072118798106,Portuguese Restaurant
1036,568,41.162661904761904,-8.634814285714285,20,16,4cf025448333224bb95a028e,Tokyo,41.159544610203525,-8.634996013212843,Japanese Restaurant
594,126,41.12456666666667,-8.607671428571429,28,22,4cfab5f3d8468cfad9c0ef6b,Taberna,41.126078572138255,-8.605082657321585,Spanish Restaurant
702,234,41.143614285714285,-8.634814285714285,39,24,4cfd3f430df3236ade1f03aa,Il Mercato Di Pasta,41.14184146830997,-8.636660944216608,Italian Restaurant
1239,771,41.18170952380952,-8.580528571428571,9,8,4d04e732c2e53704fb3fbb67,A Cozinha do Martinho,41.17879659725453,-8.584040156381857,Portuguese Restaurant
1200,732,41.18170952380952,-8.675528571428572,3,1,4d07d41bf683721e86721c65,Hao,41.17912285264763,-8.680105162420809,Asian Restaurant
544,76,41.11504285714285,-8.5941,3,1,4d0bd3e546bab60c4de52990,Quinta da Boucinha,41.1129451820488,-8.591070149294595,Portuguese Restaurant
848,380,41.15313809523809,-8.675528571428572,28,7,4d0d21dabdbfa35d83dd6772,Restaurante Clik,41.154065,-8.676308,Mediterranean Restaurant
921,453,41.15313809523809,-8.621242857142857,44,30,4d0d25de3bbaa14374f93ada,Corça,41.153394,-8.623801,Mediterranean Restaurant
699,231,41.143614285714285,-8.634814285714285,39,21,4d0d266f5c46a093f1d10cb4,Perfume,41.146224,-8.63077,Mediterranean Restaurant
862,394,41.15313809523809,-8.675528571428572,28,21,4d0fcb5059606dcb3bec703e,Cêpa Torta,41.151307484741004,-8.676727131641949,Portuguese Restaurant
1309,841,41.210280952380955,-8.6891,12,10,4d12648912916dcb2f98d58a,Go Natural,41.20931942890853,-8.688003829096921,Vegetarian / Vegan Restaurant
859,391,41.15313809523809,-8.675528571428572,28,18,4d1357f7d1848cfa570ec371,Restaurante Refúgio,41.149866086042856,-8.675463060485002,Portuguese Restaurant
518,50,41.10551904761905,-8.621242857142857,4,2,4d1ddf83f7a9a143203f149f,Rosa II,41.108460020061955,-8.618719182710443,Chinese Restaurant
186,186,41.14135335638189,-8.610653620790215,39,34,4d1f4a9416cfb60cbd255061,Mira Douro,41.14083045772325,-8.610626666674968,Portuguese Restaurant
1030,562,41.162661904761904,-8.634814285714285,20,10,4d2383fbc5f2a1cd96b94bcf,Amadeus,41.15826498820347,-8.634545017066259,Italian Restaurant
1299,831,41.210280952380955,-8.6891,12,0,4d283a8255a8b60c1562cbc0,Restaurante IKEA,41.209736291495474,-8.687940536480518,Scandinavian Restaurant
540,72,41.11504285714285,-8.607671428571429,4,1,4d28e43cc406721e12fb75b6,O Nordeste Transmontano,41.115156896547774,-8.612076062751454,Portuguese Restaurant
1067,599,41.162661904761904,-8.607671428571429,22,19,4d2cc8c0f728b60c7b3795fd,Restaurante Rito,41.165039095264284,-8.611023905819048,Mediterranean Restaurant
1092,624,41.162661904761904,-8.580528571428571,9,7,4d2e12ec49bb721ecda87b95,Pasta-Caffé,41.16352416681392,-8.58395046547256,Italian Restaurant
1093,625,41.162661904761904,-8.580528571428571,9,8,4d304cb92748b60c9856daa0,Chimarrão,41.16421397966766,-8.582983016967772,Brazilian Restaurant
646,178,41.134090476190465,-8.607671428571429,15,7,4d30bc92a241f04de251b727,Zé Ladrão,41.13416534589505,-8.604781049149263,Portuguese Restaurant
680,212,41.143614285714285,-8.634814285714285,39,2,4d32ffb56c7c721e445ab556,100 Montaditos,41.1420632444568,-8.636605739593506,Tapas Restaurant
1246,778,41.19123333333333,-8.6891,6,4,4d3762083ffba14351965156,Restaurante Chanquinhas,41.1934922501028,-8.693458145106138,Portuguese Restaurant
698,230,41.143614285714285,-8.634814285714285,39,20,4d3a004649cb236a5491b547,Bodegão Restaurante,41.14191149925311,-8.636607634231533,Portuguese Restaurant
483,15,41.06742380952381,-8.580528571428571,3,2,4d3b05f1beb7b1f73f50ef71,L'Orient Express,41.068568602820356,-8.57660329474843,Middle Eastern Restaurant
861,393,41.15313809523809,-8.675528571428572,28,20,4d3c26c1a2e4b1f71dade625,Av Brasil 66 Café,41.153199,-8.678427000000001,Italian Restaurant
576,108,41.12456666666667,-8.607671428571429,28,4,4d3c2b21af8ca143ec27fff6,Cantinho de Luanda,41.12436946035013,-8.612050790087991,African Restaurant
361,361,41.150877165905705,-8.604688803152156,35,30,4d4014f889616dcb5f8e00b5,Quasi Pronti,41.149186,-8.605578999999999,Italian Restaurant
1310,842,41.210280952380955,-8.6891,12,11,4d402efc00e8a35d8398f8fa,Li yuan,41.20947513414498,-8.688070218160803,Chinese Restaurant
527,59,41.11504285714285,-8.621242857142857,13,1,4d42b70858e9b1f778cadbce,Sr. Frango da Guia (GaiaShopping),41.117714225932495,-8.622754130213101,Portuguese Restaurant
1258,790,41.19123333333333,-8.634814285714285,8,7,4d456af91911a0933f0be2d8,Mantel,41.19048644852692,-8.639560753654518,Mediterranean Restaurant
558,90,41.12456666666667,-8.648385714285713,3,1,4d4dd59b4aa3a093988947ae,Retiro do Paniceiro,41.12462954198763,-8.650650855219045,Portuguese Restaurant
21,21,41.14587521504668,-8.618260664924069,28,10,4d4e9d368975a35d277a10a8,Tasca S. António,41.145176293459,-8.615463462595347,Tapas Restaurant
881,413,41.15313809523809,-8.634814285714285,14,4,4d514acf4015b1f7a3ae6ecf,Mille Paste,41.15513946773698,-8.629943475498305,Italian Restaurant
1135,667,41.17218571428571,-8.566957142857143,16,7,4d51a23b3062a1cd4af368a3,Pasta Caffé,41.174925677491714,-8.565741270604452,Italian Restaurant
402,402,41.183970453141924,-8.692083926271017,22,15,4d587dcb0e0a8eecafa2739b,Delicias da Mesa,41.18509968769901,-8.692485475127839,Mediterranean Restaurant
994,526,41.162661904761904,-8.661957142857142,11,0,4d5feeba9f67f04dbd8672fb,ElDorado,41.16425292937482,-8.662521554691647,Portuguese Restaurant
1383,915,41.23885238095238,-8.621242857142857,7,0,4d600bd7d7206ea80e1ef0f1,Dong Sheng,41.23904461587478,-8.620182214263284,Chinese Restaurant
1231,763,41.18170952380952,-8.580528571428571,9,0,4d6423a24e1ea1cd213641b9,Musaxi II,41.18090104832275,-8.582682036981387,Japanese Restaurant
641,173,41.134090476190465,-8.607671428571429,15,2,4d68455b67a8f04d3d8cfebd,O Assador,41.13068986426918,-8.607062343274963,Brazilian Restaurant
1134,666,41.17218571428571,-8.566957142857143,16,6,4d694fd682cba0930725d9d8,Restaurante Asiático KYODAI,41.175065600536435,-8.565344268041839,Japanese Restaurant
1053,585,41.162661904761904,-8.607671428571429,22,5,4d6973862acd6ea898583ac0,Chamiço,41.16270158062545,-8.610770289752457,Portuguese Restaurant
860,392,41.15313809523809,-8.675528571428572,28,19,4d70f24d766da1434e2756ad,Neka Nau,41.150710312843664,-8.6762582153957,Portuguese Restaurant
457,457,41.17944859447714,-8.686116073728982,29,18,4d7a2827542ab1f75cca8841,Sabor Fresco,41.17964553511195,-8.683603276639829,Sushi Restaurant
1051,583,41.162661904761904,-8.607671428571429,22,3,4d7af5ff7ed8548123bf71d0,Pajú,41.16012276689922,-8.60801890926472,Portuguese Restaurant
585,117,41.12456666666667,-8.607671428571429,28,13,4d80c258208a548171597a67,yayuan,41.124817,-8.611605,Asian Restaurant
1109,641,41.17218571428571,-8.661957142857142,1,0,4d835d3502eb5481bdb717f5,Si Come Sabores & Petiscos,41.171071999999995,-8.657459,Mediterranean Restaurant
100,100,41.143614285714285,-8.607671428571429,28,26,4d83b8c55091370427796f5b,Restaurante Porto Antigo,41.145262718939115,-8.607594966888428,Portuguese Restaurant
499,31,41.09599523809523,-8.661957142857142,1,0,4d86637d50913704ce16ab5b,Da Salvatore,41.0949217752005,-8.657677746179166,Italian Restaurant
1403,935,41.248376190476186,-8.634814285714285,2,1,4d88a663bc848cfa210bb12b,O Industrial,41.24873254193192,-8.635903482090297,Portuguese Restaurant
602,134,41.12456666666667,-8.580528571428571,2,1,4d8b496e6daeb60c43c875e0,Restaurante Ciprianos,41.121307172655975,-8.577341100243897,Mediterranean Restaurant
428,428,41.17944859447714,-8.692083926271017,22,19,4d8babc837c6a143ad6daf0c,Petisqueira Godinho,41.18147555553625,-8.692678933367924,Mediterranean Restaurant
463,463,41.17944859447714,-8.686116073728982,29,24,4d8dde29fa9437045927f3c5,Shoya,41.17867771754197,-8.685713532398024,Sushi Restaurant
1278,810,41.19123333333333,-8.499099999999999,6,2,4d8ddea26174a09300e9b9e3,Casa das Bifanas,41.19120358099278,-8.500603324936927,Tapas Restaurant
293,293,41.150877165905705,-8.610654053990698,43,13,4d8dfd95788c54816d902dfd,O Ernesto,41.14961631012954,-8.613103247977946,Portuguese Restaurant
1010,542,41.162661904761904,-8.648385714285713,15,5,4d939487484d6ea878627e30,Li Jin,41.161708436065524,-8.651293850966281,Chinese Restaurant
451,451,41.17944859447714,-8.686116073728982,29,12,4d94e58f1646a35d7a3841a3,Sabor Fresco,41.17955526888711,-8.683506325267215,Sushi Restaurant
703,235,41.143614285714285,-8.634814285714285,39,25,4d9630e761a3a1cdb9f69542,O Caseirinho,41.14591366275645,-8.631146240230558,Portuguese Restaurant
632,164,41.134090476190465,-8.621242857142857,26,19,4d978528c19fb60c80219965,Mineirão (Cais de Gaia),41.13803329449729,-8.619033547754595,Brazilian Restaurant
550,82,41.12456666666667,-8.661957142857142,9,2,4d9cbff3a1ec8cfa96ecf249,Telepizza Salgueiros,41.12211935648955,-8.666174328378206,Italian Restaurant
1345,877,41.21980476190476,-8.553385714285714,13,9,4da47b069935a0930b47de6f,Taverna's,41.21639356652185,-8.550705207073634,Tapas Restaurant
541,73,41.11504285714285,-8.607671428571429,4,2,4dac297efa8cc764975c3187,Restaurante Picota,41.11324478360737,-8.604354858398438,Portuguese Restaurant
34,34,41.14587521504668,-8.618260664924069,28,23,4dade9bc4b229076785c7bb8,Restaurante Caldeira,41.146564921331155,-8.616988110083327,Mediterranean Restaurant
171,171,41.14135335638189,-8.610653620790215,39,19,4db59f780cb6729b6aa909aa,Casa Deolinda,41.14060103315121,-8.61299825290835,Portuguese Restaurant
405,405,41.183970453141924,-8.692083926271017,22,18,4dbbfc35815439392f987f09,O Lusitano,41.183054715177505,-8.694809128051501,Mediterranean Restaurant
597,129,41.12456666666667,-8.607671428571429,28,25,4dc97fc8d4c0abe9b6317020,Mesón de Tapas,41.125498,-8.605255999999999,Tapas Restaurant
1159,691,41.18170952380952,-8.6891,50,10,4dcdb40b1f6eb122706852b1,Palato,41.18187880012173,-8.693797749127938,Portuguese Restaurant
1331,863,41.21980476190476,-8.566957142857143,5,0,4dd1158e183899ddfb1320b9,Pastamix,41.219764,-8.561066,Italian Restaurant
1334,866,41.21980476190476,-8.566957142857143,5,3,4dd11730fa7664b7c6e69793,"Alentejo - Pão, Azeite & Alho",41.21964368167846,-8.561325364571264,Portuguese Restaurant
1222,754,41.18170952380952,-8.607671428571429,13,9,4de2a9d7d164df857500eaa8,Maria Caipira,41.18003530664093,-8.60456097497844,Brazilian Restaurant
1082,614,41.162661904761904,-8.5941,15,12,4dea9054d164ef597cef1394,Casa da Picanha,41.159153841366965,-8.592911142083704,Brazilian Restaurant
1302,834,41.210280952380955,-8.6891,12,3,4dee80247d8bb216743d898b,Serra da Estrela,41.20943676773564,-8.687950093922263,Portuguese Restaurant
818,350,41.143614285714285,-8.5941,14,1,4defa6b5887754a6af9812d5,O Xico dos Presuntos,41.14656310362041,-8.592229595305982,Portuguese Restaurant
389,389,41.183970453141924,-8.692083926271017,22,2,4df3be3ed22d8c5470def487,Antiga Casa Castanheira,41.185936532642906,-8.691471755342077,Portuguese Restaurant
1400,932,41.248376190476186,-8.661957142857142,2,0,4df750a9e4cd500714433cf4,Mira Metro,41.245764962273135,-8.661321134499651,Portuguese Restaurant
1105,637,41.17218571428571,-8.6891,11,10,4dfde6a41f6e05048d8ad772,Teppan - Sushi & Teppanyaki,41.171747766491336,-8.688052190786294,Sushi Restaurant
182,182,41.14135335638189,-8.610653620790215,39,30,4e03afe1e4cd92cb899b1245,Muralha Da Barca,41.14063625738968,-8.611421147034818,Portuguese Restaurant
525,57,41.11504285714285,-8.634814285714285,1,0,4e07279345ddb2875c48b878,Restaurante Dona Maria,41.11212991856005,-8.633615751935276,Portuguese Restaurant
1161,693,41.18170952380952,-8.6891,50,12,4e0a360462e1198aafe178ea,Antonio,41.182042091449546,-8.69391669144893,Portuguese Restaurant
1374,906,41.23885238095238,-8.675528571428572,7,4,4e0da1aa091acd6746d900bc,Douro,41.23706026151732,-8.671976296184678,Portuguese Restaurant
1277,809,41.19123333333333,-8.499099999999999,6,1,4e0e26ab1838f62321c25da5,Barril,41.188914152699525,-8.499932501946986,Portuguese Restaurant
884,416,41.15313809523809,-8.634814285714285,14,7,4e0e3034b61c3fe47801181b,Restaurante Franganito,41.15328488103406,-8.630577072393327,Portuguese Restaurant
656,188,41.134090476190465,-8.580528571428571,1,0,4e0f835dd164fff335b5d949,Grelha do Areinho,41.13376417809171,-8.578628887221837,Portuguese Restaurant
1317,849,41.210280952380955,-8.607671428571429,2,0,4e1073f8b0fbfef99b88d573,Casa do Tonel,41.210848999999996,-8.60264,Portuguese Restaurant
1250,782,41.19123333333333,-8.661957142857142,3,2,4e176e6b45dd120c1204cf6d,Paquete,41.1886208882982,-8.666226917440861,Portuguese Restaurant
1344,876,41.21980476190476,-8.553385714285714,13,8,4e1b83ad81306017a4cd2b40,el rodri,41.21724190336942,-8.552260994911194,Mediterranean Restaurant
356,356,41.150877165905705,-8.604688803152156,35,25,4e1f409952b1bdc463eab600,O Pátio,41.14914033097823,-8.605414436898675,Portuguese Restaurant
1206,738,41.18170952380952,-8.648385714285713,5,3,4e217cf81838712abe71fe03,Itália & Itália,41.17868511643489,-8.644383273150428,Italian Restaurant
591,123,41.12456666666667,-8.607671428571429,28,19,4e21ac81a80968cf3e41b07d,Go Natural,41.12558273649071,-8.605386390619957,Vegetarian / Vegan Restaurant
1099,631,41.17218571428571,-8.6891,11,4,4e2347e522717a5245ddd960,Churrasqueira Campanhâ,41.17487899417526,-8.690507929980775,Portuguese Restaurant
1474,53,41.14700567971288,-8.609162473269873,12,8,4e25d87cfa76a490d3bedca7,Restaurante Palco,41.14687478040585,-8.609192317548931,Mediterranean Restaurant
277,277,41.15539902457049,-8.610654053990698,18,15,4e27410fe4cd60a2c62dcf17,Churrascaria Cristal,41.155473178213576,-8.61346106699104,Portuguese Restaurant
1497,76,41.14587521504668,-8.60468923635264,19,18,4e281f43483baa86515206a9,O Caseiro,41.14584027037617,-8.605017227015948,Portuguese Restaurant
508,40,41.09599523809523,-8.553385714285714,1,0,4e2d5dafae605c533a4aed55,Duchef,41.09936385631234,-8.551198384810805,Portuguese Restaurant
868,400,41.15313809523809,-8.675528571428572,28,27,4e36acebd4c06343483a391c,Casa Rocha,41.152513475343966,-8.677860796451569,Portuguese Restaurant
573,105,41.12456666666667,-8.607671428571429,28,1,4e3855c962e1a8e9cc4ec6e8,Restaurante Chinês Rosa,41.12603270909313,-8.606491182687527,Chinese Restaurant
636,168,41.134090476190465,-8.621242857142857,26,23,4e3aa3bcc65b8a6b56af8351,Mineirão,41.13776029219724,-8.618528189968334,Brazilian Restaurant
895,427,41.15313809523809,-8.621242857142857,44,4,4e444cf4b0fb71d219808b38,O Afonso,41.152721931686784,-8.62178188338423,Portuguese Restaurant
1379,911,41.23885238095238,-8.661957142857142,6,2,4e47d64e45dd2955e5a9fa53,O Fernando,41.23984331621921,-8.666256742621968,Portuguese Restaurant
509,41,41.09599523809523,-8.539814285714284,1,0,4e4816ce7d8b91a065a508c5,Parquibrasa,41.0952892115611,-8.544322197187485,Portuguese Restaurant
1286,818,41.20075714285714,-8.661957142857142,2,1,4e490b4314959d51c183e3e4,Restaurante C.D.S.,41.202096999999995,-8.665827,Portuguese Restaurant
1475,54,41.14700567971288,-8.609162473269873,12,9,4e4acac262847afcaf1af6ed,Novo Paris,41.14697403261497,-8.610318232641031,Portuguese Restaurant
1417,949,41.2579,-8.648385714285713,4,3,4e4c0e791f6e2a789a8fce30,Ali Baba,41.255804757356245,-8.653164477303415,Turkish Restaurant
174,174,41.14135335638189,-8.610653620790215,39,22,4e4c3217d22d10a6c5c855d7,Taberna Do Bebovos,41.14066342528562,-8.611073791980742,Portuguese Restaurant
633,165,41.134090476190465,-8.621242857142857,26,20,4e4ec61462e14b77e392ada3,Recanto 2,41.132413,-8.626679,Portuguese Restaurant
538,70,41.11504285714285,-8.621242857142857,13,12,4e4fa3b9aeb70f1284a2a5ba,O Kilo,41.11741752,-8.62217558,Brazilian Restaurant
986,518,41.15313809523809,-8.5941,7,1,4e4fa5ffc65bb313ba884a19,Pasta-Caffé,41.15282314786038,-8.597674585238973,Italian Restaurant
1414,946,41.2579,-8.648385714285713,4,0,4e52a8ae62e1f6d84aab650a,Star,41.2558359128984,-8.652809987077159,Asian Restaurant
887,419,41.15313809523809,-8.634814285714285,14,10,4e539c66ae606f5737a05669,Allegro Gourmet: Alimentação Inteligente,41.15576577233959,-8.638363964577168,Mediterranean Restaurant
1264,796,41.19123333333333,-8.607671428571429,6,5,4e541af8483b764fba1d61a1,Restaurante Lareira,41.19277572631836,-8.611563682556152,Portuguese Restaurant
653,185,41.134090476190465,-8.607671428571429,15,14,4e54ffeda8093d27ccac6496,Churrasqueira Nova Cidade,41.13492611854181,-8.607663542754223,Portuguese Restaurant
430,430,41.17944859447714,-8.692083926271017,22,21,4e563ff81838c793c074b40c,Os Rapazes,41.179049,-8.694699,Portuguese Restaurant
147,147,41.14587521504668,-8.610653620790215,50,45,4e56becad22d50494ee632f9,Acepipe Porto,41.146788681042274,-8.610562249711684,Portuguese Restaurant
179,179,41.14135335638189,-8.610653620790215,39,27,4e579fead16491e0ae4b60b2,A Canastra da Ribeira,41.14058942872873,-8.611827989377272,Portuguese Restaurant
103,103,41.14587521504668,-8.610653620790215,50,1,4e57e7ea52b1748f806e9dea,Miss'OPO,41.145452763222586,-8.6131766746086,Portuguese Restaurant
1063,595,41.162661904761904,-8.607671428571429,22,15,4e5e819aae60a1cb36df32de,O Poleiro,41.16209908038231,-8.60385113841802,Portuguese Restaurant
1059,591,41.162661904761904,-8.607671428571429,22,11,4e5fe0641838d10f595c1c1c,Restaurante Pax,41.16016730350833,-8.604499697685242,Portuguese Restaurant
1138,670,41.17218571428571,-8.566957142857143,16,10,4e660baa483bd9a975d69283,Ali Baba,41.17461425982797,-8.565861186495779,Middle Eastern Restaurant
352,352,41.150877165905705,-8.604688803152156,35,21,4e667c1d8877dfcf2fc6da76,Real Churrasco Português,41.14994812011719,-8.604885101318361,Portuguese Restaurant
1364,896,41.22932857142857,-8.621242857142857,12,10,4e68b72862e1a02a612216b5,CristoRei,41.233457,-8.620658,Portuguese Restaurant
1081,613,41.162661904761904,-8.5941,15,11,4e6c968ca80957ae44cbebb9,Azul e Branco,41.160360418751566,-8.592248570671256,Portuguese Restaurant
1029,561,41.162661904761904,-8.634814285714285,20,9,4e6f43e51fc7c0836948c27b,Porto Grill,41.16106389402544,-8.632045984268187,Portuguese Restaurant
1076,608,41.162661904761904,-8.5941,15,6,4e6fab1a1f6e63a4eadc81ef,Restaurante Lareira,41.165960933516295,-8.597950685495642,Portuguese Restaurant
1256,788,41.19123333333333,-8.634814285714285,8,5,4e73712245dd41e9ccee721c,Restaurante Regional,41.189878268231055,-8.636086365419263,Portuguese Restaurant
1253,785,41.19123333333333,-8.634814285714285,8,2,4e74848e7d8b917602a0ba3c,O Vício do Fado,41.191565999999995,-8.633469999999999,Portuguese Restaurant
606,138,41.12456666666667,-8.512671428571426,3,0,4e77ac7e091a4b66f2327810,Restaurante Flor Da Touta,41.12756670013296,-8.514763712882996,Portuguese Restaurant
838,370,41.143614285714285,-8.539814285714284,3,1,4e7cfbb1754ac7ef24188304,Restaurante Cozinha da Avó,41.14429319770136,-8.535907566547394,Portuguese Restaurant
1084,616,41.162661904761904,-8.5941,15,14,4e80df975c5cf9c204b2b216,Restaurante Caetano,41.16112812691127,-8.590257519001849,Portuguese Restaurant
1244,776,41.19123333333333,-8.6891,6,2,4e85a902cc2143d954aa2fa7,Os Gémeos,41.1917465,-8.6921109,Portuguese Restaurant
535,67,41.11504285714285,-8.621242857142857,13,9,4e85bc3dbe7b2381496553e8,Pasta Caffé,41.11746874051524,-8.622415887941457,Italian Restaurant
875,407,41.15313809523809,-8.648385714285713,5,3,4e875c3d823125560f36e947,Jardim d'Inverno Restaurant,41.154236551862006,-8.648863251599003,Portuguese Restaurant
604,136,41.12456666666667,-8.566957142857143,2,1,4e886ac42c5bf84137ac7beb,Cozinha Transmontana,41.128746,-8.5673796,Portuguese Restaurant
1377,909,41.23885238095238,-8.661957142857142,6,0,4e8b56b7dab4414a6b5a8060,Restaurante O Banquinho,41.23839238945889,-8.664026804174316,Portuguese Restaurant
1234,766,41.18170952380952,-8.580528571428571,9,3,4e8b5876550385f095564414,Samuel - Restaurante - Take Away,41.185244,-8.582352,Portuguese Restaurant
1337,869,41.21980476190476,-8.553385714285714,13,1,4e8c4bc9722e0db230128bd6,Dojoão,41.216950099490525,-8.556310339075754,Portuguese Restaurant
567,99,41.12456666666667,-8.621242857142857,7,2,4e8d97dd6da1d5bdcf354e1e,Ucha,41.12703013223089,-8.622045433841723,Portuguese Restaurant
547,79,41.11504285714285,-8.539814285714284,1,0,4e8dae3e4690501c9d86db67,"Adega Vigário - ""Esgravata""",41.117892444159686,-8.542402400374517,Portuguese Restaurant
1180,712,41.18170952380952,-8.6891,50,31,4e90ce049a52db7dba6ce7f7,Lama's Temple,41.1779402334852,-8.689028595058188,Japanese Restaurant
1208,740,41.18170952380952,-8.634814285714285,4,0,4e91f905722ed3aceafe7eb6,Príncipe do Monte,41.18023498989535,-8.629842784697981,Portuguese Restaurant
1300,832,41.210280952380955,-8.6891,12,1,4e95eb0f61af864d7d170eed,Fogo de Chão,41.20941939693178,-8.687176267969704,Brazilian Restaurant
845,377,41.15313809523809,-8.675528571428572,28,4,4e96001db803f7b4a4af80cb,Tentações no Prato,41.150238398797285,-8.675640357824598,Portuguese Restaurant
712,244,41.143614285714285,-8.634814285714285,39,34,4e98294902d5a3943702fa05,Tasca do Rio,41.14580725913563,-8.631063845768374,Portuguese Restaurant
259,259,41.15313809523809,-8.607671428571429,21,18,4e989da6d22d3f4f88a53fe6,Paladar à Solta,41.153527004137295,-8.607931936911442,New American Restaurant
1210,742,41.18170952380952,-8.634814285714285,4,2,4e9eb0bd6da161b08da7f1f3,Churrasqueira Monte Dos Burgos,41.17966002626635,-8.62958909308862,Portuguese Restaurant
992,524,41.15313809523809,-8.580528571428571,1,0,4ea0769629c201f5d0983013,Restaurante O Lanterna,41.14993315773914,-8.57870937463305,Portuguese Restaurant
36,36,41.14587521504668,-8.618260664924069,28,25,4ea08c708b810332abf5f817,Tapas Bar 24,41.146943836646095,-8.617159292790793,Tapas Restaurant
987,519,41.15313809523809,-8.5941,7,2,4ea53d564690104bb4b731fe,Cozinha Transmontana,41.15659036243702,-8.591008853129052,Portuguese Restaurant
612,144,41.134090476190465,-8.648385714285713,2,1,4ea7fbc0b6345041a0beb109,Tappas Caffe,41.13605385731604,-8.652439385483243,Portuguese Restaurant
654,186,41.134090476190465,-8.5941,2,0,4ea7ffa4f7903beac0b65c65,Churrasqueira A Ramadinha,41.12978098385501,-8.593990802764893,Portuguese Restaurant
1110,642,41.17218571428571,-8.648385714285713,6,0,4eaf281002d521a7a7b4ef38,Officina,41.17064697330436,-8.644297345863004,Portuguese Restaurant
905,437,41.15313809523809,-8.621242857142857,44,14,4eb199ed0aafa4370d228d7c,Indian Tandoori,41.15077362597409,-8.617187962291714,Indian Restaurant
1202,734,41.18170952380952,-8.661957142857142,1,0,4eb3e88d722e578a4ec0ad01,La croissanterie de Paris,41.18231196081522,-8.661345062714945,French Restaurant
713,245,41.143614285714285,-8.634814285714285,39,35,4eb44d6b9adf1152732da018,Quasi Pronto,41.14176,-8.636541000000001,Italian Restaurant
1144,676,41.17218571428571,-8.553385714285714,4,0,4eb5bdad9adfc687128c91d6,Quinta Da Morgadinha,41.171799618231006,-8.556463266326228,Portuguese Restaurant
381,381,41.18170952380952,-8.6891,21,15,4eb6ae30f5b94bd85c54e872,Iate Tapas Bar,41.182079342523906,-8.688777619785567,Tapas Restaurant
826,358,41.143614285714285,-8.5941,14,9,4ebd946fd3e38e6b0c3b7aba,Filó,41.14327114521015,-8.600006997585298,African Restaurant
1296,828,41.20075714285714,-8.553385714285714,4,3,4ebe498129c25ce5a145fc18,In Ermesinde,41.204931744705455,-8.551342080659241,Portuguese Restaurant
1037,569,41.162661904761904,-8.634814285714285,20,17,4ebe7c3c6da15b4dde65ab22,Dom Pastel,41.16233396476732,-8.636433778456666,Portuguese Restaurant
1385,917,41.23885238095238,-8.621242857142857,7,2,4ebef7e44901f56b0da762d9,wc,41.23725718719104,-8.616461995883602,African Restaurant
271,271,41.15539902457049,-8.610654053990698,18,9,4ec1171a5c5c3d470d486df5,Rosa das Iscas,41.15635435102106,-8.613167896211069,Portuguese Restaurant
870,402,41.15313809523809,-8.661957142857142,3,1,4ec141609adfe2b7b6ca16b7,Apetites,41.15591379364101,-8.663705847616892,Portuguese Restaurant
1438,17,41.14700567971288,-8.612144768310557,10,7,4ec243d529c25ce5a310add1,O Almadinha,41.14735933398516,-8.612188794713317,Portuguese Restaurant
588,120,41.12456666666667,-8.607671428571429,28,16,4ec5760502d54e704754b7df,Serra da Estrela - Cantinho Regional,41.125577192334,-8.605350024344471,Portuguese Restaurant
514,46,41.10551904761905,-8.661957142857142,5,4,4ec82ee35c5ce271be7330aa,Tappas Caffe,41.10793501392406,-8.661181136434442,Tapas Restaurant
1140,672,41.17218571428571,-8.566957142857143,16,12,4ecd581b2c5bc3505373f752,Stuppendo,41.17451242909093,-8.565961232378278,Italian Restaurant
678,210,41.143614285714285,-8.634814285714285,39,0,4ed01fbc9adf2544569a80fc,Taberna Cais das Pedras,41.145265670391694,-8.629457186166325,Tapas Restaurant
472,4,41.0579,-8.621242857142857,1,0,4edab54730f83fb79d1154a7,Quinta Espirito Santo,41.05553532065876,-8.625739317532059,Portuguese Restaurant
1225,757,41.18170952380952,-8.607671428571429,13,12,4ede11a3d3e346be389b5c24,Apetites Campus,41.18014958265925,-8.604147666669757,Portuguese Restaurant
1124,656,41.17218571428571,-8.607671428571429,7,5,4ede84c430f87f12861cb154,Sabores do Norte,41.17105719406403,-8.606015623365908,Portuguese Restaurant
501,33,41.09599523809523,-8.634814285714285,1,0,4edfd7958b81340ef17d4baf,A Grade Velha,41.09958798430943,-8.631414717041503,Portuguese Restaurant
349,349,41.150877165905705,-8.604688803152156,35,18,4ee29bf66c252ff3c59b0d29,Mini Kalzone,41.149089000000004,-8.605282,Italian Restaurant
991,523,41.15313809523809,-8.5941,7,6,4ee3b58b722ea7b94477e962,Restaurante Bonanza,41.15599702354368,-8.594783958282669,Portuguese Restaurant
454,454,41.17944859447714,-8.686116073728982,29,15,4ee7c1130e61a5b514bc3a1f,Sushinaka,41.18073412307608,-8.683683641212287,Sushi Restaurant
1247,779,41.19123333333333,-8.6891,6,5,4ee7e8120e617cf2efec2c86,Stone Kitchen,41.19084167480469,-8.693623542785645,Portuguese Restaurant
1227,759,41.18170952380952,-8.5941,5,1,4ee8fd780aaff80c6970054b,Tertulia,41.182274028943475,-8.598109327189812,Italian Restaurant
560,92,41.12456666666667,-8.634814285714285,5,0,4eeb45d199119cf9cdea46d8,Novo Rumo,41.12645363946048,-8.637117710638758,Portuguese Restaurant
1280,812,41.19123333333333,-8.499099999999999,6,4,4eebab89490111d46ac23402,Restaurante Marisqueira Jardim,41.18868660069485,-8.499544858932495,Portuguese Restaurant
481,13,41.06742380952381,-8.580528571428571,3,0,4eebac8df7903296f89a2683,Restaurante Maria Rosa,41.069984964039676,-8.577968893667547,Portuguese Restaurant
1316,848,41.210280952380955,-8.621242857142857,4,3,4eee5a4cbe7b6d620198ac4b,VougaPlazza,41.208867490794844,-8.622292403041559,Italian Restaurant
1152,684,41.18170952380952,-8.6891,50,3,4eee5e67f9ab8c5a02bc2316,São Valentim,41.183029153944496,-8.694808666487244,Portuguese Restaurant
1274,806,41.19123333333333,-8.512671428571426,3,1,4eefa10d30f824cfc76ec0aa,Crista,41.19161169699567,-8.513617402212141,Portuguese Restaurant
1058,590,41.162661904761904,-8.607671428571429,22,10,4ef0e8dc93ad3fada1ae9b04,Amizade,41.16163850521032,-8.60227482204799,Chinese Restaurant
479,11,41.06742380952381,-8.621242857142857,2,1,4ef1a5fa2c5b44d2613d4765,Restaurante Castro,41.06789373689043,-8.615593408730613,Portuguese Restaurant
841,373,41.15313809523809,-8.675528571428572,28,0,4f0701ede4b071c573f40812,A Capoeira,41.149610096516135,-8.674402644720884,Portuguese Restaurant
1040,572,41.162661904761904,-8.621242857142857,8,0,4f08a787e4b0cc066c75af83,Tasquinha do Tuela,41.166206321467584,-8.620354253207976,Portuguese Restaurant
1273,805,41.19123333333333,-8.512671428571426,3,0,4f08ab70e4b08f5248fd28ad,Etecetra,41.18970805396479,-8.512191546160617,Portuguese Restaurant
929,461,41.15313809523809,-8.621242857142857,44,38,4f0d9344e4b03684a478a90c,Breyner Confeitaria,41.151501735424056,-8.61804571798368,Portuguese Restaurant
1319,851,41.210280952380955,-8.553385714285714,6,0,4f11f2c2e4b0865b082c4f54,Vilaroma,41.21276971414453,-8.54845252313732,Italian Restaurant
1035,567,41.162661904761904,-8.634814285714285,20,15,4f16c84ae4b0725661f53714,Cantina PT,41.163465270745064,-8.638975412878803,Portuguese Restaurant
1226,758,41.18170952380952,-8.5941,5,0,4f16ca5fe4b019e9967392e3,Restaurante INEGI,41.179247831418365,-8.594132127739352,Portuguese Restaurant
1336,868,41.21980476190476,-8.553385714285714,13,0,4f1c15d2e4b0b4fde9f28edb,Restaurante Estação Rodízio,41.21748733520508,-8.553627967834473,Brazilian Restaurant
537,69,41.11504285714285,-8.621242857142857,13,11,4f1eb78fe4b0f21393290a4a,Brasa Rio,41.117445184647664,-8.62269507193057,Brazilian Restaurant
690,222,41.143614285714285,-8.634814285714285,39,12,4f2406a3e4b0717a67f65a56,chow's,41.1420783996582,-8.636408805847168,Sushi Restaurant
1103,635,41.17218571428571,-8.6891,11,8,4f245131e4b05160ae9de47f,Chincas,41.17128818934645,-8.687856658998955,Tapas Restaurant
1032,564,41.162661904761904,-8.634814285714285,20,12,4f29c13ae4b0a2a2c449a01e,Teppan,41.15875787406189,-8.633416178501765,Sushi Restaurant
645,177,41.134090476190465,-8.607671428571429,15,6,4f2c4ca4e4b0a98a496574af,Restaurante Damas,41.13570166755903,-8.607540081759572,Portuguese Restaurant
1338,870,41.21980476190476,-8.553385714285714,13,2,4f2c5803e4b009e9716f2de4,Restaurante A Regional de Ermesinde,41.218233421294926,-8.55400374828199,Portuguese Restaurant
847,379,41.15313809523809,-8.675528571428572,28,6,4f319ff6e4b09c2f0fb09618,Restaurante Gerações,41.15118465033426,-8.677128597121833,Portuguese Restaurant
1272,804,41.19123333333333,-8.539814285714284,3,2,4f3bb000e4b09bd62730982a,Restaurante Cardeal,41.1882785729498,-8.538728380434424,Portuguese Restaurant
127,127,41.14587521504668,-8.610653620790215,50,25,4f3bd6d3e4b03e9c375bb0c7,Fado Das Castas,41.14561609197453,-8.613251704269635,Portuguese Restaurant
148,148,41.14587521504668,-8.610653620790215,50,46,4f3bdd88e4b03c8a49f91a77,Tatlıses Çiğköfte,41.147742118157936,-8.610793077415602,Turkish Restaurant
262,262,41.15539902457049,-8.610654053990698,18,0,4f3ea7c4e4b0250ce8da8b4a,Casa Paraíso,41.157307,-8.610144,Portuguese Restaurant
480,12,41.06742380952381,-8.607671428571429,1,0,4f3ec3b2e4b0250ce8fc0892,Fatita Peixoto,41.065381739542,-8.605960004331319,African Restaurant
1387,919,41.23885238095238,-8.621242857142857,7,4,4f40f3cee4b0daed43454f7e,Restaurante Santa Cruz( Qim Joao De Barca),41.23867778534921,-8.61944693683878,Portuguese Restaurant
1333,865,41.21980476190476,-8.566957142857143,5,2,4f42af6de4b028f64299ffdc,Casa das Tapas,41.22008297339819,-8.561240241710754,Tapas Restaurant
577,109,41.12456666666667,-8.607671428571429,28,5,4f47ef6de4b01e144e10e10b,Prato Janota,41.1255295,-8.603535899999999,Brazilian Restaurant
526,58,41.11504285714285,-8.621242857142857,13,0,4f4a934fe4b002a2adc89a3f,Bacalhau com Alho,41.117383915393646,-8.622668227271811,Portuguese Restaurant
559,91,41.12456666666667,-8.648385714285713,3,2,4f51371ae4b0ee60b7a801ec,Chale,41.124134390955895,-8.649893562220946,Portuguese Restaurant
601,133,41.12456666666667,-8.580528571428571,2,0,4f52773ce4b03be362f3c02f,Café Madeira,41.12044354617813,-8.582626531729359,Brazilian Restaurant
624,156,41.134090476190465,-8.621242857142857,26,11,4f576439e4b008b5f0bc0ebe,La Tasca Al Forno,41.13300318538912,-8.621514324067908,Italian Restaurant
1292,824,41.20075714285714,-8.566957142857143,1,0,4f57ccf0e4b0a386ddb1807d,Porto Rio,41.200476524797686,-8.5690353990334,Portuguese Restaurant
1121,653,41.17218571428571,-8.607671428571429,7,2,4f5a0f80e4b07f0bf63e74e5,A Tasca,41.173586,-8.60564,Portuguese Restaurant
1284,816,41.20075714285714,-8.675528571428572,1,0,4f5bbf94e4b0090c09da6a09,Clube Caçadores Matosinhos,41.199946000000004,-8.676767,Portuguese Restaurant
317,317,41.150877165905705,-8.610654053990698,43,37,4f63aac3e4b087553c24762f,Migalha,41.150470578316686,-8.611388938210418,Portuguese Restaurant
471,3,41.0579,-8.648385714285713,3,2,4f64b2bee4b0fb96f5fcfa38,Café São Domingos,41.058681171892275,-8.647637840301659,Portuguese Restaurant
234,234,41.14587521504668,-8.60468923635264,50,43,4f6502c0e4b06cb9fbcc7c1d,Tripeiro,41.146960728576325,-8.60456097497844,Portuguese Restaurant
1240,772,41.18170952380952,-8.526242857142856,2,0,4f65dc1ee4b03be1045b78fa,Restaurante Requinte,41.18376535453485,-8.526431322097777,Portuguese Restaurant
1271,803,41.19123333333333,-8.539814285714284,3,1,4f6cfd04e4b03cbd0fdcae9a,kim,41.19141387939453,-8.541297912597656,Portuguese Restaurant
1270,802,41.19123333333333,-8.539814285714284,3,0,4f6cfd69e4b0a235d63fa788,Restaurante KimKim,41.19117426819182,-8.540187130762934,Portuguese Restaurant
498,30,41.08647142857143,-8.512671428571426,1,0,4f6e06a5e4b0e6e00232c699,O Taberneiro,41.08386668781408,-8.516759357057103,Portuguese Restaurant
1235,767,41.18170952380952,-8.580528571428571,9,4,4f6e4116e4b0e3b3bdc42ad2,Restaurante Art Da Picanha,41.180703,-8.580744000000001,Portuguese Restaurant
469,1,41.0579,-8.648385714285713,3,0,4f70592ae4b07fa2c835c518,Sabor a Mar,41.054757697167524,-8.650028962172243,Portuguese Restaurant
1223,755,41.18170952380952,-8.607671428571429,13,10,4f71b86de4b09e5993d9bccc,ISEP - Restaurante-Bar - Edifício F,41.17867141632924,-8.607373261821447,Portuguese Restaurant
521,53,41.10551904761905,-8.566957142857143,1,0,4f735c34e4b042cc9661d8e6,graça da villa,41.10613250732422,-8.571990966796875,Portuguese Restaurant
1314,846,41.210280952380955,-8.621242857142857,4,1,4f77076ae4b063364722cf98,Casa das Iscas,41.210945210890266,-8.623070898145494,Portuguese Restaurant
1126,658,41.17218571428571,-8.580528571428571,2,0,4f7768ade4b0557b221f8842,TidBit,41.174777493596146,-8.585109213416684,Italian Restaurant
974,506,41.15313809523809,-8.607671428571429,50,39,4f7990dae4b0e8caa7b4cb82,Taberna Dom Castro,41.157448208779456,-8.607266321137661,Portuguese Restaurant
1394,926,41.23885238095238,-8.539814285714284,1,0,4f7a1212e4b041c95d3a5954,Don Garfo,41.23520901443956,-8.538957190177804,Portuguese Restaurant
1410,942,41.248376190476186,-8.5941,1,0,4f7b265ce4b0e20410a1ae61,Café Bom Dia,41.245201301125974,-8.596799741682661,Portuguese Restaurant
84,84,41.143614285714285,-8.607671428571429,28,10,4f7f05e1e4b06838143c1423,restsurante pereira,41.144287109375,-8.607292175292969,Portuguese Restaurant
482,14,41.06742380952381,-8.580528571428571,3,1,4f7f4a98e4b0999c11cc84ca,Riacho,41.066505947834614,-8.578366548899794,Portuguese Restaurant
711,243,41.143614285714285,-8.634814285714285,39,33,4f842227e4b0f13eb5297d7b,Carequinha,41.145952119845454,-8.630974415503186,Portuguese Restaurant
25,25,41.14587521504668,-8.618260664924069,28,14,4f842627e4b01b06cf5dcaf1,A Tasquinha,41.147259308828566,-8.617316417141698,Portuguese Restaurant
1236,768,41.18170952380952,-8.580528571428571,9,5,4f8dbd5de4b0003b52ea42f5,A Regional,41.18341967364588,-8.582154315782653,Portuguese Restaurant
190,190,41.14135335638189,-8.610653620790215,39,38,4f9afb54e4b0d04dbf885b94,Kioday,41.14134966585678,-8.612961818374442,Asian Restaurant
474,6,41.0579,-8.580528571428571,2,0,4fa44b30e4b094b9457bb2cd,quinta da pena,41.06088244040338,-8.578644984697256,Mediterranean Restaurant
476,8,41.0579,-8.566957142857143,1,0,4fa65866e4b0e4baa352c644,Restaurante Requinte,41.05567932128906,-8.565597534179688,Portuguese Restaurant
1123,655,41.17218571428571,-8.607671428571429,7,4,4fb39b76e4b030072b77de2f,Ábaco II,41.1748161315918,-8.610100746154785,Portuguese Restaurant
920,452,41.15313809523809,-8.621242857142857,44,29,4fb418fb6d8660d8e082bdbc,Adega do Bernardo,41.15256598486128,-8.620083332061768,Portuguese Restaurant
1307,839,41.210280952380955,-8.6891,12,8,4fb5604ce4b05dddb10c8a51,Teppan-Yaki,41.21318435668945,-8.688887596130371,Japanese Restaurant
1031,563,41.162661904761904,-8.634814285714285,20,11,4fb7b83de4b0363b1216fcd0,BB Gourmet,41.163293933261954,-8.636569655707534,Portuguese Restaurant
673,205,41.143614285714285,-8.648385714285713,12,7,4fb8df82e4b0351657177182,farturas,41.141490728854095,-8.649163130692397,Arepa Restaurant
320,320,41.150877165905705,-8.610654053990698,43,40,4fbb80a5e4b0e5d95bd92a43,Alma Portuense,41.15137164005936,-8.610592869377625,Portuguese Restaurant
608,140,41.12456666666667,-8.512671428571426,3,2,4fc11290e4b008d93aa27b13,o taberneiro,41.12507907973708,-8.512196907279012,Tapas Restaurant
651,183,41.134090476190465,-8.607671428571429,15,12,4fc80197e4b03339a6268f51,Restaurante Escondidinho,41.134300450379094,-8.60627327616225,Portuguese Restaurant
496,28,41.08647142857143,-8.5941,1,0,4fcbfe29e4b0d3660913cdb8,Taberna da Villa,41.08592995878347,-8.597845204596121,Portuguese Restaurant
1004,536,41.162661904761904,-8.661957142857142,11,10,4fce5ce6e4b0b62704194ccb,Kanpai Fusion Sushi,41.16349103440838,-8.667273233114505,Sushi Restaurant
682,214,41.143614285714285,-8.634814285714285,39,4,4fcfdaf3e4b071e6fa99fd27,Monchique,41.14531478757092,-8.630152884059504,Tapas Restaurant
462,462,41.17944859447714,-8.686116073728982,29,23,4fd0f397e4b01ff3e2619c1d,O Ruca,41.1789,-8.68545,Portuguese Restaurant
998,530,41.162661904761904,-8.661957142857142,11,4,4fd1f079e4b080eb26074c52,Ritual do Paladar,41.16328595794522,-8.667175026866108,Sushi Restaurant
1276,808,41.19123333333333,-8.499099999999999,6,0,4fd20ec8e4b096c7d312cb93,Taberna do Centenário,41.1896453429581,-8.498885700285742,Tapas Restaurant
522,54,41.10551904761905,-8.553385714285714,2,0,4fd269abe4b012fef53c5abe,restaurante pe dagua,41.10400033386856,-8.550999921348696,Portuguese Restaurant
1285,817,41.20075714285714,-8.661957142857142,2,0,4fdcdc58e4b08aca494b7ea6,Restaurante Bem regado,41.199843343141204,-8.657386259119338,Portuguese Restaurant
1339,871,41.21980476190476,-8.553385714285714,13,3,4fddd797e4b018d079249183,Abê,41.21772031201069,-8.553606807179822,Portuguese Restaurant
616,148,41.134090476190465,-8.621242857142857,26,3,4fde67b1e4b0d60dd93ecd9a,Restaurante Casa Dias,41.137022145437456,-8.617275050292426,Portuguese Restaurant
1229,761,41.18170952380952,-8.5941,5,3,4fe37960e4b0f8abc8aad616,soccer&tapas,41.17934725295007,-8.590643918482758,Tapas Restaurant
1418,950,41.2579,-8.634814285714285,2,0,4fec3a34e4b0bda56be5ff84,Cantina Efacec,41.258762655199796,-8.636725383229908,Portuguese Restaurant
1399,931,41.248376190476186,-8.675528571428572,1,0,4fef5befe4b0099eb10e0bbd,Adega Regional Pedras Rubras,41.24962934064889,-8.67100389869621,Portuguese Restaurant
1289,821,41.20075714285714,-8.580528571428571,3,0,4ff19108e4b09c09cb5ab8cd,Restaurante Dona Tila,41.19786834716797,-8.576128005981445,Portuguese Restaurant
1348,880,41.21980476190476,-8.553385714285714,13,12,4ff73dcae4b0a7f740995272,Cervejaria Marisqueira Capela,41.21720698072347,-8.552142434344024,Seafood Restaurant
1311,843,41.210280952380955,-8.661957142857142,1,0,4ff97ea2e4b0c98dddc539ed,Restaurante 'O Guedes',41.21288629697403,-8.66166199071819,Portuguese Restaurant
426,426,41.17944859447714,-8.692083926271017,22,17,4ffeb957e4b0de9322333e7c,Arco-Íris Sushi,41.179282298716025,-8.68937629690241,Sushi Restaurant
73,73,41.14135335638189,-8.618260664924069,35,34,5005d31ae4b0b7eb52ccaef0,Mal Cozinhado,41.143110153953366,-8.617600125048769,Portuguese Restaurant
625,157,41.134090476190465,-8.621242857142857,26,12,500845b6e4b0f0cea8223785,Tradicional,41.13731544063805,-8.618088666837943,Portuguese Restaurant
494,26,41.076947619047615,-8.512671428571426,1,0,500c4d8ce4b03215e6ce2c42,O Taberneiro,41.076921,-8.512102,Portuguese Restaurant
595,127,41.12456666666667,-8.607671428571429,28,23,500db497e4b0546b29fd9f5c,Brasa Rio - El Corte Inglés,41.12553040365407,-8.60517289010142,Brazilian Restaurant
1212,744,41.18170952380952,-8.621242857142857,1,0,500dba5ee4b03c6eb486fb16,Furusatu,41.18175083259744,-8.621390432446868,Asian Restaurant
1415,947,41.2579,-8.648385714285713,4,1,501049ede4b05b0d86540401,Restaurante Garffu's - Vivaci Maia,41.25793075561523,-8.65213680267334,Portuguese Restaurant
382,382,41.18170952380952,-8.6891,21,16,5011a6cee4b0befd121a2c3e,Pasta Fresca & Pizza,41.18179321289063,-8.689722061157228,Italian Restaurant
1398,930,41.23885238095238,-8.526242857142856,4,3,5019216de4b0df49e45a31f9,Quinta do Cabo,41.2390140044254,-8.528560813927774,Portuguese Restaurant
500,32,41.09599523809523,-8.648385714285713,1,0,501996bde4b089ae38df2d8c,cantinho do português,41.09322738647461,-8.645844459533691,Portuguese Restaurant
1233,765,41.18170952380952,-8.580528571428571,9,2,501c32d6e4b0ccb680adf698,Brasa D'Arcos,41.18399429321289,-8.582018852233888,Brazilian Restaurant
470,2,41.0579,-8.648385714285713,3,1,501d1346e4b00e1d08af314f,Vasco,41.05860279770387,-8.649656205914905,Portuguese Restaurant
1143,675,41.17218571428571,-8.566957142857143,16,15,501fc4a8e4b0b1c50ada49d0,Donna Massa,41.17438265641052,-8.566197289625588,Italian Restaurant
351,351,41.150877165905705,-8.604688803152156,35,20,502129c5e4b096fca64e8fc2,Restaurante Haik,41.150352470266384,-8.604612350463867,Portuguese Restaurant
563,95,41.12456666666667,-8.634814285714285,5,3,50250d1de4b0bb3db3da9e73,A Central de Coimbroes,41.124288647016456,-8.633976033675786,Portuguese Restaurant
487,19,41.06742380952381,-8.499099999999999,2,0,50295557e4b042eaf914cb9b,Molhe,41.06889724731445,-8.500089645385742,Sushi Restaurant
1232,764,41.18170952380952,-8.580528571428571,9,1,502ced42e4b0298224fcc8d9,Casa do Lopes,41.18090656049361,-8.582744586174659,Portuguese Restaurant
360,360,41.150877165905705,-8.604688803152156,35,29,502fcf6be4b02982265d8a6d,linha de costumes,41.150542,-8.605441,Tapas Restaurant
856,388,41.15313809523809,-8.675528571428572,28,15,5033fa71e4b0438ad975c3f6,Taberninha da D. Maria,41.155279,-8.67875,Portuguese Restaurant
1428,7,41.14587521504668,-8.610653620790215,10,7,503f63b0e4b001e626925747,Restaurante Xandoca,41.146273738376905,-8.611313784339778,Afghan Restaurant
1201,733,41.18170952380952,-8.675528571428572,3,2,5046593de4b004ecf0a9cfad,Senta-te e Come,41.18073232120687,-8.68099170691713,Portuguese Restaurant
1062,594,41.162661904761904,-8.607671428571429,22,14,504900f1e4b0fbb3122e7cbb,Café Korá,41.159616,-8.604307,African Restaurant
1217,749,41.18170952380952,-8.607671428571429,13,4,5050eab5e4b0145d40b87fe5,Mille Paste,41.18022458875028,-8.604099358052881,Italian Restaurant
635,167,41.134090476190465,-8.621242857142857,26,22,5053abefe4b0c7508a73af06,Infante - Portuguese food and tapas,41.13718039955813,-8.61764712367002,Portuguese Restaurant
1363,895,41.22932857142857,-8.621242857142857,12,9,5053b8c4e4b088edb09981ea,Cagadeira do Castelo da Princesa,41.22906112670898,-8.62451171875,Afghan Restaurant
900,432,41.15313809523809,-8.621242857142857,44,9,5054e7b9e4b02f6114784db9,Sabores do Sebouh,41.15010773485065,-8.617379901199715,Syrian Restaurant
1384,916,41.23885238095238,-8.621242857142857,7,1,5055be5ae4b0feb29a7ffcf7,guerra take away,41.236417271737494,-8.61880806374451,Portuguese Restaurant
1465,44,41.144744750380475,-8.612144768310557,25,24,50574f12e4b0978a10e86457,Arcos dos Loios,41.145117128316016,-8.612387418099654,Comfort Food Restaurant
1261,793,41.19123333333333,-8.607671428571429,6,2,505b7931e4b065a90bfbb0b3,Restaurante Marques da Avenida,41.19380469142666,-8.610368999148719,Portuguese Restaurant
569,101,41.12456666666667,-8.621242857142857,7,4,505b7adde4b08d1ea238b0e7,restaurante chocolate com pimenta,41.124793815541466,-8.615694305149743,Portuguese Restaurant
1369,901,41.22932857142857,-8.566957142857143,1,0,505cc498e4b0b05c7cad2266,museu,41.22506056234972,-8.565113578318067,Portuguese Restaurant
1346,878,41.21980476190476,-8.553385714285714,13,10,505cc561e4b0f1d6129ac065,Restaurante O Museu,41.21746826171875,-8.553462982177733,Portuguese Restaurant
593,125,41.12456666666667,-8.607671428571429,28,21,505cd17ae4b0d7a5e26dbe95,Sakurai Sushi Bar,41.12258838980606,-8.611578292444376,Japanese Restaurant
1419,951,41.2579,-8.634814285714285,2,1,5060474ce4b081c3554d6a16,rumo certo,41.257810882680275,-8.631017371638986,Portuguese Restaurant
907,439,41.15313809523809,-8.621242857142857,44,16,506dee22e4b066d6fd43ed75,Tasquinha das Artes,41.150688,-8.621262,Portuguese Restaurant
523,55,41.10551904761905,-8.553385714285714,2,1,506ecb7ae4b066d6fdab9785,O Broas,41.10661697387695,-8.553369522094728,Portuguese Restaurant
1437,16,41.14700567971288,-8.612144768310557,10,6,5070c687e4b0c9f5cff1a2d0,Donner-kebab,41.147252,-8.61273,Indian Restaurant
272,272,41.15539902457049,-8.610654053990698,18,10,5079b14ee4b07204c126e20c,Maria q.b.,41.15408594583934,-8.612253213052142,Portuguese Restaurant
98,98,41.143614285714285,-8.607671428571429,28,24,507db79ae4b0390979c06fc9,kanimambo,41.14347049296393,-8.608168124552323,Portuguese Restaurant
378,378,41.18170952380952,-8.6891,21,12,50805780e4b0a74e5116e492,Biboporto,41.182297536667036,-8.688396097012244,Mediterranean Restaurant
627,159,41.134090476190465,-8.621242857142857,26,14,50830152e4b0974e516d83c5,Herança Magna,41.13466150976583,-8.618190425883927,Portuguese Restaurant
1259,791,41.19123333333333,-8.607671428571429,6,0,5087ff25e4b0d647db0ca6eb,Adega Braseira,41.190656604850716,-8.613069183392199,Portuguese Restaurant
1242,774,41.19123333333333,-8.6891,6,0,508aea3ee4b0c2bf3ef43c0c,O Ribeiro,41.19146999561124,-8.693038234848494,Portuguese Restaurant
1293,825,41.20075714285714,-8.553385714285714,4,0,508c74ace4b0a533e16f838c,Escritório,41.20203018188477,-8.553162574768066,Portuguese Restaurant
570,102,41.12456666666667,-8.621242857142857,7,5,508e8355e4b040090bc55671,Tomatino,41.120376,-8.620880999999999,Italian Restaurant
1287,819,41.20075714285714,-8.634814285714285,2,0,508fb5ede4b0870a7b0ff50a,Tasquinha da Maria,41.196909999999995,-8.633761999999999,Portuguese Restaurant
1389,921,41.23885238095238,-8.621242857142857,7,6,5090335ee4b01ba25e282b81,Restaurante chinês Dong Sheng,41.238947701257494,-8.619740009307861,Chinese Restaurant
536,68,41.11504285714285,-8.621242857142857,13,10,50912c6ee4b0554ee857230a,AZ Gourmet,41.1162717105516,-8.621685719264372,Portuguese Restaurant
1091,623,41.162661904761904,-8.580528571428571,9,6,50918499e4b0b0bed4edc71f,O Rei das Bifanas,41.161839363057965,-8.577367928916527,Portuguese Restaurant
914,446,41.15313809523809,-8.621242857142857,44,23,509194efe4b0e6b4438f097a,Broadway Boogie Woogie,41.14928560998474,-8.623693699951174,Brazilian Restaurant
530,62,41.11504285714285,-8.621242857142857,13,4,509965eae4b07f2d2b649f4b,Sabores de A a Z,41.117328,-8.623064,Portuguese Restaurant
1477,56,41.14700567971288,-8.609162473269873,12,11,509ed029e4b047ee2908e97f,Francesinha na Baixa,41.14773975844837,-8.609174844313669,Portuguese Restaurant
31,31,41.14587521504668,-8.618260664924069,28,20,50a415b6e4b0178e0dd62c7e,Os Petiscos do Careca,41.147018,-8.617183,Tapas Restaurant
660,192,41.134090476190465,-8.526242857142856,2,0,50a6a8c1e4b059505804728b,Madureiras Souto,41.13591647568985,-8.530946105075643,Seafood Restaurant
1350,882,41.22932857142857,-8.6891,1,0,50accd3be4b02049324072d7,Tip Top,41.22715676842272,-8.684054394058766,Portuguese Restaurant
663,195,41.143614285714285,-8.661957142857142,3,0,50af7cdee4b047828abe5272,Restaurante Onda Mar,41.14440155029297,-8.659099578857424,Portuguese Restaurant
1413,945,41.2579,-8.661957142857142,3,2,50b0f0dbe412066e60351863,Pinheiral dos Leitões,41.2581864059721,-8.664200305938719,Portuguese Restaurant
274,274,41.15539902457049,-8.610654053990698,18,12,50b25b03e4b0fca7e9877297,Cantina da Dona Nena,41.153768,-8.611699,Brazilian Restaurant
1052,584,41.162661904761904,-8.607671428571429,22,4,50b54510e4b03812ff7b5703,Mamma Mia!,41.160630413436714,-8.604827185815783,Italian Restaurant
1122,654,41.17218571428571,-8.607671428571429,7,3,50b62a43e4b09ac20ef402ff,Nectar,41.17083358764648,-8.608585357666017,Portuguese Restaurant
1303,835,41.210280952380955,-8.6891,12,4,50b7c3ece4b0eaaa1a261e52,Ris8tto,41.20941514992841,-8.688180261674026,Italian Restaurant
401,401,41.183970453141924,-8.692083926271017,22,14,50c07ea1e4b0db1a2b4c81f9,Boi D'ouro,41.18227005004883,-8.69264030456543,Portuguese Restaurant
630,162,41.134090476190465,-8.621242857142857,26,17,50c130ede4b01a1f413670b4,Taberna dos irmaos,41.13328552246094,-8.626016616821289,Portuguese Restaurant
916,448,41.15313809523809,-8.621242857142857,44,25,50c1eb02e4b065b6f149e8e0,O Barão,41.156501,-8.619501,Portuguese Restaurant
1094,626,41.162661904761904,-8.526242857142856,1,0,50c3aad9e4b02d3a85c284d1,Restaurante Igreja,41.1666145324707,-8.527460098266603,Portuguese Restaurant
1380,912,41.23885238095238,-8.661957142857142,6,3,50c3b444e4b09610f2e3d25b,O Fernando,41.23962783813477,-8.666258811950684,Portuguese Restaurant
1221,753,41.18170952380952,-8.607671428571429,13,8,50c75442d63ea573c4f98dca,Kebab & Co.,41.180268986121185,-8.604505062103271,Turkish Restaurant
603,135,41.12456666666667,-8.566957142857143,2,0,50d4faa3e4b025aee3bc8804,O Cais,41.12241602966276,-8.56912124142574,Portuguese Restaurant
1266,798,41.19123333333333,-8.5941,2,1,50d626c5e4b0f5358b79f7b8,Taskadémico,41.188877358554265,-8.597293517177121,Portuguese Restaurant
1283,815,41.20075714285714,-8.6891,2,1,50e2e939e4b01e17fe8bced8,Restaurante Mercato,41.20269149805096,-8.692797158088052,Portuguese Restaurant
407,407,41.183970453141924,-8.692083926271017,22,20,50e73feee4b01d00efe9b934,adega da doca,41.1859016418457,-8.693513870239258,Portuguese Restaurant
437,437,41.183970453141924,-8.686116073728982,8,6,50e8251e498e768c82d41511,Palácio da Ásia,41.184588917252725,-8.685043077079575,Sushi Restaurant
1262,794,41.19123333333333,-8.607671428571429,6,3,50e88e91498e768c870defa8,Libolo,41.19345685361922,-8.610132804682081,Portuguese Restaurant
1473,52,41.14700567971288,-8.609162473269873,12,7,50ed6cd4e4b0372656b9e13f,Restaurante Girassol,41.147208,-8.608877,Portuguese Restaurant
1386,918,41.23885238095238,-8.621242857142857,7,3,50f9e1bbe4b07787c8c40769,Pielas,41.23878370536478,-8.622185025030296,Portuguese Restaurant
715,247,41.143614285714285,-8.634814285714285,39,37,50fb0285e4b064cc81b944c6,budegao,41.142026127138,-8.636548176074205,Portuguese Restaurant
1298,830,41.20075714285714,-8.499099999999999,1,0,50fb2171e4b0fb41a20c96bd,Restaurante do Souto,41.201228,-8.502802,Portuguese Restaurant
1073,605,41.162661904761904,-8.5941,15,3,50fe8b4fe4b0b850362082b3,Braseiro das Antas,41.16276056312702,-8.590611718451008,Portuguese Restaurant
1402,934,41.248376190476186,-8.634814285714285,2,0,51044bcae4b00c77956a8beb,Café Snack-Bar Pinto,41.249486,-8.636169,Portuguese Restaurant
1061,593,41.162661904761904,-8.607671428571429,22,13,510d224ee4b0428ed4873db3,Nana - Asian Gourmet,41.161708378959226,-8.604732740130437,Sushi Restaurant
1359,891,41.22932857142857,-8.621242857142857,12,5,510e6017e4b00af1bec944be,Miramaia Steak House,41.2326560786699,-8.622152811656404,Portuguese Restaurant
1241,773,41.18170952380952,-8.526242857142856,2,1,510fa92de4b0d7e12612a0ec,Lanchonete Brasil 2,41.18543243408203,-8.525731086730957,Brazilian Restaurant
330,330,41.15539902457049,-8.604688803152156,8,7,5113accfe4b0fbce938b8e60,taverna 8o80,41.15491485595703,-8.60456657409668,Tapas Restaurant
831,363,41.143614285714285,-8.580528571428571,2,0,5114f636e4b0592c832297cf,Buraquinho do Freixo,41.139523824173544,-8.579691327918258,Portuguese Restaurant
276,276,41.15539902457049,-8.610654053990698,18,14,5116bb68e4b063143f6cf3dc,Will Sushi Bar,41.155886892094,-8.612918872409706,Sushi Restaurant
507,39,41.09599523809523,-8.566957142857143,1,0,511a3d77e4b03bddc26601c1,Adega do Lila,41.092420000000004,-8.565324,Portuguese Restaurant
842,374,41.15313809523809,-8.675528571428572,28,1,5129159ae4b01bb7571ace45,Bar Tolo,41.15067630166634,-8.676353466793044,Tapas Restaurant
613,145,41.134090476190465,-8.621242857142857,26,0,512c9027e4b04461e62dede5,Vinum Restaurant and Winebar,41.13772782401989,-8.623621340526071,Portuguese Restaurant
458,458,41.17944859447714,-8.686116073728982,29,19,512d249de4b052259b676ba8,YaGeer,41.178576914770474,-8.688030777554541,Sushi Restaurant
1009,541,41.162661904761904,-8.648385714285713,15,4,512fc40be4b0ccd878e054cd,restaurante chines li jin,41.16242740196937,-8.648497155087899,Chinese Restaurant
1108,640,41.17218571428571,-8.675528571428572,3,2,512fd2c8e4b021edbf968b13,Etapa,41.17409868324316,-8.680701563953313,Tapas Restaurant
562,94,41.12456666666667,-8.634814285714285,5,2,5131269be4b021edc91871fb,Taberna Da Aldeia,41.125957166007645,-8.634029730961164,Portuguese Restaurant
1291,823,41.20075714285714,-8.580528571428571,3,2,5132588ee4b04a7c6dbbb986,Pipos,41.20004363841135,-8.574829978453954,Tapas Restaurant
1330,862,41.21980476190476,-8.580528571428571,1,0,51325e74e4b08f70f25df87e,Australia's,41.22267833155141,-8.584832033709487,Portuguese Restaurant
679,211,41.143614285714285,-8.634814285714285,39,1,5132a611e4b0f53f9160e3fa,Gull,41.14562387865315,-8.629703648001922,Sushi Restaurant
406,406,41.183970453141924,-8.692083926271017,22,19,513bae96e4b0dcaa8f7ea169,Indian Tandoori,41.1821403503418,-8.692744255065918,Indian Restaurant
618,150,41.134090476190465,-8.621242857142857,26,5,5140dc66e4b0bce67477a47a,Provas,41.13714407291389,-8.61705675789241,Portuguese Restaurant
697,229,41.143614285714285,-8.634814285714285,39,19,5149bd50e4b0c63559eddeae,Bulle,41.145666,-8.629603,Japanese Restaurant
1378,910,41.23885238095238,-8.661957142857142,6,1,514e32fde4b0f713b07639b5,Rio Steak House,41.24271131545679,-8.66139877923328,Brazilian Restaurant
318,318,41.150877165905705,-8.610654053990698,43,38,51521408e4b0b775a986553b,Migalhas,41.150490087841646,-8.611226212165137,Portuguese Restaurant
665,197,41.143614285714285,-8.661957142857142,3,2,515b42b3e4b03409b02fa1c1,Bartolomeo's,41.147497423341754,-8.660974419766136,Portuguese Restaurant
693,225,41.143614285714285,-8.634814285714285,39,15,5162b2efe4b013d3493ff762,Office.come,41.1423993281609,-8.639866851076022,Portuguese Restaurant
23,23,41.14587521504668,-8.618260664924069,28,12,516905a2498ed9a049d0f095,As Sogras,41.145029,-8.615522,Tapas Restaurant
901,433,41.15313809523809,-8.621242857142857,44,10,516fe4e6e4b0198bb1b68746,Sambru,41.149554694535716,-8.624397042588694,Portuguese Restaurant
571,103,41.12456666666667,-8.621242857142857,7,6,51744a61e4b010e42d8dc5ef,Taberna do Senhor,41.124512,-8.625878,Tapas Restaurant
475,7,41.0579,-8.580528571428571,2,1,517d8dd7498e5b407270fe04,Pedacinho Do Ceu,41.05758281295944,-8.58081280922135,Caribbean Restaurant
493,25,41.076947619047615,-8.566957142857143,1,0,5186615c498eeceb02dc8c25,O CASAL,41.07775457069832,-8.569689949727914,Portuguese Restaurant
155,155,41.14135335638189,-8.610653620790215,39,3,518f8f63498eb9d7ad3e4657,Jimão,41.14085020789295,-8.613040418446179,Tapas Restaurant
1145,677,41.17218571428571,-8.553385714285714,4,1,5194d40c498e3ab151f6eb3b,A Tentação da Bifana,41.17204827159992,-8.55846679675367,Portuguese Restaurant
363,363,41.150877165905705,-8.604688803152156,35,32,519a3d2f498e2e8f2b138aa4,Cafetaria Pintainho,41.149683,-8.60705,Portuguese Restaurant
82,82,41.143614285714285,-8.607671428571429,28,8,519cf52d498e8953e46cdd98,Casa Louro,41.14523656321431,-8.607711853632706,Portuguese Restaurant
1352,884,41.22932857142857,-8.634814285714285,2,0,519fca69498eae4eab31d659,Brazinhas,41.23012924194336,-8.637232780456543,Portuguese Restaurant
1393,925,41.23885238095238,-8.566957142857143,1,0,51a13014498ef1b32b37017c,Restaurante Rodrigo,41.237286735249526,-8.568906635626979,Portuguese Restaurant
397,397,41.183970453141924,-8.692083926271017,22,10,51a505fb498ec0259347d47d,JP Wine House,41.18396676308482,-8.694678030403987,Portuguese Restaurant
1216,748,41.18170952380952,-8.607671428571429,13,3,51a515bf498e46904b620c78,Poleiro Do Marquês,41.18020947845655,-8.604485827846315,Portuguese Restaurant
913,445,41.15313809523809,-8.621242857142857,44,22,51a639a4498e3a0a6868695a,Primeiro Frente,41.1525,-8.62,Greek Restaurant
931,463,41.15313809523809,-8.621242857142857,44,40,51ac7b20498e38cf60340a06,A Pasta,41.156580413382414,-8.621029048050136,Italian Restaurant
592,124,41.12456666666667,-8.607671428571429,28,20,51af01eb498e3d2f8ebb5615,Clichê,41.122124,-8.603738,Tapas Restaurant
1218,750,41.18170952380952,-8.607671428571429,13,5,51b1d42c498ed54da4d1a503,Mira São João,41.18410040856308,-8.602816507110896,Portuguese Restaurant
1382,914,41.23885238095238,-8.661957142857142,6,5,51b3a13f498ecbc1cc3208d6,Restaurante O Malheiro,41.24127092146064,-8.665995595105187,Portuguese Restaurant
1306,838,41.210280952380955,-8.6891,12,7,51b48b2c498e77489769c298,Umi Sushi,41.20951689560016,-8.688109439516737,Sushi Restaurant
1087,619,41.162661904761904,-8.580528571428571,9,2,51b60d93498e34b6b27cca1e,Costa,41.165966037969646,-8.58132257892386,Tapas Restaurant
995,527,41.162661904761904,-8.661957142857142,11,1,51b71ae5498e38af42dca817,Genki Sushi,41.16395196129595,-8.662651372191267,Sushi Restaurant
495,27,41.08647142857143,-8.607671428571429,1,0,51bccda8498e2d774644b111,Locanda HardDrivers,41.08914566040039,-8.603303909301758,Portuguese Restaurant
890,422,41.15313809523809,-8.634814285714285,14,13,51bcedd2498ec72ac403cc0d,Bom Sucesso Gourmet,41.151745795808274,-8.640140728756252,Portuguese Restaurant
497,29,41.08647142857143,-8.539814285714284,1,0,51c0512a498e4ba46e7066bc,Cantina Da Hydro,41.08834244044002,-8.536512131463853,Mongolian Restaurant
1263,795,41.19123333333333,-8.607671428571429,6,4,51c7488c498ed6348cc885a3,Fogueira Do Tempo,41.192834806549335,-8.613149707254811,Portuguese Restaurant
583,115,41.12456666666667,-8.607671428571429,28,11,51c7510e498e94fd068d701b,Vintage Gaia – Restaurante Bar,41.124519072037074,-8.613525486405681,Portuguese Restaurant
843,375,41.15313809523809,-8.675528571428572,28,2,51c848f3498e89b9acc8a5da,Portarossa,41.1566137836197,-8.67660846837424,Italian Restaurant
648,180,41.134090476190465,-8.607671428571429,15,9,51d5d06c498e02f560e6a4e3,Yadoya,41.13403401128094,-8.607617314974913,Sushi Restaurant
1248,780,41.19123333333333,-8.661957142857142,3,0,51dff033498e0c87b68b8387,Tokyo Sushi,41.18856620025984,-8.660677043744196,Japanese Restaurant
278,278,41.15539902457049,-8.610654053990698,18,16,51e039208bbdb3f0da783bd4,Tostuzão,41.15482789337071,-8.610169887542725,Portuguese Restaurant
447,447,41.17944859447714,-8.686116073728982,29,8,51e68916498e27b7ca9c5ed9,Etapas,41.17958655620842,-8.683554684120661,Tapas Restaurant
355,355,41.150877165905705,-8.604688803152156,35,24,51e84054498eb770c008c386,Tomatino,41.14903658188073,-8.605478885733023,Italian Restaurant
1112,644,41.17218571428571,-8.648385714285713,6,2,51ed2de1498ef32ec7b854bf,Restaurante O Industrial,41.17132335946303,-8.649297400670369,Portuguese Restaurant
644,176,41.134090476190465,-8.607671428571429,15,5,51f03864498ecacf1b616e59,Baviera Grill,41.135830951360326,-8.608334529921008,Portuguese Restaurant
557,89,41.12456666666667,-8.648385714285713,3,0,51f43125498ee80f9380f3ea,Confeitaria Montecarlo,41.12351608276367,-8.645873069763184,Portuguese Restaurant
564,96,41.12456666666667,-8.634814285714285,5,4,51fe0a16498e27c57d6cd823,Cafe snack bar onda verde,41.12737274169922,-8.632034301757812,Portuguese Restaurant
1077,609,41.162661904761904,-8.5941,15,7,51ffa97d498e65ca19d1f163,BB Gourmet Antas,41.16630666227028,-8.593361480406697,Portuguese Restaurant
184,184,41.14135335638189,-8.610653620790215,39,32,5203ae33498e3b31a2daed34,Teaco,41.141143,-8.612457000000001,Portuguese Restaurant
477,9,41.06742380952381,-8.648385714285713,1,0,52077f7b11d2f029656cdc13,A Nossa Adega,41.06930541992188,-8.643195152282715,Portuguese Restaurant
1288,820,41.20075714285714,-8.634814285714285,2,1,5208f0e9498eacde701b3586,Petisqueira Azul,41.202064,-8.633539,Portuguese Restaurant
1095,627,41.17218571428571,-8.6891,11,0,52093d44498e9ae7329b1eba,Mr. Binho Sushi,41.17365793582283,-8.687281181549384,Sushi Restaurant
176,176,41.14135335638189,-8.610653620790215,39,24,52166da111d27b7b08d30bac,Casinha São João,41.14075790505558,-8.610582754527558,Portuguese Restaurant
1295,827,41.20075714285714,-8.553385714285714,4,2,5218a50e11d29f14b2a7d3b8,O Canecão 2,41.20452880859375,-8.553771018981934,Portuguese Restaurant
1461,40,41.144744750380475,-8.612144768310557,25,20,521e44af498e516c697faf3d,Baga,41.14506386937939,-8.612360577071238,Tapas Restaurant
96,96,41.143614285714285,-8.607671428571429,28,22,5223c101498e4408624465e6,Essência Lusa de Carlos Manuel Miranda,41.145557655407075,-8.608178860371588,Portuguese Restaurant
623,155,41.134090476190465,-8.621242857142857,26,10,522880dc11d2ad138e99a70a,Tradicional,41.13748196605885,-8.617820236895847,Portuguese Restaurant
647,179,41.134090476190465,-8.607671428571429,15,8,522dc88011d277bf56c200b6,Petiscos e Companhia,41.1337,-8.61018,Portuguese Restaurant
1008,540,41.162661904761904,-8.648385714285713,15,3,5231b32211d2ff5c548ab895,Vá Passando,41.16657638549805,-8.650312423706055,Portuguese Restaurant
1117,649,41.17218571428571,-8.621242857142857,2,0,52322e6f11d2542f39083114,O Labrego,41.1697372392312,-8.619119446600553,Portuguese Restaurant
1407,939,41.248376190476186,-8.621242857142857,6,3,5235b832498ecba78d3433f8,Quinta Do Galo,41.250856,-8.616886000000001,Portuguese Restaurant
1391,923,41.23885238095238,-8.607671428571429,2,1,523af0de498e3f32efa95ce2,O Cavaquinho,41.23538274651011,-8.609445697671253,Portuguese Restaurant
882,414,41.15313809523809,-8.634814285714285,14,5,524beae393cd970d07a0d5a2,FRANGANITO STEAK WINE HOUSE,41.152969902819024,-8.630785346031189,Portuguese Restaurant
435,435,41.183970453141924,-8.686116073728982,8,4,524d688911d2601f4cccfba1,O Ti Manel,41.183359,-8.684642,Portuguese Restaurant
996,528,41.162661904761904,-8.661957142857142,11,2,524f2a7111d25d7adfd0aa5f,Ritual restaurante & café,41.163277,-8.666929,Sushi Restaurant
178,178,41.14135335638189,-8.610653620790215,39,26,52507614498e146fc41e8993,Escondidinho,41.14074945610402,-8.612183426520877,Portuguese Restaurant
1148,680,41.17218571428571,-8.526242857142856,1,0,5255b8ba498ec3ab298ada64,Montezelo,41.17196,-8.520703,Portuguese Restaurant
488,20,41.06742380952381,-8.499099999999999,2,1,52598bd711d2c92f2973637d,Tasquinha Comissão Festas Crestuma,41.069152,-8.500258,Tapas Restaurant
1089,621,41.162661904761904,-8.580528571428571,9,4,5259bb12498e3a024dacff99,Nobel,41.160345,-8.578445,Portuguese Restaurant
1265,797,41.19123333333333,-8.5941,2,0,525d3492498e2c38d55cf95d,Tascadémico,41.192236,-8.593860000000001,Portuguese Restaurant
1213,745,41.18170952380952,-8.607671428571429,13,0,525dd47d11d24c9cd325d5c4,Ori|gin,41.18418752696307,-8.602747679961567,Sushi Restaurant
670,202,41.143614285714285,-8.648385714285713,12,4,526041e711d22f12b2b39222,Kanpai Douro Marina,41.141204647978384,-8.650777731986416,Japanese Restaurant
1430,9,41.14587521504668,-8.610653620790215,10,9,5264300811d2f9836e085eeb,Cervejaria Sá Reis,41.14619358125356,-8.611598295812467,Portuguese Restaurant
1347,879,41.21980476190476,-8.553385714285714,13,11,5264371011d249f933464449,Bracar,41.2166470088964,-8.556076726547808,Portuguese Restaurant
1268,800,41.19123333333333,-8.566957142857143,1,0,52666b3511d223047227badc,Cantinho das Cavadas,41.18893051147461,-8.564323425292969,Portuguese Restaurant
725,257,41.143614285714285,-8.621242857142857,50,8,526c38a411d2ca9928c8b223,Taberna d'Avó,41.14434067535363,-8.615727691725295,Portuguese Restaurant
359,359,41.150877165905705,-8.604688803152156,35,28,526d1898498e127c2e2daff1,Noori,41.14905519879929,-8.60532855350518,Sushi Restaurant
695,227,41.143614285714285,-8.634814285714285,39,17,5273abed11d264f3f3ec5703,BB Gourmet,41.14192327629764,-8.63655354598197,Portuguese Restaurant
1034,566,41.162661904761904,-8.634814285714285,20,14,5287fa3b11d26592b62a5a56,Terrella Restaurante,41.15924765756875,-8.63160415757987,Portuguese Restaurant
1416,948,41.2579,-8.648385714285713,4,2,528b6862498e39eb3cf1f7a9,Tutto per Tutti,41.255829999999996,-8.653412,Italian Restaurant
185,185,41.14135335638189,-8.610653620790215,39,33,52920f5111d2a386d4382fc2,Theophilus Bar,41.14094718997604,-8.612290790441612,Tapas Restaurant
928,460,41.15313809523809,-8.621242857142857,44,37,5299061f498e1161362bcb28,Cantina Da Broadway,41.149258,-8.623681,Brazilian Restaurant
298,298,41.150877165905705,-8.610654053990698,43,18,52992d55498ec74142e9e0ce,Ilustre,41.149853,-8.612566000000001,Portuguese Restaurant
357,357,41.150877165905705,-8.604688803152156,35,26,529a408b11d289d0fe60cf09,Naruma,41.150779724121094,-8.606674194335938,Portuguese Restaurant
505,37,41.09599523809523,-8.580528571428571,2,0,529a80b2498e59fe2c2f3aad,Restaurante Casa Primavera,41.0964469909668,-8.577874183654785,American Restaurant
850,382,41.15313809523809,-8.675528571428572,28,9,52a24b6d498e860505ba7618,Petiscos da Bairro,41.151175708310475,-8.67688682342849,Portuguese Restaurant
545,77,41.11504285714285,-8.5941,3,2,52ab7504498eb00c5f164e18,Taberninha do Lameiro,41.115986,-8.588871000000001,Portuguese Restaurant
568,100,41.12456666666667,-8.621242857142857,7,3,52acbf8b498e15ecba40be60,111,41.126220703125,-8.62187671661377,Russian Restaurant
1014,546,41.162661904761904,-8.648385714285713,15,9,52af5b1a11d227beb819faa5,Go Natural,41.161387765569614,-8.643201781419553,Vegetarian / Vegan Restaurant
659,191,41.134090476190465,-8.539814285714284,3,2,52b5fe2f498e8379d10dd5e5,o especial,41.135802525767865,-8.537001513823546,Portuguese Restaurant
1125,657,41.17218571428571,-8.607671428571429,7,6,52b83514498e570512f8a59a,Flor de Paranhos,41.17077142757122,-8.606257172836933,Portuguese Restaurant
1366,898,41.22932857142857,-8.580528571428571,3,0,52b8b4c9498e51190f06b726,Taberna D. Pernil,41.22819878248645,-8.580701322919008,Portuguese Restaurant
1322,854,41.210280952380955,-8.553385714285714,6,3,52bdfcce498ee6047826f5a4,O Serrano,41.2133087940106,-8.552834387211751,Tapas Restaurant
1003,535,41.162661904761904,-8.661957142857142,11,9,52c17446498ea9eea0008715,Tasse Bem,41.16267395019531,-8.662039756774902,Portuguese Restaurant
925,457,41.15313809523809,-8.621242857142857,44,34,52d7d84b498ebae08a2ef90e,Comipronto,41.15629959106445,-8.619609832763674,Portuguese Restaurant
1049,581,41.162661904761904,-8.607671428571429,22,1,52d92dcb498ebf697d73ff02,Portugandhi,41.16046471562281,-8.605259650378226,Indian Restaurant
989,521,41.15313809523809,-8.5941,7,4,52e117bb11d20577a00ba8e1,Roda da Mula,41.15063542736649,-8.59288722092981,Portuguese Restaurant
610,142,41.134090476190465,-8.661957142857142,2,1,52e12ef4498ee2e98b31e910,Café Vapor,41.1359569,-8.665431800000002,Portuguese Restaurant
1318,850,41.210280952380955,-8.607671428571429,2,1,52e2684111d281c502c62357,Restaurante Azenha Nova,41.20775478138294,-8.607137492950278,Portuguese Restaurant
1315,847,41.210280952380955,-8.621242857142857,4,2,52e2695c11d2cb7f69e57567,Balio do Lessa,41.208881656620186,-8.621605186382542,Portuguese Restaurant
1325,857,41.210280952380955,-8.539814285714284,1,0,52e2d014498e9aa386445fdb,Toca da Formiga,41.20802203323243,-8.53590749450295,Portuguese Restaurant
915,447,41.15313809523809,-8.621242857142857,44,24,52e8f8ef11d201ebc2c925ee,Si Rosé,41.150392,-8.616999,Tapas Restaurant
1305,837,41.210280952380955,-8.6891,12,6,52ea5527498e01c0762ed23f,ris8otto,41.20881224549002,-8.688229517241519,Italian Restaurant
1019,551,41.162661904761904,-8.648385714285713,15,14,52f68c23498eec39cf3d5013,Yes Sushi,41.160326310663606,-8.643764809996343,Japanese Restaurant
1301,833,41.210280952380955,-8.6891,12,2,52fb6e4611d29c24c5b4cbe2,Italian Republic,41.20934400937415,-8.688146912229326,Italian Restaurant
1312,844,41.210280952380955,-8.648385714285713,1,0,53011aa911d271adb2f5653c,tasc'art,41.21118882672937,-8.64860994087084,Portuguese Restaurant
1396,928,41.23885238095238,-8.526242857142856,4,1,5309f69d498e42aa6cc65fc5,Adega Gostinho,41.241083,-8.528374000000001,Portuguese Restaurant
552,84,41.12456666666667,-8.661957142857142,9,4,530e930c11d2eb00f1ff2e71,Rufino's,41.12256622314453,-8.666302680969237,Brazilian Restaurant
1012,544,41.162661904761904,-8.648385714285713,15,7,5312583911d29b075a142316,algo +,41.16542053222656,-8.649020195007324,Portuguese Restaurant
709,241,41.143614285714285,-8.634814285714285,39,31,531b85c3498e567c68e15d7b,Taberna do Zé do Telhado,41.1436,-8.630353,Portuguese Restaurant
517,49,41.10551904761905,-8.621242857142857,4,1,531b8878498eadd29672ab49,Rosa II,41.1087154738652,-8.618179933233613,Chinese Restaurant
519,51,41.10551904761905,-8.621242857142857,4,3,531b8879498eadd29672af0d,Restaurante Chinês Rosa II,41.1086419318875,-8.618899331001575,Asian Restaurant
1211,743,41.18170952380952,-8.634814285714285,4,3,531b8cac11d212fff589fb1e,City Top,41.18408,-8.639774000000001,Portuguese Restaurant
1111,643,41.17218571428571,-8.648385714285713,6,1,53234395498e9b32c44eef01,Matcha,41.176269921913544,-8.647449866480073,Japanese Restaurant
634,166,41.134090476190465,-8.621242857142857,26,21,5325b80e498e7c0a98ce3f5c,Sumo,41.13749527965179,-8.6182926742262,Sushi Restaurant
590,122,41.12456666666667,-8.607671428571429,28,18,5330363311d22e5b3c17b6f1,Divinus,41.12278883670372,-8.607497138851835,Portuguese Restaurant
119,119,41.14587521504668,-8.610653620790215,50,17,533739ce498e78372d187a1b,Caldeireiros,41.14538088760292,-8.613339986630647,Portuguese Restaurant
400,400,41.183970453141924,-8.692083926271017,22,13,53383732498ed426f06c8257,Restaurante Costa,41.185078000000004,-8.693935,Portuguese Restaurant
1015,547,41.162661904761904,-8.648385714285713,15,10,533dcd9b498e9437c1d48c13,LSD,41.16161168638444,-8.650097654630898,Portuguese Restaurant
524,56,41.10551904761905,-8.526242857142856,1,0,533ffb6a498ea11b50b16220,Arca Velha,41.10774230957031,-8.530025482177733,Portuguese Restaurant
897,429,41.15313809523809,-8.621242857142857,44,6,5345ae6b498e999a961ffc36,Frida,41.14996594241627,-8.62300139559637,Mexican Restaurant
1328,860,41.21980476190476,-8.607671428571429,1,0,53501db6498e135408c0e247,Petisqueira de Gueifães,41.217387,-8.603003,Tapas Restaurant
1115,647,41.17218571428571,-8.648385714285713,6,5,53519f72498ef6fc42c53a48,O Pataco,41.175467456400064,-8.651886171953256,Portuguese Restaurant
607,139,41.12456666666667,-8.512671428571426,3,1,535279f5498edda6b97c1a05,Restaurante Marisol,41.122520446777344,-8.517860412597656,Portuguese Restaurant
529,61,41.11504285714285,-8.621242857142857,13,3,5353b663498eae3b9ac79d11,restaurante transmontano,41.11443084773089,-8.618641635498253,Portuguese Restaurant
1017,549,41.162661904761904,-8.648385714285713,15,12,5359767a498e76f57f5f7c3a,Bodeguita,41.158676838184654,-8.650205071907628,Tapas Restaurant
513,45,41.10551904761905,-8.661957142857142,5,3,535e7460498ed17a1ea002d1,Restaurante Iguarias,41.10504531860352,-8.660890579223633,Portuguese Restaurant
819,351,41.143614285714285,-8.5941,14,2,53623224498e118252a3c9a0,O Cheirinho,41.146337,-8.594092999999999,Portuguese Restaurant
701,233,41.143614285714285,-8.634814285714285,39,23,536506ad11d2560b1fcec145,Illiabum,41.14578784122085,-8.630367662667988,Portuguese Restaurant
934,466,41.15313809523809,-8.621242857142857,44,43,536b3fb5498ed7f5cb778aca,Gallery Hostel Kahvaltı keyfi,41.150108,-8.619701,Portuguese Restaurant
675,207,41.143614285714285,-8.648385714285713,12,9,5373d0c2498e07800aef9902,Casa F. C. Porto,41.14353003892197,-8.64609109803453,Portuguese Restaurant
1038,570,41.162661904761904,-8.634814285714285,20,18,53776713498e192381f6d121,Indi_Go | Indian Flavours,41.159530824018276,-8.632907465552512,Indian Restaurant
917,449,41.15313809523809,-8.621242857142857,44,26,5379f617498e5bd0eec6741d,Sabores & Açores,41.14904544844264,-8.620332778139556,Portuguese Restaurant
1254,786,41.19123333333333,-8.634814285714285,8,3,53888777498e33f16c361345,lLalinha,41.19498888413938,-8.632424198449918,Portuguese Restaurant
852,384,41.15313809523809,-8.675528571428572,28,11,538a4c0a498e34b97ad16d78,Café Mercado da Foz,41.154771000000004,-8.674414,Portuguese Restaurant
854,386,41.15313809523809,-8.675528571428572,28,13,5391aed5498e6350ffc10b16,Restaurante Cêpa,41.15125089271621,-8.671379962559284,Portuguese Restaurant
1205,737,41.18170952380952,-8.648385714285713,5,2,5395a7e6498e6a4f589f693c,cafe restaurante circunvalação,41.182508465211946,-8.646015909972231,Portuguese Restaurant
649,181,41.134090476190465,-8.607671428571429,15,10,53a49ecb498e7d482879ab61,Praceta 111,41.129896758250325,-8.605886797294714,Portuguese Restaurant
716,248,41.143614285714285,-8.634814285714285,39,38,53a87d76498e1892c2ebdabd,Casulinho,41.14636993408203,-8.630105018615723,Portuguese Restaurant
152,152,41.14135335638189,-8.610653620790215,39,0,53ab3e29498e214499f9b6eb,The Wine Box,41.141632200000004,-8.613057699999999,Tapas Restaurant
1401,933,41.248376190476186,-8.661957142857142,2,1,53ad63d0498eaefb4f15e518,Café Bem Vindo - O Rei Das Francesinhas,41.25276565551758,-8.66236686706543,Portuguese Restaurant
1368,900,41.22932857142857,-8.580528571428571,3,2,53aeb597498e13cc8b0c6a72,cafe despertar,41.22783279418945,-8.581094741821289,Portuguese Restaurant
829,361,41.143614285714285,-8.5941,14,12,53b1b484498ee97614311938,Pipa's wine & tapas,41.14008957154843,-8.597320352893645,Tapas Restaurant
1065,597,41.162661904761904,-8.607671428571429,22,17,53b2b4e0498e6b0d6ea9cd26,Trave Negra,41.1636509352479,-8.611088323172764,Portuguese Restaurant
692,224,41.143614285714285,-8.634814285714285,39,14,53b9c05f498e83df90941335,Tomatino,41.141709941373264,-8.636547359143702,Italian Restaurant
467,467,41.17944859447714,-8.686116073728982,29,28,53c12f81498e3a62e8921932,Temako,41.179018,-8.684536,Sushi Restaurant
1462,41,41.144744750380475,-8.612144768310557,25,21,53c5837a498e684dd0002597,Tambla Restaurante,41.145031,-8.612519,African Restaurant
999,531,41.162661904761904,-8.661957142857142,11,5,53c59746498e6a84ca56031b,taberna do ferrador,41.16256713867188,-8.657569885253906,Portuguese Restaurant
1427,6,41.14587521504668,-8.610653620790215,10,6,53c673c2498e8f97382de210,Adega S. Romão,41.14637318302505,-8.611093691288033,Portuguese Restaurant
677,209,41.143614285714285,-8.648385714285713,12,11,53caad9d498eb39a55d30412,abrigo do pescador,41.143785,-8.646164,Tapas Restaurant
15,15,41.14587521504668,-8.618260664924069,28,4,53cea0e6498e7d66672d0039,Adega Bodega,41.147234000000005,-8.616778,Tapas Restaurant
169,169,41.14135335638189,-8.610653620790215,39,17,53d3ae73498eb6c9513a4b8c,Fiume Douro,41.140660382714245,-8.611142070271057,Italian Restaurant
1297,829,41.20075714285714,-8.512671428571426,1,0,53dc00c6498e413b46b61efe,Adega Regional O Mineiro,41.19843292236328,-8.508355140686035,Portuguese Restaurant
1505,84,41.14700567971288,-8.606180383872982,8,7,53e0002e498e8db16677a270,A Melhor Francesinha Do Mundo,41.146791765726334,-8.605500320389055,Portuguese Restaurant
1420,952,41.2579,-8.553385714285714,1,0,53e29a0e498e22f2af1c4bbc,Restaurante 28,41.25983978286514,-8.558478355407715,Portuguese Restaurant
399,399,41.183970453141924,-8.692083926271017,22,12,53e53cf7498ed7b6e9d19761,Restaurante Sirocco,41.18406295776367,-8.69468879699707,Mediterranean Restaurant
833,365,41.143614285714285,-8.566957142857143,1,0,53ecd8db498eb8e575a6792a,Quinta dos Sabores,41.14145474840289,-8.563251991572901,Portuguese Restaurant
1074,606,41.162661904761904,-8.5941,15,4,53ee457d498e0c3c2fb0a34f,O Mirandês,41.1606679544881,-8.592651080713429,Portuguese Restaurant
1367,899,41.22932857142857,-8.580528571428571,3,1,53ef4a41498e72623ecf4535,Sabor X,41.228814283556254,-8.578054746163078,Portuguese Restaurant
1011,543,41.162661904761904,-8.648385714285713,15,6,53f4a2fe498e77c52efcd672,D. Albertina,41.166817808749954,-8.650140621523478,Portuguese Restaurant
771,303,41.143614285714285,-8.607671428571429,50,4,53fe59ad498ef901892e41aa,Cantinho do Avillez,41.14323011596845,-8.613508362207074,Portuguese Restaurant
1361,893,41.22932857142857,-8.621242857142857,12,7,53ff8880498efbf7fff78c9a,Bússola de Aromas,41.23120580026335,-8.624445364076736,Portuguese Restaurant
531,63,41.11504285714285,-8.621242857142857,13,5,5409ac1f498ed2a03e9b75a6,Sabor Gaucho,41.11751194104296,-8.622523266277835,Brazilian Restaurant
1027,559,41.162661904761904,-8.634814285714285,20,7,54119060498e268f42a129fe,Sílabas com Sabor,41.16344493093269,-8.638921712114895,Portuguese Restaurant
676,208,41.143614285714285,-8.648385714285713,12,10,5412e1e7498e3cb401d6986b,Victa,41.141194794035385,-8.650672338817781,Portuguese Restaurant
1365,897,41.22932857142857,-8.621242857142857,12,11,5414a200498e05d0b8b6b4cc,Taberna do Viscontti,41.2318000793457,-8.623359680175781,Tapas Restaurant
358,358,41.150877165905705,-8.604688803152156,35,27,54230bca498ea88fe277cdc7,Panda Bento,41.14957046508789,-8.604616165161133,Asian Restaurant
993,525,41.15313809523809,-8.553385714285714,1,0,54273da2498e8524eb725ed4,Restaurante italiano,41.15031757152449,-8.557903536962977,Italian Restaurant
1000,532,41.162661904761904,-8.661957142857142,11,6,543a8625498eeba079d553c5,Pateo de Tanger,41.16307350034288,-8.662477577182699,Portuguese Restaurant
555,87,41.12456666666667,-8.661957142857142,9,7,5442bf87498e949702dc2597,O Veleiro,41.12281754535858,-8.666314000216605,Portuguese Restaurant
643,175,41.134090476190465,-8.607671428571429,15,4,544a3e10498e954e94552c71,Restaurante Yadoya,41.13044177621083,-8.605065536215308,Sushi Restaurant
863,395,41.15313809523809,-8.675528571428572,28,22,544a5345498e56fb6ba59a85,Informal,41.15105255516971,-8.676929805362668,Portuguese Restaurant
1177,709,41.18170952380952,-8.6891,50,28,544abcb5498ec90c7a6e68ab,Adega Campos,41.18546905995224,-8.689670562744139,Portuguese Restaurant
1018,550,41.162661904761904,-8.648385714285713,15,13,544d956b498eefae2e7eb019,Aloe Restaurante,41.166786193847656,-8.64968204498291,Portuguese Restaurant
160,160,41.14135335638189,-8.610653620790215,39,8,545bdf02498e75472bc65652,Taberna dos Mercadores,41.14134856162697,-8.61304957976116,Portuguese Restaurant
312,312,41.150877165905705,-8.610654053990698,43,32,545e1256498e7ab0f02a4209,Badalhoca do Fredo,41.1491429279152,-8.610197221282156,Portuguese Restaurant
839,371,41.143614285714285,-8.539814285714284,3,2,54620f0b498e9df08d62221c,Basho Sushi House,41.14386209541846,-8.53531222593079,Sushi Restaurant
855,387,41.15313809523809,-8.675528571428572,28,14,5476575f498e9aff3d7b92da,Kayo,41.152955067774634,-8.670204370855126,Sushi Restaurant
1118,650,41.17218571428571,-8.621242857142857,2,1,54831286498ee0762e5c2615,O Ribeiro,41.169714,-8.624533999999999,Portuguese Restaurant
485,17,41.06742380952381,-8.553385714285714,3,1,548b41c3498ef27481d86ffd,Quinta da Paradela Pedroso,41.068968,-8.549377,Portuguese Restaurant
484,16,41.06742380952381,-8.553385714285714,3,0,548b4219498e8beca9a6985f,Quinta da Paradela Pedroso,41.069028,-8.548782000000001,Portuguese Restaurant
566,98,41.12456666666667,-8.621242857142857,7,1,548b4d76498e001dde40cd28,Casa dos Leitões,41.128322999999995,-8.619411,Portuguese Restaurant
1243,775,41.19123333333333,-8.6891,6,1,548f483f498e7c9be5476b5d,O Chanquinhas,41.193421,-8.693615,Portuguese Restaurant
1340,872,41.21980476190476,-8.553385714285714,13,4,54941d72498e025da41b6f13,Casa Gigo,41.217392534538604,-8.55105892394528,Portuguese Restaurant
436,436,41.183970453141924,-8.686116073728982,8,5,54949667498eb35d94f9d415,Yummy,41.1845703125,-8.684482574462889,Sushi Restaurant
1057,589,41.162661904761904,-8.607671428571429,22,9,54988b40498ea3488dea55e9,Gente Gira,41.16028213500977,-8.604454040527344,Portuguese Restaurant
1056,588,41.162661904761904,-8.607671428571429,22,8,54988bad498eb35d95429364,Gente Gira,41.160163106785774,-8.604190607688274,Portuguese Restaurant
403,403,41.183970453141924,-8.692083926271017,22,16,549f3a7b498ee538a099b5ec,Bushido,41.18353898961254,-8.693328277948373,Japanese Restaurant
172,172,41.14135335638189,-8.610653620790215,39,20,54a8203f498e80f1d1af27a3,Adega 202,41.140943,-8.607803,Portuguese Restaurant
1504,83,41.14700567971288,-8.606180383872982,8,6,54c24a94498e259a3c0626d7,Casa da Beira Alta,41.147601,-8.606715,Portuguese Restaurant
853,385,41.15313809523809,-8.675528571428572,28,12,54c24af5498e7f0ab6a9c2b1,Sushi & Douro,41.152031995331065,-8.676551552404375,Japanese Restaurant
1047,579,41.162661904761904,-8.621242857142857,8,7,54c8e519498e51c77377d65f,Alicantina,41.160903720956895,-8.621127359700035,Portuguese Restaurant
478,10,41.06742380952381,-8.621242857142857,2,0,54cd4173498ec48ec8a005ea,Candinova,41.06695175170898,-8.624438285827638,Portuguese Restaurant
664,196,41.143614285714285,-8.661957142857142,3,1,54da73ad498e74b5d928846d,Restaurante Pizzaria S. Martino,41.14127710257226,-8.665900357435353,Italian Restaurant
1327,859,41.21980476190476,-8.634814285714285,2,1,54e88c42498e2565b4a1e514,Cantinho do Careca,41.215519185552004,-8.635522554160412,Portuguese Restaurant
1066,598,41.162661904761904,-8.607671428571429,22,18,54fecc53498ee3b82cb2aa0d,O Presuntinho do Marquês,41.16100262861096,-8.606783216558878,Portuguese Restaurant
1323,855,41.210280952380955,-8.553385714285714,6,4,5505f0b0498eb657978ec98d,City Top,41.21329879760742,-8.549856185913086,Portuguese Restaurant
932,464,41.15313809523809,-8.621242857142857,44,41,550dd547498e35229cce0170,Adega Figueiroa,41.155339853849156,-8.619459502132665,Portuguese Restaurant
889,421,41.15313809523809,-8.634814285714285,14,12,550de665498efb35339bde2d,Cozinha d'Amélia,41.152753000000004,-8.637397,Portuguese Restaurant
1023,555,41.162661904761904,-8.634814285714285,20,3,55243c0f498e23c7ea578260,Cousins,41.15829891395133,-8.634529117524396,Tapas Restaurant
173,173,41.14135335638189,-8.610653620790215,39,21,55251dee498e2692b40823e4,A Taverna,41.14057991391879,-8.612988099495377,Portuguese Restaurant
621,153,41.134090476190465,-8.621242857142857,26,8,5533c886498e4134d703c239,Mister Picanha,41.137354110538354,-8.618002769153616,Brazilian Restaurant
857,389,41.15313809523809,-8.675528571428572,28,16,554a0d36498e96a2b24dc690,Pratos Pedidos,41.154691,-8.674401,Portuguese Restaurant
710,242,41.143614285714285,-8.634814285714285,39,32,554fbb75498e28648cf6393e,Alameda 33,41.14734,-8.632613000000001,Portuguese Restaurant
1020,552,41.162661904761904,-8.634814285714285,20,0,556230e4498e57b142512b83,O Pote Velho,41.16687390226557,-8.633143730583035,Portuguese Restaurant
906,438,41.15313809523809,-8.621242857142857,44,15,556a13d8498e4f2378e04855,Kayo #2,41.15535346310305,-8.619779797211184,Japanese Restaurant
549,81,41.12456666666667,-8.661957142857142,9,1,556a1d64498eff666a278daa,Ristorante Pizzeria S. Martino,41.12100317421286,-8.665019359480706,Italian Restaurant
1207,739,41.18170952380952,-8.648385714285713,5,4,5581c7fe498e449ab4bf75df,Sushi da Celinha,41.18060302734375,-8.649197578430176,Asian Restaurant
1055,587,41.162661904761904,-8.607671428571429,22,7,5583b4c2498e27169770c774,Portu's,41.161202371197675,-8.61295108188099,Portuguese Restaurant
918,450,41.15313809523809,-8.621242857142857,44,27,5589489b498e8c56754231a0,Pregos no Porto,41.15277236466026,-8.62166583184214,Portuguese Restaurant
919,451,41.15313809523809,-8.621242857142857,44,28,55a976e7498e00ffd75607d6,Kalutita,41.156372638347285,-8.619280507197628,African Restaurant
836,368,41.143614285714285,-8.553385714285714,3,2,55b8b80f498e936a18c19cfc,Tasquinha S.José,41.14448509901026,-8.555516434785941,Portuguese Restaurant
554,86,41.12456666666667,-8.661957142857142,9,6,55bbde17498edba34d759e72,Restaurante Pingo de Fogo,41.12162666992194,-8.665347046560067,Brazilian Restaurant
175,175,41.14135335638189,-8.610653620790215,39,23,55c0ac0a498ef2b6bc65ebe1,Portu's,41.140997460065726,-8.613004692798837,Portuguese Restaurant
686,218,41.143614285714285,-8.634814285714285,39,8,55d8da2a498e3658c0f8c943,Indi Go,41.14164433938284,-8.636430038198903,Indian Restaurant
72,72,41.14135335638189,-8.618260664924069,35,33,55e0364f498e894f3b7ad531,Porta 4,41.143534574890865,-8.617954451748725,Tapas Restaurant
35,35,41.14587521504668,-8.618260664924069,28,24,55e0a7b5498e5a2bf9a972b8,3 Hyôshi,41.14702677394443,-8.617089099134763,Japanese Restaurant
628,160,41.134090476190465,-8.621242857142857,26,15,55e0d5fa498eb6646f334c8e,Perto do Cais,41.136170874516004,-8.625734746456146,Portuguese Restaurant
1332,864,41.21980476190476,-8.566957142857143,5,1,55e202bd498e302ff55fc0c0,Tomatino,41.22016700287699,-8.561224147927053,Italian Restaurant
668,200,41.143614285714285,-8.648385714285713,12,2,55e473b8498eb2e799970360,Casa Machado,41.144812,-8.644941000000001,Portuguese Restaurant
283,283,41.150877165905705,-8.610654053990698,43,3,55e572bf498ebcb3f5dc9c1a,Cruel,41.14964128732472,-8.612594775512559,Modern European Restaurant
1260,792,41.19123333333333,-8.607671428571429,6,1,55eb5705498e817a5fa09218,Café|Snack-bar Libolo,41.193324323845275,-8.609950291277725,Portuguese Restaurant
128,128,41.14587521504668,-8.610653620790215,50,26,55ef3be6498e43ed3af5ee45,Canelasdecoelho 3.0,41.147918,-8.61167,Modern European Restaurant
69,69,41.14135335638189,-8.618260664924069,35,30,561032e5498e460ffbcfb19b,Restaurante Silva,41.140702000000005,-8.615469000000001,Portuguese Restaurant
1114,646,41.17218571428571,-8.648385714285713,6,4,561ba877498ec9037f2d23db,Avis Terrace,41.176369757342904,-8.647217968847897,Portuguese Restaurant
902,434,41.15313809523809,-8.621242857142857,44,11,56262fd5498e50b91cfb7482,1858,41.15300750732422,-8.61829948425293,Modern European Restaurant
869,401,41.15313809523809,-8.661957142857142,3,0,562cc6bb498e4481d78c7225,Temako,41.155965,-8.663952,Sushi Restaurant
1237,769,41.18170952380952,-8.580528571428571,9,6,56328056498e0c1d8a57eea6,O Pinheiro - casa de pasto,41.18066227124749,-8.583426995403672,Portuguese Restaurant
894,426,41.15313809523809,-8.621242857142857,44,3,5638b201cd102f70582c81e2,Presunção e Água Benta,41.15594361621172,-8.620968255244637,Portuguese Restaurant
466,466,41.17944859447714,-8.686116073728982,29,27,5647a50c498e7f753a49b435,Pleasure,41.17964706005819,-8.683742746618428,Sushi Restaurant
158,158,41.14135335638189,-8.610653620790215,39,6,564f7cff498e5c134482a054,Ribeira Square,41.140802,-8.612916,Portuguese Restaurant
553,85,41.12456666666667,-8.661957142857142,9,5,5651bf14498e402a2b59cced,Tiscos,41.122803000000005,-8.666186999999999,Tapas Restaurant
1476,55,41.14700567971288,-8.609162473269873,12,10,565f2f24498e5954cca51918,31 Porto - Café & Restaurante,41.146788,-8.610046,Portuguese Restaurant
714,246,41.143614285714285,-8.634814285714285,39,36,56605a12498ec9004b6d04ac,Casa Nelinha,41.1456413269043,-8.630186080932617,Portuguese Restaurant
908,440,41.15313809523809,-8.621242857142857,44,17,5675c7f3498ed7a0206a90f4,Ranchão,41.152618,-8.616907000000001,Portuguese Restaurant
1372,904,41.23885238095238,-8.675528571428572,7,2,56829f32498e184dd72c4bc0,sushi passion,41.23717794292324,-8.671976296184678,Japanese Restaurant
473,5,41.0579,-8.607671428571429,1,0,5689354d498ea319a2607acf,Adega Do Zenha,41.054153,-8.609886,Portuguese Restaurant
694,226,41.143614285714285,-8.634814285714285,39,16,5693bd0d498eb2b8f0c8a3c6,Café Típico,41.139431,-8.63402,Portuguese Restaurant
491,23,41.076947619047615,-8.621242857142857,3,2,56980371498e25dd7d4f1981,Adega Zé,41.076268525767205,-8.618056455194976,Portuguese Restaurant
219,219,41.14587521504668,-8.60468923635264,50,28,569bd602498e2a9e0ea991d3,Usau,41.14396,-8.604642,African Restaurant
1370,902,41.23885238095238,-8.675528571428572,7,0,569e4f55498e38b734dafc1c,A Francesinha - Cervejaria à portuguesa,41.236442157402294,-8.671760294633295,Portuguese Restaurant
858,390,41.15313809523809,-8.675528571428572,28,17,569f9a81498e90a5b7ccc05b,Tentacles a Mesa,41.15033,-8.67609,Portuguese Restaurant
1026,558,41.162661904761904,-8.634814285714285,20,6,56a0decf498e79e5c74527ed,Avenida 830,41.1587076013049,-8.63271952798233,Portuguese Restaurant
657,189,41.134090476190465,-8.539814285714284,3,0,56ad2a48498ebfb7f49b888c,O Laranjeira,41.135275955805255,-8.536180997849874,Portuguese Restaurant
1043,575,41.162661904761904,-8.621242857142857,8,3,56afb63f498ea562c05a9ada,Restaurante Carne Arouquesa,41.1640677841729,-8.623768866030332,Portuguese Restaurant
1199,731,41.18170952380952,-8.675528571428572,3,0,56b9faa6498e07015682e218,Bô 457,41.179590000000005,-8.673779,Portuguese Restaurant
687,219,41.143614285714285,-8.634814285714285,39,9,56c1e25acd103f2da95f46ce,Illiabum Café Restaurante,41.146033,-8.631131,Portuguese Restaurant
939,471,41.15313809523809,-8.607671428571429,50,4,56c4f5c9cd105686c4b0bd89,Tás na Praça,41.15359286747786,-8.61336054059455,Portuguese Restaurant
266,266,41.15539902457049,-8.610654053990698,18,4,56c779a0498e815beeb2d438,Café Silva Sousa & Almeida,41.155215000000005,-8.613486,Portuguese Restaurant
167,167,41.14135335638189,-8.610653620790215,39,15,56db089f498e11eed9ae7afc,Escondidinho do Barredo,41.140633,-8.612221,Portuguese Restaurant
1257,789,41.19123333333333,-8.634814285714285,8,6,56dd7b3a498e54caff573dcc,broucottee il expresso,41.194317,-8.636625,Portuguese Restaurant
1355,887,41.22932857142857,-8.621242857142857,12,1,56eeadda498e283a8d2cc714,Temple Sushi,41.2333369778353,-8.621132304734083,Sushi Restaurant
305,305,41.150877165905705,-8.610654053990698,43,25,56f3bc28498e4662446ea3b7,Mondo Deli,41.15137806815111,-8.612124376428968,Modern European Restaurant
1408,940,41.248376190476186,-8.621242857142857,6,4,56fa8797cd10b445f52184e5,Casa Costa,41.250522235816476,-8.624869520674551,Portuguese Restaurant
1013,545,41.162661904761904,-8.648385714285713,15,8,56fe6531498e141b1b07dbcc,Oishii,41.16170559003581,-8.651134237650933,Sushi Restaurant
1356,888,41.22932857142857,-8.621242857142857,12,2,56fecf8e498ebb024432e5a2,O Claudino,41.227407,-8.621391000000001,Mediterranean Restaurant
880,412,41.15313809523809,-8.634814285714285,14,3,571b95d3498e21de8a8e296c,Alibi Botica,41.15231151527008,-8.635087609291077,Tapas Restaurant
1376,908,41.23885238095238,-8.675528571428572,7,6,57222b2c498ea56bbb10da79,Francesinha,41.236934999999995,-8.671408,Portuguese Restaurant
586,118,41.12456666666667,-8.607671428571429,28,14,57250f9e498ef3de5ccfbb4f,Restaurante Carpa,41.123264,-8.605747000000001,Portuguese Restaurant
1349,881,41.21980476190476,-8.539814285714284,1,0,572f470b498ed2571730f08c,Quinta de Sonhos,41.219193,-8.544997,Portuguese Restaurant
510,42,41.10551904761905,-8.661957142857142,5,0,573ccba4498e7152114a9faa,Restaurante Marbelo,41.105258,-8.662072,Brazilian Restaurant
886,418,41.15313809523809,-8.634814285714285,14,9,5746f3bf498e86403552f693,Alibi,41.152408,-8.635155000000001,Portuguese Restaurant
303,303,41.150877165905705,-8.610654053990698,43,23,5749e1ed498edddeb6a61d86,Gastronom Slaviansky,41.15029973807524,-8.611700087785719,Russian Restaurant
1351,883,41.22932857142857,-8.661957142857142,1,0,575c0992498e5c6af435a3f6,Casa André,41.230807,-8.660549000000001,Portuguese Restaurant
561,93,41.12456666666667,-8.634814285714285,5,1,5762f567498e5783e6c4cc5c,Grill Coimbrões,41.12701,-8.632126,Portuguese Restaurant
8,8,41.143614285714285,-8.621242857142857,9,8,576acb0e498ef3fdc1778871,Flor da Alfândega,41.143449,-8.62125,Portuguese Restaurant
825,357,41.143614285714285,-8.5941,14,8,576c417e498e6c4526bfcb1d,Café S. Victor,41.142143,-8.596698,Portuguese Restaurant
827,359,41.143614285714285,-8.5941,14,10,5777d6b4498e3d884f6c3379,João Da Ponte,41.1401252746582,-8.594096183776855,Portuguese Restaurant
70,70,41.14135335638189,-8.618260664924069,35,31,577c1008498e57368b8aac1f,97,41.140640000000005,-8.615507000000001,Portuguese Restaurant
579,111,41.12456666666667,-8.607671428571429,28,7,578fd3b2498e1f07b9de9c7a,Petiscos às Paletes,41.12634450600639,-8.609531585708599,Portuguese Restaurant
528,60,41.11504285714285,-8.621242857142857,13,2,579cb8cb498eb7f72eed4300,Bodegão,41.117489,-8.622447,Portuguese Restaurant
532,64,41.11504285714285,-8.621242857142857,13,6,579de96d498ecfc18428b465,Ásia Japonês,41.11748,-8.62246,Asian Restaurant
181,181,41.14135335638189,-8.610653620790215,39,29,579f4c92498ed629a901cb70,Filha da Mãe Preta,41.140578586799826,-8.612027317285536,Portuguese Restaurant
177,177,41.14135335638189,-8.610653620790215,39,25,57a7b626498e31a662c412ca,Africa Bar,41.142092,-8.613374,Portuguese Restaurant
516,48,41.10551904761905,-8.621242857142857,4,0,57accae5498ea4aaf32ce5fd,Casa dos Sabores,41.10877460661728,-8.618157505989075,Portuguese Restaurant
705,237,41.143614285714285,-8.634814285714285,39,27,57af72b4498ef62ed7632ffa,lampreia encomenende,41.145645,-8.630467999999999,Portuguese Restaurant
1357,889,41.22932857142857,-8.621242857142857,12,3,57b305a7498ea562f5ac0495,House Teixeirinha Restaurant,41.229183,-8.619612,Portuguese Restaurant
267,267,41.15539902457049,-8.610654053990698,18,5,57b4dcb6498e5e71dfa8b188,Café Novo,41.155368,-8.613318,Portuguese Restaurant
1086,618,41.162661904761904,-8.580528571428571,9,1,57b9b22d498e86a9b6546ee2,Temperos,41.163163,-8.582281,Portuguese Restaurant
662,194,41.143614285714285,-8.675528571428572,1,0,57ca02ff498e289da8357c11,waffles belgas,41.147824,-8.673735,Belgian Restaurant
308,308,41.150877165905705,-8.610654053990698,43,28,57cae6e6498ec51d0ab28aae,Casa Laurenço,41.150562,-8.608981,Portuguese Restaurant
285,285,41.150877165905705,-8.610654053990698,43,5,57d1cc02498eb7b1587e4a98,Tábua Rasa,41.149303,-8.612494,Portuguese Restaurant
1119,651,41.17218571428571,-8.607671428571429,7,0,57d2acd6498e96cce884982b,Presto Pizza,41.169033,-8.611472000000001,Italian Restaurant
309,309,41.150877165905705,-8.610654053990698,43,29,57dbe5cccd10fe7345e8b83c,Tramóia,41.150283,-8.609268,Portuguese Restaurant
828,360,41.143614285714285,-8.5941,14,11,57ed1939498e1a4fcf3eda18,O Fintas,41.140236,-8.591856,Portuguese Restaurant
681,213,41.143614285714285,-8.634814285714285,39,3,57f000e1498eb99ecde2877e,Li Yuan,41.141802,-8.63664,Asian Restaurant
506,38,41.09599523809523,-8.580528571428571,2,1,57f92c56498eb89d307b6ed2,Cafe Chaplin,41.09413,-8.575966000000001,Portuguese Restaurant
1406,938,41.248376190476186,-8.621242857142857,6,2,57f95b37498e0ac33a4b1950,Sushi Mai,41.24667,-8.620645,Asian Restaurant
924,456,41.15313809523809,-8.621242857142857,44,33,57fa3a8e498e83e37813ec76,Tasca das Tapas,41.149996,-8.617846,Mediterranean Restaurant
864,396,41.15313809523809,-8.675528571428572,28,23,57fe1db1cd106608b325ac4f,Porto.Come,41.149916221348036,-8.673432469367981,Portuguese Restaurant
840,372,41.143614285714285,-8.512671428571426,1,0,58029b1238fa810128770612,casa da eira de tardariz,41.144374,-8.510371000000001,Portuguese Restaurant
909,441,41.15313809523809,-8.621242857142857,44,18,580a4dd438fa4d664d6f3bd0,7 Francesinhas,41.150227,-8.622928,Portuguese Restaurant
1129,661,41.17218571428571,-8.566957142857143,16,1,580cc65f38fa87af5463f262,Bodegão,41.174668,-8.565813,Portuguese Restaurant
288,288,41.150877165905705,-8.610654053990698,43,8,5813946438fa8d6826591e20,Grigio,41.149788,-8.612026,Italian Restaurant
1060,592,41.162661904761904,-8.607671428571429,22,12,581c8dd2855189757a81dd29,Marquês do Sushi,41.16169796189666,-8.603410720825195,Sushi Restaurant
1064,596,41.162661904761904,-8.607671428571429,22,16,58263f12d506b731bd9234f7,Sabores de Basto,41.16229017335996,-8.606094367419512,Portuguese Restaurant
650,182,41.134090476190465,-8.607671428571429,15,11,583c8f30d6fe900bdc964440,Bou A Kasa,41.130590000000005,-8.606834,Portuguese Restaurant
903,435,41.15313809523809,-8.621242857142857,44,12,583e0c5e92789f3f87e365ce,Oficina,41.149873,-8.620376,Portuguese Restaurant
922,454,41.15313809523809,-8.621242857142857,44,31,5845619c668af751c236b9c3,Don Jamón,41.15271139561276,-8.61828088760376,Spanish Restaurant
822,354,41.143614285714285,-8.5941,14,5,587385492ec3647fad2c2a78,Madureira,41.14595388190552,-8.596364182349818,Portuguese Restaurant
1343,875,41.21980476190476,-8.553385714285714,13,7,5878cf10a19e90680c91ba58,Snack Bar Bom Garfo,41.21664727238776,-8.55608821043697,Portuguese Restaurant
1249,781,41.19123333333333,-8.661957142857142,3,1,588668d2debdf607c0603fae,Ninki Sushi Bar,41.187064,-8.66007,Sushi Restaurant
927,459,41.15313809523809,-8.621242857142857,44,36,588d146f0393cc517ecb48dc,Casa Ferreira,41.150867,-8.620584,Portuguese Restaurant
27,27,41.14587521504668,-8.618260664924069,28,16,588f3e80d772f9164c38d17f,Alma Portuense - Leões,41.14653665236262,-8.616377523139516,Portuguese Restaurant
1050,582,41.162661904761904,-8.607671428571429,22,2,5894ea37266c1121f0f37a4f,Pregos & Martelo,41.161667,-8.603645,Portuguese Restaurant
1395,927,41.23885238095238,-8.526242857142856,4,0,589f05b42c55ec7cf2568b3b,Galeria Das Tapas,41.241955,-8.524156,Tapas Restaurant
830,362,41.143614285714285,-8.5941,14,13,58a2ffe99435a966cdfaeb63,Novo Barão,41.146656,-8.592098,Portuguese Restaurant
893,425,41.15313809523809,-8.621242857142857,44,2,58bf14dae0adac7fd284f849,Dona Arepa,41.151114,-8.617586,Arepa Restaurant
490,22,41.076947619047615,-8.621242857142857,3,1,58cbd93b2a1982731d18203f,Taberna Rituana,41.077834,-8.620325,Portuguese Restaurant
835,367,41.143614285714285,-8.553385714285714,3,1,58d449e58ae363576d756285,Arte da Francesinha,41.143263,-8.555441,Portuguese Restaurant
872,404,41.15313809523809,-8.648385714285713,5,0,58e4f198a4367c10626be0f9,Paladares Porto,41.155700322938685,-8.650939464569094,Portuguese Restaurant
667,199,41.143614285714285,-8.648385714285713,12,1,58e93754668af70c792e56bf,Restaurante Carvão,41.141257,-8.650674,Portuguese Restaurant
1375,907,41.23885238095238,-8.675528571428572,7,5,58ef988935f983157375801b,Italian Republic,41.237016,-8.671861999999999,Italian Restaurant
629,161,41.134090476190465,-8.621242857142857,26,16,58f77f3f3731ee4e4f8979da,Tasca Do Cais,41.13705,-8.617232000000001,Tapas Restaurant
546,78,41.11504285714285,-8.580528571428571,1,0,5904ef7faa6c95608bd56317,Cheiro D' Lenha,41.111134,-8.578673,Portuguese Restaurant
1251,783,41.19123333333333,-8.634814285714285,8,0,590f67591bc704026f72de38,Fujiyama,41.190511,-8.63973,Sushi Restaurant
1079,611,41.162661904761904,-8.5941,15,9,5928c0faa0215b39179d1716,Por Acaso,41.163584,-8.596855999999999,Tapas Restaurant
609,141,41.134090476190465,-8.661957142857142,2,0,5936a3e60531e821b7c8517d,O Gato Que Pesca,41.130974,-8.665436999999999,Portuguese Restaurant
1215,747,41.18170952380952,-8.607671428571429,13,2,59393e5dbd4009173614a716,Sabor Gaúcho,41.180271000000005,-8.604394000000001,Brazilian Restaurant
486,18,41.06742380952381,-8.553385714285714,3,2,593a8a7da35dce738e2d1871,Tomatino,41.068945,-8.556623,Italian Restaurant
1075,607,41.162661904761904,-8.5941,15,5,593c38646fd6265aedb5dbbf,Madeira,41.165847,-8.598027,Portuguese Restaurant
1025,557,41.162661904761904,-8.634814285714285,20,5,593d5174a4b51b4815519db8,Sushi&Go,41.158770000000004,-8.634955,Japanese Restaurant
438,438,41.183970453141924,-8.686116073728982,8,7,595cc8111c0b3450c9a5b308,Pátio do Ló,41.18252024879469,-8.685754537582397,Portuguese Restaurant
1358,890,41.22932857142857,-8.621242857142857,12,4,595ea1e87269fe39b8e6f0d2,Três Reis - Café Petisqueira,41.231464,-8.62317,Portuguese Restaurant
461,461,41.17944859447714,-8.686116073728982,29,22,595ff99e03132020d46a6761,Bonsai,41.178501000000004,-8.687543,Sushi Restaurant
1464,43,41.144744750380475,-8.612144768310557,25,23,596a43a56dcf044afa61d992,6 Meia Duzia,41.144558,-8.612463,Portuguese Restaurant
1048,580,41.162661904761904,-8.607671428571429,22,0,5971f14bdb1d817cc89bc6bf,Casanova,41.16195,-8.606287,Portuguese Restaurant
878,410,41.15313809523809,-8.634814285714285,14,1,59830e2ca9e40278fd290c32,IKEDA Japanese Cuisine,41.152521,-8.631528,Japanese Restaurant
348,348,41.150877165905705,-8.604688803152156,35,17,598996e44aa3f81158e8c577,Portus Gustus,41.149572,-8.606573,Portuguese Restaurant
114,114,41.14587521504668,-8.610653620790215,50,12,59a1bebd1c0b3419a5f0f939,Droop - Food & Wine,41.147906,-8.611788,Portuguese Restaurant
873,405,41.15313809523809,-8.648385714285713,5,1,59a2c7f09be5223fd280b70d,Sardines,41.154457,-8.642764999999999,Portuguese Restaurant
1102,634,41.17218571428571,-8.6891,11,7,59a31cb9e185f358f69c762e,O Cantinho da Ramboia,41.175034000000004,-8.689952,Portuguese Restaurant
520,52,41.10551904761905,-8.607671428571429,1,0,59aaa40c295513268354808f,Torcatu's,41.106511,-8.60445,Tapas Restaurant
1439,18,41.14700567971288,-8.612144768310557,10,8,59b58211112c6c0852d2c902,Laurear,41.147232,-8.612483000000001,Portuguese Restaurant
1042,574,41.162661904761904,-8.621242857142857,8,2,59bfb72386bc49168b80e084,Casa Da Picanha,41.162114,-8.626844,Brazilian Restaurant
1045,577,41.162661904761904,-8.621242857142857,8,5,59bfb796e1f2287933f9c100,Casa Da Picanha,41.161783,-8.626544,Brazilian Restaurant
652,184,41.134090476190465,-8.607671428571429,15,13,59ce7a7a50a6f006dd38e31b,Casa Pinto Almoços E Jantares,41.134304,-8.605425,Portuguese Restaurant
637,169,41.134090476190465,-8.621242857142857,26,24,59d23b572bf9a92cf28f8cb3,Kroquet,41.136687,-8.616375,Dutch Restaurant
166,166,41.14135335638189,-8.610653620790215,39,14,59d665f761f0704ebe79c271,Maria Do Ceu Romaro Xavier,41.140583,-8.612815,Portuguese Restaurant
1329,861,41.21980476190476,-8.5941,1,0,59da61afda5ede73ea34eb32,Casa Das Bifanas Porco Preto,41.21594,-8.592955,Portuguese Restaurant
885,417,41.15313809523809,-8.634814285714285,14,8,59ff93ad8496ca4e80cb817c,Senhor Frango Da Guia,41.154971999999994,-8.629583,Caucasian Restaurant
365,365,41.150877165905705,-8.604688803152156,35,34,5a0deaecc365885a82e1dbde,Sushi Store,41.150145,-8.6048,Sushi Restaurant
1281,813,41.19123333333333,-8.499099999999999,6,5,5a10380dbd400971451a7780,Kanpai Garden Terrace Valongo,41.189758000000005,-8.499297,Sushi Restaurant
1321,853,41.210280952380955,-8.553385714285714,6,2,5a352de82632ec593e0d4f2f,Stramuntana,41.213265,-8.549702,Portuguese Restaurant
1267,799,41.19123333333333,-8.580528571428571,1,0,5a42bacb628c830fbac40d2d,Temple Rio,41.18753637612252,-8.580469163810593,Sushi Restaurant
1390,922,41.23885238095238,-8.607671428571429,2,0,5a63a9b6911fc45bf36925a3,Essência das Tapas,41.23645,-8.612263,Tapas Restaurant
1104,636,41.17218571428571,-8.6891,11,9,5a77241023a2e6307e62de5b,Casa Xico,41.174684,-8.689392999999999,Portuguese Restaurant
1136,668,41.17218571428571,-8.566957142857143,16,8,5a972616be70781dc050591c,Il Papero,41.174234999999996,-8.566218,Italian Restaurant
11,11,41.14587521504668,-8.618260664924069,28,0,5aa138b4a6ec984d36fb13d7,Subenshi,41.146464179107426,-8.616599170265507,Japanese Restaurant
1224,756,41.18170952380952,-8.607671428571429,13,11,5aad2b1378782c0c8ab364e5,Piccollino,41.18032307389488,-8.604358190690402,Italian Restaurant
87,87,41.143614285714285,-8.607671428571429,28,13,5ab8daa8b1ec136b2c796150,Osteria di Porto,41.143376,-8.608057,Italian Restaurant
639,171,41.134090476190465,-8.607671428571429,15,0,5acb4af467af3a34ce8a3a58,Mamma Bella,41.136875,-8.612257000000001,Italian Restaurant
1405,937,41.248376190476186,-8.621242857142857,6,1,5acdf5bdf0ca953d10af3f7b,Restaurante O Gonçalves,41.24759,-8.621215,Portuguese Restaurant
1324,856,41.210280952380955,-8.553385714285714,6,5,5ae362cdfe3740002d836ed4,Maximu's Restaurante Cervejaria,41.21029,-8.554566000000001,Portuguese Restaurant
273,273,41.15539902457049,-8.610654053990698,18,11,5afeca040802d4002cec092c,Za,41.15527,-8.613617,Portuguese Restaurant
16,16,41.14587521504668,-8.618260664924069,28,5,5b042de795d986002c685f0a,Boteco Mexicano,41.14525,-8.615625999999999,Brazilian Restaurant
598,130,41.12456666666667,-8.607671428571429,28,26,5b1d45030d173f002ce32499,O Forno Do Leitão Do Zé,41.125567,-8.60529,Portuguese Restaurant
923,455,41.15313809523809,-8.621242857142857,44,32,5b224f796f0aa2002dd75add,La Fontana,41.152253,-8.61786,Italian Restaurant
1342,874,41.21980476190476,-8.553385714285714,13,6,5b265b77be7078002c7aa642,Restaurante Estoril,41.217341999999995,-8.552118,Portuguese Restaurant
997,529,41.162661904761904,-8.661957142857142,11,3,5b2815fb78782c0034a38411,Cêpa Aviz,41.162432,-8.667202,Italian Restaurant
1022,554,41.162661904761904,-8.634814285714285,20,2,5b2c00392d2fd90039cf21b0,Portekiz #Porto,41.16022,-8.630462,Portuguese Restaurant
619,151,41.134090476190465,-8.621242857142857,26,6,5b364f440fe7a0002ccdb3c3,Mateus Restaurant,41.137253,-8.617644,Portuguese Restaurant
683,215,41.143614285714285,-8.634814285714285,39,5,5b3ca1a331ac6c00396857c6,Capa no Rio,41.147395,-8.632747,Portuguese Restaurant
556,88,41.12456666666667,-8.661957142857142,9,8,5b5e14aa56c89f002c050c95,Mercado Das Tapas,41.12293,-8.666061000000001,Tapas Restaurant
99,99,41.143614285714285,-8.607671428571429,28,25,5b5f6b8423a2e60039fcdfd3,Xau Laura,41.143377,-8.608113000000001,Portuguese Restaurant
1021,553,41.162661904761904,-8.634814285714285,20,1,5b61c28f1ffe97002cc61dd2,Restaurante Rosa Do Porto,41.159005,-8.633297,Portuguese Restaurant
189,189,41.14135335638189,-8.610653620790215,39,37,5b65f03079f6c7002c0a385e,Ribeira 1501,41.14055,-8.612619,Tapas Restaurant
671,203,41.143614285714285,-8.648385714285713,12,5,5b66eafc89e490002c587a0b,Café 1962,41.143227,-8.646657000000001,Portuguese Restaurant
1033,565,41.162661904761904,-8.634814285714285,20,13,5b7965748c812a002cca9cc8,Spetto House,41.159386,-8.633042999999999,Brazilian Restaurant
319,319,41.150877165905705,-8.610654053990698,43,39,5b7b1839005ac1002cbc81e5,Ilegal,41.149634999999996,-8.612674,Mexican Restaurant
912,444,41.15313809523809,-8.621242857142857,44,21,5b7dd6b489b06a002cf0ca60,Moules Porto,41.14985967034978,-8.619466423988342,Belgian Restaurant
898,430,41.15313809523809,-8.621242857142857,44,7,5ba404abe0c0c9002c08d673,Lapamaki,41.155543,-8.618584,Japanese Restaurant
1373,905,41.23885238095238,-8.675528571428572,7,3,5ba4f55225ecca002c0fc729,Douro Portuguese Cuisine,41.23707,-8.671823,Portuguese Restaurant
1078,610,41.162661904761904,-8.5941,15,8,5ba9508e58002c002b62952a,Malfeito,41.160159,-8.592232000000001,Portuguese Restaurant
292,292,41.150877165905705,-8.610654053990698,43,12,5bbfb910cf72a0002cb25202,Mood & Sushi,41.14969,-8.613024000000001,Sushi Restaurant
1054,586,41.162661904761904,-8.607671428571429,22,6,5bcb7ec1838e59002c1d9ab7,Hortas & Pratos,41.160052,-8.60812,Portuguese Restaurant
170,170,41.14135335638189,-8.610653620790215,39,18,5bcdcaa592e7a9002cc83691,Cafe Miradouro,41.140837,-8.61063,Portuguese Restaurant
587,119,41.12456666666667,-8.607671428571429,28,15,5bd30e72f427de0039d9f9a8,Tutti Buoni,41.125161999999996,-8.611814,Italian Restaurant
1230,762,41.18170952380952,-8.5941,5,4,5bd4566d0d8a0f00395115ea,Tabafeira,41.18327,-8.59939,Portuguese Restaurant
1220,752,41.18170952380952,-8.607671428571429,13,7,5bde44ba6dcf04002c60ff33,O Vinhateiro,41.182883000000004,-8.613437,Portuguese Restaurant
504,36,41.09599523809523,-8.5941,1,0,5bf02e090a08ab002cfa1e3f,Taberna Velha,41.093915,-8.598438999999999,Portuguese Restaurant
1290,822,41.20075714285714,-8.580528571428571,3,1,5bf175f3121384002ce9c802,Carioca Lounge,41.19999,-8.585232000000001,Brazilian Restaurant
1294,826,41.20075714285714,-8.553385714285714,4,1,5bf9536bdd8442002cda0144,Monteiro's Grill,41.204640000000005,-8.553495,Portuguese Restaurant
1006,538,41.162661904761904,-8.648385714285713,15,1,5c01b7cefd16bb00397b099c,Little Brazil,41.166903999999995,-8.649654,Brazilian Restaurant
1068,600,41.162661904761904,-8.607671428571429,22,20,5c1020f9829b0c002c82015b,Raízes,41.159763,-8.608157,Portuguese Restaurant
1130,662,41.17218571428571,-8.566957142857143,16,2,5c31e351f2554e002c8cd571,Casa Rainho,41.173977,-8.569412,Portuguese Restaurant
464,464,41.17944859447714,-8.686116073728982,29,25,5c322bd5b25fee002cf2eb6f,Venga Tapiscaria Ibérica,41.178825,-8.685108999999999,Spanish Restaurant
834,366,41.143614285714285,-8.553385714285714,3,0,5c38ae615bc27d0025fe0a6c,Assador Grelhador,41.142688,-8.547778,Portuguese Restaurant
354,354,41.150877165905705,-8.604688803152156,35,23,5c3f272960255e002c10b884,Pitada Brasileira,41.151361,-8.605149,Brazilian Restaurant
930,462,41.15313809523809,-8.621242857142857,44,39,5c4cfa76a4ba7c002c11c2cd,Sabores Da Amazônia,41.150064,-8.617666,Brazilian Restaurant
146,146,41.14587521504668,-8.610653620790215,50,44,5c4eed724940bc002c9caf38,All In Porto,41.145557000000004,-8.613466,Portuguese Restaurant
933,465,41.15313809523809,-8.621242857142857,44,42,5c55a20361e53b002c322a8f,Curral Dos Petiscos,41.149331,-8.620553,Tapas Restaurant
911,443,41.15313809523809,-8.621242857142857,44,20,5c686b3035d3fc00391d5011,Capim Dourado,41.151709999999994,-8.617602,Brazilian Restaurant
1096,628,41.17218571428571,-8.6891,11,1,5c6883fd123a19002c4111bf,Cisma,41.176009,-8.690071000000001,Modern European Restaurant
867,399,41.15313809523809,-8.675528571428572,28,26,5c705af2625a66002fbfe261,Shiso,41.152807,-8.670154,Sushi Restaurant
161,161,41.14135335638189,-8.610653620790215,39,9,5c980b5961f070002cf213b5,O Terreirinho Restaurante,41.140732,-8.612316,Portuguese Restaurant
279,279,41.15539902457049,-8.610654053990698,18,17,5c993bc742d8c2002cd99b34,Restaurante Paraíso 3,41.153490000000005,-8.611018,Portuguese Restaurant
846,378,41.15313809523809,-8.675528571428572,28,5,5c9bc4521c0b34002c3c6c2f,Francesinha,41.150886,-8.676521000000001,Portuguese Restaurant
1219,751,41.18170952380952,-8.607671428571429,13,6,5c9cbe9a061b5100394e0a64,Piccollino Campus São João,41.180303,-8.604301,Italian Restaurant
1245,777,41.19123333333333,-8.6891,6,3,5ca7a720f427de002cd8137a,Don Coelhone,41.190943,-8.693757000000002,Tapas Restaurant
904,436,41.15313809523809,-8.621242857142857,44,13,5cb09b64acb00b002c002658,VietView,41.153999999999996,-8.6186075,Vietnamese Restaurant
539,71,41.11504285714285,-8.607671428571429,4,0,5cbdb5cdad910e002cd0fa36,Soto Antigo,41.1151,-8.606244,Portuguese Restaurant
168,168,41.14135335638189,-8.610653620790215,39,16,5cc0c90f471d6e002c413d71,Taberna Dona Antonia,41.141129,-8.612928,Portuguese Restaurant
1320,852,41.210280952380955,-8.553385714285714,6,1,5cc4adc6971317002e66dedb,Restaurante Japonês Sakurai Sushi Bar Teppan Yaki,41.213403,-8.549489999999999,Sushi Restaurant
1131,663,41.17218571428571,-8.566957142857143,16,3,5ccb438e78782c002cf6d691,Tomatino,41.174274,-8.56602,Italian Restaurant
865,397,41.15313809523809,-8.675528571428572,28,24,5ccdf9e2947c05002ccd483b,Dona Picanha Rodizio,41.149926,-8.673585000000001,Brazilian Restaurant
316,316,41.150877165905705,-8.610654053990698,43,36,5cd5dc6a1ffed7002cb1cb12,Niku Sushi,41.150665000000004,-8.608764,Sushi Restaurant
926,458,41.15313809523809,-8.621242857142857,44,35,5cd96518e96d0c002cadd8c3,Surya,41.154068,-8.618499,Asian Restaurant
596,128,41.12456666666667,-8.607671428571429,28,24,5cdabbaea5a315003957e034,One Piece,41.121345,-8.606078,Sushi Restaurant
820,352,41.143614285714285,-8.5941,14,3,5cdac12efe3740002cf510f1,Villaggio,41.145737,-8.598663,Italian Restaurant
1203,735,41.18170952380952,-8.648385714285713,5,0,5ce532e5b9b37b002c3a67c3,City Wok,41.181079,-8.648789,Asian Restaurant
489,21,41.076947619047615,-8.621242857142857,3,0,5d189e2b6d22da002f9b79a9,Toca Dos Amigos,41.076366,-8.616355,Portuguese Restaurant
1083,615,41.162661904761904,-8.5941,15,13,5d20ebbd9d81e30023dc5b33,São Lazaro 2,41.166308,-8.597287,Portuguese Restaurant
1397,929,41.23885238095238,-8.526242857142856,4,2,5d27209e79ad5e0023e762df,Cantinho Da Estrela,41.242090000000005,-8.525428,Portuguese Restaurant
1463,42,41.144744750380475,-8.612144768310557,25,22,5d346ce2e2efbf000873f1db,have a bite drinks & snacks,41.145144,-8.612573,Tapas Restaurant
990,522,41.15313809523809,-8.5941,7,5,5d3eec9f761b9d000815f5c7,O Nazareno,41.150542,-8.594607,Portuguese Restaurant
551,83,41.12456666666667,-8.661957142857142,9,3,5d4ebc582a499e0007248cd7,Sushi by Stefano,41.122904999999996,-8.666053,Sushi Restaurant
315,315,41.150877165905705,-8.610654053990698,43,35,5d4f1a24b759100008bad409,Namaste Café,41.152082,-8.610439,Indian Restaurant
290,290,41.150877165905705,-8.610654053990698,43,10,5d6656c15a144a0008426d88,Trattoria 179,41.148754,-8.609966,Italian Restaurant
1279,811,41.19123333333333,-8.499099999999999,6,3,5d683b1ae4330c0008f0190f,Piccollino,41.189766,-8.499297,Sushi Restaurant
304,304,41.150877165905705,-8.610654053990698,43,24,5d72845a70b0ed00089fc3a5,O Restaurante da Maria Odete,41.150183,-8.611685000000001,Portuguese Restaurant
1044,576,41.162661904761904,-8.621242857142857,8,4,5d8b91de7498b4000737cd4e,Casa Cartola,41.162725,-8.616503999999999,Portuguese Restaurant
1214,746,41.18170952380952,-8.607671428571429,13,1,5d973a2511282800079b2595,Taberna Londrina,41.184162,-8.603881,Portuguese Restaurant
502,34,41.09599523809523,-8.621242857142857,1,0,5da8bc5d13c9bb000887e97e,El Guacamole Cantina Mexicana,41.095428999999996,-8.61927,Mexican Restaurant
655,187,41.134090476190465,-8.5941,2,1,5da975456a55c10007eda800,Villadog - Hotel Canino,41.131818,-8.596805,Peruvian Restaurant
1313,845,41.210280952380955,-8.621242857142857,4,0,5dab125d6c80e80008db782c,Ordo Restaurante - Bh Concept,41.208912,-8.621564999999999,Sushi Restaurant
1411,943,41.2579,-8.661957142857142,3,0,5dada832a8761c0007626a74,Brasão Das Guardeiras,41.258342999999996,-8.657747,Portuguese Restaurant
658,190,41.134090476190465,-8.539814285714284,3,1,5dbc7130dc61fa0008102f6b,G Lounge,41.135246,-8.541829,Tapas Restaurant
1381,913,41.23885238095238,-8.661957142857142,6,4,5dbc8d41ef9ef000082a8872,Malheiro Eventos,41.242518,-8.664778,Portuguese Restaurant
1353,885,41.22932857142857,-8.634814285714285,2,1,5dcc649b97d51a000884e885,Quinta D’as Raparigas,41.225966,-8.633339,Portuguese Restaurant
311,311,41.150877165905705,-8.610654053990698,43,31,5ddd8b9400f01a000761cafd,O Jardim do Buhla,41.15015,-8.609376,Portuguese Restaurant
310,310,41.150877165905705,-8.610654053990698,43,30,5df283990a04f90008a4430d,"Francesinhas Al Forno da Baixa, Rua do Almada 160, 4000-196 Porto, Portugal",41.149501,-8.61195,Modern European Restaurant
704,236,41.143614285714285,-8.634814285714285,39,26,5dfa7cacf3df6f000841eb45,Italian Republic,41.141814000000004,-8.636657000000001,Italian Restaurant
642,174,41.134090476190465,-8.607671428571429,15,3,5e08ec024f1e9c00089a98a5,Best Friends Tapas Bar,41.135220000000004,-8.611344,Tapas Restaurant
1080,612,41.162661904761904,-8.5941,15,10,5e0fdf60892d580007273026,DASH Japanese Restaurant,41.163206,-8.590125,Japanese Restaurant
1041,573,41.162661904761904,-8.621242857142857,8,1,5e0fee2585903b0008a75b01,Casa Aliança,41.165279999999996,-8.617198,Portuguese Restaurant
1046,578,41.162661904761904,-8.621242857142857,8,6,5e0ff09dea44ce0007e9d9af,Holi Caffé,41.159086,-8.623942,Kebab Restaurant
700,232,41.143614285714285,-8.634814285714285,39,22,5e231ae69ce17d0008df5b9a,Quattro Porte,41.145696,-8.630309,Italian Restaurant
455,455,41.17944859447714,-8.686116073728982,29,16,5e25a16404a74d0008d51748,Raku Ramen,41.179584999999996,-8.683584,Ramen Restaurant
1085,617,41.162661904761904,-8.580528571428571,9,0,5e31e332f40b730008314acc,Tomatino,41.163678000000004,-8.583963,Italian Restaurant
1141,673,41.17218571428571,-8.566957142857143,16,13,5e386f3e6ecdc30008329d2b,Da Ilha,41.174605,-8.565716,Portuguese Restaurant
1001,533,41.162661904761904,-8.661957142857142,11,7,5e5292e3c0f2c400071be9ec,Chef Tapioca,41.16118,-8.65794,Brazilian Restaurant
640,172,41.134090476190465,-8.607671428571429,15,1,5e63983795d0410008951aef,A Grelha,41.131592,-8.606247,Portuguese Restaurant
832,364,41.143614285714285,-8.580528571428571,2,1,5edbbb0501648d0008159e78,Adega São Pedro,41.144641,-8.576863000000001,Portuguese Restaurant
599,131,41.12456666666667,-8.607671428571429,28,27,5eea58ebe0631d0007f9c2e7,Il Piacere Pizzeria,41.126328,-8.609524,Italian Restaurant
1388,920,41.23885238095238,-8.621242857142857,7,5,5eebf1f0cb76660008aa85f9,Restaurante Passata,41.235733,-8.625296,Italian Restaurant
910,442,41.15313809523809,-8.621242857142857,44,19,5eff2242f381b900070746cb,Siktak,41.152555,-8.617614,Korean Restaurant
615,147,41.134090476190465,-8.621242857142857,26,2,5f09f348c4596d6ceb417468,Tasca Do Carago,41.137386,-8.617877,Portuguese Restaurant
1275,807,41.19123333333333,-8.512671428571426,3,2,5f216979ed76930a9eb3e20d,Mister  Churrasco,41.191596000000004,-8.513622,Portuguese Restaurant
1238,770,41.18170952380952,-8.580528571428571,9,7,5f23274df8edde500712e3aa,Ma Fama,41.185714000000004,-8.580433,Brazilian Restaurant
572,104,41.12456666666667,-8.607671428571429,28,0,5f3439eb6f614c08b33cc2f2,100 Montaditos,41.125681,-8.605341000000001,Tapas Restaurant
879,411,41.15313809523809,-8.634814285714285,14,2,5f352385bf1a075d8ddae83a,Olá Vietnam,41.153034000000005,-8.630630499999999,Vietnamese Restaurant
817,349,41.143614285714285,-8.5941,14,0,5f494e86ede93f1b1620a5f4,Ondo Korean Kitchen,41.143141,-8.598287,Korean Restaurant
1039,571,41.162661904761904,-8.634814285714285,20,19,5f5d3f44de7b3d799b28e833,188 Latin Cuisine,41.16025,-8.630938,Peruvian Restaurant
38,38,41.14587521504668,-8.618260664924069,28,27,5f664fbb0e10cf05961a78b1,Bilha Nova,41.144373,-8.617369,Tapas Restaurant
364,364,41.150877165905705,-8.604688803152156,35,33,5f74d75098df6d72aa5cf486,A Cave Do Bon Vivant,41.152801000000004,-8.6047,Tapas Restaurant
638,170,41.134090476190465,-8.621242857142857,26,25,5f9c0486e08f7572eafdf7e8,Restaurante Dona Maria,41.136352,-8.618439,Portuguese Restaurant
322,322,41.150877165905705,-8.610654053990698,43,42,5fc968190d6d9d74b563621a,Mood,41.149807,-8.612942,Asian Restaurant
