,lat_centre,long_centre,num_venues,venue_iter,venue_id,venue_name,lat_venue,long_venue,category
0,41.143614285714285,-8.621242857142857,9,0,5556690d498e9927a5d737f2,Restaurante Árvore,41.1446778586715,-8.618675148351223,Portuguese Restaurant
1,41.143614285714285,-8.621242857142857,9,1,501d5c6be4b067f6accbe697,Alfândega Douro,41.14404478373229,-8.622246698032352,Portuguese Restaurant
2,41.143614285714285,-8.621242857142857,9,2,593992feee712035b1f75b7a,Backson's,41.142415,-8.619902,Tapas Restaurant
3,41.143614285714285,-8.621242857142857,9,3,56f8196c498e9408374626b1,Restaurante Chez Dany,41.142049,-8.619368,Portuguese Restaurant
4,41.143614285714285,-8.621242857142857,9,4,5c8d6ebb5d891b002cf0a4af,Sobre o Rio,41.142075,-8.61929,Portuguese Restaurant
5,41.143614285714285,-8.621242857142857,9,5,4d45b92c1ed56dcb6e1ebe54,Taberna Barqueiro,41.14338180966444,-8.621535391287098,Tapas Restaurant
6,41.143614285714285,-8.621242857142857,9,6,53402857498e10d748fb767a,Elisinha,41.144382,-8.623407,Portuguese Restaurant
7,41.143614285714285,-8.621242857142857,9,7,522a4dd0498e3f226af539ce,Virtudes,41.14386233186549,-8.61840869413462,Portuguese Restaurant
8,41.143614285714285,-8.621242857142857,9,8,576acb0e498ef3fdc1778871,Flor da Alfândega,41.143449,-8.62125,Portuguese Restaurant
9,41.14587521504668,-8.624225049361645,2,0,4e628d1fd22d509a39ae8bce,Papavinhos,41.144558306308035,-8.624530030057231,Portuguese Restaurant
10,41.14587521504668,-8.624225049361645,2,1,53402857498e10d748fb767a,Elisinha,41.144382,-8.623407,Portuguese Restaurant
11,41.14587521504668,-8.618260664924069,28,0,5aa138b4a6ec984d36fb13d7,Subenshi,41.14646417910743,-8.616599170265507,Japanese Restaurant
12,41.14587521504668,-8.618260664924069,28,1,5d4aebdcaa887a0008a0e195,Farinha Pizza&Pasta,41.14425,-8.617441,Italian Restaurant
13,41.14587521504668,-8.618260664924069,28,2,5556690d498e9927a5d737f2,Restaurante Árvore,41.1446778586715,-8.618675148351223,Portuguese Restaurant
14,41.14587521504668,-8.618260664924069,28,3,584b250c0319b8761ca5a247,Dona Porto,41.146336,-8.616927,Mediterranean Restaurant
15,41.14587521504668,-8.618260664924069,28,4,53cea0e6498e7d66672d0039,Adega Bodega,41.147234,-8.616778,Tapas Restaurant
16,41.14587521504668,-8.618260664924069,28,5,5b042de795d986002c685f0a,Boteco Mexicano,41.14525,-8.615626,Brazilian Restaurant
17,41.14587521504668,-8.618260664924069,28,6,4c926b8eae96a0935eccab46,Restaurante Papagaio,41.14708714748373,-8.617030055469534,Portuguese Restaurant
18,41.14587521504668,-8.618260664924069,28,7,58e451919f8b867cd039fd9e,Taberna Real do Fado,41.144108,-8.617561,Music Venue
19,41.14587521504668,-8.618260664924069,28,8,57235164498eed7a4fe6c474,Casa Virtude,41.144276,-8.618224,Mediterranean Restaurant
20,41.14587521504668,-8.618260664924069,28,9,522b8e4011d23abbabcdbf6b,Cordoaria,41.14660266104501,-8.617390750954893,Portuguese Restaurant
21,41.14587521504668,-8.618260664924069,28,10,4d4e9d368975a35d277a10a8,Tasca S. António,41.145176293459,-8.615463462595347,Tapas Restaurant
22,41.14587521504668,-8.618260664924069,28,11,4e346b16d4c0634348231d6a,Retiro do Jardim,41.14653103425056,-8.617369905456515,Portuguese Restaurant
23,41.14587521504668,-8.618260664924069,28,12,516905a2498ed9a049d0f095,As Sogras,41.145029,-8.615522,Tapas Restaurant
24,41.14587521504668,-8.618260664924069,28,13,50c1e429e4b08b77f9016d65,Churrasqueira Brasil,41.14460102632114,-8.61637610003263,Portuguese Restaurant
25,41.14587521504668,-8.618260664924069,28,14,4f842627e4b01b06cf5dcaf1,A Tasquinha,41.14725930882856,-8.617316417141698,Portuguese Restaurant
26,41.14587521504668,-8.618260664924069,28,15,4c4f3638a7351b8da337bd92,Porto & Vírgula,41.14652025838458,-8.617174935202819,Portuguese Restaurant
27,41.14587521504668,-8.618260664924069,28,16,588f3e80d772f9164c38d17f,Alma Portuense - Leões,41.14653665236262,-8.616377523139516,Portuguese Restaurant
28,41.14587521504668,-8.618260664924069,28,17,503cb5dae4b0824848289898,Sabores de Moçambique,41.1439456812025,-8.617031058341613,African Restaurant
29,41.14587521504668,-8.618260664924069,28,18,50966612e4b0f7170392ee09,Tia Orlanda - Sabores Moçambicanos,41.143935178800525,-8.617035493949603,African Restaurant
30,41.14587521504668,-8.618260664924069,28,19,4b7753f6f964a5206b922ee3,Zé Bota,41.146986637310796,-8.617106597724169,Mediterranean Restaurant
31,41.14587521504668,-8.618260664924069,28,20,50a415b6e4b0178e0dd62c7e,Os Petiscos do Careca,41.147018,-8.617183,Tapas Restaurant
32,41.14587521504668,-8.618260664924069,28,21,583a19c592789f3da667437d,marcel&georges,41.14463,-8.617286,French Restaurant
33,41.14587521504668,-8.618260664924069,28,22,55f5c4ca498e079402d714d5,Árvore Restaurante,41.14472948403221,-8.61839085817337,Portuguese Restaurant
34,41.14587521504668,-8.618260664924069,28,23,4dade9bc4b229076785c7bb8,Restaurante Caldeira,41.146564921331155,-8.616988110083328,Mediterranean Restaurant
35,41.14587521504668,-8.618260664924069,28,24,55e0a7b5498e5a2bf9a972b8,3 Hyôshi,41.14702677394443,-8.617089099134764,Japanese Restaurant
36,41.14587521504668,-8.618260664924069,28,25,4ea08c708b810332abf5f817,Tapas Bar 24,41.14694383664609,-8.617159292790792,Tapas Restaurant
37,41.14587521504668,-8.618260664924069,28,26,522a4dd0498e3f226af539ce,Virtudes,41.14386233186549,-8.61840869413462,Portuguese Restaurant
38,41.14587521504668,-8.618260664924069,28,27,5f664fbb0e10cf05961a78b1,Bilha Nova,41.144373,-8.617369,Tapas Restaurant
39,41.14135335638189,-8.618260664924069,35,0,5a3c242b6adbf53a1c3b013e,Mistu,41.142171,-8.616185,Mediterranean Restaurant
40,41.14135335638189,-8.618260664924069,35,1,4f96ca46e4b0d668006aef40,Taberna Sto. António,41.1433281940464,-8.618149156049935,Portuguese Restaurant
41,41.14135335638189,-8.618260664924069,35,2,4c6c3e7e99b9236aa508e2c9,O Caraças,41.143060468671024,-8.61753855889617,Mediterranean Restaurant
42,41.14135335638189,-8.618260664924069,35,3,57810787cd10e88169ac3ca4,Bota & Bira,41.14238,-8.616225,Portuguese Restaurant
43,41.14135335638189,-8.618260664924069,35,4,559ebd35498e8ede601b3b50,Vime,41.14074007158109,-8.616784199603389,Portuguese Restaurant
44,41.14135335638189,-8.618260664924069,35,5,54b1a5e6498e81504d05fb27,SAOM - Restaurante Torreão,41.14290856182269,-8.618272246881654,Portuguese Restaurant
45,41.14135335638189,-8.618260664924069,35,6,57ed8587498ea73594d18206,Adega Mercearia,41.142615,-8.616541,Portuguese Restaurant
46,41.14135335638189,-8.618260664924069,35,7,59cec674b3c9615ae3ba2da0,Tasca da Langarica,41.143011,-8.616826,Portuguese Restaurant
47,41.14135335638189,-8.618260664924069,35,8,5150c17de4b02da12bba7c4d,O Fado,41.14228795607168,-8.617670371531998,Portuguese Restaurant
48,41.14135335638189,-8.618260664924069,35,9,59235a847564f757e0154a50,El Argento,41.142536,-8.616929,Argentinian Restaurant
49,41.14135335638189,-8.618260664924069,35,10,5abfe0ba97cf5a6f51269ee4,Gion,41.142405,-8.615743,Japanese Restaurant
50,41.14135335638189,-8.618260664924069,35,11,5633e1ac498ef882ef352d8c,Belos Aires,41.142553089659614,-8.616697792333818,Argentinian Restaurant
51,41.14135335638189,-8.618260664924069,35,12,501598d6e4b01bcdb2d0ad53,A Vindimeira,41.142581767909526,-8.617025689808003,Portuguese Restaurant
52,41.14135335638189,-8.618260664924069,35,13,593992feee712035b1f75b7a,Backson's,41.142415,-8.619902,Tapas Restaurant
53,41.14135335638189,-8.618260664924069,35,14,53e21c7c498e76aefc08b305,A'gosto no Porto,41.14116287231445,-8.618228912353516,Portuguese Restaurant
54,41.14135335638189,-8.618260664924069,35,15,56f8196c498e9408374626b1,Restaurante Chez Dany,41.142049,-8.619368,Portuguese Restaurant
55,41.14135335638189,-8.618260664924069,35,16,58b046c7febfbd2e0eda564d,Capela 51 (sem Nome Na Frente),41.14335,-8.61764,Portuguese Restaurant
56,41.14135335638189,-8.618260664924069,35,17,55af946f498e84de29d9a733,Herdade Do Peso,41.14109802246094,-8.617232322692871,Portuguese Restaurant
57,41.14135335638189,-8.618260664924069,35,18,4f6e30d1e4b0d638a1c3be5a,republica da Cerveja,41.14109893438277,-8.618056455194976,Portuguese Restaurant
58,41.14135335638189,-8.618260664924069,35,19,4ccede87c9b84688cb18cbc3,Cafetaria Taparia Lapausa,41.141061,-8.617774,Tapas Restaurant
59,41.14135335638189,-8.618260664924069,35,20,581c609003fcb4100cb9b90c,Conversas Vadias,41.142174,-8.61584,Portuguese Restaurant
60,41.14135335638189,-8.618260664924069,35,21,5c8d6ebb5d891b002cf0a4af,Sobre o Rio,41.142075,-8.61929,Portuguese Restaurant
61,41.14135335638189,-8.618260664924069,35,22,57f965c9498e8ced1c61cb38,Conversa Fiada,41.142395,-8.615786,Japanese Restaurant
62,41.14135335638189,-8.618260664924069,35,23,5918b2803b830737b34c98eb,Cafe Gold Fluss Retiro,41.141297,-8.617114,Fast Food Restaurant
63,41.14135335638189,-8.618260664924069,35,24,5e455ddcfd7bac000738d6b1,BoomBare Bistrô,41.143063,-8.61751,Portuguese Restaurant
64,41.14135335638189,-8.618260664924069,35,25,52c742f911d217ba2a566d92,As 7 Maravilhas,41.14293036798402,-8.617401464584264,Tapas Restaurant
65,41.14135335638189,-8.618260664924069,35,26,4cd9b1d9a99d3704f6a60cce,O Bom Talher,41.1416022606075,-8.616778737670789,Portuguese Restaurant
66,41.14135335638189,-8.618260664924069,35,27,570952ef498e66a61ecbdd25,WeePorto,41.141853,-8.618816,Portuguese Restaurant
67,41.14135335638189,-8.618260664924069,35,28,4c8a9c2d6418a1435d71e1ce,Katsu Sushi Bar,41.14243370794555,-8.615734568510577,Sushi Restaurant
68,41.14135335638189,-8.618260664924069,35,29,54e22275498ebc55e48159bc,Tasca caseira,41.142560101242935,-8.617010568151978,Taverna
69,41.14135335638189,-8.618260664924069,35,30,561032e5498e460ffbcfb19b,Restaurante Silva,41.140702,-8.615469,Portuguese Restaurant
70,41.14135335638189,-8.618260664924069,35,31,577c1008498e57368b8aac1f,97,41.14064,-8.615507,Portuguese Restaurant
71,41.14135335638189,-8.618260664924069,35,32,4cbc3ba29552b60c0038e48b,La Pausa,41.14097796684709,-8.617607225466406,Tapas Restaurant
72,41.14135335638189,-8.618260664924069,35,33,55e0364f498e894f3b7ad531,Porta 4,41.143534574890865,-8.617954451748725,Tapas Restaurant
73,41.14135335638189,-8.618260664924069,35,34,5005d31ae4b0b7eb52ccaef0,Mal Cozinhado,41.143110153953366,-8.61760012504877,Portuguese Restaurant
74,41.143614285714285,-8.607671428571427,28,0,5b69cbed2f97ec002ca5e931,Gazela Entreparedes,41.144935,-8.60635,Snack Place
75,41.143614285714285,-8.607671428571427,28,1,5d17555b1feae30023bedc40,Tex Mex Factory,41.143388,-8.608052,Mexican Restaurant
76,41.143614285714285,-8.607671428571427,28,2,54e5d164498e739f7a7c9bae,Shiko,41.14337192420137,-8.607976663002932,Japanese Restaurant
77,41.143614285714285,-8.607671428571427,28,3,58148f3d38faad3787da8c4d,CAL foods and drinks,41.142647112886024,-8.610185301329205,Portuguese Restaurant
78,41.143614285714285,-8.607671428571427,28,4,565d9a7b498e0693f2de9b86,Tokyo Sushi,41.14436167039815,-8.605880443020606,Sushi Restaurant
79,41.143614285714285,-8.607671428571427,28,5,4e445005d22de4060ef45e58,Restaurante Chinês,41.14238597126421,-8.610122014925116,Chinese Restaurant
80,41.143614285714285,-8.607671428571427,28,6,592b12da9cadd905283915c6,Restaurante KAPADOKYA,41.144872,-8.607187,Turkish Restaurant
81,41.143614285714285,-8.607671428571427,28,7,599ae3f4780eee45bc70bc41,Japo - Tokyo Flavours,41.143262,-8.608091,Ramen Restaurant
82,41.143614285714285,-8.607671428571427,28,8,519cf52d498e8953e46cdd98,Casa Louro,41.14523656321431,-8.607711853632706,Portuguese Restaurant
83,41.143614285714285,-8.607671428571427,28,9,55f861fb498e6e582a5bc047,Kapadokya,41.14493876753213,-8.607313030864045,Turkish Restaurant
84,41.143614285714285,-8.607671428571427,28,10,4f7f05e1e4b06838143c1423,restsurante pereira,41.144287109375,-8.607292175292969,Portuguese Restaurant
85,41.143614285714285,-8.607671428571427,28,11,514cd8d4e4b0b8a726ff19f3,Restaurante Douro,41.14581085887886,-8.60753471389478,Portuguese Restaurant
86,41.143614285714285,-8.607671428571427,28,12,5c799ac3febf31002c1b9f67,Cocorico,41.144066,-8.604928,French Restaurant
87,41.143614285714285,-8.607671428571427,28,13,5ab8daa8b1ec136b2c796150,Osteria di Porto,41.143376,-8.608057,Italian Restaurant
88,41.143614285714285,-8.607671428571427,28,14,5120d679e4b078ac8fa3af2e,A Brasa,41.145528128937435,-8.607352206717012,Portuguese Restaurant
89,41.143614285714285,-8.607671428571427,28,15,51aa66db498ef7984a8fb034,Brasas,41.143261,-8.609675,Portuguese Restaurant
90,41.143614285714285,-8.607671428571427,28,16,555785f5498ee9e1e48276ec,Kapatoya,41.145057678222656,-8.607172012329102,Turkish Restaurant
91,41.143614285714285,-8.607671428571427,28,17,4f4a629ae4b092e0caf7d898,Uludağ Restaurant,41.14492155265824,-8.607158964299705,Turkish Restaurant
92,41.143614285714285,-8.607671428571427,28,18,5b75d65f0a08ab002c2734a6,O Bufete Dos Guindais,41.141647,-8.608788,Tapas Restaurant
93,41.143614285714285,-8.607671428571427,28,19,580e4b1538fa27d5ba606fc7,Adega Alfredo Portista,41.14425,-8.609076,Bar
94,41.143614285714285,-8.607671428571427,28,20,5043c6c2e4b08ae7caed29de,Chubrasqueira A Brasa,41.145607626528545,-8.60757765682371,Portuguese Restaurant
95,41.143614285714285,-8.607671428571427,28,21,52e416a6498e96eba17935a3,ESPAÇO 37,41.14323043823242,-8.60965633392334,African Restaurant
96,41.143614285714285,-8.607671428571427,28,22,5223c101498e4408624465e6,Essência Lusa de Carlos Manuel Miranda,41.14555765540707,-8.608178860371588,Portuguese Restaurant
97,41.143614285714285,-8.607671428571427,28,23,599ae2c018d43b6d09effc3b,Japo,41.143425,-8.608085,Noodle House
98,41.143614285714285,-8.607671428571427,28,24,507db79ae4b0390979c06fc9,kanimambo,41.14347049296393,-8.608168124552323,Portuguese Restaurant
99,41.143614285714285,-8.607671428571427,28,25,5b5f6b8423a2e60039fcdfd3,Xau Laura,41.143377,-8.608113,Portuguese Restaurant
100,41.143614285714285,-8.607671428571427,28,26,4d83b8c55091370427796f5b,Restaurante Porto Antigo,41.14526271893912,-8.607594966888428,Portuguese Restaurant
101,41.143614285714285,-8.607671428571427,28,27,565efb1f498e9293108ff34d,Tokyo Sushi,41.144357,-8.605721,Sushi Restaurant
102,41.14587521504668,-8.610653620790215,50,0,53a4ba6b498ea256c92c6632,Tapabento,41.145944249256154,-8.610081373615579,Tapas Restaurant
103,41.14587521504668,-8.610653620790215,50,1,4e57e7ea52b1748f806e9dea,Miss'OPO,41.145452763222586,-8.6131766746086,Portuguese Restaurant
104,41.14587521504668,-8.610653620790215,50,2,5d34dc42a43dbc00088758c8,Tasquinha Do Canto,41.145014,-8.612294,Tapas Restaurant
105,41.14587521504668,-8.610653620790215,50,3,54a065fa498ed409474ed060,Francesinhas da Baixa,41.14770655746059,-8.611923971647267,Portuguese Restaurant
106,41.14587521504668,-8.610653620790215,50,4,5b44d6e3d552c7002c67a2cc,Semea by Euskalduna,41.144617,-8.612728,Portuguese Restaurant
107,41.14587521504668,-8.610653620790215,50,5,4cbee24b9ca854814e19b316,Costume Bistrô,41.14682384541946,-8.610319827738223,Mediterranean Restaurant
108,41.14587521504668,-8.610653620790215,50,6,5c6d0b918c812a002c4e39ec,Elemento,41.146167,-8.612196,BBQ Joint
109,41.14587521504668,-8.610653620790215,50,7,54e2657b498e81ce00f665cf,Raiz,41.145745,-8.612328,Portuguese Restaurant
110,41.14587521504668,-8.610653620790215,50,8,58e79825876ade0d73c6c4ba,Bodeguita,41.144677,-8.612131,Tapas Restaurant
111,41.14587521504668,-8.610653620790215,50,9,53d63574498e87e251d6a04e,Estambul Döner Kebap & Pizza,41.146834986739236,-8.61074542242453,Turkish Restaurant
112,41.14587521504668,-8.610653620790215,50,10,4ee3eb9bf790897ecff119e1,Trásca,41.14593675743193,-8.612695226577792,Tapas Restaurant
113,41.14587521504668,-8.610653620790215,50,11,4f7f5adfe4b0f67485c3e623,Avenida Café e Restaurante,41.14642273936514,-8.611521149267276,Portuguese Restaurant
114,41.14587521504668,-8.610653620790215,50,12,59a1bebd1c0b3419a5f0f939,Droop - Food & Wine,41.147906,-8.611788,Portuguese Restaurant
115,41.14587521504668,-8.610653620790215,50,13,4f44c220e4b0b7292ecda600,O Rápido,41.145969,-8.609802,Portuguese Restaurant
116,41.14587521504668,-8.610653620790215,50,14,542ea24b498e1eab1cbc7c5d,ÉLoi'os Café & Snack,41.14471438223431,-8.612389549610835,Portuguese Restaurant
117,41.14587521504668,-8.610653620790215,50,15,5b250c60db1d810039160578,Tasquinha Dos Lóios,41.1448,-8.612388,Portuguese Restaurant
118,41.14587521504668,-8.610653620790215,50,16,5d46f211e0ab5b0007063bbf,Em Canto,41.144617,-8.612009,Mediterranean Restaurant
119,41.14587521504668,-8.610653620790215,50,17,533739ce498e78372d187a1b,Caldeireiros,41.14538088760292,-8.613339986630647,Portuguese Restaurant
120,41.14587521504668,-8.610653620790215,50,18,50df1bdbe4b0bc86a4835b85,Linha 22,41.145921911839174,-8.612756217997005,Tapas Restaurant
121,41.14587521504668,-8.610653620790215,50,19,570aadd4498e9396ad176732,Kanpai Downtown,41.144654508757846,-8.611645401988033,Asian Restaurant
122,41.14587521504668,-8.610653620790215,50,20,594fa676747ecd052c87c1c9,Concept 31,41.14465,-8.612433,Portuguese Restaurant
123,41.14587521504668,-8.610653620790215,50,21,51979f08498e6cc071a1082f,O Tascö,41.14762567001059,-8.612225285638191,Portuguese Restaurant
124,41.14587521504668,-8.610653620790215,50,22,4cf11a4d1d18a143bbe950ec,Adega Vila Meã,41.1453146849984,-8.6127715235259,Portuguese Restaurant
125,41.14587521504668,-8.610653620790215,50,23,522f251411d2da60eb3af76d,Casa Cana Verde,41.1452900076568,-8.613181916823688,Portuguese Restaurant
126,41.14587521504668,-8.610653620790215,50,24,4e2b4802227197a112d86d31,Flor dos Congregados,41.146939,-8.610213,Portuguese Restaurant
127,41.14587521504668,-8.610653620790215,50,25,4f3bd6d3e4b03e9c375bb0c7,Fado Das Castas,41.145616091974524,-8.613251704269635,Portuguese Restaurant
128,41.14587521504668,-8.610653620790215,50,26,55ef3be6498e43ed3af5ee45,Canelasdecoelho 3.0,41.147918,-8.61167,Modern European Restaurant
129,41.14587521504668,-8.610653620790215,50,27,4bf289e277b4c928ff596a1c,saborXpresso,41.14640701748599,-8.610964856626,Mediterranean Restaurant
130,41.14587521504668,-8.610653620790215,50,28,536e5470498e00237eccbcd0,Adega do é aqui,41.144403500290885,-8.612183426520877,Portuguese Restaurant
131,41.14587521504668,-8.610653620790215,50,29,4f32766ee4b0ef2eb77d536d,Sushi Lab,41.14686695741957,-8.61117421306246,Sushi Restaurant
132,41.14587521504668,-8.610653620790215,50,30,4fc92317e4b0b7b256de0c6a,Restaurante Rivoli,41.14768325127856,-8.609225610017663,Portuguese Restaurant
133,41.14587521504668,-8.610653620790215,50,31,5404e186498e349093e8f206,caldereiros,41.144738,-8.612881,Portuguese Restaurant
134,41.14587521504668,-8.610653620790215,50,32,52a6edad498e4403013cecf4,SELF - Lugar de Sabores,41.147100397381934,-8.608162756643258,Portuguese Restaurant
135,41.14587521504668,-8.610653620790215,50,33,5321b3ea11d2f6df03433c10,Yours Bistrô,41.14497739685976,-8.613078801954991,Portuguese Restaurant
136,41.14587521504668,-8.610653620790215,50,34,5c5ae5f5dff815002cc3e9e6,Lóios Food&Cocktails,41.14548186914934,-8.61242227256298,Portuguese Restaurant
137,41.14587521504668,-8.610653620790215,50,35,5d61775157ba490008d9c3f7,Nix Deutsches,41.144254,-8.612307,German Restaurant
138,41.14587521504668,-8.610653620790215,50,36,4caef06ef2dbef3b964078e5,A Regaleira,41.147119208163645,-8.609545175635715,Portuguese Restaurant
139,41.14587521504668,-8.610653620790215,50,37,5635280d498e5885a49e6c05,Trasca,41.14598757670911,-8.611356729399636,Portuguese Restaurant
140,41.14587521504668,-8.610653620790215,50,38,4f9f6610e4b098b12f600790,Adega - Viseu no Porto,41.145903698310484,-8.610033638027144,Portuguese Restaurant
141,41.14587521504668,-8.610653620790215,50,39,5d278698b946e50030cca70c,Dan’s Finger Food & Drinks,41.14704,-8.612199,American Restaurant
142,41.14587521504668,-8.610653620790215,50,40,4f059c9a29c22bbefef04e06,Adega do Olho,41.144582748170876,-8.612199531099339,Portuguese Restaurant
143,41.14587521504668,-8.610653620790215,50,41,57faa0f3498eacf29f38f4bd,casual chic food,41.144836,-8.611581,Portuguese Restaurant
144,41.14587521504668,-8.610653620790215,50,42,5aaba2c2838e593be0d6dd0b,Adega Floresta,41.144385,-8.612459,Portuguese Restaurant
145,41.14587521504668,-8.610653620790215,50,43,4daadce3f7b145b370193793,Icaraí,41.147133984297064,-8.608899916350977,Portuguese Restaurant
146,41.14587521504668,-8.610653620790215,50,44,5c4eed724940bc002c9caf38,All In Porto,41.145557,-8.613466,Portuguese Restaurant
147,41.14587521504668,-8.610653620790215,50,45,4e56becad22d50494ee632f9,Acepipe Porto,41.14678868104227,-8.610562249711684,Portuguese Restaurant
148,41.14587521504668,-8.610653620790215,50,46,4f3bdd88e4b03c8a49f91a77,Tatlıses Çiğköfte,41.14774211815794,-8.610793077415602,Turkish Restaurant
149,41.14587521504668,-8.610653620790215,50,47,58fbb14335811b3685abf696,Dão Invicto,41.144753,-8.611959,Tapas Restaurant
150,41.14587521504668,-8.610653620790215,50,48,52320efe498e61d5d3799422,Restaurante Bibóporto,41.14472072849998,-8.612897399436417,Portuguese Restaurant
151,41.14587521504668,-8.610653620790215,50,49,4f3d0b89e4b054d240be4b98,Confeitaria dos Clérigos,41.145980581879016,-8.613097349446575,Café
152,41.14135335638189,-8.610653620790215,39,0,53ab3e29498e214499f9b6eb,The Wine Box,41.1416322,-8.613057699999999,Tapas Restaurant
153,41.14135335638189,-8.610653620790215,39,1,5d962353e78e600007c56ec8,Sagardi Porto,41.141121,-8.610097,Spanish Restaurant
154,41.14135335638189,-8.610653620790215,39,2,59fc9cbfc47cf96da8aee72f,terra nova,41.140276,-8.611472,Portuguese Restaurant
155,41.14135335638189,-8.610653620790215,39,3,518f8f63498eb9d7ad3e4657,Jimão,41.14085020789295,-8.61304041844618,Tapas Restaurant
156,41.14135335638189,-8.610653620790215,39,4,551f030b498e53cb58617a41,Ribeira's,41.140583558799705,-8.61200977593321,Wine Bar
157,41.14135335638189,-8.610653620790215,39,5,58148f3d38faad3787da8c4d,CAL foods and drinks,41.142647112886024,-8.610185301329205,Portuguese Restaurant
158,41.14135335638189,-8.610653620790215,39,6,564f7cff498e5c134482a054,Ribeira Square,41.140802,-8.612916,Portuguese Restaurant
159,41.14135335638189,-8.610653620790215,39,7,4e445005d22de4060ef45e58,Restaurante Chinês,41.14238597126421,-8.610122014925116,Chinese Restaurant
160,41.14135335638189,-8.610653620790215,39,8,545bdf02498e75472bc65652,Taberna dos Mercadores,41.14134856162697,-8.61304957976116,Portuguese Restaurant
161,41.14135335638189,-8.610653620790215,39,9,5c980b5961f070002cf213b5,O Terreirinho Restaurante,41.140732,-8.612316,Portuguese Restaurant
162,41.14135335638189,-8.610653620790215,39,10,5d7a3149b0aa4b00080bdf2a,taberna-rio,41.140619,-8.611226,Portuguese Restaurant
163,41.14135335638189,-8.610653620790215,39,11,4d69690b342b8cfab79ec82c,Avó Maria,41.14062542016928,-8.61151377606343,Portuguese Restaurant
164,41.14135335638189,-8.610653620790215,39,12,4bdc4ef02a3a0f47df3ab2b6,Chez Lapin,41.140527813504214,-8.612502732735958,Portuguese Restaurant
165,41.14135335638189,-8.610653620790215,39,13,5afaca59c824ae002cca91f4,Cais 35,41.140591,-8.611708,Sushi Restaurant
166,41.14135335638189,-8.610653620790215,39,14,59d665f761f0704ebe79c271,Maria Do Ceu Romaro Xavier,41.140583,-8.612815,Portuguese Restaurant
167,41.14135335638189,-8.610653620790215,39,15,56db089f498e11eed9ae7afc,Escondidinho do Barredo,41.140633,-8.612221,Portuguese Restaurant
168,41.14135335638189,-8.610653620790215,39,16,5cc0c90f471d6e002c413d71,Taberna Dona Antonia,41.141129,-8.612928,Portuguese Restaurant
169,41.14135335638189,-8.610653620790215,39,17,53d3ae73498eb6c9513a4b8c,Fiume Douro,41.14066038271424,-8.611142070271056,Italian Restaurant
170,41.14135335638189,-8.610653620790215,39,18,5bcdcaa592e7a9002cc83691,Cafe Miradouro,41.140837,-8.61063,Portuguese Restaurant
171,41.14135335638189,-8.610653620790215,39,19,4db59f780cb6729b6aa909aa,Casa Deolinda,41.14060103315122,-8.61299825290835,Portuguese Restaurant
172,41.14135335638189,-8.610653620790215,39,20,54a8203f498e80f1d1af27a3,Adega 202,41.140943,-8.607803,Portuguese Restaurant
173,41.14135335638189,-8.610653620790215,39,21,55251dee498e2692b40823e4,A Taverna,41.14057991391879,-8.612988099495377,Portuguese Restaurant
174,41.14135335638189,-8.610653620790215,39,22,4e4c3217d22d10a6c5c855d7,Taberna Do Bebovos,41.14066342528562,-8.611073791980743,Portuguese Restaurant
175,41.14135335638189,-8.610653620790215,39,23,55c0ac0a498ef2b6bc65ebe1,Portu's,41.140997460065726,-8.613004692798837,Portuguese Restaurant
176,41.14135335638189,-8.610653620790215,39,24,52166da111d27b7b08d30bac,Casinha São João,41.14075790505558,-8.610582754527556,Portuguese Restaurant
177,41.14135335638189,-8.610653620790215,39,25,57a7b626498e31a662c412ca,Africa Bar,41.142092,-8.613374,Portuguese Restaurant
178,41.14135335638189,-8.610653620790215,39,26,52507614498e146fc41e8993,Escondidinho,41.140749456104025,-8.612183426520877,Portuguese Restaurant
179,41.14135335638189,-8.610653620790215,39,27,4e579fead16491e0ae4b60b2,A Canastra da Ribeira,41.14058942872873,-8.611827989377273,Portuguese Restaurant
180,41.14135335638189,-8.610653620790215,39,28,51aa66db498ef7984a8fb034,Brasas,41.143261,-8.609675,Portuguese Restaurant
181,41.14135335638189,-8.610653620790215,39,29,579f4c92498ed629a901cb70,Filha da Mãe Preta,41.140578586799826,-8.612027317285538,Portuguese Restaurant
182,41.14135335638189,-8.610653620790215,39,30,4e03afe1e4cd92cb899b1245,Muralha Da Barca,41.14063625738968,-8.611421147034818,Portuguese Restaurant
183,41.14135335638189,-8.610653620790215,39,31,5b75d65f0a08ab002c2734a6,O Bufete Dos Guindais,41.141647,-8.608788,Tapas Restaurant
184,41.14135335638189,-8.610653620790215,39,32,5203ae33498e3b31a2daed34,Teaco,41.141143,-8.612457,Portuguese Restaurant
185,41.14135335638189,-8.610653620790215,39,33,52920f5111d2a386d4382fc2,Theophilus Bar,41.14094718997604,-8.612290790441614,Tapas Restaurant
186,41.14135335638189,-8.610653620790215,39,34,4d1f4a9416cfb60cbd255061,Mira Douro,41.140830457723254,-8.610626666674968,Portuguese Restaurant
187,41.14135335638189,-8.610653620790215,39,35,52e416a6498e96eba17935a3,ESPAÇO 37,41.14323043823242,-8.60965633392334,African Restaurant
188,41.14135335638189,-8.610653620790215,39,36,4eb6b6e8cc2143e82884a3b3,Casa da Mariquinhas,41.14272279764571,-8.612129744617251,Other Nightlife
189,41.14135335638189,-8.610653620790215,39,37,5b65f03079f6c7002c0a385e,Ribeira 1501,41.14055,-8.612619,Tapas Restaurant
190,41.14135335638189,-8.610653620790215,39,38,4f9afb54e4b0d04dbf885b94,Kioday,41.14134966585678,-8.612961818374442,Asian Restaurant
191,41.14587521504668,-8.60468923635264,50,0,4b963f73f964a5204dc234e3,Majestic Café,41.147125,-8.606598,Coffee Shop
192,41.14587521504668,-8.60468923635264,50,1,4bcf66c6caff95210b19cdf0,Café Santiago,41.14659311746831,-8.604849461192186,Portuguese Restaurant
193,41.14587521504668,-8.60468923635264,50,2,5b69cbed2f97ec002ca5e931,Gazela Entreparedes,41.144935,-8.60635,Snack Place
194,41.14587521504668,-8.60468923635264,50,3,590331e10802d42c652e95d5,Brasão Cervejaria Coliseu,41.14664549431399,-8.604848758990334,Portuguese Restaurant
195,41.14587521504668,-8.60468923635264,50,4,50b0d36be4b006275426a5c1,Lado B,41.14678042538816,-8.60552161437185,Portuguese Restaurant
196,41.14587521504668,-8.60468923635264,50,5,53bb024c498e617a4c423e75,éLeBê,41.146329011659745,-8.604635688982196,Portuguese Restaurant
197,41.14587521504668,-8.60468923635264,50,6,565d9a7b498e0693f2de9b86,Tokyo Sushi,41.14436167039815,-8.605880443020606,Sushi Restaurant
198,41.14587521504668,-8.60468923635264,50,7,57bdd3f6498e911fceac443e,Cantinho dos Bragança,41.14627373108781,-8.603524623960825,Tapas Restaurant
199,41.14587521504668,-8.60468923635264,50,8,59412c7958002c30bf54ddd7,Picanha Na Baixa,41.146795,-8.602638,Brazilian Restaurant
200,41.14587521504668,-8.60468923635264,50,9,52b1a504498eff895090af4b,Maria Rita,41.14683222124956,-8.603918014741287,Portuguese Restaurant
201,41.14587521504668,-8.60468923635264,50,10,52837c9f498eb4e400770bfc,Dama Pé De Cabra,41.14580548549227,-8.603215076761709,Wine Bar
202,41.14587521504668,-8.60468923635264,50,11,592b12da9cadd905283915c6,Restaurante KAPADOKYA,41.144872,-8.607187,Turkish Restaurant
203,41.14587521504668,-8.60468923635264,50,12,5d876f28229a240008ac7c13,Tradiswiss,41.145966,-8.607032,Swiss Restaurant
204,41.14587521504668,-8.60468923635264,50,13,4d603cc1196ba09345aa1756,Restaurante Roma,41.146796956815244,-8.602797862062767,Portuguese Restaurant
205,41.14587521504668,-8.60468923635264,50,14,58c40caa6ad73d0d995bbb28,Jeremias,41.146234,-8.602803,Portuguese Restaurant
206,41.14587521504668,-8.60468923635264,50,15,5457e9d1498e2030915c19d1,Sol e Sombra,41.146443131453864,-8.604437519014834,Portuguese Restaurant
207,41.14587521504668,-8.60468923635264,50,16,59426b04febf312430e057d2,Tasquinha D'ouro II,41.146787,-8.602961,Portuguese Restaurant
208,41.14587521504668,-8.60468923635264,50,17,5443e918498ec84e4310e3be,Bai no batalha,41.146270751953125,-8.605436325073242,Polish Restaurant
209,41.14587521504668,-8.60468923635264,50,18,5a3bbfda0531e85f7d82ac00,Porto À Prova,41.14657,-8.603789,Tapas Restaurant
210,41.14587521504668,-8.60468923635264,50,19,597df97cbd40092a304e50fc,Trigo De Cantos,41.145983,-8.603654,Portuguese Restaurant
211,41.14587521504668,-8.60468923635264,50,20,5ac625e93b8307381f67d7de,Senhor Zé,41.145836,-8.605055,Portuguese Restaurant
212,41.14587521504668,-8.60468923635264,50,21,55f861fb498e6e582a5bc047,Kapadokya,41.14493876753213,-8.607313030864045,Turkish Restaurant
213,41.14587521504668,-8.60468923635264,50,22,523cbbb7498ed9c5d6cc4559,Comibébe Carioca,41.147083342506605,-8.604357004363827,Portuguese Restaurant
214,41.14587521504668,-8.60468923635264,50,23,59ac4e1e6e46504a066c71df,Rochas Bar,41.147081,-8.603766,Portuguese Restaurant
215,41.14587521504668,-8.60468923635264,50,24,582c4fe50b08c70e094c46ca,Barriga Negra,41.14539,-8.603947,Portuguese Restaurant
216,41.14587521504668,-8.60468923635264,50,25,5953c7864a7aae6895775ece,Lol,41.144942,-8.60421,Dutch Restaurant
217,41.14587521504668,-8.60468923635264,50,26,5eee7239e2135a0008de8b5b,Guaka,41.147003,-8.602251,Mexican Restaurant
218,41.14587521504668,-8.60468923635264,50,27,514cd8d4e4b0b8a726ff19f3,Restaurante Douro,41.14581085887886,-8.60753471389478,Portuguese Restaurant
219,41.14587521504668,-8.60468923635264,50,28,569bd602498e2a9e0ea991d3,Usau,41.14396,-8.604642,African Restaurant
220,41.14587521504668,-8.60468923635264,50,29,50413a46e4b003e2b2ffa4d0,Restaurante Salmão,41.1463623046875,-8.603239059448242,Portuguese Restaurant
221,41.14587521504668,-8.60468923635264,50,30,4f948ac4e4b0c03d2b4b4eb7,i-Tapas by ibis Kitchen,41.14692306518555,-8.603974342346191,Tapas Restaurant
222,41.14587521504668,-8.60468923635264,50,31,5c799ac3febf31002c1b9f67,Cocorico,41.144066,-8.604928,French Restaurant
223,41.14587521504668,-8.60468923635264,50,32,5c21ff7db6b04b002c254aa7,4 ROYAL Restaurante e Bar,41.145514,-8.60381,Portuguese Restaurant
224,41.14587521504668,-8.60468923635264,50,33,5120d679e4b078ac8fa3af2e,A Brasa,41.145528128937435,-8.607352206717012,Portuguese Restaurant
225,41.14587521504668,-8.60468923635264,50,34,5a803ecb0d173f267ecb5ba3,A Cascata,41.146739,-8.605427,Portuguese Restaurant
226,41.14587521504668,-8.60468923635264,50,35,551b0b12498e36068b2cf24d,Douro Sentido,41.14599609375,-8.604653358459473,Portuguese Restaurant
227,41.14587521504668,-8.60468923635264,50,36,555785f5498ee9e1e48276ec,Kapatoya,41.145057678222656,-8.607172012329102,Turkish Restaurant
228,41.14587521504668,-8.60468923635264,50,37,58fa469f646e380af644fbdb,Restaurante Nova Luanda,41.145628,-8.604945,Portuguese Restaurant
229,41.14587521504668,-8.60468923635264,50,38,4f4a629ae4b092e0caf7d898,Uludağ Restaurant,41.14492155265824,-8.607158964299705,Turkish Restaurant
230,41.14587521504668,-8.60468923635264,50,39,4d03e0790e49721e09ad6d7f,A Corça,41.14612,-8.60386,Portuguese Restaurant
231,41.14587521504668,-8.60468923635264,50,40,4ff39ecd29a6fd0b6735b18a,O Restaurante Tripeiro,41.14667912137006,-8.60508995058826,Portuguese Restaurant
232,41.14587521504668,-8.60468923635264,50,41,4c33b3db09a99c7453ec0b2a,Splashback,41.14606862255812,-8.60415369272232,Sushi Restaurant
233,41.14587521504668,-8.60468923635264,50,42,5b4ba2a65a2c91002c59fabf,Élebê Entreparedes,41.145492,-8.605456,Portuguese Restaurant
234,41.14587521504668,-8.60468923635264,50,43,4f6502c0e4b06cb9fbcc7c1d,Tripeiro,41.14696072857632,-8.60456097497844,Portuguese Restaurant
235,41.14587521504668,-8.60468923635264,50,44,5d9a3b69a74b8d0008cd04d0,Battousai,41.146996,-8.602282,Sushi Restaurant
236,41.14587521504668,-8.60468923635264,50,45,4e6915c514954826adf512f0,Restaurante Nova China,41.14662965363281,-8.604872299601805,Chinese Restaurant
237,41.14587521504668,-8.60468923635264,50,46,5043c6c2e4b08ae7caed29de,Chubrasqueira A Brasa,41.145607626528545,-8.60757765682371,Portuguese Restaurant
238,41.14587521504668,-8.60468923635264,50,47,54958788498ee220d902999c,Porto Douro,41.14753865842295,-8.606610897025934,Portuguese Restaurant
239,41.14587521504668,-8.60468923635264,50,48,594eba41005ac17945218430,US Diner,41.146381,-8.603531,American Restaurant
240,41.14587521504668,-8.60468923635264,50,49,5596898d498eaf75892977e0,Portobello,41.14529503606686,-8.604582846164703,Portuguese Restaurant
241,41.15313809523809,-8.607671428571427,21,0,4d42c7b91629b60cc3659a89,O Buraco,41.1510943731055,-8.607215473484207,Portuguese Restaurant
242,41.15313809523809,-8.607671428571427,21,1,5931aece66fc654618893d95,Beher,41.151435,-8.60667,Tapas Restaurant
243,41.15313809523809,-8.607671428571427,21,2,4f96fdf6e4b0c9bdccf9bc22,Sai Cão,41.15383553299581,-8.607831455070079,Portuguese Restaurant
244,41.15313809523809,-8.607671428571427,21,3,510aee03e4b0a910b830adba,Hong Kong Grande Palácio,41.153540886386395,-8.609715485373826,Cantonese Restaurant
245,41.15313809523809,-8.607671428571427,21,4,4d83dfe09324236a60f7ad0e,17º Restaurante & Bar,41.152219800312444,-8.607143809578481,Portuguese Restaurant
246,41.15313809523809,-8.607671428571427,21,5,4e315849d4c0b2aebf6f4b1d,Antunes,41.15186808960226,-8.608257224076876,Portuguese Restaurant
247,41.15313809523809,-8.607671428571427,21,6,5482e978498ed4e5d28b52e2,Dom Alkroque,41.1519685813791,-8.605301714964584,Café
248,41.15313809523809,-8.607671428571427,21,7,5510627e498ec5fc2921197d,Cala o Bico 2,41.15114912847022,-8.608661973805011,Portuguese Restaurant
249,41.15313809523809,-8.607671428571427,21,8,4f7d9729e4b0bf87a9b6ff55,Restaurante Lobo,41.1530514947904,-8.608103709668523,Portuguese Restaurant
250,41.15313809523809,-8.607671428571427,21,9,4f5a152ce4b003e0f4169cc4,Restaurante Ginjal Porto,41.153517830547976,-8.608221803751157,Portuguese Restaurant
251,41.15313809523809,-8.607671428571427,21,10,53d10281498ee5b4bdb6ced7,Restaurante Chinês King Long,41.1526828482329,-8.608200332014658,Asian Restaurant
252,41.15313809523809,-8.607671428571427,21,11,54a98754498ebc906cb834b5,Restaurante Celta Endovélico,41.152867,-8.608003,Portuguese Restaurant
253,41.15313809523809,-8.607671428571427,21,12,4e7c82a21838f696a982d6f9,Lameiras,41.15119727459924,-8.608366737453721,Latin American Restaurant
254,41.15313809523809,-8.607671428571427,21,13,53bf004b498ebf47dd3eeebb,flavors kebab,41.15168762207031,-8.608613014221191,Pakistani Restaurant
255,41.15313809523809,-8.607671428571427,21,14,4ff5eb0de4b0d6158397b36d,Casa das Tapas,41.15218228250992,-8.605392966041219,Tapas Restaurant
256,41.15313809523809,-8.607671428571427,21,15,5354f690498e7deebc2e2753,Pastel de Belém,41.15353775024414,-8.610464096069336,Portuguese Restaurant
257,41.15313809523809,-8.607671428571427,21,16,50a01a9ee4b0f56d61e9b57a,Solar de Sta. Catarina,41.15253716180096,-8.610272374051108,Portuguese Restaurant
258,41.15313809523809,-8.607671428571427,21,17,5290b70e11d28612650e6f7b,Rosa Belas Bistrot,41.15131743982167,-8.60702476846512,Portuguese Restaurant
259,41.15313809523809,-8.607671428571427,21,18,4e989da6d22d3f4f88a53fe6,Paladar à Solta,41.1535270041373,-8.607931936911443,New American Restaurant
260,41.15313809523809,-8.607671428571427,21,19,4c7973672d3ba1435b538ed0,King Long,41.15329954301563,-8.608200332014658,Chinese Restaurant
261,41.15313809523809,-8.607671428571427,21,20,50642e53e4b0d8865ceaa70f,Lameiras,41.151176088594674,-8.608512150846044,Portuguese Restaurant
262,41.155399024570485,-8.610654053990698,18,0,4f3ea7c4e4b0250ce8da8b4a,Casa Paraíso,41.157307,-8.610144,Portuguese Restaurant
263,41.155399024570485,-8.610654053990698,18,1,510aee03e4b0a910b830adba,Hong Kong Grande Palácio,41.153540886386395,-8.609715485373826,Cantonese Restaurant
264,41.155399024570485,-8.610654053990698,18,2,5ba4068f1f8ed6002c8fc555,Sushi Rão,41.155178,-8.610105,Sushi Restaurant
265,41.155399024570485,-8.610654053990698,18,3,5b1c2de9e1f0aa002c4ab1b3,Tori - Sushi House,41.155155,-8.610131,Sushi Restaurant
266,41.155399024570485,-8.610654053990698,18,4,56c779a0498e815beeb2d438,Café Silva Sousa & Almeida,41.155215,-8.613486,Portuguese Restaurant
267,41.155399024570485,-8.610654053990698,18,5,57b4dcb6498e5e71dfa8b188,Café Novo,41.155368,-8.613318,Portuguese Restaurant
268,41.155399024570485,-8.610654053990698,18,6,5012923b8302f1f5faa773e2,Lusiada,41.15544945669003,-8.609999779111087,Portuguese Restaurant
269,41.155399024570485,-8.610654053990698,18,7,5dd0628ee8feee0008540035,Capiche?,41.15507,-8.610199,Italian Restaurant
270,41.155399024570485,-8.610654053990698,18,8,59709ce17269fe3e6beb152d,O Ferreira,41.153713,-8.610897,Portuguese Restaurant
271,41.155399024570485,-8.610654053990698,18,9,4ec1171a5c5c3d470d486df5,Rosa das Iscas,41.156354351021065,-8.613167896211069,Portuguese Restaurant
272,41.155399024570485,-8.610654053990698,18,10,5079b14ee4b07204c126e20c,Maria q.b.,41.15408594583934,-8.612253213052142,Portuguese Restaurant
273,41.155399024570485,-8.610654053990698,18,11,5afeca040802d4002cec092c,Za,41.15527,-8.613617,Portuguese Restaurant
274,41.155399024570485,-8.610654053990698,18,12,50b25b03e4b0fca7e9877297,Cantina da Dona Nena,41.153768,-8.611699,Brazilian Restaurant
275,41.155399024570485,-8.610654053990698,18,13,5354f690498e7deebc2e2753,Pastel de Belém,41.15353775024414,-8.610464096069336,Portuguese Restaurant
276,41.155399024570485,-8.610654053990698,18,14,5116bb68e4b063143f6cf3dc,Will Sushi Bar,41.155886892093996,-8.612918872409706,Sushi Restaurant
277,41.155399024570485,-8.610654053990698,18,15,4e27410fe4cd60a2c62dcf17,Churrascaria Cristal,41.15547317821358,-8.61346106699104,Portuguese Restaurant
278,41.155399024570485,-8.610654053990698,18,16,51e039208bbdb3f0da783bd4,Tostuzão,41.1548278933707,-8.610169887542725,Portuguese Restaurant
279,41.155399024570485,-8.610654053990698,18,17,5c993bc742d8c2002cd99b34,Restaurante Paraíso 3,41.15349,-8.611018,Portuguese Restaurant
280,41.1508771659057,-8.610654053990698,43,0,5343dfd7498e9d5464595501,Brasão Cervejaria,41.14909654654752,-8.61164474235378,Brewery
281,41.1508771659057,-8.610654053990698,43,1,4c0f90d9d64c0f47ccea295d,Conga - Casa das Bifanas,41.149012019308245,-8.60948419922139,Portuguese Restaurant
282,41.1508771659057,-8.610654053990698,43,2,4c2c8b7657a9c9b6388af767,Pedro dos Frangos,41.14885345833712,-8.609370589256287,BBQ Joint
283,41.1508771659057,-8.610654053990698,43,3,55e572bf498ebcb3f5dc9c1a,Cruel,41.14964128732472,-8.61259477551256,Modern European Restaurant
284,41.1508771659057,-8.610654053990698,43,4,5da857565a935e0007382f80,Esporão no Porto,41.151545,-8.612268,Wine Bar
285,41.1508771659057,-8.610654053990698,43,5,57d1cc02498eb7b1587e4a98,Tábua Rasa,41.149303,-8.612494,Portuguese Restaurant
286,41.1508771659057,-8.610654053990698,43,6,4e315849d4c0b2aebf6f4b1d,Antunes,41.15186808960226,-8.608257224076876,Portuguese Restaurant
287,41.1508771659057,-8.610654053990698,43,7,568667eb498ef47b316ee1fc,Domo Sushi Porto,41.15066098102636,-8.609423905940956,Japanese Restaurant
288,41.1508771659057,-8.610654053990698,43,8,5813946438fa8d6826591e20,Grigio,41.149788,-8.612026,Italian Restaurant
289,41.1508771659057,-8.610654053990698,43,9,4fbe2996e4b09f409bf51f36,Metro da Trindade Restaurante,41.15055109045433,-8.610982057823827,Portuguese Restaurant
290,41.1508771659057,-8.610654053990698,43,10,5d6656c15a144a0008426d88,Trattoria 179,41.148754,-8.609966,Italian Restaurant
291,41.1508771659057,-8.610654053990698,43,11,5510627e498ec5fc2921197d,Cala o Bico 2,41.15114912847022,-8.608661973805011,Portuguese Restaurant
292,41.1508771659057,-8.610654053990698,43,12,5bbfb910cf72a0002cb25202,Mood & Sushi,41.14969,-8.613024,Sushi Restaurant
293,41.1508771659057,-8.610654053990698,43,13,4d8dfd95788c54816d902dfd,O Ernesto,41.14961631012954,-8.613103247977948,Portuguese Restaurant
294,41.1508771659057,-8.610654053990698,43,14,55a4fd5f498e1f362818a444,"Gin & tostas, Tappas & Sushi Bar",41.148954062927636,-8.609145090303313,Portuguese Restaurant
295,41.1508771659057,-8.610654053990698,43,15,54788f3d498ee58962cf1759,Restaurante Capuchinhos,41.150749,-8.608776,Portuguese Restaurant
296,41.1508771659057,-8.610654053990698,43,16,5605b622498ef664cc25e231,Igalhas,41.150502,-8.611214,Portuguese Restaurant
297,41.1508771659057,-8.610654053990698,43,17,5045f47fe4b08a16a45e8799,Kebab & Co. Express,41.15123452512496,-8.610594458186515,Turkish Restaurant
298,41.1508771659057,-8.610654053990698,43,18,52992d55498ec74142e9e0ce,Ilustre,41.149853,-8.612566,Portuguese Restaurant
299,41.1508771659057,-8.610654053990698,43,19,5693a0a0498e732a56b09153,Sıla Turco Cafe,41.15126659722845,-8.612188794713317,Turkish Restaurant
300,41.1508771659057,-8.610654053990698,43,20,4e7b2d25e4cd3bbbdbd4b5eb,Restaurante Almada,41.15029295299882,-8.611968699133351,Portuguese Restaurant
301,41.1508771659057,-8.610654053990698,43,21,51d76850e4b00508e92615dd,Copos & Cusquices,41.15071533011709,-8.612024043023464,Tapas Restaurant
302,41.1508771659057,-8.610654053990698,43,22,4e7c82a21838f696a982d6f9,Lameiras,41.15119727459924,-8.608366737453721,Latin American Restaurant
303,41.1508771659057,-8.610654053990698,43,23,5749e1ed498edddeb6a61d86,Gastronom Slaviansky,41.15029973807524,-8.61170008778572,Russian Restaurant
304,41.1508771659057,-8.610654053990698,43,24,5d72845a70b0ed00089fc3a5,O Restaurante da Maria Odete,41.150183,-8.611685,Portuguese Restaurant
305,41.1508771659057,-8.610654053990698,43,25,56f3bc28498e4662446ea3b7,Mondo Deli,41.15137806815111,-8.612124376428968,Modern European Restaurant
306,41.1508771659057,-8.610654053990698,43,26,53bf004b498ebf47dd3eeebb,flavors kebab,41.15168762207031,-8.608613014221191,Pakistani Restaurant
307,41.1508771659057,-8.610654053990698,43,27,4c7cf60c247cb60c33695f5e,Via Garrett,41.149789741509665,-8.61105877348066,Portuguese Restaurant
308,41.1508771659057,-8.610654053990698,43,28,57cae6e6498ec51d0ab28aae,Casa Laurenço,41.150562,-8.608981,Portuguese Restaurant
309,41.1508771659057,-8.610654053990698,43,29,57dbe5cccd10fe7345e8b83c,Tramóia,41.150283,-8.609268,Portuguese Restaurant
310,41.1508771659057,-8.610654053990698,43,30,5df283990a04f90008a4430d,"Francesinhas Al Forno da Baixa, Rua do Almada 160, 4000-196 Porto, Portugal",41.149501,-8.61195,Modern European Restaurant
311,41.1508771659057,-8.610654053990698,43,31,5ddd8b9400f01a000761cafd,O Jardim do Buhla,41.15015,-8.609376,Portuguese Restaurant
312,41.1508771659057,-8.610654053990698,43,32,545e1256498e7ab0f02a4209,Badalhoca do Fredo,41.1491429279152,-8.610197221282158,Portuguese Restaurant
313,41.1508771659057,-8.610654053990698,43,33,4c7c0a18bd346dcb9efffcef,Le Chien Qui Fume,41.15059029896986,-8.61210884999819,Mediterranean Restaurant
314,41.1508771659057,-8.610654053990698,43,34,50a01a9ee4b0f56d61e9b57a,Solar de Sta. Catarina,41.15253716180096,-8.610272374051108,Portuguese Restaurant
315,41.1508771659057,-8.610654053990698,43,35,5d4f1a24b759100008bad409,Namaste Café,41.152082,-8.610439,Indian Restaurant
316,41.1508771659057,-8.610654053990698,43,36,5cd5dc6a1ffed7002cb1cb12,Niku Sushi,41.150665,-8.608764,Sushi Restaurant
317,41.1508771659057,-8.610654053990698,43,37,4f63aac3e4b087553c24762f,Migalha,41.150470578316686,-8.611388938210418,Portuguese Restaurant
318,41.1508771659057,-8.610654053990698,43,38,51521408e4b0b775a986553b,Migalhas,41.15049008784165,-8.611226212165137,Portuguese Restaurant
319,41.1508771659057,-8.610654053990698,43,39,5b7b1839005ac1002cbc81e5,Ilegal,41.149635,-8.612674,Mexican Restaurant
320,41.1508771659057,-8.610654053990698,43,40,4fbb80a5e4b0e5d95bd92a43,Alma Portuense,41.15137164005936,-8.610592869377625,Portuguese Restaurant
321,41.1508771659057,-8.610654053990698,43,41,50642e53e4b0d8865ceaa70f,Lameiras,41.151176088594674,-8.608512150846044,Portuguese Restaurant
322,41.1508771659057,-8.610654053990698,43,42,5fc968190d6d9d74b563621a,Mood,41.149807,-8.612942,Asian Restaurant
323,41.155399024570485,-8.604688803152156,8,0,4bae75adf964a52011b53be3,Bufete Fase,41.15642732345092,-8.604642977534743,Portuguese Restaurant
324,41.155399024570485,-8.604688803152156,8,1,4dbea4d36a23a3c473a9020e,Meidin,41.15457577038215,-8.604881988328977,Pizza Place
325,41.155399024570485,-8.604688803152156,8,2,4d34b8abeefa8cfaaa7f4db3,Restaurante O Forno,41.15541073457036,-8.604646857505994,Portuguese Restaurant
326,41.155399024570485,-8.604688803152156,8,3,57e73a43498e2033eab6a5c2,verloren in de straten van porto,41.154192,-8.603128,Afghan Restaurant
327,41.155399024570485,-8.604688803152156,8,4,5b742adbdb2aeb002c21671f,Apego,41.156646,-8.604509,Modern European Restaurant
328,41.155399024570485,-8.604688803152156,8,5,4c9d0c26d3c2b60c567abdbc,Restaurante Portucale,41.15560215236863,-8.602364830692261,Portuguese Restaurant
329,41.155399024570485,-8.604688803152156,8,6,4e86335593ad9dda89201f7f,Maria Dentada,41.15389906856398,-8.604845461222057,Café
330,41.155399024570485,-8.604688803152156,8,7,5113accfe4b0fbce938b8e60,taverna 8o80,41.15491485595703,-8.60456657409668,Tapas Restaurant
331,41.1508771659057,-8.604688803152156,35,0,4d42c7b91629b60cc3659a89,O Buraco,41.1510943731055,-8.607215473484207,Portuguese Restaurant
332,41.1508771659057,-8.604688803152156,35,1,4babca27f964a520b0c93ae3,Fuji,41.15246295774906,-8.604769195590691,Sushi Restaurant
333,41.1508771659057,-8.604688803152156,35,2,52fe2f9c498e787bb6e7ce1a,bbGourmet,41.150298587503976,-8.607450071658004,Portuguese Restaurant
334,41.1508771659057,-8.604688803152156,35,3,5931aece66fc654618893d95,Beher,41.151435,-8.60667,Tapas Restaurant
335,41.1508771659057,-8.604688803152156,35,4,5482e978498ed4e5d28b52e2,Dom Alkroque,41.1519685813791,-8.605301714964584,Café
336,41.1508771659057,-8.604688803152156,35,5,54709520498e0831c480a733,Taberna do Doutor,41.150825676035424,-8.606037094398967,Portuguese Restaurant
337,41.1508771659057,-8.604688803152156,35,6,5afee2d067e5f2002c143fc4,Aquele Tasco,41.149517,-8.604137,Tapas Restaurant
338,41.1508771659057,-8.604688803152156,35,7,4c1b6c718b3aa593341d975f,Império,41.1503218846906,-8.607569855149832,Portuguese Restaurant
339,41.1508771659057,-8.604688803152156,35,8,4f22bc65e4b0502589677520,Wok to Walk,41.14904569272454,-8.605372953149109,Noodle House
340,41.1508771659057,-8.604688803152156,35,9,591612074a7aae486ec34a14,Indi Go by Real Indiana,41.14898,-8.605708,Indian Restaurant
341,41.1508771659057,-8.604688803152156,35,10,5dd01bf536af9400088a007b,Malvón,41.149995,-8.607236,Empanada Restaurant
342,41.1508771659057,-8.604688803152156,35,11,5a26a6562b98443c22f10c89,Tasqueira Do Bolhão,41.149582,-8.606979,Portuguese Restaurant
343,41.1508771659057,-8.604688803152156,35,12,4d69508f0a25b60c3a372390,Pasta Caffé,41.149121978101114,-8.605462746350092,Italian Restaurant
344,41.1508771659057,-8.604688803152156,35,13,572b3eb7498ebfc0276d16af,Bem-vindo,41.149441,-8.606946,Portuguese Restaurant
345,41.1508771659057,-8.604688803152156,35,14,4ea9b3edb8f7a50de881ce4e,Kini,41.14992833941272,-8.604896664619446,Asian Restaurant
346,41.1508771659057,-8.604688803152156,35,15,5634afb7498e02e4eb802ff3,La Andaluza,41.15043486997738,-8.605536755825055,Tapas Restaurant
347,41.1508771659057,-8.604688803152156,35,16,5239ecbb049342d92fb2140d,Restaurante A Rampinha,41.1501020314274,-8.605663776397705,Portuguese Restaurant
348,41.1508771659057,-8.604688803152156,35,17,598996e44aa3f81158e8c577,Portus Gustus,41.149572,-8.606573,Portuguese Restaurant
349,41.1508771659057,-8.604688803152156,35,18,4ee29bf66c252ff3c59b0d29,Mini Kalzone,41.149089,-8.605282,Italian Restaurant
350,41.1508771659057,-8.604688803152156,35,19,4ff5eb0de4b0d6158397b36d,Casa das Tapas,41.15218228250992,-8.605392966041219,Tapas Restaurant
351,41.1508771659057,-8.604688803152156,35,20,502129c5e4b096fca64e8fc2,Restaurante Haik,41.150352470266384,-8.604612350463867,Portuguese Restaurant
352,41.1508771659057,-8.604688803152156,35,21,4e667c1d8877dfcf2fc6da76,Real Churrasco Português,41.14994812011719,-8.60488510131836,Portuguese Restaurant
353,41.1508771659057,-8.604688803152156,35,22,4cc03cee8db3b60c5c017d78,Restaurante milénio,41.150355,-8.607502,Portuguese Restaurant
354,41.1508771659057,-8.604688803152156,35,23,5c3f272960255e002c10b884,Pitada Brasileira,41.151361,-8.605149,Brazilian Restaurant
355,41.1508771659057,-8.604688803152156,35,24,51e84054498eb770c008c386,Tomatino,41.14903658188073,-8.605478885733023,Italian Restaurant
356,41.1508771659057,-8.604688803152156,35,25,4e1f409952b1bdc463eab600,O Pátio,41.14914033097823,-8.605414436898675,Portuguese Restaurant
357,41.1508771659057,-8.604688803152156,35,26,529a408b11d289d0fe60cf09,Naruma,41.150779724121094,-8.606674194335938,Portuguese Restaurant
358,41.1508771659057,-8.604688803152156,35,27,54230bca498ea88fe277cdc7,Panda Bento,41.14957046508789,-8.604616165161133,Asian Restaurant
359,41.1508771659057,-8.604688803152156,35,28,526d1898498e127c2e2daff1,Noori,41.14905519879929,-8.60532855350518,Sushi Restaurant
360,41.1508771659057,-8.604688803152156,35,29,502fcf6be4b02982265d8a6d,linha de costumes,41.150542,-8.605441,Tapas Restaurant
361,41.1508771659057,-8.604688803152156,35,30,4d4014f889616dcb5f8e00b5,Quasi Pronti,41.149186,-8.605579,Italian Restaurant
362,41.1508771659057,-8.604688803152156,35,31,5290b70e11d28612650e6f7b,Rosa Belas Bistrot,41.15131743982167,-8.60702476846512,Portuguese Restaurant
363,41.1508771659057,-8.604688803152156,35,32,519a3d2f498e2e8f2b138aa4,Cafetaria Pintainho,41.149683,-8.60705,Portuguese Restaurant
364,41.1508771659057,-8.604688803152156,35,33,5f74d75098df6d72aa5cf486,A Cave Do Bon Vivant,41.152801,-8.6047,Tapas Restaurant
365,41.1508771659057,-8.604688803152156,35,34,5a0deaecc365885a82e1dbde,Sushi Store,41.150145,-8.6048,Sushi Restaurant
366,41.18170952380952,-8.6891,21,0,4d53e5145c9d236afa51f7ce,O Gaveto,41.18018693338346,-8.69057241439318,Portuguese Restaurant
367,41.18170952380952,-8.6891,21,1,5af97a04d807ee002c34c050,100 Montaditos,41.180042,-8.688058,Tapas Restaurant
368,41.18170952380952,-8.6891,21,2,522ed93a93cde3637be37f62,RISTORANTE ITALIANO SERGIO CRIVELLI PASTA FRESCA & PIZZA,41.18177008108615,-8.689673321399985,Italian Restaurant
369,41.18170952380952,-8.6891,21,3,4faedf1de4b0771d82b869d3,Restaurante Aliança,41.18243370391159,-8.689919785275773,Portuguese Restaurant
370,41.18170952380952,-8.6891,21,4,4cfa3dc5dccef04d6709b49c,Queda d'Água,41.18080181608859,-8.688843638049493,Mediterranean Restaurant
371,41.18170952380952,-8.6891,21,5,4c8aa7861797236a4ea06388,Esplanada Marisqueira A Antiga,41.18196728477589,-8.690784578673728,Seafood Restaurant
372,41.18170952380952,-8.6891,21,6,5187cc35498e0c692eb860bc,O Porquinho,41.18326923365874,-8.690674514698589,Portuguese Restaurant
373,41.18170952380952,-8.6891,21,7,5b5b77ca0d8a0f002c8a6f6e,Exotic,41.180523,-8.690292,Sushi Restaurant
374,41.18170952380952,-8.6891,21,8,533d50c0498ec7046eb616c4,K.tascú,41.180954,-8.690563,Tapas Restaurant
375,41.18170952380952,-8.6891,21,9,54dfca9c498edf035044c267,Tapas Na Língua,41.181029418540575,-8.690658393581058,Portuguese Restaurant
376,41.18170952380952,-8.6891,21,10,4cec22b103bab60c79de87a3,Adega O 27,41.18262683473849,-8.688812255859375,Eastern European Restaurant
377,41.18170952380952,-8.6891,21,11,5e0f277f58995100071eb314,Restaurante Brito Capelo,41.179531,-8.689496,Portuguese Restaurant
378,41.18170952380952,-8.6891,21,12,50805780e4b0a74e5116e492,Biboporto,41.182297536667036,-8.688396097012244,Mediterranean Restaurant
379,41.18170952380952,-8.6891,21,13,5da0c67b1ebd7000084e9a7f,A Casinha,41.181404,-8.691026,Portuguese Restaurant
380,41.18170952380952,-8.6891,21,14,4e3319bad164be7ec5962866,Adega Leixoes,41.18348988401377,-8.690223124688076,Portuguese Restaurant
381,41.18170952380952,-8.6891,21,15,4eb6ae30f5b94bd85c54e872,Iate Tapas Bar,41.18207934252391,-8.688777619785567,Tapas Restaurant
382,41.18170952380952,-8.6891,21,16,5011a6cee4b0befd121a2c3e,Pasta Fresca & Pizza,41.181793212890625,-8.689722061157227,Italian Restaurant
383,41.18170952380952,-8.6891,21,17,4f351c96e4b058a107e5a3a6,Bananeiro,41.18109622196069,-8.687887650016512,Portuguese Restaurant
384,41.18170952380952,-8.6891,21,18,5dcd5d69a65d780008b5aad4,Swaad,41.183282,-8.689714,Indian Restaurant
385,41.18170952380952,-8.6891,21,19,51196b78e4b0f8327b7e88e6,Lanterna,41.180778,-8.687716,Portuguese Restaurant
386,41.18170952380952,-8.6891,21,20,5920a9ab8d0a537f280d9c3c,Gaúcho's,41.18208,-8.691117,Brazilian Restaurant
387,41.18397045314192,-8.692083926271017,22,0,4faedf1de4b0771d82b869d3,Restaurante Aliança,41.18243370391159,-8.689919785275773,Portuguese Restaurant
388,41.18397045314192,-8.692083926271017,22,1,5d9657c0718dfa000845e066,Sicario Taqueria Mexicana,41.18399,-8.693044,Mexican Restaurant
389,41.18397045314192,-8.692083926271017,22,2,4df3be3ed22d8c5470def487,Antiga Casa Castanheira,41.18593653264291,-8.691471755342077,Portuguese Restaurant
390,41.18397045314192,-8.692083926271017,22,3,4c8aa7861797236a4ea06388,Esplanada Marisqueira A Antiga,41.18196728477589,-8.690784578673728,Seafood Restaurant
391,41.18397045314192,-8.692083926271017,22,4,4bd89eb811dcc928d612f733,Salta o Muro,41.182671125843456,-8.694520682562553,Portuguese Restaurant
392,41.18397045314192,-8.692083926271017,22,5,4eba76fb46906fa35792d49e,Restaurante O Porquinho,41.18360900878906,-8.691017150878906,Portuguese Restaurant
393,41.18397045314192,-8.692083926271017,22,6,5187cc35498e0c692eb860bc,O Porquinho,41.18326923365874,-8.690674514698589,Portuguese Restaurant
394,41.18397045314192,-8.692083926271017,22,7,4d9dc0eb5c33a35d135308a1,Teppan,41.182729,-8.693114,Sushi Restaurant
395,41.18397045314192,-8.692083926271017,22,8,50830ae1e4b0ad74a88b9487,Taxca Ibérica,41.181909,-8.692317,Portuguese Restaurant
396,41.18397045314192,-8.692083926271017,22,9,58dc2ec7cf445127bbdf090a,Restaurante O Xarroco,41.182133,-8.6938,Portuguese Restaurant
397,41.18397045314192,-8.692083926271017,22,10,51a505fb498ec0259347d47d,JP Wine House,41.18396676308482,-8.694678030403987,Portuguese Restaurant
398,41.18397045314192,-8.692083926271017,22,11,4e3319bad164be7ec5962866,Adega Leixoes,41.18348988401377,-8.690223124688076,Portuguese Restaurant
399,41.18397045314192,-8.692083926271017,22,12,53e53cf7498ed7b6e9d19761,Restaurante Sirocco,41.18406295776367,-8.69468879699707,Mediterranean Restaurant
400,41.18397045314192,-8.692083926271017,22,13,53383732498ed426f06c8257,Restaurante Costa,41.185078,-8.693935,Portuguese Restaurant
401,41.18397045314192,-8.692083926271017,22,14,50c07ea1e4b0db1a2b4c81f9,Boi D'ouro,41.18227005004883,-8.69264030456543,Portuguese Restaurant
402,41.18397045314192,-8.692083926271017,22,15,4d587dcb0e0a8eecafa2739b,Delicias da Mesa,41.18509968769901,-8.692485475127839,Mediterranean Restaurant
403,41.18397045314192,-8.692083926271017,22,16,549f3a7b498ee538a099b5ec,Bushido,41.18353898961254,-8.693328277948373,Japanese Restaurant
404,41.18397045314192,-8.692083926271017,22,17,5dcd5d69a65d780008b5aad4,Swaad,41.183282,-8.689714,Indian Restaurant
405,41.18397045314192,-8.692083926271017,22,18,4dbbfc35815439392f987f09,O Lusitano,41.183054715177505,-8.6948091280515,Mediterranean Restaurant
406,41.18397045314192,-8.692083926271017,22,19,513bae96e4b0dcaa8f7ea169,Indian Tandoori,41.1821403503418,-8.692744255065918,Indian Restaurant
407,41.18397045314192,-8.692083926271017,22,20,50e73feee4b01d00efe9b934,adega da doca,41.1859016418457,-8.693513870239258,Portuguese Restaurant
408,41.18397045314192,-8.692083926271017,22,21,5920a9ab8d0a537f280d9c3c,Gaúcho's,41.18208,-8.691117,Brazilian Restaurant
409,41.17944859447713,-8.692083926271017,22,0,4d53e5145c9d236afa51f7ce,O Gaveto,41.18018693338346,-8.69057241439318,Portuguese Restaurant
410,41.17944859447713,-8.692083926271017,22,1,4beffb603a002d7f028885a4,Ondas do Mar,41.17993928540293,-8.693419804817886,Portuguese Restaurant
411,41.17944859447713,-8.692083926271017,22,2,4e95e95c49015a078d89ddd4,Ramada do Mar,41.17814181005363,-8.690438763232573,Portuguese Restaurant
412,41.17944859447713,-8.692083926271017,22,3,5c6ffeebbd4009002ce9d197,Sabores Opulentos,41.180467,-8.693787,Italian Restaurant
413,41.17944859447713,-8.692083926271017,22,4,4cfbf3f1d7206ea897984169,Dom Zeferino,41.18147693676294,-8.692484789164508,Portuguese Restaurant
414,41.17944859447713,-8.692083926271017,22,5,595bd3af1de76542ca1adf98,Restaurante Rodízio Gaúchos,41.17843190482131,-8.690410852432251,Brazilian Restaurant
415,41.17944859447713,-8.692083926271017,22,6,5b5b77ca0d8a0f002c8a6f6e,Exotic,41.180523,-8.690292,Sushi Restaurant
416,41.17944859447713,-8.692083926271017,22,7,5ed162be4244b80008fcea48,Temperos Da Zézinha,41.180966,-8.693082,Portuguese Restaurant
417,41.17944859447713,-8.692083926271017,22,8,533d50c0498ec7046eb616c4,K.tascú,41.180954,-8.690563,Tapas Restaurant
418,41.17944859447713,-8.692083926271017,22,9,54dfca9c498edf035044c267,Tapas Na Língua,41.181029418540575,-8.690658393581058,Portuguese Restaurant
419,41.17944859447713,-8.692083926271017,22,10,4e58f087d22dfba6f46c3481,Restaurante Moçambique,41.17842102050781,-8.689824104309082,Portuguese Restaurant
420,41.17944859447713,-8.692083926271017,22,11,4ea6a2206c255b8d9da41514,Milho Rei,41.18016839373905,-8.692157672000988,Mediterranean Restaurant
421,41.17944859447713,-8.692083926271017,22,12,5eed3864f91a770007cc75f2,Masala Magic,41.179283,-8.68956,Indian Restaurant
422,41.17944859447713,-8.692083926271017,22,13,505861a9e4b01cdb1e64dbcb,Restaurante Fidelys,41.17955059337286,-8.694092268083521,Portuguese Restaurant
423,41.17944859447713,-8.692083926271017,22,14,5e0f277f58995100071eb314,Restaurante Brito Capelo,41.179531,-8.689496,Portuguese Restaurant
424,41.17944859447713,-8.692083926271017,22,15,4e8796b88231062aaed98691,S. Martino,41.180454784576476,-8.693862428950206,Italian Restaurant
425,41.17944859447713,-8.692083926271017,22,16,53f8a931498ea900659a9836,O Robalo,41.18144631951272,-8.692576830347107,Portuguese Restaurant
426,41.17944859447713,-8.692083926271017,22,17,4ffeb957e4b0de9322333e7c,Arco-Íris Sushi,41.179282298716025,-8.68937629690241,Sushi Restaurant
427,41.17944859447713,-8.692083926271017,22,18,5da0c67b1ebd7000084e9a7f,A Casinha,41.181404,-8.691026,Portuguese Restaurant
428,41.17944859447713,-8.692083926271017,22,19,4d8babc837c6a143ad6daf0c,Petisqueira Godinho,41.181475555536245,-8.692678933367924,Mediterranean Restaurant
429,41.17944859447713,-8.692083926271017,22,20,4c48b3feb5eec9b603a9c5a3,Restaurante 44,41.180588,-8.692589,Mediterranean Restaurant
430,41.17944859447713,-8.692083926271017,22,21,4e563ff81838c793c074b40c,Os Rapazes,41.179049,-8.694699,Portuguese Restaurant
431,41.18397045314192,-8.686116073728982,8,0,4cb0caf9aef16dcb562eb454,Requinte Francesinhas,41.18440595191805,-8.685285307478981,Portuguese Restaurant
432,41.18397045314192,-8.686116073728982,8,1,4c9f3ca9542b224b8c76fb9f,Mauritânia Real,41.18328275843859,-8.684304530967726,Portuguese Restaurant
433,41.18397045314192,-8.686116073728982,8,2,4bb712592f70c9b6c3448630,Koi - restaurante japones,41.1844382,-8.6847725,Japanese Restaurant
434,41.18397045314192,-8.686116073728982,8,3,4bd7557609ecb713a99f467c,Tapas & Papas,41.18235755342356,-8.686017969394404,Tapas Restaurant
435,41.18397045314192,-8.686116073728982,8,4,524d688911d2601f4cccfba1,O Ti Manel,41.183359,-8.684642,Portuguese Restaurant
436,41.18397045314192,-8.686116073728982,8,5,54949667498eb35d94f9d415,Yummy,41.1845703125,-8.68448257446289,Sushi Restaurant
437,41.18397045314192,-8.686116073728982,8,6,50e8251e498e768c82d41511,Palácio da Ásia,41.18458891725273,-8.685043077079575,Sushi Restaurant
438,41.18397045314192,-8.686116073728982,8,7,595cc8111c0b3450c9a5b308,Pátio do Ló,41.18252024879469,-8.685754537582397,Portuguese Restaurant
439,41.17944859447713,-8.686116073728982,29,0,5af97a04d807ee002c34c050,100 Montaditos,41.180042,-8.688058,Tapas Restaurant
440,41.17944859447713,-8.686116073728982,29,1,5eed18947108f4000773d348,Restaurante Lareira - Matosinhos,41.180776,-8.683958,Portuguese Restaurant
441,41.17944859447713,-8.686116073728982,29,2,5f3bd4508f76853bab7706d8,Bangkok Thai Cuisine,41.17851,-8.687678,Thai Restaurant
442,41.17944859447713,-8.686116073728982,29,3,5e38261dc745220007566ef3,Bangkok,41.178598,-8.687587,Thai Restaurant
443,41.17944859447713,-8.686116073728982,29,4,52b1ffe111d2ffdfcc165971,Bulls,41.17815828025516,-8.688296245300787,Brazilian Restaurant
444,41.17944859447713,-8.686116073728982,29,5,4b3b6c6af964a520947325e3,D’Oliva Al Forno,41.17939835245967,-8.688695740218373,Italian Restaurant
445,41.17944859447713,-8.686116073728982,29,6,4d72a610f7c38cfa41b4aa3d,Balacobaco,41.17807406676248,-8.688105926032469,Brazilian Restaurant
446,41.17944859447713,-8.686116073728982,29,7,4f788db2e4b06ff8373ffe6f,Casa Festas,41.17939957268457,-8.686448339303752,Tapas Restaurant
447,41.17944859447713,-8.686116073728982,29,8,51e68916498e27b7ca9c5ed9,Etapas,41.17958655620842,-8.683554684120661,Tapas Restaurant
448,41.17944859447713,-8.686116073728982,29,9,50ed7988e4b0cf0dae103d22,grill take away,41.178550720214844,-8.688346862792969,Portuguese Restaurant
449,41.17944859447713,-8.686116073728982,29,10,51ebd861498eb161eeb5a866,O 27,41.180257,-8.686732,Portuguese Restaurant
450,41.17944859447713,-8.686116073728982,29,11,52480d5d11d23acfde7a8db5,Low-Cost.come,41.180705888816526,-8.685854451472213,Portuguese Restaurant
451,41.17944859447713,-8.686116073728982,29,12,4d94e58f1646a35d7a3841a3,Sabor Fresco,41.17955526888711,-8.683506325267215,Sushi Restaurant
452,41.17944859447713,-8.686116073728982,29,13,531b7def498e567c68c5705e,Resultados com Charme,41.1789938886115,-8.685454435810048,Portuguese Restaurant
453,41.17944859447713,-8.686116073728982,29,14,4c48b1d7b5eec9b6e31bc3a3,La Mafia,41.17821862023125,-8.685671757151557,Italian Restaurant
454,41.17944859447713,-8.686116073728982,29,15,4ee7c1130e61a5b514bc3a1f,Sushinaka,41.18073412307608,-8.683683641212287,Sushi Restaurant
455,41.17944859447713,-8.686116073728982,29,16,5e25a16404a74d0008d51748,Raku Ramen,41.179585,-8.683584,Ramen Restaurant
456,41.17944859447713,-8.686116073728982,29,17,5b65b1a0b6eedb002c8e03f3,Eclipse,41.179198,-8.683446,Café
457,41.17944859447713,-8.686116073728982,29,18,4d7a2827542ab1f75cca8841,Sabor Fresco,41.17964553511195,-8.683603276639829,Sushi Restaurant
458,41.17944859447713,-8.686116073728982,29,19,512d249de4b052259b676ba8,YaGeer,41.178576914770474,-8.68803077755454,Sushi Restaurant
459,41.17944859447713,-8.686116073728982,29,20,4f351c96e4b058a107e5a3a6,Bananeiro,41.18109622196069,-8.687887650016512,Portuguese Restaurant
460,41.17944859447713,-8.686116073728982,29,21,4e009695d1647696f1209564,Pizzeria Pulcinella,41.1786241079425,-8.687758165342212,Pizza Place
461,41.17944859447713,-8.686116073728982,29,22,595ff99e03132020d46a6761,Bonsai,41.178501,-8.687543,Sushi Restaurant
462,41.17944859447713,-8.686116073728982,29,23,4fd0f397e4b01ff3e2619c1d,O Ruca,41.1789,-8.68545,Portuguese Restaurant
463,41.17944859447713,-8.686116073728982,29,24,4d8dde29fa9437045927f3c5,Shoya,41.17867771754198,-8.685713532398024,Sushi Restaurant
464,41.17944859447713,-8.686116073728982,29,25,5c322bd5b25fee002cf2eb6f,Venga Tapiscaria Ibérica,41.178825,-8.685109,Spanish Restaurant
465,41.17944859447713,-8.686116073728982,29,26,51196b78e4b0f8327b7e88e6,Lanterna,41.180778,-8.687716,Portuguese Restaurant
466,41.17944859447713,-8.686116073728982,29,27,5647a50c498e7f753a49b435,Pleasure,41.179647060058194,-8.683742746618428,Sushi Restaurant
467,41.17944859447713,-8.686116073728982,29,28,53c12f81498e3a62e8921932,Temako,41.179018,-8.684536,Sushi Restaurant
