,lat_centre,long_centre,num_venues,venue_iter,venue_id,venue_name,lat_venue,long_venue,category
0,51.4642,-0.11241538461538458,14,0,5d7e59aff290e10008914aa5,Souvlaki Street,51.463549,-0.112028,Greek Restaurant
1,51.4642,-0.11241538461538458,14,1,55904dd7498e348f66f0a748,Mama's Jerk,51.463486,-0.112227,Caribbean Restaurant
2,51.4642,-0.11241538461538458,14,2,5ac6521c5ba046273210dc5a,Sakeya,51.463516,-0.11225816,Japanese Restaurant
3,51.4642,-0.11241538461538458,14,3,53dcd9a9498effcb403f50f0,Koi Ramen Noodle Bar,51.46347857800001,-0.11235904547194676,Ramen Restaurant
4,51.4642,-0.11241538461538458,14,4,5ac6441e4a1cc005f832fc7f,Petare,51.463596,-0.11254113,Venezuelan Restaurant
5,51.4642,-0.11241538461538458,14,5,5586d5cf498e68f4b97b58c4,World of Wurst,51.463644104121165,-0.11231949440280252,German Restaurant
6,51.4642,-0.11241538461538458,14,6,5391bd45498e131b9ea12c80,Maria Sabina,51.463509072458486,-0.11232437880286653,Mexican Restaurant
7,51.4642,-0.11241538461538458,14,7,5ae6da36fd16bb002c2d0e35,Alpes,51.463393429445084,-0.11236788643361767,Modern European Restaurant
8,51.4642,-0.11241538461538458,14,8,51609605498ea7a801c48a4b,Zoe's Ghana Kitchen,51.463405889487646,-0.11232018470764159,African Restaurant
9,51.4642,-0.11241538461538458,14,9,59d673bc829b0c5f8d04bb17,Cantonese Canteen,51.463621,-0.112502,Cantonese Restaurant
10,51.4642,-0.11241538461538458,14,10,55d70766498e84179beb0a0e,Jeff the Chef Food Bar,51.46338740702334,-0.11256486815025489,Food Truck
11,51.4642,-0.11241538461538458,14,11,577d799638fa553d21dd05f1,Viet Box,51.463454,-0.112357,Vietnamese Restaurant
12,51.4642,-0.11241538461538458,14,12,556b057d498e61c8e74bd149,Baba G's,51.46347481755735,-0.11235810045205079,Indian Restaurant
13,51.4642,-0.11241538461538458,14,13,5766787c498e84f6e8288f04,Franzina Trattoria,51.463492,-0.112374,Italian Restaurant
14,51.465330464666195,-0.11421776445731918,4,0,5d9107ec59279c000806af1b,Cholados,51.464474,-0.11451,South American Restaurant
15,51.465330464666195,-0.11421776445731918,4,1,4ae9ff37f964a52057b821e3,Nando's,51.46470642,-0.11506151,Portuguese Restaurant
16,51.465330464666195,-0.11421776445731918,4,2,563e440acd107e7ca5afd6a6,Turtle Bay,51.46561299570411,-0.1138143722070067,Caribbean Restaurant
17,51.465330464666195,-0.11421776445731918,4,3,596f47762955132b6c4e6ecc,Brixton Road Restaurant & Grill (Lebanese Grill London Ltd),51.464487,-0.114425,Lebanese Restaurant
18,51.4630695353338,-0.11421776445731918,14,0,53b7f85b498e876802900e04,Koi Ramen Bar,51.4633875769664,-0.11503094086435407,Noodle House
19,51.4630695353338,-0.11421776445731918,14,1,5ab00316e2d4aa7dd29847ef,Donburi & Co,51.463455,-0.114244,Japanese Restaurant
20,51.4630695353338,-0.11421776445731918,14,2,4f96f952e4b0306856ba037d,Shawl Café,51.463233947753906,-0.11361072212457657,Café
21,51.4630695353338,-0.11421776445731918,14,3,51438810e4b013808f011428,Abashawel Habesha Cafe,51.462333725556725,-0.11366971514564074,African Restaurant
22,51.4630695353338,-0.11421776445731918,14,4,592f14397247507aa9ba8acb,Adulis,51.463385,-0.113461,African Restaurant
23,51.4630695353338,-0.11421776445731918,14,5,4f4248fde4b0f7b45b130114,Baladi,51.463493,-0.114530325,Food Truck
24,51.4630695353338,-0.11421776445731918,14,6,55be23e2498e5996e35c9e99,Greek 2 Go,51.463238783710594,-0.11346817016601562,Greek Restaurant
25,51.4630695353338,-0.11421776445731918,14,7,5224dc3b11d209ca13d24a45,Moroccan Cafe,51.4635088554365,-0.11437026337286281,Moroccan Restaurant
26,51.4630695353338,-0.11421776445731918,14,8,5467ad46498e6c2b03997167,Beehive Place Kitchen and Bar,51.463895,-0.114168,English Restaurant
27,51.4630695353338,-0.11421776445731918,14,9,4f3e52dce4b08346ef1e9a52,Spice Hut,51.463379152604446,-0.11430501937866211,Indian Restaurant
28,51.4630695353338,-0.11421776445731918,14,10,50c37676e4b0e9bc071be270,Rubencho Churros & Chocolate,51.46297676313002,-0.1128841111415147,South American Restaurant
29,51.4630695353338,-0.11421776445731918,14,11,4ddf7dfc227140b905019340,Healthy Eaters,51.46220271423514,-0.11447668075561523,Caribbean Restaurant
30,51.4630695353338,-0.11421776445731918,14,12,501e7e07e4b0825080b7bddb,Bushman Kitchen,51.463313,-0.113269,Caribbean Restaurant
31,51.4630695353338,-0.11421776445731918,14,13,58f0bafcaa6c955cd7b49ee1,Hungry Llama,51.463383,-0.114003,Food Stand
32,51.492999999999995,-0.17395384615384613,3,0,502148ece4b03d58caddf817,Carluccio's,51.493583306246364,-0.1737439860747273,Italian Restaurant
33,51.492999999999995,-0.17395384615384613,3,1,577d0a4a498ecd8669e127e0,La Festa Alfresco,51.493627,-0.173584,Italian Restaurant
34,51.492999999999995,-0.17395384615384613,3,2,51e59d0f498e006f08a0fde1,Taverna Italiana,51.49365424555019,-0.17373447954844162,Italian Restaurant
35,51.49413046466619,-0.1757573644490348,25,0,5834b3ea5da8f457fb1d8e84,CERU South Kensington,51.49346632544011,-0.17616071676248207,Middle Eastern Restaurant
36,51.49413046466619,-0.1757573644490348,25,1,4b12ba65f964a520ec8c23e3,Al Arez,51.494032,-0.174998,Lebanese Restaurant
37,51.49413046466619,-0.1757573644490348,25,2,51991670498eda391979a5b9,Sushi Shop,51.49391027309728,-0.17482634242996342,Sushi Restaurant
38,51.49413046466619,-0.1757573644490348,25,3,57af0536498e59054d35cb37,Koshari Street,51.494177,-0.175679,African Restaurant
39,51.49413046466619,-0.1757573644490348,25,4,4d3338035017a093b279509b,Shikara,51.49366581902244,-0.17635957748034686,Indian Restaurant
40,51.49413046466619,-0.1757573644490348,25,5,5230ca60498ec7f3bc4ed2ed,Pappa Roma,51.49379062116194,-0.17569376780975285,Pizza Place
41,51.49413046466619,-0.1757573644490348,25,6,51865c71498e4754c9542fe4,Wasabi,51.49385266722137,-0.174490245690085,Sushi Restaurant
42,51.49413046466619,-0.1757573644490348,25,7,58f1ffcf65211f5a7e34d8a0,Trevi,51.493789,-0.176565,Italian Restaurant
43,51.49413046466619,-0.1757573644490348,25,8,4ac518dcf964a5203da920e3,Khan's of Kensington,51.49419265245284,-0.17486834660627704,Indian Restaurant
44,51.49413046466619,-0.1757573644490348,25,9,51f42af7498e0568cf3442a6,故园,51.494344,-0.174402,Chinese Restaurant
45,51.49413046466619,-0.1757573644490348,25,10,5079cf42e4b01b417a53a28e,Apero,51.49418026514761,-0.17556667867530154,Mediterranean Restaurant
46,51.49413046466619,-0.1757573644490348,25,11,577e442638fa553d2345725d,Aroma Italia,51.49351504107947,-0.1762533187866211,Italian Restaurant
47,51.49413046466619,-0.1757573644490348,25,12,5e5179607459e90007328811,Mama Pho,51.493786,-0.176395,Vietnamese Restaurant
48,51.49413046466619,-0.1757573644490348,25,13,4bdedd3fffdec92849dee9a1,Dino's,51.494073,-0.17463326454162598,Italian Restaurant
49,51.49413046466619,-0.1757573644490348,25,14,59439908a35dce71694a3552,La Trattoria by Alfredo Russo,51.49443951706168,-0.1749122142791748,Italian Restaurant
50,51.49413046466619,-0.1757573644490348,25,15,4c7667961b30a09381e8f109,Moti Mahal,51.493548690163635,-0.17549068049203778,Indian Restaurant
51,51.49413046466619,-0.1757573644490348,25,16,5e10af00f8a01c000852e1e4,Shoti,51.493633,-0.175251,Caucasian Restaurant
52,51.49413046466619,-0.1757573644490348,25,17,4c1e80b98b3aa59301329c5f,El Gaucho,51.49359305819835,-0.1750416653481694,Argentinian Restaurant
53,51.49413046466619,-0.1757573644490348,25,18,5262eaa7498e2c4ec445083c,Dim Sum,51.494134,-0.174939,Dim Sum Restaurant
54,51.49413046466619,-0.1757573644490348,25,19,4e0f0b98d164fff335b0f892,Gia,51.49418639740145,-0.1747717210343731,Dim Sum Restaurant
55,51.49413046466619,-0.1757573644490348,25,20,4ba87c43f964a520e9dc39e3,Malibu Bute,51.493853,-0.176668,French Restaurant
56,51.49413046466619,-0.1757573644490348,25,21,5363f3ef498ef5c479b200e5,The Wine Room @ The Ampersand hotel,51.49432321189703,-0.17593865263043307,Mediterranean Restaurant
57,51.49413046466619,-0.1757573644490348,25,22,509d8515e4b044f763b61afa,Khans Testaurant,51.494323151733525,-0.17590909072723962,Indian Restaurant
58,51.49413046466619,-0.1757573644490348,25,23,4ac518daf964a520dca820e3,Rôtisserie Jules,51.493496847956806,-0.17612922953940427,French Restaurant
59,51.49413046466619,-0.1757573644490348,25,24,4d8de1136174a093b722bae3,Jia,51.49420790065962,-0.1747887092139998,Chinese Restaurant
60,51.4918695353338,-0.1757573644490348,3,0,4ac518d9f964a520bba820e3,Café Lazeez,51.492089544802965,-0.17689529083582134,Indian Restaurant
61,51.4918695353338,-0.1757573644490348,3,1,5465cd02498e4869da9b9dc8,Aladin Brick Lane,51.49177491551007,-0.17453836683200302,Chinese Breakfast Place
62,51.4918695353338,-0.1757573644490348,3,2,51649581e4b02d36c27efdc0,Bospherous,51.49260363014697,-0.17594831659361232,Turkish Restaurant
63,51.4918695353338,-0.17215032785865744,5,0,594562ecb23dfa77ebb442d4,Patara London,51.491353,-0.172202,Thai Restaurant
64,51.4918695353338,-0.17215032785865744,5,1,4b50d8cef964a520163527e3,PJ's Bar & Grill,51.49155674850069,-0.1721372222484387,American Restaurant
65,51.4918695353338,-0.17215032785865744,5,2,58ce7f49951e7d532b6ea556,Zheng Chelsea,51.491584,-0.171929,Asian Restaurant
66,51.4918695353338,-0.17215032785865744,5,3,56f0042fcd106dcecb0c3350,Brasserie Gustave,51.491564495477625,-0.17200469970703125,French Restaurant
67,51.4918695353338,-0.17215032785865744,5,4,4b50c67ef964a520ea3127e3,Patara,51.491540421272155,-0.1720569151636812,Thai Restaurant
68,51.5003390706676,-0.1621770271704095,11,0,5c7440f9780eee002c6a0207,Maya,51.49955549150697,-0.16175013202882838,Italian Restaurant
69,51.5003390706676,-0.1621770271704095,11,1,4bcc8246fb84c9b61778203e,Wasabi,51.500450595729596,-0.16255144759981424,Sushi Restaurant
70,51.5003390706676,-0.1621770271704095,11,2,596e2d87b1538e4ee54390e9,Mazaya,51.50112,-0.162376,Middle Eastern Restaurant
71,51.5003390706676,-0.1621770271704095,11,3,54e38ea0498eccd4020b1b54,Kateh,51.50104522705078,-0.1619601547718048,Persian Restaurant
72,51.5003390706676,-0.1621770271704095,11,4,5286267a498e39b38d262262,David's Big Shop,51.50025613859269,-0.16112834215164185,Caribbean Restaurant
73,51.5003390706676,-0.1621770271704095,11,5,5beba46e82644462494d7709,Chad,51.50032668357379,-0.16254287213087082,Indian Restaurant
74,51.5003390706676,-0.1621770271704095,11,6,4cdbf5656ad1a093d0daee56,The Metro,51.49963,-0.161522,Café
75,51.5003390706676,-0.1621770271704095,11,7,4f315a3bd5fbbed5d18cc6a6,The Comm,51.500851949549485,-0.16259621124122722,Beer Garden
76,51.5003390706676,-0.1621770271704095,11,8,4ac518dbf964a520e9a820e3,The Capital Restaurant,51.4999835,-0.1616577,Tea Room
77,51.5003390706676,-0.1621770271704095,11,9,4e14559814951daa08a92e61,Arcos,51.500500455026014,-0.1627646296712393,Italian Restaurant
78,51.5003390706676,-0.1621770271704095,11,10,4c332f5a16adc928f229c39c,La Dolce Vita,51.50103566303143,-0.16190311903844318,Italian Restaurant
79,51.5014695353338,-0.1639808358791923,4,0,4ac518bff964a5202da320e3,Zuma,51.501061172224645,-0.16313086296648005,Japanese Restaurant
80,51.5014695353338,-0.1639808358791923,4,1,545bed1a498e974bcb235c53,xuma,51.501062,-0.163117,Asian Restaurant
81,51.5014695353338,-0.1639808358791923,4,2,5ce43e633ba767002c3c2eaa,Sette,51.501383,-0.162702,Italian Restaurant
82,51.5014695353338,-0.1639808358791923,4,3,4f98f4eee4b098b39927d459,Rivea,51.50136789099398,-0.16273659056033432,Italian Restaurant
83,51.4992086060014,-0.1639808358791923,14,0,5d6d7634306ad6000872735e,Freej Swailh,51.499695,-0.163708,Middle Eastern Restaurant
84,51.4992086060014,-0.1639808358791923,14,1,50509c8be4b0b28cb0bd0785,Mezzah Lounge,51.49866754684485,-0.16291842266937523,Middle Eastern Restaurant
85,51.4992086060014,-0.1639808358791923,14,2,4ac518e2f964a5208caa20e3,Zia Teresa,51.498981562888076,-0.16398186140292698,Italian Restaurant
86,51.4992086060014,-0.1639808358791923,14,3,5022758ee4b0722ed9457d3a,Harrods Rotisserie,51.499407528471046,-0.16323671919319827,BBQ Joint
87,51.4992086060014,-0.1639808358791923,14,4,5a980b6a1987ec115f3a06e0,Chucs Harrods,51.498668,-0.163061,Italian Restaurant
88,51.4992086060014,-0.1639808358791923,14,5,4f9c1b86e4b060642f51d4ac,Galvin Demoiselle,51.49879183153359,-0.16343409536478995,French Restaurant
89,51.4992086060014,-0.1639808358791923,14,6,54ccdd7d498e8fe513ed3cd1,Chai Wu,51.49909326775061,-0.16378711794109407,Chinese Restaurant
90,51.4992086060014,-0.1639808358791923,14,7,57040599498ec1677dff58d0,haandi,51.498734,-0.164294,Chaat Place
91,51.4992086060014,-0.1639808358791923,14,8,4f8970d7e4b0ddfd8232b4d9,Pan Chai,51.49939197693199,-0.16272619272875985,Asian Restaurant
92,51.4992086060014,-0.1639808358791923,14,9,5203d0b0498ef772b5ba6276,Cucina toscana dei frescobaldi,51.49881717448267,-0.16273758385408735,Italian Restaurant
93,51.4992086060014,-0.1639808358791923,14,10,5d89f9a71ae338000835756b,The Pasta Bar,51.499375,-0.163232,Italian Restaurant
94,51.4992086060014,-0.1639808358791923,14,11,4e36ab95b61cddd1cd49f959,Dim Sum at Harrods,51.49933946133652,-0.1629495620727539,Dim Sum Restaurant
95,51.4992086060014,-0.1639808358791923,14,12,4e88a11f4901f10009208af5,The French Laundry - Pop Up,51.498666,-0.163589,French Restaurant
96,51.4992086060014,-0.1639808358791923,14,13,4e578f9c483b0fb77156a6ab,The Sushi Bar,51.49912573429843,-0.16333580017089844,Sushi Restaurant
97,51.5014695353338,-0.1603732184616267,5,0,4d2f05dc79dd6ea8ca028ed3,Dinner by Heston Blumenthal,51.50232659239313,-0.16022669035010037,Molecular Gastronomy Restaurant
98,51.5014695353338,-0.1603732184616267,5,1,4bb09124f964a5205f4c3ce3,Sartori Sushi,51.501479,-0.16152799129486084,Japanese Restaurant
99,51.5014695353338,-0.1603732184616267,5,2,4bd199b1046076b04b0d7271,Bar Boulud,51.5020695,-0.1602503,French Restaurant
100,51.5014695353338,-0.1603732184616267,5,3,4bd9f4a52a3a0f47870fa9b6,Ukai,51.501313,-0.160793,Sushi Restaurant
101,51.5014695353338,-0.1603732184616267,5,4,50c7564ce4b072dfb8856fc8,Season,51.501895260904675,-0.15986050806436103,Eastern European Restaurant
102,51.4992086060014,-0.1603732184616267,5,0,4ac518c2f964a52012a420e3,Sumosan Twiga,51.49897879637835,-0.15947341918945312,Japanese Restaurant
103,51.4992086060014,-0.1603732184616267,5,1,5c251b2d65cdf8002cd531d5,Somason And Twiga,51.498789,-0.159218,Japanese Restaurant
104,51.4992086060014,-0.1603732184616267,5,2,50771d67498eb6cb96f083aa,Le Chinois,51.49980419385056,-0.16010084487385418,Chinese Restaurant
105,51.4992086060014,-0.1603732184616267,5,3,4cdbf5656ad1a093d0daee56,The Metro,51.49963,-0.161522,Café
106,51.4992086060014,-0.1603732184616267,5,4,4dc54056d22dafda2f9ee704,Sushi Harrods,51.49872481515915,-0.15965544109363536,Japanese Restaurant
107,51.50486092933239,-0.09342297282959044,5,0,5b4736f5835c9a002c447b88,Casa do Frango,51.504752,-0.092908,Portuguese Restaurant
108,51.50486092933239,-0.09342297282959044,5,1,59e1ed9e09e2837b1bcec9dd,Lantana Cafe,51.50485666168884,-0.09441237610637374,Australian Restaurant
109,51.50486092933239,-0.09342297282959044,5,2,57ae3585498e2484c4c394e1,'O ver,51.504846,-0.09405,Italian Restaurant
110,51.50486092933239,-0.09342297282959044,5,3,5d5708d51a66620008f28f0a,Baozi Inn,51.50478,-0.09312764,Chinese Restaurant
111,51.50486092933239,-0.09342297282959044,5,4,4b6de2eef964a520cd982ce3,Mango Indian,51.50498618680578,-0.09277812914673945,Indian Restaurant
112,51.50373046466619,-0.09522696053367591,13,0,5827217b27e8a32a79afc7cd,Bar Douro,51.50451142279943,-0.09524983501945948,Portuguese Restaurant
113,51.50373046466619,-0.09522696053367591,13,1,580ca30f38fa27d5b74a845b,Ekachai,51.504337906112504,-0.09494617138633948,Asian Restaurant
114,51.50373046466619,-0.09522696053367591,13,2,5bb3a83f9de23b002c52b0cc,Damascan Kitchen,51.50388,-0.09495556,Syrian Restaurant
115,51.50373046466619,-0.09522696053367591,13,3,59413f013b83076a785f81eb,Lupins,51.50409,-0.09514265,English Restaurant
116,51.50373046466619,-0.09522696053367591,13,4,5e445b42489d7b000887eb2d,Katsutopia,51.504285,-0.09497,Japanese Curry Restaurant
117,51.50373046466619,-0.09522696053367591,13,5,5a842995febf3157413951ad,Bittenclub,51.504425,-0.09508,Food Truck
118,51.50373046466619,-0.09522696053367591,13,6,580cb37c38fa64db122fe3d5,Cantina Carnitas,51.50452806733104,-0.09516676978233476,Burrito Place
119,51.50373046466619,-0.09522696053367591,13,7,587e231b0b565678a56b93df,Manti by Mike + Ollie,51.50372,-0.095188916,Turkish Restaurant
120,51.50373046466619,-0.09522696053367591,13,8,588b591c5289302f30f34b54,Edu,51.50423611337946,-0.09497864389194423,Spanish Restaurant
121,51.50373046466619,-0.09522696053367591,13,9,523deff1498eea65e86e764a,Est. India,51.503998783001855,-0.09521441727331392,Indian Restaurant
122,51.50373046466619,-0.09522696053367591,13,10,5e3c1adf4d818a0008164721,Breddos Tacos,51.504389,-0.094924,Taco Place
123,51.50373046466619,-0.09522696053367591,13,11,58badbeceef5da0e2a011425,Tatami Ramen,51.504302318921596,-0.09496791176638981,Ramen Restaurant
124,51.50373046466619,-0.09522696053367591,13,12,5893368d2ec36429cb9cb8db,Laffa,51.50425972095348,-0.09496003372799246,Food Truck
125,51.505991393998585,-0.09161898512550498,26,0,5cc3a725c66666002c5143a0,Bao Borough,51.505689,-0.09165,Asian Restaurant
126,51.505991393998585,-0.09161898512550498,26,1,4f648908e4b04d4b15a06ab6,Arabica,51.5056912446661,-0.09122133949556847,Middle Eastern Restaurant
127,51.505991393998585,-0.09161898512550498,26,2,5dde647cc7c1fb0007f62a2c,Mei Mei London,51.505856,-0.09106368,Malay Restaurant
128,51.505991393998585,-0.09161898512550498,26,3,4c18f755ed98ef3bc1aedd02,Porteña,51.50540875418928,-0.09100416010614616,Empanada Restaurant
129,51.505991393998585,-0.09161898512550498,26,4,58518df6040d5329d9e6a51d,El Pastor,51.505194,-0.091043,Taco Place
130,51.505991393998585,-0.09161898512550498,26,5,5df37ef846d2b900081767bd,Tacos Padre,51.505906,-0.090828,Taco Place
131,51.505991393998585,-0.09161898512550498,26,6,4dfce79d45ddebdfeaac268e,Elliot's,51.50568695916863,-0.09136531662044242,Modern European Restaurant
132,51.505991393998585,-0.09161898512550498,26,7,58ab51d030ecc6141b89d220,Hawksmoor Borough,51.506308,-0.091195,Steakhouse
133,51.505991393998585,-0.09161898512550498,26,8,5df8f749c02d88000727093f,Juma Kitchen,51.505777,-0.090816,Iraqi Restaurant
134,51.505991393998585,-0.09161898512550498,26,9,51ade04e2fc6a3838df92703,La Tua Pasta,51.50566664207693,-0.09095830467525759,Italian Restaurant
135,51.505991393998585,-0.09161898512550498,26,10,4b8bc720f964a520eaaa32e3,Roast,51.505572333537145,-0.09121014484984848,English Restaurant
136,51.505991393998585,-0.09161898512550498,26,11,543fc1f7498e470c70a78d2e,Gourmet Goat,51.50560274340781,-0.09081795608121829,Mediterranean Restaurant
137,51.505991393998585,-0.09161898512550498,26,12,4f7ee4abe4b08f16e09640b0,Oliveology,51.505910796831735,-0.09102871302533237,Greek Restaurant
138,51.505991393998585,-0.09161898512550498,26,13,5dfcbc5be6be4c000822885b,The Black Pig,51.506077,-0.090810545,Food Stand
139,51.505991393998585,-0.09161898512550498,26,14,52908f3c11d2e71664838456,Liquori,51.505493,-0.091758,Italian Restaurant
140,51.505991393998585,-0.09161898512550498,26,15,58a1ac53e6160c5d3b1ca173,Brindisa Chorizo Grill,51.505500380198846,-0.09053528308868408,Spanish Restaurant
141,51.505991393998585,-0.09161898512550498,26,16,5e551c90422ffe000743c49d,Shuki,51.506158,-0.090975,Israeli Restaurant
142,51.505991393998585,-0.09161898512550498,26,17,57acc775498e3eaf3e778fcf,Popdown,51.506152,-0.090324,Asian Restaurant
143,51.505991393998585,-0.09161898512550498,26,18,5e19f5f83c3155000802397f,Batera Pintxos,51.50617,-0.09097651,Tapas Restaurant
144,51.505991393998585,-0.09161898512550498,26,19,54f074dd498e4126ba17b812,Pulia,51.506631613445734,-0.09116730033958297,Italian Restaurant
145,51.505991393998585,-0.09161898512550498,26,20,4e32a9c0c65bfd5a4e28882e,Le Marche Du Quartier,51.505454848589125,-0.09109861149283537,French Restaurant
146,51.505991393998585,-0.09161898512550498,26,21,5cacb098d48ec1002c15016f,Pochi,51.50601349163256,-0.0903995378193415,Food Truck
147,51.505991393998585,-0.09161898512550498,26,22,5e5923ee36dfe40008800a7b,Joli,51.5059,-0.09073343,Malay Restaurant
148,51.505991393998585,-0.09161898512550498,26,23,5b98f5cdba57b4002cea8ecb,Duck Confit,51.505521,-0.091086,French Restaurant
149,51.505991393998585,-0.09161898512550498,26,24,5df3a7c98a06ab0008cf2e0c,Tacos Padre,51.505937,-0.090927,Taco Place
150,51.505991393998585,-0.09161898512550498,26,25,5f6f3b8b47bbae241df2b27d,Match:Box,51.506113,-0.090985,German Restaurant
151,51.50373046466619,-0.09161898512550498,7,0,4cae3b30c5e6a1cd3037c3f6,Truly Indian Restaurant,51.50399383652888,-0.0911369152466808,Indian Restaurant
152,51.50373046466619,-0.09161898512550498,7,1,4f575abfe4b060fb2fba816a,Wrap It Up!,51.50431852856038,-0.0906250085556846,Burrito Place
153,51.50373046466619,-0.09161898512550498,7,2,4bb1f091f964a52000ac3ce3,Tas Restaurant,51.503794858923435,-0.09127934231226059,Turkish Restaurant
154,51.50373046466619,-0.09161898512550498,7,3,5c2a6f9f61e53b002c294f29,Zad,51.503784,-0.09134464,Italian Restaurant
155,51.50373046466619,-0.09161898512550498,7,4,4f92ea4ae4b04c0b8c9ca26e,bierkeller,51.50448325033797,-0.09093395383765121,German Restaurant
156,51.50373046466619,-0.09161898512550498,7,5,4e983ac9775bdedf442954be,Shrigley's,51.503666,-0.09124976,Moroccan Restaurant
157,51.50373046466619,-0.09161898512550498,7,6,51fbdabe498ea2b174fad7d5,Papaya,51.50393124850061,-0.09112767144072573,Thai Restaurant
158,51.509939070667606,-0.13957605875113802,3,0,4ad4354ef964a5206de720e3,Cecconi's,51.51002538397866,-0.14037979578788728,Italian Restaurant
159,51.509939070667606,-0.13957605875113802,3,1,4f688c08e4b04cd67cd1b956,itsu,51.51012803105375,-0.13876050970276363,Sushi Restaurant
160,51.509939070667606,-0.13957605875113802,3,2,56f29f75498e30806c4af129,Menya Sasuke 麺屋佐助,51.50935131068867,-0.13883446441825903,Ramen Restaurant
161,51.5110695353338,-0.14138024752642206,7,0,5815708138fa53b604189cff,StreetXO,51.511260830799415,-0.14108296737689893,Spanish Restaurant
162,51.5110695353338,-0.14138024752642206,7,1,4ac518d5f964a52008a820e3,Sartoria,51.51165317798673,-0.14081505377146125,Italian Restaurant
163,51.5110695353338,-0.14138024752642206,7,2,4f43fe4ae4b05b69c84c7e40,Alyn Williams at the Westbury,51.51130785104307,-0.14230557283464298,French Restaurant
164,51.5110695353338,-0.14138024752642206,7,3,5cfa2b9b8a6f17002c7ddb9f,Satoria,51.510948,-0.140418,Italian Restaurant
165,51.5110695353338,-0.14138024752642206,7,4,4be30aa221d5a59306071811,Artisan,51.511392,-0.142623,French Restaurant
166,51.5110695353338,-0.14138024752642206,7,5,4ede4a297bebc2945558bbab,Kitchen Joël Antunès,51.51101277815347,-0.14133095741271973,French Restaurant
167,51.5110695353338,-0.14138024752642206,7,6,4bdae20063c5c9b61f4f2568,Morris's,51.510764682485096,-0.14218885721793917,Italian Restaurant
168,51.50880860600141,-0.14138024752642206,13,0,522f04c211d26c0ec3b330fe,Gymkhana,51.508545278294704,-0.14142367023218483,Indian Restaurant
169,51.50880860600141,-0.14138024752642206,13,1,5b2d71d4ea1e4400399013f5,Bagatelle London,51.50881480735606,-0.14274958395457332,French Restaurant
170,51.50880860600141,-0.14138024752642206,13,2,52aa21d011d2aa6903b3b923,Kyubi,51.5082228333939,-0.14224727240356982,Japanese Restaurant
171,51.50880860600141,-0.14138024752642206,13,3,4ae1d5a9f964a520c98721e3,Babbo,51.50870013212622,-0.14151859834538152,Italian Restaurant
172,51.50880860600141,-0.14138024752642206,13,4,57f6c82b498e2bb7c4b3914a,MNKY HSE,51.508009637263676,-0.14182160094900373,Latin American Restaurant
173,51.50880860600141,-0.14138024752642206,13,5,530dfc6d498e9f5cee265af6,Quattro Passi,51.50882687132074,-0.14269751374648143,Italian Restaurant
174,51.50880860600141,-0.14138024752642206,13,6,5ba03a23646e38002b41436b,Leo’s,51.508126,-0.141884,Italian Restaurant
175,51.50880860600141,-0.14138024752642206,13,7,5d19fda5c56f4800235d86bb,Moncks of Dover Street,51.508819,-0.142631,Brasserie
176,51.50880860600141,-0.14138024752642206,13,8,5dc32d9f25c7ea000891e0ec,Charlie’s,51.509039,-0.141907,English Restaurant
177,51.50880860600141,-0.14138024752642206,13,9,4c9cba0b46978cfa9c88907f,Dolada,51.508662327818094,-0.14150261878967285,Italian Restaurant
178,51.50880860600141,-0.14138024752642206,13,10,5a0f396eb04056135fff1b46,Beck at Brown's,51.508982,-0.141984,Italian Restaurant
179,51.50880860600141,-0.14138024752642206,13,11,522ee0878abfe9410fb8e172,Petrocchi,51.508867123930116,-0.14176805316583668,Italian Restaurant
180,51.50880860600141,-0.14138024752642206,13,12,4c332969213c2d7fc870365d,Le Petit Café,51.50854608959129,-0.14179256667817022,Italian Restaurant
181,51.5110695353338,-0.13777186997585397,18,0,4af00bcff964a52081da21e3,Arang,51.511683093544455,-0.1367481871404367,Korean Restaurant
182,51.5110695353338,-0.13777186997585397,18,1,4b5f3a36f964a520a5ae29e3,Nando's,51.51058317,-0.13772973,Portuguese Restaurant
183,51.5110695353338,-0.13777186997585397,18,2,5bfc1e306bdee60039ff0491,Nala,51.51089,-0.136903,Japanese Restaurant
184,51.5110695353338,-0.13777186997585397,18,3,4d4d98db9ee1a35d339c27df,Nopi,51.51169202494171,-0.1384022483811713,Mediterranean Restaurant
185,51.5110695353338,-0.13777186997585397,18,4,4b0b039af964a520942b23e3,Kulu Kulu Sushi,51.51091509407175,-0.13668775909865857,Sushi Restaurant
186,51.5110695353338,-0.13777186997585397,18,5,4b6498a0f964a520a9c02ae3,So Japanese,51.51068637246026,-0.13753966318714636,Japanese Restaurant
187,51.5110695353338,-0.13777186997585397,18,6,4f92e9d4e4b0b65a8ac30b90,Prezzo,51.510568747168485,-0.13671459780296366,Italian Restaurant
188,51.5110695353338,-0.13777186997585397,18,7,5df4edeef4a4d90007819fe5,Bancone,51.511305,-0.136405,Italian Restaurant
189,51.5110695353338,-0.13777186997585397,18,8,4bd189ddb221c9b69da4d5d0,Mono Libanais,51.510617,-0.136999,Middle Eastern Restaurant
190,51.5110695353338,-0.13777186997585397,18,9,51670281e4b0cfd65954e4e8,At 17 Air Street,51.510685,-0.136664,Tapas Restaurant
191,51.5110695353338,-0.13777186997585397,18,10,4ca37f3f1ee76dcbf7d0f9dd,Thai West Cafe,51.5107488187583,-0.13697364886199176,Thai Restaurant
192,51.5110695353338,-0.13777186997585397,18,11,5c6bd37d8c812a002c572c7c,Kare Kurry,51.510744,-0.136896,Japanese Curry Restaurant
193,51.5110695353338,-0.13777186997585397,18,12,4ac518d6f964a52033a820e3,The Oak Room,51.51098563408739,-0.13705769414850494,French Restaurant
194,51.5110695353338,-0.13777186997585397,18,13,551079b3498ecedf7eb1c332,IL CONTE DI MONFORTE,51.51079351476723,-0.13670412910613855,Italian Restaurant
195,51.5110695353338,-0.13777186997585397,18,14,4f180b55e4b035bfa79efeb6,Nov Dia,51.511013,-0.136911,Italian Restaurant
196,51.5110695353338,-0.13777186997585397,18,15,5681c041498e470cc342df84,verraswamy,51.510408,-0.137538,Indian Restaurant
197,51.5110695353338,-0.13777186997585397,18,16,5814777a38fac9dab51e9a44,Sozai cookery school,51.511029,-0.137737,Sushi Restaurant
198,51.5110695353338,-0.13777186997585397,18,17,5294f66811d2936fc6bf762d,Piragua,51.510687,-0.136719,Spanish Restaurant
199,51.50880860600141,-0.13777186997585397,10,0,4b8824c3f964a520cbe231e3,Benihana,51.509109,-0.138043,Japanese Restaurant
200,51.50880860600141,-0.13777186997585397,10,1,500d52d3e4b0938454222bcc,Caffè Concerto,51.509242,-0.136782,Café
201,51.50880860600141,-0.13777186997585397,10,2,4b8a8cb1f964a520cf7132e3,Wasabi,51.50872797492817,-0.13794472395016327,Sushi Restaurant
202,51.50880860600141,-0.13777186997585397,10,3,59e48b1ba2c00b1ad0e55f9d,Souvlaki Street,51.508814,-0.136894,Souvlaki Shop
203,51.50880860600141,-0.13777186997585397,10,4,586ffe71e753561092dd4778,西安凉皮肉夹馍 Murger Hanhan,51.50930370948832,-0.13805865316650984,Chinese Restaurant
204,51.50880860600141,-0.13777186997585397,10,5,55a95048498e49f11b51e040,Sackville,51.509295,-0.138065,English Restaurant
205,51.50880860600141,-0.13777186997585397,10,6,4ac518dbf964a52004a920e3,Yoshino,51.50924619381179,-0.13705275709062217,Sushi Restaurant
206,51.50880860600141,-0.13777186997585397,10,7,563b6f14cd10a9e1a78aaba1,45 Jermyn St,51.508009313462985,-0.1382780159490706,English Restaurant
207,51.50880860600141,-0.13777186997585397,10,8,58a4916b58c4d11ecfd3238b,Barbacoa,51.508555486285246,-0.1376187801361084,American Restaurant
208,51.50880860600141,-0.13777186997585397,10,9,56f29f75498e30806c4af129,Menya Sasuke 麺屋佐助,51.50935131068867,-0.13883446441825903,Ramen Restaurant
209,51.509939070667606,-0.1314085566334773,18,0,59b92a852955132234397fd2,Japan Centre,51.509760861810946,-0.13127297164342394,Japanese Restaurant
210,51.509939070667606,-0.1314085566334773,18,1,565cabff498ea2163cd170b7,Kanada-Ya,51.509359405731026,-0.13221467316579125,Ramen Restaurant
211,51.509939070667606,-0.1314085566334773,18,2,5cc48367fe37400039593efc,Haidilao Hot Pot,51.510303,-0.132679,Chinese Restaurant
212,51.509939070667606,-0.1314085566334773,18,3,58382f64424f93797160eb70,Shake Shack Leicester Square,51.510498,-0.1316948,Burger Joint
213,51.509939070667606,-0.1314085566334773,18,4,5f5274bcb82d46000f39e923,Jumak 39,51.509438,-0.132018,Korean BBQ Restaurant
214,51.509939070667606,-0.1314085566334773,18,5,5e245fc8313854000853fd26,Showaken,51.50969,-0.13155597,Noodle House
215,51.509939070667606,-0.1314085566334773,18,6,5093fabde4b0f94e03b4bf27,Yori,51.509441994176115,-0.13192421065409293,Korean BBQ Restaurant
216,51.509939070667606,-0.1314085566334773,18,7,4bd8923351170f47d9b133e4,Busaba Eathai,51.50998670844849,-0.13101907872381613,Thai Restaurant
217,51.509939070667606,-0.1314085566334773,18,8,58d56c4d24ca6a01658bf768,Machiya,51.50941255457629,-0.13199435784734553,Japanese Restaurant
218,51.509939070667606,-0.1314085566334773,18,9,4f457319e4b09e5f75765f81,Authentic Tandoori,51.51068675599828,-0.13133433348310503,Indian Restaurant
219,51.509939070667606,-0.1314085566334773,18,10,4ac518dbf964a520f5a820e3,Woodlands Restaurant,51.50960054761273,-0.13178168153152411,Indian Restaurant
220,51.509939070667606,-0.1314085566334773,18,11,557759aa498e89cb4a2a135d,Muga Ramen,51.509377103602,-0.13202296493096766,Ramen Restaurant
221,51.509939070667606,-0.1314085566334773,18,12,5866f6483cccc677680379fc,Tasting Sicily Enzo's Kitchen,51.509532,-0.131877,Italian Restaurant
222,51.509939070667606,-0.1314085566334773,18,13,5e4d0785dbf3f900072ff26f,Happy Bar and Grill,51.510259,-0.132392,Bulgarian Restaurant
223,51.509939070667606,-0.1314085566334773,18,14,4d0fb885b765224b0562e632,Le Troisieme,51.50936160206833,-0.13220094629626417,French Restaurant
224,51.509939070667606,-0.1314085566334773,18,15,4bb8cd3b3db7b71369a0219a,Corniche Cafe,51.51042977165869,-0.13198784299239058,Doner Restaurant
225,51.509939070667606,-0.1314085566334773,18,16,581a0f05df57f32bd4698096,Layalina,51.51023821132552,-0.13187885284423828,Middle Eastern Restaurant
226,51.509939070667606,-0.1314085566334773,18,17,4c4b03939e6dbe9a3b1c690b,Andalucia,51.5093908545624,-0.13210342005157644,Tapas Restaurant
227,51.5110695353338,-0.13321274540876135,41,0,55f99c12498e589bc7c41556,Viet Food,51.511630680873964,-0.13224927955597524,Vietnamese Restaurant
228,51.5110695353338,-0.13321274540876135,41,1,5cc48367fe37400039593efc,Haidilao Hot Pot,51.510303,-0.132679,Chinese Restaurant
229,51.5110695353338,-0.13321274540876135,41,2,593a844cc876c8327e196ea9,Five Guys,51.510292,-0.133402,Burger Joint
230,51.5110695353338,-0.13321274540876135,41,3,4afc9a04f964a5204c2422e3,C&R Café Restaurant,51.51111126738831,-0.13244479894638062,Malay Restaurant
231,51.5110695353338,-0.13321274540876135,41,4,4ba6180cf964a5201b3339e3,Four Seasons | 文興酒家,51.5110863761993,-0.1317908483299069,Chinese Restaurant
232,51.5110695353338,-0.13321274540876135,41,5,4ad21d7ef964a52079df20e3,Bocca Di Lupo,51.51160703021297,-0.13393860533746302,Italian Restaurant
233,51.5110695353338,-0.13321274540876135,41,6,4b1bc6bef964a52051fd23e3,Gerrard's Corner | 好年華大酒樓,51.511467260955826,-0.13195314522782906,Chinese Restaurant
234,51.5110695353338,-0.13321274540876135,41,7,5d16602d17d3b90023420e50,Heritage,51.51088,-0.1325618,Swiss Restaurant
235,51.5110695353338,-0.13321274540876135,41,8,4fe9c154e4b0636892ea2196,Caffè Concerto,51.51147880157305,-0.13302960756248586,Café
236,51.5110695353338,-0.13321274540876135,41,9,56fd744a498e01f760db4b3f,Cafe Monico,51.51167950503203,-0.13267863987972353,Modern European Restaurant
237,51.5110695353338,-0.13321274540876135,41,10,54ef1a1e498ef304a84b8564,Engawa,51.51125208846039,-0.13460363379779514,Japanese Restaurant
238,51.5110695353338,-0.13321274540876135,41,11,55d773b8498eb5ebd61fa433,Wok to Walk,51.51108998199575,-0.13414395861963535,Noodle House
239,51.5110695353338,-0.13321274540876135,41,12,523ae6a1498e226e27c078c1,Old Tree Daiwan Bee (老樹台灣味),51.51103820589166,-0.1326454354150219,Taiwanese Restaurant
240,51.5110695353338,-0.13321274540876135,41,13,537504a8498e1fe2c8c4fa71,The Palomar,51.511185,-0.132774,Israeli Restaurant
241,51.5110695353338,-0.13321274540876135,41,14,4b5af86cf964a520d6dc28e3,Wasabi,51.511538038585265,-0.13292286159816769,Sushi Restaurant
242,51.5110695353338,-0.13321274540876135,41,15,5b6c7b9cb9a5a8002c12105f,Vesuvio,51.511596,-0.132438,Italian Restaurant
243,51.5110695353338,-0.13321274540876135,41,16,516697a2e4b048ec906a8af3,Shoryu Ramen,51.510799,-0.134418,Ramen Restaurant
244,51.5110695353338,-0.13321274540876135,41,17,4e0f4c99aeb7a5b33ef27591,CCK Buffet,51.51083481277331,-0.132064679056082,Asian Restaurant
245,51.5110695353338,-0.13321274540876135,41,18,4d4bfe53a22c224b7038f593,Mr Wu,51.51168305791055,-0.13259161420364599,Chinese Restaurant
246,51.5110695353338,-0.13321274540876135,41,19,5cd59d761c0b34002c26202a,On The Bab,51.51172,-0.1336756,Korean Restaurant
247,51.5110695353338,-0.13321274540876135,41,20,5a218f9bd552c759b77e7814,Mee Market,51.511787,-0.13366722,Korean Restaurant
248,51.5110695353338,-0.13321274540876135,41,21,557b5b89498efd94ee5b4c5d,Morden & Lea,51.51104016790882,-0.13178952802785265,French Restaurant
249,51.5110695353338,-0.13321274540876135,41,22,59909370b5461874aca912c6,Royal Court Restaurant,51.511444,-0.133951,Chinese Restaurant
250,51.5110695353338,-0.13321274540876135,41,23,4f3d722be4b0c30dffabeb9f,泉章居,51.510924,-0.132115,Chinese Restaurant
251,51.5110695353338,-0.13321274540876135,41,24,4b227af1f964a5207c4724e3,Samurai Sushi & Bento,51.51184023631741,-0.13261462698765228,Sushi Restaurant
252,51.5110695353338,-0.13321274540876135,41,25,5019ae51e4b09a651c12ee69,Astoria,51.51166170018029,-0.13233443292244154,Italian Restaurant
253,51.5110695353338,-0.13321274540876135,41,26,597c83c1acc5f5228acd4fc6,Ichibuns,51.511152101747385,-0.13184458086949286,Japanese Restaurant
254,51.5110695353338,-0.13321274540876135,41,27,4b0c4576f964a520323a23e3,Thai Tho,51.51143085210741,-0.13303034903118327,Thai Restaurant
255,51.5110695353338,-0.13321274540876135,41,28,5af218b3c53093003983cfc1,Brondisa,51.511084,-0.132291,Tapas Restaurant
256,51.5110695353338,-0.13321274540876135,41,29,4ae4e41ef964a520299f21e3,Indian Brasserie,51.51087923308819,-0.13267278671264648,Indian Restaurant
257,51.5110695353338,-0.13321274540876135,41,30,5911dfff51950e2a433cf791,Xu,51.51114012745139,-0.1327654059909018,Chinese Restaurant
258,51.5110695353338,-0.13321274540876135,41,31,5ef3396a7364090008752893,Olives N’ Meze,51.511097,-0.134214,Mediterranean Restaurant
259,51.5110695353338,-0.13321274540876135,41,32,5d8f7ef5a4e6160008796dd0,Rice Coming 米齐临,51.51151,-0.132312,Chinese Restaurant
260,51.5110695353338,-0.13321274540876135,41,33,4ac518e1f964a52044aa20e3,Astoria Chez Victor,51.511524990476,-0.132193962425409,Italian Restaurant
261,51.5110695353338,-0.13321274540876135,41,34,502be8d8e4b0fe00a3892a79,Chilli Shaker,51.510757757239126,-0.1343675388666822,Indian Restaurant
262,51.5110695353338,-0.13321274540876135,41,35,57d94cbc498e7fdff9ae32f5,Butifarra,51.51111,-0.1328,Peruvian Restaurant
263,51.5110695353338,-0.13321274540876135,41,36,5b58becc6dcf04002cec8e02,翠亨邨酒家 London Chinatown Restaurant,51.510408,-0.134129,Chinese Restaurant
264,51.5110695353338,-0.13321274540876135,41,37,5d2f62270be70b00082322a6,Bar-Gril-Fire,51.510809,-0.13395,American Restaurant
265,51.5110695353338,-0.13321274540876135,41,38,53137010498eacec1f44ad66,Mr Wu,51.51136701573111,-0.1319695926978377,Chinese Restaurant
266,51.5110695353338,-0.13321274540876135,41,39,4cd5aa9b7da9a35d7f17ebb9,Soho Tandoori,51.51138182742348,-0.13366189606597395,Indian Restaurant
267,51.5110695353338,-0.13321274540876135,41,40,4ac518d4f964a520c0a720e3,Wong Kei,51.511531392936135,-0.13213160238463095,Chinese Restaurant
268,51.50880860600141,-0.13321274540876135,25,0,565cabff498ea2163cd170b7,Kanada-Ya,51.509359405731026,-0.13221467316579125,Ramen Restaurant
269,51.50880860600141,-0.13321274540876135,25,1,5c05916b340a58002ce80c2d,Imperial Treasure Fine Chinese Cuisine,51.507935,-0.13297655,Chinese Restaurant
270,51.50880860600141,-0.13321274540876135,25,2,596e6459acb00b400da00fb7,Ikoyi London,51.50929083920643,-0.13299251310836804,African Restaurant
271,51.50880860600141,-0.13321274540876135,25,3,55df738f498e7d1805fafb9d,Milos,51.50811719446084,-0.13334124484466278,Greek Restaurant
272,51.50880860600141,-0.13321274540876135,25,4,509a4489e4b0dbacebfd68b2,Shoryu Ramen,51.508390261286436,-0.13355114159129397,Ramen Restaurant
273,51.50880860600141,-0.13321274540876135,25,5,5c13c53e9d7468002cc40fc6,Farzi Cafe,51.508403,-0.132205,Indian Restaurant
274,51.50880860600141,-0.13321274540876135,25,6,58ffade2c5b11c2a55e69226,Duck & Waffle Local,51.50952433874563,-0.13285521411624424,English Restaurant
275,51.50880860600141,-0.13321274540876135,25,7,4ac518b9f964a520b1a120e3,Planet Hollywood,51.509066320099414,-0.13257354497909546,American Restaurant
276,51.50880860600141,-0.13321274540876135,25,8,590a0d720d8a0f6263210bce,Comptoir Libanais,51.50899078207781,-0.1322925718884672,Lebanese Restaurant
277,51.50880860600141,-0.13321274540876135,25,9,5834983c739d8554fbc51d09,Aquavit,51.50881211010983,-0.13333485692507024,Modern European Restaurant
278,51.50880860600141,-0.13321274540876135,25,10,5318aacd498e4ec4c9fa6ef3,VietCafe,51.50908955946617,-0.13231927162373344,Vietnamese Restaurant
279,51.50880860600141,-0.13321274540876135,25,11,5bb3bade8ad62e002c330ccc,Tonkotsu,51.50915,-0.132801,Ramen Restaurant
280,51.50880860600141,-0.13321274540876135,25,12,5814de5438fa7c7bf9069912,Shawa Haymarket,51.509061,-0.132565,Middle Eastern Restaurant
281,51.50880860600141,-0.13321274540876135,25,13,5c9432aa98fbfc002cd11b47,Bao + Burger + Beer,51.508649,-0.132096,Japanese Restaurant
282,51.50880860600141,-0.13321274540876135,25,14,5b3000ac492814002cc4af47,San Carlo,51.508757,-0.13385,Italian Restaurant
283,51.50880860600141,-0.13321274540876135,25,15,4ac518d5f964a520f1a720e3,Galileo's,51.5086568,-0.1318645,Indian Restaurant
284,51.50880860600141,-0.13321274540876135,25,16,4f2e7676e4b007725b76d315,Mitsukoshi Restaurant,51.508815312939696,-0.1340883431810098,Japanese Restaurant
285,51.50880860600141,-0.13321274540876135,25,17,4d0fb885b765224b0562e632,Le Troisieme,51.50936160206833,-0.13220094629626417,French Restaurant
286,51.50880860600141,-0.13321274540876135,25,18,4fbe4818e4b0f1c2f5e3db79,La Copa,51.50841553487828,-0.13352967597265453,Spanish Restaurant
287,51.50880860600141,-0.13321274540876135,25,19,4ae204bdf964a520d88921e3,Spaghetti House,51.508592077526856,-0.13191928314995977,Italian Restaurant
288,51.50880860600141,-0.13321274540876135,25,20,5ba69fcd42d8c2002cce13f1,Baby Bao,51.508661,-0.132051,Asian Restaurant
289,51.50880860600141,-0.13321274540876135,25,21,5813bf1c38fae2e5a06c462d,Anzu,51.509235,-0.132515,Japanese Restaurant
290,51.50880860600141,-0.13321274540876135,25,22,52f0e838498ef0662b13108a,Bilbao Berria,51.508141366342386,-0.13325923996039354,Tapas Restaurant
291,51.50880860600141,-0.13321274540876135,25,23,537b4bf9498e81df80bff65a,Cafe Opera,51.508016605583705,-0.13257439397503318,Italian Restaurant
292,51.50880860600141,-0.13321274540876135,25,24,5cc4c9f604d1ae002c60c0ff,‘O ver,51.509068,-0.133005,Italian Restaurant
293,51.5110695353338,-0.12960436785819326,25,0,58d9936ec960270e27efc7cd,Bun House,51.51171805653647,-0.12982293963432312,Asian Restaurant
294,51.5110695353338,-0.12960436785819326,25,1,4b072d9ef964a520ecf822e3,Imperial China,51.511786947545964,-0.12991406283860793,Dim Sum Restaurant
295,51.5110695353338,-0.12960436785819326,25,2,592fffc69e3b652802c1fec5,Maison Du Mezze,51.510910969935374,-0.12979305367093963,Lebanese Restaurant
296,51.5110695353338,-0.12960436785819326,25,3,4b77ffe0f964a5208ab12ee3,Super Star | 鴻星,51.511465314497485,-0.13044430592395442,Chinese Restaurant
297,51.5110695353338,-0.12960436785819326,25,4,4bae00f6f964a520fa793be3,Bella Italia,51.51118333069542,-0.12957493005944798,Italian Restaurant
298,51.5110695353338,-0.12960436785819326,25,5,4ac518d4f964a520bea720e3,Tokyo Diner,51.5118316047881,-0.12941593486803024,Japanese Restaurant
299,51.5110695353338,-0.12960436785819326,25,6,4dab3d606e81162ae7e8c4db,Beijing Dumpling,51.51163783017435,-0.13005257547176619,Dumpling Restaurant
300,51.5110695353338,-0.12960436785819326,25,7,4db549dccda1c57c826ad233,Café Fiori,51.51128033777337,-0.1285963912552437,Italian Restaurant
301,51.5110695353338,-0.12960436785819326,25,8,4f1c1b94e4b07beffea0e340,陶陶居| Tao Tao Ju,51.51148400747064,-0.1305159786362443,Chinese Restaurant
302,51.5110695353338,-0.12960436785819326,25,9,55b91ec7498e0e92527e3b36,福榕美食 Gourmet Kitchen,51.5116895000249,-0.12985173453645327,Chinese Restaurant
303,51.5110695353338,-0.12960436785819326,25,10,5f1c40f53caa1957eed69001,Five Friends Desserts,51.511318,-0.128451,Chinese Restaurant
304,51.5110695353338,-0.12960436785819326,25,11,4b48b2f2f964a5203e5326e3,Okawari Japanese Restaurant,51.511496,-0.13049985,Japanese Restaurant
305,51.5110695353338,-0.12960436785819326,25,12,4b7b580af964a520275f2fe3,Young Cheng | 羊城,51.5115930532245,-0.13012823774559798,Chinese Restaurant
306,51.5110695353338,-0.12960436785819326,25,13,5a094ac810345b3169b1c8df,Petit Bistro,51.51130657591914,-0.12845635414123535,French Restaurant
307,51.5110695353338,-0.12960436785819326,25,14,4aff6c05f964a520663822e3,Chiquito,51.510749488709244,-0.12948848252966044,Mexican Restaurant
308,51.5110695353338,-0.12960436785819326,25,15,4cb2fba4eb65b1f7071880cd,Entrecote Tortilla,51.51148493304069,-0.12901243719606095,Mexican Restaurant
309,51.5110695353338,-0.12960436785819326,25,16,57655cb0498ec123bcbe3966,Lin Lin Snacks,51.511834,-0.128998,Cantonese Restaurant
310,51.5110695353338,-0.12960436785819326,25,17,4fd4fe6fe4b065401b3cc338,Fulushou,51.511211010343466,-0.13069949070307169,Chinese Restaurant
311,51.5110695353338,-0.12960436785819326,25,18,5728ec78498e8054a6ed186d,小木屋 英国第一正宗韩式烧烤,51.511657127592265,-0.1300978660583496,Chinese Restaurant
312,51.5110695353338,-0.12960436785819326,25,19,54189c64498ef464c96d162c,Espresso Bar Pizzeria,51.511126,-0.129271,Café
313,51.5110695353338,-0.12960436785819326,25,20,4c96066af244b1f72db6301d,HongKongBuffet,51.511521148062634,-0.13073322440890392,Asian Restaurant
314,51.5110695353338,-0.12960436785819326,25,21,58261bbbb39f9613c1257fd4,农家庄 Bao & Noodle,51.51148845072631,-0.1305228709579739,Chinese Restaurant
315,51.5110695353338,-0.12960436785819326,25,22,4acf2df7f964a5209bd220e3,Okawari sushi,51.51172513925449,-0.12996103001495413,Sushi Restaurant
316,51.5110695353338,-0.12960436785819326,25,23,5f6c7c8241a2960fceba0b3d,The Bosporus,51.510938,-0.130226,Turkish Restaurant
317,51.5110695353338,-0.12960436785819326,25,24,586ec8da3ef0f66411a239ea,Chinese Tapas House,51.511716,-0.128633,Chinese Restaurant
318,51.50880860600141,-0.12960436785819326,1,0,523a0028498e49dca8b0ce5a,Salt 'n Pepper,51.50947971393241,-0.12996822382063683,Pakistani Restaurant
319,51.509939070667606,-0.12419144336652264,17,0,50017d13e4b0d5040e653c6b,B Bakery,51.510088,-0.124711,Tea Room
320,51.509939070667606,-0.12419144336652264,17,1,4ac518c4f964a5209aa420e3,Wahaca,51.510336885350966,-0.1246003472387347,Mexican Restaurant
321,51.509939070667606,-0.12419144336652264,17,2,58035972d67cf45e38ba273c,Ping Pong,51.51038689168339,-0.12378792919472319,Dim Sum Restaurant
322,51.509939070667606,-0.12419144336652264,17,3,4ac518d5f964a52001a820e3,TGI Fridays,51.51025666185682,-0.12400938916871214,American Restaurant
323,51.509939070667606,-0.12419144336652264,17,4,583dcd32febfbd437cfd1f00,Cinnamon Bazaar,51.51066261736212,-0.12373386930039994,Indian Restaurant
324,51.509939070667606,-0.12419144336652264,17,5,4bbb33a83db7b7136906249a,Nando's,51.5103252,-0.1246037,Portuguese Restaurant
325,51.509939070667606,-0.12419144336652264,17,6,4ac518c4f964a5207ba420e3,Thai Pot,51.50992427565833,-0.12537074350068073,Thai Restaurant
326,51.509939070667606,-0.12419144336652264,17,7,5cab32d43092be002c4f3e58,Kalamaki Street Greek,51.509964,-0.12354825,Greek Restaurant
327,51.509939070667606,-0.12419144336652264,17,8,4ac518e3f964a520a7aa20e3,Strand Tandoori,51.51016534416163,-0.12388041718666738,Indian Restaurant
328,51.509939070667606,-0.12419144336652264,17,9,52c07eac498e51147444bfc3,Sesamo Cafe,51.509887,-0.123002,Mediterranean Restaurant
329,51.509939070667606,-0.12419144336652264,17,10,587d3e83409f5656d28dbc50,Lao Café,51.509986718619714,-0.12489118487561081,Asian Restaurant
330,51.509939070667606,-0.12419144336652264,17,11,5f5ac1b6dad8070f0899ec86,Haweli Barnes,51.50928043008921,-0.12438463578291703,Indian Restaurant
331,51.509939070667606,-0.12419144336652264,17,12,4acf80bcf964a52026d420e3,The Lemon Tree,51.50998982872257,-0.12545480426736294,Pub
332,51.509939070667606,-0.12419144336652264,17,13,4fd52e6be4b002c9e8c03f2e,Mexican Restaurant,51.510031212788135,-0.12458324432373048,Mexican Restaurant
333,51.509939070667606,-0.12419144336652264,17,14,4ac518c6f964a52020a520e3,Terroirs,51.50954704455508,-0.12524985236318995,Wine Bar
334,51.509939070667606,-0.12419144336652264,17,15,5c9b69f0dff815002c8fbdd4,Kalamaki,51.509941,-0.123633,Greek Restaurant
335,51.509939070667606,-0.12419144336652264,17,16,50ac00cee4b0dc61eb2b2dca,The Port House,51.50989309207224,-0.12300072830106121,Wine Bar
336,51.5110695353338,-0.12599563214180667,30,0,53c5768e498ee3d21e84d52e,Lima Floral,51.511740805710055,-0.12602158256259277,Peruvian Restaurant
337,51.5110695353338,-0.12599563214180667,30,1,516094748302afa746c58951,Five Guys,51.511877,-0.1266335,Burger Joint
338,51.5110695353338,-0.12599563214180667,30,2,4c3ca78715cb1b8dc6e77adc,Benito's Hat,51.511133250178204,-0.12592379248934465,Burrito Place
339,51.5110695353338,-0.12599563214180667,30,3,4c670d0baebea593601075d0,Bella Italia,51.511652,-0.126938,Italian Restaurant
340,51.5110695353338,-0.12599563214180667,30,4,4dd909f91f6ee1468349b6e9,Côte Brasserie,51.51065302606203,-0.12695013670196345,French Restaurant
341,51.5110695353338,-0.12599563214180667,30,5,58c575e4260327384ab298a9,wagamama,51.5107924558986,-0.12472129194213721,Asian Restaurant
342,51.5110695353338,-0.12599563214180667,30,6,5b13e1500a08ab002caa9cca,Old Chang Kee,51.511174935451585,-0.1256740411824454,Singaporean Restaurant
343,51.5110695353338,-0.12599563214180667,30,7,5ae5eb4c840fc2002c6b06bf,The Petersham,51.51168920136621,-0.12507868338549996,Italian Restaurant
344,51.5110695353338,-0.12599563214180667,30,8,4ec7b6a82c5b532d06e5fe1e,Com Viet,51.51146278785446,-0.12571193765608177,Vietnamese Restaurant
345,51.5110695353338,-0.12599563214180667,30,9,56262536498e67dd3275e94c,The Real Greek,51.51078107160909,-0.12700292378034148,Greek Restaurant
346,51.5110695353338,-0.12599563214180667,30,10,4bbb47f8935e952151f72890,Simurgh,51.511713983706755,-0.12663049196754098,Persian Restaurant
347,51.5110695353338,-0.12599563214180667,30,11,4ad083f6f964a5204cd820e3,Le Garrick Brasserie,51.51156664979657,-0.12611486525587193,French Restaurant
348,51.5110695353338,-0.12599563214180667,30,12,5b61b0151ffe97002cedfb8d,WA Japanese Patisserie,51.511122,-0.126436,Dessert Shop
349,51.5110695353338,-0.12599563214180667,30,13,500461f5e4b077d3511615ff,Chipotle Mexican Grill,51.5107927,-0.1271657,Mexican Restaurant
350,51.5110695353338,-0.12599563214180667,30,14,4ad854c6f964a5200c1121e3,Tobiko,51.51152892312729,-0.1258699331571834,Sushi Restaurant
351,51.5110695353338,-0.12599563214180667,30,15,5aeb16626f0aa2002c2e284e,La Goccia,51.51166316283255,-0.12517097172175842,Italian Restaurant
352,51.5110695353338,-0.12599563214180667,30,16,4b4f8d20f964a520170b27e3,The Grand Indian,51.51109845704908,-0.1263445519911985,Indian Restaurant
353,51.5110695353338,-0.12599563214180667,30,17,4c6a8010897b1b8d59d9b117,LebanEats,51.511076,-0.126503,Middle Eastern Restaurant
354,51.5110695353338,-0.12599563214180667,30,18,4c7eb49101df3704dd15e4ac,Cafe Pasta,51.511405,-0.125459,Italian Restaurant
355,51.5110695353338,-0.12599563214180667,30,19,56fbfe72498e73270f38f7a7,santori,51.511293,-0.126918,Italian Restaurant
356,51.5110695353338,-0.12599563214180667,30,20,4fe8b17ae4b02db7aefa33ed,Tapitas,51.511588,-0.12714,Tapas Restaurant
357,51.5110695353338,-0.12599563214180667,30,21,4ac518dff964a520dba920e3,Tale of India,51.511010997696495,-0.1258464450691785,Indian Restaurant
358,51.5110695353338,-0.12599563214180667,30,22,5cab8be206fb60002c2566fe,Yaki Yaki,51.511136,-0.126432,Creperie
359,51.5110695353338,-0.12599563214180667,30,23,513e0ecb19a9252224b6cb00,Koshari Street,51.51088902484121,-0.12700505770054704,African Restaurant
360,51.5110695353338,-0.12599563214180667,30,24,4b5c50a5f964a520ad2a29e3,Pasta Brown,51.51103725988029,-0.12479442091989978,Italian Restaurant
361,51.5110695353338,-0.12599563214180667,30,25,4dd15b09d4c065592fc433d5,Pepe Italian Street Food,51.510925328709014,-0.1270326607935119,Italian Restaurant
362,51.5110695353338,-0.12599563214180667,30,26,5e6698486921be0007b83426,The Nitery,51.510567,-0.12648828,French Restaurant
363,51.5110695353338,-0.12599563214180667,30,27,533177e3498eebc4f7947025,Jamaica Patty Co,51.5110665601068,-0.12674616000064073,Caribbean Restaurant
364,51.5110695353338,-0.12599563214180667,30,28,5fb92b2ef5a0407bc1f5cc45,Darjeeling Express,51.511416,-0.1253,Indian Restaurant
365,51.5110695353338,-0.12599563214180667,30,29,4b030283f964a520dc4b22e3,Giovanni's,51.511118029278876,-0.12607709081407542,Italian Restaurant
366,51.50880860600141,-0.12599563214180667,18,0,53bab96d498e7e355fb53d6c,Barrafina,51.509426526936956,-0.1258944349847769,Spanish Restaurant
367,51.50880860600141,-0.12599563214180667,18,1,583c344181907921f51d0740,Tandoor Chop House,51.50919205694273,-0.12563829447742592,North Indian Restaurant
368,51.50880860600141,-0.12599563214180667,18,2,5b420a45b1ec13002cb58037,Bancone,51.50952932810332,-0.1264335499444991,Italian Restaurant
369,51.50880860600141,-0.12599563214180667,18,3,4d342c7ec75a6ea8462e1dae,itsu,51.508662049949216,-0.12505250916924865,Sushi Restaurant
370,51.50880860600141,-0.12599563214180667,18,4,5de947103d385e0008e358a3,Xi Home Dumplings,51.509641,-0.125976,Dumpling Restaurant
371,51.50880860600141,-0.12599563214180667,18,5,5070002d90e78bd11ce0a49a,Tortilla,51.50809881535371,-0.12639565730219096,Burrito Place
372,51.50880860600141,-0.12599563214180667,18,6,539a01f1498e1b0751d08821,cafeproper,51.508504,-0.124741,Tapas Restaurant
373,51.50880860600141,-0.12599563214180667,18,7,5dd9fb093c398200075583b5,Adana,51.509223241755116,-0.125967264175415,Turkish Restaurant
374,51.50880860600141,-0.12599563214180667,18,8,5dcb6c17c295590008a5d380,Farha's Kitchen,51.508341802467896,-0.12581706047058105,Indian Restaurant
375,51.50880860600141,-0.12599563214180667,18,9,5dbe5512aff6dc00079671ff,Madhu's Restaurant,51.508234960183394,-0.12624621391296387,Indian Restaurant
376,51.50880860600141,-0.12599563214180667,18,10,52c57cc911d2dba4b2352f65,Paul French Patisserie,51.50874757272907,-0.125692708585204,French Restaurant
377,51.50880860600141,-0.12599563214180667,18,11,56bde4a3498e18374253d699,top restaurant mayfair,51.508742458803326,-0.12584924697875977,Modern European Restaurant
378,51.50880860600141,-0.12599563214180667,18,12,4ee392344690f8893fa98d97,Arquiti,51.50799003838035,-0.1263049892900178,Italian Restaurant
379,51.50880860600141,-0.12599563214180667,18,13,5dda1c983c39820007a5fd00,Maharani Restaurant,51.50846199973846,-0.1258599758148193,Indian Restaurant
380,51.50880860600141,-0.12599563214180667,18,14,51432454e4b0793256e08910,Burrito Café,51.50953623634486,-0.12673190520083538,Burrito Place
381,51.50880860600141,-0.12599563214180667,18,15,56ef6933498ef391c94774b4,Private Dining Room Mayfair,51.5089561407416,-0.1259779930114746,Modern European Restaurant
382,51.50880860600141,-0.12599563214180667,18,16,4ac518c6f964a52020a520e3,Terroirs,51.50954704455508,-0.12524985236318995,Wine Bar
383,51.50880860600141,-0.12599563214180667,18,17,5fb95fb729502922e1a6a7ba,Bisushima,51.509376,-0.126446,Japanese Restaurant
384,51.5110695353338,-0.12238725459123861,20,0,527bee27498e2ccd501fe6dc,Sticks'n'Sushi,51.511038,-0.123655,Sushi Restaurant
385,51.5110695353338,-0.12238725459123861,20,1,4f159a54e4b01eeff24c6408,Shake Shack Covent Garden,51.51181643188896,-0.12259807566829153,Burger Joint
386,51.5110695353338,-0.12238725459123861,20,2,5d20e659442332002f0645bd,VyTA,51.511574,-0.123101,Wine Bar
387,51.5110695353338,-0.12238725459123861,20,3,4ddfece28877e0877e667da8,Polpo,51.510794,-0.12273,Italian Restaurant
388,51.5110695353338,-0.12238725459123861,20,4,5082bd6ae4b0ac00f5a1f916,Condesa,51.510720125837025,-0.12322474758450218,Spanish Restaurant
389,51.5110695353338,-0.12238725459123861,20,5,4ac518d6f964a52026a820e3,Rules,51.51079346216121,-0.12313234655823375,English Restaurant
390,51.5110695353338,-0.12238725459123861,20,6,530b25ac498e6152fc91c99d,Big Easy Bar.B.Q & Crabshack,51.5104935830834,-0.12297161525722,American Restaurant
391,51.5110695353338,-0.12238725459123861,20,7,5a44f2cb2b98442bd7fbf450,Hooray’s German Hot Dogs,51.511919,-0.12209,Hot Dog Joint
392,51.5110695353338,-0.12238725459123861,20,8,5d9f1fcb49dffd000840a6a6,The Real Greek,51.510308,-0.121998,Greek Restaurant
393,51.5110695353338,-0.12238725459123861,20,9,4f89c0e7e4b002b90b8fb4ca,Pomodoro,51.51155748849721,-0.12130603235403611,Italian Restaurant
394,51.5110695353338,-0.12238725459123861,20,10,570f8b64498eb37edb210204,The Diner,51.5103038615743,-0.1219361680054412,American Restaurant
395,51.5110695353338,-0.12238725459123861,20,11,515ad217e4b06a771d0b1db6,Wasabi,51.51067744602803,-0.12169702461516368,Sushi Restaurant
396,51.5110695353338,-0.12238725459123861,20,12,4ac518ddf964a52079a920e3,Salieri,51.51054918711983,-0.12131699552517375,Mediterranean Restaurant
397,51.5110695353338,-0.12238725459123861,20,13,56732465498e4bac67d03391,saliveri,51.510665,-0.121362,English Restaurant
398,51.5110695353338,-0.12238725459123861,20,14,5297441011d21f544b97a4c1,Beim Grossen Bambu,51.51155360396574,-0.12239242204707376,Arepa Restaurant
399,51.5110695353338,-0.12238725459123861,20,15,4f54977dc2eec1bbb8030956,Prima Sapori D’Italia,51.511341140319146,-0.1219656307986608,Italian Restaurant
400,51.5110695353338,-0.12238725459123861,20,16,53e90866498eb930a0804466,Hola Paella,51.511766,-0.12279,Modern European Restaurant
401,51.5110695353338,-0.12238725459123861,20,17,56fa71dfcd10feb6626f27fb,Duende,51.51066556016948,-0.1231670379638672,Tapas Restaurant
402,51.5110695353338,-0.12238725459123861,20,18,4b66cdb9f964a520692b2be3,Kafe Neo,51.51155270526169,-0.12163643667918136,Greek Restaurant
403,51.5110695353338,-0.12238725459123861,20,19,56cdf37bcd1048b0ed668103,Vini Italiani,51.51190251215848,-0.12240260839462279,Italian Restaurant
404,51.50880860600141,-0.12238725459123861,1,0,53ff838c498e9dad5639b9d0,barrafino,51.50863314083638,-0.12133589565629023,Spanish Restaurant
405,51.5122,-0.1893384615384615,4,0,4de28593e4cd056f7445be2b,Santorini Taverna,51.51268242627496,-0.1882348971132198,Greek Restaurant
406,51.5122,-0.1893384615384615,4,1,5734abe4498e3e0e82a026c6,Cocoro Kaiseki,51.51232149907683,-0.18966436386108398,Japanese Restaurant
407,51.5122,-0.1893384615384615,4,2,51a394c7e4b016c44e8fb1d4,the curry place,51.51224899291992,-0.18980242311954498,Indian Restaurant
408,51.5122,-0.1893384615384615,4,3,4dea456388774880e316d6d8,Byzantium Cafe,51.512564890105416,-0.18903167556139597,Greek Restaurant
409,51.5133304646662,-0.19114273985520017,2,0,4c5d9b8c6ebe2d7fc14bd32e,New Fortune Cookie,51.51409370678294,-0.19173047256054573,Chinese Restaurant
410,51.5133304646662,-0.19114273985520017,2,1,5681b025498e0e343850dca8,Selesa Restaurant,51.51367091861968,-0.19064100805197634,Malay Restaurant
411,51.5133304646662,-0.18753418322172286,20,0,4ade28c7f964a520797321e3,Gold Mine,51.51337864723379,-0.18756417306829726,Chinese Restaurant
412,51.5133304646662,-0.18753418322172286,20,1,4de28593e4cd056f7445be2b,Santorini Taverna,51.51268242627496,-0.1882348971132198,Greek Restaurant
413,51.5133304646662,-0.18753418322172286,20,2,4ba7f1daf964a520d7c039e3,Four Seasons,51.51287028047696,-0.1876298627966028,Chinese Restaurant
414,51.5133304646662,-0.18753418322172286,20,3,552fb569498ee5b604b48c7a,Preto,51.513171272595194,-0.18773813475061168,Brazilian Restaurant
415,51.5133304646662,-0.18753418322172286,20,4,4ba4844df964a520d4a138e3,Noodle Oodle,51.51348528848711,-0.18768707215623598,Noodle House
416,51.5133304646662,-0.18753418322172286,20,5,517d36ede4b0a2c6728d7135,Phoenicia Lebanese Restaurant,51.513140366563704,-0.18733723371461278,Lebanese Restaurant
417,51.5133304646662,-0.18753418322172286,20,6,4d41c766aae1b1f7898c93f5,Buffet 48,51.512562,-0.187284,Chinese Restaurant
418,51.5133304646662,-0.18753418322172286,20,7,4fe2147ce4b0fccda1551ba2,Sichuan Sweetheart,51.51284843519126,-0.18768202537849077,Chinese Restaurant
419,51.5133304646662,-0.18753418322172286,20,8,4ae0e1ccf964a520558321e3,Beity Expressions,51.513005,-0.187673,Middle Eastern Restaurant
420,51.5133304646662,-0.18753418322172286,20,9,5163fe19e4b09b1d79dbf4c1,Horapha Thai,51.51282507262527,-0.18752893233162202,Thai Restaurant
421,51.5133304646662,-0.18753418322172286,20,10,4d1cdb4a1356224bb20513be,La Brasserie Italiana,51.51250859358008,-0.18755295998638682,Italian Restaurant
422,51.5133304646662,-0.18753418322172286,20,11,4ea706a2dab48494d845881b,Udon Udon,51.513327,-0.187634,Asian Restaurant
423,51.5133304646662,-0.18753418322172286,20,12,52bf047b11d2af4c75ba9233,Самовар,51.513125234549875,-0.1876785786365919,Russian Restaurant
424,51.5133304646662,-0.18753418322172286,20,13,4d2f56bfd9d8a143ab4d02d8,Kalamaras,51.51243829368327,-0.18746465074345647,Greek Restaurant
425,51.5133304646662,-0.18753418322172286,20,14,50e1c667e4b0471659f97080,Papparoti,51.51272996830377,-0.18766793526868336,Bakery
426,51.5133304646662,-0.18753418322172286,20,15,4bb108e8f964a52088743ce3,Couscous Cafe,51.513730335191376,-0.18796920776367188,African Restaurant
427,51.5133304646662,-0.18753418322172286,20,16,50abdb60e4b0fe64f21b6cdf,Hi Sushi Unlimited,51.512736652559184,-0.18762187351341775,Sushi Restaurant
428,51.5133304646662,-0.18753418322172286,20,17,4bca2d27cc8cd13ab926bdcf,Halal Restaurant,51.513266430135694,-0.18751835649649984,Middle Eastern Restaurant
429,51.5133304646662,-0.18753418322172286,20,18,50fb0869e4b03c6cb24b2d59,Phoenicia,51.513060034410564,-0.18723873090221713,Mediterranean Restaurant
430,51.5133304646662,-0.18753418322172286,20,19,4ba40588f964a520a37838e3,Bella Italia,51.51355384991673,-0.1875568525701965,Italian Restaurant
431,51.5110695353338,-0.18753418322172286,30,0,4ac518d5f964a520fea720e3,Mandarin Kitchen,51.510691312196045,-0.18706658472093635,Chinese Restaurant
432,51.5110695353338,-0.18753418322172286,30,1,4bb7ac6e3db7b713805d209a,New Fortune Cookie,51.51056782428448,-0.18703525011380256,Chinese Restaurant
433,51.5110695353338,-0.18753418322172286,30,2,558fb2ec498e642c87ea0f71,Aubaine,51.51024822878456,-0.18764172871317225,French Restaurant
434,51.5110695353338,-0.18753418322172286,30,3,4d7f880a87003704c76f8699,Samovar  Russian Cafe,51.51100154580689,-0.18739078296033848,Eastern European Restaurant
435,51.5110695353338,-0.18753418322172286,30,4,4bb389614019a593c51238b8,Bella Italia,51.5118702,-0.187723,Italian Restaurant
436,51.5110695353338,-0.18753418322172286,30,5,5568fc10498ea985a9b156e2,Mogador Lounge & Shisha,51.5108757019043,-0.18700796365737915,Middle Eastern Restaurant
437,51.5110695353338,-0.18753418322172286,30,6,578faa3acd10f99c795b5e11,Normah Cafe,51.511,-0.187585,Malay Restaurant
438,51.5110695353338,-0.18753418322172286,30,7,5c05a42c270ee7002c287aff,Uzbek Corner,51.51104,-0.18732,Asian Restaurant
439,51.5110695353338,-0.18753418322172286,30,8,5692a277498e1cf94dded669,De Casa,51.511086,-0.186994,Italian Restaurant
440,51.5110695353338,-0.18753418322172286,30,9,58a853e7a55db02433a7da72,BrazilUK Café e Restaurante,51.511076,-0.187534,Brazilian Restaurant
441,51.5110695353338,-0.18753418322172286,30,10,5734ecb138fa1621cba2f3e4,Mama Mia Restaurant,51.511437,-0.187352,Italian Restaurant
442,51.5110695353338,-0.18753418322172286,30,11,57344d72498e46f99fc7e5d7,Mamma Mia,51.511026132638484,-0.18706798553466797,Italian Restaurant
443,51.5110695353338,-0.18753418322172286,30,12,5995a02604d1ae427952bb78,Sushi Sashimi,51.5112531582845,-0.18758296966552734,Sushi Restaurant
444,51.5110695353338,-0.18753418322172286,30,13,4ae4598af964a520179a21e3,Kiasu,51.511928,-0.18743,Malay Restaurant
445,51.5110695353338,-0.18753418322172286,30,14,4ac518d4f964a520c1a720e3,Royal China,51.510886301495816,-0.18742182257503784,Dim Sum Restaurant
446,51.5110695353338,-0.18753418322172286,30,15,5bfd8651fdb9a7002c100e91,Green Olive Kitchen,51.511776,-0.18729061,Italian Restaurant
447,51.5110695353338,-0.18753418322172286,30,16,4dac8c3d4b22f071eae55584,Med Mezze,51.510901216048445,-0.1871671868979083,Moroccan Restaurant
448,51.5110695353338,-0.18753418322172286,30,17,56e458d8498eaca0d00124dd,Taste of India,51.51177684528928,-0.18748686738326126,Indian Restaurant
449,51.5110695353338,-0.18753418322172286,30,18,4bf7f79d4a67c928c97024cf,Ipanema Cafe,51.510739695406016,-0.18705007996500253,Brazilian Restaurant
450,51.5110695353338,-0.18753418322172286,30,19,5f2565fa97900e25c1e831a6,Ora Souvlaki,51.511509,-0.187516,Souvlaki Shop
451,51.5110695353338,-0.18753418322172286,30,20,5c264fd0febf31002c9d7b0e,Normah Cafe,51.510886,-0.187363,Malay Restaurant
452,51.5110695353338,-0.18753418322172286,30,21,4bb236252397b713c8b336b3,Maharaja,51.51193061335904,-0.18740429828614458,Indian Restaurant
453,51.5110695353338,-0.18753418322172286,30,22,500d784ae4b01eff323ede33,Калинка,51.51127796328273,-0.18746772637074097,Cajun / Creole Restaurant
454,51.5110695353338,-0.18753418322172286,30,23,5091656d3950422ec224fdb2,Little Persia,51.51155345906162,-0.1873800812020278,Hookah Bar
455,51.5110695353338,-0.18753418322172286,30,24,4ac518e4f964a520e8aa20e3,Curry Palace,51.51145263933806,-0.18726075414182997,Indian Restaurant
456,51.5110695353338,-0.18753418322172286,30,25,569e1a74498ed8c4e4a25242,La Estrella,51.510839,-0.187133,Tapas Restaurant
457,51.5110695353338,-0.18753418322172286,30,26,5e0c7d9bebba130007b7fd4a,Basilico,51.51186,-0.18742539,Italian Restaurant
458,51.5110695353338,-0.18753418322172286,30,27,5e0669f3e2d4e60008adf744,Casa Mia,51.511048,-0.187179,Italian Restaurant
459,51.5110695353338,-0.18753418322172286,30,28,4deba59e22713dd973b27c5f,Casa Brasil,51.511037320683506,-0.18708667214304806,Brazilian Restaurant
460,51.5110695353338,-0.18753418322172286,30,29,538b202e498e8301b31a3311,brazuk,51.51122215108515,-0.18744115269686362,Brazilian Restaurant
461,51.5122,-0.12779999999999997,38,0,5ba67aee8b98fd002c965baa,Mamasons,51.51195999897558,-0.12903328476724035,Ice Cream Shop
462,51.5122,-0.12779999999999997,38,1,5cbb206218d43b002c537637,Oseyo Shop,51.512177,-0.128484,Supermarket
463,51.5122,-0.12779999999999997,38,2,516094748302afa746c58951,Five Guys,51.511877,-0.1266335,Burger Joint
464,51.5122,-0.12779999999999997,38,3,5087fd05e4b0e363060d91b6,Wok to Walk,51.51160950457307,-0.12775868911232122,Noodle House
465,51.5122,-0.12779999999999997,38,4,5980dcd02e26804a157bb9a2,P. F. Chang's,51.51199505959357,-0.12791760307572986,Chinese Restaurant
466,51.5122,-0.12779999999999997,38,5,4d440bf1c3e5f04d0a219620,Bill's Restaurant,51.51255465283461,-0.12659992255283425,English Restaurant
467,51.5122,-0.12779999999999997,38,6,4b9d0b2cf964a520d18a36e3,Lanzhou Lamian Noodle Bar,51.51159579717915,-0.12785156321113017,Noodle House
468,51.5122,-0.12779999999999997,38,7,4cf551dec9af6dcbca23b17f,Sartori,51.511784,-0.128021,Italian Restaurant
469,51.5122,-0.12779999999999997,38,8,4c670d0baebea593601075d0,Bella Italia,51.511652,-0.126938,Italian Restaurant
470,51.5122,-0.12779999999999997,38,9,4b32869af964a520c70d25e3,Rossopomodoro,51.512966051369425,-0.12719048198713145,Italian Restaurant
471,51.5122,-0.12779999999999997,38,10,4b222edff964a520404424e3,Le Beaujolais,51.51275842546849,-0.1285974770497412,Wine Bar
472,51.5122,-0.12779999999999997,38,11,4c31c371a0ced13a150d146e,Dishoom,51.512383261762814,-0.12694895267486572,Indian Restaurant
473,51.5122,-0.12779999999999997,38,12,5c87b3b27d8497002ce0ae6b,Sushimania,51.512845,-0.128734,Sushi Restaurant
474,51.5122,-0.12779999999999997,38,13,4f4c4dfdbe77653fc3a6d645,Dalla Terra,51.51252,-0.126469,Wine Bar
475,51.5122,-0.12779999999999997,38,14,4ac518c2f964a52003a420e3,Salvador & Amanda,51.512037316111915,-0.12769213626023287,Tapas Restaurant
476,51.5122,-0.12779999999999997,38,15,4bbb47f8935e952151f72890,Simurgh,51.511713983706755,-0.12663049196754098,Persian Restaurant
477,51.5122,-0.12779999999999997,38,16,5c10e0201de76500398bf8e0,CoCo Ichibanya,51.51187523574878,-0.12780946320967984,Japanese Curry Restaurant
478,51.5122,-0.12779999999999997,38,17,5debb3f9b519ae00085567b3,28°-50° Wine Bar & Kitchen,51.512666,-0.127027,Modern European Restaurant
479,51.5122,-0.12779999999999997,38,18,54172b0f498e587dba2832f7,Tredwells,51.512276,-0.127321,English Restaurant
480,51.5122,-0.12779999999999997,38,19,5d98a047b9f78b000743fe4f,Dirty Ice Cream,51.51195,-0.12905248,Dessert Shop
481,51.5122,-0.12779999999999997,38,20,4b9e3916f964a520fdd236e3,Souk Bazaar,51.51273159760032,-0.12836771364648217,Hookah Bar
482,51.5122,-0.12779999999999997,38,21,4ce834858ef78cfa98d8989b,Pomorosso,51.512912,-0.127268,Italian Restaurant
483,51.5122,-0.12779999999999997,38,22,541c9a9b498e200546250acf,thredwell's,51.512266,-0.127123,English Restaurant
484,51.5122,-0.12779999999999997,38,23,5b20364c295513002c7d9568,RoRo | Dessert shop,51.511937,-0.128944,Dessert Shop
485,51.5122,-0.12779999999999997,38,24,53f281ef498eb0fece5c96f5,Buenos Aires Restaurant,51.51214763446181,-0.12851591867706347,Argentinian Restaurant
486,51.5122,-0.12779999999999997,38,25,4fe8b17ae4b02db7aefa33ed,Tapitas,51.511588,-0.12714,Tapas Restaurant
487,51.5122,-0.12779999999999997,38,26,587a6559e786b26b0d4ac920,Okonomiyaki,51.511765,-0.12791857,Japanese Restaurant
488,51.5122,-0.12779999999999997,38,27,4b1a6152f964a5208de923e3,Pizza rico,51.5118828,-0.128152,Pizza Place
489,51.5122,-0.12779999999999997,38,28,57655cb0498ec123bcbe3966,Lin Lin Snacks,51.511834,-0.128998,Cantonese Restaurant
490,51.5122,-0.12779999999999997,38,29,4c8140d46bd49521215abed2,Kyashii,51.512305569064914,-0.12713650321007364,Japanese Restaurant
491,51.5122,-0.12779999999999997,38,30,598cd8f16bd36b43bf7b3d31,Pfchangs,51.511915,-0.127785,Asian Restaurant
492,51.5122,-0.12779999999999997,38,31,4e9849f80aafaa1ef9182d8a,Spaghetti House,51.511789947077524,-0.12741540557045844,Italian Restaurant
493,51.5122,-0.12779999999999997,38,32,4de29a84ae60e7f3abf3bbc5,Bombay Cafe,51.51225679503778,-0.1272588714484908,Indian Restaurant
494,51.5122,-0.12779999999999997,38,33,5307bf12498e14108b815fa7,Padano,51.51152420043945,-0.12794670462608337,Italian Restaurant
495,51.5122,-0.12779999999999997,38,34,4c1d222663750f47fbbbb767,Cantina Laredo,51.51273627,-0.12685285,Mexican Restaurant
496,51.5122,-0.12779999999999997,38,35,54f9ef4e498e149bb0b7a88d,Clover Cafe,51.512027740478516,-0.1284734606742859,Dessert Shop
497,51.5122,-0.12779999999999997,38,36,586ec8da3ef0f66411a239ea,Chinese Tapas House,51.511716,-0.128633,Chinese Restaurant
498,51.5122,-0.12779999999999997,38,37,4b5344aef964a5200c9527e3,The Ivy Restaurant,51.51279973860704,-0.12798146580711955,English Restaurant
499,51.5133304646662,-0.12960427831673862,30,0,4ed6889602d570286e21deef,eat TOKYO,51.51363638661899,-0.13019298188938558,Sushi Restaurant
500,51.5133304646662,-0.12960427831673862,30,1,54df8361498e81ce00b48210,Shack-Fuyu,51.51365493947196,-0.13013031044505172,Yoshoku Restaurant
501,51.5133304646662,-0.12960427831673862,30,2,5d3dcd393eeddd0008cfc7da,Wun's Tea Room & Bar,51.513547,-0.130442,Cocktail Bar
502,51.5133304646662,-0.12960427831673862,30,3,4ac518bef964a52006a320e3,Cafe Boheme,51.51344529257171,-0.13053769034350848,French Restaurant
503,51.5133304646662,-0.12960427831673862,30,4,519683eb498e730763b6d3f7,Dozo,51.51330271089248,-0.1310141002193629,Sushi Restaurant
504,51.5133304646662,-0.12960427831673862,30,5,5bc0f6af38f216002577aac7,Berenjak,51.513027,-0.130632,Persian Restaurant
505,51.5133304646662,-0.12960427831673862,30,6,4bfa6e20508c0f47e40e4031,BiBimBap,51.513775,-0.130613,Korean Restaurant
506,51.5133304646662,-0.12960427831673862,30,7,59e85fbd6e4650734436499a,Shake Shack Soho,51.51331319280172,-0.12910283680030188,Burger Joint
507,51.5133304646662,-0.12960427831673862,30,8,5f580cfc53c2ca288d8e4a40,Louie,51.513078,-0.128436,Cajun / Creole Restaurant
508,51.5133304646662,-0.12960427831673862,30,9,4b222edff964a520404424e3,Le Beaujolais,51.51275842546849,-0.1285974770497412,Wine Bar
509,51.5133304646662,-0.12960427831673862,30,10,5c87b3b27d8497002ce0ae6b,Sushimania,51.512845,-0.128734,Sushi Restaurant
510,51.5133304646662,-0.12960427831673862,30,11,5d5588c3a3074b000841fa09,Mr. Meng 孟非的面 (Mr. Meng),51.514007,-0.129618,Noodle House
511,51.5133304646662,-0.12960427831673862,30,12,5a188746fdb9a744f4e5d466,Kettner's Townhouse,51.51306913270356,-0.1305477874888728,Hotel
512,51.5133304646662,-0.12960427831673862,30,13,561aa3e9498e263f862c9be9,Limoncello - Ristorante Italiano,51.51355413677462,-0.13011137957349006,Italian Restaurant
513,51.5133304646662,-0.12960427831673862,30,14,52cea978498ebbcc1a91f448,Freebird Burrito Cart,51.513034288643084,-0.12976039120416494,Mexican Restaurant
514,51.5133304646662,-0.12960427831673862,30,15,585a835de309e16a0c79e675,Temakinho,51.51375329006132,-0.12993328509625185,Sushi Restaurant
515,51.5133304646662,-0.12960427831673862,30,16,4dacc0801e72c4e8dcaebefd,Kyoto Sushi,51.51311998394283,-0.13077621495075226,Sushi Restaurant
516,51.5133304646662,-0.12960427831673862,30,17,506ecf5ae4b03cb917c7a1e8,Cappuccetto,51.513531436488165,-0.1300327329480537,Italian Restaurant
517,51.5133304646662,-0.12960427831673862,30,18,4da6e22443a102190d749884,Thai Food Stall,51.51360347495665,-0.1284027099609375,Thai Restaurant
518,51.5133304646662,-0.12960427831673862,30,19,5400ba65498ed1a74db88112,Il Cucciolo,51.513814,-0.129901,Italian Restaurant
519,51.5133304646662,-0.12960427831673862,30,20,4b3b97edf964a5209d7625e3,La Porchetta Pollo Bar,51.5135490283269,-0.13029066153454005,Italian Restaurant
520,51.5133304646662,-0.12960427831673862,30,21,53936845498e7b5d5b8b4a6c,La Bodega Negra,51.51362350554352,-0.12992888689041138,Mexican Restaurant
521,51.5133304646662,-0.12960427831673862,30,22,4d835ae45e70224bec7af508,Nili's,51.512973,-0.130746,Mexican Restaurant
522,51.5133304646662,-0.12960427831673862,30,23,4be483c62468c92857e2fe42,Tiger Spice,51.513293,-0.130983,Indian Restaurant
523,51.5133304646662,-0.12960427831673862,30,24,4f58871de4b0a386de409b3a,La Bodega Negra,51.51353336783326,-0.12984037399291992,Mexican Restaurant
524,51.5133304646662,-0.12960427831673862,30,25,4bee8a442c082d7fa1833042,Melanie,51.51380117058151,-0.12970670206781798,Italian Restaurant
525,51.5133304646662,-0.12960427831673862,30,26,4da8a7df1e72d9bb474b2ef7,Jamon Jamon,51.51392624235572,-0.1294224290709844,Spanish Restaurant
526,51.5133304646662,-0.12960427831673862,30,27,4bad0125f964a52075233be3,Viet Pho,51.512953800371946,-0.1300715759556283,Vietnamese Restaurant
527,51.5133304646662,-0.12960427831673862,30,28,5ade0bea037be15e3f49d58d,Pleasant Lady Jian Bing Trading Stall,51.51384,-0.130737,Chinese Restaurant
528,51.5133304646662,-0.12960427831673862,30,29,4b26b53cf964a520d57f24e3,Y Ming,51.51310027491928,-0.13017206650959606,Chinese Restaurant
529,51.5110695353338,-0.12960427831673862,25,0,58d9936ec960270e27efc7cd,Bun House,51.51171805653647,-0.12982293963432312,Asian Restaurant
530,51.5110695353338,-0.12960427831673862,25,1,4b072d9ef964a520ecf822e3,Imperial China,51.511786947545964,-0.12991406283860793,Dim Sum Restaurant
531,51.5110695353338,-0.12960427831673862,25,2,592fffc69e3b652802c1fec5,Maison Du Mezze,51.510910969935374,-0.12979305367093963,Lebanese Restaurant
532,51.5110695353338,-0.12960427831673862,25,3,4b77ffe0f964a5208ab12ee3,Super Star | 鴻星,51.511465314497485,-0.13044430592395442,Chinese Restaurant
533,51.5110695353338,-0.12960427831673862,25,4,4bae00f6f964a520fa793be3,Bella Italia,51.51118333069542,-0.12957493005944798,Italian Restaurant
534,51.5110695353338,-0.12960427831673862,25,5,4ac518d4f964a520bea720e3,Tokyo Diner,51.5118316047881,-0.12941593486803024,Japanese Restaurant
535,51.5110695353338,-0.12960427831673862,25,6,4dab3d606e81162ae7e8c4db,Beijing Dumpling,51.51163783017435,-0.13005257547176619,Dumpling Restaurant
536,51.5110695353338,-0.12960427831673862,25,7,4db549dccda1c57c826ad233,Café Fiori,51.51128033777337,-0.1285963912552437,Italian Restaurant
537,51.5110695353338,-0.12960427831673862,25,8,4f1c1b94e4b07beffea0e340,陶陶居| Tao Tao Ju,51.51148400747064,-0.1305159786362443,Chinese Restaurant
538,51.5110695353338,-0.12960427831673862,25,9,55b91ec7498e0e92527e3b36,福榕美食 Gourmet Kitchen,51.5116895000249,-0.12985173453645327,Chinese Restaurant
539,51.5110695353338,-0.12960427831673862,25,10,5f1c40f53caa1957eed69001,Five Friends Desserts,51.511318,-0.128451,Chinese Restaurant
540,51.5110695353338,-0.12960427831673862,25,11,4b48b2f2f964a5203e5326e3,Okawari Japanese Restaurant,51.511496,-0.13049985,Japanese Restaurant
541,51.5110695353338,-0.12960427831673862,25,12,4b7b580af964a520275f2fe3,Young Cheng | 羊城,51.5115930532245,-0.13012823774559798,Chinese Restaurant
542,51.5110695353338,-0.12960427831673862,25,13,5a094ac810345b3169b1c8df,Petit Bistro,51.51130657591914,-0.12845635414123535,French Restaurant
543,51.5110695353338,-0.12960427831673862,25,14,4aff6c05f964a520663822e3,Chiquito,51.510749488709244,-0.12948848252966044,Mexican Restaurant
544,51.5110695353338,-0.12960427831673862,25,15,4cb2fba4eb65b1f7071880cd,Entrecote Tortilla,51.51148493304069,-0.12901243719606095,Mexican Restaurant
545,51.5110695353338,-0.12960427831673862,25,16,57655cb0498ec123bcbe3966,Lin Lin Snacks,51.511834,-0.128998,Cantonese Restaurant
546,51.5110695353338,-0.12960427831673862,25,17,4fd4fe6fe4b065401b3cc338,Fulushou,51.511211010343466,-0.13069949070307169,Chinese Restaurant
547,51.5110695353338,-0.12960427831673862,25,18,5728ec78498e8054a6ed186d,小木屋 英国第一正宗韩式烧烤,51.511657127592265,-0.1300978660583496,Chinese Restaurant
548,51.5110695353338,-0.12960427831673862,25,19,54189c64498ef464c96d162c,Espresso Bar Pizzeria,51.511126,-0.129271,Café
549,51.5110695353338,-0.12960427831673862,25,20,4c96066af244b1f72db6301d,HongKongBuffet,51.511521148062634,-0.13073322440890392,Asian Restaurant
550,51.5110695353338,-0.12960427831673862,25,21,58261bbbb39f9613c1257fd4,农家庄 Bao & Noodle,51.51148845072631,-0.1305228709579739,Chinese Restaurant
551,51.5110695353338,-0.12960427831673862,25,22,4acf2df7f964a5209bd220e3,Okawari sushi,51.51172513925449,-0.12996103001495413,Sushi Restaurant
552,51.5110695353338,-0.12960427831673862,25,23,5f6c7c8241a2960fceba0b3d,The Bosporus,51.510938,-0.130226,Turkish Restaurant
553,51.5110695353338,-0.12960427831673862,25,24,586ec8da3ef0f66411a239ea,Chinese Tapas House,51.511716,-0.128633,Chinese Restaurant
554,51.5133304646662,-0.1259957216832613,20,0,51faba98498e75e40adf9e24,Flesh & Buns,51.5139971681231,-0.1256969248651324,Japanese Restaurant
555,51.5133304646662,-0.1259957216832613,20,1,4d440bf1c3e5f04d0a219620,Bill's Restaurant,51.51255465283461,-0.12659992255283425,English Restaurant
556,51.5133304646662,-0.1259957216832613,20,2,4b32869af964a520c70d25e3,Rossopomodoro,51.512966051369425,-0.12719048198713145,Italian Restaurant
557,51.5133304646662,-0.1259957216832613,20,3,5aff613cbf7dde002cad1f1d,Temper Covent Garden,51.51304945490075,-0.12581441302443588,Italian Restaurant
558,51.5133304646662,-0.1259957216832613,20,4,4ae89dc6f964a520e4b021e3,Cafe Pacifico,51.51308404575692,-0.12506766082149787,Mexican Restaurant
559,51.5133304646662,-0.1259957216832613,20,5,4f4c4dfdbe77653fc3a6d645,Dalla Terra,51.51252,-0.126469,Wine Bar
560,51.5133304646662,-0.1259957216832613,20,6,5d76dce5fac4a80008cb88e5,Yum Bun,51.51390727124453,-0.12592434883117676,Chinese Restaurant
561,51.5133304646662,-0.1259957216832613,20,7,5d76df9c70b7e30007093db1,El Pollote,51.51390727124453,-0.12592434883117676,Venezuelan Restaurant
562,51.5133304646662,-0.1259957216832613,20,8,5d76dcb8f290e10008e775ce,Club Mexicana,51.51390727124453,-0.12592434883117676,Mexican Restaurant
563,51.5133304646662,-0.1259957216832613,20,9,4ce834858ef78cfa98d8989b,Pomorosso,51.512912,-0.127268,Italian Restaurant
564,51.5133304646662,-0.1259957216832613,20,10,536f6d83498e07efff00f839,Pub de Papadopoulos,51.51298825975554,-0.12486197977222879,Mediterranean Restaurant
565,51.5133304646662,-0.1259957216832613,20,11,4c6ae0c9e503c928a3ba46b3,La Quercia D'oro,51.514026,-0.125079,Italian Restaurant
566,51.5133304646662,-0.1259957216832613,20,12,5d76df74cda09f00084d44fd,Yin引,51.51390727124453,-0.12592434883117676,Chinese Restaurant
567,51.5133304646662,-0.1259957216832613,20,13,5d76e1a470b7e300070f3a1c,Wheelcake Island,51.51390727124453,-0.12592434883117676,Asian Restaurant
568,51.5133304646662,-0.1259957216832613,20,14,5a33d003535d6f0cd005ec37,Imad's Syrian Kitchen,51.51348,-0.12709278,Syrian Restaurant
569,51.5133304646662,-0.1259957216832613,20,15,5d76ddb066af470008e874c1,Nanban,51.51390727124453,-0.12592434883117676,Ramen Restaurant
570,51.5133304646662,-0.1259957216832613,20,16,5d76de0dfac4a80008cebb4e,Strozzapretti,51.51390727124453,-0.12592434883117676,Italian Restaurant
571,51.5133304646662,-0.1259957216832613,20,17,5280e3cc498e9cdc3d5ca066,Earlham Street Clubhouse,51.51382511732139,-0.1267067167453115,American Restaurant
572,51.5133304646662,-0.1259957216832613,20,18,5d76dd157c9b3d0008bd81b2,Rice Guys,51.51390727124453,-0.12592434883117676,Chinese Restaurant
573,51.5133304646662,-0.1259957216832613,20,19,4c1d222663750f47fbbbb767,Cantina Laredo,51.51273627,-0.12685285,Mexican Restaurant
574,51.5110695353338,-0.1259957216832613,30,0,53c5768e498ee3d21e84d52e,Lima Floral,51.511740805710055,-0.12602158256259277,Peruvian Restaurant
575,51.5110695353338,-0.1259957216832613,30,1,516094748302afa746c58951,Five Guys,51.511877,-0.1266335,Burger Joint
576,51.5110695353338,-0.1259957216832613,30,2,4c3ca78715cb1b8dc6e77adc,Benito's Hat,51.511133250178204,-0.12592379248934465,Burrito Place
577,51.5110695353338,-0.1259957216832613,30,3,4c670d0baebea593601075d0,Bella Italia,51.511652,-0.126938,Italian Restaurant
578,51.5110695353338,-0.1259957216832613,30,4,4dd909f91f6ee1468349b6e9,Côte Brasserie,51.51065302606203,-0.12695013670196345,French Restaurant
579,51.5110695353338,-0.1259957216832613,30,5,58c575e4260327384ab298a9,wagamama,51.5107924558986,-0.12472129194213721,Asian Restaurant
580,51.5110695353338,-0.1259957216832613,30,6,5b13e1500a08ab002caa9cca,Old Chang Kee,51.511174935451585,-0.1256740411824454,Singaporean Restaurant
581,51.5110695353338,-0.1259957216832613,30,7,5ae5eb4c840fc2002c6b06bf,The Petersham,51.51168920136621,-0.12507868338549996,Italian Restaurant
582,51.5110695353338,-0.1259957216832613,30,8,56262536498e67dd3275e94c,The Real Greek,51.51078107160909,-0.12700292378034148,Greek Restaurant
583,51.5110695353338,-0.1259957216832613,30,9,4ec7b6a82c5b532d06e5fe1e,Com Viet,51.51146278785446,-0.12571193765608177,Vietnamese Restaurant
584,51.5110695353338,-0.1259957216832613,30,10,4bbb47f8935e952151f72890,Simurgh,51.511713983706755,-0.12663049196754098,Persian Restaurant
585,51.5110695353338,-0.1259957216832613,30,11,4ad083f6f964a5204cd820e3,Le Garrick Brasserie,51.51156664979657,-0.12611486525587193,French Restaurant
586,51.5110695353338,-0.1259957216832613,30,12,5b61b0151ffe97002cedfb8d,WA Japanese Patisserie,51.511122,-0.126436,Dessert Shop
587,51.5110695353338,-0.1259957216832613,30,13,500461f5e4b077d3511615ff,Chipotle Mexican Grill,51.5107927,-0.1271657,Mexican Restaurant
588,51.5110695353338,-0.1259957216832613,30,14,4ad854c6f964a5200c1121e3,Tobiko,51.51152892312729,-0.1258699331571834,Sushi Restaurant
589,51.5110695353338,-0.1259957216832613,30,15,5aeb16626f0aa2002c2e284e,La Goccia,51.51166316283255,-0.12517097172175842,Italian Restaurant
590,51.5110695353338,-0.1259957216832613,30,16,4b4f8d20f964a520170b27e3,The Grand Indian,51.51109845704908,-0.1263445519911985,Indian Restaurant
591,51.5110695353338,-0.1259957216832613,30,17,4c6a8010897b1b8d59d9b117,LebanEats,51.511076,-0.126503,Middle Eastern Restaurant
592,51.5110695353338,-0.1259957216832613,30,18,4c7eb49101df3704dd15e4ac,Cafe Pasta,51.511405,-0.125459,Italian Restaurant
593,51.5110695353338,-0.1259957216832613,30,19,56fbfe72498e73270f38f7a7,santori,51.511293,-0.126918,Italian Restaurant
594,51.5110695353338,-0.1259957216832613,30,20,4fe8b17ae4b02db7aefa33ed,Tapitas,51.511588,-0.12714,Tapas Restaurant
595,51.5110695353338,-0.1259957216832613,30,21,4ac518dff964a520dba920e3,Tale of India,51.511010997696495,-0.1258464450691785,Indian Restaurant
596,51.5110695353338,-0.1259957216832613,30,22,5cab8be206fb60002c2566fe,Yaki Yaki,51.511136,-0.126432,Creperie
597,51.5110695353338,-0.1259957216832613,30,23,513e0ecb19a9252224b6cb00,Koshari Street,51.51088902484121,-0.12700505770054704,African Restaurant
598,51.5110695353338,-0.1259957216832613,30,24,4b5c50a5f964a520ad2a29e3,Pasta Brown,51.51103725988029,-0.12479442091989978,Italian Restaurant
599,51.5110695353338,-0.1259957216832613,30,25,4dd15b09d4c065592fc433d5,Pepe Italian Street Food,51.510925328709014,-0.1270326607935119,Italian Restaurant
600,51.5110695353338,-0.1259957216832613,30,26,5e6698486921be0007b83426,The Nitery,51.510567,-0.12648828,French Restaurant
601,51.5110695353338,-0.1259957216832613,30,27,5fb92b2ef5a0407bc1f5cc45,Darjeeling Express,51.511416,-0.1253,Indian Restaurant
602,51.5110695353338,-0.1259957216832613,30,28,533177e3498eebc4f7947025,Jamaica Patty Co,51.5110665601068,-0.12674616000064073,Caribbean Restaurant
603,51.5110695353338,-0.1259957216832613,30,29,4b030283f964a520dc4b22e3,Giovanni's,51.511118029278876,-0.12607709081407542,Italian Restaurant
604,51.5122,-0.08164615384615381,7,0,4ac518ddf964a52066a920e3,Bolton's,51.51210650073094,-0.08290341797279391,Italian Restaurant
605,51.5122,-0.08164615384615381,7,1,5a5f4230a0215b43652e976b,Hop Vietnamese,51.51223150502706,-0.08273137266330004,Vietnamese Restaurant
606,51.5122,-0.08164615384615381,7,2,57ea554e498e0c66e3486459,OIE Truly Thai,51.511598557085684,-0.08263996432201753,Thai Restaurant
607,51.5122,-0.08164615384615381,7,3,502a6da3e4b0075a196dc6b0,Giorgios Restaurant Leadenhall,51.5121773844037,-0.08238392386425071,Italian Restaurant
608,51.5122,-0.08164615384615381,7,4,4ec5175f8b812a2064e17b1f,Boltons,51.51206505122534,-0.08177735707829377,Italian Restaurant
609,51.5122,-0.08164615384615381,7,5,50bc96a3e4b03e84dc49b12e,Poncho 8,51.51203816432582,-0.08250818869182218,Burrito Place
610,51.5122,-0.08164615384615381,7,6,4bbc764751b89c749c67872a,itsu,51.51254161662386,-0.08130284105823357,Sushi Restaurant
611,51.5133304646662,-0.08345043216289248,16,0,59c39f35e1f0aa5ccaa06d86,Wok It,51.513176,-0.08443996,Chinese Restaurant
612,51.5133304646662,-0.08345043216289248,16,1,5b34cebd0d8a0f002cf372d7,Badolina,51.512505,-0.08378081,Mediterranean Restaurant
613,51.5133304646662,-0.08345043216289248,16,2,4d626470e4fe5481dbd9959e,Osteria Del Mercato,51.512763180909594,-0.08327305773571361,Italian Restaurant
614,51.5133304646662,-0.08345043216289248,16,3,5cc98d0af5e9d7002c584efc,Ceylon Spice Kitchen,51.513746,-0.082563,Food Truck
615,51.5133304646662,-0.08345043216289248,16,4,4c91e53aaa03b7138e2927f5,Tortilla,51.51277283446423,-0.08319648861903668,Burrito Place
616,51.5133304646662,-0.08345043216289248,16,5,4bb4f53329269c748be0ca92,Ortega Tapas Bar,51.51282828867012,-0.08340057665003142,Tapas Restaurant
617,51.5133304646662,-0.08345043216289248,16,6,4b4dc690f964a52074d726e3,Noto Sushi,51.51301980207195,-0.0834454150670698,Sushi Restaurant
618,51.5133304646662,-0.08345043216289248,16,7,4ac518d9f964a520c6a820e3,Luc's Brasserie,51.512808425543525,-0.0835361937144659,French Restaurant
619,51.5133304646662,-0.08345043216289248,16,8,58c68e8926a4073d6dca35cc,Sushi Gourmet,51.512784,-0.083535,Sushi Restaurant
620,51.5133304646662,-0.08345043216289248,16,9,5c7e5d2751950e002c82990d,Love Burger,51.512802,-0.083162,Burger Joint
621,51.5133304646662,-0.08345043216289248,16,10,5162aea9e4b0d7d62d7d69a8,Abokado,51.513470177359494,-0.08461082017662432,Sushi Restaurant
622,51.5133304646662,-0.08345043216289248,16,11,5e73488ff5f127000816862e,La Tasca London Leadenhall Market,51.5127138,-0.08340929999999999,Tapas Restaurant
623,51.5133304646662,-0.08345043216289248,16,12,541d9b0a498ee81c3cac872f,La Tasca,51.512734,-0.083331,Tapas Restaurant
624,51.5133304646662,-0.08345043216289248,16,13,52ab6a2e11d265c5160a34c3,The Rajastan,51.51282975599531,-0.08361695898428624,Indian Restaurant
625,51.5133304646662,-0.08345043216289248,16,14,5e32cd596afb430008272f18,Rocoto,51.513598,-0.08247,Peruvian Restaurant
626,51.5133304646662,-0.08345043216289248,16,15,59b11f67018cbb060fcab7dc,Wokit,51.513355,-0.084520765,Asian Restaurant
627,51.5110695353338,-0.08345043216289248,19,0,4dfa48bbd22d964c6b9c82a1,Darwin Brasserie,51.511229566213856,-0.08344765677383478,English Restaurant
628,51.5110695353338,-0.08345043216289248,19,1,5f71e06e0dcc7f03b1c9022b,Momo Canteen,51.511627,-0.08309517,Asian Restaurant
629,51.5110695353338,-0.08345043216289248,19,2,56bb7c02498e6614c33a8e3f,Wasabi,51.51168041262316,-0.08383727169494912,Japanese Restaurant
630,51.5110695353338,-0.08345043216289248,19,3,59b7d30c1acf117564abcb42,Waka,51.510707,-0.083636,Sushi Restaurant
631,51.5110695353338,-0.08345043216289248,19,4,57ea554e498e0c66e3486459,OIE Truly Thai,51.511598557085684,-0.08263996432201753,Thai Restaurant
632,51.5110695353338,-0.08345043216289248,19,5,5cdea0fab3c961002c7f6375,Unimini,51.510732,-0.083575,Korean Restaurant
633,51.5110695353338,-0.08345043216289248,19,6,548328d5498e202d0f36b9ff,Fenchurch Restaurant,51.511219627448654,-0.08357441852960269,English Restaurant
634,51.5110695353338,-0.08345043216289248,19,7,55acf4c7498eb3b7b90df5d6,K Place,51.51058595739781,-0.08325853117293387,Korean Restaurant
635,51.5110695353338,-0.08345043216289248,19,8,53b5405a498ecca7432f8713,Sushi Takeaway,51.51145935058594,-0.08375474065542221,Sushi Restaurant
636,51.5110695353338,-0.08345043216289248,19,9,52a1d4a811d2606569c23234,mori,51.51115491858698,-0.08266665760626374,Sushi Restaurant
637,51.5110695353338,-0.08345043216289248,19,10,52a1da2c11d2ad7328f7e8f7,Abokado,51.51149547243135,-0.08328039643824343,Sushi Restaurant
638,51.5110695353338,-0.08345043216289248,19,11,5d8c69f8da635b00080bd291,Shuro Shirin,51.510747,-0.083946,Persian Restaurant
639,51.5110695353338,-0.08345043216289248,19,12,51961e01498e283d79edffb0,Pho Xua,51.510817814754034,-0.08334130915239155,Vietnamese Restaurant
640,51.5110695353338,-0.08345043216289248,19,13,544110c3498e14c9814ebab2,Salotto Roda,51.510421,-0.083778,Italian Restaurant
641,51.5110695353338,-0.08345043216289248,19,14,4bcf603bb221c9b6f6e9d1d0,Spice Trader,51.51103847345543,-0.08399595276101574,Indian Restaurant
642,51.5110695353338,-0.08345043216289248,19,15,528fb6d811d2e62de26d0522,Salotto And Roda,51.51044271345216,-0.08364424357176338,Italian Restaurant
643,51.5110695353338,-0.08345043216289248,19,16,59e73efb6bdee6069e0db754,Baygo,51.510761,-0.083828,Caribbean Restaurant
644,51.5110695353338,-0.08345043216289248,19,17,4df9e831aeb785aedbeffc6d,Barcelona Tapas,51.51177685459459,-0.08372774393553147,Spanish Restaurant
645,51.5110695353338,-0.08345043216289248,19,18,52e6575a498efa10f8f622f3,Jamdani,51.510735769434675,-0.08322633195136254,Indian Restaurant
646,51.5133304646662,-0.07984187552941514,5,0,4ac518def964a520d4a920e3,Adriatico,51.513872,-0.07875,Pizza Place
647,51.5133304646662,-0.07984187552941514,5,1,528cb52b498ecaf72864514f,Osteria Adriatico,51.513974,-0.078883,Italian Restaurant
648,51.5133304646662,-0.07984187552941514,5,2,4c2b9417b34ad13ad501eace,Anokha,51.51375482882119,-0.07923020156645716,Indian Restaurant
649,51.5133304646662,-0.07984187552941514,5,3,4ac518d5f964a52009a820e3,Caravaggio,51.513546170652454,-0.08087234735743551,Italian Restaurant
650,51.5133304646662,-0.07984187552941514,5,4,4c65392694160f47e7bf2e17,The Japanese Canteen,51.513775,-0.079079,Japanese Restaurant
651,51.5110695353338,-0.07984187552941514,8,0,4ac518ddf964a5207ca920e3,Le Paris Grill - Tower Hill,51.511194,-0.078997,French Restaurant
652,51.5110695353338,-0.07984187552941514,8,1,5bbb523c20dc640025b1b6b7,Gupta's Bombay Street Food,51.511665,-0.079444684,Indian Restaurant
653,51.5110695353338,-0.07984187552941514,8,2,5cd17488234724002c50b36b,Las Banderas,51.511395,-0.080486,Spanish Restaurant
654,51.5110695353338,-0.07984187552941514,8,3,5896239e3bd4ab768ab1992b,La Dame de Pic,51.51034483240141,-0.07902694407504281,French Restaurant
655,51.5110695353338,-0.07984187552941514,8,4,55131129498efb428be8853b,Mas Q Menos,51.51168802874882,-0.0797467365440871,Tapas Restaurant
656,51.5110695353338,-0.07984187552941514,8,5,585a858883622d0395c7db89,Roma,51.511147,-0.079282,Italian Restaurant
657,51.5110695353338,-0.07984187552941514,8,6,4ac518e3f964a520afaa20e3,The Lampery,51.510519524126835,-0.07907277646536609,English Restaurant
658,51.5110695353338,-0.07984187552941514,8,7,5da85211a0f6b300080962a7,Kirin Restaurant,51.511291,-0.079413,Japanese Restaurant
659,51.514460929332394,-0.16217778740270808,20,0,4d4effae94398cfaeb61a2c8,Al Balad,51.51431885517458,-0.16166283147816107,Lebanese Restaurant
660,51.514460929332394,-0.16217778740270808,20,1,4c36328e93db0f47ada91d92,Ranoush,51.5149972860604,-0.16263320457271924,Middle Eastern Restaurant
661,51.514460929332394,-0.16217778740270808,20,2,4e598b451495a891128136df,Saffron Restaurant,51.51507649417647,-0.16252760152127538,Middle Eastern Restaurant
662,51.514460929332394,-0.16217778740270808,20,3,4d123ae6ffa1224b89b897ad,Vinoteca,51.514900393937516,-0.16122418099823113,Wine Bar
663,51.514460929332394,-0.16217778740270808,20,4,4ac518e0f964a52018aa20e3,Maroush Gardens,51.515010107491534,-0.16308040904365137,Lebanese Restaurant
664,51.514460929332394,-0.16217778740270808,20,5,4bc4f7b25e0ab713eec445eb,Maroush Express,51.51498818261396,-0.16268047632848473,Lebanese Restaurant
665,51.514460929332394,-0.16217778740270808,20,6,4ac518e0f964a52014aa20e3,Maroush,51.514556231014815,-0.1620483036476684,Lebanese Restaurant
666,51.514460929332394,-0.16217778740270808,20,7,5acf41d279f6c765b29c2ed4,Kalimera Van,51.51528794234996,-0.16264973877358077,Food Truck
667,51.514460929332394,-0.16217778740270808,20,8,5110361de4b04cfd4366dbff,القبندي & مندني,51.515023,-0.162475,Brazilian Restaurant
668,51.514460929332394,-0.16217778740270808,20,9,4c82c6ba74d7b60c8b0684d8,Soraya'Z,51.514145343599836,-0.16126432038758887,Asian Restaurant
669,51.514460929332394,-0.16217778740270808,20,10,4b92b557f964a520c71334e3,Sidi Maarouf,51.51469194371876,-0.16225129879158384,Moroccan Restaurant
670,51.514460929332394,-0.16217778740270808,20,11,55f81250498e98d120605d54,Bernardi's,51.5143933922487,-0.16104561312704402,Italian Restaurant
671,51.514460929332394,-0.16217778740270808,20,12,5b92e79107190200259d8088,Nanerj Restaurant,51.514811,-0.16222,Middle Eastern Restaurant
672,51.514460929332394,-0.16217778740270808,20,13,4dce865f22718eed7a399261,Ristorante Italiano,51.5148109776535,-0.16145857575408198,Italian Restaurant
673,51.514460929332394,-0.16217778740270808,20,14,4ac518e0f964a52023aa20e3,Arturo,51.515036111888875,-0.16286665569940179,Indian Restaurant
674,51.514460929332394,-0.16217778740270808,20,15,5172e228498e82cea36539d1,Pakhtoon,51.51403267534604,-0.16117310047726552,Indian Restaurant
675,51.514460929332394,-0.16217778740270808,20,16,5a9d76c21cf2e17218208952,Bernadi's,51.51442305260979,-0.16113236546516418,Italian Restaurant
676,51.514460929332394,-0.16217778740270808,20,17,4f32c8b3e4b0f6064c92c2b6,Sitt A Sham Restaurant,51.514751036247084,-0.1623992022348812,Middle Eastern Restaurant
677,51.514460929332394,-0.16217778740270808,20,18,4c951c56533aa093a8f4c545,fishmonger,51.514983773231506,-0.16119003295898438,French Restaurant
678,51.514460929332394,-0.16217778740270808,20,19,4fa33ff9e4b0dd0f110011e6,Donostia,51.51470370070995,-0.16110150614785657,Spanish Restaurant
679,51.51559139399859,-0.16398215527259946,20,0,4b9bf706f964a520533b36e3,Al Dar,51.515538870575554,-0.16360584837755993,Lebanese Restaurant
680,51.51559139399859,-0.16398215527259946,20,1,4ac518e0f964a52018aa20e3,Maroush Gardens,51.515010107491534,-0.16308040904365137,Lebanese Restaurant
681,51.51559139399859,-0.16398215527259946,20,2,4b9be660f964a520613336e3,Shishawi,51.51534204358679,-0.16329088104215317,Middle Eastern Restaurant
682,51.51559139399859,-0.16398215527259946,20,3,4bb796fd314e9521d35c479d,Palm Palace,51.5153701365297,-0.16336783972545818,Middle Eastern Restaurant
683,51.51559139399859,-0.16398215527259946,20,4,4efba147e300d0dc2fffa6d1,Sannin Lebanese Mezza & Grills Restaurant,51.51566281016474,-0.16381403455893961,Lebanese Restaurant
684,51.51559139399859,-0.16398215527259946,20,5,5acf41d279f6c765b29c2ed4,Kalimera Van,51.51528794234996,-0.16264973877358077,Food Truck
685,51.51559139399859,-0.16398215527259946,20,6,4cf4f462899c6ea8f43d03c2,Halal Restaurant,51.51612054561043,-0.16431938347968725,Middle Eastern Restaurant
686,51.51559139399859,-0.16398215527259946,20,7,5a6e2b18c876c851adb5069b,ALOMDA RESTURANT LONDON,51.516245,-0.164737,Kosher Restaurant
687,51.51559139399859,-0.16398215527259946,20,8,4bf3d22398ac0f47ce3763a8,Maroush Deli,51.5151722585359,-0.1631397705405192,Lebanese Restaurant
688,51.51559139399859,-0.16398215527259946,20,9,4c5ab9b0ec2520a1721f5212,Red pepper,51.515692,-0.163134,Italian Restaurant
689,51.51559139399859,-0.16398215527259946,20,10,4ac518e0f964a52023aa20e3,Arturo,51.515036111888875,-0.16286665569940179,Indian Restaurant
690,51.51559139399859,-0.16398215527259946,20,11,5924b63a1c0b34629c091e6b,Butifarra,51.516167,-0.164984,Peruvian Restaurant
691,51.51559139399859,-0.16398215527259946,20,12,51af6ba2498e88a0a3897e08,مطعم احلي جمعه,51.516391,-0.164333,American Restaurant
692,51.51559139399859,-0.16398215527259946,20,13,4c23a30dc11dc9b67e2a2424,Sannin,51.51563,-0.163664,Middle Eastern Restaurant
693,51.51559139399859,-0.16398215527259946,20,14,57c9eb3ccd10736c0d6b7853,pasta promo,51.516365,-0.164648,Italian Restaurant
694,51.51559139399859,-0.16398215527259946,20,15,5724f124498e94e2f1db050c,Al Arez Express I,51.516383,-0.164656,Lebanese Restaurant
695,51.51559139399859,-0.16398215527259946,20,16,4bd482795631c9b6a47ba230,Abu Zaad,51.516307,-0.16462,Middle Eastern Restaurant
696,51.51559139399859,-0.16398215527259946,20,17,4ac518d5f964a520f8a720e3,The Iran,51.51546979142851,-0.1635156406549321,Middle Eastern Restaurant
697,51.51559139399859,-0.16398215527259946,20,18,5380193e498e54e075c53aea,shishawe edgware road,51.51500971249334,-0.16335159312305572,Middle Eastern Restaurant
698,51.51559139399859,-0.16398215527259946,20,19,5a8f3a37898bdc0600f0ec2c,كشري العمده,51.516349,-0.164542,Middle Eastern Restaurant
699,51.51559139399859,-0.1603734195328167,7,0,4d123ae6ffa1224b89b897ad,Vinoteca,51.514900393937516,-0.16122418099823113,Wine Bar
700,51.51559139399859,-0.1603734195328167,7,1,5b78982565cdf8002c3f0bae,Hankies By Montcalm,51.515432,-0.159538,Thai Restaurant
701,51.51559139399859,-0.1603734195328167,7,2,5e2b584aa1f8b800070089d2,Tokii,51.516025,-0.160176,Japanese Restaurant
702,51.51559139399859,-0.1603734195328167,7,3,5e502850c0f2c400071aab5f,Bocconcino Restaurant,51.515547,-0.160298,Italian Restaurant
703,51.51559139399859,-0.1603734195328167,7,4,592496d3345cbe69492f2e57,Fratelli Greci,51.515423,-0.16126883,Greek Restaurant
704,51.51559139399859,-0.1603734195328167,7,5,5ed1039234eba800086f59c2,HANKIES,51.51513245109618,-0.15997231006622314,Indian Restaurant
705,51.51559139399859,-0.1603734195328167,7,6,4c951c56533aa093a8f4c545,fishmonger,51.514983773231506,-0.16119003295898438,French Restaurant
706,51.5133304646662,-0.1603734195328167,5,0,517a7778e4b0c5740d3f462e,Al Dubai Restaurant,51.514055,-0.160876,Middle Eastern Restaurant
707,51.5133304646662,-0.1603734195328167,5,1,4beabb2ba9900f473dd61640,Spaghetti House,51.5141093954367,-0.15975296020235993,Italian Restaurant
708,51.5133304646662,-0.1603734195328167,5,2,56787e50498e940c3e8aa8ca,alsafa,51.51414,-0.160665,Afghan Restaurant
709,51.5133304646662,-0.1603734195328167,5,3,5172e228498e82cea36539d1,Pakhtoon,51.51403267534604,-0.16117310047726552,Indian Restaurant
710,51.5133304646662,-0.1603734195328167,5,4,568046d4498e4566a86f28a4,Marble Arch Tavacı Recep Usta,51.513683,-0.160902,Turkish Restaurant
711,51.514460929332394,-0.13957605875113802,10,0,54809081498e4fdfe7a8dce0,Five Guys,51.514436746348444,-0.1404171687172493,Burger Joint
712,51.514460929332394,-0.13957605875113802,10,1,4acdabe2f964a5209fcc20e3,Ping Pong,51.51451040595071,-0.1387632646726999,Dim Sum Restaurant
713,51.514460929332394,-0.13957605875113802,10,2,555dc863498e8bc2538de952,wagamama,51.5142021,-0.1389144,Asian Restaurant
714,51.514460929332394,-0.13957605875113802,10,3,4feb87b8e4b0d033d0c38853,Spaghetti House,51.51415282413808,-0.14015316197100897,Italian Restaurant
715,51.514460929332394,-0.13957605875113802,10,4,5bf1c75fb6b04b002cc2a925,Soho Wala,51.514314,-0.139397,Indian Restaurant
716,51.514460929332394,-0.13957605875113802,10,5,4ac518e2f964a5209daa20e3,Silk Restaurant,51.51444479041076,-0.1396974623297021,Asian Restaurant
717,51.514460929332394,-0.13957605875113802,10,6,5736198f498ed7cf0fef23c1,Frankie & Benny's,51.514316224586516,-0.14032244682312012,American Restaurant
718,51.514460929332394,-0.13957605875113802,10,7,4e3327bb62e1733d7a9ec25d,Bertorelli,51.51469179074805,-0.1407945156097412,Italian Restaurant
719,51.514460929332394,-0.13957605875113802,10,8,4dc46f0e45dd26455256eb06,Maharini,51.514036,-0.138769,Indian Restaurant
720,51.514460929332394,-0.13957605875113802,10,9,55bac9fb498e7635fa400c79,Aline Mayfair,51.51377324508402,-0.1389359051407613,Lebanese Restaurant
721,51.51559139399859,-0.1413804266210294,10,0,4ad45cd3f964a520a4e720e3,Vapiano,51.51643927094741,-0.1411882855572975,Italian Restaurant
722,51.51559139399859,-0.1413804266210294,10,1,59fb6d4a78782c1f86e49c2b,Kintan,51.51586414856608,-0.14255090234497242,Japanese Restaurant
723,51.51559139399859,-0.1413804266210294,10,2,5afd7ad84acb19002c7489bc,K-Pop,51.516438,-0.14186405,Korean Restaurant
724,51.51559139399859,-0.1413804266210294,10,3,4dac24ab4df01c19b1ad574f,Benito's Hat,51.51600522468693,-0.14166477988912574,Burrito Place
725,51.51559139399859,-0.1413804266210294,10,4,4c98bb1e671db60c40b8bbf6,Ponti's Italian Kitchen,51.51578169241686,-0.14266948449469766,Italian Restaurant
726,51.51559139399859,-0.1413804266210294,10,5,4ba4ded7f964a52042bd38e3,Kerala restaurant,51.515838,-0.141992,Indian Restaurant
727,51.51559139399859,-0.1413804266210294,10,6,57cebd0b498ef7ba88231059,Yoobi,51.516135,-0.140513,Sushi Restaurant
728,51.51559139399859,-0.1413804266210294,10,7,51ee71bc498ee0ce503e1a0e,Wok to Walk,51.51503292719647,-0.14112343645655398,Noodle House
729,51.51559139399859,-0.1413804266210294,10,8,4b65b28ff964a5202dfa2ae3,Café Cibo,51.514838373529784,-0.1410839278416686,Italian Restaurant
730,51.51559139399859,-0.1413804266210294,10,9,4c0a3c367e3fc928d838f382,Bella Italia,51.5149965,-0.141261,Italian Restaurant
731,51.5133304646662,-0.1413804266210294,12,0,4ac518caf964a520aca520e3,Sketch,51.51269374318593,-0.14152944087982178,Modern European Restaurant
732,51.5133304646662,-0.1413804266210294,12,1,5a103c9d491be731203ba1cf,Bombay Bustle,51.512953452986906,-0.14219025372062952,Indian Restaurant
733,51.5133304646662,-0.1413804266210294,12,2,4d3df7635f5488bfc2d546e6,Pollen Street Social,51.51342620568972,-0.1422079059902279,English Restaurant
734,51.5133304646662,-0.1413804266210294,12,3,4d45af3cbf61a1cd559c15ac,Patara,51.51346209777295,-0.14152300909063276,Thai Restaurant
735,51.5133304646662,-0.1413804266210294,12,4,5c8272fd356b490039224551,Kanishka,51.513094,-0.141759,Indian Restaurant
736,51.5133304646662,-0.1413804266210294,12,5,5e14d938983bb70008a24be6,"Sketch, London Uk",51.512743,-0.141534,Modern European Restaurant
737,51.5133304646662,-0.1413804266210294,12,6,4b069839f964a52086ed22e3,Sakana-Tei,51.51336877861682,-0.14169496201571685,Japanese Restaurant
738,51.5133304646662,-0.1413804266210294,12,7,5c45c16c66fc650039c0cc4d,Beboz Italian Street Food,51.512753,-0.142316,Italian Restaurant
739,51.5133304646662,-0.1413804266210294,12,8,4ac518e4f964a520e0aa20e3,The Glade,51.51296381730837,-0.1418899708379323,French Restaurant
740,51.5133304646662,-0.1413804266210294,12,9,51430b66e4b0823a367c58f9,Little Social,51.51352414150624,-0.1422119627642784,French Restaurant
741,51.5133304646662,-0.1413804266210294,12,10,54db4d49498e2da1c882339f,Ciao - Italian Street Food,51.512789675655334,-0.1424261574288319,Italian Restaurant
742,51.5133304646662,-0.1413804266210294,12,11,4d70fffb95acb1f71d250eb9,5 Pollen Street,51.51350234736363,-0.14226033628223297,Italian Restaurant
743,51.51559139399859,-0.13777169088124663,10,0,5de18704aa0c3b0008083e2d,Manteca,51.51472,-0.137477,Italian Restaurant
744,51.51559139399859,-0.13777169088124663,10,1,55523b6c498e20b770687f75,Franco Manca,51.5153661387979,-0.1364338513869081,Pizza Place
745,51.51559139399859,-0.13777169088124663,10,2,529cdba911d250bcc17afbc6,Ember Yard,51.51541599999999,-0.136508,Tapas Restaurant
746,51.51559139399859,-0.13777169088124663,10,3,4b5da287f964a520756429e3,Arirang Korean Restaurant,51.51561075644804,-0.13757252089318134,Korean Restaurant
747,51.51559139399859,-0.13777169088124663,10,4,55117a3f498e2e50d8f7afd3,The Real Greek,51.51535160472142,-0.13642849623079592,Greek Restaurant
748,51.51559139399859,-0.13777169088124663,10,5,52a33c3f11d2da184386b506,Obicà,51.514907535080894,-0.13712379323727567,Italian Restaurant
749,51.51559139399859,-0.13777169088124663,10,6,5190fa3d498e8a7194a2a859,Cookhouse Joe,51.51561049616443,-0.1365767055854271,Diner
750,51.51559139399859,-0.13777169088124663,10,7,4d3b4dcc81258cfa8927b05f,Taste Of Spice,51.515555,-0.136478,Indian Restaurant
751,51.51559139399859,-0.13777169088124663,10,8,4ad32009f964a52024e320e3,The Kati Roll Company,51.51513905984989,-0.13738198980131475,Indian Restaurant
752,51.51559139399859,-0.13777169088124663,10,9,58372a3b44587f27e9046f8e,Corazon Taqueria,51.51541538894404,-0.13750072758653356,Taco Place
753,51.5133304646662,-0.13777169088124663,19,0,4ae8369bf964a52037ae21e3,Tapas Brindisa,51.51339542957246,-0.13640908255732284,Tapas Restaurant
754,51.5133304646662,-0.13777169088124663,19,1,4ac518dff964a52003aa20e3,Masala Zone Soho,51.513324775297804,-0.13794917946471683,Indian Restaurant
755,51.5133304646662,-0.13777169088124663,19,2,59e14bfd7247504b4f438549,Pastaio,51.5129626852758,-0.13907714631321966,Italian Restaurant
756,51.5133304646662,-0.13777169088124663,19,3,551a8e5b498eb6557b961282,Bao,51.513318595757305,-0.13640320712945936,Taiwanese Restaurant
757,51.5133304646662,-0.13777169088124663,19,4,5b23aa8ea795bd002c8e43e1,Inko Nito,51.513211573799275,-0.13717736927130025,Japanese Restaurant
758,51.5133304646662,-0.13777169088124663,19,5,4acdd5b2f964a5202dcd20e3,The Diner,51.51300553731864,-0.13907677708787547,Diner
759,51.5133304646662,-0.13777169088124663,19,6,5da37bed46f0f0000870bd42,Sticks'n'Sushi,51.512551,-0.137172,Sushi Restaurant
760,51.5133304646662,-0.13777169088124663,19,7,5cdedfaa9de23b002cc6120e,Jakata,51.513032,-0.138924,Cocktail Bar
761,51.5133304646662,-0.13777169088124663,19,8,593e2983f8cbd4073f0ac7a0,Dehesa London,51.513146,-0.138705,Tapas Restaurant
762,51.5133304646662,-0.13777169088124663,19,9,4df7f78781304987d7fab2cc,Antidote,51.51359609181128,-0.1388632661654644,Wine Bar
763,51.5133304646662,-0.13777169088124663,19,10,4ac518e7f964a52032ab20e3,Dehesa,51.5130981,-0.1384089,Tapas Restaurant
764,51.5133304646662,-0.13777169088124663,19,11,5ba8eec6a795bd002c3bc081,PittaBun,51.513489,-0.138621,Greek Restaurant
765,51.5133304646662,-0.13777169088124663,19,12,5c153de29e3b6500396b31ee,Calcutta Canteen,51.51267,-0.13821691,Indian Restaurant
766,51.5133304646662,-0.13777169088124663,19,13,4b2f58fbf964a520ddea24e3,Canela,51.51328526275931,-0.13834823444559735,Café
767,51.5133304646662,-0.13777169088124663,19,14,543979c3498ea44ee28af4a0,Cafe Gourmand,51.513245,-0.13645,French Restaurant
768,51.5133304646662,-0.13777169088124663,19,15,54381966498e0d9838b31727,Señor Ceviche,51.512640087843884,-0.138698503994397,Peruvian Restaurant
769,51.5133304646662,-0.13777169088124663,19,16,5c51ca88e1f2280039d62d99,Yeni,51.51270876642693,-0.13692408800125122,Turkish Restaurant
770,51.5133304646662,-0.13777169088124663,19,17,4ade16dff964a5200b7321e3,La Trouvaille,51.51354,-0.138828,French Restaurant
771,51.5133304646662,-0.13777169088124663,19,18,55bac9fb498e7635fa400c79,Aline Mayfair,51.51377324508402,-0.1389359051407613,Lebanese Restaurant
772,51.514460929332394,-0.1314085566334773,32,0,5203527b498e679b2b218e2e,Chotto Matte,51.513923,-0.131623,Japanese Restaurant
773,51.514460929332394,-0.1314085566334773,32,1,4ac518e7f964a52036ab20e3,Barrafina,51.513994,-0.132609,Tapas Restaurant
774,51.514460929332394,-0.1314085566334773,32,2,5220729011d2a8975554e2ff,Koya Bar,51.513601,-0.131633,Udon Restaurant
775,51.514460929332394,-0.1314085566334773,32,3,55a01831498e793e04cb8f73,Suvlaki,51.51415195564763,-0.13134011544731952,Greek Restaurant
776,51.514460929332394,-0.1314085566334773,32,4,4bfa6e20508c0f47e40e4031,BiBimBap,51.513775,-0.130613,Korean Restaurant
777,51.514460929332394,-0.1314085566334773,32,5,4f303344e4b050b64c023d55,10 Greek Street,51.51441880193354,-0.1310703693796932,Modern European Restaurant
778,51.514460929332394,-0.1314085566334773,32,6,4ed619be0cd6b3fd4c41cff4,Ceviche Soho,51.5137,-0.131546,Peruvian Restaurant
779,51.514460929332394,-0.1314085566334773,32,7,563260a3498e59d235628e04,Hoppers,51.51360769537548,-0.13148960331382942,Sri Lankan Restaurant
780,51.514460929332394,-0.1314085566334773,32,8,4b8d716cf964a5202dfc32e3,L'Escargot,51.51396711215651,-0.13090727737473665,French Restaurant
781,51.514460929332394,-0.1314085566334773,32,9,5920398f2a7ab6251339ef52,GAZA Café,51.513920468092884,-0.13084072701463828,Café
782,51.514460929332394,-0.1314085566334773,32,10,5b05547e724750002c7aa3e8,Tavuuk Kebab,51.514105,-0.131638,Doner Restaurant
783,51.514460929332394,-0.1314085566334773,32,11,544a3784498e317ec4aff2a8,cerviche,51.51374599847448,-0.13137744430231224,Peruvian Restaurant
784,51.514460929332394,-0.1314085566334773,32,12,4acf2ff0f964a520a7d220e3,Nando's,51.514086297626534,-0.13151341520677035,Portuguese Restaurant
785,51.514460929332394,-0.1314085566334773,32,13,4abe5714f964a520d68c20e3,Patara,51.5141358870075,-0.1308551163008176,Thai Restaurant
786,51.514460929332394,-0.1314085566334773,32,14,5ae757a086f4cc00395ade51,Lina Stores,51.514148395489165,-0.1309856808660895,Italian Restaurant
787,51.514460929332394,-0.1314085566334773,32,15,5308aabd498e0996a3cc4b53,21 Bateman St,51.51423,-0.131633,Greek Restaurant
788,51.514460929332394,-0.1314085566334773,32,16,4ac518dff964a520e1a920e3,Tartufo,51.514662,-0.13228,Indian Restaurant
789,51.514460929332394,-0.1314085566334773,32,17,4ee0af356da1d9fae34f14ad,Francospizzeria,51.5144338261903,-0.1328007167074313,French Restaurant
790,51.514460929332394,-0.1314085566334773,32,18,56fa73e7498ef2353ae58474,Mapa Cafe,51.514024,-0.131478,Vietnamese Restaurant
791,51.514460929332394,-0.1314085566334773,32,19,4ac518e1f964a5205eaa20e3,Gopal's of Soho,51.513811977213294,-0.13237313212983495,Indian Restaurant
792,51.514460929332394,-0.1314085566334773,32,20,4c0591005753c928d5ac39f1,Pintxos,51.51395059731583,-0.13202737076076118,Tapas Restaurant
793,51.514460929332394,-0.1314085566334773,32,21,4b6c7a3af964a520573d2ce3,Le Bavoir,51.514506,-0.131201,Mediterranean Restaurant
794,51.514460929332394,-0.1314085566334773,32,22,4e29e62345dd3272c8018f2d,Piadineria,51.515302,-0.13146,Italian Restaurant
795,51.514460929332394,-0.1314085566334773,32,23,53405ae8498e605fae37c983,lescar,51.51395677111858,-0.13109703018452407,French Restaurant
796,51.514460929332394,-0.1314085566334773,32,24,5dde6b1113ff890008701668,Sussex Bar And Restaurant,51.514477,-0.132186,Modern European Restaurant
797,51.514460929332394,-0.1314085566334773,32,25,5e1584f0c8192c0008144fc8,Tans Kitchen,51.51435127755925,-0.13018369674682617,Chinese Restaurant
798,51.514460929332394,-0.1314085566334773,32,26,5c118fb54f0e58002cd0d68c,Escargoulet,51.513988,-0.130821,French Restaurant
799,51.514460929332394,-0.1314085566334773,32,27,4ce416752f842d437ff8ab1c,The Golden Oven,51.51416,-0.13126,Indian Restaurant
800,51.514460929332394,-0.1314085566334773,32,28,5ade0bea037be15e3f49d58d,Pleasant Lady Jian Bing Trading Stall,51.51384,-0.130737,Chinese Restaurant
801,51.514460929332394,-0.1314085566334773,32,29,4e4d60c952b1e05e59ed7e8c,Pix Bar,51.5139789526826,-0.13206916481626763,Tapas Restaurant
802,51.514460929332394,-0.1314085566334773,32,30,58243de6199fe62299b7712b,Lobos Meat and Tapas,51.51356309896969,-0.13149578232462825,Spanish Restaurant
803,51.514460929332394,-0.1314085566334773,32,31,5c12d90cdeb49500253aff61,Gammagamma,51.514715,-0.131276,Asian Restaurant
804,51.51559139399859,-0.1332129245033687,6,0,4b0987eaf964a520e61823e3,Pierre Victoire,51.515433659425945,-0.13376298994537605,French Restaurant
805,51.51559139399859,-0.1332129245033687,6,1,5980b4cde7a2373f3e3bd5f5,Ninniku,51.515698,-0.134503,Japanese Restaurant
806,51.51559139399859,-0.1332129245033687,6,2,57d968f5498e7ac56f3fb139,Six Storeys,51.515732628914556,-0.132498887240875,English Restaurant
807,51.51559139399859,-0.1332129245033687,6,3,54bfbbbf498ed9a1221d6592,Go Food,51.514836586174965,-0.13384646616602905,Italian Restaurant
808,51.51559139399859,-0.1332129245033687,6,4,4b016c64f964a520764222e3,Wasabi,51.51623307116346,-0.13327806168151216,Sushi Restaurant
809,51.51559139399859,-0.1332129245033687,6,5,5d8e79e13cbfe9000894b7cf,Mandarin Quarter,51.5161473,-0.1321335,School
810,51.5133304646662,-0.1332129245033687,31,0,4ac518e7f964a52036ab20e3,Barrafina,51.513994,-0.132609,Tapas Restaurant
811,51.5133304646662,-0.1332129245033687,31,1,5dbdeda745def800085faa20,Laxsa Soho,51.5128,-0.132071,Malay Restaurant
812,51.5133304646662,-0.1332129245033687,31,2,4dcadb8945dd3831227812ce,Cây Tre,51.513252126845785,-0.13216742831576433,Vietnamese Restaurant
813,51.5133304646662,-0.1332129245033687,31,3,4fdcb2cae4b09473e18a319c,Tonkotsu,51.51312336139468,-0.1321715833393593,Ramen Restaurant
814,51.5133304646662,-0.1332129245033687,31,4,4ace481af964a5209acf20e3,Busaba Eathai,51.51378752911229,-0.13427249484094655,Thai Restaurant
815,51.5133304646662,-0.1332129245033687,31,5,4cd2c1181a096a31ccc0c7a7,Wahaca,51.513154534900735,-0.13360633201899286,Mexican Restaurant
816,51.5133304646662,-0.1332129245033687,31,6,4e4a70b4d4c0dae7bfcb7fc0,Banana Tree,51.51312243247239,-0.13374866254940396,Asian Restaurant
817,51.5133304646662,-0.1332129245033687,31,7,4b1836abf964a520ebce23e3,Prix Fixe Brasserie,51.51338262064682,-0.13235983060992687,French Restaurant
818,51.5133304646662,-0.1332129245033687,31,8,4ad9b76ef964a520811a21e3,Bar Bruno,51.5129861719675,-0.13372344021275384,Café
819,51.5133304646662,-0.1332129245033687,31,9,5c968de56a5950002c8f6de2,Robata,51.512797,-0.132356,Sake Bar
820,51.5133304646662,-0.1332129245033687,31,10,50659ee9e4b0105355bf4f90,Bone Daddies,51.512804,-0.133976,Ramen Restaurant
821,51.5133304646662,-0.1332129245033687,31,11,56afa5b538fa96195df50e9f,Oliver Maki Soho,51.51376233464915,-0.1325490489797305,Japanese Restaurant
822,51.5133304646662,-0.1332129245033687,31,12,5b9ba744e1f228002c28e8a1,Jamaican BBQ,51.513273,-0.134625,Food Stand
823,51.5133304646662,-0.1332129245033687,31,13,502fb7e3e4b0b66652d4079d,Tuscanic,51.512609303493555,-0.13282432213883286,Italian Restaurant
824,51.5133304646662,-0.1332129245033687,31,14,5d5a87c27474790007f78d10,Tortilla,51.513165,-0.13358104,Burrito Place
825,51.5133304646662,-0.1332129245033687,31,15,542fdd69498e64bc7d1cdab2,Mas Q Menos,51.512809940757386,-0.1335188620029929,Spanish Restaurant
826,51.5133304646662,-0.1332129245033687,31,16,4ac518daf964a520cca820e3,Townhouse Brasserie,51.51345,-0.132413,French Restaurant
827,51.5133304646662,-0.1332129245033687,31,17,4ac518e1f964a5205eaa20e3,Gopal's of Soho,51.513811977213294,-0.13237313212983495,Indian Restaurant
828,51.5133304646662,-0.1332129245033687,31,18,4d7a21e9022d6dcbce2e8e7d,Turkish Wraps,51.51289140100504,-0.1335959296548375,Food Truck
829,51.5133304646662,-0.1332129245033687,31,19,52a888d411d2da73336973aa,Leggero,51.5127020380932,-0.1325617363500261,Italian Restaurant
830,51.5133304646662,-0.1332129245033687,31,20,53a87a96498ed86bf5adf9a0,Vapiano,51.51327155982345,-0.13385788896328127,Italian Restaurant
831,51.5133304646662,-0.1332129245033687,31,21,54b12b26498e733590c9ed0b,British Bakery,51.51340905098855,-0.1342933340198258,English Restaurant
832,51.5133304646662,-0.1332129245033687,31,22,5cf537e360d11b002c7b5a84,Martha’s,51.512582,-0.133167,American Restaurant
833,51.5133304646662,-0.1332129245033687,31,23,4eee56610e61a41866367bf0,Royal Gurkha,51.513591,-0.133174,Indian Restaurant
834,51.5133304646662,-0.1332129245033687,31,24,54776a25498e52f9d3edcef1,Wasabi,51.51294638713069,-0.13191709957601702,Sushi Restaurant
835,51.5133304646662,-0.1332129245033687,31,25,509c0892e4b00c69be2b1149,&Pasta,51.51288690845158,-0.1320353072406007,Italian Restaurant
836,51.5133304646662,-0.1332129245033687,31,26,594427cfa35dce716971d54e,Bam Boo,51.512607,-0.133529,Asian Restaurant
837,51.5133304646662,-0.1332129245033687,31,27,5f5cd2ebf4b7cb4dac83c1dd,IZAKAYA SOHO LIMITED,51.512894,-0.132304,Japanese Restaurant
838,51.5133304646662,-0.1332129245033687,31,28,586009d2158b96178811de07,La Pastaia,51.512546,-0.132808,Italian Restaurant
839,51.5133304646662,-0.1332129245033687,31,29,4dab0704cda1652a2b998ab7,Forty Dean Street,51.513315975922524,-0.13229559759744022,Italian Restaurant
840,51.5133304646662,-0.1332129245033687,31,30,5da4f98e8db1200008c2d0c9,Arma,51.513711,-0.132496,Shawarma Place
841,51.51559139399859,-0.12960418876358593,16,0,536b4871498eb0cefe04a8ac,Fernandez & Wells,51.515398,-0.128973,Coffee Shop
842,51.51559139399859,-0.12960418876358593,16,1,5e14e3330a56170008c5408b,Pastorcito,51.516371,-0.129372,Taco Place
843,51.51559139399859,-0.12960418876358593,16,2,4fa1ab60e4b05ff179f5b0da,Nunu's,51.515492950491726,-0.12988668511065923,Italian Restaurant
844,51.51559139399859,-0.12960418876358593,16,3,52f72d21498e17e6933086a3,Paradise Dynasty,51.51639938354492,-0.12952740490436554,Szechuan Restaurant
845,51.51559139399859,-0.12960418876358593,16,4,5ddc42f370c52d0007142f5f,Lina Stores,51.516325,-0.129187,Italian Restaurant
846,51.51559139399859,-0.12960418876358593,16,5,5c1fa051bcbf7a002cd68e18,Vapiano,51.51596702340635,-0.12915372848510742,Italian Restaurant
847,51.51559139399859,-0.12960418876358593,16,6,4f58ae48e4b0bdfd0ef57759,Spaccanapoli,51.51604166344124,-0.12848039185818522,Italian Restaurant
848,51.51559139399859,-0.12960418876358593,16,7,51d1c026498e0a9f283e86b8,Hana Sushi,51.515957,-0.129231,Japanese Restaurant
849,51.51559139399859,-0.12960418876358593,16,8,5194c2ab498e685d415d9def,Kimchee To Go,51.51617584318183,-0.12907053122195813,Korean Restaurant
850,51.51559139399859,-0.12960418876358593,16,9,5d9b2a63a7cf4a0008723325,Chotto,51.516274,-0.129453,Japanese Restaurant
851,51.51559139399859,-0.12960418876358593,16,10,51bf1a1a498ed05e14e5f9ec,Brasil By Kilo,51.515031451988854,-0.12903253502366607,Brazilian Restaurant
852,51.51559139399859,-0.12960418876358593,16,11,5206c64e11d2506575a2d4f4,Sajway Express,51.515292378761,-0.13010370338870564,Falafel Restaurant
853,51.51559139399859,-0.12960418876358593,16,12,4cac68c4f47ea1438ec19021,Hana Supermarket,51.516032780333546,-0.1291310943226875,Korean Restaurant
854,51.51559139399859,-0.12960418876358593,16,13,52fcc603498e20586146fb92,Hana Japanese Restaurant,51.516028,-0.129071,Japanese Restaurant
855,51.51559139399859,-0.12960418876358593,16,14,54b454b3498e46128d5814eb,ruby jean's diner,51.51514863519442,-0.13023541119516133,American Restaurant
856,51.51559139399859,-0.12960418876358593,16,15,541c8835498ea8146bddcb0c,mudo korea,51.51615554411197,-0.12952794371172657,Korean Restaurant
857,51.5133304646662,-0.12960418876358593,30,0,4ed6889602d570286e21deef,eat TOKYO,51.51363638661899,-0.13019298188938558,Sushi Restaurant
858,51.5133304646662,-0.12960418876358593,30,1,54df8361498e81ce00b48210,Shack-Fuyu,51.51365493947196,-0.13013031044505172,Yoshoku Restaurant
859,51.5133304646662,-0.12960418876358593,30,2,5d3dcd393eeddd0008cfc7da,Wun's Tea Room & Bar,51.513547,-0.130442,Cocktail Bar
860,51.5133304646662,-0.12960418876358593,30,3,4ac518bef964a52006a320e3,Cafe Boheme,51.51344529257171,-0.13053769034350848,French Restaurant
861,51.5133304646662,-0.12960418876358593,30,4,519683eb498e730763b6d3f7,Dozo,51.51330271089248,-0.1310141002193629,Sushi Restaurant
862,51.5133304646662,-0.12960418876358593,30,5,5bc0f6af38f216002577aac7,Berenjak,51.513027,-0.130632,Persian Restaurant
863,51.5133304646662,-0.12960418876358593,30,6,4bfa6e20508c0f47e40e4031,BiBimBap,51.513775,-0.130613,Korean Restaurant
864,51.5133304646662,-0.12960418876358593,30,7,59e85fbd6e4650734436499a,Shake Shack Soho,51.51331319280172,-0.12910283680030188,Burger Joint
865,51.5133304646662,-0.12960418876358593,30,8,5f580cfc53c2ca288d8e4a40,Louie,51.513078,-0.128436,Cajun / Creole Restaurant
866,51.5133304646662,-0.12960418876358593,30,9,4b222edff964a520404424e3,Le Beaujolais,51.51275842546849,-0.1285974770497412,Wine Bar
867,51.5133304646662,-0.12960418876358593,30,10,5c87b3b27d8497002ce0ae6b,Sushimania,51.512845,-0.128734,Sushi Restaurant
868,51.5133304646662,-0.12960418876358593,30,11,5d5588c3a3074b000841fa09,Mr. Meng 孟非的面 (Mr. Meng),51.514007,-0.129618,Noodle House
869,51.5133304646662,-0.12960418876358593,30,12,5a188746fdb9a744f4e5d466,Kettner's Townhouse,51.51306913270356,-0.1305477874888728,Hotel
870,51.5133304646662,-0.12960418876358593,30,13,561aa3e9498e263f862c9be9,Limoncello - Ristorante Italiano,51.51355413677462,-0.13011137957349006,Italian Restaurant
871,51.5133304646662,-0.12960418876358593,30,14,52cea978498ebbcc1a91f448,Freebird Burrito Cart,51.513034288643084,-0.12976039120416494,Mexican Restaurant
872,51.5133304646662,-0.12960418876358593,30,15,585a835de309e16a0c79e675,Temakinho,51.51375329006132,-0.12993328509625185,Sushi Restaurant
873,51.5133304646662,-0.12960418876358593,30,16,4dacc0801e72c4e8dcaebefd,Kyoto Sushi,51.51311998394283,-0.13077621495075226,Sushi Restaurant
874,51.5133304646662,-0.12960418876358593,30,17,506ecf5ae4b03cb917c7a1e8,Cappuccetto,51.513531436488165,-0.1300327329480537,Italian Restaurant
875,51.5133304646662,-0.12960418876358593,30,18,4da6e22443a102190d749884,Thai Food Stall,51.51360347495665,-0.1284027099609375,Thai Restaurant
876,51.5133304646662,-0.12960418876358593,30,19,5400ba65498ed1a74db88112,Il Cucciolo,51.513814,-0.129901,Italian Restaurant
877,51.5133304646662,-0.12960418876358593,30,20,4b3b97edf964a5209d7625e3,La Porchetta Pollo Bar,51.5135490283269,-0.13029066153454005,Italian Restaurant
878,51.5133304646662,-0.12960418876358593,30,21,53936845498e7b5d5b8b4a6c,La Bodega Negra,51.51362350554352,-0.12992888689041138,Mexican Restaurant
879,51.5133304646662,-0.12960418876358593,30,22,4d835ae45e70224bec7af508,Nili's,51.512973,-0.130746,Mexican Restaurant
880,51.5133304646662,-0.12960418876358593,30,23,4be483c62468c92857e2fe42,Tiger Spice,51.513293,-0.130983,Indian Restaurant
881,51.5133304646662,-0.12960418876358593,30,24,4f58871de4b0a386de409b3a,La Bodega Negra,51.51353336783326,-0.12984037399291992,Mexican Restaurant
882,51.5133304646662,-0.12960418876358593,30,25,4bee8a442c082d7fa1833042,Melanie,51.51380117058151,-0.12970670206781798,Italian Restaurant
883,51.5133304646662,-0.12960418876358593,30,26,4da8a7df1e72d9bb474b2ef7,Jamon Jamon,51.51392624235572,-0.1294224290709844,Spanish Restaurant
884,51.5133304646662,-0.12960418876358593,30,27,4bad0125f964a52075233be3,Viet Pho,51.512953800371946,-0.1300715759556283,Vietnamese Restaurant
885,51.5133304646662,-0.12960418876358593,30,28,5ade0bea037be15e3f49d58d,Pleasant Lady Jian Bing Trading Stall,51.51384,-0.130737,Chinese Restaurant
886,51.5133304646662,-0.12960418876358593,30,29,4b26b53cf964a520d57f24e3,Y Ming,51.51310027491928,-0.13017206650959606,Chinese Restaurant
887,51.514460929332394,-0.12419144336652264,7,0,5b8ed86a04d1ae0039452d61,Little Kolkata,51.514363,-0.124064,North Indian Restaurant
888,51.514460929332394,-0.12419144336652264,7,1,4c6ae0c9e503c928a3ba46b3,La Quercia D'oro,51.514026,-0.125079,Italian Restaurant
889,51.514460929332394,-0.12419144336652264,7,2,4ac518dff964a520ffa920e3,The Admiralty Restaurant,51.513666915489225,-0.12383717909480726,French Restaurant
890,51.514460929332394,-0.12419144336652264,7,3,4bc84a8b8b7c9c74decf37cf,Circus,51.51441662582096,-0.12492392368259568,Cocktail Bar
891,51.514460929332394,-0.12419144336652264,7,4,4bc20095abf4952177c0c193,Royals Indian Cuisine,51.51391986616573,-0.123601652420733,Indian Restaurant
892,51.514460929332394,-0.12419144336652264,7,5,4ee6141377c8e89319a453f0,Aziza,51.51444498921643,-0.12441104198390476,Middle Eastern Restaurant
893,51.514460929332394,-0.12419144336652264,7,6,59c7d4393d47916576d30f3e,La Frubense,51.5148901,-0.12353719999998702,Afghan Restaurant
894,51.51559139399859,-0.125995811236414,9,0,542d3184498e8514377c9d2f,Ippudo London,51.515757,-0.127404,Ramen Restaurant
895,51.51559139399859,-0.125995811236414,9,1,4b6c782af964a520a33c2ce3,Da Mario,51.51517122119121,-0.1255442036886618,Italian Restaurant
896,51.51559139399859,-0.125995811236414,9,2,4ae99d2ff964a52058b521e3,Punjab,51.515065633626726,-0.12680893288408193,Indian Restaurant
897,51.51559139399859,-0.125995811236414,9,3,4b881e6ff964a52022e131e3,Cafe Mode,51.51508855720653,-0.1254450660016778,Italian Restaurant
898,51.51559139399859,-0.125995811236414,9,4,4c066eb1517d0f4733f2f515,Pix Pintxos,51.51490113471818,-0.12651060482898793,Tapas Restaurant
899,51.51559139399859,-0.125995811236414,9,5,4ae5b577f964a52097a121e3,El Topo Cantina,51.514983,-0.126762,Mexican Restaurant
900,51.51559139399859,-0.125995811236414,9,6,5bb771737dc9e1002c70d205,beso,51.51521173612299,-0.12668810784816742,Moroccan Restaurant
901,51.51559139399859,-0.125995811236414,9,7,5b3f65fc535d6f002c9b1f7c,beso,51.515740021251936,-0.1261603832244873,Mediterranean Restaurant
902,51.51559139399859,-0.125995811236414,9,8,4b13c8aef964a520229923e3,Rossodisera,51.5149688794628,-0.12694975928840724,Italian Restaurant
903,51.5133304646662,-0.125995811236414,20,0,51faba98498e75e40adf9e24,Flesh & Buns,51.5139971681231,-0.1256969248651324,Japanese Restaurant
904,51.5133304646662,-0.125995811236414,20,1,4d440bf1c3e5f04d0a219620,Bill's Restaurant,51.51255465283461,-0.12659992255283425,English Restaurant
905,51.5133304646662,-0.125995811236414,20,2,4b32869af964a520c70d25e3,Rossopomodoro,51.512966051369425,-0.12719048198713145,Italian Restaurant
906,51.5133304646662,-0.125995811236414,20,3,5aff613cbf7dde002cad1f1d,Temper Covent Garden,51.51304945490075,-0.12581441302443588,Italian Restaurant
907,51.5133304646662,-0.125995811236414,20,4,4ae89dc6f964a520e4b021e3,Cafe Pacifico,51.51308404575692,-0.12506766082149787,Mexican Restaurant
908,51.5133304646662,-0.125995811236414,20,5,4f4c4dfdbe77653fc3a6d645,Dalla Terra,51.51252,-0.126469,Wine Bar
909,51.5133304646662,-0.125995811236414,20,6,5d76dce5fac4a80008cb88e5,Yum Bun,51.51390727124453,-0.12592434883117676,Chinese Restaurant
910,51.5133304646662,-0.125995811236414,20,7,5d76df9c70b7e30007093db1,El Pollote,51.51390727124453,-0.12592434883117676,Venezuelan Restaurant
911,51.5133304646662,-0.125995811236414,20,8,5d76dcb8f290e10008e775ce,Club Mexicana,51.51390727124453,-0.12592434883117676,Mexican Restaurant
912,51.5133304646662,-0.125995811236414,20,9,4ce834858ef78cfa98d8989b,Pomorosso,51.512912,-0.127268,Italian Restaurant
913,51.5133304646662,-0.125995811236414,20,10,536f6d83498e07efff00f839,Pub de Papadopoulos,51.51298825975554,-0.12486197977222879,Mediterranean Restaurant
914,51.5133304646662,-0.125995811236414,20,11,4c6ae0c9e503c928a3ba46b3,La Quercia D'oro,51.514026,-0.125079,Italian Restaurant
915,51.5133304646662,-0.125995811236414,20,12,5d76df74cda09f00084d44fd,Yin引,51.51390727124453,-0.12592434883117676,Chinese Restaurant
916,51.5133304646662,-0.125995811236414,20,13,5d76e1a470b7e300070f3a1c,Wheelcake Island,51.51390727124453,-0.12592434883117676,Asian Restaurant
917,51.5133304646662,-0.125995811236414,20,14,5a33d003535d6f0cd005ec37,Imad's Syrian Kitchen,51.51348,-0.12709278,Syrian Restaurant
918,51.5133304646662,-0.125995811236414,20,15,5d76ddb066af470008e874c1,Nanban,51.51390727124453,-0.12592434883117676,Ramen Restaurant
919,51.5133304646662,-0.125995811236414,20,16,5d76de0dfac4a80008cebb4e,Strozzapretti,51.51390727124453,-0.12592434883117676,Italian Restaurant
920,51.5133304646662,-0.125995811236414,20,17,5280e3cc498e9cdc3d5ca066,Earlham Street Clubhouse,51.51382511732139,-0.1267067167453115,American Restaurant
921,51.5133304646662,-0.125995811236414,20,18,5d76dd157c9b3d0008bd81b2,Rice Guys,51.51390727124453,-0.12592434883117676,Chinese Restaurant
922,51.5133304646662,-0.125995811236414,20,19,4c1d222663750f47fbbbb767,Cantina Laredo,51.51273627,-0.12685285,Mexican Restaurant
923,51.51559139399859,-0.12238707549663128,12,0,57f6830a498e00421cdfb387,Margot,51.51481354534521,-0.12185178378653987,Italian Restaurant
924,51.51559139399859,-0.12238707549663128,12,1,4b5b2169f964a5204fe528e3,Lowlander Grand Cafe,51.51490679847883,-0.1223824150685712,Beer Bar
925,51.51559139399859,-0.12238707549663128,12,2,5e529a8fb8ff1a0008455d9f,Hoa Sen Vietnamese Restaurant,51.51523,-0.12314256,Vietnamese Restaurant
926,51.51559139399859,-0.12238707549663128,12,3,5b1e60739cadd9002cf23f0c,Kangnam Pocha,51.515533,-0.12348991,Korean Restaurant
927,51.51559139399859,-0.12238707549663128,12,4,4ac518dff964a520dea920e3,Tandoori Nights,51.5151400110005,-0.121660094999584,Indian Restaurant
928,51.51559139399859,-0.12238707549663128,12,5,4ac518c1f964a520bca320e3,Tamarai,51.515349,-0.123188,Bar
929,51.51559139399859,-0.12238707549663128,12,6,4b4ddcc0f964a520b0d926e3,itsu,51.51481359082901,-0.12212482475630208,Sushi Restaurant
930,51.51559139399859,-0.12238707549663128,12,7,57ff7b4dd67cfe510401ca03,Bungatini,51.515204,-0.12282,Italian Restaurant
931,51.51559139399859,-0.12238707549663128,12,8,4ac518bff964a5204ba320e3,Bhatti,51.514970045576646,-0.12168860688874682,Indian Restaurant
932,51.51559139399859,-0.12238707549663128,12,9,576a836f498ee53f6897d0a4,Shoryu Ramen,51.51517110801305,-0.12162631873166245,Ramen Restaurant
933,51.51559139399859,-0.12238707549663128,12,10,57af8bb7498e2bb9aa29fa42,Pieminister,51.515451,-0.123194,Modern European Restaurant
934,51.51559139399859,-0.12238707549663128,12,11,4be2ba241dd22d7f94a094bd,Corks Thai Restaurant & Take Away,51.51602337620312,-0.1235490245411238,Thai Restaurant
935,51.5133304646662,-0.12238707549663128,8,0,4b0e79d1f964a520d25723e3,Masala Zone,51.51325264866744,-0.1229220815626003,Indian Restaurant
936,51.5133304646662,-0.12238707549663128,8,1,56996049498e05b31d032d10,Inamo,51.51353215117843,-0.12338156330787706,Japanese Restaurant
937,51.5133304646662,-0.12238707549663128,8,2,5b4e06b90fe7a0002cb55196,Pho Covent Garden,51.51396597264854,-0.12276124922291798,Vietnamese Restaurant
938,51.5133304646662,-0.12238707549663128,8,3,4ae1df2cf964a520358821e3,La Ballerina,51.5135782804681,-0.12264453637326773,Italian Restaurant
939,51.5133304646662,-0.12238707549663128,8,4,4aea1a29f964a52059b921e3,Zizzi,51.51371299388965,-0.12262455411644169,Italian Restaurant
940,51.5133304646662,-0.12238707549663128,8,5,4fbbf38ae4b005e6f2669dff,Wildwood,51.512896,-0.121341,Italian Restaurant
941,51.5133304646662,-0.12238707549663128,8,6,4b670eeff964a5208c372be3,The Real Greek,51.513809992328255,-0.12307197350273716,Greek Restaurant
942,51.5133304646662,-0.12238707549663128,8,7,4e15ecc118384368edd46c9a,Busaba Eathai,51.51295280098631,-0.12347758906288504,Thai Restaurant
943,51.514460929332394,-0.09342221259729187,5,0,4b54ce0df964a5203ccd27e3,Tiffinbites,51.514460674367015,-0.09237793727504423,Indian Restaurant
944,51.514460929332394,-0.09342221259729187,5,1,4c4eef36960e76b06d9e1fe7,itsu,51.514224253396,-0.09415765634074848,Sushi Restaurant
945,51.514460929332394,-0.09342221259729187,5,2,4bb21b64f964a52064b93ce3,Bow Wine Vaults,51.51356716221524,-0.09356321798262815,Wine Bar
946,51.514460929332394,-0.09342221259729187,5,3,4b5edf76f964a520dd9b29e3,Cafe Below,51.51395833026258,-0.09348047940242285,Café
947,51.514460929332394,-0.09342221259729187,5,4,507bff39e4b08ac08f5d0ecf,Wrap It Up!,51.51362193600718,-0.09336425603564646,Burrito Place
948,51.51559139399859,-0.09522658046718324,4,0,4bf6c59413aed13a6d2aeaf7,Manicomio,51.51536891323096,-0.09541400116488372,Italian Restaurant
949,51.51559139399859,-0.09522658046718324,4,1,5ed1035653dd4e0008060689,HANKIES,51.515579783755925,-0.09411334991455078,Indian Restaurant
950,51.51559139399859,-0.09522658046718324,4,2,505b101d90e7cd9b2b6f0b79,Rucoletta,51.51513811741748,-0.09630515239322052,Italian Restaurant
951,51.51559139399859,-0.09522658046718324,4,3,5970aaedf2905e41f998f62c,Rustichino,51.515106,-0.09630505,Italian Restaurant
952,51.5133304646662,-0.09522658046718324,13,0,4e624209e4cdf1e2bf3593f6,Madison,51.51381968475064,-0.09539032987004036,Cocktail Bar
953,51.5133304646662,-0.09522658046718324,13,1,4e1ed9ddae60cd553deae5cd,Bread Street Kitchen,51.513308767544096,-0.09491560239236255,English Restaurant
954,51.5133304646662,-0.09522658046718324,13,2,4be2d8951dd22d7fecef94bd,Ping Pong,51.5134608608823,-0.0947306917488213,Dim Sum Restaurant
955,51.5133304646662,-0.09522658046718324,13,3,4b0e751bf964a520b25723e3,Kurumaya,51.5131511484745,-0.09419556408151096,Japanese Restaurant
956,51.5133304646662,-0.09522658046718324,13,4,5dd6bf38da873f000868666b,The Ivy Asia,51.513588,-0.09603582,Asian Restaurant
957,51.5133304646662,-0.09522658046718324,13,5,4cc85d693c40a35dac5d742e,Zizzi,51.51366675019977,-0.09549031537267183,Italian Restaurant
958,51.5133304646662,-0.09522658046718324,13,6,4cd54296886cb60c23cb8289,Wasabi,51.5138461675224,-0.09567501106959887,Sushi Restaurant
959,51.5133304646662,-0.09522658046718324,13,7,5273ad9f11d2e780cc988578,Burrito Mama,51.51390580873771,-0.09563368544199963,Burrito Place
960,51.5133304646662,-0.09522658046718324,13,8,5afc6641249623002cb0e962,Pho,51.51365201555624,-0.09538145196104075,Vietnamese Restaurant
961,51.5133304646662,-0.09522658046718324,13,9,5661964638fa76efb6cbb6d6,Banh Mi Bay,51.512981,-0.094549,Vietnamese Restaurant
962,51.5133304646662,-0.09522658046718324,13,10,4c6cdadc7bfe199c4be1d8ce,Nando's,51.51368994,-0.09560538,Portuguese Restaurant
963,51.5133304646662,-0.09522658046718324,13,11,54cb7bae498e99dacf3c3a28,Banh Mi Bay,51.512620667737586,-0.09484692689287624,Vietnamese Restaurant
964,51.5133304646662,-0.09522658046718324,13,12,53919068498e70fb6bfaf06f,Enoteca De Luca,51.51315374130603,-0.09434704311605745,Italian Restaurant
965,51.51559139399859,-0.0916178447274005,9,0,57dfb4a1498e923fc6548fc8,Cabotte,51.514984,-0.09129301,French Restaurant
966,51.51559139399859,-0.0916178447274005,9,1,4e9d32995503b4a7c128d043,Hawksmoor Guildhall,51.515498,-0.090849,Steakhouse
967,51.51559139399859,-0.0916178447274005,9,2,4cadc734632b370400f7696e,City Càphê,51.51474961713268,-0.09154479356888842,Vietnamese Restaurant
968,51.51559139399859,-0.0916178447274005,9,3,4e49675b8877bebe848140ad,Barbattu Bistro,51.515107,-0.092029,French Restaurant
969,51.51559139399859,-0.0916178447274005,9,4,4ca0d6dd6c479521cf1c910c,Goldfish City,51.514959899999994,-0.0916405,Chinese Restaurant
970,51.51559139399859,-0.0916178447274005,9,5,593fe3f10d8a0f7b00a3c00f,Nusa Kitchen,51.515768,-0.090636,Soup Place
971,51.51559139399859,-0.0916178447274005,9,6,58c156609ab6636cfd79e57a,Liberty Cheesrsteak Company (Guildhall),51.515615,-0.091835,New American Restaurant
972,51.51559139399859,-0.0916178447274005,9,7,55645a51498eb6f3a5ae4df7,The Trading House,51.51506346595909,-0.09142715063542992,Modern European Restaurant
973,51.51559139399859,-0.0916178447274005,9,8,4b472f47f964a520812c26e3,Tiffinbites,51.51538502181995,-0.09289462208486642,Indian Restaurant
974,51.5133304646662,-0.0916178447274005,6,0,5b0986c00a08ab002c2e44e0,Brigadiers,51.51272137300544,-0.09192158012225396,Indian Restaurant
975,51.5133304646662,-0.0916178447274005,6,1,4ac518d5f964a5200fa820e3,Coq d'Argent,51.513303279109444,-0.0910358067859018,French Restaurant
976,51.5133304646662,-0.0916178447274005,6,2,5ae30056e17910002c0577c9,Ekte Nordic Kitchen,51.5125492357495,-0.09188331418860315,Scandinavian Restaurant
977,51.5133304646662,-0.0916178447274005,6,3,55c1f69a498ef551ab4fe464,Burrito Kitchen,51.513589,-0.091602,Burrito Place
978,51.5133304646662,-0.0916178447274005,6,4,59cb84daf427de68688bf1e0,K10,51.51298898534136,-0.09243169984754278,Japanese Restaurant
979,51.5133304646662,-0.0916178447274005,6,5,51dd4bdb498e93e302b430e5,Grabthai,51.51271083036569,-0.09262750794432884,Thai Restaurant
980,51.514460929332394,-0.07803759721267649,6,0,5c0e5c06b77c77002c5704f9,BanhMi City,51.514948,-0.078249,Vietnamese Restaurant
981,51.514460929332394,-0.07803759721267649,6,1,4ac518def964a520d4a920e3,Adriatico,51.513872,-0.07875,Pizza Place
982,51.514460929332394,-0.07803759721267649,6,2,4d5d84f79ac9a093333b7c94,Fora,51.51493321626645,-0.07815171954768403,Mediterranean Restaurant
983,51.514460929332394,-0.07803759721267649,6,3,528cb52b498ecaf72864514f,Osteria Adriatico,51.513974,-0.078883,Italian Restaurant
984,51.514460929332394,-0.07803759721267649,6,4,4ac518dcf964a52036a920e3,Duke's of Houndsditch,51.51476943457658,-0.07736343042163571,Indian Restaurant
985,51.514460929332394,-0.07803759721267649,6,5,4b97d942f964a520db1935e3,Rajasthan III,51.51515339313363,-0.07845236379597773,Indian Restaurant
986,51.51559139399859,-0.07984196508256786,10,0,5012dbe9e4b07ac9f1400222,Duck & Waffle,51.516108085718514,-0.08092590729047038,Cocktail Bar
987,51.51559139399859,-0.07984196508256786,10,1,53b44b3b498e74def3ca20bb,miyoko,51.515858,-0.079911,Japanese Restaurant
988,51.51559139399859,-0.07984196508256786,10,2,52b054b9498e293fcd4583db,Abokado,51.51581558343621,-0.07862863249824846,Sushi Restaurant
989,51.51559139399859,-0.07984196508256786,10,3,5d80e9427096d00008bf6bc9,Waka,51.515486,-0.078814,Japanese Restaurant
990,51.51559139399859,-0.07984196508256786,10,4,4e806e8c77c853137da67fe1,Numdee,51.515074,-0.079294,Thai Restaurant
991,51.51559139399859,-0.07984196508256786,10,5,53dfe3a5498e4a0fc13b52ce,Busan BBQ @ Old Bengal Bar,51.51640006814305,-0.07969167631258046,Korean Restaurant
992,51.51559139399859,-0.07984196508256786,10,6,52ea78ab498e1f9f005e5621,Fleischmob,51.514811,-0.080391,Austrian Restaurant
993,51.51559139399859,-0.07984196508256786,10,7,4cb7123652edb1f7e13d73fe,Escale,51.515745,-0.079501,Mediterranean Restaurant
994,51.51559139399859,-0.07984196508256786,10,8,52ea74d7498ed9e5971e142f,Capish,51.51479,-0.080437,Italian Restaurant
995,51.51559139399859,-0.07984196508256786,10,9,53bbbca3498e97b80788ab14,Coco di Mama,51.51540236377136,-0.0788574378579436,Italian Restaurant
996,51.5133304646662,-0.07984196508256786,5,0,4ac518def964a520d4a920e3,Adriatico,51.513872,-0.07875,Pizza Place
997,51.5133304646662,-0.07984196508256786,5,1,528cb52b498ecaf72864514f,Osteria Adriatico,51.513974,-0.078883,Italian Restaurant
998,51.5133304646662,-0.07984196508256786,5,2,4c2b9417b34ad13ad501eace,Anokha,51.51375482882119,-0.07923020156645716,Indian Restaurant
999,51.5133304646662,-0.07984196508256786,5,3,4ac518d5f964a52009a820e3,Caravaggio,51.513546170652454,-0.08087234735743551,Italian Restaurant
1000,51.5133304646662,-0.07984196508256786,5,4,4c65392694160f47e7bf2e17,The Japanese Canteen,51.513775,-0.079079,Japanese Restaurant
