,lat_centre,long_centre,num_venues,venue_iter,venue_id,venue_name,lat_venue,long_venue,category
0,56.889599999999994,24.082847058823532,1,0,56c3721acd1039b13ee57f22,Å…ammas ÄŒammas VirtuvÄ«teğŸ™ŒğŸ¼ğŸ‰ğŸŸ,56.891453,24.076654,Asian Restaurant
1,56.889599999999994,24.13755294117647,1,0,5516e41f498e208a938ce8a8,KÄrÄ¼a privÄtais resturans,56.892593,24.139557,American Restaurant
2,56.889599999999994,24.155788235294118,1,0,5686bd2f498e1315b68d8ffe,RÄmavas DÄ«Ä·is,56.88622854404093,24.157518003424034,Australian Restaurant
3,56.889599999999994,24.174023529411766,3,0,569560be498edfe75eb756ea,TumÅ¡Ä Virtuve,56.88638409810341,24.17275563386094,New American Restaurant
4,56.889599999999994,24.174023529411766,3,1,5693dbe9498e277c2991037f,â˜†EmÄ«la VirtuvÄ«teâ˜†,56.88638409810341,24.17275563386094,Sri Lankan Restaurant
5,56.889599999999994,24.174023529411766,3,2,565d99a4498e19281354b215,Kates virtuves galdsğŸ½,56.893153,24.174133,Modern European Restaurant
6,56.8991,24.046376470588235,1,0,54f0aef1498ea31299c07735,Patas â™¥PrinceÅ¡u Pils â™¥,56.89897537231445,24.04684829711914,Afghan Restaurant
7,56.8991,24.064611764705884,1,0,56c6b520cd10e72c699d4c22,Å…ammas ÄŒammas VirtuvÄ«teğŸ˜ŒğŸ’•ğŸ™ˆğŸª,56.900840505681785,24.071566698766723,Cajun / Creole Restaurant
8,56.8991,24.082847058823532,6,0,5f0324d7a320a9115c694b3b,Bento,56.897287,24.080198,Asian Restaurant
9,56.8991,24.082847058823532,6,1,514219c6e4b07d53c5e856d2,'B' Residence,56.89915867707742,24.090821290563913,Cajun / Creole Restaurant
10,56.8991,24.082847058823532,6,2,55dcf3ee498e67591fdd1e2a,Betijas Ledusskapis,56.899873601224456,24.08982754578609,English Restaurant
11,56.8991,24.082847058823532,6,3,50ae8190e4b0211a310f1528,"Ñ€ĞµÑÑ‚Ğ¾Ñ€Ğ°Ğ½ ""Ğ£ Ğ”Ğ¶Ğ¾Ğ½Ğ°""",56.90204112155706,24.086437323545013,Ethiopian Restaurant
12,56.8991,24.082847058823532,6,4,56f96613498e651007ade66f,Virtuve,56.898748767532894,24.08753949110277,New American Restaurant
13,56.8991,24.082847058823532,6,5,4e34438db0fb59390e91dfe4,VANS kafejnica,56.89956205250627,24.084457257745118,Middle Eastern Restaurant
14,56.8991,24.101082352941177,6,0,52d1acd2498e97b641fdc4c1,100 pret 100,56.900066350658626,24.096087999741094,Afghan Restaurant
15,56.8991,24.101082352941177,6,1,581058fb38fa0d91e130912d,PagalmiÅ†Å¡,56.899918,24.097029,Afghan Restaurant
16,56.8991,24.101082352941177,6,2,580e22aed67cd5bd3e45745c,Virtuve,56.89988,24.097063,American Restaurant
17,56.8991,24.101082352941177,6,3,56139168498e55cc2e416936,94.vidusskolas kafeinÄ«cağŸ²,56.89879,24.094139,Belgian Restaurant
18,56.8991,24.101082352941177,6,4,58360bab37da1d46fb190488,Mellenes GÅ«lta,56.899918,24.097029,American Restaurant
19,56.8991,24.101082352941177,6,5,580e22e738fa79522def3043,Balkons,56.89992,24.09705,American Restaurant
20,56.8991,24.13755294117647,2,0,557fe0ba498ea158d50cb036,Woki Toki - A7,56.896299913962096,24.138586027987778,Asian Restaurant
21,56.8991,24.13755294117647,2,1,54012f95498e3112f098619f,"Kitchen, lot of food, heaven.",56.90134811401367,24.14333724975586,Afghan Restaurant
22,56.8991,24.21049411764706,6,0,57114ddf498e10840060681b,Mana virtuvÄ«te,56.90071,24.213644,English Restaurant
23,56.8991,24.21049411764706,6,1,579084c9498e4ecadd77042d,ÄŒavas crib,56.898166,24.211183,Afghan Restaurant
24,56.8991,24.21049411764706,6,2,563ba79acd10b65abc70e6ad,RukÅ¡a Leduskapis,56.9009880763802,24.20464332251599,Belgian Restaurant
25,56.8991,24.21049411764706,6,3,4f6f3aaee4b0463c955ac1e0,weezytis,56.89998240498646,24.21047096470801,Asian Restaurant
26,56.8991,24.21049411764706,6,4,54aaaec3498ee74ea1c7901f,Å aÅ¡liki,56.90042456253029,24.21622106437545,Russian Restaurant
27,56.8991,24.21049411764706,6,5,563a268ccd10942f96837944,EliE,56.8982521493493,24.204843632348844,Belgian Restaurant
28,56.90859999999999,24.082847058823532,9,0,561171b4498e7850865b59ac,lifts,56.910299637690365,24.079761586772047,Filipino Restaurant
29,56.90859999999999,24.082847058823532,9,1,54b7f323498eee8f4d2f57e8,Nestle Oil,56.91046740344065,24.087170838375485,Greek Restaurant
30,56.90859999999999,24.082847058823532,9,2,56095926498ef664d56cde08,RCK Kojas |Äetrisimt un divi|,56.91171638168957,24.07997592615847,French Restaurant
31,56.90859999999999,24.082847058823532,9,3,51092cb3e4b07159e4643d87,sunny,56.905576628688934,24.082743159965545,American Restaurant
32,56.90859999999999,24.082847058823532,9,4,543bb5f4498ec74796097e0c,Direct,56.91206092745397,24.086377986310993,Afghan Restaurant
33,56.90859999999999,24.082847058823532,9,5,525443e111d2a7c149e61f3e,bat kojas virtuve 5.stavs,56.910919189453125,24.078996658325195,Afghan Restaurant
34,56.90859999999999,24.082847058823532,9,6,5624ede1498e6263083efb17,3 StÄvÄ Virtuve Rck KojÄs!,56.911651611328125,24.080265045166016,Italian Restaurant
35,56.90859999999999,24.082847058823532,9,7,56251cbf498eab4f4504ccb9,Rck Koju Virtuve,56.91166422968966,24.07874482091516,American Restaurant
36,56.90859999999999,24.082847058823532,9,8,5479ef20498e3f576febe38a,yolo picÄ“rija ğŸ•ğŸ±,56.90659,24.080803,Asian Restaurant
37,56.90859999999999,24.101082352941177,3,0,56bf6590cd10e3e8d0c213dd,Banketoss,56.90686,24.101809,Belgian Restaurant
38,56.90859999999999,24.101082352941177,3,1,5316190111d20708497fbac0,Ğ§Ğ¸Ñ‚Ğ°Ğ» ĞŸĞµÑ€ĞµĞ´ Ğ¡Ğ½Ğ¾Ğ¼ ĞŸĞµĞ¹Ğ´Ğ¶ĞµÑ€,56.909152,24.096482,Noodle House
39,56.90859999999999,24.101082352941177,3,2,56913af8498eec2ab423c9da,Pipuka Spots,56.90496,24.101967,Asian Restaurant
40,56.90859999999999,24.119317647058825,3,0,5780c872cd1018ed24b15c3d,Edija Hats,56.90972,24.1138,American Restaurant
41,56.90859999999999,24.119317647058825,3,1,5c974b83464d65003997c89e,Papa burger,56.911953,24.123869,Burger Joint
42,56.90859999999999,24.119317647058825,3,2,551df30e498ee9d454f62dda,Daily Snack,56.90911865401336,24.12687547132834,American Restaurant
43,56.90859999999999,24.174023529411766,1,0,56b9ca46498eae8f7242be9b,MaÄ£iskÄ virtuve âœ¨,56.912475860306635,24.17786408876924,Modern European Restaurant
44,56.90859999999999,24.19225882352941,6,0,5a2bd879dec1d670a0fcca3b,PakistÄnas Kebabs | Ä¶engarags,56.90465890158604,24.190998710187184,Pakistani Restaurant
45,56.90859999999999,24.19225882352941,6,1,572902f9498efd09b53c9cc6,LZD,56.909327,24.184773,American Restaurant
46,56.90859999999999,24.19225882352941,6,2,564acfc8498eb267a9d1fe9b,TÄ“ta PankÅ«ku VirtuveğŸ´,56.90790531801312,24.18452575172639,Russian Restaurant
47,56.90859999999999,24.19225882352941,6,3,56c2ecaccd109448bd0e0e75,rlvs ednÄ«ca,56.909732,24.193092,Eastern European Restaurant
48,56.90859999999999,24.19225882352941,6,4,56c02c46cd100eb96ab4ed2b,EmÄ«la KulinÄrijas Å¡ovs ğŸ‚ğŸœğŸ•ğŸ,56.910816,24.185417,Russian Restaurant
49,56.90859999999999,24.19225882352941,6,5,54bac331498e7c86d1a0de3d,Studentu ParadÄ«ze(Pie TomiÅ†a),56.906384541236505,24.187114109868915,Afghan Restaurant
50,56.90859999999999,24.21049411764706,1,0,56c347e1cd105aa9845f3623,Ä¶enÄ£a HoodsğŸ™ˆğŸ™‰,56.90723713123072,24.217376657465486,Caribbean Restaurant
51,56.918099999999995,24.02814117647059,2,0,4f912de4e4b0b77fb854cb2b,vidusskolÄ“nu caffee,56.91813910545754,24.03629730214533,CafÃ©
52,56.918099999999995,24.02814117647059,2,1,55772b88498e24b1a7f565b2,virtuve ğŸ“ğŸŒ,56.91586370803851,24.028616690534765,Romanian Restaurant
53,56.918099999999995,24.046376470588235,3,0,54fb2c0b498e3399ffc9f359,Hercogs,56.91888632706681,24.039226223651706,Eastern European Restaurant
54,56.918099999999995,24.046376470588235,3,1,57279dcd498e94e2f6d7d66b,AncÄnu MÄja,56.91804,24.053333,Austrian Restaurant
55,56.918099999999995,24.046376470588235,3,2,572e3d88498e33a3b1dff9f0,Rizhions,56.917473,24.049376,Australian Restaurant
56,56.918099999999995,24.064611764705884,2,0,553fc0fb498e78fccd34915a,Paleju mÄja,56.91628422115811,24.06575115986615,Arepa Restaurant
57,56.918099999999995,24.064611764705884,2,1,56be1487498e4b2167facd52,Mana ĞºÑƒÑ…Ğ½Ñ ğŸ´,56.91840512437813,24.06854844534079,Modern European Restaurant
58,56.918099999999995,24.101082352941177,6,0,56bdd7d8498e3f0357c59b7e,slepenais spots,56.915542,24.105442,American Restaurant
59,56.918099999999995,24.101082352941177,6,1,56cacc83498e958a8a00c365,Prusakas NÄrnija,56.917101166050195,24.10372779259918,Russian Restaurant
60,56.918099999999995,24.101082352941177,6,2,56854c0c498e8626d00ae1a7,RÄ«ga City SvÄ“tku galds,56.914157948093354,24.10026373483097,American Restaurant
61,56.918099999999995,24.101082352941177,6,3,5797b8a3498e1e6dedcd6d80,Hepa Spots,56.916,24.096666,Australian Restaurant
62,56.918099999999995,24.101082352941177,6,4,4ee75c24be7b4845a6fb12d6,Valis,56.918033599853516,24.104089736938477,Eastern European Restaurant
63,56.918099999999995,24.101082352941177,6,5,5179969ce4b02bb45543bede,KarstÄs Dream Palace,56.914656237918976,24.10365496489834,Latin American Restaurant
64,56.918099999999995,24.174023529411766,2,0,4c4ec0f3d667d13ab101e6a0,Lido | Krievu SÄ“ta | Ğ ÑƒÑÑĞºĞ¸Ğ¹ Ğ”Ğ²Ğ¾Ñ€,56.91840067164272,24.169159491534625,Russian Restaurant
65,56.918099999999995,24.174023529411766,2,1,4f68cc36e4b094ea6d686ae6,Ñƒ Ñ€ÑƒĞºĞ¼Ğ°Ğ½Ğ°,56.91481018066406,24.174894332885742,Asian Restaurant
66,56.918099999999995,24.19225882352941,1,0,5036062ee4b0e092ef6ce3fe,kofe6ka 5tnici,56.92167239474222,24.190642820759948,Afghan Restaurant
67,56.918099999999995,24.2652,1,0,544cef66498e57364d1b8129,omes dzÄ«voklÄ«tisğŸ°ğŸ¡,56.91799545288086,24.264738082885742,American Restaurant
68,56.9276,23.97343529411765,1,0,5d9866e869e2f90008bcc1b4,Ramen & Wok By Yakuza,56.92481,23.978783,Asian Restaurant
69,56.9276,23.991670588235294,1,0,5020e3a7e4b05bc1265032db,airCafe,56.927940314166065,23.986929270234462,Eastern European Restaurant
70,56.9276,24.009905882352943,2,0,4ba285f9f964a520d60038e3,Pludmales sporta centrs â€œBrazÄ«lijaâ€,56.931052573059496,24.005157025781045,Volleyball Court
71,56.9276,24.009905882352943,2,1,571254be498eb84e849bb854,"RestorÄns BEST WESTERN HOTEL ""MÄra""",56.931383558127855,24.00995790924872,American Restaurant
72,56.9276,24.02814117647059,5,0,570e62d6498efe0918e54c21,Elzas SaldÄ“jumu RÅ«pnÄ«ca,56.92899823815468,24.035248102255675,African Restaurant
73,56.9276,24.02814117647059,5,1,535e227f498ea4b8bc795c16,Turkish Snus,56.929024,24.035128,Arepa Restaurant
74,56.9276,24.02814117647059,5,2,5a03547b3362737c54f59edc,Dâ€™arte restorÄns,56.92911538960973,24.035263525298483,Theme Restaurant
75,56.9276,24.02814117647059,5,3,4f63976fe4b0aa8f6646678b,McCafe,56.92902073587713,24.03521421167503,Dessert Shop
76,56.9276,24.02814117647059,5,4,4ba897d1f964a52096e139e3,Gan Bei,56.929097189317254,24.03498960956415,Japanese Restaurant
77,56.9276,24.064611764705884,2,0,4d00f3e32685a35d788ecb90,BieriÅ†krogs,56.92702791141746,24.061963259602646,Eastern European Restaurant
78,56.9276,24.064611764705884,2,1,5034b66ce4b0808b40e837b1,Ä’dnÄ«ca Renault,56.92708193757144,24.05721397120358,Australian Restaurant
79,56.9276,24.082847058823532,2,0,54f2173f498eb81e0d95c787,MaziÅ†Äs SlavenÄ Virtuve,56.9254837628926,24.084292603173914,Asian Restaurant
80,56.9276,24.082847058823532,2,1,56e6b002498e302d2b0bb1ad,"RestorÄns ""omes havÄiks""",56.92906289784402,24.088727888845625,Italian Restaurant
81,56.9276,24.101082352941177,11,0,4d18b013b15cb1f76a10bd21,Asia Express,56.92722445812134,24.102896985501204,Asian Restaurant
82,56.9276,24.101082352941177,11,1,50daf905e4b0b7ab9b646897,Galleria D'arte,56.92622538525204,24.102420850074648,Italian Restaurant
83,56.9276,24.101082352941177,11,2,4c8bac6be51e6dcbb47874de,Gan Bei,56.925357172829784,24.105391149512226,Sushi Restaurant
84,56.9276,24.101082352941177,11,3,521dcb84498ed14ddea7ecad,Sushi Shop | RÄ«ga Plaza,56.927356835848585,24.10186584947385,Japanese Restaurant
85,56.9276,24.101082352941177,11,4,52fe44d7498eb2eeb0217f56,Ristorante italiano,56.926132513506,24.102370500914517,Italian Restaurant
86,56.9276,24.101082352941177,11,5,5a2a5c9a79187104ddc84961,My Plov,56.92711,24.103453,Middle Eastern Restaurant
87,56.9276,24.101082352941177,11,6,57939b09498eec1c6c65080a,Pizza Panino Focaccia,56.92715874586349,24.103164493369537,Italian Restaurant
88,56.9276,24.101082352941177,11,7,53cfdb4d498e307da1f0276e,D'ante,56.926032,24.101993,Italian Restaurant
89,56.9276,24.101082352941177,11,8,4fdefbaee4b0627bb6dca442,Garuda,56.92706080002285,24.102394985060346,Vegetarian / Vegan Restaurant
90,56.9276,24.101082352941177,11,9,559d09dd498ebd10c97dec44,Agn Kaka,56.927252807276886,24.10455022794678,Afghan Restaurant
91,56.9276,24.101082352941177,11,10,558d72b1498e0bfd5f3daa5a,Gan BeiğŸ±,56.9253862585074,24.1058336072711,Sushi Restaurant
92,56.9276,24.155788235294118,4,0,4bb6e059941ad13a1d1f20e3,Lido AtpÅ«tas centrs,56.92713124940389,24.160384514709364,General Entertainment
93,56.9276,24.155788235294118,4,1,4cceb197566aa093e0862efd,Orhideja,56.931365237928546,24.1549364243721,Eastern European Restaurant
94,56.9276,24.155788235294118,4,2,5666ac4e498e192175adf878,Ğ¨ĞºĞ¾Ğ»ÑŒĞ½Ğ°Ñ Ğ±Ğ»ĞµĞ²Ğ°Ğ»Ğ¾Ğ²ĞºĞ°,56.92720149787637,24.16171681519251,Afghan Restaurant
95,56.9276,24.155788235294118,4,3,562a570e498e68c8d7a51ea6,LidiÅ†Å¡ğŸ’‹ğŸ˜âœ¨ğŸ‘ŒğŸ¾,56.927107,24.16027,American Restaurant
96,56.9276,24.174023529411766,12,0,5ca62e09a22db7002c5e7bd0,CHI,56.924272,24.172996,Asian Restaurant
97,56.9276,24.174023529411766,12,1,55b54da1498e57005a482e86,Bro Place.,56.93163433387899,24.176079007808955,African Restaurant
98,56.9276,24.174023529411766,12,2,5c544898029a55003afdb67b,O'Learys,56.923643460981,24.175028800964,American Restaurant
99,56.9276,24.174023529411766,12,3,5ca716cc345cbe0039c31928,Sushi Express,56.924659,24.173264,Sushi Restaurant
100,56.9276,24.174023529411766,12,4,4d9ddfdb50aa41bd077514e1,Hesburger,56.92862594301778,24.180780769329505,Fast Food Restaurant
101,56.9276,24.174023529411766,12,5,5697dcec498ed9c3adcbc289,Ä¶Ä«nieÅ¡u Bufete,56.92792656811382,24.17892141699868,Chinese Restaurant
102,56.9276,24.174023529411766,12,6,5ca862cce65d0c002ca67329,Gan Bei,56.924275,24.175047,Asian Restaurant
103,56.9276,24.174023529411766,12,7,4f8b5cdce4b0089deab66256,Ğ¼Ğ°Ğ½Ğ°Ñ‰Ğ¸Ğ½ Ñ…ÑÑĞ° Ğ¿Ğ´Ñ€Ñ Ğ¿Ñ€Ğ´Ñ‚Ñ€,56.9273681640625,24.176633834838867,Asian Restaurant
104,56.9276,24.174023529411766,12,8,5cd166083e67410039462b82,Khinkalnya,56.92371,24.175102,Caucasian Restaurant
105,56.9276,24.174023529411766,12,9,550995e8498e04ef460bb034,"KafejnÄ«ca ""Å eherezade""",56.92649459838867,24.171646118164062,Turkish Restaurant
106,56.9276,24.174023529411766,12,10,555d6ada498e13a58c63a149,stulbÄs B klases autobuss ğŸ˜ğŸ˜‚ğŸ™ğŸ˜•,56.929594,24.17853,American Restaurant
107,56.9276,24.174023529411766,12,11,5ca5ec83c0cacb002c6d564f,Chi Restaurant,56.92466,24.174938,Asian Restaurant
108,56.9276,24.19225882352941,1,0,53c79977498e17e45082c85d,"RestorÄns ""Pasta Banka""",56.926512262914144,24.188729803503858,Dim Sum Restaurant
109,56.9276,24.21049411764706,1,0,530c57b3498e19bd009175b3,Tokyo city piegade,56.92974924608971,24.212365798096464,Eastern European Restaurant
110,56.937099999999994,24.009905882352943,1,0,567c02ce498ee565c8a1cb39,BrÄlÄ“na Villa,56.939632,24.00704,Asian Restaurant
111,56.937099999999994,24.02814117647059,1,0,58514ff6b792071effa57780,KiÄen,56.939316,24.028032,American Restaurant
112,56.937099999999994,24.046376470588235,3,0,5839f5b1f5957266590902a7,PatriÅ¡as Hood,56.93799,24.040617,Thai Restaurant
113,56.937099999999994,24.046376470588235,3,1,4ccefeca7c2ff04d66f0a77e,Loft Bar,56.93588672417448,24.04060264236568,Sushi Restaurant
114,56.937099999999994,24.046376470588235,3,2,4d38170b803ba35db26f98fc,V. Kuze Cafe,56.933992,24.042410699999998,Eastern European Restaurant
115,56.937099999999994,24.064611764705884,7,0,4dc5716bc65b89d3ca6e2619,Grill Garden,56.937511206035815,24.07183257334713,BBQ Joint
116,56.937099999999994,24.064611764705884,7,1,56728e94498e0b66c13fe1c2,Mana MÄ«Ä¼Ä Virtuve â¤ğŸ˜,56.93643117086704,24.060154639958093,Belgian Restaurant
117,56.937099999999994,24.064611764705884,7,2,5f393f3c5b880d2337dd935d,Wing Point Agenskalns,56.935291,24.071677,Fried Chicken Joint
118,56.937099999999994,24.064611764705884,7,3,56d67b69cd108f0e0348b249,KuhÅ†a,56.93729903385596,24.06775536104825,Kosher Restaurant
119,56.937099999999994,24.064611764705884,7,4,5330276e498ed943a7e27e58,Å ah Dag kafejnÄ«ca,56.936621378312346,24.06243457850175,Middle Eastern Restaurant
120,56.937099999999994,24.064611764705884,7,5,56bef3facd10ca8b7a2381ef,RestorÄns VÄ«noga,56.935616,24.070118,Modern European Restaurant
121,56.937099999999994,24.064611764705884,7,6,57fca7a2cd10f82fd9df9bb7,SmirdeklÄ«tis,56.936657,24.062328,Burmese Restaurant
122,56.937099999999994,24.082847058823532,16,0,56972a8e498e51464e596507,MÄ«Ä¼a VirtuvÄ«teğŸ²ğŸğŸ’–ğŸ˜›,56.93453907747129,24.077373279916447,American Restaurant
123,56.937099999999994,24.082847058823532,16,1,5485466d498ecdf0dbab5110,Beizakas kabinets yolo,56.93655776977539,24.07559585571289,Argentinian Restaurant
124,56.937099999999994,24.082847058823532,16,2,59d3ee4e9e0d540b4eda7cd1,Thai,56.93484,24.084557,Thai Restaurant
125,56.937099999999994,24.082847058823532,16,3,54463c21498e9497034c83c9,CÄ«rules kabinets it is,56.93576028705423,24.07517580131969,Arepa Restaurant
126,56.937099999999994,24.082847058823532,16,4,56f2666f498edfbced7882d0,Veco makaronu fabrika,56.936016212988065,24.07512000856341,Afghan Restaurant
127,56.937099999999994,24.082847058823532,16,5,54ab8b96498e292b4b8b90af,AhujenÄ Bufete ğŸ‘ŒğŸ˜,56.9363892655011,24.07698386074168,American Restaurant
128,56.937099999999994,24.082847058823532,16,6,57e2e9cbcd1069727e1ffdeb,4 stÃ£va virtuve,56.9344322477164,24.078670109252208,Italian Restaurant
129,56.937099999999994,24.082847058823532,16,7,57fbd503cd10bc661c169fe8,5 stÃ£va virtuve,56.934441,24.07868,Noodle House
130,56.937099999999994,24.082847058823532,16,8,51fbeaad498e92ddacdf8781,U.P.,56.93946838378906,24.085351943969727,American Restaurant
131,56.937099999999994,24.082847058823532,16,9,561239fb498e24d0712b474e,fbps Ä“dnÄ«ca ğŸ´,56.93607154763361,24.07483068522608,Afghan Restaurant
132,56.937099999999994,24.082847058823532,16,10,5b157b6cbf7dde002c247123,Le Sommet,56.941519,24.081622,French Restaurant
133,56.937099999999994,24.082847058823532,16,11,57f95bc3498ec833f7f0d7d8,2 stÃ£va istaba,56.934443,24.078646,Chinese Restaurant
134,56.937099999999994,24.082847058823532,16,12,5ba291c3237dee00398170d1,4. StÄva Virtuve,56.934414,24.078299,Asian Restaurant
135,56.937099999999994,24.082847058823532,16,13,580dddc738fa00cd4ae31fef,4. StÄva Virtuve,56.9344219315505,24.078701416094543,Diner
136,56.937099999999994,24.082847058823532,16,14,56b47483498e6f4bdbebb108,1.stÄva Gaitenis,56.936196066492286,24.075727060490923,Burmese Restaurant
137,56.937099999999994,24.082847058823532,16,15,56b440f8498ee69bfe1c323f,Fbps Ä“dnÄ«ca ğŸ´ğŸ•ğŸ”ğŸŸğŸ—ğŸ·,56.93619357282219,24.075396015136104,Afghan Restaurant
138,56.937099999999994,24.119317647058825,2,0,5687c654498eaff180e06379,Galleria Riga Terrace,56.938494957928526,24.119376245792044,Modern European Restaurant
139,56.937099999999994,24.119317647058825,2,1,51985aa3498e0a870620f068,RIMI TELTS,56.93872994827726,24.123234563266067,Ethiopian Restaurant
140,56.937099999999994,24.13755294117647,4,0,4cd9236b53a7f04dc58f6616,Thali,56.93464909229489,24.14300896408727,Indian Restaurant
141,56.937099999999994,24.13755294117647,4,1,51921566454a8a1ab5bfb73b,Sushimania.lv - Sushi delivery in Riga,56.94078392652786,24.135310649871826,Sushi Restaurant
142,56.937099999999994,24.13755294117647,4,2,4cefe05b4cd4236a3a0bb563,Gan Bei,56.93505561367251,24.144087280384653,Sushi Restaurant
143,56.937099999999994,24.13755294117647,4,3,4f0ac565e4b05dd3a575003a,mÄjas virtuve,56.93962097167969,24.13667106628418,American Restaurant
144,56.937099999999994,24.155788235294118,4,0,56a227b6498e6ed135b96ff4,roza tualetes,56.935895944459446,24.150648688179228,Asian Restaurant
145,56.937099999999994,24.155788235294118,4,1,53e340b4498e538892501767,Ä“diens â¤â¤ğŸ‘Œ,56.939510345458984,24.157041549682617,African Restaurant
146,56.937099999999994,24.155788235294118,4,2,513638e7e4b080cc18a848b4,Gastronom,56.93528531444861,24.160753697809437,Spanish Restaurant
147,56.937099999999994,24.155788235294118,4,3,568d4672498ef37a8728becc,Ä’dam galds pie DÅ¾Å«lijas,56.94001,24.153123,Caribbean Restaurant
148,56.937099999999994,24.19225882352941,7,0,56028fb7498e1615e7b19575,âœŒğŸŒ,56.93513812550413,24.196446125288574,German Restaurant
149,56.937099999999994,24.19225882352941,7,1,584489f0c5f8a71c82567dde,Paulas kuhnja be like,56.938038,24.199368,New American Restaurant
150,56.937099999999994,24.19225882352941,7,2,56094a87498e66c681f28df0,DublinaâœŒ,56.93501578980587,24.19650081564036,German Restaurant
151,56.937099999999994,24.19225882352941,7,3,570ced57498e753ccc41cc0d,CeÄ¼Ä Uz MaÄ·iti,56.94071093102537,24.195676924884058,American Restaurant
152,56.937099999999994,24.19225882352941,7,4,58ada0d254386d1bcfed2779,Paulas Ä£eniÄlÄ virtuve,56.938778,24.198891,New American Restaurant
153,56.937099999999994,24.19225882352941,7,5,577d1428498ebe020047141e,TÄ mana nabaga virtuve,56.938972,24.198991,Modern European Restaurant
154,56.937099999999994,24.19225882352941,7,6,58af01de4bc2f172e74b9cde,Paulas Ä£eniÄlÄ virtuve,56.939002,24.198889,New American Restaurant
155,56.937099999999994,24.21049411764706,6,0,53a59d34498e65f063d74045,keldisa 22(Mareka Rezidence),56.93800354003906,24.20856475830078,Austrian Restaurant
156,56.937099999999994,24.21049411764706,6,1,5516bfe2498e3be5c4e88020,braÄkas rezidence pÄ¼avniekos,56.938066,24.20899,Arepa Restaurant
157,56.937099999999994,24.21049411764706,6,2,571b9979498e2192c2aa9804,"sushi ""Hotei""",56.935349,24.20842,Sushi Restaurant
158,56.937099999999994,24.21049411764706,6,3,574d6bb9498e8781e518ae8a,VANS,56.933273,24.209538,Afghan Restaurant
159,56.937099999999994,24.21049411764706,6,4,517c24f3e4b01fb949bbc229,KeldiÅ¡a 34,56.937912,24.212768,Eastern European Restaurant
160,56.937099999999994,24.21049411764706,6,5,54c79b14498eb9899f0d38bd,Dostlar,56.939292,24.204432,Turkish Restaurant
161,56.937099999999994,24.228729411764707,2,0,586e88064c53125a901e6ee4,"Taco VairoÅ¡anÄs ""Gremlins""",56.94041,24.226181,Taco Place
162,56.937099999999994,24.228729411764707,2,1,56e74a46498e22d4dc0628b7,maja gulta salnas iela28,56.940890076442855,24.226609727540442,Cajun / Creole Restaurant
163,56.937099999999994,24.246964705882352,1,0,563cf813cd10872623ce39b7,Ances Hata ğŸ‘£ğŸ‘‘,56.93621100910174,24.25039185916949,Asian Restaurant
164,56.937099999999994,24.2652,1,0,56799793498e5c3e8675185b,DÄvÄ«Å¡a PaÄŸis,56.93482,24.262701,Korean Restaurant
165,56.9466,24.009905882352943,12,0,55fee43c498edd651e7a1899,vanniÅ†a,56.94724401567106,24.0125975462999,German Restaurant
166,56.9466,24.009905882352943,12,1,5612d3e6498ef8419e18009a,Gulta,56.947381,24.012601,German Restaurant
167,56.9466,24.009905882352943,12,2,5601980e498e24dd5446ceb9,KÅ«kiÅ†,56.947273,24.012618,German Restaurant
168,56.9466,24.009905882352943,12,3,55ff8db3498eb6c6ff3f39f1,PaÅ¡Ä gultiÅ†as vidÅ« â¤ï¸,56.947243,24.012588,German Restaurant
169,56.9466,24.009905882352943,12,4,55f9a0fa498ed274809bf6f5,palodzeğŸ’ğŸ¼ğŸ˜‚â¤ï¸ğŸ’¥,56.94727782191377,24.012517611398554,Afghan Restaurant
170,56.9466,24.009905882352943,12,5,55fd317c498ef74c23a93bec,Fift Harmony vieta â¤ï¸ğŸ˜‚ğŸ’ğŸ¼,56.947296,24.012556,German Restaurant
171,56.9466,24.009905882352943,12,6,5606d1bf498e2b2f60a551ae,"Vieta , kur mums pÄrtijs",56.947322,24.012994,German Restaurant
172,56.9466,24.009905882352943,12,7,5602e418498e2dde31734038,prinetra pasaule,56.947226,24.012537,German Restaurant
173,56.9466,24.009905882352943,12,8,560aa595498e655d62ca1fc3,brÄÄ¼a karaÄ¼valstÄ«ba,56.947256,24.012586,German Restaurant
174,56.9466,24.009905882352943,12,9,55fe6308498ef8eb5512270e,Virtuves palodze,56.94727,24.012609,German Restaurant
175,56.9466,24.009905882352943,12,10,5601b7f7498e6a1837426a75,Pie gultiÅ†as,56.947335,24.012537,German Restaurant
176,56.9466,24.009905882352943,12,11,55fd3ee5498ef87edba8a91a,Ä¶jip ÄrÄ,56.947276,24.012569,German Restaurant
177,56.9466,24.02814117647059,4,0,583bf19b1d21ba48bf73d42c,Noliktava JÅ«rkalnes IelÄ,56.942863,24.030922,Sushi Restaurant
178,56.9466,24.02814117647059,4,1,56a23861498e197a8dcd0080,Patricijas ledusskapis,56.944648,24.026355,Afghan Restaurant
179,56.9466,24.02814117647059,4,2,56124123498e53f28e312477,kambaris,56.946505,24.02018,German Restaurant
180,56.9466,24.02814117647059,4,3,5612417c498e447ac403025e,kambaris,56.947469,24.021129,German Restaurant
181,56.9466,24.046376470588235,2,0,5294846911d250ebb82b7701,31. Kabinets | PVP,56.94441223144531,24.05231475830078,Arepa Restaurant
182,56.9466,24.046376470588235,2,1,56d0126acd10744a24f573e4,ĞĞ±Ñ‰ĞµÑÑ‚Ğ²Ğ¾ Ğ»Ğ°Ñ‚Ñ‹ÑˆĞµĞ¹ Ğ¸Ğ¼ĞµĞ½Ğ¸ Ğ˜Ğ½Ğ³Ñ€Ğ¸Ğ´Ñ‹ Ğ¦ĞµĞ»Ğ¸Ñ‚Ğ°Ğ½Ğµ,56.949043,24.0529,Italian Restaurant
183,56.9466,24.064611764705884,11,0,55535efe498ee51e2a8dc130,Fei Fei,56.94528560136912,24.0644561331297,Middle Eastern Restaurant
184,56.9466,24.064611764705884,11,1,5715b8f4cd1037bdb83e2174,RvvÄ£ Caurums,56.944080462398915,24.065048340639496,Cajun / Creole Restaurant
185,56.9466,24.064611764705884,11,2,50647a56e4b03811ff7edb6b,Hazner hood,56.948460289011926,24.068004850265048,Burrito Place
186,56.9466,24.064611764705884,11,3,595bc26b6e4650291fd20562,SUSHI DELUXE,56.943293,24.068737,Sushi Restaurant
187,56.9466,24.064611764705884,11,4,55fc6049498ef83ca5686546,Alus Pagrabins,56.9437370300293,24.06641960144043,Russian Restaurant
188,56.9466,24.064611764705884,11,5,587f43f22896a2782c7a585b,muy bien fantastico,56.947258,24.063501,Paella Restaurant
189,56.9466,24.064611764705884,11,6,54d1e5d5498e4d3403638511,u gali #edaestjvsegda,56.94644438230937,24.066761161348325,Argentinian Restaurant
190,56.9466,24.064611764705884,11,7,4c1fa638a34cd13a7b0f7d74,"RestorÄns ""MÄja""",56.94309214239475,24.066287717209978,Eastern European Restaurant
191,56.9466,24.064611764705884,11,8,523c302911d2910cea1ff7b6,martin,56.94773483276367,24.07244110107422,Indian Restaurant
192,56.9466,24.064611764705884,11,9,58734e87d4ab735c99e0042e,bergas vÄrnas rÄ“ka,56.947109,24.062885,German Restaurant
193,56.9466,24.064611764705884,11,10,4ca1b0c346978cfa4c09be7f,Fei Fei,56.94536716261778,24.064278200030742,Asian Restaurant
194,56.9466,24.082847058823532,15,0,4ed8b36a77c8274efb03842d,Fazenda,56.94330627594964,24.078110724741922,Gastropub
195,56.9466,24.082847058823532,15,1,5c5e698fe0c0c9002c97afbb,Buhara,56.944235,24.079103,Middle Eastern Restaurant
196,56.9466,24.082847058823532,15,2,563735ba498ec7728556a7b4,RTU EEF | Ä¶Ä«nieÅ¡u RestorÄns,56.95064963967924,24.079897739301472,Chinese Restaurant
197,56.9466,24.082847058823532,15,3,5836d31294c6904b80eb8588,Bocca Buona,56.94697060169586,24.077303494775123,Italian Restaurant
198,56.9466,24.082847058823532,15,4,5a4fb4305f68b95208f2d6c5,Sushi Express,56.949694471997105,24.083119997805323,Sushi Restaurant
199,56.9466,24.082847058823532,15,5,56599d8b498ebf764eea7b02,Ä¶Ä«nieÅ¡u Ä’dieni,56.949363638780504,24.083265624601136,Cantonese Restaurant
200,56.9466,24.082847058823532,15,6,50f92c50e4b05eaa31fc7bea,MeÅ¾a vecis,56.94308206408798,24.078088821843785,CafÃ©
201,56.9466,24.082847058823532,15,7,59fdea0e947c052835568a74,Ze Sukin San,56.944096211352594,24.08010851962964,Japanese Restaurant
202,56.9466,24.082847058823532,15,8,52679252498e0ebc36aa0999,PusdienslaikÄ,56.948804074710175,24.08238121522002,Eastern European Restaurant
203,56.9466,24.082847058823532,15,9,4eb3b5c3be7bfc284987e340,Woki Toki,56.94942801536442,24.08266047100773,Asian Restaurant
204,56.9466,24.082847058823532,15,10,4d5cfe4aff226a3125997c69,Pipars,56.94937741500843,24.08294156326117,Eastern European Restaurant
205,56.9466,24.082847058823532,15,11,54881995498ea6687fd26b20,bufet. #koraskola,56.94531397013423,24.075426828157592,Jewish Restaurant
206,56.9466,24.082847058823532,15,12,54d09a2a498e1641466d6d3b,EDMV kafejnÄ«ca,56.94527095889895,24.07730416406964,Afghan Restaurant
207,56.9466,24.082847058823532,15,13,552f4b9c498e8418507e1cdd,susÄ¼iks musÄ¼ika,56.945131,24.07625,Asian Restaurant
208,56.9466,24.082847058823532,15,14,56532d6f498e779f35e1c66a,619. klasÄ«te ğŸ”â£ğŸ¹,56.944736,24.076816,Tibetan Restaurant
209,56.9466,24.101082352941177,49,0,5da02cfdbc323e0007607a1e,Bep Viet Virtuve,56.949114228040834,24.102059304714203,Vietnamese Restaurant
210,56.9466,24.101082352941177,49,1,4ca63df2eda2236a0d5189de,Folkklubs Ala Pagrabs,56.946582177645325,24.107327259644332,Bar
211,56.9466,24.101082352941177,49,2,4c87a4fdd8086dcb90caa352,Lido Alus sÄ“ta,56.948982,24.106775,Eastern European Restaurant
212,56.9466,24.101082352941177,49,3,596a3ef693bd637ca72fd2fd,Piazza Italiana,56.94937224672099,24.102421024817666,Italian Restaurant
213,56.9466,24.101082352941177,49,4,4e44fee6d164821e11697412,T.G.I. Friday's,56.94856292959116,24.108389868305313,American Restaurant
214,56.9466,24.101082352941177,49,5,4bc2f817f8219c74f06bb510,Vecmeita ar KaÄ·i,56.95090505965167,24.102178405149754,Eastern European Restaurant
215,56.9466,24.101082352941177,49,6,58626b8aea1c0d0332587655,Bwhbw,56.94965,24.105186,American Restaurant
216,56.9466,24.101082352941177,49,7,4c87d7712a1f6dcb6255c5ee,Double Coffee,56.94732530582534,24.108073465417597,Coffee Shop
217,56.9466,24.101082352941177,49,8,52512336498e13088fe4a0a7,Tokyo City,56.948220471451734,24.106759589422765,Sushi Restaurant
218,56.9466,24.101082352941177,49,9,5bac738b4aa3f8002c7e0d82,Aprika Restaurant,56.951042,24.101608,Modern European Restaurant
219,56.9466,24.101082352941177,49,10,5e04912c117a3c0008262367,Confucius Restaurant,56.950215,24.102172,Chinese Restaurant
220,56.9466,24.101082352941177,49,11,5012e205e4b0befd12a27df2,Dinner in the Sky,56.9467918588798,24.106088771342474,Modern European Restaurant
221,56.9466,24.101082352941177,49,12,4f6c8372bb3d8e65c2130aeb,"RestorÄns ""S. Brevings""",56.94910516599325,24.106550655833047,Eastern European Restaurant
222,56.9466,24.101082352941177,49,13,4eb288be9adfb95b77c54e2c,Restaurant Bourse,56.94973831495913,24.105268704586653,French Restaurant
223,56.9466,24.101082352941177,49,14,52ac5b02498ea90b29d19b4e,Hwesburgers @old_riga,56.94801330566406,24.107566833496094,American Restaurant
224,56.9466,24.101082352941177,49,15,4fd1c55ae4b0fd4c8ffe5690,Da Guido,56.948918,24.102252,Italian Restaurant
225,56.9466,24.101082352941177,49,16,57e5163a38fa0ba0bd774180,Garden,56.94771356453268,24.10752562542918,Eastern European Restaurant
226,56.9466,24.101082352941177,49,17,535ea347498ee364e154cdcc,RestorÄns â€œSuiteâ€,56.950162315253486,24.103095181244722,Eastern European Restaurant
227,56.9466,24.101082352941177,49,18,4c025f3a187ec9287017b47b,Province,56.94757095999434,24.107504065313883,Eastern European Restaurant
228,56.9466,24.101082352941177,49,19,4bcc38c6b6c49c748a539391,Soraksans,56.94935356007765,24.10240789422406,Korean Restaurant
229,56.9466,24.101082352941177,49,20,4ccc75ed54f0b1f730a916ca,Restaurant Le Dome,56.9498210529159,24.10334365190386,Seafood Restaurant
230,56.9466,24.101082352941177,49,21,56a5f9de498e8d3651a2560d,EL SANTO X,56.95031094888923,24.102108047762503,Mexican Restaurant
231,56.9466,24.101082352941177,49,22,4c7126529375a09364f20837,Il Patio,56.9485737598492,24.108380037960547,Italian Restaurant
232,56.9466,24.101082352941177,49,23,5181446c498e994dc3d4d5d9,Key to Riga,56.94996608427288,24.105511389737323,Eastern European Restaurant
233,56.9466,24.101082352941177,49,24,4fd1c451e4b00874272b37d0,foodzone,56.94897566157967,24.10178066188263,Arepa Restaurant
234,56.9466,24.101082352941177,49,25,557d8c90498e50e3ed2cb925,Urth Caffe,56.9499626159668,24.102083206176758,American Restaurant
235,56.9466,24.101082352941177,49,26,4cb09948db32f04de910c14d,RozengrÄls | Authentic Medieval Restaurant,56.94842319196593,24.10651132156364,Eastern European Restaurant
236,56.9466,24.101082352941177,49,27,4c59a7d85c57c9b60e531b4a,Alus arsenÄls,56.95088773926421,24.102402167072,Bar
237,56.9466,24.101082352941177,49,28,517d80fe498ef6c9eed20f3b,mÅ«kusalas 27,56.943533398486146,24.096501234946725,Asian Restaurant
238,56.9466,24.101082352941177,49,29,511c9987e4b0b784eedee890,JÅ«lijai nedod,56.947017669677734,24.109207153320312,African Restaurant
239,56.9466,24.101082352941177,49,30,56adbe73498ee7b0fad18693,SuperÄ«gÄ GÅ«lta ğŸ˜ŠğŸ˜Šâ¤â¤ğŸ‘,56.948135,24.105072,Burmese Restaurant
240,56.9466,24.101082352941177,49,31,4e71f6cc81dca8eb66735c3f,Indian Raja,56.94768015551769,24.1086956982456,Indian Restaurant
241,56.9466,24.101082352941177,49,32,4fa550dae4b0bbcd49d4b480,Vertigo,56.94897822202012,24.105915271410108,Arepa Restaurant
242,56.9466,24.101082352941177,49,33,5730a30f498e77d16f55e5c8,Garden Palace Terrace,56.946598,24.106967,Turkish Restaurant
243,56.9466,24.101082352941177,49,34,599866ca35d3fc52cdcbdcd7,MO RestBar,56.94916389059335,24.101665044854865,Asian Restaurant
244,56.9466,24.101082352941177,49,35,4d1de64c5acaa35ddcd3b135,Olive Oil Trading Co.,56.9510465566423,24.102335695247664,Italian Restaurant
245,56.9466,24.101082352941177,49,36,4c6ecfa0d274b60c48a6d40d,Tequila Boom,56.9504281766548,24.10350692372413,Bar
246,56.9466,24.101082352941177,49,37,55f28825498eb521b6090937,rv3g |barÄ«bas izdoÅ¡ana,56.94666920569262,24.10914750434196,Afghan Restaurant
247,56.9466,24.101082352941177,49,38,573de498498e5dc488a0ee05,"RestorÄns ""Per sÃ©""",56.950119167398604,24.10572924020564,French Restaurant
248,56.9466,24.101082352941177,49,39,5766b023498e84f6e8873360,SweetCafe,56.94892,24.10653,French Restaurant
249,56.9466,24.101082352941177,49,40,582831772a4e2b39f91f1a1f,Mamma Pasta,56.94759875742442,24.106928939170338,Italian Restaurant
250,56.9466,24.101082352941177,49,41,53ef7491498e3f089ce15c4f,Avgustin,56.94926834106445,24.106477737426758,Modern European Restaurant
251,56.9466,24.101082352941177,49,42,4e4157c8b3adee0e38fd90a6,MikelandÅ¾elo,56.94902353228577,24.102061986923218,Italian Restaurant
252,56.9466,24.101082352941177,49,43,4c3dedbff2dd9c74d5a07e0c,Desiderata,56.94823944661416,24.107570805564865,Eastern European Restaurant
253,56.9466,24.101082352941177,49,44,5f774fefa36f807252f07da5,Kwakinn Dome Belgian Beer Cafe,56.949146,24.105932,Belgian Restaurant
254,56.9466,24.101082352941177,49,45,57c576e0498e9cb25cebfaad,yoooooz,56.946462,24.107708,American Restaurant
255,56.9466,24.101082352941177,49,46,51434c15e4b02fe84ca40e48,Vinarium Civitatis Regensis,56.948390026959544,24.10627884298986,Eastern European Restaurant
256,56.9466,24.101082352941177,49,47,537cb5b3498ee189b9ff694a,Valtera restorÄna terase,56.94987582251973,24.10301551704449,Eastern European Restaurant
257,56.9466,24.101082352941177,49,48,54199c0b498efed5afde73c3,MUUSU,56.94824396099752,24.108760882820704,Modern European Restaurant
258,56.9466,24.119317647058825,50,0,509f76df8aca8a7035a4481a,Karjala,56.946936558430586,24.112899756036366,BBQ Joint
259,56.9466,24.119317647058825,50,1,5c647d07628c83002c324d19,Latvian Heroes,56.947179,24.111645,Bar
260,56.9466,24.119317647058825,50,2,4ebac0ae30f8f933b14423a3,FOREST,56.94976055467626,24.116375844707374,African Restaurant
261,56.9466,24.119317647058825,50,3,50d32ecbe4b007059e436cb5,Wok to Walk,56.94794689884915,24.11429410070541,Noodle House
262,56.9466,24.119317647058825,50,4,4ce5571fdfaef04def8d6d83,Garage,56.95028917906172,24.122267088055317,Tapas Restaurant
263,56.9466,24.119317647058825,50,5,5427ffbd498ed8ce5dc9cb5c,Sushi city,56.94875512688956,24.113008970261873,Sushi Restaurant
264,56.9466,24.119317647058825,50,6,550d75f9498e5f9032e5bb38,Uzbek kitchen // Uzbeku virtuve,56.94832394293491,24.12105726104335,Middle Eastern Restaurant
265,56.9466,24.119317647058825,50,7,4bbde752f57ba593b397aeb9,Trattoria del Popolo,56.94761448874724,24.11143910919798,Italian Restaurant
266,56.9466,24.119317647058825,50,8,5ce140e26fd626002cf414e1,Yaki,56.944,24.115093,Asian Restaurant
267,56.9466,24.119317647058825,50,9,55315358498e4134d6811410,Baracuda,56.94650067303087,24.111970146198615,Mediterranean Restaurant
268,56.9466,24.119317647058825,50,10,57977c9e498e0172db3c3a83,Pie Kanala,56.945026,24.115656,American Restaurant
269,56.9466,24.119317647058825,50,11,5cc5b2483ba767002b74f942,Kiosk,56.944063,24.115055,Asian Restaurant
270,56.9466,24.119317647058825,50,12,57795d67498e9b4c31c3b89c,"RestorÄns""ENTERSOL""",56.949745,24.122053,French Restaurant
271,56.9466,24.119317647058825,50,13,5412fa2e498ee067d84c2ecb,Gvatar,56.948227344305664,24.123216039021727,Bakery
272,56.9466,24.119317647058825,50,14,5c87b8103af988002cd68334,Wok N Boil,56.943623,24.11485,Asian Restaurant
273,56.9466,24.119317647058825,50,15,5c0a67ad3fffb40025c4850c,Ches Olivier Cafe,56.947777,24.111584,French Restaurant
274,56.9466,24.119317647058825,50,16,56f2c504498ee0787a753e98,VecmÄmiÅ†as mÄjÄ«te,56.947662,24.125021,American Restaurant
275,56.9466,24.119317647058825,50,17,526bca6c498e47338a8a5574,Turkkebab,56.94824825516712,24.120880322173115,Turkish Restaurant
276,56.9466,24.119317647058825,50,18,554e14a1498e2dcf8ffd7bf4,Burger Bar,56.94996974767598,24.118300043344817,American Restaurant
277,56.9466,24.119317647058825,50,19,546b8d07498eb98e45eacb43,El Mexicano,56.94856721786774,24.120847402478066,Mexican Restaurant
278,56.9466,24.119317647058825,50,20,577abd0b498e9c7c86707733,"RestorÄns ""ENTERSOL""",56.949444,24.12233,French Restaurant
279,56.9466,24.119317647058825,50,21,4c7e6522b33a224bd3bfda81,Gan Bei,56.94743254204814,24.120998813445045,Japanese Restaurant
280,56.9466,24.119317647058825,50,22,4dfb19a9ae60c9cdd3889953,Emirat Kebab,56.946602,24.113921,Kebab Restaurant
281,56.9466,24.119317647058825,50,23,57efb284498e6c4e267e33fc,Mathan's place,56.946762,24.120087,American Restaurant
282,56.9466,24.119317647058825,50,24,568eb5fa498ec74349d7173d,Escargot Cafe,56.947059231469865,24.111667783437465,Spanish Restaurant
283,56.9466,24.119317647058825,50,25,536642f7498e6015fa71098c,De Commerce Gastro pub 1871,56.94660532291558,24.1150732073967,Gastropub
284,56.9466,24.119317647058825,50,26,4f796519e4b0e91fa8b5571e,GarlÄ«bs 13,56.95062707068361,24.116936791446836,Cafeteria
285,56.9466,24.119317647058825,50,27,55f2a42f498edb125f313e86,PelmeÅ†u stÅ«rÄ«tis,56.943535477757486,24.11438967073321,Pelmeni House
286,56.9466,24.119317647058825,50,28,513b7cfbe4b093aa40469b29,Gan Bei,56.94805607937997,24.111791124067558,Japanese Restaurant
287,56.9466,24.119317647058825,50,29,53b850ce498ea4c1b1e17010,Ilpatio,56.94806112251733,24.112915363648238,Asian Restaurant
288,56.9466,24.119317647058825,50,30,58047a2c38fa1ab23a0eb136,Bufete 310,56.949184,24.122267,Belgian Restaurant
289,56.9466,24.119317647058825,50,31,4f783937e4b07024fb43ac2e,Il Patio & Planet Sushi,56.94795547693975,24.113134971039738,Italian Restaurant
290,56.9466,24.119317647058825,50,32,4d6115e91ee8721e6d48b221,Akhtamar,56.94915723596599,24.119078847587907,Eastern European Restaurant
291,56.9466,24.119317647058825,50,33,54b55982498e359e7ac5455f,Kebabu Iela / The Kebab Street,56.94866345178858,24.12291135367733,Turkish Restaurant
292,56.9466,24.119317647058825,50,34,592553c71c0b34629cdc9b06,China RestorÄns,56.948993,24.119552,Chinese Restaurant
293,56.9466,24.119317647058825,50,35,4dc7d6b5887717c8805c0a23,Kaukaza,56.948086,24.125066,Middle Eastern Restaurant
294,56.9466,24.119317647058825,50,36,56ea86da498e672b098fe80c,Rck arhitektÅ«ras vÄ“sture pie brodeliites,56.943926,24.120217,Noodle House
295,56.9466,24.119317647058825,50,37,5c56f9253e6741002c347694,Turkish Grill House,56.947174,24.112328,Turkish Restaurant
296,56.9466,24.119317647058825,50,38,530daf11498eef66b7213bad,GC slepenpalodze,56.94762877834096,24.113101811775387,Afghan Restaurant
297,56.9466,24.119317647058825,50,39,5613f101498e1e25225d8993,Zelta Dolina,56.94854384886829,24.124038179842934,Middle Eastern Restaurant
298,56.9466,24.119317647058825,50,40,5674f64c498e82a72ffa6657,"""ISTANBUL""",56.948166,24.123196,Afghan Restaurant
299,56.9466,24.119317647058825,50,41,59033329f870fd51dca30b27,ä¸­å›½é¥­åº—,56.948715,24.119728,Chinese Restaurant
300,56.9466,24.119317647058825,50,42,54678fad498eac74bd401da1,Sushi Point,56.947346,24.112701,Asian Restaurant
301,56.9466,24.119317647058825,50,43,5190e20f498e4aa8dfd9cd8e,Turka Spots,56.946841,24.115639,Turkish Restaurant
302,56.9466,24.119317647058825,50,44,57172e76498e90419ae5bd42,Donera Kebabs,56.94985283012121,24.118531182191578,Kebab Restaurant
303,56.9466,24.119317647058825,50,45,5e0b821c7b985c000794dd05,L.M. Hoods,56.950645,24.121533,New American Restaurant
304,56.9466,24.119317647058825,50,46,5971dbadb1538e4958d4b235,Tapas Tapas Cafe-Bar,56.946132855224484,24.113852977752686,Tapas Restaurant
305,56.9466,24.119317647058825,50,47,555219e9498e1e8aace8c6d4,double coffee #work,56.946900683920816,24.119394830547716,Jewish Restaurant
306,56.9466,24.119317647058825,50,48,5c5abd6935811b002c4a7a13,Singhâ€™s,56.947655,24.113564,Indian Restaurant
307,56.9466,24.119317647058825,50,49,570b838e498e4f01dec9cb02,Soviet Story by Ticket To Heaven,56.950344,24.12139,Russian Restaurant
308,56.9466,24.13755294117647,9,0,4eaaa79d82312ec2f6930818,Kafeniica (Cafe) Maajas Virtuve,56.94945438873866,24.132096764329138,Eastern European Restaurant
309,56.9466,24.13755294117647,9,1,5e501fb9b6d76b000807f214,Mitsubishi Outlander KapsÄ“ta,56.945244,24.132374,American Restaurant
310,56.9466,24.13755294117647,9,2,570ce660498e3af072a6cafc,Rolanda LidemaÅ†a mÄsas kvarÄ·ira .,56.950098,24.140362,American Restaurant
311,56.9466,24.13755294117647,9,3,54e42906498eefaf2ea241b4,taci,56.94651016212352,24.144728016066406,Mexican Restaurant
312,56.9466,24.13755294117647,9,4,50afe60be4b09d9e0729188c,Ğ£Ğ·Ğ±ĞµĞºĞ¸ÑÑ‚Ğ°Ğ½,56.94981510293774,24.137129125367384,Asian Restaurant
313,56.9466,24.13755294117647,9,5,54e42926498e8f4430595c8f,kurtu,56.94684601730513,24.13923686259734,Mexican Restaurant
314,56.9466,24.13755294117647,9,6,56541a45498e4e0b63fa5889,njam,56.942918,24.137715,Belgian Restaurant
315,56.9466,24.13755294117647,9,7,563e3812cd107e69969cbf22,SaÅ†Äo rezidenceğŸ’,56.950422,24.136123,Australian Restaurant
316,56.9466,24.13755294117647,9,8,4dd6be281f6ee1468311554d,Redfred,56.94773886572665,24.13793209211478,American Restaurant
317,56.9466,24.155788235294118,4,0,58079d2a38fadfe01485b510,A. J. havÄtava,56.950291,24.151467,Asian Restaurant
318,56.9466,24.155788235294118,4,1,54414b6f498e8d71416d996b,Gan bei,56.949404,24.15398,Asian Restaurant
319,56.9466,24.155788235294118,4,2,512b65dee4b0fd966e8317f9,"KafejnÄ«ca ""Santa Un Barbara""",56.94581874216502,24.149020841041228,Eastern European Restaurant
320,56.9466,24.155788235294118,4,3,54d987fe498ef17d68794539,Lage Co,56.94951078132781,24.153821445125153,Asian Restaurant
321,56.9466,24.174023529411766,4,0,5d7785a470b7e300071ee0ad,Tobiko Sushi,56.9451,24.172739,Sushi Restaurant
322,56.9466,24.174023529411766,4,1,50a90472e4b0f191c1d80c3c,rÅ«tas green palace,56.942730110321875,24.17288417963448,Mexican Restaurant
323,56.9466,24.174023529411766,4,2,56d7fb2b498e47d7c6680b0e,Ğ»Ğ°Ñ‚Ñ‹ÑˆÑĞºĞ¸Ğ¹,56.945831,24.169418,Austrian Restaurant
324,56.9466,24.174023529411766,4,3,57701b38cd109330348899ec,Beliy and SancheZ Dot,56.946335,24.176533,Austrian Restaurant
325,56.9466,24.19225882352941,7,0,574af7da498e6a1b7e2385f0,Extra PizZa,56.948086,24.195047,American Restaurant
326,56.9466,24.19225882352941,7,1,5496fd76498edf459cc5796e,El Mexicano,56.94873695437168,24.188263941903735,Mexican Restaurant
327,56.9466,24.19225882352941,7,2,4d988aecdaec224b7dde4a3e,Dzuljeta,56.94836181603036,24.185502269866124,BBQ Joint
328,56.9466,24.19225882352941,7,3,55bf7422498e3b3678bab949,Ä’diens & Co,56.943788,24.189483,Modern European Restaurant
329,56.9466,24.19225882352941,7,4,4e21d62bd1647406320a9a39,kebabs Jurmala,56.94785296529154,24.188868809744527,Kebab Restaurant
330,56.9466,24.19225882352941,7,5,5682a71b498e48c1c959c93d,Rossini,56.945728815168046,24.190902532807197,Italian Restaurant
331,56.9466,24.19225882352941,7,6,4ce7d488baa6a1cd34042a6c,Sushi Time,56.94768321928386,24.194780150645116,Sushi Restaurant
332,56.9466,24.21049411764706,6,0,505832e9e4b0a6de98a99e0f,Eeddiena Valstiiba,56.950434,24.207292,Asian Restaurant
333,56.9466,24.21049411764706,6,1,57f79bf3498ee0d0884879f9,Hesiiti pie mÅ«su galda,56.943165,24.206667,American Restaurant
334,56.9466,24.21049411764706,6,2,513be302e4b0cb998b14fcee,MC Alanito Hood,56.94395278003311,24.213411920691144,French Restaurant
335,56.9466,24.21049411764706,6,3,595fbb46c824ae6362b954a4,Ğ’Ğ¸ÑˆĞ½ĞµĞ²Ñ‹Ğ¹ Ğ¡Ğ°Ğ´ | KafejnÄ«ca/Pirts,56.946564,24.218637,Russian Restaurant
336,56.9466,24.21049411764706,6,4,50d9c270e4b05cc5ef0bd9b8,Sushi Shop,56.9456168249207,24.208752402028857,Sushi Restaurant
337,56.9466,24.21049411764706,6,5,4fdb6379e4b00f85fe5a59a3,Dream,56.94259079374313,24.20686161332819,American Restaurant
338,56.9466,24.228729411764707,7,0,56c2131ecd1062e5f3c0dad3,pluspunkts | DreiliÅ†i,56.94659435566248,24.234192055364012,American Restaurant
339,56.9466,24.228729411764707,7,1,5623a19d498e732a61e0d1e5,Alises rezidence,56.94356918334961,24.225893020629883,Asian Restaurant
340,56.9466,24.228729411764707,7,2,54a4121d498e347458df9d6e,LÅ«cijas Hoods,56.94576207158511,24.236019379825144,American Restaurant
341,56.9466,24.228729411764707,7,3,564d9fcc498e0eb14fafffb8,sinÄas pinÄas virtuvÄ“ ğŸ´ğŸ•,56.94512555525485,24.23641218995808,Indian Chinese Restaurant
342,56.9466,24.228729411764707,7,4,56c97e9ccd1080d7a3fdb4d7,Alises Ä’diena Vieta,56.94758857516987,24.236324605041176,New American Restaurant
343,56.9466,24.228729411764707,7,5,52ac069c11d2dfd8ee12790c,Ievas mazÄ virtuvÄ«te,56.94700622558594,24.234405517578125,Burrito Place
344,56.9466,24.228729411764707,7,6,56b79e90498e72671a1aa471,Sandras Ä’dienu ParadÄ«ze ğŸ˜ŠğŸ’¯ğŸ’¯,56.94544027140493,24.236552949121556,American Restaurant
345,56.9466,24.246964705882352,4,0,4d382a7af1b06ea8ca2f1355,Little Johnny's | JÄnÄ«tis PicÄ“rija,56.943771775218586,24.25173175251334,Pizza Place
346,56.9466,24.246964705882352,4,1,548dab97498ecb54dad821f4,DreiliÅ†i,56.943464300154474,24.247351787990333,Argentinian Restaurant
347,56.9466,24.246964705882352,4,2,5478947a498e8f49361ddf68,99,56.95013349599914,24.24521307391394,American Restaurant
348,56.9466,24.246964705882352,4,3,5286525b498eff13ec042191,Mapuche,56.942983,24.242766,BBQ Joint
349,56.9466,24.2652,1,0,573a2b74498e7471b5c5416d,MÄ€JA,56.94237,24.265263,Austrian Restaurant
350,56.9561,23.991670588235294,2,0,584c9c999343e03b1631485b,Kaspara mÄjas,56.954993,23.992451,American Restaurant
351,56.9561,23.991670588235294,2,1,56a897a038face0a37197d2a,PaÅ¡nÄvÄ«bu Kabinets a.k.a Krievu valoda,56.956367,23.998463,Ethiopian Restaurant
352,56.9561,24.009905882352943,2,0,4ce160773644a093c4c85c9f,Zelta Pakavs,56.95309491063916,24.007963337414587,Eastern European Restaurant
353,56.9561,24.009905882352943,2,1,57e820f4498ea2a143873af5,Rav 5. stÄva Virtuve,56.95304,24.005041,American Restaurant
354,56.9561,24.02814117647059,3,0,5629f578498e027ba7458f08,RÄ«gas 69. Vsk Elles Ä’dnÄ«ca,56.95579056646294,24.025999894233767,Ukrainian Restaurant
355,56.9561,24.02814117647059,3,1,56ae4d92498ea498b2cbbedd,Flying Fish,56.9559247829311,24.035032656865585,Sushi Restaurant
356,56.9561,24.02814117647059,3,2,557aa062498e93226aab548e,krievu autiÅ†Å¡. ğŸ™†ğŸ¼ğŸ‘ŒğŸ½,56.956158,24.035878,Austrian Restaurant
357,56.9561,24.046376470588235,1,0,58b812a6a6118c72d7f4fbd9,Stock Pot PÄrdaugava,56.954523835509875,24.052527577936935,Asian Restaurant
358,56.9561,24.064611764705884,3,0,555ddc97498e3451c62c7362,Emy Å¡efpavÄru virtuve ğŸ‘,56.95275395507379,24.063240247773034,Afghan Restaurant
359,56.9561,24.064611764705884,3,1,51ac5d1c498ee7f31d6633c3,INUÄ»A,56.959006667857686,24.062832177386788,Eastern European Restaurant
360,56.9561,24.064611764705884,3,2,5649a811498e2673f9f225c2,Ä’Å¡anas SpotsğŸ­ğŸ­ğŸ­,56.95824432373047,24.060754776000977,Korean Restaurant
361,56.9561,24.082847058823532,2,0,4d94b3ec14a654814e74174c,Fabrikas RestorÄns,56.957887272185516,24.0848226519011,Modern European Restaurant
362,56.9561,24.082847058823532,2,1,51934b7b498e587ce32625ea,MLÄ¶F Ä“dnÄ«ca,56.95305109316587,24.0785291112134,Eastern European Restaurant
363,56.9561,24.101082352941177,39,0,524958a893cd20a41cc835d4,"ÄŒehu alus darÄ«tava ""Stargorod""",56.95316289352411,24.09926863754561,Brewery
364,56.9561,24.101082352941177,39,1,5a2a757e1ffed76b0c9c89b0,Singhâ€™s P.Brieza,56.958967691219016,24.10561915278553,Indian Restaurant
365,56.9561,24.101082352941177,39,2,5025142fe4b0a2be7f7ccd09,Sia Vivagro,56.9548587487296,24.10434642481369,African Restaurant
366,56.9561,24.101082352941177,39,3,4d974590744f3704e006d057,Antica Roma,56.95954295413683,24.10555736647096,Italian Restaurant
367,56.9561,24.101082352941177,39,4,557d8b42498ec1b1d9821eaa,Urth Caffe,56.951900482177734,24.102420806884766,American Restaurant
368,56.9561,24.101082352941177,39,5,56e427fa498e13426b56f17f,VecrÄ«gas KafejnÄ«ca,56.95309,24.102406,American Restaurant
369,56.9561,24.101082352941177,39,6,508825e3e4b0339e5b5b2bde,Alhambra,56.955546,24.100595,Mediterranean Restaurant
370,56.9561,24.101082352941177,39,7,52481c4011d2e4d32ce7b411,Sushi City,56.95557373847648,24.100078002761553,Sushi Restaurant
371,56.9561,24.101082352941177,39,8,58368d39966e55479d2a669d,"Rvt Level 2,5",56.953537,24.103804,Afghan Restaurant
372,56.9561,24.101082352941177,39,9,58d121e46431e531dd7f2adc,PieczvaigÅ¾nu krodzinÅ¡,56.959665611659865,24.10290956497192,Eastern European Restaurant
373,56.9561,24.101082352941177,39,10,4d57f86eafe4b60cc0fd4a61,Provansa,56.95868404267345,24.10559659374445,French Restaurant
374,56.9561,24.101082352941177,39,11,578b76f2498e2cf4c29369fe,MelnÄ Cauruma MÄjas,56.958923,24.100517,Japanese Restaurant
375,56.9561,24.101082352941177,39,12,5707327e498e269d0fa90622,AtvÄ“rts Logs!,56.95894380925179,24.10087652879076,Chinese Restaurant
376,56.9561,24.101082352941177,39,13,560ebf12498ea48fff634fd5,Ä’diena kambaris,56.96048412445903,24.100533006448835,American Restaurant
377,56.9561,24.101082352941177,39,14,545c829f498e19b5da99200f,Alkanna kafejnÄ«ca,56.954589,24.100466,American Restaurant
378,56.9561,24.101082352941177,39,15,535665ef498e506aae8b9088,ROMA,56.959275,24.105423,Italian Restaurant
379,56.9561,24.101082352941177,39,16,54b92918498e8e5ef206c765,Double Coffee,56.958641301349566,24.105345364557706,Modern European Restaurant
380,56.9561,24.101082352941177,39,17,56cffad8cd101e08532edc03,KotletÄ«tes pascal ;D,56.953484686585774,24.10434807332096,American Restaurant
381,56.9561,24.101082352941177,39,18,523dad3411d26f01c13848cc,SushiCity,56.955679254146865,24.10008939774721,Sushi Restaurant
382,56.9561,24.101082352941177,39,19,56433d28498edeae9fda9ce0,Mammas darba kafÄ“jnÄ«cağŸ½ğŸ´,56.95810986270508,24.101998019736666,American Restaurant
383,56.9561,24.101082352941177,39,20,4fd8aaefe4b09507d5adc739,Fly cafe,56.95904736150907,24.10564386102797,Sushi Restaurant
384,56.9561,24.101082352941177,39,21,5661c3d6498e895246c0502f,Ä¢imenes lamborgini,56.95859485390294,24.106029843108054,Australian Restaurant
385,56.9561,24.101082352941177,39,22,5714705ccd1050ab6b49799d,EmÄ«lijas CepumiÅ†Å¡,56.9550751255885,24.109115277028074,Cajun / Creole Restaurant
386,56.9561,24.101082352941177,39,23,4cee4689b80da09313c32600,Briedis,56.959267,24.105479,Eastern European Restaurant
387,56.9561,24.101082352941177,39,24,5620e427498efb1e8cb50481,KafÄ“jnÄ«cağŸ˜Œâœ¨ğŸ´,56.957029,24.103838,American Restaurant
388,56.9561,24.101082352941177,39,25,5412ccec498ee9ca9327c7e5,RestoranÃ© del GermanÃ©,56.95413694617175,24.107013412129277,Jewish Restaurant
389,56.9561,24.101082352941177,39,26,4ff41acde4b0b3e697ab405b,KafejnÄ«ca Lira,56.955312449292,24.105643752343724,Eastern European Restaurant
390,56.9561,24.101082352941177,39,27,4d516be8e0275481f174aab6,Cafe Leonardo,56.95907981806086,24.10041441516392,Italian Restaurant
391,56.9561,24.101082352941177,39,28,5661daac498eb6bd9a62e31c,Ğ ĞµÑÑ‚Ğ¸Ğº ğŸ•,56.95572,24.109086,French Restaurant
392,56.9561,24.101082352941177,39,29,56a07a06498eb1368e55b16a,Gan Bei,56.953652,24.106435,Asian Restaurant
393,56.9561,24.101082352941177,39,30,5c249b185455b2002c1a2d57,Dharma Coffee House,56.952804,24.10495,Coffee Shop
394,56.9561,24.101082352941177,39,31,4e2eb1a0d22daa76ed8e2ddd,Al-kanna,56.954569585342455,24.10010881700635,CafÃ©
395,56.9561,24.101082352941177,39,32,578ce415498eeeaf30f91b0e,StrÄ“lnieku SavienÄ«ba,56.95892,24.100515,Mexican Restaurant
396,56.9561,24.101082352941177,39,33,52d13900498ed85d13ca814b,Ğ ĞµÑÑ‚Ğ¾Ñ€Ğ°Ğ½ ÑƒĞ·Ğ±ĞµĞºÑĞºĞ¾Ğ¹ ĞºÑƒÑ…Ğ½Ğ¸ ĞĞ½Ğ¾Ñ€,56.958955937943,24.105755841337714,Asian Restaurant
397,56.9561,24.101082352941177,39,34,5661daec498ebe13ad957688,Ğ¿Ğ¸Ñ†Ñ†ĞµÑ€Ğ¸Ñ ğŸ•,56.955778896708686,24.109050836254447,Italian Restaurant
398,56.9561,24.101082352941177,39,35,54280048498e51a58d662bfd,sushy city,56.95579549688338,24.09939375265246,Sushi Restaurant
399,56.9561,24.101082352941177,39,36,578169fd498e1df4c483aa6c,Hshsb,56.956024,24.099741,Burmese Restaurant
400,56.9561,24.101082352941177,39,37,584e0305349355671d3ee7c9,Captain Sushi,56.952921,24.101857,Sushi Restaurant
401,56.9561,24.101082352941177,39,38,5343e76f498e570540a67990,2 kul soliÅ†Å¡ priekÅ¡ Alises un LÄ«vas,56.954117,24.106619,Asian Restaurant
402,56.9561,24.119317647058825,50,0,4b66c0a8f964a520b0292be3,Lido VÄ“rmanÄ«tis,56.952828844694785,24.119937330000724,Eastern European Restaurant
403,56.9561,24.119317647058825,50,1,4bc9ce0d937ca593e952a692,"Sveiks, Å veik!",56.95710564417114,24.126844081126574,Czech Restaurant
404,56.9561,24.119317647058825,50,2,4bcc344c937ca59310afaa92,Tex Mex,56.955714187502025,24.118925702377034,Mexican Restaurant
405,56.9561,24.119317647058825,50,3,4f13fad0e4b0472047413a22,Stock Pot,56.95842302003225,24.1206751002473,Asian Restaurant
406,56.9561,24.119317647058825,50,4,5693953a498ee1363a3a0327,COD,56.95609878775871,24.126143941750392,Japanese Restaurant
407,56.9561,24.119317647058825,50,5,4bbc54b22d9ea593da77a0ce,"Lido ""Dzirnavas""",56.95230049247857,24.12244112441823,Eastern European Restaurant
408,56.9561,24.119317647058825,50,6,5c138e7f8afbe0002db319a4,Old Hong Kong,56.956303,24.11756,Chinese Restaurant
409,56.9561,24.119317647058825,50,7,5f633b68bd1be75b4c11f28a,RÅ«me,56.956841573696515,24.116001427173615,Ramen Restaurant
410,56.9561,24.119317647058825,50,8,5afc27ef4acb19002c25d8b0,stockpot XL,56.959087873710224,24.11932427426739,Asian Restaurant
411,56.9561,24.119317647058825,50,9,5bd1d2bde97dfb002ca467ab,Italissimo,56.957697,24.120253,Italian Restaurant
412,56.9561,24.119317647058825,50,10,5c671649febf31002cc289f3,MaÃ±ana,56.95871,24.123167,Mexican Restaurant
413,56.9561,24.119317647058825,50,11,574d8c7a498e865fefab8ba6,May Kichent,56.9536,24.12389,French Restaurant
414,56.9561,24.119317647058825,50,12,57321d51498ead5a87c3c1ea,Latvijas NacionÄlÄ MÄkslas muzeja restorÄns,56.95590715596657,24.113411484727237,French Restaurant
415,56.9561,24.119317647058825,50,13,4f267977e4b0020c30c14716,Soho Galleria Riga,56.95456481522649,24.120732142895505,Chinese Restaurant
416,56.9561,24.119317647058825,50,14,526a4f4c498ec61b01ae5e0d,quiche lorraine,56.95322036743164,24.124467849731445,French Restaurant
417,56.9561,24.119317647058825,50,15,5299dfcc11d201ccda85496e,Nadinas Piparkuku Majinja,56.960005,24.121508,Cajun / Creole Restaurant
418,56.9561,24.119317647058825,50,16,5f0078e7bbf9b34a6aa6b548,La Cantina,56.95588,24.118468,Italian Restaurant
419,56.9561,24.119317647058825,50,17,5784c024498e7c3aa1025f9d,Yakuza Sushi & Asian Fusion Restoran,56.956547,24.124268,Asian Restaurant
420,56.9561,24.119317647058825,50,18,57e10618cd10e7ee71d028bc,Lotus,56.957962,24.114328,Asian Restaurant
421,56.9561,24.119317647058825,50,19,571229d4498e2ae0c5bcd6e5,BALTS,56.95606642486395,24.125421345233917,Bistro
422,56.9561,24.119317647058825,50,20,4cc851083c40a35d240d742e,Tiramisu,56.955069,24.126915,Italian Restaurant
423,56.9561,24.119317647058825,50,21,4bacee34f964a520db1a3be3,Shogun,56.9554434164437,24.118837561202433,Sushi Restaurant
424,56.9561,24.119317647058825,50,22,58aec48465ca011c7700206f,Asia Today,56.954642,24.120442,Asian Restaurant
425,56.9561,24.119317647058825,50,23,58540a5b03cf255eb3250118,MÅ«su galdiÅ†Å¡ .,56.955374,24.124418,Sushi Restaurant
426,56.9561,24.119317647058825,50,24,52f9ecca11d215812deeac84,Cigar Room,56.955781,24.118604,Russian Restaurant
427,56.9561,24.119317647058825,50,25,4e53cc837d8b8e9188e1e3d3,La Ville,56.95516790059487,24.122167483894728,French Restaurant
428,56.9561,24.119317647058825,50,26,5784be41498ebd9749677844,Yakuza Sushi & Asian Fusion Restoran,56.956654,24.124004,Asian Restaurant
429,56.9561,24.119317647058825,50,27,535e51a7498e5ed7d6f60ed2,lechaim,56.956241607666016,24.115938186645508,Kosher Restaurant
430,56.9561,24.119317647058825,50,28,558054d5498eec15436daa3c,Singh's Indian restaurant & bar,56.95508183184106,24.126811801045058,Indian Restaurant
431,56.9561,24.119317647058825,50,29,51348055e4b0ca4ed9796943,"China world, mistiskÄ Ä·Ä«nieÅ¡u Ä“snÄ«ca",56.9583162051686,24.11673756952705,Chinese Restaurant
432,56.9561,24.119317647058825,50,30,4bc4c67a920eb71350411f2c,Kabuki,56.95588320544148,24.126433453317155,Japanese Restaurant
433,56.9561,24.119317647058825,50,31,5c4c6e9946e1b6002cfd8579,La Historia,56.957714,24.114526,Mediterranean Restaurant
434,56.9561,24.119317647058825,50,32,55cb78ed498e6173bbc23c94,LÄcis,56.953546064960875,24.12080295283177,New American Restaurant
435,56.9561,24.119317647058825,50,33,573c3fc2498e36ecbb7132ec,Tavs Banh-mi,56.958181686139504,24.12147856699762,Vietnamese Restaurant
436,56.9561,24.119317647058825,50,34,56fe98aa498e3a183784e7af,Fudzijama,56.960353667632646,24.120316815571844,Japanese Restaurant
437,56.9561,24.119317647058825,50,35,5b851c89b1538e002c47c145,Hum Asian Kitchen,56.956193,24.124728,Asian Restaurant
438,56.9561,24.119317647058825,50,36,5501d5f4498e0ef46214730b,KÄdreiz OdesÄ,56.95634324884302,24.12455147385141,Ukrainian Restaurant
439,56.9561,24.119317647058825,50,37,4ea6888930f8a6425f1ae859,Gan Bei,56.95466611566202,24.120791715813564,Asian Restaurant
440,56.9561,24.119317647058825,50,38,58a04fd3076be12e036d0af3,Woki Toki,56.957521294562284,24.111947396917266,Chinese Restaurant
441,56.9561,24.119317647058825,50,39,5b7c564d2619ee002c3bc7d2,Dâ€™arte restaurant(Galleria RÄ«ga),56.954601,24.120473,Italian Restaurant
442,56.9561,24.119317647058825,50,40,5555c56e498e14b9f0e69dd4,Belgian waffle house,56.95472296719113,24.117778905813093,Belgian Restaurant
443,56.9561,24.119317647058825,50,41,545205c6498eb8a585e4e2d7,"KafejnÄ«ca ""ĞšÑ€ÑƒĞ¸Ğ·""",56.959215939489496,24.119768508621068,American Restaurant
444,56.9561,24.119317647058825,50,42,509a3770e4b0489c46609fe6,Ä·Ä«nieÅ¡i,56.956878662109375,24.111465454101562,Asian Restaurant
445,56.9561,24.119317647058825,50,43,4cd58845ab19a093afc63feb,Armenia,56.95431217811204,24.12041822973122,Caucasian Restaurant
446,56.9561,24.119317647058825,50,44,4eb160f09a52c49f4cf5de60,SOHO,56.954521,24.12074,Chinese Restaurant
447,56.9561,24.119317647058825,50,45,54e4c092498e7cf9d42cad67,ĞºĞ°Ğº-Ñ‚Ğ¾ Ğ² ĞĞ´ĞµÑÑĞµ,56.95633974863491,24.124509115145376,Jewish Restaurant
448,56.9561,24.119317647058825,50,46,4e6f9e64d1647b1138088a70,Ginger&Fred,56.95250244797967,24.116762924378765,Arts & Entertainment
449,56.9561,24.119317647058825,50,47,5abf60f5d0a1495357601e5d,Ã–nder,56.957723,24.123745,Turkish Restaurant
450,56.9561,24.119317647058825,50,48,4cf0025513aea14385ee769f,Habibi,56.9569683,24.1235089302056,Asian Restaurant
451,56.9561,24.119317647058825,50,49,5161519be4b04dd3cf6697d5,Vanaga Ligzda,56.95789671121353,24.12429680807302,Eastern European Restaurant
452,56.9561,24.13755294117647,40,0,4ea806a29a526de96a871514,VÄ«gante,56.954507320648595,24.132255545894388,Eastern European Restaurant
453,56.9561,24.13755294117647,40,1,4cbd7919d78f46886c93cd73,Bistro VistiÅ†as,56.956186576378364,24.135222469372366,Fried Chicken Joint
454,56.9561,24.13755294117647,40,2,4d2ed7766fc6f04d7eae8445,Da Sergio,56.9582521483685,24.130716960059534,Italian Restaurant
455,56.9561,24.13755294117647,40,3,4ba8c7cdf964a52052ee39e3,Xin ÄŒi Ä·Ä«nieÅ¡u bistro,56.9593601783288,24.14315419848404,Chinese Restaurant
456,56.9561,24.13755294117647,40,4,4bbe04288ec3d13ad7c31c28,Woki Toki,56.95652797583609,24.13182077323149,Asian Restaurant
457,56.9561,24.13755294117647,40,5,5117bcebf31c21dd2f360b3b,Da Roberta,56.95488502530622,24.13435963798027,Italian Restaurant
458,56.9561,24.13755294117647,40,6,50f404d9e4b05845b753b1e1,cotton karaÄ¼valsts,56.95920775043978,24.133089388023357,Asian Restaurant
459,56.9561,24.13755294117647,40,7,54db5488498e981c8be10b51,Mikado,56.95735973697051,24.13860134878236,Japanese Restaurant
460,56.9561,24.13755294117647,40,8,539cbd7c498eb12d43c8dd5e,Betty's Lounge,56.95546509146482,24.136683509795553,German Restaurant
461,56.9561,24.13755294117647,40,9,4fc8f23ee4b09bba3313a6bb,"""AndalÅ«zija"" spÃ£Å†u restorans un tapas bÃ£rs",56.95673486840531,24.131794295763125,Tapas Restaurant
462,56.9561,24.13755294117647,40,10,549d3a32498ef340b33d187a,Vistu mÄjiÅ†a,56.956192,24.135233,African Restaurant
463,56.9561,24.13755294117647,40,11,54eee5f6498ec9c89e8a8fa7,SestÄs RestoranÄiks,56.958259369591936,24.141433697511847,American Restaurant
464,56.9561,24.13755294117647,40,12,5149ecefe4b025faaab1cef6,Gold - Cafe,56.957485965023515,24.137357057593157,Chinese Restaurant
465,56.9561,24.13755294117647,40,13,55e24ba9498ea4db39408549,Rebekas Hoods ğŸ˜,56.955811863244925,24.137680394429598,Dim Sum Restaurant
466,56.9561,24.13755294117647,40,14,5ada13f2491be766acfc3c47,Hoku Sushi,56.95266289194184,24.13623332977295,Sushi Restaurant
467,56.9561,24.13755294117647,40,15,531b11ac498e837f3ef6899f,Neolite,56.954992,24.133766,Eastern European Restaurant
468,56.9561,24.13755294117647,40,16,5bd983fc419a9e002c5a75d9,Hungrila,56.957203,24.1383,Indian Restaurant
469,56.9561,24.13755294117647,40,17,556027cf498ef94ca3862f23,JÄ’KABPILS-DAUGAVPILS,56.952599077132305,24.13465044256441,Austrian Restaurant
470,56.9561,24.13755294117647,40,18,5786e8ee498e4f8b8ee5fd36,Danix SpotÄrs,56.95507,24.134995,Jewish Restaurant
471,56.9561,24.13755294117647,40,19,52ab40a7498e0dc9312078e2,eLkafe,56.95468069754759,24.133282394269905,Eastern European Restaurant
472,56.9561,24.13755294117647,40,20,5fddd189e80f01698aa9d8c7,Choi Choi,56.95834,24.135918,Noodle House
473,56.9561,24.13755294117647,40,21,4c8dee4ba8de224b4ce62201,Edamistaba KAKAO,56.95620829293103,24.13095474243164,Eastern European Restaurant
474,56.9561,24.13755294117647,40,22,568e3137498e08c597589194,burbulis yo,56.95683969142289,24.129760558050695,American Restaurant
475,56.9561,24.13755294117647,40,23,4cab02e22f08236af9518261,Caffe Bellagio,56.95889929625843,24.132328033447266,Italian Restaurant
476,56.9561,24.13755294117647,40,24,4cb71c18589f236a3b4e3c3d,RestorÄns Tamada,56.957144,24.133736,Middle Eastern Restaurant
477,56.9561,24.13755294117647,40,25,5f47a94d9ebe6c5820cdd0ac,Tre Cafe,56.956604,24.133116,Asian Restaurant
478,56.9561,24.13755294117647,40,26,57e2d38d498ef9d916495fe5,melnais tunelis,56.955547,24.135372,Japanese Restaurant
479,56.9561,24.13755294117647,40,27,556c4d33498ef8e9d1f0d44d,LabÄkÄs omÄ«tes mÄjas ğŸ’,56.9584852264598,24.141042133926074,American Restaurant
480,56.9561,24.13755294117647,40,28,505d93dfe4b0c677836c3644,astoÅ†kÄju midzenis,56.952492660623236,24.13647323513502,African Restaurant
481,56.9561,24.13755294117647,40,29,4e314c13c65b93ca1a42c950,Mikado Sushi,56.95866684152233,24.13807892769964,Sushi Restaurant
482,56.9561,24.13755294117647,40,30,522f1e0511d21a81ca513cca,pie kaimiÅ†u skuÄ·es (mÄ«Ä¼Äs odrijiÅ†as),56.958028790866734,24.131594395003045,Indian Restaurant
483,56.9561,24.13755294117647,40,31,551ac970498e13c2fdeedda6,Vitas Gulta ğŸ‘ª,56.955691102938914,24.138125533047806,Argentinian Restaurant
484,56.9561,24.13755294117647,40,32,51405796e4b0da62c3f8d49f,Sushi & Wok | RÄ«ga,56.95546305625149,24.136604661189505,Asian Restaurant
485,56.9561,24.13755294117647,40,33,5c66e6a9febf31002c42093b,69 Inside Bar,56.959169,24.133258,Modern European Restaurant
486,56.9561,24.13755294117647,40,34,5576da55498e118c62374464,Gan Bei,56.95515830439664,24.13165047206719,Japanese Restaurant
487,56.9561,24.13755294117647,40,35,5fbe86f8439ae441adf0fb79,Choi ChÅi,56.958533,24.136013,Noodle House
488,56.9561,24.13755294117647,40,36,5675660a498ee8858447cebb,Mirage,56.95666017443867,24.133338476312183,Eastern European Restaurant
489,56.9561,24.13755294117647,40,37,5cff7ff297e1690025e40c58,Asia Mix,56.95628,24.13651,Asian Restaurant
490,56.9561,24.13755294117647,40,38,568e458d498ecf817225ba17,wtf,56.955207,24.137003,American Restaurant
491,56.9561,24.13755294117647,40,39,4ca8bcb576d3a0934cd2186b,UzbekistÄna | Ğ£Ğ·Ğ±ĞµĞºĞ¸ÑÑ‚Ğ°Ğ½,56.95676347961529,24.130708003047914,Middle Eastern Restaurant
492,56.9561,24.155788235294118,4,0,55492bf4498eeab4eca5fac0,ğŸ“ fancy Å¡Ä·Å«nis,56.957381,24.148978,French Restaurant
493,56.9561,24.155788235294118,4,1,4f9c079de4b0e1cbfecbf876,Pie parka,56.959132599675485,24.152282442111815,Eastern European Restaurant
494,56.9561,24.155788235294118,4,2,58079b8138fa4786386f1fe7,A.J HavÄtava,56.95256,24.151867,Asian Restaurant
495,56.9561,24.155788235294118,4,3,4eb1ae09b63435b07dcf20b4,Sushi Studio,56.9561944756581,24.148786983413356,Sushi Restaurant
496,56.9561,24.174023529411766,15,0,561e1922498e92f9e215cacc,Riharda kotleÅ¡u valstÄ«ba Ä“dnÄ«cÄ,56.9525191167647,24.173081184487877,Asian Restaurant
497,56.9561,24.174023529411766,15,1,565c882538fae7c095333f6f,9. stÄva virtuve| 904.,56.95278351221895,24.173825322568394,New American Restaurant
498,56.9561,24.174023529411766,15,2,50f52059e4b08acd5a984bc6,Azeri,56.958259,24.180088,Asian Restaurant
499,56.9561,24.174023529411766,15,3,56e69617498e0feda7f6a701,2 stavs labarotarijas,56.952139,24.173675,Ethiopian Restaurant
500,56.9561,24.174023529411766,15,4,56e806a6cd10ac786b59e800,RTRIT ciemos pie Indras,56.952957,24.17449,Afghan Restaurant
501,56.9561,24.174023529411766,15,5,56e68f64498ea7d9eec6d569,rtrit galds cipsi pepsi 218kabinets,56.952248,24.173608,Caribbean Restaurant
502,56.9561,24.174023529411766,15,6,5816597d38fae6c2c935828c,604 Virtuve,56.95287,24.174068,Pakistani Restaurant
503,56.9561,24.174023529411766,15,7,57559057498ea1e3aa548cf2,SUSHI LUX,56.953728,24.170507,Asian Restaurant
504,56.9561,24.174023529411766,15,8,57270c5fcd1040df674805df,violeta,56.952904,24.174312,Australian Restaurant
505,56.9561,24.174023529411766,15,9,55a0f0cf498ea5a1abcc264d,Dikse,56.95265579223633,24.17177963256836,Asian Restaurant
506,56.9561,24.174023529411766,15,10,58baf78a0393cc5930f495e6,MÄrÄa virtuvÄ«te,56.95553,24.169765,American Restaurant
507,56.9561,24.174023529411766,15,11,55034365498e3553f07d2299,metriÅ†a penthouse,56.953343,24.167749,American Restaurant
508,56.9561,24.174023529411766,15,12,4ffdb02de4b0279c5b876c33,Picas,56.95994171185313,24.175723376081333,Italian Restaurant
509,56.9561,24.174023529411766,15,13,53d7e766498e6237e9844d88,PiemajasMiskaste,56.959007263183594,24.175254821777344,Arepa Restaurant
510,56.9561,24.174023529411766,15,14,55d1a2e6498e5b80008750cc,3grupas EdinÄÅ¡anas SpeciÄlistu Kambaris .,56.95246803138719,24.17395717222843,Ethiopian Restaurant
511,56.9561,24.19225882352941,4,0,56e41cbd498e09da16300926,Balkons,56.954110363062064,24.191369362846157,American Restaurant
512,56.9561,24.19225882352941,4,1,4eb95832722e09311d584c69,"Azerbaijan, Atputas centrs",56.956251352709565,24.19848054807324,Asian Restaurant
513,56.9561,24.19225882352941,4,2,4ef305629a52fadb3423a5c9,Riviera,56.952733497941225,24.19287116507319,French Restaurant
514,56.9561,24.19225882352941,4,3,57389b63498e9e5d0ac834ed,mazajs veikals,56.957756,24.184635,American Restaurant
515,56.9561,24.228729411764707,1,0,510273abe4b0466781735123,KafejnÄ«ca,56.95439891936358,24.22800717511858,Eastern European Restaurant
516,56.9561,24.246964705882352,1,0,56e81927498e282c28775e49,kases maximas,56.956828,24.239562,Afghan Restaurant
517,56.965599999999995,24.009905882352943,5,0,57e642bd498e2af8a6fc41cf,Pokemon GO,56.96448,24.016298,American Restaurant
518,56.965599999999995,24.009905882352943,5,1,58145a5338fa51e54c918d4d,Sila PagalmiÅ†Å¡,56.964153,24.016367,American Restaurant
519,56.965599999999995,24.009905882352943,5,2,58145a7f38fafbedd61c5bb5,11.StÄvs (Sila Home),56.964153,24.016367,American Restaurant
520,56.965599999999995,24.009905882352943,5,3,50b77664e4b08ce3c68b60e7,SpÄ“lÄ“ muzikanti,56.965600601844294,24.010770022252675,Eastern European Restaurant
521,56.965599999999995,24.009905882352943,5,4,57971a33498e840ee99a5dc1,Virtuve,56.964256,24.016413,American Restaurant
522,56.965599999999995,24.02814117647059,1,0,547aa54f498e2e7d1292c933,Ğ¿Ğ¾Ğ´ Ğ˜Ğ¼Ğ°Ğ½Ñ‚Ğ¾Ğ¹,56.962573,24.03138,Arepa Restaurant
523,56.965599999999995,24.064611764705884,7,0,5032036ce4b0b5d01e58e395,Ä’dnÄ«ca,56.96677666759594,24.072123358829945,Eastern European Restaurant
524,56.965599999999995,24.064611764705884,7,1,581a7b9652addb15ff4973a1,BuÄ¼Ä¼u Pils Virtuve,56.964207,24.060955,Eastern European Restaurant
525,56.965599999999995,24.064611764705884,7,2,57f6950b498eee91a5c0fa2b,Viruve,56.961548,24.062632,Pakistani Restaurant
526,56.965599999999995,24.064611764705884,7,3,581a7b428edd3a0eac697fd0,BuÄ¼Ä¼u Pils Virtuve,56.964176,24.06076,Eastern European Restaurant
527,56.965599999999995,24.064611764705884,7,4,501110fce4b0eba4bab70697,"KafejnÄ«ca ""Shempele""",56.965610399346076,24.06984075152574,Eastern European Restaurant
528,56.965599999999995,24.064611764705884,7,5,57703873498e4365836d398e,Dajanas Spooots,56.96594,24.0596,Caribbean Restaurant
529,56.965599999999995,24.064611764705884,7,6,5ff9ba647aedd43485c94950,Plovbar,56.96327,24.062006,Caucasian Restaurant
530,56.965599999999995,24.082847058823532,3,0,52b5d05a498eb22a97398837,Nairobi shopping mall,56.962264311264576,24.0819174095499,Afghan Restaurant
531,56.965599999999995,24.082847058823532,3,1,568d1d29498e2bc90f420e6c,Pie LedusskapÄ«Å¡ağŸ˜ğŸ˜,56.966797,24.087677,Australian Restaurant
532,56.965599999999995,24.082847058823532,3,2,51c5df13498ebd07541559f7,Koyo,56.964752197265625,24.07662010192871,Eastern European Restaurant
533,56.965599999999995,24.101082352941177,10,0,50d5cfb2e4b07f4e5db1e8af,Portofino RÄ«ga,56.96118463039241,24.100187115293632,Italian Restaurant
534,56.965599999999995,24.101082352941177,10,1,579774b1498eaf4731c8246f,RestorÄns FERMA,56.96253031934656,24.102319446785554,Modern European Restaurant
535,56.965599999999995,24.101082352941177,10,2,569cd402498e4f29b4c4e70f,Nedaudz bomzÄ«gie soliÅ†i,56.961956,24.10589,Asian Restaurant
536,56.965599999999995,24.101082352941177,10,3,586a87d0ea1c0d23c667349b,Restaurant Sokrates,56.961489,24.099309,Eastern European Restaurant
537,56.965599999999995,24.101082352941177,10,4,5634c9a5498e152937c3d605,Gan Bei,56.96786880493164,24.105403900146484,Cajun / Creole Restaurant
538,56.965599999999995,24.101082352941177,10,5,5021eefce4b0d34fcff7766a,"PÄrtikas veikals ""Lats""",56.961260506820636,24.1003338287689,Noodle House
539,56.965599999999995,24.101082352941177,10,6,56649cf838fa1e55a98d58c9,miskaste,56.966063,24.104879,Afghan Restaurant
540,56.965599999999995,24.101082352941177,10,7,51933c5a498ed87eabdbb63b,Turkebab,56.962578460288235,24.106033348805596,Turkish Restaurant
541,56.965599999999995,24.101082352941177,10,8,4e5622cc7d8b60849c4abac6,Å irhans,56.96781460790461,24.10640581841354,Eastern European Restaurant
542,56.965599999999995,24.101082352941177,10,9,4d3eb6b98edf3704ea45c6a5,Bufete,56.96540696020847,24.094791937310962,Eastern European Restaurant
543,56.965599999999995,24.119317647058825,15,0,578f461d498e9aac7462a8e4,BENTO,56.9642170586642,24.119787876095263,Sushi Restaurant
544,56.965599999999995,24.119317647058825,15,1,5db3f6ffbfb9f200081e2018,Koijots,56.96353,24.12383,Noodle House
545,56.965599999999995,24.119317647058825,15,2,55e7f82c498ef3e5b223ffcc,Cietuma Lux Ä’dnÄ«ca,56.96149398574933,24.120807227353573,Belgian Restaurant
546,56.965599999999995,24.119317647058825,15,3,561b8955498e99e2d94c0c13,skulmes midzenis,56.961400871389216,24.120818811926974,Caribbean Restaurant
547,56.965599999999995,24.119317647058825,15,4,5807a771d67c9644e2ff97df,Bufete.arÄ“nas.,56.967995,24.121315,American Restaurant
548,56.965599999999995,24.119317647058825,15,5,55373f74498e02768beae8bf,RTPV Ekspresis uz Valmieru,56.96308186474977,24.121447542183276,African Restaurant
549,56.965599999999995,24.119317647058825,15,6,566fd3fe498e780d67a3987b,7.b Ä“dnÄ«ca jeb kÄpnesğŸº,56.961252,24.121343,African Restaurant
550,56.965599999999995,24.119317647058825,15,7,57b715fa498e30ab6af914f8,Teppan suÅ¡i bÄrs,56.964225,24.12077,Sushi Restaurant
551,56.965599999999995,24.119317647058825,15,8,572b16ae498eacaa4445527d,HuiÅ†a,56.965576,24.120012,Austrian Restaurant
552,56.965599999999995,24.119317647058825,15,9,50df6276e4b0a2ae20fa5058,Sushi home,56.96320905972821,24.123890530291632,Sushi Restaurant
553,56.965599999999995,24.119317647058825,15,10,562f92e2498e63cc576b4ff2,Kaut KÄda KafeijnÄ«ca Pie ArÄ“nas,56.9668325412619,24.12494774539436,American Restaurant
554,56.965599999999995,24.119317647058825,15,11,572b0b2c498e801154a9a306,Ghuhnja,56.965603,24.120056,Asian Restaurant
555,56.965599999999995,24.119317647058825,15,12,53f345e7498e40a032e29233,ç«¹ [Take],56.962322688056936,24.123100136283302,Japanese Restaurant
556,56.965599999999995,24.119317647058825,15,13,53eba9e6498eeef7ebfa26be,narvesen arÄ“na,56.967098236083984,24.119565963745117,African Restaurant
557,56.965599999999995,24.119317647058825,15,14,5727063238fa6e0abcc4a9be,Sku,56.965706,24.120142,African Restaurant
558,56.965599999999995,24.13755294117647,20,0,4d0255c13be26dcb190578e4,Old Shanghai,56.96717066763301,24.130306016397935,Chinese Restaurant
559,56.965599999999995,24.13755294117647,20,1,59c3e75bd0a1490dd2107916,Bento Sushi,56.96589884314653,24.130617692116907,Sushi Restaurant
560,56.965599999999995,24.13755294117647,20,2,599a91e2747ecd268b09c07e,sushi express,56.966421107490845,24.141750041606027,Japanese Restaurant
561,56.965599999999995,24.13755294117647,20,3,564d0b6e498ee2cb3164f6be,Ä’veles iela 6.,56.96837724378254,24.132912123176496,Austrian Restaurant
562,56.965599999999995,24.13755294117647,20,4,510d7561e4b0ee65866daa61,HelÄ“nas tantes virtuve,56.96590058577928,24.13821066044045,Middle Eastern Restaurant
563,56.965599999999995,24.13755294117647,20,5,54f5bb6e498e42d85831a042,5 dzÄ«vnieku miteklis,56.963680267333984,24.13648796081543,American Restaurant
564,56.965599999999995,24.13755294117647,20,6,533fe15d498e503a0fcdd74e,netto spoÄ·iks,56.96660232543945,24.13076400756836,Afghan Restaurant
565,56.965599999999995,24.13755294117647,20,7,55117b55498ef1a8aefdd0f8,KatrÄ«nas istaba ğŸ”¥ğŸ‘,56.96385407698337,24.130620715907522,African Restaurant
566,56.965599999999995,24.13755294117647,20,8,54946a90498ea3488d9e50e4,italian bar,56.9676419003999,24.142099600144533,Italian Restaurant
567,56.965599999999995,24.13755294117647,20,9,5bbe1173531593002c14bf0f,le petit paris,56.965233,24.140151,CafÃ©
568,56.965599999999995,24.13755294117647,20,10,5742e3d7498e6e81b1ce0931,DSN KafejnÄ«ca,56.963394,24.143476,Eastern European Restaurant
569,56.965599999999995,24.13755294117647,20,11,5d45c6c03dc4950008929d8a,Riga Curry House,56.963528,24.136038,Indian Restaurant
570,56.965599999999995,24.13755294117647,20,12,540941e7498e5eb221af3903,La Petite France,56.966852470146925,24.138088634687627,French Restaurant
571,56.965599999999995,24.13755294117647,20,13,51e5adbe498e30815990fe37,RestorÄns Meijers,56.962642277745566,24.13767451418812,Eastern European Restaurant
572,56.965599999999995,24.13755294117647,20,14,5469ed2b498e5ae11a95b96f,Noras bÅ«ris,56.9642219543457,24.135234832763672,African Restaurant
573,56.965599999999995,24.13755294117647,20,15,51d068d0498e983007ddc607,Mikadosushi.lv,56.96369,24.137817,Sushi Restaurant
574,56.965599999999995,24.13755294117647,20,16,55128451498e633ac2bbd36d,LabÄkie Kebabi Å¡eit,56.9662342246403,24.14454679373791,Burrito Place
575,56.965599999999995,24.13755294117647,20,17,5092bfcfe4b05b90a71a5e31,BrÄ«vÄ«bas 151,56.96581602807486,24.1427924165818,Eastern European Restaurant
576,56.965599999999995,24.13755294117647,20,18,515f14ffe4b08ebb19b032f5,Domino sushi,56.963482701072856,24.137378922642387,Pizza Place
577,56.965599999999995,24.13755294117647,20,19,55b3e65c498e697abd84197a,Alberta MÄjas,56.962530818282865,24.137926490311898,Afghan Restaurant
578,56.965599999999995,24.155788235294118,15,0,4cd3dd96558a3704d090c3a6,TreÅ¡Ä brÄ«vdiena,56.965425668931466,24.153940156519763,Eastern European Restaurant
579,56.965599999999995,24.155788235294118,15,1,54edf956498e27464c95b8a8,TIKI.LV,56.9697162017563,24.15546538693935,Argentinian Restaurant
580,56.965599999999995,24.155788235294118,15,2,4bb483a4bd4b9c7428ac32f5,Gan Bei,56.966691732713755,24.161836776026316,Sushi Restaurant
581,56.965599999999995,24.155788235294118,15,3,526df88c498e2f3f3872d511,Woki Toki,56.96464472091188,24.1553941678758,Asian Restaurant
582,56.965599999999995,24.155788235294118,15,4,4f906924e4b040e3a85e672e,NR28 Cafe for friend's,56.96293147694077,24.15100391341699,South American Restaurant
583,56.965599999999995,24.155788235294118,15,5,5a33b300f427de60fc9f373b,Woki Toki | Domina Shopping,56.966824,24.16174,Asian Restaurant
584,56.965599999999995,24.155788235294118,15,6,57bd6274498e50a38bf82a55,Mikado Sushi,56.964706,24.150251,Chinese Restaurant
585,56.965599999999995,24.155788235294118,15,7,4ccd8892b571b60cfe58d965,Kebabs Fix,56.96659697713915,24.161729447803236,Kebab Restaurant
586,56.965599999999995,24.155788235294118,15,8,5261a95311d2928060fee1ac,solanka bars,56.966652447988565,24.147900037085982,Cuban Restaurant
587,56.965599999999995,24.155788235294118,15,9,4c039023310fc9b62d0bc661,VairÄk Saules,56.96647381296547,24.16205128726161,Pizza Place
588,56.965599999999995,24.155788235294118,15,10,55acbccf498e6e43ca4c5ce6,"""MajonÄ“ze""",56.96598625651262,24.153719426377844,Eastern European Restaurant
589,56.965599999999995,24.155788235294118,15,11,5410a0cb498e02014a168608,216. zivju cehs,56.96452454991949,24.162095150533037,Ethiopian Restaurant
590,56.965599999999995,24.155788235294118,15,12,55ae2188498e7e70be58d058,Kaki Sraki,56.96501768059105,24.155137538909912,Chinese Restaurant
591,56.965599999999995,24.155788235294118,15,13,561d4778498ed8ec11230c80,GarÅ¡vielu noliktava. #505,56.964235011984144,24.162148395888984,Ethiopian Restaurant
592,56.965599999999995,24.155788235294118,15,14,587f6fdc8cb34e3b30bfa20b,mÅ«su galdiÅ†s,56.966748,24.162049,Sushi Restaurant
593,56.965599999999995,24.174023529411766,11,0,5c2e2b9cc0af57002cfabf74,TÅ«kstoÅ¡ Lapu,56.965088,24.177582,Brasserie
594,56.965599999999995,24.174023529411766,11,1,5f4c0d69a2577e10e1862b13,Jellyfish,56.961415,24.176036,Bar
595,56.965599999999995,24.174023529411766,11,2,5377a2ab498e43c7d01bfea2,kaku caurums,56.96559238674747,24.169389268999637,African Restaurant
596,56.965599999999995,24.174023529411766,11,3,52dc4dbe498ed28a1f405706,eÅ¾a miga,56.96833801269531,24.1774959564209,Afghan Restaurant
597,56.965599999999995,24.174023529411766,11,4,50fabe7be4b01174279d1e78,sushi restorans Agimonti,56.967095065144,24.18159282595318,Japanese Restaurant
598,56.965599999999995,24.174023529411766,11,5,589205799dc8d06afbdd79c8,KuhÅ†ja,56.966442,24.177685,American Restaurant
599,56.965599999999995,24.174023529411766,11,6,57f51d27498e7c95a6619d28,Suck Emils Mayor,56.965187,24.176826,American Restaurant
600,56.965599999999995,24.174023529411766,11,7,56d300becd10d6b76dcf4ce8,Gaidam RÄ“Ä·inu,56.966217,24.179716,American Restaurant
601,56.965599999999995,24.174023529411766,11,8,54d3be94498ecc001759ee77,ĞœĞ¾Ñ ĞšÑƒÑ…Ğ½Ñ,56.96897339739627,24.1735227034529,Mongolian Restaurant
602,56.965599999999995,24.174023529411766,11,9,54dfe8ac498e0e161e8adc05,MÄjokÄ¼a JautÄjums,56.96200180053711,24.178890228271484,Asian Restaurant
603,56.965599999999995,24.174023529411766,11,10,52222a19498eba571728c20f,Fart Factory,56.968283,24.175677,African Restaurant
604,56.965599999999995,24.19225882352941,5,0,54182e46498e4d3bb759bb86,emijas dzertuve,56.96583162921565,24.19609581583262,Asian Restaurant
605,56.965599999999995,24.19225882352941,5,1,54baa8c4498ee71589ef20bc,GribÄa Picu DarbnÄ«ca,56.96520762102182,24.192640072243027,Italian Restaurant
606,56.965599999999995,24.19225882352941,5,2,568ea454498e6acb7ca8d0d3,Nav laimes,56.96656266341526,24.186609306016397,New American Restaurant
607,56.965599999999995,24.19225882352941,5,3,57cc3536498ebfce2f79b5fa,Iev's Lu HOOD,56.961929,24.189748,Caribbean Restaurant
608,56.965599999999995,24.19225882352941,5,4,54baa931498ef8a5b25b90fa,GribÄa Picu Darbnoca,56.96748733520508,24.193878173828125,Italian Restaurant
609,56.9751,24.046376470588235,2,0,5579508f498e50e3e2185047,Andruhas&SlavjÄna bÄze ğŸ…ğŸ„ğŸ‹ğŸŠ,56.97403072559652,24.03921596188724,Caribbean Restaurant
610,56.9751,24.046376470588235,2,1,56cb569ccd1025e52bd36e5c,Kates virtuvÄ«te ğŸ˜ğŸ·ğŸŸğŸ•,56.971069252480376,24.04379439608256,Belgian Restaurant
611,56.9751,24.119317647058825,1,0,51d2aacd498e384b76af3597,Pie Miikstaa,56.97448435424978,24.111839840982938,Afghan Restaurant
612,56.9751,24.13755294117647,12,0,53fef39e498efbf7ffe84eaa,VairÄk Saules,56.97416789889635,24.136457251087457,Pizza Place
613,56.9751,24.13755294117647,12,1,4f27b517e4b015cb4e100b7e,NÄburgi,56.97473924974892,24.143351855829387,African Restaurant
614,56.9751,24.13755294117647,12,2,515e8e27e4b05803adbc79e0,KafejnÄ«ca 1.StÄvÄ,56.97713924587264,24.13138728560429,Chinese Restaurant
615,56.9751,24.13755294117647,12,3,5696720b498e4f03366370fa,Anna's Å ikÄ Virtuve,56.975135287778606,24.145488191280034,Afghan Restaurant
616,56.9751,24.13755294117647,12,4,569a739e498e7bd11060d949,sveg istaba,56.975857,24.138948,African Restaurant
617,56.9751,24.13755294117647,12,5,55e49028498ec10bca29922f,Brasas Stroika,56.972300208099185,24.14048365299841,Filipino Restaurant
618,56.9751,24.13755294117647,12,6,560e49b7498e239b191235e5,KulinÄrijas izvirtÄ«bu kÄlngals,56.975594688049746,24.13286760582222,Belgian Restaurant
619,56.9751,24.13755294117647,12,7,52b5cd68498ea5d362a3ec74,Elite sushi,56.971658447351494,24.13315374767154,Sushi Restaurant
620,56.9751,24.13755294117647,12,8,56b5cb7c498e098009147da2,Fugu SuÅ¡i,56.971698345649536,24.133256222406363,Sushi Restaurant
621,56.9751,24.13755294117647,12,9,58208ae2eb569a4887b0badc,Route 88,56.977993804767344,24.13658544768074,American Restaurant
622,56.9751,24.13755294117647,12,10,55db3c9a498e2a191c8014a4,pipels,56.9754194320161,24.134589289491583,African Restaurant
623,56.9751,24.13755294117647,12,11,538f4c7c498e81571a99a779,restorans kert,56.971358,24.135104,Souvlaki Shop
624,56.9751,24.155788235294118,4,0,57763aea498ead6d8c178df1,"RestorÄns ""Storano""",56.97363453867396,24.162928755548283,Italian Restaurant
625,56.9751,24.155788235294118,4,1,578f2a84498e3fc89b1a2752,"""STORANO""",56.97362617190013,24.16267991065979,Italian Restaurant
626,56.9751,24.155788235294118,4,2,50da2761e4b06bd2fc543b8e,skrilex un bulciÅ†as ON!,56.97111129760742,24.15896987915039,African Restaurant
627,56.9751,24.155788235294118,4,3,51bb06cf498ed8ebfcab7cf6,Chechaco,56.970792,24.157597,Eastern European Restaurant
628,56.9751,24.174023529411766,8,0,5a5dced935811b435b253008,Wok Street,56.97407,24.169077,Asian Restaurant
629,56.9751,24.174023529411766,8,1,55b1a886498e8379c3fe2c48,Kates rezidence teikÄ,56.978430861776324,24.17608933220443,African Restaurant
630,56.9751,24.174023529411766,8,2,4e96be005503e24777b99340,Afrodite Cafe,56.97298042392901,24.167937549556388,Australian Restaurant
631,56.9751,24.174023529411766,8,3,5358b57a498eaff20fd9cd5a,boÅ†uks,56.97783586170032,24.173486268839298,Afghan Restaurant
632,56.9751,24.174023529411766,8,4,510d084ee4b05ed0df7dc38c,yohji,56.974205017089844,24.17243194580078,Eastern European Restaurant
633,56.9751,24.174023529411766,8,5,541ffb0c498e871a2c068e0d,YOHJI restaurant - infinity fitness spa&healt club,56.974285,24.172222,Modern European Restaurant
634,56.9751,24.174023529411766,8,6,52ef951b11d242fa3b802b0e,"KafejnÄ«ca ""Pie LodziÅ†a""",56.972161811540424,24.172933335388343,Modern European Restaurant
635,56.9751,24.174023529411766,8,7,587d0caf01621707cc473278,B9 vakarinas,56.97251,24.167921,Italian Restaurant
636,56.9751,24.19225882352941,5,0,56010a78498e2c01aa9cbe67,RTV Ä“dnÄ«ca,56.97633709832628,24.184526921091777,Cambodian Restaurant
637,56.9751,24.19225882352941,5,1,56fd64f9498e1d867361afde,Ğ¥Ğ¾Ğ»Ğ¾Ğ´Ğ¸Ğ»ÑŒĞ½Ğ¸Ğº ĞœĞ¾Ğ¹ Ğ›ÑĞ±Ğ¸Ğ¼Ñ‹Ğ¹,56.97812,24.190928,Modern European Restaurant
638,56.9751,24.19225882352941,5,2,528b5fa811d2930120ff3563,Valta Chill spots,56.976257,24.185081,American Restaurant
639,56.9751,24.19225882352941,5,3,574e7ef8498eda528cc4f47f,Alexx Pagalma ZaborÅ†iks,56.974424158764926,24.188033469035915,Sushi Restaurant
640,56.9751,24.19225882352941,5,4,5321d6e0498e4f169482408b,ceplis,56.972151860544784,24.186963810985123,African Restaurant
641,56.9751,24.21049411764706,1,0,5415d0d5498ec124d5f40f87,darzciema kaulainais koks,56.97813034057617,24.21457862854004,American Restaurant
642,56.9751,24.228729411764707,6,0,57c52f49498e6998bdfb0d93,Italijaa,56.973779,24.236621,Italian Restaurant
643,56.9751,24.228729411764707,6,1,57c52f89498ecbc36b18e027,virtuves plaukts,56.97388,24.236655,Italian Restaurant
644,56.9751,24.228729411764707,6,2,56e46b9f498e8b403fa924ad,mammas maÅ¡Ä«na,56.973072,24.232056,African Restaurant
645,56.9751,24.228729411764707,6,3,57c5300acd102e70aa57bd05,Ğ½Ğ¾,56.973808,24.236401,Italian Restaurant
646,56.9751,24.228729411764707,6,4,57c52fc7498ecd018ae9473e,virtuves plaukti,56.973873,24.236395,Italian Restaurant
647,56.9751,24.228729411764707,6,5,53e546c8498ec9c3ab44d433,u Denisa karoc,56.97148895263672,24.23299217224121,Arepa Restaurant
648,56.9751,24.246964705882352,9,0,589df59a34935555b05b7422,Samantas Virtuve,56.977062,24.251272,American Restaurant
649,56.9751,24.246964705882352,9,1,50a4c944e4b016b109bb4076,Ezerkrastu Ä’dnÄ«ca,56.97473550174545,24.252407701960188,Asian Restaurant
650,56.9751,24.246964705882352,9,2,563df096cd107e7ca4bb555b,Baibas ĞºÑƒÑ…Ğ½Ñ ğŸ´ğŸ³,56.973212357476136,24.241328801561824,Burrito Place
651,56.9751,24.246964705882352,9,3,55598284498e02e9b03ec737,RSMPV Caffe,56.97849134461247,24.251161268492606,Asian Restaurant
652,56.9751,24.246964705882352,9,4,56b8d34e498eb46e0f71e574,5. StÄva restorÄns ğŸâ˜•â¤,56.97258,24.24014,French Restaurant
653,56.9751,24.246964705882352,9,5,556047d2498e139d8ea5894c,"""GET SMART CAFE""",56.97594451904297,24.253765106201172,American Restaurant
654,56.9751,24.246964705882352,9,6,56b47324498e1798d193aeaf,Patrishas hata,56.97523,24.250515,Afghan Restaurant
655,56.9751,24.246964705882352,9,7,568d44de498ea13528764f7c,6.stÄva kafejnÄ«ca ğŸ‡«ğŸ‡·,56.97245780730958,24.240433103797834,French Restaurant
656,56.9751,24.246964705882352,9,8,56c1a4c5cd10a333b5803270,640 virtuve ğŸ´ğŸ•,56.97322926770812,24.24128133683574,Himalayan Restaurant
657,56.9751,24.2652,1,0,56e16a20cd1041ccaa2be963,sushibar,56.976288228065755,24.264446965374333,Sushi Restaurant
658,56.9846,24.119317647058825,1,0,56320427498e0433ca166e68,Zalas Ganibas,56.98070458429265,24.11667815416243,Eastern European Restaurant
659,56.9846,24.13755294117647,5,0,4bc9e3f3fb84c9b6b9d01b3e,Gan Bei,56.98729935693521,24.13167162593559,Sushi Restaurant
660,56.9846,24.13755294117647,5,1,5c1cc7d8a87921002c92e357,Singhâ€™s,56.987129,24.132071,Indian Restaurant
661,56.9846,24.13755294117647,5,2,52bc42f911d2dc72f260ea15,ganbei,56.985946737397114,24.133158027813987,Japanese Restaurant
662,56.9846,24.13755294117647,5,3,5698178a498ec7583dda4508,Folkklubs Ala Tualete,56.98682050013337,24.13577524017597,African Restaurant
663,56.9846,24.13755294117647,5,4,4d90e759830160fc6d746235,Odisejs,56.98383447997497,24.134902954101562,Eastern European Restaurant
664,56.9846,24.155788235294118,4,0,4fce5d10e4b083992e385c98,Wok Cafe,56.983109,24.158977,Asian Restaurant
665,56.9846,24.155788235294118,4,1,54218128498ead834b0c1653,alises hood,56.985088,24.156235,African Restaurant
666,56.9846,24.155788235294118,4,2,565bf959498e983dd14ff91b,MeÅ¾aparka Balle,56.986572265625,24.158708572387695,American Restaurant
667,56.9846,24.155788235294118,4,3,56d44abecd10a69f3fca5f77,Coolio Pagalms,56.98381538745147,24.16355109244065,Australian Restaurant
668,56.9846,24.174023529411766,1,0,55ba0765498e7822b3ff5f5a,ZaÄ¼ais DÄ«vÄns ğŸ˜‚ ğŸ’ª,56.987155175100426,24.17256841974511,Asian Restaurant
669,56.9846,24.19225882352941,5,0,4cfe242a7f2db1f70e943bd4,Hesburger,56.981528976320995,24.192629747570617,Fast Food Restaurant
670,56.9846,24.19225882352941,5,1,563b8c1acd10e0c62ef09ac2,Omes ledusskapis â¤ï¸,56.98244517405615,24.19669250419599,American Restaurant
671,56.9846,24.19225882352941,5,2,51f781cb498eb6d6be3c4022,Ãœbers Paiko,56.987998859128865,24.191970222823194,Eastern European Restaurant
672,56.9846,24.19225882352941,5,3,57eeb2ae498e757715224683,Lohi,56.980736,24.193117,American Restaurant
673,56.9846,24.19225882352941,5,4,57d03dd4498e4ddd91762939,Alfa,56.98132,24.197697,Burmese Restaurant
674,56.9846,24.21049411764706,12,0,5d7243458df5ec0008a3c684,Lido | Alfa,56.982849,24.205177,Fast Food Restaurant
675,56.9846,24.21049411764706,12,1,5899d4a2326c5a0cf1abc55a,Ä’diena paradÄ«ze,56.984891,24.204131,Asian Restaurant
676,56.9846,24.21049411764706,12,2,5a1ebd1491eaca49f2b5930e,El Machete | Alfa,56.982384,24.205008,Mexican Restaurant
677,56.9846,24.21049411764706,12,3,57432a74498e01142a5a02d9,No,56.986633,24.213911,Dim Sum Restaurant
678,56.9846,24.21049411764706,12,4,5dbf08f349c3d90008faca30,Bento Sushi,56.983334,24.205193,Sushi Restaurant
679,56.9846,24.21049411764706,12,5,598f0bacd807ee5ed186b422,Machete,56.982563,24.203785,Mexican Restaurant
680,56.9846,24.21049411764706,12,6,4eafbc06f5b99d24263a42ba,Woki Toki,56.98248708306991,24.20526426277605,Chinese Restaurant
681,56.9846,24.21049411764706,12,7,4bf129d817880f47cbf82937,Gan Bei,56.982418692823614,24.205002894880543,Asian Restaurant
682,56.9846,24.21049411764706,12,8,565c6986498e5e36e6bd008a,Jugla,56.98545270430585,24.209184602290968,Cambodian Restaurant
683,56.9846,24.21049411764706,12,9,4feedb8de4b0647d7c63211f,Turk Kebab,56.983522057534856,24.204810399844416,Kebab Restaurant
684,56.9846,24.21049411764706,12,10,55f2ce65498e93d5f9023785,Zivs Dibens ğŸ ,56.980784384475584,24.212185036795862,Australian Restaurant
685,56.9846,24.21049411764706,12,11,5672f81a498e8b94b978b5ed,Alfas woki Toki,56.98646466657549,24.20719072431365,Asian Restaurant
686,56.9846,24.228729411764707,1,0,54f61a41498ef7d80422d016,Virtuve kur viss ir vislabÄk ğŸŸğŸ”,56.985965408611584,24.227088751930726,American Restaurant
687,56.9846,24.246964705882352,7,0,55706788498ecafe50987ce4,nikolas house,56.985277,24.244693,Austrian Restaurant
688,56.9846,24.246964705882352,7,1,508eb300e4b0504e33503ea6,Eida hood,56.987247467041016,24.25331687927246,Caribbean Restaurant
689,56.9846,24.246964705882352,7,2,560a66b6498e6ee56a066b1a,rjv mazÄs skolas sporta zÄle,56.9822428892732,24.248678936428014,Asian Restaurant
690,56.9846,24.246964705882352,7,3,57ab39b5498e8fc30bd59328,Vinetas kotleÅ¡u namiÅ†Å¡,56.981632,24.24638,Caribbean Restaurant
691,56.9846,24.246964705882352,7,4,561f2c9a498ea19570a037bf,Virtuve. ğŸ˜,56.98456975568871,24.24223103761496,New American Restaurant
692,56.9846,24.246964705882352,7,5,51683b26e4b00191987829ec,Salieri restorÄns,56.98308294653678,24.249181148894017,Portuguese Restaurant
693,56.9846,24.246964705882352,7,6,564f4d61498e222d852669cb,Mikrorajons | Jugla,56.9858512878418,24.24489402770996,Afghan Restaurant
694,56.994099999999996,24.119317647058825,1,0,5740a0d8498e60c1cc41a761,Pie velniÅ†a kokÄ,56.995121,24.124084,Sushi Restaurant
695,56.994099999999996,24.13755294117647,1,0,4c98caa04804a1430585ee0e,Å irhans,56.99600199090903,24.13261081128842,Middle Eastern Restaurant
696,56.994099999999996,24.174023529411766,1,0,55ee9102498ee0668ba0dbe3,Celjaa uz skolu ğŸ˜–ğŸ˜–ğŸ˜–,56.993465196539944,24.179881696464175,Caribbean Restaurant
697,56.994099999999996,24.228729411764707,1,0,56e6c670498ec9e0d6d44159,Restorans*,56.99265,24.230253,Filipino Restaurant
698,56.994099999999996,24.246964705882352,1,0,56a6055b498e2c2c7a2368aa,Mareka NetÄ«rÄ VirtuveğŸŠğŸ‰ğŸğŸŸğŸğŸ–ğŸ—ğŸ”ğŸ³ğŸ»ğŸ·ğŸµ,56.99294702354852,24.24248517299346,New American Restaurant
699,56.994099999999996,24.2652,2,0,51a9a335498e00f388fd8c4d,BrÄÄ¼a telts,56.990856,24.269658,American Restaurant
700,56.994099999999996,24.2652,2,1,57be979338faf7b0f6f93523,ElÄ“na's kuhÅ†aa,56.996271,24.270839,American Restaurant
701,57.0036,24.101082352941177,1,0,5245531611d28a6acf2b3500,RestorÄns Pie ResnÄs,57.005427,24.104542,Afghan Restaurant
702,57.0036,24.155788235294118,1,0,551d221e498e614682944cc0,Ibija Cafe,57.000301361083984,24.159685134887695,American Restaurant
703,57.0036,24.174023529411766,2,0,51f2c185498e9390410e9f7a,Keizarmeza Terase,57.00319290161133,24.177858352661133,Eastern European Restaurant
704,57.0036,24.174023529411766,2,1,5532761c498ed9e3d67ad19a,KÄrÄ¼a Lielais Ledusskapis,57.00431693644523,24.166617620128477,Eastern European Restaurant
705,57.0036,24.2652,1,0,51d6832b498e009c3bf0c057,Tetamammas Palace,57.00682824433973,24.268715896860307,Eastern European Restaurant
706,57.013099999999994,24.119317647058825,1,0,53cf7cf0498e5672a50c0e92,Zabigalofka,57.00962080916056,24.122973655253904,Russian Restaurant
707,57.013099999999994,24.155788235294118,2,0,559f9f7c498eaf96e36303ef,MeÅ¾aparka Food Zone,57.013435792005836,24.156663650477345,Ethiopian Restaurant
708,57.013099999999994,24.155788235294118,2,1,4f96c47fe4b0b10b9cbabf3b,Kabuki,57.0133914822156,24.160278996690725,African Restaurant
709,57.0226,23.991670588235294,1,0,5749757c498e3402fa938b44,Dzintara KafeinÄ«ca,57.023983,23.994022,American Restaurant
710,57.0226,24.246964705882352,1,0,573f58f4498ee00a30d79f86,pasÄ“dÄ“Å¡ana ar odiem,57.024471,24.248749,Taco Place
711,57.0226,24.2652,2,0,57434ff9498ec610cad77349,SvÄ“tku galdsğŸ‚ğŸˆ,57.023939,24.265049,Italian Restaurant
712,57.0226,24.2652,2,1,572a3b39498eedbbe6daba0e,Kur top mÄjasdarbiğŸ“šğŸ˜‘,57.024026,24.265054,Mexican Restaurant
713,57.0321,24.046376470588235,1,0,526ea00b498e60aae02b1b9e,Gvatar,57.032659630020206,24.04778555914062,Turkish Restaurant
714,57.0321,24.101082352941177,5,0,5793aad2498edc50e46bdd8b,Kuhnya Lyubimogo,57.034348,24.101463,Caribbean Restaurant
715,57.0321,24.101082352941177,5,1,5370aff011d2034c97c13ed2,* Keitijas music studio or just virtuve *,57.030879974365234,24.10773468017578,African Restaurant
716,57.0321,24.101082352941177,5,2,53664a21498ef8bbfd029a30,Katana SuÅ¡Ä« BÄrs,57.035393053502354,24.09854414117393,Asian Restaurant
717,57.0321,24.101082352941177,5,3,4fce21bce4b030cb09cd4206,Sendai Sushi,57.033837599209235,24.10130847692458,Sushi Restaurant
718,57.0321,24.101082352941177,5,4,57305a06498e935b4220e638,TreÅ¡Ä stÄva gaitenis,57.03146,24.102861,Sushi Restaurant
719,57.0321,24.119317647058825,3,0,51ffdfe1498e8817c1e1ea62,ganbei,57.0325187473294,24.117213704871663,Japanese Restaurant
720,57.0321,24.119317647058825,3,1,4d512bf29ffc236a841320a7,Nika,57.03551901118064,24.118455090552303,Bar
721,57.0321,24.119317647058825,3,2,5566f5bf498e808c26e0b10f,Vilciens ZemitÄni - Lilaste,57.03448516600383,24.125511807453968,Afghan Restaurant
722,57.041599999999995,24.02814117647059,1,0,5f301b7f610f03719f73f85e,Turku Virtuve Sabina,57.041003,24.030392,Turkish Restaurant
723,57.041599999999995,24.046376470588235,1,0,513468a9e4b07cce54437df4,jurskolas ednica,57.03800034062994,24.0498991705595,Vietnamese Restaurant
724,57.041599999999995,24.101082352941177,1,0,56cd61f0498ed9b8c60f84eb,Help,57.03788521770329,24.098247462116554,American Restaurant
725,57.0511,24.064611764705884,1,0,55fd0ac6498e02b96812f765,Fvhnn,57.05291748046875,24.066242218017578,Australian Restaurant
726,57.0511,24.174023529411766,1,0,5607a274498e5d8af30dd0f3,Å¡efpavÄra A.M. virtuve,57.0543212890625,24.168607711791992,Modern European Restaurant
727,57.0701,24.101082352941177,1,0,513a26c9e4b054473b1a1c67,Piazza Arcade,57.071678299463656,24.09985263627967,Italian Restaurant
728,57.0796,24.101082352941177,2,0,5947d28c08815818ea5bcbb6,RestorÄns PromenÄde,57.08053980308538,24.108123779296875,Eastern European Restaurant
729,57.0796,24.101082352941177,2,1,574b2da3498ea9ee01e6bc66,"KafejnÄ«ca ""PromenÄde""",57.07996547578696,24.10841345787048,American Restaurant
730,57.0796,24.119317647058825,1,0,5666e249498e560b4e10e27a,Ä’damÄ zonağŸ˜‹,57.08013153076172,24.11883544921875,American Restaurant
731,57.0796,24.155788235294118,1,0,501b8a78e4b01951efd1479b,Veikals-BÄrs,57.082027738083774,24.159107614467317,Arepa Restaurant
